"STATION","DATE","SOURCE","LATITUDE","LONGITUDE","ELEVATION","NAME","REPORT_TYPE","CALL_SIGN","QUALITY_CONTROL","WND","CIG","VIS","TMP","DEW","SLP","GA1","GA2","GA3","GF1","KA1","MA1","MW1","MW2","OC1","REM","EQD"
"08515599999","2010-01-16T16:00:00","4","39.092169","-28.029847","26.21","GRACIOSA, PO","FM-15","LPGR ","V020","070,1,N,0026,1","99999,9,C,N","011265,1,N,1","+0150,1","+0090,1","99999,9","02,5,+00480,1,99,9","04,5,+06300,1,99,9",,"04,99,1,99,9,99,9,99999,9,99,9,99,9",,"10159,1,99999,9",,,,"MET081METAR LPGR 161600Z 07005KT 9999 FEW016 SCT210 15/09 Q1016 RMK WIND RWY09 08008KT;","P01 063003SCOCIG"
"08515599999","2010-01-16T17:00:00","4","39.092169","-28.029847","26.21","GRACIOSA, PO","FM-15","LPGR ","V020","070,1,N,0021,1","22000,1,9,N","011265,1,N,1","+0140,1","+0090,1","99999,9","02,5,+00480,1,99,9",,,"02,99,1,99,9,99,9,99999,9,99,9,99,9",,"10159,1,99999,9",,,,"MET074METAR LPGR 161700Z 07004KT 9999 FEW016 14/09 Q1016 RMK WIND RWY09 05008KT;",
"08515599999","2010-01-16T18:00:00","4","39.092169","-28.029847","26.21","GRACIOSA, PO","FM-15","LPGR ","V020","090,1,N,0021,1","22000,1,9,N","011265,1,N,1","+0140,1","+0090,1","99999,9","02,5,+00480,1,99,9",,,"02,99,1,99,9,99,9,99999,9,99,9,99,9",,"10159,1,99999,9",,,,"MET074METAR LPGR 161800Z 09004KT 9999 FEW016 14/09 Q1016 RMK WIND RWY09 08007KT;",
"08515599999","2010-01-17T16:00:00","4","39.092169","-28.029847","26.21","GRACIOSA, PO","FM-15","LPGR ","V020","300,1,N,0010,1","22000,1,9,N","011265,1,N,1","+0150,1","+0070,1","99999,9","02,5,+00600,1,99,9",,,"02,99,1,99,9,99,9,99999,9,99,9,99,9",,"10169,1,99999,9",,,,"MET074METAR LPGR 171600Z 30002KT 9999 FEW020 15/07 Q1017 RMK WIND RWY09 02006KT;",
"08515599999","2010-01-17T17:00:00","4","39.092169","-28.029847","26.21","GRACIOSA, PO","FM-15","LPGR ","V020","320,1,N,0021,1","22000,1,9,N","011265,1,N,1","+0140,1","+0060,1","99999,9","02,5,+00600,1,99,9",,,"02,99,1,99,9,99,9,99999,9,99,9,99,9",,"10180,1,99999,9",,,,"MET074METAR LPGR 171700Z 32004KT 9999 FEW020 14/06 Q1018 RMK WIND RWY09 33006KT;",
"08515599999","2010-01-17T18:00:00","4","39.092169","-28.029847","26.21","GRACIOSA, PO","FM-15","LPGR ","V020","290,1,N,0015,1","22000,1,9,N","011265,1,N,1","+0140,1","+0060,1","99999,9","02,5,+00600,1,99,9",,,"02,99,1,99,9,99,9,99999,9,99,9,99,9",,"10180,1,99999,9",,,,"MET074METAR LPGR 171800Z 29003KT 9999 FEW020 14/06 Q1018 RMK WIND RWY09 26004KT;",
"08515599999","2010-01-18T10:00:00","4","39.092169","-28.029847","26.21","GRACIOSA, PO","FM-15","LPGR ","V020","230,1,N,0123,1","22000,1,9,N","011265,1,N,1","+0140,1","+0110,1","99999,9","02,5,+00480,1,99,9",,,"02,99,1,99,9,99,9,99999,9,99,9,99,9",,"10129,1,99999,9",,,,"MET074METAR LPGR 181000Z 23024KT 9999 FEW016 14/11 Q1013 RMK WIND RWY09 22024KT;",
"08515599999","2010-01-18T11:00:00","4","39.092169","-28.029847","26.21","GRACIOSA, PO","FM-15","LPGR ","V020","230,1,N,0123,1","22000,1,9,N","011265,1,N,1","+0150,1","+0110,1","99999,9","02,5,+00480,1,99,9",,,"02,99,1,99,9,99,9,99999,9,99,9,99,9",,"10129,1,99999,9",,,,"MET077METAR LPGR 181100Z 23024KT 9999 FEW016 15/11 Q1013 RMK WIND RWY09 22023G34KT;",
"08515599999","2010-01-18T12:00:00","4","39.092169","-28.029847","26.21","GRACIOSA, PO","FM-15","LPGR ","V020","230,1,N,0118,1","22000,1,9,N","011265,1,N,1","+0150,1","+0120,1","99999,9","02,5,+00480,1,99,9",,,"02,99,1,99,9,99,9,99999,9,99,9,99,9",,"10129,1,99999,9",,,,"MET077METAR LPGR 181200Z 23023KT 9999 FEW016 15/12 Q1013 RMK WIND RWY09 23021G31KT;",
"08515599999","2010-01-19T11:00:00","4","39.092169","-28.029847","26.21","GRACIOSA, PO","FM-15","LPGR ","V020","260,1,N,0103,1","06300,1,C,N","011265,1,N,1","+0130,1","+0080,1","99999,9","02,5,+00480,1,99,9","07,5,+06300,1,99,9",,"07,99,1,99,9,99,9,99999,9,99,9,99,9",,"10169,1,99999,9",,,,"MET081METAR LPGR 191100Z 26020KT 9999 FEW016 BKN210 13/08 Q1017 RMK WIND RWY09 25021KT;",
"08515599999","2010-01-19T12:00:00","4","39.092169","-28.029847","26.21","GRACIOSA, PO","FM-15","LPGR ","V020","270,1,N,0118,1","06300,1,C,N","011265,1,N,1","+0140,1","+0090,1","99999,9","02,5,+00480,1,99,9","07,5,+06300,1,99,9",,"07,99,1,99,9,99,9,99999,9,99,9,99,9",,"10180,1,99999,9",,,"0170,1","MET087METAR LPGR 191200Z 27023G33KT 9999 FEW016 BKN210 14/09 Q1018 RMK WIND RWY09 27020G30KT;",
"08515599999","2010-01-20T09:00:00","4","39.092169","-28.029847","26.21","GRACIOSA, PO","FM-15","LPGR ","V020","220,1,N,0098,1","02400,1,C,N","008000,1,N,1","+0160,1","+0140,1","99999,9","04,5,+00420,1,99,9","08,5,+02400,1,99,9",,"08,99,1,99,9,99,9,99999,9,99,9,99,9",,"10102,1,99999,9","61,1",,,"MET085METAR LPGR 200900Z 22019KT 8000 -RA SCT014 OVC080 16/14 Q1010 RMK WIND RWY09 21020KT;",
"08515599999","2010-01-20T10:00:00","4","39.092169","-28.029847","26.21","GRACIOSA, PO","FM-15","LPGR ","V020","220,1,N,0129,1","02400,1,C,N","006000,1,N,1","+0150,1","+0130,1","99999,9","04,5,+00420,1,99,9","08,5,+02400,1,99,9",,"08,99,1,99,9,99,9,99999,9,99,9,99,9",,"10102,1,99999,9","61,1",,,"MET085METAR LPGR 201000Z 22025KT 6000 -RA SCT014 OVC080 15/13 Q1010 RMK WIND RWY09 21020KT;",
"08515599999","2010-01-20T15:00:00","4","39.092169","-28.029847","26.21","GRACIOSA, PO","FM-15","LPGR ","V020","230,1,N,0149,1","00900,1,C,N","011265,1,N,1","+0170,1","+0140,1","99999,9","02,5,+00420,1,99,9","07,5,+00900,1,99,9",,"07,99,1,99,9,99,9,99999,9,99,9,99,9",,"10071,1,99999,9",,,"0226,1","MET087METAR LPGR 201500Z 23029G44KT 9999 FEW014 BKN030 17/14 Q1007 RMK WIND RWY09 22028G44KT;",
"08515599999","2010-01-20T16:00:00","4","39.092169","-28.029847","26.21","GRACIOSA, PO","FM-15","LPGR ","V020","230,1,N,0154,1","02100,1,C,N","002000,1,N,1","+0170,1","+0140,1","99999,9","04,5,+00420,1,99,9","08,5,+02100,1,99,9",,"08,99,1,99,9,99,9,99999,9,99,9,99,9",,"10061,1,99999,9","63,1",,"0231,1","MET090METAR LPGR 201600Z 23030G45KT 2000 RA SCT014 OVC070 17/14 Q1006 RMK WIND RWY09 22031G50KT;",
"08515599999","2010-01-20T17:00:00","4","39.092169","-28.029847","26.21","GRACIOSA, PO","FM-15","LPGR ","V020","230,1,N,0154,1","02100,1,C,N","006000,1,N,1","+0160,1","+0140,1","99999,9","04,5,+00420,1,99,9","08,5,+02100,1,99,9",,"08,99,1,99,9,99,9,99999,9,99,9,99,9",,"10061,1,99999,9","61,1",,"0226,1","MET091METAR LPGR 201700Z 23030G44KT 6000 -RA SCT014 OVC070 16/14 Q1006 RMK WIND RWY09 22031G44KT;",
"08515599999","2010-01-20T18:00:00","4","39.092169","-28.029847","26.21","GRACIOSA, PO","FM-15","LPGR ","V020","230,1,N,0154,1","00360,1,C,N","005000,1,N,1","+0160,1","+0150,1","99999,9","07,5,+00360,1,99,9",,,"07,99,1,99,9,99,9,99999,9,99,9,99,9",,"10061,1,99999,9","80,1",,"0206,1","MET086METAR LPGR 201800Z 23030G40KT 5000 -SHRA BKN012 16/15 Q1006 RMK WIND RWY09 23026G41KT;",
"08515599999","2010-01-21T10:00:00","4","39.092169","-28.029847","26.21","GRACIOSA, PO","FM-15","LPGR ","V020","320,1,N,0041,1","06300,1,C,N","011265,1,N,1","+0130,1","+0090,1","99999,9","02,5,+00420,1,99,9","07,5,+06300,1,99,9",,"07,99,1,99,9,99,9,99999,9,99,9,99,9",,"10149,1,99999,9",,,,"MET081METAR LPGR 211000Z 32008KT 9999 FEW014 BKN210 13/09 Q1015 RMK WIND RWY09 31010KT;",
"08515599999","2010-01-21T11:00:00","4","39.092169","-28.029847","26.21","GRACIOSA, PO","FM-15","LPGR ","V020","340,1,N,0051,1","06300,1,C,N","011265,1,N,1","+0120,1","+0100,1","99999,9","04,5,+00420,1,99,9","07,5,+06300,1,99,9",,"07,99,1,99,9,99,9,99999,9,99,9,99,9",,"10149,1,99999,9",,,,"MET081METAR LPGR 211100Z 34010KT 9999 SCT014 BKN210 12/10 Q1015 RMK WIND RWY09 32013KT;",
"08515599999","2010-01-21T12:00:00","4","39.092169","-28.029847","26.21","GRACIOSA, PO","FM-15","LPGR ","V020","340,1,N,0041,1","99999,9,C,N","011265,1,N,1","+0130,1","+0090,1","99999,9","02,5,+00420,1,99,9","04,5,+06300,1,99,9",,"04,99,1,99,9,99,9,99999,9,99,9,99,9",,"10159,1,99999,9",,,,"MET081METAR LPGR 211200Z 34008KT 9999 FEW014 SCT210 13/09 Q1016 RMK WIND RWY09 31010KT;","P01 063003SCOCIG"
"08515599999","2010-01-21T14:00:00","4","39.092169","-28.029847","26.21","GRACIOSA, PO","FM-15","LPGR ","V020","320,1,N,0041,1","22000,1,9,N","011265,1,N,1","+0140,1","+0090,1","99999,9","02,5,+00420,1,99,9",,,"02,99,1,99,9,99,9,99999,9,99,9,99,9",,"10169,1,99999,9",,,,"MET074METAR LPGR 211400Z 32008KT 9999 FEW014 14/09 Q1017 RMK WIND RWY09 31008KT;",
"08515599999","2010-01-21T15:00:00","4","39.092169","-28.029847","26.21","GRACIOSA, PO","FM-15","LPGR ","V020","330,1,N,0026,1","00900,1,C,N","011265,1,N,1","+0120,1","+0090,1","99999,9","04,5,+00420,1,99,9","07,5,+00900,1,99,9",,"07,99,1,99,9,99,9,99999,9,99,9,99,9",,"10159,1,99999,9",,,,"MET081METAR LPGR 211500Z 33005KT 9999 SCT014 BKN030 12/09 Q1016 RMK WIND RWY09 33007KT;",
"08515599999","2010-01-21T16:00:00","4","39.092169","-28.029847","26.21","GRACIOSA, PO","FM-15","LPGR ","V020","320,1,N,0026,1","99999,9,C,N","011265,1,N,1","+0130,1","+0100,1","99999,9","02,5,+00420,1,99,9","04,5,+00900,1,99,9",,"04,99,1,99,9,99,9,99999,9,99,9,99,9",,"10159,1,99999,9",,,,"MET081METAR LPGR 211600Z 32005KT 9999 FEW014 SCT030 13/10 Q1016 RMK WIND RWY09 31004KT;","P01 009003SCOCIG"
"08515599999","2010-01-22T13:00:00","4","39.092169","-28.029847","26.21","GRACIOSA, PO","FM-15","LPGR ","V020","180,1,N,0062,1","22000,1,9,N","011265,1,N,1","+0150,1","+0080,1","99999,9","02,5,+00480,1,99,9",,,"02,99,1,99,9,99,9,99999,9,99,9,99,9",,"10220,1,99999,9",,,,"MET074METAR LPGR 221300Z 18012KT 9999 FEW016 15/08 Q1022 RMK WIND RWY09 17009KT;",
"08515599999","2010-01-22T14:00:00","4","39.092169","-28.029847","26.21","GRACIOSA, PO","FM-15","LPGR ","V020","190,1,N,0051,1","22000,1,9,N","011265,1,N,1","+0140,1","+0080,1","99999,9","02,5,+00480,1,99,9",,,"02,99,1,99,9,99,9,99999,9,99,9,99,9",,"10220,1,99999,9",,,,"MET074METAR LPGR 221400Z 19010KT 9999 FEW016 14/08 Q1022 RMK WIND RWY09 20010KT;",
"08515599999","2010-01-23T16:00:00","4","39.092169","-28.029847","26.21","GRACIOSA, PO","FM-15","LPGR ","V020","090,1,N,0026,1","06300,1,C,N","011265,1,N,1","+0160,1","+0090,1","99999,9","02,5,+00540,1,99,9","07,5,+06300,1,99,9",,"07,99,1,99,9,99,9,99999,9,99,9,99,9","999,M,+9999,9","10220,1,99999,9",,,,"MET081METAR LPGR 231600Z 09005KT 9999 FEW018 BKN210 16/09 Q1022 RMK WIND RWY09 11006KT;","Q01 -00062ATMX  "
"08515599999","2010-01-23T17:00:00","4","39.092169","-28.029847","26.21","GRACIOSA, PO","FM-15","LPGR ","V020","120,1,N,0026,1","06000,1,C,N","011265,1,N,1","+0150,1","+0080,1","99999,9","02,5,+00540,1,99,9","07,5,+06000,1,99,9",,"07,99,1,99,9,99,9,99999,9,99,9,99,9","999,M,+9999,9","10230,1,99999,9",,,,"MET081METAR LPGR 231700Z 12005KT 9999 FEW018 BKN200 15/08 Q1023 RMK WIND RWY09 10006KT;","Q01 +00062ATMX  "
"08515599999","2010-01-24T16:00:00","4","39.092169","-28.029847","26.21","GRACIOSA, PO","FM-15","LPGR ","V020","190,1,N,0077,1","00900,1,C,N","011265,1,N,1","+0170,1","+0120,1","99999,9","02,5,+00480,1,99,9","07,5,+00900,1,99,9",,"07,99,1,99,9,99,9,99999,9,99,9,99,9",,"10230,1,99999,9",,,,"MET081METAR LPGR 241600Z 19015KT 9999 FEW016 BKN030 17/12 Q1023 RMK WIND RWY09 19018KT;",
"08515599999","2010-01-24T17:00:00","4","39.092169","-28.029847","26.21","GRACIOSA, PO","FM-15","LPGR ","V020","190,1,N,0077,1","06300,1,C,N","011265,1,N,1","+0170,1","+0120,1","99999,9","02,5,+00480,1,99,9","07,5,+06300,1,99,9",,"07,99,1,99,9,99,9,99999,9,99,9,99,9",,"10230,1,99999,9",,,,"MET081METAR LPGR 241700Z 19015KT 9999 FEW016 BKN210 17/12 Q1023 RMK WIND RWY09 19018KT;",
"08515599999","2010-01-25T10:00:00","4","39.092169","-28.029847","26.21","GRACIOSA, PO","FM-15","LPGR ","V020","170,1,N,0093,1","02700,1,C,N","011265,1,N,1","+0160,1","+0120,1","99999,9","02,5,+00420,1,99,9","07,5,+02700,1,99,9",,"07,99,1,99,9,99,9,99999,9,99,9,99,9",,"10190,1,99999,9",,,,"MET084METAR LPGR 251000Z 17018KT 9999 FEW014 BKN090 16/12 Q1019 RMK WIND RWY09 19022G34KT;",
"08515599999","2010-01-25T11:00:00","4","39.092169","-28.029847","26.21","GRACIOSA, PO","FM-15","LPGR ","V020","190,1,N,0118,1","02700,1,C,N","011265,1,N,1","+0150,1","+0130,1","99999,9","02,5,+00420,1,99,9","07,5,+02700,1,99,9",,"07,99,1,99,9,99,9,99999,9,99,9,99,9",,"10190,1,99999,9",,,"0185,1","MET087METAR LPGR 251100Z 19023G36KT 9999 FEW014 BKN090 15/13 Q1019 RMK WIND RWY09 18020G33KT;",
"08515599999","2010-01-25T12:00:00","4","39.092169","-28.029847","26.21","GRACIOSA, PO","FM-15","LPGR ","V020","160,1,N,0082,1","02700,1,C,N","011265,1,N,1","+0160,1","+0130,1","99999,9","02,5,+00420,1,99,9","07,5,+02700,1,99,9",,"07,99,1,99,9,99,9,99999,9,99,9,99,9",,"10190,1,99999,9",,,"0134,1","MET087METAR LPGR 251200Z 16016G26KT 9999 FEW014 BKN090 16/13 Q1019 RMK WIND RWY09 16018G32KT;",
"08515599999","2010-01-25T13:00:00","4","39.092169","-28.029847","26.21","GRACIOSA, PO","FM-15","LPGR ","V020","190,1,N,0139,1","02700,1,C,N","011265,1,N,1","+0160,1","+0130,1","99999,9","02,5,+00420,1,99,9","07,5,+02700,1,99,9",,"07,99,1,99,9,99,9,99999,9,99,9,99,9",,"10180,1,99999,9",,,"0195,1","MET087METAR LPGR 251300Z 19027G38KT 9999 FEW014 BKN090 16/13 Q1018 RMK WIND RWY09 19032G45KT;",
"08515599999","2010-01-25T14:00:00","4","39.092169","-28.029847","26.21","GRACIOSA, PO","FM-15","LPGR ","V020","170,1,N,0082,1","00420,1,C,N","011265,1,N,1","+0160,1","+0130,1","99999,9","07,5,+00420,1,99,9","07,5,+02700,1,99,9",,"07,99,1,99,9,99,9,99999,9,99,9,99,9",,"10190,1,99999,9",,,"0134,1","MET087METAR LPGR 251400Z 17016G26KT 9999 BKN014 BKN090 16/13 Q1019 RMK WIND RWY09 14020G33KT;",
"08515599999","2010-01-26T10:00:00","4","39.092169","-28.029847","26.21","GRACIOSA, PO","FM-15","LPGR ","V020","160,1,N,0154,1","02400,1,C,N","011265,1,N,1","+0160,1","+0130,1","99999,9","04,5,+00390,1,99,9","08,5,+02400,1,99,9",,"08,99,1,99,9,99,9,99999,9,99,9,99,9",,"10139,1,99999,9",,,"0237,1","MET087METAR LPGR 261000Z 16030G46KT 9999 SCT013 OVC080 16/13 Q1014 RMK WIND RWY09 15022G38KT;",
"08515599999","2010-01-26T11:00:00","4","39.092169","-28.029847","26.21","GRACIOSA, PO","FM-15","LPGR ","V020","170,1,N,0165,1","02400,1,C,N","011265,1,N,1","+0160,1","+0130,1","99999,9","02,5,+00390,1,99,9","08,5,+02400,1,99,9",,"08,99,1,99,9,99,9,99999,9,99,9,99,9",,"10139,1,99999,9",,,"0247,1","MET087METAR LPGR 261100Z 17032G48KT 9999 FEW013 OVC080 16/13 Q1014 RMK WIND RWY09 16026G41KT;",
"08515599999","2010-01-26T12:00:00","4","39.092169","-28.029847","26.21","GRACIOSA, PO","FM-15","LPGR ","V020","170,1,N,0170,1","02400,1,C,N","011265,1,N,1","+0160,1","+0130,1","99999,9","04,5,+00420,1,99,9","08,5,+02400,1,99,9",,"08,99,1,99,9,99,9,99999,9,99,9,99,9",,"10149,1,99999,9",,,"0252,1","MET087METAR LPGR 261200Z 17033G49KT 9999 SCT014 OVC080 16/13 Q1015 RMK WIND RWY09 16028G44KT;",
"08515599999","2010-01-26T13:00:00","4","39.092169","-28.029847","26.21","GRACIOSA, PO","FM-15","LPGR ","V020","170,1,N,0149,1","02400,1,C,N","011265,1,N,1","+0160,1","+0130,1","99999,9","04,5,+00420,1,99,9","08,5,+02400,1,99,9",,"08,99,1,99,9,99,9,99999,9,99,9,99,9",,"10159,1,99999,9",,,"0221,1","MET087METAR LPGR 261300Z 17029G43KT 9999 SCT014 OVC080 16/13 Q1016 RMK WIND RWY09 16024G38KT;",
"08515599999","2010-01-27T09:00:00","4","39.092169","-28.029847","26.21","GRACIOSA, PO","FM-15","LPGR ","V020","120,1,N,0113,1","99999,9,C,N","011265,1,N,1","+0140,1","+0090,1","99999,9","02,5,+00450,1,99,9","04,5,+00900,1,99,9",,"04,99,1,99,9,99,9,99999,9,99,9,99,9","999,M,+9999,9","10251,1,99999,9",,,"0165,1","MET087METAR LPGR 270900Z 12022G32KT 9999 FEW015 SCT030 14/09 Q1025 RMK WIND RWY09 10020G30KT;","Q01 +00202ATMX  P01 009003SCOCIG"
"08515599999","2010-01-27T10:00:00","4","39.092169","-28.029847","26.21","GRACIOSA, PO","FM-15","LPGR ","V020","120,1,N,0129,1","22000,1,9,N","011265,1,N,1","+0140,1","+0090,1","99999,9","02,5,+00450,1,99,9",,,"02,99,1,99,9,99,9,99999,9,99,9,99,9","999,M,+9999,9","10261,1,99999,9",,,,"MET077METAR LPGR 271000Z 12025KT 9999 FEW015 14/09 Q1026 RMK WIND RWY09 11022G32KT;","Q01 -00222ATMX  "
"08515599999","2010-01-27T11:00:00","4","39.092169","-28.029847","26.21","GRACIOSA, PO","FM-15","LPGR ","V020","110,1,N,0113,1","00900,1,C,N","011265,1,N,1","+0140,1","+0090,1","99999,9","02,5,+00480,1,99,9","07,5,+00900,1,99,9",,"07,99,1,99,9,99,9,99999,9,99,9,99,9","999,M,+9999,9","10271,1,99999,9",,,,"MET081METAR LPGR 271100Z 11022KT 9999 FEW016 BKN030 14/09 Q1027 RMK WIND RWY09 10018KT;","Q01 +00182ATMX  "
"08515599999","2010-01-27T16:00:00","4","39.092169","-28.029847","26.21","GRACIOSA, PO","FM-15","LPGR ","V020","110,1,N,0118,1","99999,9,C,N","011265,1,N,1","+0160,1","+0110,1","99999,9","02,5,+00480,1,99,9","04,5,+00900,1,99,9",,"04,99,1,99,9,99,9,99999,9,99,9,99,9","999,M,+9999,9","10271,1,99999,9",,,,"MET081METAR LPGR 271600Z 11023KT 9999 FEW016 SCT030 16/11 Q1027 RMK WIND RWY09 10022KT;","Q01 +00222ATMX  P01 009003SCOCIG"
"08515599999","2010-01-27T17:00:00","4","39.092169","-28.029847","26.21","GRACIOSA, PO","FM-15","LPGR ","V020","110,1,N,0113,1","99999,9,C,N","011265,1,N,1","+0150,1","+0110,1","99999,9","02,5,+00480,1,99,9","04,5,+00900,1,99,9",,"04,99,1,99,9,99,9,99999,9,99,9,99,9","999,M,+9999,9","10271,1,99999,9",,,,"MET081METAR LPGR 271700Z 11022KT 9999 FEW016 SCT030 15/11 Q1027 RMK WIND RWY09 10022KT;","Q01 +00222ATMX  P01 009003SCOCIG"
"08515599999","2010-01-27T18:00:00","4","39.092169","-28.029847","26.21","GRACIOSA, PO","FM-15","LPGR ","V020","100,1,N,0103,1","22000,1,9,N","011265,1,N,1","+0150,1","+0110,1","99999,9","02,5,+00480,1,99,9",,,"02,99,1,99,9,99,9,99999,9,99,9,99,9","999,M,+9999,9","10281,1,99999,9",,,,"MET074METAR LPGR 271800Z 10020KT 9999 FEW016 15/11 Q1028 RMK WIND RWY09 10021KT;","Q01 +00212ATMX  "
"08515599999","2010-01-28T13:00:00","4","39.092169","-28.029847","26.21","GRACIOSA, PO","FM-15","LPGR ","V020","100,1,N,0103,1","22000,1,9,N","011265,1,N,1","+0150,1","+0100,1","99999,9","02,5,+00480,1,99,9",,,"02,99,1,99,9,99,9,99999,9,99,9,99,9",,"10271,1,99999,9",,,,"MET074METAR LPGR 281300Z 10020KT 9999 FEW016 15/10 Q1027 RMK WIND RWY09 09024KT;",
"08515599999","2010-01-28T14:00:00","4","39.092169","-28.029847","26.21","GRACIOSA, PO","FM-15","LPGR ","V020","100,1,N,0129,1","22000,1,9,N","011265,1,N,1","+0160,1","+0100,1","99999,9","02,5,+00480,1,99,9",,,"02,99,1,99,9,99,9,99999,9,99,9,99,9",,"10261,1,99999,9",,,,"MET074METAR LPGR 281400Z 10025KT 9999 FEW016 16/10 Q1026 RMK WIND RWY09 09026KT;",
"08515599999","2010-01-29T14:00:00","4","39.092169","-28.029847","26.21","GRACIOSA, PO","FM-15","LPGR ","V020","100,1,N,0093,1","01050,1,C,N","011265,1,N,1","+0150,1","+0100,1","99999,9","02,5,+00540,1,99,9","07,5,+01050,1,99,9",,"07,99,1,99,9,99,9,99999,9,99,9,99,9",,"10210,1,99999,9",,,,"MET076METAR LPGR 291400Z 10018KT 9999 FEW018 BKN035 15/10 Q1021 RMK RWY09 09018KT;",
"08515599999","2010-01-29T15:00:00","4","39.092169","-28.029847","26.21","GRACIOSA, PO","FM-15","LPGR ","V020","100,1,N,0093,1","01200,1,C,N","011265,1,N,1","+0150,1","+0100,1","99999,9","02,5,+00600,1,99,9","07,5,+01200,1,99,9",,"07,99,1,99,9,99,9,99999,9,99,9,99,9",,"10200,1,99999,9",,,,"MET076METAR LPGR 291500Z 10018KT 9999 FEW020 BKN040 15/10 Q1020 RMK RWY09 09020KT;",
"08515599999","2010-01-30T16:00:00","4","39.092169","-28.029847","26.21","GRACIOSA, PO","FM-15","LPGR ","V020","100,1,N,0098,1","22000,1,9,N","011265,1,N,1","+0150,1","+0120,1","99999,9","02,5,+00300,1,99,9",,,"02,99,1,99,9,99,9,99999,9,99,9,99,9",,"10119,1,99999,9",,,,"MET069METAR LPGR 301600Z 10019KT 9999 FEW010 15/12 Q1012 RMK RWY09 09018KT;",
"08515599999","2010-01-30T17:00:00","4","39.092169","-28.029847","26.21","GRACIOSA, PO","FM-15","LPGR ","V020","100,1,N,0093,1","22000,1,9,N","011265,1,N,1","+0150,1","+0110,1","99999,9","02,5,+00600,1,99,9",,,"02,99,1,99,9,99,9,99999,9,99,9,99,9",,"10119,1,99999,9",,,,"MET069METAR LPGR 301700Z 10018KT 9999 FEW020 15/11 Q1012 RMK RWY09 09019KT;",
"08515599999","2010-01-30T18:00:00","4","39.092169","-28.029847","26.21","GRACIOSA, PO","FM-15","LPGR ","V020","100,1,N,0093,1","22000,1,9,N","011265,1,N,1","+0150,1","+0110,1","99999,9","04,5,+00540,1,99,9",,,"04,99,1,99,9,99,9,99999,9,99,9,99,9",,"10119,1,99999,9",,,,"MET069METAR LPGR 301800Z 10018KT 9999 SCT018 15/11 Q1012 RNK RWY09 09019KT;",
"08515599999","2010-01-31T15:00:00","4","39.092169","-28.029847","26.21","GRACIOSA, PO","FM-15","LPGR ","V020","100,1,N,0067,1","01050,1,C,N","011265,1,N,1","+0150,1","+0100,1","99999,9","02,5,+00540,1,99,9","07,5,+01050,1,99,9",,"07,99,1,99,9,99,9,99999,9,99,9,99,9",,"10149,1,99999,9",,,,"MET076METAR LPGR 311500Z 10013KT 9999 FEW018 BKN035 15/10 Q1015 RMK RWY09 09014KT;",
"08515599999","2010-01-31T17:00:00","4","39.092169","-28.029847","26.21","GRACIOSA, PO","FM-15","LPGR ","V020","090,1,N,0067,1","01050,1,C,N","011265,1,N,1","+0160,1","+0100,1","99999,9","02,5,+00600,1,99,9","07,5,+01050,1,99,9",,"07,99,1,99,9,99,9,99999,9,99,9,99,9",,"10149,1,99999,9",,,,"MET076METAR LPGR 311700Z 09013KT 9999 FEW020 BKN035 16/10 Q1015 RMK RWY09 08013KT;",
"08515599999","2010-02-01T10:00:00","4","39.092169","-28.029847","26.21","GRACIOSA, PO","FM-15","LPGR ","V020","999,9,V,0015,1","99999,9,C,N","011265,1,N,1","+0110,1","+0090,1","99999,9","02,5,+00480,1,99,9","04,5,+00900,1,99,9",,"04,99,1,99,9,99,9,99999,9,99,9,99,9",,"10200,1,99999,9",,,,"MET076METAR LPGR 011000Z VRB03KT 9999 FEW016 SCT030 11/09 Q1020 RMK RWY09 VRB03KT;","P01 009003SCOCIG"
"08515599999","2010-02-01T11:00:00","4","39.092169","-28.029847","26.21","GRACIOSA, PO","FM-15","LPGR ","V020","150,1,N,0026,1","22000,1,9,N","011265,1,N,1","+0130,1","+0100,1","99999,9","02,5,+00480,1,99,9",,,"02,99,1,99,9,99,9,99999,9,99,9,99,9",,"10200,1,99999,9",,,,"MET069METAR LPGR 011100Z 15005KT 9999 FEW016 13/10 Q1020 RMK RWY09 13004KT;",
"08515599999","2010-02-01T12:00:00","4","39.092169","-28.029847","26.21","GRACIOSA, PO","FM-15","LPGR ","V020","140,1,N,0026,1","00900,1,C,N","011265,1,N,1","+0130,1","+0100,1","99999,9","02,5,+00480,1,99,9","07,5,+00900,1,99,9",,"07,99,1,99,9,99,9,99999,9,99,9,99,9",,"10200,1,99999,9",,,,"MET076METAR LPGR 011200Z 14005KT 9999 FEW016 BKN030 13/10 Q1020 RMK RWY09 15005KT;",
"08515599999","2010-02-01T15:00:00","4","39.092169","-28.029847","26.21","GRACIOSA, PO","FM-15","LPGR ","V020","210,1,N,0046,1","00900,1,C,N","011265,1,N,1","+0140,1","+0090,1","99999,9","02,5,+00540,1,99,9","07,5,+00900,1,99,9",,"07,99,1,99,9,99,9,99999,9,99,9,99,9",,"10180,1,99999,9",,,,"MET076METAR LPGR 011500Z 21009KT 9999 FEW018 BKN030 14/09 Q1018 RMK RWY09 20008KT;",
"08515599999","2010-02-02T09:00:00","4","39.092169","-28.029847","26.21","GRACIOSA, PO","FM-15","LPGR ","V020","230,1,N,0113,1","22000,1,9,N","011265,1,N,1","+0150,1","+0110,1","99999,9","02,5,+00420,1,99,9",,,"02,99,1,99,9,99,9,99999,9,99,9,99,9",,"10108,1,99999,9",,,,"MET072METAR LPGR 020900Z 23022KT 9999 FEW014 15/11 Q1011 RMK RWY09 22020G30KT;",
"08515599999","2010-02-02T10:00:00","4","39.092169","-28.029847","26.21","GRACIOSA, PO","FM-15","LPGR ","V020","240,1,N,0103,1","00900,1,C,N","011265,1,N,1","+0160,1","+0120,1","99999,9","02,5,+00420,1,99,9","07,5,+00900,1,99,9",,"07,99,1,99,9,99,9,99999,9,99,9,99,9",,"10108,1,99999,9",,,"0159,1","MET090METAR LPGR 021000Z 24020G31KT 9999 FEW014 BKN030 16/12 Q1011 RMK RWY09 23020G31KT 190V260;",
"08515599999","2010-02-02T11:00:00","4","39.092169","-28.029847","26.21","GRACIOSA, PO","FM-15","LPGR ","V020","230,1,N,0108,1","01050,1,C,N","011265,1,N,1","+0160,1","+0130,1","99999,9","02,5,+00420,1,99,9","07,5,+01050,1,99,9",,"07,99,1,99,9,99,9,99999,9,99,9,99,9",,"10108,1,99999,9",,,,"MET087METAR LPGR 021100Z 23021KT 9999 FEW014 BKN035 16/13 Q1011 RMK RWY09 22018G29KT 180V260;",
"08515599999","2010-02-02T12:00:00","4","39.092169","-28.029847","26.21","GRACIOSA, PO","FM-15","LPGR ","V020","230,1,N,0103,1","00900,1,C,N","007000,1,N,1","+0150,1","+0140,1","99999,9","04,5,+00420,1,99,9","07,5,+00900,1,99,9",,"07,99,1,99,9,99,9,99999,9,99,9,99,9",,"10108,1,99999,9","61,1",,,"MET092METAR LPGR 021200Z 23020KT 7000 -RA SCT014 BKN030 15/14 Q1011 RMK REWY09 23021G31KT 180V260;",
"08515599999","2010-02-02T13:00:00","4","39.092169","-28.029847","26.21","GRACIOSA, PO","FM-15","LPGR ","V020","340,1,N,0072,1","00300,1,C,N","003500,1,N,1","+0130,1","+0120,1","99999,9","02,5,+00180,1,99,9","07,5,+00300,1,99,9","07,5,+00900,1,99,9","07,99,1,99,9,99,9,99999,9,99,9,99,9",,"10129,1,99999,9","10,1","63,1",,"MET089METAR LPGR 021300Z 34014KT 3500 RA BR FEW006 BKN010 BKN030 13/12 Q1013 RMK RWY09 32017KT;",
"08515599999","2010-02-03T08:00:00","4","39.092169","-28.029847","26.21","GRACIOSA, PO","FM-15","LPGR ","V020","240,1,N,0093,1","22000,1,9,N","011265,1,N,1","+0140,1","+0100,1","99999,9","02,5,+00480,1,99,9",,,"02,99,1,99,9,99,9,99999,9,99,9,99,9",,"10102,1,99999,9",,,,"MET069METAR LPGR 030800Z 24018KT 9999 FEW016 14/10 Q1010 RMK RWY09 23012KT;",
"08515599999","2010-02-03T09:00:00","4","39.092169","-28.029847","26.21","GRACIOSA, PO","FM-15","LPGR ","V020","240,1,N,0082,1","99999,9,C,N","011265,1,N,1","+0140,1","+0110,1","99999,9","02,5,+00480,1,99,9","04,5,+00900,1,99,9",,"04,99,1,99,9,99,9,99999,9,99,9,99,9",,"10102,1,99999,9",,,,"MET076METAR LPGR 030900Z 24016KT 9999 FEW016 SCT030 14/11 Q1010 RMK RWY09 23014KT;","P01 009003SCOCIG"
"08515599999","2010-02-03T10:00:00","4","39.092169","-28.029847","26.21","GRACIOSA, PO","FM-15","LPGR ","V020","230,1,N,0082,1","99999,9,C,N","011265,1,N,1","+0140,1","+0110,1","99999,9","02,5,+00480,1,99,9","04,5,+01050,1,99,9",,"04,99,1,99,9,99,9,99999,9,99,9,99,9",,"10102,1,99999,9",,,,"MET076METAR LPGR 031000Z 23016KT 9999 FEW016 SCT035 14/11 Q1010 RMK RWY09 22014KT;","P01 010503SCOCIG"
"08515599999","2010-02-03T15:00:00","4","39.092169","-28.029847","26.21","GRACIOSA, PO","FM-15","LPGR ","V020","250,1,N,0134,1","22000,1,9,N","011265,1,N,1","+0160,1","+0120,1","99999,9","02,5,+00480,1,99,9","02,5,+00600,1,02,5",,"02,99,1,99,9,99,9,99999,9,99,9,99,9",,"10051,1,99999,9",,,,"MET079METAR LPGR 031500Z 25026KT 9999 FEW016 FEW020TCU 16/12 Q1005 RMK RWY09 25024KT;",
"08515599999","2010-02-03T16:00:00","4","39.092169","-28.029847","26.21","GRACIOSA, PO","FM-15","LPGR ","V020","250,1,N,0144,1","99999,9,C,N","011265,1,N,1","+0160,1","+0120,1","99999,9","02,5,+00420,1,99,9","04,5,+00900,1,99,9",,"04,99,1,99,9,99,9,99999,9,99,9,99,9",,"10041,1,99999,9",,,"0201,1","MET082METAR LPGR 031600Z 25028G39KT 9999 FEW014 SCT030 16/12 Q1004 RMK RWY09 25026G37KT;","P01 009003SCOCIG"
"08515599999","2010-02-03T17:00:00","4","39.092169","-28.029847","26.21","GRACIOSA, PO","FM-15","LPGR ","V020","270,1,N,0144,1","22000,1,9,N","009000,1,N,1","+0160,1","+0120,1","99999,9","02,5,+00420,1,99,9",,,"02,99,1,99,9,99,9,99999,9,99,9,99,9",,"10041,1,99999,9",,,,"MET080METAR LPGR 031700Z 27028KT 9000 FEW014 16/12 Q1004 RMK RWY09 25024G36KT 190V270;",
"08515599999","2010-02-04T13:00:00","4","39.092169","-28.029847","26.21","GRACIOSA, PO","FM-15","LPGR ","V020","300,1,N,0098,1","22000,1,9,N","011265,1,N,1","+0120,1","+0060,1","99999,9","04,5,+00540,1,99,9",,,"04,99,1,99,9,99,9,99999,9,99,9,99,9",,"10139,1,99999,9",,,,"MET074METAR LPGR 041300Z 30019KT 9999 SCT018 12/06 Q1014 RMK WIND RWY09 27022KT;",
"08515599999","2010-02-04T14:00:00","4","39.092169","-28.029847","26.21","GRACIOSA, PO","FM-15","LPGR ","V020","310,1,N,0113,1","22000,1,9,N","011265,1,N,1","+0130,1","+0050,1","99999,9","04,5,+00540,1,99,9",,,"04,99,1,99,9,99,9,99999,9,99,9,99,9",,"10139,1,99999,9",,,,"MET077METAR LPGR 041400Z 31022KT 9999 SCT018 13/05 Q1014 RMK WIND RWY09 28020G30KT;",
"08515599999","2010-02-04T15:00:00","4","39.092169","-28.029847","26.21","GRACIOSA, PO","FM-15","LPGR ","V020","290,1,N,0103,1","22000,1,9,N","011265,1,N,1","+0140,1","+0060,1","99999,9","02,5,+00540,1,99,9",,,"02,99,1,99,9,99,9,99999,9,99,9,99,9",,"10129,1,99999,9",,,,"MET074METAR LPGR 041500Z 29020KT 9999 FEW018 14/06 Q1013 RMK WIND RWY09 27022KT;",
"08515599999","2010-02-05T13:00:00","4","39.092169","-28.029847","26.21","GRACIOSA, PO","FM-15","LPGR ","V020","160,1,N,0103,1","06000,1,C,N","011265,1,N,1","+0180,1","+0140,1","99999,9","04,5,+00480,1,99,9","07,5,+06000,1,99,9",,"07,99,1,99,9,99,9,99999,9,99,9,99,9",,"10031,1,99999,9",,,,"MET084METAR LPGR 051300Z 16020KT 9999 SCT016 BKN200 18/14 Q1003 RMK WIND RWY09 14014G24KT;",
"08515599999","2010-02-05T14:00:00","4","39.092169","-28.029847","26.21","GRACIOSA, PO","FM-15","LPGR ","V020","200,1,N,0129,1","06000,1,C,N","011265,1,N,1","+0180,1","+0140,1","99999,9","04,5,+00390,1,99,9","07,5,+06000,1,99,9",,"07,99,1,99,9,99,9,99999,9,99,9,99,9",,"10020,1,99999,9",,,"0185,1","MET087METAR LPGR 051400Z 20025G36KT 9999 SCT013 BKN200 18/14 Q1002 RMK WIND RWY09 20024G36KT;",
"08515599999","2010-02-05T15:00:00","4","39.092169","-28.029847","26.21","GRACIOSA, PO","FM-15","LPGR ","V020","200,1,N,0129,1","00360,1,C,N","011265,1,N,1","+0170,1","+0140,1","99999,9","07,5,+00360,1,99,9","07,5,+06000,1,99,9",,"07,99,1,99,9,99,9,99999,9,99,9,99,9",,"10020,1,99999,9",,,"0180,1","MET087METAR LPGR 051500Z 20025G35KT 9999 BKN012 BKN200 17/14 Q1002 RMK WIND RWY09 20024G38KT;",
"08515599999","2010-02-05T16:00:00","4","39.092169","-28.029847","26.21","GRACIOSA, PO","FM-15","LPGR ","V020","210,1,N,0129,1","06000,1,C,N","011265,1,N,1","+0190,1","+0130,1","99999,9","04,5,+00420,1,99,9","08,5,+06000,1,99,9",,"08,99,1,99,9,99,9,99999,9,99,9,99,9",,"10010,1,99999,9",,,"0180,1","MET087METAR LPGR 051600Z 21025G35KT 9999 SCT014 OVC200 19/13 Q1001 RMK WIND RWY09 20030G40KT;",
"08515599999","2010-02-06T15:00:00","4","39.092169","-28.029847","26.21","GRACIOSA, PO","FM-15","LPGR ","V020","200,1,N,0093,1","00900,1,C,N","011265,1,N,1","+0150,1","+0120,1","99999,9","04,5,+00420,1,99,9","07,5,+00900,1,99,9",,"07,99,1,99,9,99,9,99999,9,99,9,99,9",,"09919,1,99999,9",,,,"MET081METAR LPGR 061500Z 20018KT 9999 SCT014 BKN030 15/12 Q0992 RMK WIND RWY09 21018KT;",
"08515599999","2010-02-06T16:00:00","4","39.092169","-28.029847","26.21","GRACIOSA, PO","FM-15","LPGR ","V020","220,1,N,0103,1","02400,1,C,N","011265,1,N,1","+0160,1","+0110,1","99999,9","04,5,+00420,1,99,9","08,5,+02400,1,99,9",,"08,99,1,99,9,99,9,99999,9,99,9,99,9",,"09909,1,99999,9",,,"0154,1","MET087METAR LPGR 061600Z 22020G30KT 9999 SCT014 OVC080 16/11 Q0991 RMK WIND RWY09 22020G35KT;",
"08515599999","2010-02-06T17:00:00","4","39.092169","-28.029847","26.21","GRACIOSA, PO","FM-15","LPGR ","V020","240,1,N,0113,1","02400,1,C,N","008000,1,N,1","+0130,1","+0090,1","99999,9","04,5,+00420,1,99,9","08,5,+02400,1,99,9",,"08,99,1,99,9,99,9,99999,9,99,9,99,9",,"09898,1,99999,9","61,1",,"0165,1","MET091METAR LPGR 061700Z 24022G32KT 8000 -RA SCT014 OVC080 13/09 Q0990 RMK WIND RWY09 23022G35KT;",
"08515599999","2010-02-07T16:00:00","4","39.092169","-28.029847","26.21","GRACIOSA, PO","FM-15","LPGR ","V020","300,1,N,0118,1","00420,1,C,N","007000,1,N,1","+0130,1","+0100,1","99999,9","07,5,+00420,1,99,9","07,5,+00900,1,99,9",,"07,99,1,99,9,99,9,99999,9,99,9,99,9",,"10031,1,99999,9","80,1",,,"MET087METAR LPGR 071600Z 30023KT 7000 -SHRA BKN014 BKN030 13/10 Q1003 RMK WIND RWY09 28024KT;",
"08515599999","2010-02-07T17:00:00","4","39.092169","-28.029847","26.21","GRACIOSA, PO","FM-15","LPGR ","V020","280,1,N,0108,1","00900,1,C,N","011265,1,N,1","+0130,1","+0100,1","99999,9","04,5,+00420,1,02,1","07,5,+00900,1,99,9",,"07,99,1,99,9,99,9,99999,9,99,9,99,9",,"10031,1,99999,9",,,"0159,1","MET090METAR LPGR 071700Z 28021G31KT 9999 SCT014TCU BKN030 13/10 Q1003 RMK WIND RWY09 26022G35KT;",
"08515599999","2010-02-08T10:00:00","4","39.092169","-28.029847","26.21","GRACIOSA, PO","FM-15","LPGR ","V020","240,1,N,0087,1","00900,1,C,N","011265,1,N,1","+0150,1","+0130,1","99999,9","02,5,+00360,1,99,9","07,5,+00900,1,99,9",,"07,99,1,99,9,99,9,99999,9,99,9,99,9",,"10119,1,99999,9",,,,"MET081METAR LPGR 081000Z 24017KT 9999 FEW012 BKN030 15/13 Q1012 RMK WIND RWY09 23015KT;",
"08515599999","2010-02-08T11:00:00","4","39.092169","-28.029847","26.21","GRACIOSA, PO","FM-15","LPGR ","V020","250,1,N,0103,1","01050,1,C,N","011265,1,N,1","+0160,1","+0130,1","99999,9","02,5,+00450,1,99,9","07,5,+01050,1,99,9",,"07,99,1,99,9,99,9,99999,9,99,9,99,9",,"10119,1,99999,9",,,,"MET081METAR LPGR 081100Z 25020KT 9999 FEW015 BKN035 16/13 Q1012 RMK WIND RWY09 24018KT;",
"08515599999","2010-02-08T12:00:00","4","39.092169","-28.029847","26.21","GRACIOSA, PO","FM-15","LPGR ","V020","250,1,N,0103,1","01050,1,C,N","011265,1,N,1","+0160,1","+0130,1","99999,9","02,5,+00420,1,99,9","07,5,+01050,1,99,9",,"07,99,1,99,9,99,9,99999,9,99,9,99,9",,"10119,1,99999,9",,,,"MET081METAR LPGR 081200Z 25020KT 9999 FEW014 BKN035 16/13 Q1012 RMK WIND RWY09 24018KT;",
"08515599999","2010-02-08T13:00:00","4","39.092169","-28.029847","26.21","GRACIOSA, PO","FM-15","LPGR ","V020","250,1,N,0123,1","00900,1,C,N","011265,1,N,1","+0160,1","+0130,1","99999,9","04,5,+00420,1,99,9","07,5,+00900,1,99,9",,"07,99,1,99,9,99,9,99999,9,99,9,99,9",,"10119,1,99999,9",,,,"MET081METAR LPGR 081300Z 25024KT 9999 SCT014 BKN030 16/13 Q1012 RMK WIND RWY09 24022KT;",
"08515599999","2010-02-08T14:00:00","4","39.092169","-28.029847","26.21","GRACIOSA, PO","FM-15","LPGR ","V020","250,1,N,0118,1","00900,1,C,N","011265,1,N,1","+0160,1","+0140,1","99999,9","04,5,+00420,1,99,9","07,5,+00900,1,99,9",,"07,99,1,99,9,99,9,99999,9,99,9,99,9",,"10119,1,99999,9",,,,"MET081METAR LPGR 081400Z 25023KT 9999 SCT014 BKN030 16/14 Q1012 RMK WIND RWY09 25020KT;",
"08515599999","2010-02-08T15:00:00","4","39.092169","-28.029847","26.21","GRACIOSA, PO","FM-15","LPGR ","V020","250,1,N,0118,1","00900,1,C,N","011265,1,N,1","+0160,1","+0140,1","99999,9","04,5,+00420,1,99,9","07,5,+00900,1,99,9",,"07,99,1,99,9,99,9,99999,9,99,9,99,9",,"10119,1,99999,9",,,,"MET081METAR LPGR 081500Z 25023KT 9999 SCT014 BKN030 16/14 Q1012 RMK WIND RWY09 23018KT;",
"08515599999","2010-02-09T10:00:00","4","39.092169","-28.029847","26.21","GRACIOSA, PO","FM-15","LPGR ","V020","260,1,N,0077,1","00300,1,C,N","006000,1,N,1","+0160,1","+0150,1","99999,9","02,5,+00120,1,99,9","07,5,+00300,1,99,9","08,5,+02100,1,99,9","08,99,1,99,9,99,9,99999,9,99,9,99,9",,"10091,1,99999,9","61,1",,,"MET092METAR LPGR 091000Z 26015KT 6000 -RA FEW004 BKN010 OVC070 16/15 Q1009 RMK WIND RWY09 25014KT;",
"08515599999","2010-02-09T11:00:00","4","39.092169","-28.029847","26.21","GRACIOSA, PO","FM-15","LPGR ","V020","250,1,N,0072,1","00300,1,C,N","005000,1,N,1","+0160,1","+0150,1","99999,9","04,5,+00120,1,99,9","07,5,+00300,1,99,9","08,5,+02100,1,99,9","08,99,1,99,9,99,9,99999,9,99,9,99,9",,"10091,1,99999,9","61,1",,,"MET092METAR LPGR 091100Z 25014KT 5000 -RA SCT004 BKN010 OVC070 16/15 Q1009 RMK WIND RWY09 25012KT;",
"08515599999","2010-02-09T12:00:00","4","39.092169","-28.029847","26.21","GRACIOSA, PO","FM-15","LPGR ","V020","260,1,N,0082,1","00300,1,C,N","005000,1,N,1","+0160,1","+0150,1","99999,9","04,5,+00120,1,99,9","07,5,+00300,1,99,9","08,5,+02100,1,99,9","08,99,1,99,9,99,9,99999,9,99,9,99,9",,"10102,1,99999,9","51,1",,,"MET092METAR LPGR 091200Z 26016KT 5000 -DZ SCT004 BKN010 OVC070 16/15 Q1010 RMK WIND RWY09 25012KT;",
"08515599999","2010-02-10T08:00:00","4","39.092169","-28.029847","26.21","GRACIOSA, PO","FM-15","LPGR ","V020","180,1,N,0026,1","99999,9,C,N","011265,1,N,1","+0140,1","+0120,1","99999,9","02,5,+00420,1,99,9","04,5,+06300,1,99,9",,"04,99,1,99,9,99,9,99999,9,99,9,99,9",,"10061,1,99999,9",,,,"MET081METAR LPGR 100800Z 18005KT 9999 FEW014 SCT210 14/12 Q1006 RMK WIND RWY09 16005KT;","P01 063003SCOCIG"
"08515599999","2010-02-10T09:00:00","4","39.092169","-28.029847","26.21","GRACIOSA, PO","FM-15","LPGR ","V020","180,1,N,0021,1","06300,1,C,N","011265,1,N,1","+0130,1","+0120,1","99999,9","02,5,+00360,1,99,9","07,5,+06300,1,99,9",,"07,99,1,99,9,99,9,99999,9,99,9,99,9",,"10061,1,99999,9",,,,"MET081METAR LPGR 100900Z 18004KT 9999 FEW012 BKN210 13/12 Q1006 RMK WIND RWY09 16004KT;",
"08515599999","2010-02-10T16:00:00","4","39.092169","-28.029847","26.21","GRACIOSA, PO","FM-15","LPGR ","V020","240,1,N,0077,1","06300,1,C,N","011265,1,N,1","+0170,1","+0130,1","99999,9","02,5,+00420,1,99,9","07,5,+06300,1,99,9",,"07,99,1,99,9,99,9,99999,9,99,9,99,9",,"10061,1,99999,9",,,,"MET081METAR LPGR 101600Z 24015KT 9999 FEW014 BKN210 17/13 Q1006 RMK WIND RWY09 16004KT;",
"08515599999","2010-02-10T17:00:00","4","39.092169","-28.029847","26.21","GRACIOSA, PO","FM-15","LPGR ","V020","230,1,N,0062,1","06300,1,C,N","011265,1,N,1","+0170,1","+0120,1","99999,9","02,5,+00420,1,99,9","07,5,+06300,1,99,9",,"07,99,1,99,9,99,9,99999,9,99,9,99,9",,"10051,1,99999,9",,,,"MET081METAR LPGR 101700Z 23012KT 9999 FEW014 BKN210 17/12 Q1005 RMK WIND RWY09 23012KT;",
"08515599999","2010-02-10T18:00:00","4","39.092169","-28.029847","26.21","GRACIOSA, PO","FM-15","LPGR ","V020","250,1,N,0062,1","06300,1,C,N","011265,1,N,1","+0160,1","+0120,1","99999,9","02,5,+00420,1,99,9","07,5,+06300,1,99,9",,"07,99,1,99,9,99,9,99999,9,99,9,99,9",,"10051,1,99999,9",,,,"MET081METAR LPGR 101800Z 25012KT 9999 FEW014 BKN210 16/12 Q1005 RMK WIND RWY09 23012KT;",
"08515599999","2010-02-10T19:00:00","4","39.092169","-28.029847","26.21","GRACIOSA, PO","FM-15","LPGR ","V020","230,1,N,0057,1","06300,1,C,N","011265,1,N,1","+0160,1","+0130,1","99999,9","02,5,+00420,1,99,9","07,5,+06300,1,99,9",,"07,99,1,99,9,99,9,99999,9,99,9,99,9",,"10051,1,99999,9",,,,"MET081METAR LPGR 101900Z 23011KT 9999 FEW014 BKN210 16/13 Q1005 RMK WIND RWY09 21008KT;",
"08515599999","2010-02-12T14:00:00","4","39.092169","-28.029847","26.21","GRACIOSA, PO","FM-15","LPGR ","V020","230,1,N,0026,1","06000,1,C,N","011265,1,N,1","+0140,1","+0110,1","99999,9","02,5,+00450,1,99,9","08,5,+06000,1,99,9",,"08,99,1,99,9,99,9,99999,9,99,9,99,9",,"10091,1,99999,9",,,,"MET081METAR LPGR 121400Z 23005KT 9999 FEW015 OVC200 14/11 Q1009 RMK WIND RWY09 24007KT;",
"08515599999","2010-02-12T15:00:00","4","39.092169","-28.029847","26.21","GRACIOSA, PO","FM-15","LPGR ","V020","150,1,N,0046,1","06000,1,C,N","011265,1,N,1","+0140,1","+0110,1","99999,9","02,5,+00450,1,99,9","08,5,+06000,1,99,9",,"08,99,1,99,9,99,9,99999,9,99,9,99,9",,"10081,1,99999,9",,,,"MET081METAR LPGR 121500Z 15009KT 9999 FEW015 OVC200 14/11 Q1008 RMK WIND RWY09 14008KT;",
"08515599999","2010-02-13T12:00:00","4","39.092169","-28.029847","26.21","GRACIOSA, PO","FM-15","LPGR ","V020","220,1,N,0082,1","02100,1,C,N","002000,1,N,1","+0130,1","+0110,1","99999,9","04,5,+00360,1,99,9","08,5,+02100,1,99,9",,"08,99,1,99,9,99,9,99999,9,99,9,99,9",,"09898,1,99999,9","65,1",,,"MET085METAR LPGR 131200Z 22016KT 2000 +RA SCT012 OVC070 13/11 Q0990 RMK WIND RWY09 20016KT;",
"08515599999","2010-02-13T13:00:00","4","39.092169","-28.029847","26.21","GRACIOSA, PO","FM-15","LPGR ","V020","230,1,N,0057,1","02400,1,C,N","011265,1,N,1","+0160,1","+0130,1","99999,9","02,5,+00420,1,99,9","07,5,+02400,1,99,9",,"07,99,1,99,9,99,9,99999,9,99,9,99,9",,"09892,1,99999,9",,,,"MET081METAR LPGR 131300Z 23011KT 9999 FEW014 BKN080 16/13 Q0989 RMK WIND RWY09 22010KT;",
"08515599999","2010-02-13T14:00:00","4","39.092169","-28.029847","26.21","GRACIOSA, PO","FM-15","LPGR ","V020","220,1,N,0082,1","00420,1,C,N","006000,1,N,1","+0150,1","+0130,1","99999,9","07,5,+00420,1,09,1","04,5,+00450,1,99,9",,,,"09892,1,99999,9","80,1","95,1",,"MET089METAR LPGR 131400Z 22016KT 6000 -TSRA BKN014CB SCT015 15/13 Q0989 RMK WIND RWY09 22016KT;","Q01+000042SCOTCV"
"08515599999","2010-02-13T15:00:00","4","39.092169","-28.029847","26.21","GRACIOSA, PO","FM-15","LPGR ","V020","290,1,N,0026,1","00420,1,C,N","009000,1,N,1","+0160,1","+0140,1","99999,9","07,5,+00420,1,09,1","04,5,+00450,1,99,9",,,,"09882,1,99999,9","80,1",,,"MET089METAR LPGR 131500Z 29005KT 9000 -SHRA BKN014CB SCT015 16/14 Q0988 RMK WIND RWY09 26006KT;","Q01+000042SCOTCV"
"08515599999","2010-02-13T16:00:00","4","39.092169","-28.029847","26.21","GRACIOSA, PO","FM-15","LPGR ","V020","240,1,N,0067,1","99999,9,C,N","011265,1,N,1","+0160,1","+0130,1","99999,9","02,5,+00420,1,09,1","04,5,+00450,1,99,9",,"04,99,1,99,9,99,9,99999,9,99,9,99,9",,"09871,1,99999,9",,,,"MET083METAR LPGR 131600Z 24013KT 9999 FEW014CB SCT015 16/13 Q0987 RMK WIND RWY09 24010KT;","P01 004503SCOCIG"
"08515599999","2010-02-14T17:00:00","4","39.092169","-28.029847","26.21","GRACIOSA, PO","FM-15","LPGR ","V020","330,1,N,0108,1","22000,1,9,N","011265,1,N,1","+0140,1","+0070,1","99999,9","04,5,+00480,1,99,9",,,"04,99,1,99,9,99,9,99999,9,99,9,99,9",,"09990,1,99999,9",,,"0159,1","MET080METAR LPGR 141700Z 33021G31KT 9999 SCT016 14/07 Q0999 RMK WIND RWY09 31022G32KT;",
"08515599999","2010-02-15T11:00:00","4","39.092169","-28.029847","26.21","GRACIOSA, PO","FM-15","LPGR ","V020","210,1,N,0021,1","01050,1,C,N","011265,1,N,1","+0120,1","+0100,1","99999,9","04,5,+00420,1,99,9","07,5,+01050,1,99,9",,"07,99,1,99,9,99,9,99999,9,99,9,99,9",,"10000,1,99999,9",,,,"MET081METAR LPGR 151100Z 21004KT 9999 SCT014 BKN035 12/10 Q1000 RMK WIND RWY09 19001KT;",
"08515599999","2010-02-15T12:00:00","4","39.092169","-28.029847","26.21","GRACIOSA, PO","FM-15","LPGR ","V020","090,1,N,0036,1","01200,1,C,N","011265,1,N,1","+0130,1","+0110,1","99999,9","02,5,+00420,1,99,9","07,5,+01200,1,99,9",,"07,99,1,99,9,99,9,99999,9,99,9,99,9",,"10000,1,99999,9",,,,"MET081METAR LPGR 151200Z 09007KT 9999 FEW014 BKN040 13/11 Q1000 RMK WIND RWY09 09007KT;",
"08515599999","2010-02-15T13:00:00","4","39.092169","-28.029847","26.21","GRACIOSA, PO","FM-15","LPGR ","V020","110,1,N,0031,1","06300,1,C,N","011265,1,N,1","+0140,1","+0110,1","99999,9","02,5,+00420,1,99,9","07,5,+06300,1,99,9",,"07,99,1,99,9,99,9,99999,9,99,9,99,9","999,M,+9999,9","10000,1,99999,9",,,,"MET081METAR LPGR 151300Z 11006KT 9999 FEW014 BKN210 14/11 Q1000 RMK WIND RWY09 10006KT;","Q01 +00062ATMX  "
"08515599999","2010-02-15T14:00:00","4","39.092169","-28.029847","26.21","GRACIOSA, PO","FM-15","LPGR ","V020","120,1,N,0041,1","00420,1,C,N","011265,1,N,1","+0140,1","+0110,1","99999,9","07,5,+00420,1,99,9","07,5,+02400,1,99,9",,"07,99,1,99,9,99,9,99999,9,99,9,99,9",,"10000,1,99999,9",,,,"MET081METAR LPGR 151400Z 12008KT 9999 BKN014 BKN080 14/11 Q1000 RMK WIND RWY09 15006KT;",
"08515599999","2010-02-16T10:00:00","4","39.092169","-28.029847","26.21","GRACIOSA, PO","FM-15","LPGR ","V020","150,1,N,0072,1","00900,1,C,N","011265,1,N,1","+0110,1","+0090,1","99999,9","02,5,+00420,1,99,9","07,5,+00900,1,99,9",,"07,99,1,99,9,99,9,99999,9,99,9,99,9",,"09990,1,99999,9",,,,"MET081METAR LPGR 161000Z 15014KT 9999 FEW014 BKN030 11/09 Q0999 RMK WIND RWY09 14010KT;",
"08515599999","2010-02-16T11:00:00","4","39.092169","-28.029847","26.21","GRACIOSA, PO","FM-15","LPGR ","V020","160,1,N,0067,1","00900,1,C,N","011265,1,N,1","+0120,1","+0090,1","99999,9","02,5,+00420,1,99,9","07,5,+00900,1,99,9",,"07,99,1,99,9,99,9,99999,9,99,9,99,9",,"09990,1,99999,9",,,,"MET081METAR LPGR 161100Z 16013KT 9999 FEW014 BKN030 12/09 Q0999 RMK WIND RWY09 18013KT;",
"08515599999","2010-02-16T12:00:00","4","39.092169","-28.029847","26.21","GRACIOSA, PO","FM-15","LPGR ","V020","170,1,N,0067,1","00900,1,C,N","011265,1,N,1","+0130,1","+0090,1","99999,9","02,5,+00420,1,99,9","07,5,+00900,1,99,9",,"07,99,1,99,9,99,9,99999,9,99,9,99,9",,"10000,1,99999,9",,,,"MET081METAR LPGR 161200Z 17013KT 9999 FEW014 BKN030 13/09 Q1000 RMK WIND RWY09 17012KT;",
"08515599999","2010-02-16T17:00:00","4","39.092169","-28.029847","26.21","GRACIOSA, PO","FM-15","LPGR ","V020","120,1,N,0062,1","00420,1,C,N","009000,1,N,1","+0140,1","+0110,1","99999,9","07,5,+00420,1,99,9",,,"07,99,1,99,9,99,9,99999,9,99,9,99,9","999,M,+9999,9","09980,1,99999,9","80,1",,,"MET080METAR LPGR 161700Z 12012KT 9000 -SHRA BKN014 14/11 Q0998 RMK WIND RWY09 10011KT;","Q01 +00112ATMX  "
"08515599999","2010-02-16T18:00:00","4","39.092169","-28.029847","26.21","GRACIOSA, PO","FM-15","LPGR ","V020","110,1,N,0051,1","00420,1,C,N","009000,1,N,1","+0130,1","+0100,1","99999,9","07,5,+00420,1,99,9",,,"07,99,1,99,9,99,9,99999,9,99,9,99,9",,"09980,1,99999,9","80,1",,,"MET080METAR LPGR 161800Z 11010KT 9000 -SHRA BKN014 13/10 Q0998 RMK WIND RWY09 09010KT;",
"08515599999","2010-02-16T19:00:00","4","39.092169","-28.029847","26.21","GRACIOSA, PO","FM-15","LPGR ","V020","120,1,N,0051,1","99999,9,C,N","009000,1,N,1","+0130,1","+0100,1","99999,9","02,5,+00420,1,09,1","04,5,+00450,1,99,9",,"04,99,1,99,9,99,9,99999,9,99,9,99,9","999,M,+9999,9","09980,1,99999,9","80,1",,,"MET089METAR LPGR 161900Z 12010KT 9000 -SHRA FEW014CB SCT015 13/10 Q0998 RMK WIND RWY09 10007KT;","Q01 +00072ATMX  P01 004503SCOCIG"
"08515599999","2010-02-17T08:00:00","4","39.092169","-28.029847","26.21","GRACIOSA, PO","FM-15","LPGR ","V020","110,1,N,0026,1","99999,9,C,N","011265,1,N,1","+0110,1","+0100,1","99999,9","04,5,+00420,1,99,9","04,5,+00900,1,99,9",,"04,99,1,99,9,99,9,99999,9,99,9,99,9","999,M,+9999,9","09980,1,99999,9",,,,"MET081METAR LPGR 170800Z 11005KT 9999 SCT014 SCT030 11/10 Q0998 RMK WIND RWY09 10004KT;","Q01 +00042ATMX  P01 009003SCOCIG"
"08515599999","2010-02-17T09:00:00","4","39.092169","-28.029847","26.21","GRACIOSA, PO","FM-15","LPGR ","V020","120,1,N,0057,1","00420,1,C,N","011265,1,N,1","+0120,1","+0100,1","99999,9","07,5,+00420,1,99,9",,,"07,99,1,99,9,99,9,99999,9,99,9,99,9",,"09980,1,99999,9",,,,"MET074METAR LPGR 170900Z 12011KT 9999 BKN014 12/10 Q0998 RMK WIND RWY09 12010KT;",
"08515599999","2010-02-17T10:00:00","4","39.092169","-28.029847","26.21","GRACIOSA, PO","FM-15","LPGR ","V020","110,1,N,0077,1","22000,1,9,N","011265,1,N,1","+0130,1","+0080,1","99999,9","04,5,+00420,1,99,9",,,"04,99,1,99,9,99,9,99999,9,99,9,99,9","999,M,+9999,9","09990,1,99999,9",,,,"MET074METAR LPGR 171000Z 11015KT 9999 SCT014 13/08 Q0999 RMK WIND RWY09 10012KT;","Q01 +00122ATMX  "
"08515599999","2010-02-17T15:00:00","4","39.092169","-28.029847","26.21","GRACIOSA, PO","FM-15","LPGR ","V020","080,1,N,0062,1","22000,1,9,N","011265,1,N,1","+0140,1","+0090,1","99999,9","04,5,+00450,1,99,9",,,"04,99,1,99,9,99,9,99999,9,99,9,99,9",,"10020,1,99999,9",,,,"MET074METAR LPGR 171500Z 08012KT 9999 SCT015 14/09 Q1002 RMK WIND RWY09 07014KT;",
"08515599999","2010-02-17T16:00:00","4","39.092169","-28.029847","26.21","GRACIOSA, PO","FM-15","LPGR ","V020","070,1,N,0057,1","22000,1,9,N","011265,1,N,1","+0150,1","+0080,1","99999,9","02,5,+00480,1,99,9",,,"02,99,1,99,9,99,9,99999,9,99,9,99,9",,"10020,1,99999,9",,,,"MET074METAR LPGR 171600Z 07011KT 9999 FEW016 15/08 Q1002 RMK WIND RWY09 07012KT;",
"08515599999","2010-02-17T17:00:00","4","39.092169","-28.029847","26.21","GRACIOSA, PO","FM-15","LPGR ","V020","060,1,N,0051,1","22000,1,9,N","011265,1,N,1","+0140,1","+0090,1","99999,9","02,5,+00480,1,99,9",,,"02,99,1,99,9,99,9,99999,9,99,9,99,9",,"10031,1,99999,9",,,,"MET074METAR LPGR 171700Z 06010KT 9999 FEW016 14/09 Q1003 RMK WIND RWY09 06010KT;",
"08515599999","2010-02-17T18:00:00","4","39.092169","-28.029847","26.21","GRACIOSA, PO","FM-15","LPGR ","V020","080,1,N,0051,1","22000,1,9,N","011265,1,N,1","+0140,1","+0090,1","99999,9","02,5,+00480,1,99,9",,,"02,99,1,99,9,99,9,99999,9,99,9,99,9",,"10031,1,99999,9",,,,"MET074METAR LPGR 171800Z 08010KT 9999 FEW016 14/09 Q1003 RMK WIND RWY09 08013KT;",
"08515599999","2010-02-18T13:00:00","4","39.092169","-28.029847","26.21","GRACIOSA, PO","FM-15","LPGR ","V020","100,1,N,0036,1","22000,1,9,N","011265,1,N,1","+0140,1","+0080,1","99999,9","02,5,+00480,1,99,9",,,"02,99,1,99,9,99,9,99999,9,99,9,99,9","999,M,+9999,9","10108,1,99999,9",,,,"MET074METAR LPGR 181300Z 10007KT 9999 FEW016 14/08 Q1011 RMK WIND RWY09 10007KT;","Q01 +00072ATMX  "
"08515599999","2010-02-18T14:00:00","4","39.092169","-28.029847","26.21","GRACIOSA, PO","FM-15","LPGR ","V020","110,1,N,0041,1","22000,1,9,N","011265,1,N,1","+0140,1","+0070,1","99999,9","02,5,+00480,1,99,9",,,"02,99,1,99,9,99,9,99999,9,99,9,99,9",,"10108,1,99999,9",,,,"MET074METAR LPGR 181400Z 11008KT 9999 FEW016 14/07 Q1011 RMK WIND RWY09 12008KT;",
"08515599999","2010-02-18T15:00:00","4","39.092169","-28.029847","26.21","GRACIOSA, PO","FM-15","LPGR ","V020","080,1,N,0041,1","22000,1,9,N","011265,1,N,1","+0150,1","+0080,1","99999,9","02,5,+00480,1,99,9",,,"02,99,1,99,9,99,9,99999,9,99,9,99,9",,"10102,1,99999,9",,,,"MET074METAR LPGR 181500Z 08008KT 9999 FEW016 15/08 Q1010 RMK WIND RWY09 09008KT;",
"08515599999","2010-02-19T13:00:00","4","39.092169","-28.029847","26.21","GRACIOSA, PO","FM-15","LPGR ","V020","200,1,N,0031,1","02400,1,C,N","004000,1,N,1","+0150,1","+0130,1","99999,9","04,5,+00360,1,99,9","08,5,+02400,1,99,9",,"08,99,1,99,9,99,9,99999,9,99,9,99,9",,"10031,1,99999,9","61,1",,,"MET085METAR LPGR 191300Z 20006KT 4000 -RA SCT012 OVC080 15/13 Q1003 RMK WIND RWY09 20005KT;",
"08515599999","2010-02-19T14:00:00","4","39.092169","-28.029847","26.21","GRACIOSA, PO","FM-15","LPGR ","V020","210,1,N,0026,1","02400,1,C,N","006000,1,N,1","+0160,1","+0150,1","99999,9","04,5,+00360,1,99,9","08,5,+02400,1,99,9",,"08,99,1,99,9,99,9,99999,9,99,9,99,9",,"10020,1,99999,9","61,1",,,"MET085METAR LPGR 191400Z 21005KT 6000 -RA SCT012 OVC080 16/15 Q1002 RMK WIND RWY09 19005KT;",
"08515599999","2010-02-19T15:00:00","4","39.092169","-28.029847","26.21","GRACIOSA, PO","FM-15","LPGR ","V020","180,1,N,0041,1","00300,1,C,N","006000,1,N,1","+0160,1","+0150,1","99999,9","02,5,+00180,1,99,9","07,5,+00300,1,99,9","08,5,+02400,1,99,9","08,99,1,99,9,99,9,99999,9,99,9,99,9",,"10010,1,99999,9","61,1",,,"MET092METAR LPGR 191500Z 18008KT 6000 -RA FEW006 BKN010 OVC080 16/15 Q1001 RMK WIND RWY09 17006KT;",
"08515599999","2010-02-19T16:00:00","4","39.092169","-28.029847","26.21","GRACIOSA, PO","FM-15","LPGR ","V020","200,1,N,0082,1","02400,1,C,N","004000,1,N,1","+0160,1","+0150,1","99999,9","04,5,+00300,1,99,9","08,5,+02400,1,99,9",,"08,99,1,99,9,99,9,99999,9,99,9,99,9",,"09990,1,99999,9","61,1",,,"MET085METAR LPGR 191600Z 20016KT 4000 -RA SCT010 OVC080 16/15 Q0999 RMK WIND RWY09 19015KT;",
"08515599999","2010-02-19T17:00:00","4","39.092169","-28.029847","26.21","GRACIOSA, PO","FM-15","LPGR ","V020","190,1,N,0072,1","00300,1,C,N","011265,1,N,1","+0160,1","+0150,1","99999,9","07,5,+00300,1,99,9","07,5,+00750,1,99,9",,"07,99,1,99,9,99,9,99999,9,99,9,99,9",,"09980,1,99999,9",,,,"MET081METAR LPGR 191700Z 19014KT 9999 BKN010 BKN025 16/15 Q0998 RMK WIND RWY09 19012KT;",
"08515599999","2010-02-20T16:00:00","4","39.092169","-28.029847","26.21","GRACIOSA, PO","FM-15","LPGR ","V020","260,1,N,0129,1","99999,9,C,N","011265,1,N,1","+0140,1","+0110,1","99999,9","04,5,+00420,1,99,9","04,5,+00450,1,09,5",,"04,99,1,99,9,99,9,99999,9,99,9,99,9",,"09898,1,99999,9",,,"0180,1","MET089METAR LPGR 201600Z 26025G35KT 9999 SCT014 SCT015CB 14/11 Q0990 RMK WIND RWY09 26022G32KT;","P01 004503SCOCIG"
"08515599999","2010-02-20T17:00:00","4","39.092169","-28.029847","26.21","GRACIOSA, PO","FM-15","LPGR ","V020","260,1,N,0118,1","22000,1,9,N","011265,1,N,1","+0140,1","+0120,1","99999,9","04,5,+00450,5,09,5",,,,,"09900,1,99999,9",,,,"MET083METAR LPGR 201700Z 26023KT 9999 BKB014 SCT015CB 14/12 Q0990 RMK WIND RWY09 25020KT;",
"08515599999","2010-02-21T16:00:00","4","39.092169","-28.029847","26.21","GRACIOSA, PO","FM-15","LPGR ","V020","300,1,N,0175,1","00450,1,C,N","008000,1,N,1","+0130,1","+0100,1","99999,9","04,5,+00420,1,09,1","07,5,+00450,1,99,9",,"07,99,1,99,9,99,9,99999,9,99,9,99,9",,"09861,1,99999,9","80,1",,"0257,1","MET095METAR LPGR 211600Z 30034G50KT 8000 -SHRA SCT014CB BKN015 13/10 Q0986 RMK WIND RWY09 29031G44KT;",
"08515599999","2010-02-21T17:00:00","4","39.092169","-28.029847","26.21","GRACIOSA, PO","FM-15","LPGR ","V020","280,1,N,0180,1","99999,9,C,N","011265,1,N,1","+0150,1","+0100,1","99999,9","04,5,+00420,1,09,1","04,5,+00450,1,99,9",,"04,99,1,99,9,99,9,99999,9,99,9,99,9",,"09861,1,99999,9",,,"0252,1","MET089METAR LPGR 211700Z 28035G49KT 9999 SCT014CB SCT015 15/10 Q0986 RMK WIND RWY09 27036G48KT;","P01 004503SCOCIG"
"08515599999","2010-02-21T18:00:00","4","39.092169","-28.029847","26.21","GRACIOSA, PO","FM-15","LPGR ","V020","280,1,N,0154,1","99999,9,C,N","011265,1,N,1","+0150,1","+0090,1","99999,9","02,5,+00420,1,09,1","04,5,+00450,1,99,9",,"04,99,1,99,9,99,9,99999,9,99,9,99,9",,"09871,1,99999,9",,,"0237,1","MET089METAR LPGR 211800Z 28030G46KT 9999 FEW014CB SCT015 15/09 Q0987 RMK WIND RWY09 27038G50KT;","P01 004503SCOCIG"
"08515599999","2010-02-22T11:00:00","4","39.092169","-28.029847","26.21","GRACIOSA, PO","FM-15","LPGR ","V020","300,1,N,0103,1","22000,1,9,N","011265,1,N,1","+0120,1","+0100,1","99999,9","02,5,+00450,1,02,1",,,"02,99,1,99,9,99,9,99999,9,99,9,99,9",,"09939,1,99999,9",,,"0159,1","MET083METAR LPGR 221100Z 30020G31KT 9999 FEW015TCU 12/10 Q0994 RMK WIND RWY09 28021G32KT;",
"08515599999","2010-02-22T12:00:00","4","39.092169","-28.029847","26.21","GRACIOSA, PO","FM-15","LPGR ","V020","300,1,N,0123,1","22000,1,9,N","011265,1,N,1","+0130,1","+0100,1","99999,9","02,5,+00450,1,09,1","02,5,+00480,1,99,9",,"02,99,1,99,9,99,9,99999,9,99,9,99,9",,"09949,1,99999,9",,,"0175,1","MET089METAR LPGR 221200Z 30024G34KT 9999 FEW015CB FEW016 13/10 Q0995 RMK WIND RWY09 29025G35KT;",
"08515599999","2010-02-22T13:00:00","4","39.092169","-28.029847","26.21","GRACIOSA, PO","FM-15","LPGR ","V020","300,1,N,0118,1","22000,1,9,N","011265,1,N,1","+0140,1","+0080,1","99999,9","04,5,+00480,1,99,9",,,"04,99,1,99,9,99,9,99999,9,99,9,99,9",,"09949,1,99999,9",,,"0175,1","MET080METAR LPGR 221300Z 30023G34KT 9999 SCT016 14/08 Q0995 RMK WIND RWY09 28025G37KT;",
"08515599999","2010-02-22T15:00:00","4","39.092169","-28.029847","26.21","GRACIOSA, PO","FM-15","LPGR ","V020","300,1,N,0103,1","22000,1,9,N","011265,1,N,1","+0140,1","+0090,1","99999,9","02,5,+00450,1,09,1","02,5,+00480,1,99,9",,"02,99,1,99,9,99,9,99999,9,99,9,99,9",,"09949,1,99999,9",,,"0154,1","MET089METAR LPGR 221500Z 30020G30KT 9999 FEW015CB FEW016 14/09 Q0995 RMK WIND RWY09 28024G34KT;",
"08515599999","2010-02-22T16:00:00","4","39.092169","-28.029847","26.21","GRACIOSA, PO","FM-15","LPGR ","V020","310,1,N,0098,1","99999,9,C,N","011265,1,N,1","+0140,1","+0090,1","99999,9","02,5,+00450,1,09,1","04,5,+00480,1,99,9",,"04,99,1,99,9,99,9,99999,9,99,9,99,9",,"09949,1,99999,9",,,"0149,1","MET086METAR LPGR 221600Z 31019G29KT 9999 FEW015CB SCT016 14/09 Q0995 RMK WIND RWY09 28023KT;","P01 004803SCOCIG"
"08515599999","2010-02-22T17:00:00","4","39.092169","-28.029847","26.21","GRACIOSA, PO","FM-15","LPGR ","V020","310,1,N,0093,1","99999,9,C,N","011265,1,N,1","+0140,1","+0100,1","99999,9","02,5,+00450,1,09,1","04,5,+00480,1,99,9",,"04,99,1,99,9,99,9,99999,9,99,9,99,9",,"09949,1,99999,9",,,,"MET083METAR LPGR 221700Z 31018KT 9999 FEW015CB SCT016 14/10 Q0995 RMK WIND RWY09 29015KT;","P01 004803SCOCIG"
"08515599999","2010-02-23T10:00:00","4","39.092169","-28.029847","26.21","GRACIOSA, PO","FM-15","LPGR ","V020","300,1,N,0046,1","99999,9,C,N","011265,1,N,1","+0120,1","+0090,1","99999,9","02,5,+00420,1,99,9","04,5,+06300,1,99,9",,"04,99,1,99,9,99,9,99999,9,99,9,99,9",,"10041,1,99999,9",,,,"MET081METAR LPGR 231000Z 30009KT 9999 FEW014 SCT210 12/09 Q1004 RMK WIND RWY09 29008KT;","P01 063003SCOCIG"
"08515599999","2010-02-23T11:00:00","4","39.092169","-28.029847","26.21","GRACIOSA, PO","FM-15","LPGR ","V020","260,1,N,0046,1","06300,1,C,N","011265,1,N,1","+0120,1","+0090,1","99999,9","04,5,+00450,1,99,9","07,5,+06300,1,99,9",,"07,99,1,99,9,99,9,99999,9,99,9,99,9",,"10041,1,99999,9",,,,"MET081METAR LPGR 231100Z 26009KT 9999 SCT015 BKN210 12/09 Q1004 RMK WIND RWY09 26009KT;",
"08515599999","2010-02-23T12:00:00","4","39.092169","-28.029847","26.21","GRACIOSA, PO","FM-15","LPGR ","V020","260,1,N,0057,1","22000,1,9,N","011265,1,N,1","+0140,1","+0100,1","99999,9","04,5,+00480,1,99,9",,,"04,99,1,99,9,99,9,99999,9,99,9,99,9",,"10041,1,99999,9",,,,"MET074METAR LPGR 231200Z 26011KT 9999 SCT016 14/10 Q1004 RMK WIND RWY09 25010KT;",
"08515599999","2010-02-23T13:00:00","4","39.092169","-28.029847","26.21","GRACIOSA, PO","FM-15","LPGR ","V020","260,1,N,0057,1","06300,1,C,N","011265,1,N,1","+0140,1","+0090,1","99999,9","02,5,+00480,1,99,9","07,5,+06300,1,99,9",,"07,99,1,99,9,99,9,99999,9,99,9,99,9",,"10051,1,99999,9",,,,"MET081METAR LPGR 231300Z 26011KT 9999 FEW016 BKN210 14/09 Q1005 RMK WIND RWY09 25010KT;",
"08515599999","2010-02-24T08:00:00","4","39.092169","-28.029847","26.21","GRACIOSA, PO","FM-15","LPGR ","V020","250,1,N,0154,1","00450,1,C,N","011265,1,N,1","+0140,1","+0090,1","99999,9","07,5,+00450,1,99,9",,,"07,99,1,99,9,99,9,99999,9,99,9,99,9",,"09939,1,99999,9",,,"0216,1","MET080METAR LPGR 240800Z 25030G42KT 9999 BKN015 14/09 Q0994 RMK WIND RWY09 25030G45KT;",
"08515599999","2010-02-24T09:00:00","4","39.092169","-28.029847","26.21","GRACIOSA, PO","FM-15","LPGR ","V020","250,1,N,0154,1","22000,1,9,N","011265,1,N,1","+0140,1","+0090,1","99999,9","04,5,+00480,1,99,9",,,"04,99,1,99,9,99,9,99999,9,99,9,99,9",,"09929,1,99999,9",,,"0226,1","MET080METAR LPGR 240900Z 25030G44KT 9999 SCT016 14/09 Q0993 RMK WIND RWY09 25032G45KT;",
"08515599999","2010-02-24T10:00:00","4","39.092169","-28.029847","26.21","GRACIOSA, PO","FM-15","LPGR ","V020","250,1,N,0170,1","00480,1,C,N","011265,1,N,1","+0140,1","+0090,1","99999,9","07,5,+00480,1,99,9",,,"07,99,1,99,9,99,9,99999,9,99,9,99,9",,"09929,1,99999,9",,,"0247,1","MET080METAR LPGR 241000Z 25033G48KT 9999 BKN016 14/09 Q0993 RMK WIND RWY09 25032G46KT;",
"08515599999","2010-02-24T11:00:00","4","39.092169","-28.029847","26.21","GRACIOSA, PO","FM-15","LPGR ","V020","300,1,N,0113,1","00450,1,C,N","011265,1,N,1","+0130,1","+0110,1","99999,9","04,5,+00420,1,09,1","07,5,+00450,1,99,9",,"07,99,1,99,9,99,9,99999,9,99,9,99,9",,"09949,1,99999,9",,,"0165,1","MET086METAR LPGR 241100Z 30022G32KT 9999 SCT014CB BKN015 13/11 Q0995 RMK WIND RWY09 30020KT;",
"08515599999","2010-02-24T16:00:00","4","39.092169","-28.029847","26.21","GRACIOSA, PO","FM-15","LPGR ","V020","300,1,N,0103,1","00750,1,C,N","011265,1,N,1","+0130,1","+0090,1","99999,9","02,5,+00450,1,99,9","07,5,+00750,1,99,9",,"07,99,1,99,9,99,9,99999,9,99,9,99,9",,"09990,1,99999,9",,,,"MET081METAR LPGR 241600Z 30020KT 9999 FEW015 BKN025 13/09 Q0999 RMK WIND RWY09 31017KT;",
"08515599999","2010-02-24T17:00:00","4","39.092169","-28.029847","26.21","GRACIOSA, PO","FM-15","LPGR ","V020","320,1,N,0087,1","22000,1,9,N","011265,1,N,1","+0130,1","+0080,1","99999,9","02,5,+00450,1,99,9",,,"02,99,1,99,9,99,9,99999,9,99,9,99,9",,"10000,1,99999,9",,,,"MET074METAR LPGR 241700Z 32017KT 9999 FEW015 13/08 Q1000 RMK WIND RWY09 31021KT;",
"08515599999","2010-02-24T18:00:00","4","39.092169","-28.029847","26.21","GRACIOSA, PO","FM-15","LPGR ","V020","320,1,N,0087,1","00480,1,C,N","011265,1,N,1","+0130,1","+0070,1","99999,9","07,5,+00480,1,99,9",,,"07,99,1,99,9,99,9,99999,9,99,9,99,9",,"10010,1,99999,9",,,,"MET074METAR LPGR 241800Z 32017KT 9999 BKN016 13/07 Q1001 RMK WIND RWY09 31021KT;",
"08515599999","2010-02-25T13:00:00","4","39.092169","-28.029847","26.21","GRACIOSA, PO","FM-15","LPGR ","V020","300,1,N,0098,1","22000,1,9,N","011265,1,N,1","+0130,1","+0050,1","99999,9","02,5,+00540,1,99,9",,,"02,99,1,99,9,99,9,99999,9,99,9,99,9",,"10081,1,99999,9",,,,"MET074METAR LPGR 251300Z 30019KT 9999 FEW018 13/05 Q1008 RMK WIND RWY09 28022KT;",
"08515599999","2010-02-25T14:00:00","4","39.092169","-28.029847","26.21","GRACIOSA, PO","FM-15","LPGR ","V020","270,1,N,0093,1","99999,9,C,N","011265,1,N,1","+0120,1","+0070,1","99999,9","04,5,+00450,1,09,1","04,5,+00480,1,99,9",,"04,99,1,99,9,99,9,99999,9,99,9,99,9",,"10081,1,99999,9",,,,"MET083METAR LPGR 251400Z 27018KT 9999 SCT015CB SCT016 12/07 Q1008 RMK WIND RWY09 26016KT;","P01 004803SCOCIG"
"08515599999","2010-02-25T15:00:00","4","39.092169","-28.029847","26.21","GRACIOSA, PO","FM-15","LPGR ","V020","300,1,N,0072,1","00480,5,C,N","011265,1,N,1","+0130,1","+0080,1","99999,9","04,5,+00450,1,09,1","02,5,+00480,1,99,9",,,,"10071,1,99999,9",,,,"MET083METAR LPGR 251500Z 30014KT 9999 SCT015CB FEW016 13/08 Q1007 RMK WIND RWY09 28018KT;","Q01+000022SCOTCV"
"08515599999","2010-02-26T10:00:00","4","39.092169","-28.029847","26.21","GRACIOSA, PO","FM-15","LPGR ","V020","280,1,N,0067,1","22000,1,9,N","011265,1,N,1","+0100,1","+0050,1","99999,9","04,5,+00480,1,99,9",,,"04,99,1,99,9,99,9,99999,9,99,9,99,9",,"10081,1,99999,9",,,,"MET074METAR LPGR 261000Z 28013KT 9999 SCT016 10/05 Q1008 RMK WIND RWY09 29011KT;",
"08515599999","2010-02-26T11:00:00","4","39.092169","-28.029847","26.21","GRACIOSA, PO","FM-15","LPGR ","V020","330,1,N,0062,1","22000,1,9,N","011265,1,N,1","+0110,1","+0050,1","99999,9","02,5,+00480,1,99,9",,,"02,99,1,99,9,99,9,99999,9,99,9,99,9",,"10081,1,99999,9",,,,"MET074METAR LPGR 261100Z 33012KT 9999 FEW016 11/05 Q1008 RMK WIND RWY09 31013KT;",
"08515599999","2010-02-26T12:00:00","4","39.092169","-28.029847","26.21","GRACIOSA, PO","FM-15","LPGR ","V020","330,1,N,0057,1","99999,9,C,N","011265,1,N,1","+0120,1","+0060,1","99999,9","02,5,+00480,1,99,9","04,5,+06300,1,99,9",,"04,99,1,99,9,99,9,99999,9,99,9,99,9",,"10081,1,99999,9",,,,"MET081METAR LPGR 261200Z 33011KT 9999 FEW016 SCT210 12/06 Q1008 RMK WIND RWY09 32012KT;","P01 063003SCOCIG"
"08515599999","2010-02-26T13:00:00","4","39.092169","-28.029847","26.21","GRACIOSA, PO","FM-15","LPGR ","V020","330,1,N,0062,1","99999,9,C,N","011265,1,N,1","+0120,1","+0060,1","99999,9","04,5,+00480,1,99,9","04,5,+06300,1,99,9",,"04,99,1,99,9,99,9,99999,9,99,9,99,9",,"10081,1,99999,9",,,,"MET081METAR LPGR 261300Z 33012KT 9999 SCT016 SCT210 12/06 Q1008 RMK WIND RWY09 32011KT;","P01 063003SCOCIG"
"08515599999","2010-02-26T15:00:00","4","39.092169","-28.029847","26.21","GRACIOSA, PO","FM-15","LPGR ","V020","330,1,N,0072,1","99999,9,C,N","011265,1,N,1","+0120,1","+0050,1","99999,9","02,5,+00600,1,99,9","04,5,+06300,1,99,9",,"04,99,1,99,9,99,9,99999,9,99,9,99,9",,"10051,1,99999,9",,,,"MET081METAR LPGR 261500Z 33014KT 9999 FEW020 SCT210 12/05 Q1005 RMK WIND RWY09 32015KT;","P01 063003SCOCIG"
"08515599999","2010-02-26T16:00:00","4","39.092169","-28.029847","26.21","GRACIOSA, PO","FM-15","LPGR ","V020","340,1,N,0067,1","22000,1,9,N","011265,1,N,1","+0120,1","+0070,1","99999,9","02,5,+00480,1,09,1","02,5,+00540,1,99,9",,"02,99,1,99,9,99,9,99999,9,99,9,99,9",,"10051,1,99999,9",,,,"MET083METAR LPGR 261600Z 34013KT 9999 FEW016CB FEW018 12/07 Q1005 RMK WIND RWY09 32012KT;",
"08515599999","2010-02-26T17:00:00","4","39.092169","-28.029847","26.21","GRACIOSA, PO","FM-15","LPGR ","V020","340,1,N,0051,1","22000,1,9,N","011265,1,N,1","+0120,1","+0060,1","99999,9","02,5,+00540,1,99,9",,,"02,99,1,99,9,99,9,99999,9,99,9,99,9",,"10051,1,99999,9",,,,"MET074METAR LPGR 261700Z 34010KT 9999 FEW018 12/06 Q1005 RMK WIND RWY09 32012KT;",
"08515599999","2010-02-26T18:00:00","4","39.092169","-28.029847","26.21","GRACIOSA, PO","FM-15","LPGR ","V020","330,1,N,0062,1","22000,1,9,N","011265,1,N,1","+0110,1","+0050,1","99999,9","04,5,+00540,1,99,9",,,"04,99,1,99,9,99,9,99999,9,99,9,99,9",,"10041,1,99999,9",,,,"MET074METAR LPGR 261800Z 33012KT 9999 SCT018 11/05 Q1004 RMK WIND RWY09 31013KT;",
"08515599999","2010-02-27T16:00:00","4","39.092169","-28.029847","26.21","GRACIOSA, PO","FM-15","LPGR ","V020","340,1,N,0103,1","99999,9,C,N","011265,1,N,1","+0110,1","+0030,1","99999,9","04,5,+00480,1,09,1","04,5,+00540,1,99,9",,"04,99,1,99,9,99,9,99999,9,99,9,99,9",,"10020,1,99999,9",,,,"MET086METAR LPGR 271600Z 34020KT 9999 SCT016CB SCT018 11/03 Q1002 RMK WIND RWY09 33018G30KT;","P01 005403SCOCIG"
"08515599999","2010-02-27T17:00:00","4","39.092169","-28.029847","26.21","GRACIOSA, PO","FM-15","LPGR ","V020","340,1,N,0103,1","99999,9,C,N","011265,1,N,1","+0120,1","+0040,1","99999,9","04,5,+00480,1,09,1","04,5,+00540,1,99,9",,"04,99,1,99,9,99,9,99999,9,99,9,99,9",,"10031,1,99999,9",,,"0154,1","MET089METAR LPGR 271700Z 34020G30KT 9999 SCT016CB SCT018 12/04 Q1003 RMK WIND RWY09 33025G35KT;","P01 005403SCOCIG"
"08515599999","2010-02-27T18:00:00","4","39.092169","-28.029847","26.21","GRACIOSA, PO","FM-15","LPGR ","V020","330,1,N,0103,1","99999,9,C,N","011265,1,N,1","+0100,1","+0040,1","99999,9","04,5,+00480,1,09,1","02,5,+00540,1,99,9","04,5,+06300,1,99,9","04,99,1,99,9,99,9,99999,9,99,9,99,9",,"10041,1,99999,9","80,1",,"0154,1","MET107METAR LPGR 271800Z 33020G30KT 9999 -SHRA SCT016CB FEW018 SCT210 10/04 Q1004 REGS RMK WIND RWY09 32020G30KT;","P01 005403SCOCIG"
"08515599999","2010-02-28T12:00:00","4","39.092169","-28.029847","26.21","GRACIOSA, PO","FM-15","LPGR ","V020","300,1,N,0067,1","99999,9,C,N","011265,1,N,1","+0130,1","+0050,1","99999,9","02,5,+00540,1,99,9","04,5,+06300,1,99,9",,"04,99,1,99,9,99,9,99999,9,99,9,99,9",,"10091,1,99999,9",,,,"MET081METAR LPGR 281200Z 30013KT 9999 FEW018 SCT210 13/05 Q1009 RMK WIND RWY09 31012KT;","P01 063003SCOCIG"
"08515599999","2010-02-28T16:00:00","4","39.092169","-28.029847","26.21","GRACIOSA, PO","FM-15","LPGR ","V020","320,1,N,0041,1","06300,1,C,N","011265,1,N,1","+0140,1","+0060,1","99999,9","02,5,+00540,1,99,9","07,5,+06300,1,99,9",,"07,99,1,99,9,99,9,99999,9,99,9,99,9",,"10071,1,99999,9",,,,"MET081METAR LPGR 281600Z 32008KT 9999 FEW018 BKN210 14/06 Q1007 RMK WIND RWY09 27009KT;",
"08515599999","2010-02-28T17:00:00","4","39.092169","-28.029847","26.21","GRACIOSA, PO","FM-15","LPGR ","V020","310,1,N,0031,1","22000,1,9,N","011265,1,N,1","+0130,1","+0040,1","99999,9","02,5,+00540,1,99,9","07,1,+06000,1,99,9",,"07,99,1,99,9,99,9,99999,9,99,9,99,9",,"10071,1,99999,9",,,,"MET080METAR LPGR 281700Z 31006KT 9999 FEW018 BKN20013/04 Q1007 RMK WIND RWY09 30006KT;",
"08515599999","2010-02-28T18:00:00","4","39.092169","-28.029847","26.21","GRACIOSA, PO","FM-15","LPGR ","V020","290,1,N,0026,1","06000,1,C,N","011265,1,N,1","+0120,1","+0050,1","99999,9","02,5,+00540,1,99,9","07,5,+06000,1,99,9",,"07,99,1,99,9,99,9,99999,9,99,9,99,9",,"10071,1,99999,9",,,,"MET081METAR LPGR 281800Z 29005KT 9999 FEW018 BKN200 12/05 Q1007 RMK WIND RWY09 27004KT;",
"08515599999","2010-03-01T10:00:00","4","39.092169","-28.029847","26.21","GRACIOSA, PO","FM-15","LPGR ","V020","010,1,N,0129,1","99999,9,C,N","011265,1,N,1","+0110,1","+0070,1","99999,9","02,5,+00450,1,09,1","04,5,+00480,1,99,9",,"04,99,1,99,9,99,9,99999,9,99,9,99,9",,"10071,1,99999,9",,,,"MET084METAR LPGR 011000Z 01025KT 9999 FEW015CB SCT016 11/07 Q1007 RMKW WIND RWY09 01020KT;","P01 004803SCOCIG"
"08515599999","2010-03-01T11:00:00","4","39.092169","-28.029847","26.21","GRACIOSA, PO","FM-15","LPGR ","V020","030,1,N,0093,1","22000,1,9,N","011265,1,N,1","+0120,1","+0070,1","99999,9","04,5,+00480,1,99,9",,,"04,99,1,99,9,99,9,99999,9,99,9,99,9",,"10071,1,99999,9",,,,"MET074METAR LPGR 011100Z 03018KT 9999 SCT016 12/07 Q1007 RMK WIND RWY09 01016KT;",
"08515599999","2010-03-01T12:00:00","4","39.092169","-28.029847","26.21","GRACIOSA, PO","FM-15","LPGR ","V020","010,1,N,0118,1","22000,1,9,N","011265,1,N,1","+0120,1","+0080,1","99999,9","04,5,+00480,1,99,9",,,"04,99,1,99,9,99,9,99999,9,99,9,99,9",,"10081,1,99999,9",,,,"MET074METAR LPGR 011200Z 01023KT 9999 SCT016 12/08 Q1008 RMK WIND RWY09 01019KT;",
"08515599999","2010-03-02T11:00:00","4","39.092169","-28.029847","26.21","GRACIOSA, PO","FM-15","LPGR ","V020","020,1,N,0118,1","22000,1,9,N","011265,1,N,1","+0120,1","+0070,1","99999,9","04,5,+00450,1,99,9",,,"04,99,1,99,9,99,9,99999,9,99,9,99,9",,"10139,1,99999,9",,,,"MET082METAR LPGR 021100Z 02023KT 350V060 9999 SCT015 12/07 Q1014 RMK WIND RWY09 02020KT;",
"08515599999","2010-03-02T12:00:00","4","39.092169","-28.029847","26.21","GRACIOSA, PO","FM-15","LPGR ","V020","030,1,N,0072,1","22000,1,9,N","011265,1,N,1","+0130,1","+0060,1","99999,9","04,5,+00480,1,99,9",,,"04,99,1,99,9,99,9,99999,9,99,9,99,9",,"10149,1,99999,9",,,"0123,1","MET085METAR LPGR 021200Z 03014G24KT 360V080 9999 SCT016 13/06 Q1015 RMK WIND RWY09 03018KT;",
"08515599999","2010-03-02T13:00:00","4","39.092169","-28.029847","26.21","GRACIOSA, PO","FM-15","LPGR ","V020","030,1,N,0087,1","06300,1,C,N","011265,1,N,1","+0130,1","+0060,1","99999,9","02,5,+00540,1,99,9","07,5,+06300,1,99,9",,"07,99,1,99,9,99,9,99999,9,99,9,99,9",,"10149,1,99999,9",,,,"MET081METAR LPGR 021300Z 03017KT 9999 FEW018 BKN210 13/06 Q1015 RMK WIND RWY09 03016KT;",
"08515599999","2010-03-03T08:00:00","4","39.092169","-28.029847","26.21","GRACIOSA, PO","FM-15","LPGR ","V020","120,1,N,0062,1","01050,1,C,N","011265,1,N,1","+0110,1","+0040,1","99999,9","02,5,+00480,1,99,9","07,5,+01050,1,99,9",,"07,99,1,99,9,99,9,99999,9,99,9,99,9","999,M,+9999,9","10091,1,99999,9",,,,"MET081METAR LPGR 030800Z 12012KT 9999 FEW016 BKN035 11/04 Q1009 RMK WIND RWY09 11013KT;","Q01 -00132ATMX  "
"08515599999","2010-03-03T09:00:00","4","39.092169","-28.029847","26.21","GRACIOSA, PO","FM-15","LPGR ","V020","120,1,N,0057,1","99999,9,C,N","011265,1,N,1","+0110,1","+0050,1","99999,9","07,5,+01050,5,99,9",,,"02,99,1,99,9,99,9,99999,9,99,9,99,9",,"10090,1,99999,9",,,,"MET082METAR LPGR 030900Z 12011KT 9999 FEW0016 BKN035 11/05 Q1009 RMK WIND RWY09 12010KT;","P01 010503SCOCIG"
"08515599999","2010-03-03T11:00:00","4","39.092169","-28.029847","26.21","GRACIOSA, PO","FM-15","LPGR ","V020","140,1,N,0077,1","02400,1,C,N","011265,1,N,1","+0120,1","+0070,1","99999,9","02,5,+00480,1,99,9","07,5,+02400,1,99,9",,"07,99,1,99,9,99,9,99999,9,99,9,99,9",,"10081,1,99999,9",,,,"MET081METAR LPGR 031100Z 14015KT 9999 FEW016 BKN080 12/07 Q1008 RMK WIND RWY09 13015KT;",
"08515599999","2010-03-03T12:00:00","4","39.092169","-28.029847","26.21","GRACIOSA, PO","FM-15","LPGR ","V020","140,1,N,0062,1","02400,1,C,N","011265,1,N,1","+0120,1","+0060,1","99999,9","02,5,+00480,1,99,9","08,5,+02400,1,99,9",,"08,99,1,99,9,99,9,99999,9,99,9,99,9",,"10081,1,99999,9",,,,"MET081METAR LPGR 031200Z 14012KT 9999 FEW016 OVC080 12/06 Q1008 RMK WIND RWY09 13011KT;",
"08515599999","2010-03-03T15:00:00","4","39.092169","-28.029847","26.21","GRACIOSA, PO","FM-15","LPGR ","V020","120,1,N,0108,1","02400,1,C,N","008000,1,N,1","+0100,1","+0070,1","99999,9","04,5,+00420,1,99,9","08,5,+02400,1,99,9",,"08,99,1,99,9,99,9,99999,9,99,9,99,9","999,M,+9999,9","10051,1,99999,9","61,1",,,"MET085METAR LPGR 031500Z 12021KT 8000 -RA SCT014 OVC080 10/07 Q1005 RMK WIND RWY09 10017KT;","Q01 +00172ATMX  "
"08515599999","2010-03-03T16:00:00","4","39.092169","-28.029847","26.21","GRACIOSA, PO","FM-15","LPGR ","V020","110,1,N,0129,1","00330,1,C,N","009000,1,N,1","+0110,1","+0090,1","99999,9","07,5,+00330,1,99,9","08,5,+02400,1,99,9",,"08,99,1,99,9,99,9,99999,9,99,9,99,9","999,M,+9999,9","10031,1,99999,9","61,1",,,"MET085METAR LPGR 031600Z 11025KT 9000 -RA BKN011 OVC080 11/09 Q1003 RMK WIND RWY09 11024KT;","Q01 -00242ATMX  "
"08515599999","2010-03-03T17:00:00","4","39.092169","-28.029847","26.21","GRACIOSA, PO","FM-15","LPGR ","V020","100,1,N,0129,1","00300,1,C,N","004500,1,N,1","+0100,1","+0090,1","99999,9","07,5,+00300,1,99,9","08,5,+02100,1,99,9",,"08,99,1,99,9,99,9,99999,9,99,9,99,9","999,M,+9999,9","10020,1,99999,9","61,1",,,"MET085METAR LPGR 031700Z 10025KT 4500 -RA BKN010 OVC070 10/09 Q1002 RMK WIND RWY09 10022KT;","Q01 +00222ATMX  "
"08515599999","2010-03-03T18:00:00","4","39.092169","-28.029847","26.21","GRACIOSA, PO","FM-15","LPGR ","V020","110,1,N,0144,1","00300,1,C,N","002000,1,N,1","+0100,1","+0090,1","99999,9","07,5,+00300,1,99,9","08,5,+02100,1,99,9",,"08,99,1,99,9,99,9,99999,9,99,9,99,9","999,M,+9999,9","10010,1,99999,9","63,1",,,"MET084METAR LPGR 031800Z 11028KT 2000 RA BKN010 OVC070 10/09 Q1001 RMK WIND RWY09 10024KT;","Q01 +00242ATMX  "
"08515599999","2010-03-04T13:00:00","4","39.092169","-28.029847","26.21","GRACIOSA, PO","FM-15","LPGR ","V020","250,1,N,0057,1","00360,1,C,N","011265,1,N,1","+0150,1","+0130,1","99999,9","07,5,+00360,1,02,1",,,"07,99,1,99,9,99,9,99999,9,99,9,99,9",,"09970,1,99999,9",,,,"MET077METAR LPGR 041300Z 25011KT 9999 BKN012TCU 15/13 Q0997 RMK WIND RWY09 24011KT;",
"08515599999","2010-03-04T14:00:00","4","39.092169","-28.029847","26.21","GRACIOSA, PO","FM-15","LPGR ","V020","260,1,N,0072,1","00360,1,C,N","011265,1,N,1","+0150,1","+0130,1","99999,9","07,5,+00360,1,02,1",,,"07,99,1,99,9,99,9,99999,9,99,9,99,9",,"09970,1,99999,9","16,1",,,"MET082METAR LPGR 041400Z 26014KT 9999 VCSH BKN012TCU 15/13 Q0997 RMK WIND RWY09 27012KT;",
"08515599999","2010-03-04T15:00:00","4","39.092169","-28.029847","26.21","GRACIOSA, PO","FM-15","LPGR ","V020","260,1,N,0077,1","22000,1,9,N","011265,1,N,1","+0150,1","+0140,1","99999,9","04,5,+00300,1,99,9",,,"04,99,1,99,9,99,9,99999,9,99,9,99,9",,"09970,1,99999,9",,,,"MET074METAR LPGR 041500Z 26015KT 9999 SCT010 15/14 Q0997 RMK WIND RWY09 25013KT;",
"08515599999","2010-03-04T16:00:00","4","39.092169","-28.029847","26.21","GRACIOSA, PO","FM-15","LPGR ","V020","270,1,N,0067,1","22000,1,9,N","011265,1,N,1","+0150,1","+0140,1","99999,9","04,5,+00360,1,99,9",,,"04,99,1,99,9,99,9,99999,9,99,9,99,9",,"09970,1,99999,9",,,,"MET074METAR LPGR 041600Z 27013KT 9999 SCT012 15/14 Q0997 RMK WIND RWY09 26012KT;",
"08515599999","2010-03-05T13:00:00","4","39.092169","-28.029847","26.21","GRACIOSA, PO","FM-15","LPGR ","V020","330,1,N,0051,1","99999,9,C,N","011265,1,N,1","+0140,1","+0140,1","99999,9","04,5,+00330,1,99,9","04,5,+00750,1,99,9",,"04,99,1,99,9,99,9,99999,9,99,9,99,9",,"10041,1,99999,9",,,,"MET081METAR LPGR 051300Z 33010KT 9999 SCT011 SCT025 14/14 Q1004 RMK WIND RWY09 32011KT;","P01 007503SCOCIG"
"08515599999","2010-03-05T14:00:00","4","39.092169","-28.029847","26.21","GRACIOSA, PO","FM-15","LPGR ","V020","330,1,N,0051,1","22000,1,9,N","011265,1,N,1","+0150,1","+0140,1","99999,9","04,5,+00420,1,99,9",,,"04,99,1,99,9,99,9,99999,9,99,9,99,9",,"10041,1,99999,9",,,,"MET074METAR LPGR 051400Z 33010KT 9999 SCT014 15/14 Q1004 RMK WIND RWY09 31010KT;",
"08515599999","2010-03-05T15:00:00","4","39.092169","-28.029847","26.21","GRACIOSA, PO","FM-15","LPGR ","V020","320,1,N,0046,1","99999,9,C,N","011265,1,N,1","+0150,1","+0140,1","99999,9","04,5,+00330,1,99,9","04,5,+00900,1,99,9",,"04,99,1,99,9,99,9,99999,9,99,9,99,9",,"10041,1,99999,9",,,,"MET081METAR LPGR 051500Z 32009KT 9999 SCT011 SCT030 15/14 Q1004 RMK WIND RWY09 30010KT;","P01 009003SCOCIG"
"08515599999","2010-03-05T16:00:00","4","39.092169","-28.029847","26.21","GRACIOSA, PO","FM-15","LPGR ","V020","320,1,N,0051,1","22000,1,9,N","011265,1,N,1","+0150,1","+0140,1","99999,9","02,5,+00390,1,99,9",,,"02,99,1,99,9,99,9,99999,9,99,9,99,9",,"10041,1,99999,9",,,,"MET074METAR LPGR 051600Z 32010KT 9999 FEW013 15/14 Q1004 RMK WIND RWY09 31009KT;",
"08515599999","2010-03-06T16:00:00","4","39.092169","-28.029847","26.21","GRACIOSA, PO","FM-15","LPGR ","V020","240,1,N,0098,1","02400,1,C,N","011265,1,N,1","+0160,1","+0130,1","99999,9","04,5,+00390,1,99,9","08,5,+02400,1,99,9",,"08,99,1,99,9,99,9,99999,9,99,9,99,9",,"10061,1,99999,9",,,,"MET081METAR LPGR 061600Z 24019KT 9999 SCT013 OVC080 16/13 Q1006 RMK WIND RWY09 23013KT;",
"08515599999","2010-03-06T17:00:00","4","39.092169","-28.029847","26.21","GRACIOSA, PO","FM-15","LPGR ","V020","240,1,N,0082,1","02400,1,C,N","011265,1,N,1","+0160,1","+0140,1","99999,9","04,5,+00330,1,99,9","08,5,+02400,1,99,9",,"08,99,1,99,9,99,9,99999,9,99,9,99,9",,"10061,1,99999,9",,,,"MET081METAR LPGR 061700Z 24016KT 9999 SCT011 OVC080 16/14 Q1006 RMK WIND RWY09 23014KT;",
"08515599999","2010-03-07T16:00:00","4","39.092169","-28.029847","26.21","GRACIOSA, PO","FM-15","LPGR ","V020","240,1,N,0072,1","00300,1,C,N","006000,1,N,1","+0150,1","+0140,1","99999,9","04,5,+00180,1,99,9","07,5,+00300,1,99,9","08,5,+02100,1,99,9","08,99,1,99,9,99,9,99999,9,99,9,99,9",,"10051,1,99999,9","61,1",,,"MET092METAR LPGR 071600Z 24014KT 6000 -RA SCT006 BKN010 OVC070 15/14 Q1005 RMK WIND RWY09 24016KT;",
"08515599999","2010-03-07T17:00:00","4","39.092169","-28.029847","26.21","GRACIOSA, PO","FM-15","LPGR ","V020","240,1,N,0041,1","00300,1,C,N","004500,1,N,1","+0150,1","+0140,1","99999,9","04,5,+00210,1,99,9","07,5,+00300,1,99,9","08,5,+02100,1,99,9","08,99,1,99,9,99,9,99999,9,99,9,99,9",,"10041,1,99999,9","61,1",,,"MET092METAR LPGR 071700Z 24008KT 4500 -RA SCT007 BKN010 OVC070 15/14 Q1004 RMK WIND RWY09 24010KT;",
"08515599999","2010-03-08T10:00:00","4","39.092169","-28.029847","26.21","GRACIOSA, PO","FM-15","LPGR ","V020","250,1,N,0082,1","06300,1,C,N","011265,1,N,1","+0150,1","+0140,1","99999,9","02,5,+00300,1,99,9","07,5,+06300,1,99,9",,"07,99,1,99,9,99,9,99999,9,99,9,99,9",,"10091,1,99999,9",,,,"MET081METAR LPGR 081000Z 25016KT 9999 FEW010 BKN210 15/14 Q1009 RMK WIND RWY09 25016KT;",
"08515599999","2010-03-08T11:00:00","4","39.092169","-28.029847","26.21","GRACIOSA, PO","FM-15","LPGR ","V020","270,1,N,0087,1","06300,1,C,N","011265,1,N,1","+0150,1","+0150,1","99999,9","02,5,+00300,1,99,9","07,5,+06300,1,99,9",,"07,99,1,99,9,99,9,99999,9,99,9,99,9",,"10102,1,99999,9",,,,"MET081METAR LPGR 081100Z 27017KT 9999 FEW010 BKN210 15/15 Q1010 RMK WIND RWY09 26015KT;",
"08515599999","2010-03-08T12:00:00","4","39.092169","-28.029847","26.21","GRACIOSA, PO","FM-15","LPGR ","V020","260,1,N,0082,1","06300,1,C,N","011265,1,N,1","+0160,1","+0150,1","99999,9","04,5,+00300,1,99,9","07,5,+06300,1,99,9",,"07,99,1,99,9,99,9,99999,9,99,9,99,9",,"10108,1,99999,9",,,,"MET081METAR LPGR 081200Z 26016KT 9999 SCT010 BKN210 16/15 Q1011 RMK WIND RWY09 26014KT;",
"08515599999","2010-03-08T13:00:00","4","39.092169","-28.029847","26.21","GRACIOSA, PO","FM-15","LPGR ","V020","260,1,N,0093,1","06300,1,C,N","011265,1,N,1","+0170,1","+0140,1","99999,9","02,5,+00300,1,99,9","07,5,+06300,1,99,9",,"07,99,1,99,9,99,9,99999,9,99,9,99,9",,"10119,1,99999,9",,,,"MET081METAR LPGR 081300Z 26018KT 9999 FEW010 BKN210 17/14 Q1012 RMK WIND RWY09 26015KT;",
"08515599999","2010-03-09T11:00:00","4","39.092169","-28.029847","26.21","GRACIOSA, PO","FM-15","LPGR ","V020","230,1,N,0026,1","02400,1,C,N","011265,1,N,1","+0150,1","+0140,1","99999,9","02,5,+00390,1,99,9","08,5,+02400,1,99,9",,"08,99,1,99,9,99,9,99999,9,99,9,99,9",,"10159,1,99999,9",,,,"MET081METAR LPGR 091100Z 23005KT 9999 FEW013 OVC080 15/14 Q1016 RMK WIND RWY09 24006KT;",
"08515599999","2010-03-09T12:00:00","4","39.092169","-28.029847","26.21","GRACIOSA, PO","FM-15","LPGR ","V020","230,1,N,0041,1","02400,1,C,N","008000,1,N,1","+0150,1","+0140,1","99999,9","04,5,+00300,1,99,9","08,5,+02400,1,99,9",,"08,99,1,99,9,99,9,99999,9,99,9,99,9",,"10159,1,99999,9","61,1",,,"MET085METAR LPGR 091200Z 23008KT 8000 -RA SCT010 OVC080 15/14 Q1016 RMK WIND RWY09 24006KT;",
"08515599999","2010-03-09T13:00:00","4","39.092169","-28.029847","26.21","GRACIOSA, PO","FM-15","LPGR ","V020","240,1,N,0041,1","02400,1,C,N","006000,1,N,1","+0150,1","+0140,1","99999,9","04,5,+00300,1,99,9","08,5,+02400,1,99,9",,"08,99,1,99,9,99,9,99999,9,99,9,99,9",,"10159,1,99999,9","61,1",,,"MET085METAR LPGR 091300Z 24008KT 6000 -RA SCT010 OVC080 15/14 Q1016 RMK WIND RWY09 25005KT;",
"08515599999","2010-03-09T14:00:00","4","39.092169","-28.029847","26.21","GRACIOSA, PO","FM-15","LPGR ","V020","330,1,N,0026,1","02400,1,C,N","006000,1,N,1","+0140,1","+0120,1","99999,9","02,5,+00360,1,99,9","08,5,+02400,1,99,9",,"08,99,1,99,9,99,9,99999,9,99,9,99,9",,"10159,1,99999,9","61,1",,,"MET085METAR LPGR 091400Z 33005KT 6000 -RA FEW012 OVC080 14/12 Q1016 RMK WIND RWY09 32008KT;",
"08515599999","2010-03-09T15:00:00","4","39.092169","-28.029847","26.21","GRACIOSA, PO","FM-15","LPGR ","V020","010,1,N,0067,1","02400,1,C,N","008000,1,N,1","+0140,1","+0110,1","99999,9","04,5,+00390,1,99,9","08,5,+02400,1,99,9",,"08,99,1,99,9,99,9,99999,9,99,9,99,9",,"10149,1,99999,9","61,1",,,"MET085METAR LPGR 091500Z 01013KT 8000 -RA SCT013 OVC080 14/11 Q1015 RMK WIND RWY09 01008KT;",
"08515599999","2010-03-10T08:00:00","4","39.092169","-28.029847","26.21","GRACIOSA, PO","FM-15","LPGR ","V020","310,1,N,0046,1","00360,1,C,N","011265,1,N,1","+0140,1","+0120,1","99999,9","07,5,+00360,1,99,9",,,"07,99,1,99,9,99,9,99999,9,99,9,99,9",,"10159,1,99999,9",,,,"MET074METAR LPGR 100800Z 31009KT 9999 BKN012 14/12 Q1016 RMK WIND RWY09 30008KT;",
"08515599999","2010-03-10T09:00:00","4","39.092169","-28.029847","26.21","GRACIOSA, PO","FM-15","LPGR ","V020","330,1,N,0046,1","22000,1,9,N","011265,1,N,1","+0140,1","+0120,1","99999,9","04,5,+00360,1,99,9",,,"04,99,1,99,9,99,9,99999,9,99,9,99,9",,"10159,1,99999,9",,,,"MET074METAR LPGR 100900Z 33009KT 9999 SCT012 14/12 Q1016 RMK WIND RWY09 32010KT;",
"08515599999","2010-03-10T10:00:00","4","39.092169","-28.029847","26.21","GRACIOSA, PO","FM-15","LPGR ","V020","340,1,N,0051,1","22000,1,9,N","011265,1,N,1","+0140,1","+0120,1","99999,9","02,5,+00360,1,99,9",,,"02,99,1,99,9,99,9,99999,9,99,9,99,9",,"10169,1,99999,9",,,,"MET074METAR LPGR 101000Z 34010KT 9999 FEW012 14/12 Q1017 RMK WIND RWY09 33010KT;",
"08515599999","2010-03-10T11:00:00","4","39.092169","-28.029847","26.21","GRACIOSA, PO","FM-15","LPGR ","V020","350,1,N,0051,1","22000,1,9,N","011265,1,N,1","+0150,1","+0120,1","99999,9","02,5,+00390,1,99,9",,,"02,99,1,99,9,99,9,99999,9,99,9,99,9",,"10169,1,99999,9",,,,"MET074METAR LPGR 101100Z 35010KT 9999 FEW013 15/12 Q1017 RMK WIND RWY09 32010KT;",
"08515599999","2010-03-10T12:00:00","4","39.092169","-28.029847","26.21","GRACIOSA, PO","FM-15","LPGR ","V020","320,1,N,0041,1","22000,1,9,N","011265,1,N,1","+0150,1","+0120,1","99999,9","04,5,+00420,1,99,9",,,"04,99,1,99,9,99,9,99999,9,99,9,99,9",,"10180,1,99999,9",,,,"MET074METAR LPGR 101200Z 32008KT 9999 SCT014 15/12 Q1018 RMK WIND RWY09 31009KT;",
"08515599999","2010-03-10T13:00:00","4","39.092169","-28.029847","26.21","GRACIOSA, PO","FM-15","LPGR ","V020","340,1,N,0046,1","22000,1,9,N","011265,1,N,1","+0150,1","+0120,1","99999,9","02,5,+00420,1,99,9",,,"02,99,1,99,9,99,9,99999,9,99,9,99,9",,"10180,1,99999,9",,,,"MET074METAR LPGR 101300Z 34009KT 9999 FEW014 15/12 Q1018 RMK WIND RWY09 32010KT;",
"08515599999","2010-03-10T15:00:00","4","39.092169","-28.029847","26.21","GRACIOSA, PO","FM-15","LPGR ","V020","010,1,N,0067,1","22000,1,9,N","011265,1,N,1","+0160,1","+0130,1","99999,9","02,5,+00420,1,99,9",,,"02,99,1,99,9,99,9,99999,9,99,9,99,9",,"10169,1,99999,9",,,,"MET074METAR LPGR 101500Z 01013KT 9999 FEW014 16/13 Q1017 RMK WIND RWY09 36013KT;",
"08515599999","2010-03-10T16:00:00","4","39.092169","-28.029847","26.21","GRACIOSA, PO","FM-15","LPGR ","V020","010,1,N,0067,1","22000,1,9,N","011265,1,N,1","+0150,1","+0130,1","99999,9","04,5,+00420,1,99,9",,,"04,99,1,99,9,99,9,99999,9,99,9,99,9",,"10169,1,99999,9",,,,"MET074METAR LPGR 101600Z 01013KT 9999 SCT014 15/13 Q1017 RMK WIND RWY09 36012KT;",
"08515599999","2010-03-10T17:00:00","4","39.092169","-28.029847","26.21","GRACIOSA, PO","FM-15","LPGR ","V020","010,1,N,0072,1","99999,9,C,N","011265,1,N,1","+0150,1","+0130,1","99999,9","02,5,+00420,1,99,9","04,5,+06300,1,99,9",,"04,99,1,99,9,99,9,99999,9,99,9,99,9",,"10169,1,99999,9",,,,"MET081METAR LPGR 101700Z 01014KT 9999 FEW014 SCT210 15/13 Q1017 RMK WIND RWY09 01012KT;","P01 063003SCOCIG"
"08515599999","2010-03-10T18:00:00","4","39.092169","-28.029847","26.21","GRACIOSA, PO","FM-15","LPGR ","V020","020,1,N,0057,1","99999,9,C,N","011265,1,N,1","+0150,1","+0130,1","99999,9","02,5,+00420,1,99,9","04,5,+06300,1,99,9",,"04,99,1,99,9,99,9,99999,9,99,9,99,9",,"10180,1,99999,9",,,,"MET081METAR LPGR 101800Z 02011KT 9999 FEW014 SCT210 15/13 Q1018 RMK WIND RWY09 01011KT;","P01 063003SCOCIG"
"08515599999","2010-03-11T14:00:00","4","39.092169","-28.029847","26.21","GRACIOSA, PO","FM-15","LPGR ","V020","110,1,N,0051,1","06300,1,C,N","011265,1,N,1","+0150,1","+0100,1","99999,9","02,5,+00450,1,99,9","07,5,+06300,1,99,9",,"07,99,1,99,9,99,9,99999,9,99,9,99,9",,"10200,1,99999,9",,,,"MET081METAR LPGR 111400Z 11010KT 9999 FEW015 BKN210 15/10 Q1020 RMK WIND RWY09 08008KT;",
"08515599999","2010-03-11T15:00:00","4","39.092169","-28.029847","26.21","GRACIOSA, PO","FM-15","LPGR ","V020","110,1,N,0051,1","06300,1,C,N","011265,1,N,1","+0150,1","+0100,1","99999,9","02,5,+00450,1,99,9","07,5,+06300,1,99,9",,"07,99,1,99,9,99,9,99999,9,99,9,99,9","999,M,+9999,9","10200,1,99999,9",,,,"MET081METAR LPGR 111500Z 11010KT 9999 FEW015 BKN210 15/10 Q1020 RMK WIND RWY09 10010KT;","Q01 +00102ATMX  "
"08515599999","2010-03-11T16:00:00","4","39.092169","-28.029847","26.21","GRACIOSA, PO","FM-15","LPGR ","V020","110,1,N,0057,1","06300,1,C,N","011265,1,N,1","+0150,1","+0100,1","99999,9","02,5,+00450,1,99,9","07,5,+06300,1,99,9",,"07,99,1,99,9,99,9,99999,9,99,9,99,9",,"10190,1,99999,9",,,,"MET081METAR LPGR 111600Z 11011KT 9999 FEW015 BKN210 15/10 Q1019 RMK WIND RWY09 12009KT;",
"08515599999","2010-03-12T13:00:00","4","39.092169","-28.029847","26.21","GRACIOSA, PO","FM-15","LPGR ","V020","160,1,N,0082,1","99999,9,C,N","011265,1,N,1","+0160,1","+0120,1","99999,9","02,5,+00450,1,99,9","04,5,+00900,1,99,9",,"04,99,1,99,9,99,9,99999,9,99,9,99,9",,"10220,1,99999,9",,,,"MET081METAR LPGR 121300Z 16016KT 9999 FEW015 SCT030 16/12 Q1022 RMK WIND RWY09 15017KT;","P01 009003SCOCIG"
"08515599999","2010-03-12T15:00:00","4","39.092169","-28.029847","26.21","GRACIOSA, PO","FM-15","LPGR ","V020","150,1,N,0087,1","06300,1,C,N","011265,1,N,1","+0160,1","+0120,1","99999,9","02,5,+00450,1,99,9","07,5,+06300,1,99,9",,"07,99,1,99,9,99,9,99999,9,99,9,99,9",,"10210,1,99999,9",,,,"MET081METAR LPGR 121500Z 15017KT 9999 FEW015 BKN210 16/12 Q1021 RMK WIND RWY09 14017KT;",
"08515599999","2010-03-12T16:00:00","4","39.092169","-28.029847","26.21","GRACIOSA, PO","FM-15","LPGR ","V020","150,1,N,0077,1","06300,1,C,N","011265,1,N,1","+0150,1","+0120,1","99999,9","02,5,+00450,1,99,9","07,5,+06300,1,99,9",,"07,99,1,99,9,99,9,99999,9,99,9,99,9",,"10210,1,99999,9",,,,"MET081METAR LPGR 121600Z 15015KT 9999 FEW015 BKN210 15/12 Q1021 RMK WIND RWY09 15017KT;",
"08515599999","2010-03-13T15:00:00","4","39.092169","-28.029847","26.21","GRACIOSA, PO","FM-15","LPGR ","V020","140,1,N,0103,1","00300,1,C,N","002500,1,N,1","+0160,1","+0150,1","99999,9","04,5,+00090,1,99,9","07,5,+00300,1,99,9","08,5,+02100,1,99,9","08,99,1,99,9,99,9,99999,9,99,9,99,9",,"10139,1,99999,9","51,1",,,"MET092METAR LPGR 131500Z 14020KT 2500 -DZ SCT003 BKN010 OVC070 16/15 Q1014 RMK WIND RWY09 13019KT;",
"08515599999","2010-03-13T16:00:00","4","39.092169","-28.029847","26.21","GRACIOSA, PO","FM-15","LPGR ","V020","140,1,N,0082,1","00300,1,C,N","001500,1,N,1","+0160,1","+0160,1","99999,9","04,5,+00090,1,99,9","07,5,+00300,1,99,9","08,5,+02100,1,99,9","08,99,1,99,9,99,9,99999,9,99,9,99,9",,"10129,1,99999,9","10,1",,,"MET098METAR LPGR 131600Z 14016KT 1500E 6000W BR SCT003 BKN010 OVC070 16/16 Q1013 RMK WIND RWY09 13016KT;",
"08515599999","2010-03-13T17:00:00","4","39.092169","-28.029847","26.21","GRACIOSA, PO","FM-15","LPGR ","V020","130,1,N,0067,1","00300,1,C,N","004000,1,N,1","+0170,1","+0160,1","99999,9","04,5,+00120,1,99,9","07,5,+00300,1,99,9","08,5,+02400,1,99,9","08,99,1,99,9,99,9,99999,9,99,9,99,9",,"10119,1,99999,9","10,1",,,"MET092METAR LPGR 131700Z 13013KT 4000E BR SCT004 BKN010 OVC080 17/16 Q1012 RMK WIND RWY09 14017KT;",
"08515599999","2010-03-13T18:00:00","4","39.092169","-28.029847","26.21","GRACIOSA, PO","FM-15","LPGR ","V020","140,1,N,0077,1","00300,1,C,N","004000,1,N,1","+0160,1","+0150,1","99999,9","04,5,+00090,1,99,9","07,5,+00300,1,99,9","08,5,+02400,1,99,9","08,99,1,99,9,99,9,99999,9,99,9,99,9",,"10119,1,99999,9","10,1",,,"MET091METAR LPGR 131800Z 14015KT 4000 BR SCT003 BKN010 OVC080 16/15 Q1012 RMK WIND RWY09 15009KT;",
"08515599999","2010-03-14T12:00:00","4","39.092169","-28.029847","26.21","GRACIOSA, PO","FM-15","LPGR ","V020","260,1,N,0087,1","22000,1,9,N","011265,1,N,1","+0160,1","+0130,1","99999,9","02,5,+00450,1,99,9",,,"02,99,1,99,9,99,9,99999,9,99,9,99,9",,"10129,1,99999,9",,,,"MET074METAR LPGR 141200Z 26017KT 9999 FEW015 16/13 Q1013 RMK WIND RWY09 26015KT;",
"08515599999","2010-03-14T16:00:00","4","39.092169","-28.029847","26.21","GRACIOSA, PO","FM-15","LPGR ","V020","260,1,N,0093,1","22000,1,9,N","011265,1,N,1","+0170,1","+0130,1","99999,9","02,5,+00480,1,99,9",,,"02,99,1,99,9,99,9,99999,9,99,9,99,9",,"10108,1,99999,9",,,,"MET074METAR LPGR 141600Z 26018KT 9999 FEW016 17/13 Q1011 RMK WIND RWY09 25016KT;",
"08515599999","2010-03-14T17:00:00","4","39.092169","-28.029847","26.21","GRACIOSA, PO","FM-15","LPGR ","V020","250,1,N,0082,1","22000,1,9,N","011265,1,N,1","+0160,1","+0120,1","99999,9","02,5,+00480,1,99,9",,,"02,99,1,99,9,99,9,99999,9,99,9,99,9",,"10108,1,99999,9",,,,"MET074METAR LPGR 141700Z 25016KT 9999 FEW016 16/12 Q1011 RMK WIND RWY09 25016KT;",
"08515599999","2010-03-15T10:00:00","4","39.092169","-28.029847","26.21","GRACIOSA, PO","FM-15","LPGR ","V020","260,1,N,0180,1","00450,5,C,N","007000,1,N,1","+0120,1","+0070,1","99999,9","04,5,+00420,1,09,1","02,5,+00450,1,99,9",,,,"10031,1,99999,9","81,1",,"0283,1","MET094METAR LPGR 151000Z 26035G55KT 7000 SHRA SCT014CB FEW015 12/07 Q1003 RMK WIND RWY09 25042G54KT;","Q01+000022SCOTCV"
"08515599999","2010-03-15T11:00:00","4","39.092169","-28.029847","26.21","GRACIOSA, PO","FM-15","LPGR ","V020","290,1,N,0165,1","22000,1,9,N","011265,1,N,1","+0140,1","+0080,1","99999,9","02,5,+00420,1,09,1","02,5,+00450,1,99,9",,"02,99,1,99,9,99,9,99999,9,99,9,99,9",,"10041,1,99999,9",,,"0247,1","MET089METAR LPGR 151100Z 29032G48KT 9999 FEW014CB FEW015 14/08 Q1004 RMK WIND RWY09 28036G48KT;",
"08515599999","2010-03-15T12:00:00","4","39.092169","-28.029847","26.21","GRACIOSA, PO","FM-15","LPGR ","V020","270,1,N,0159,1","22000,1,9,N","011265,1,N,1","+0130,1","+0080,1","99999,9","02,5,+00450,1,99,9",,,"02,99,1,99,9,99,9,99999,9,99,9,99,9",,"10041,1,99999,9",,,"0226,1","MET080METAR LPGR 151200Z 27031G44KT 9999 FEW015 13/08 Q1004 RMK WIND RWY09 27032G43KT;",
"08515599999","2010-03-16T10:00:00","4","39.092169","-28.029847","26.21","GRACIOSA, PO","FM-15","LPGR ","V020","230,1,N,0057,1","06300,1,C,N","011265,1,N,1","+0140,1","+0090,1","99999,9","02,5,+00480,1,99,9","07,5,+06300,1,99,9",,"07,99,1,99,9,99,9,99999,9,99,9,99,9",,"10129,1,99999,9",,,,"MET081METAR LPGR 161000Z 23011KT 9999 FEW016 BKN210 14/09 Q1013 RMK WIND RWY09 24012KT;",
"08515599999","2010-03-16T11:00:00","4","39.092169","-28.029847","26.21","GRACIOSA, PO","FM-15","LPGR ","V020","210,1,N,0067,1","06300,1,C,N","011265,1,N,1","+0140,1","+0080,1","99999,9","02,5,+00480,1,99,9","07,5,+06300,1,99,9",,"07,99,1,99,9,99,9,99999,9,99,9,99,9",,"10119,1,99999,9",,,,"MET081METAR LPGR 161100Z 21013KT 9999 FEW016 BKN210 14/08 Q1012 RMK WIND RWY09 21011KT;",
"08515599999","2010-03-16T12:00:00","4","39.092169","-28.029847","26.21","GRACIOSA, PO","FM-15","LPGR ","V020","200,1,N,0046,1","06000,1,C,N","011265,1,N,1","+0150,1","+0090,1","99999,9","02,5,+00480,1,99,9","08,5,+06000,1,99,9",,"08,99,1,99,9,99,9,99999,9,99,9,99,9",,"10119,1,99999,9",,,,"MET081METAR LPGR 161200Z 20009KT 9999 FEW016 OVC200 15/09 Q1012 RMK WIND RWY09 19009KT;",
"08515599999","2010-03-17T08:00:00","4","39.092169","-28.029847","26.21","GRACIOSA, PO","FM-15","LPGR ","V020","230,1,N,0113,1","00300,1,C,N","005000,1,N,1","+0160,1","+0140,1","99999,9","07,5,+00300,1,99,9","07,5,+00750,1,99,9",,"07,99,1,99,9,99,9,99999,9,99,9,99,9",,"09959,1,99999,9","80,1",,"0175,1","MET093METAR LPGR 170800Z 23022G34KT 5000 -SHRA BKN010 BKN025 16/14 Q0996 RMK WIND RWY09 22022G34KT;",
"08515599999","2010-03-17T09:00:00","4","39.092169","-28.029847","26.21","GRACIOSA, PO","FM-15","LPGR ","V020","250,1,N,0113,1","00300,1,C,N","002500,1,N,1","+0150,1","+0140,1","99999,9","07,5,+00300,1,99,9","08,5,+02100,1,99,9",,"08,99,1,99,9,99,9,99999,9,99,9,99,9",,"09970,1,99999,9","63,1",,,"MET084METAR LPGR 170900Z 25022KT 2500 RA BKN010 OVC070 15/14 Q0997 RMK WIND RWY09 24020KT;",
"08515599999","2010-03-17T10:00:00","4","39.092169","-28.029847","26.21","GRACIOSA, PO","FM-15","LPGR ","V020","250,1,N,0103,1","00300,1,C,N","011265,1,N,1","+0160,1","+0150,1","99999,9","07,5,+00300,1,99,9","07,5,+00750,1,99,9",,"07,99,1,99,9,99,9,99999,9,99,9,99,9",,"09970,1,99999,9",,,,"MET084METAR LPGR 171000Z 25020KT 9999 BKN010 BKN025 16/15 Q0997 RMK WIND RWY09 24018G28KT;",
"08515599999","2010-03-17T15:00:00","4","39.092169","-28.029847","26.21","GRACIOSA, PO","FM-15","LPGR ","V020","240,1,N,0113,1","00900,1,C,N","009000,1,N,1","+0170,1","+0150,1","99999,9","04,5,+00390,1,99,9","07,5,+00900,1,99,9",,"07,99,1,99,9,99,9,99999,9,99,9,99,9",,"09980,1,99999,9",,,,"MET081METAR LPGR 171500Z 24022KT 9000 SCT013 BKN030 17/15 Q0998 RMK WIND RWY09 22018KT;",
"08515599999","2010-03-17T16:00:00","4","39.092169","-28.029847","26.21","GRACIOSA, PO","FM-15","LPGR ","V020","250,1,N,0108,1","00300,1,C,N","009000,1,N,1","+0160,1","+0150,1","99999,9","07,5,+00300,1,99,9","07,5,+00750,1,99,9",,"07,99,1,99,9,99,9,99999,9,99,9,99,9",,"09980,1,99999,9",,,,"MET081METAR LPGR 171600Z 25021KT 9000 BKN010 BKN025 16/15 Q0998 RMK WIND RWY09 25017KT;",
"08515599999","2010-03-17T17:00:00","4","39.092169","-28.029847","26.21","GRACIOSA, PO","FM-15","LPGR ","V020","010,1,N,0077,1","00300,1,C,N","009000,1,N,1","+0140,1","+0130,1","99999,9","07,5,+00300,1,99,9","07,5,+00750,1,99,9",,"07,99,1,99,9,99,9,99999,9,99,9,99,9",,"09990,1,99999,9",,,,"MET081METAR LPGR 171700Z 01015KT 9000 BKN010 BKN025 14/13 Q0999 RMK WIND RWY09 35015KT;",
"08515599999","2010-03-17T18:00:00","4","39.092169","-28.029847","26.21","GRACIOSA, PO","FM-15","LPGR ","V020","010,1,N,0057,1","00900,1,C,N","011265,1,N,1","+0130,1","+0120,1","99999,9","04,5,+00300,1,99,9","07,5,+00900,1,99,9",,"07,99,1,99,9,99,9,99999,9,99,9,99,9",,"10000,1,99999,9",,,,"MET081METAR LPGR 171800Z 01011KT 9999 SCT010 BKN030 13/12 Q1000 RMK WIND RWY09 01009KT;",
"08515599999","2010-03-18T13:00:00","4","39.092169","-28.029847","26.21","GRACIOSA, PO","FM-15","LPGR ","V020","240,1,N,0103,1","99999,9,C,N","011265,1,N,1","+0180,1","+0150,1","99999,9","02,5,+00390,1,99,9","04,5,+06300,1,99,9",,"04,99,1,99,9,99,9,99999,9,99,9,99,9",,"09980,1,99999,9",,,,"MET084METAR LPGR 181300Z 24020KT 9999 FEW013 SCT210 18/15 Q0998 RMK WIND RWY09 23018G28KT;","P01 063003SCOCIG"
"08515599999","2010-03-18T14:00:00","4","39.092169","-28.029847","26.21","GRACIOSA, PO","FM-15","LPGR ","V020","230,1,N,0113,1","99999,9,C,N","011265,1,N,1","+0180,1","+0150,1","99999,9","02,5,+00360,1,99,9","04,5,+06300,1,99,9",,"04,99,1,99,9,99,9,99999,9,99,9,99,9",,"09980,1,99999,9",,,,"MET081METAR LPGR 181400Z 23022KT 9999 FEW012 SCT210 18/15 Q0998 RMK WIND RWY09 23018KT;","P01 063003SCOCIG"
"08515599999","2010-03-18T15:00:00","4","39.092169","-28.029847","26.21","GRACIOSA, PO","FM-15","LPGR ","V020","240,1,N,0093,1","00360,1,C,N","008000,1,N,1","+0170,1","+0150,1","99999,9","07,5,+00360,1,09,1","07,5,+00390,1,99,9",,"07,99,1,99,9,99,9,99999,9,99,9,99,9",,"09970,1,99999,9","81,1","95,1",,"MET088METAR LPGR 181500Z 24018KT 8000 TSRA BKN012CB BKN013 17/15 Q0997 RMK WIND RWY09 22018KT;",
"08515599999","2010-03-18T16:00:00","4","39.092169","-28.029847","26.21","GRACIOSA, PO","FM-15","LPGR ","V020","230,1,N,0103,1","99999,9,C,N","011265,1,N,1","+0180,1","+0150,1","99999,9","02,5,+00390,1,09,1","02,5,+00420,1,99,9","04,5,+06300,1,99,9","04,99,1,99,9,99,9,99999,9,99,9,99,9",,"09959,1,99999,9",,,,"MET090METAR LPGR 181600Z 23020KT 9999 FEW013CB FEW014 SCT210 18/15 Q0996 RMK WIND RWY09 22018KT;","P01 063003SCOCIG"
"08515599999","2010-03-18T17:00:00","4","39.092169","-28.029847","26.21","GRACIOSA, PO","FM-15","LPGR ","V020","240,1,N,0093,1","00360,1,C,N","011265,1,N,1","+0170,1","+0150,1","99999,9","07,5,+00360,1,09,1","04,5,+00390,1,99,9",,,,"09959,1,99999,9","17,1",,,"MET086METAR LPGR 181700Z 24018KT 9999 TS BKN012CB SCT013 17/15 Q0996 RMK WIND RWY09 22018KT;","Q01+000042SCOTCV"
"08515599999","2010-03-19T13:00:00","4","39.092169","-28.029847","26.21","GRACIOSA, PO","FM-15","LPGR ","V020","010,1,N,0093,1","99999,9,C,N","011265,1,N,1","+0150,1","+0100,1","99999,9","02,5,+00450,1,99,9","04,5,+00900,1,99,9",,"04,99,1,99,9,99,9,99999,9,99,9,99,9",,"10129,1,99999,9",,,,"MET081METAR LPGR 191300Z 01018KT 9999 FEW015 SCT030 15/10 Q1013 RMK WIND RWY09 35018KT;","P01 009003SCOCIG"
"08515599999","2010-03-19T14:00:00","4","39.092169","-28.029847","26.21","GRACIOSA, PO","FM-15","LPGR ","V020","360,1,N,0103,1","22000,1,9,N","011265,1,N,1","+0160,1","+0110,1","99999,9","02,5,+00480,1,99,9",,,"02,99,1,99,9,99,9,99999,9,99,9,99,9",,"10139,1,99999,9",,,,"MET074METAR LPGR 191400Z 36020KT 9999 FEW016 16/11 Q1014 RMK WIND RWY09 34018KT;",
"08515599999","2010-03-19T15:00:00","4","39.092169","-28.029847","26.21","GRACIOSA, PO","FM-15","LPGR ","V020","360,1,N,0082,1","22000,1,9,N","011265,1,N,1","+0150,1","+0100,1","99999,9","02,5,+00480,1,99,9",,,"02,99,1,99,9,99,9,99999,9,99,9,99,9",,"10149,1,99999,9",,,,"MET074METAR LPGR 191500Z 36016KT 9999 FEW016 15/10 Q1015 RMK WIND RWY09 33012KT;",
"08515599999","2010-03-19T16:00:00","4","39.092169","-28.029847","26.21","GRACIOSA, PO","FM-15","LPGR ","V020","010,1,N,0082,1","22000,1,9,N","011265,1,N,1","+0150,1","+0100,1","99999,9","02,5,+00480,1,99,9",,,"02,99,1,99,9,99,9,99999,9,99,9,99,9",,"10149,1,99999,9",,,,"MET074METAR LPGR 191600Z 01016KT 9999 FEW016 15/10 Q1015 RMK WIND RWY09 35012KT;",
"08515599999","2010-03-19T17:00:00","4","39.092169","-28.029847","26.21","GRACIOSA, PO","FM-15","LPGR ","V020","350,1,N,0077,1","01050,1,C,N","011265,1,N,1","+0150,1","+0100,1","99999,9","02,5,+00480,1,99,9","07,5,+01050,1,99,9",,"07,99,1,99,9,99,9,99999,9,99,9,99,9",,"10159,1,99999,9",,,,"MET081METAR LPGR 191700Z 35015KT 9999 FEW016 BKN035 15/10 Q1016 RMK WIND RWY09 33015KT;",
"08515599999","2010-03-19T18:00:00","4","39.092169","-28.029847","26.21","GRACIOSA, PO","FM-15","LPGR ","V020","350,1,N,0077,1","01050,1,C,N","011265,1,N,1","+0140,1","+0090,1","99999,9","02,5,+00480,1,99,9","07,5,+01050,1,99,9",,"07,99,1,99,9,99,9,99999,9,99,9,99,9",,"10169,1,99999,9",,,,"MET081METAR LPGR 191800Z 35015KT 9999 FEW016 BKN035 14/09 Q1017 RMK WIND RWY09 33012KT;",
"08515599999","2010-03-20T16:00:00","4","39.092169","-28.029847","26.21","GRACIOSA, PO","FM-15","LPGR ","V020","260,1,N,0082,1","22000,1,9,N","011265,1,N,1","+0170,1","+0090,1","99999,9","02,5,+00600,1,99,9",,,"02,99,1,99,9,99,9,99999,9,99,9,99,9",,"10240,1,99999,9",,,,"MET074METAR LPGR 201600Z 26016KT 9999 FEW020 17/09 Q1024 RMK WIND RWY09 25016KT;",
"08515599999","2010-03-20T17:00:00","4","39.092169","-28.029847","26.21","GRACIOSA, PO","FM-15","LPGR ","V020","260,1,N,0093,1","22000,1,9,N","011265,1,N,1","+0160,1","+0080,1","99999,9","02,5,+00600,1,99,9",,,"02,99,1,99,9,99,9,99999,9,99,9,99,9",,"10230,1,99999,9",,,,"MET074METAR LPGR 201700Z 26018KT 9999 FEW020 16/08 Q1023 RMK WIND RWY09 25016KT;",
"08515599999","2010-03-20T18:00:00","4","39.092169","-28.029847","26.21","GRACIOSA, PO","FM-15","LPGR ","V020","260,1,N,0093,1","99999,9,C,N","011265,1,N,1","+0150,1","+0080,1","99999,9","02,5,+00600,1,99,9","04,5,+06300,1,99,9",,"04,99,1,99,9,99,9,99999,9,99,9,99,9",,"10230,1,99999,9",,,,"MET081METAR LPGR 201800Z 26018KT 9999 FEW020 SCT210 15/08 Q1023 EMK WIND RWY09 25016KT;","P01 063003SCOCIG"
"08515599999","2010-03-21T16:00:00","4","39.092169","-28.029847","26.21","GRACIOSA, PO","FM-15","LPGR ","V020","250,1,N,0103,1","00300,1,C,N","005000,1,N,1","+0150,1","+0140,1","99999,9","02,5,+00240,1,99,9","07,5,+00300,1,99,9","08,5,+02100,1,99,9","08,99,1,99,9,99,9,99999,9,99,9,99,9",,"10169,1,99999,9","61,1",,,"MET092METAR LPGR 211600Z 25020KT 5000 -RA FEW008 BKN010 OVC070 15/14 Q1017 RMK WIND RWY09 25020KT;",
"08515599999","2010-03-21T17:00:00","4","39.092169","-28.029847","26.21","GRACIOSA, PO","FM-15","LPGR ","V020","260,1,N,0113,1","00300,1,C,N","011265,1,N,1","+0150,1","+0140,1","99999,9","07,5,+00300,1,99,9","08,5,+02100,1,99,9",,"08,99,1,99,9,99,9,99999,9,99,9,99,9",,"10169,1,99999,9",,,,"MET081METAR LPGR 211700Z 26022KT 9999 BKN010 OVC070 15/14 Q1017 RMK WIND RWY09 25019KT;",
"08515599999","2010-03-21T18:00:00","4","39.092169","-28.029847","26.21","GRACIOSA, PO","FM-15","LPGR ","V020","260,1,N,0093,1","00300,1,C,N","006000,1,N,1","+0150,1","+0140,1","99999,9","04,5,+00180,1,99,9","07,5,+00300,1,99,9","08,5,+02100,1,99,9","08,99,1,99,9,99,9,99999,9,99,9,99,9",,"10169,1,99999,9",,,,"MET088METAR LPGR 211800Z 26018KT 6000 SCT006 BKN010 OVC070 15/14 Q1017 RMK WIND RWY09 25018KT;",
"08515599999","2010-03-22T10:00:00","4","39.092169","-28.029847","26.21","GRACIOSA, PO","FM-15","LPGR ","V020","110,1,N,0057,1","00300,1,C,N","002000,1,N,1","+0130,1","+0130,1","99999,9","02,5,+00090,1,99,9","07,5,+00300,1,99,9","08,5,+02100,1,99,9","08,99,1,99,9,99,9,99999,9,99,9,99,9","999,M,+9999,9","10129,1,99999,9","61,1",,,"MET092METAR LPGR 221000Z 11011KT 2000 -RA FEW003 BKN010 OVC070 13/13 Q1013 RMK WIND RWY09 11013KT;","Q01 -00132ATMX  "
"08515599999","2010-03-22T11:00:00","4","39.092169","-28.029847","26.21","GRACIOSA, PO","FM-15","LPGR ","V020","090,1,N,0062,1","00300,1,C,N","002500,1,N,1","+0130,1","+0120,1","99999,9","04,5,+00090,1,99,9","07,5,+00300,1,99,9","08,5,+02100,1,99,9","08,99,1,99,9,99,9,99999,9,99,9,99,9",,"10129,1,99999,9","61,1",,,"MET093METAR LPGR 221100Z 09012KT 2500E -RA SCT003 BKN010 OVC070 13/12 Q1013 RMK WIND RWY09 09012KT;",
"08515599999","2010-03-22T12:00:00","4","39.092169","-28.029847","26.21","GRACIOSA, PO","FM-15","LPGR ","V020","080,1,N,0057,1","00300,1,C,N","004000,1,N,1","+0140,1","+0130,1","99999,9","04,5,+00090,1,99,9","04,5,+00300,1,99,9","08,5,+02100,1,99,9","08,99,1,99,9,99,9,99999,9,99,9,99,9",,"10139,1,99999,9","61,1",,,"MET092METAR LPGR 221200Z 08011KT 4000 -RA SCT003 SCT010 OVC070 14/13 Q1014 RMK WIND RWY09 08013KT;",
"08515599999","2010-03-22T13:00:00","4","39.092169","-28.029847","26.21","GRACIOSA, PO","FM-15","LPGR ","V020","090,1,N,0067,1","00240,1,C,N","008000,1,N,1","+0140,1","+0130,1","99999,9","04,5,+00090,1,99,9","04,5,+00240,1,99,9","08,5,+02100,1,99,9","08,99,1,99,9,99,9,99999,9,99,9,99,9",,"10129,1,99999,9","61,1",,,"MET092METAR LPGR 221300Z 09013KT 8000 -RA SCT003 SCT008 OVC070 14/13 Q1013 RMK WIND RWY09 08014KT;",
"08515599999","2010-03-22T15:00:00","4","39.092169","-28.029847","26.21","GRACIOSA, PO","FM-15","LPGR ","V020","040,1,N,0072,1","00300,1,C,N","009000,1,N,1","+0140,1","+0130,1","99999,9","04,5,+00090,1,99,9","04,5,+00300,1,99,9","08,5,+02100,1,99,9","08,99,1,99,9,99,9,99999,9,99,9,99,9",,"10129,1,99999,9","61,1",,,"MET092METAR LPGR 221500Z 04014KT 9000 -RA SCT003 SCT010 OVC070 14/13 Q1013 RMK WIND RWY09 05013KT;",
"08515599999","2010-03-22T16:00:00","4","39.092169","-28.029847","26.21","GRACIOSA, PO","FM-15","LPGR ","V020","040,1,N,0051,1","00300,1,C,N","011265,1,N,1","+0140,1","+0130,1","99999,9","07,5,+00300,1,99,9","08,5,+02250,5,99,9",,"08,99,1,99,9,99,9,99999,9,99,9,99,9",,"10129,1,99999,9",,,,"MET081METAR LPGR 221600Z 04010KT 9999 BKN010 OVC075 14/13 Q1013 RMK WIND RWY09 03013KT;",
"08515599999","2010-03-22T17:00:00","4","39.092169","-28.029847","26.21","GRACIOSA, PO","FM-15","LPGR ","V020","030,1,N,0057,1","02400,1,C,N","011265,1,N,1","+0150,1","+0130,1","99999,9","04,5,+00300,1,99,9","07,5,+02400,1,99,9",,"07,99,1,99,9,99,9,99999,9,99,9,99,9",,"10139,1,99999,9",,,,"MET081METAR LPGR 221700Z 03011KT 9999 SCT010 BKN080 15/13 Q1014 RMK WIND RWY09 01012KT;",
"08515599999","2010-03-22T18:00:00","4","39.092169","-28.029847","26.21","GRACIOSA, PO","FM-15","LPGR ","V020","020,1,N,0062,1","99999,9,C,N","011265,1,N,1","+0140,1","+0130,1","99999,9","04,5,+00330,1,99,9","04,5,+00900,1,99,9",,"04,99,1,99,9,99,9,99999,9,99,9,99,9",,"10139,1,99999,9",,,,"MET081METAR LPGR 221800Z 02012KT 9999 SCT011 SCT030 14/13 Q1014 RMK WIND RWY09 01012KT;","P01 009003SCOCIG"
"08515599999","2010-03-23T09:00:00","4","39.092169","-28.029847","26.21","GRACIOSA, PO","FM-15","LPGR ","V020","340,1,N,0087,1","00900,1,C,N","011265,1,N,1","+0120,1","+0050,1","99999,9","02,5,+00540,1,99,9","07,5,+00900,1,99,9",,"07,99,1,99,9,99,9,99999,9,99,9,99,9",,"10190,1,99999,9",,,,"MET081METAR LPGR 230900Z 34017KT 9999 FEW018 BKN030 12/05 Q1019 RMK WIND RWY09 32018KT;",
"08515599999","2010-03-23T10:00:00","4","39.092169","-28.029847","26.21","GRACIOSA, PO","FM-15","LPGR ","V020","340,1,N,0077,1","00900,1,C,N","011265,1,N,1","+0120,1","+0060,1","99999,9","04,5,+00540,1,99,9","07,5,+00900,1,99,9",,"07,99,1,99,9,99,9,99999,9,99,9,99,9",,"10200,1,99999,9",,,,"MET081METAR LPGR 231000Z 34015KT 9999 SCT018 BKN030 12/06 Q1020 RMK WIND RWY09 32018KT;",
"08515599999","2010-03-23T11:00:00","4","39.092169","-28.029847","26.21","GRACIOSA, PO","FM-15","LPGR ","V020","340,1,N,0082,1","22000,1,9,N","011265,1,N,1","+0130,1","+0060,1","99999,9","02,5,+00540,1,99,9",,,"02,99,1,99,9,99,9,99999,9,99,9,99,9",,"10200,1,99999,9",,,,"MET074METAR LPGR 231100Z 34016KT 9999 FEW018 13/06 Q1020 RMK WIND RWY09 33018KT;",
"08515599999","2010-03-23T12:00:00","4","39.092169","-28.029847","26.21","GRACIOSA, PO","FM-15","LPGR ","V020","340,1,N,0077,1","22000,1,9,N","011265,1,N,1","+0140,1","+0070,1","99999,9","02,5,+00540,1,99,9",,,"02,99,1,99,9,99,9,99999,9,99,9,99,9",,"10210,1,99999,9",,,,"MET074METAR LPGR 231200Z 34015KT 9999 FEW018 14/07 Q1021 RMK WIND RWY09 33017KT;",
"08515599999","2010-03-23T13:00:00","4","39.092169","-28.029847","26.21","GRACIOSA, PO","FM-15","LPGR ","V020","340,1,N,0072,1","22000,1,9,N","011265,1,N,1","+0130,1","+0070,1","99999,9","04,5,+00540,1,99,9",,,"04,99,1,99,9,99,9,99999,9,99,9,99,9",,"10200,1,99999,9",,,,"MET074METAR LPGR 231300Z 34014KT 9999 SCT018 13/07 Q1020 RMK WIND RWY09 33016KT;",
"08515599999","2010-03-24T08:00:00","4","39.092169","-28.029847","26.21","GRACIOSA, PO","FM-15","LPGR ","V020","320,1,N,0154,1","00360,1,C,N","011265,1,N,1","+0130,1","+0110,1","99999,9","07,5,+00360,1,99,9","07,5,+00750,1,99,9",,"07,99,1,99,9,99,9,99999,9,99,9,99,9",,"10102,1,99999,9",,,"0221,1","MET087METAR LPGR 240800Z 32030G43KT 9999 BKN012 BKN025 13/11 Q1010 RMK WIND RWY09 31030G40KT;",
"08515599999","2010-03-24T09:00:00","4","39.092169","-28.029847","26.21","GRACIOSA, PO","FM-15","LPGR ","V020","320,1,N,0154,1","00750,1,C,N","011265,1,N,1","+0130,1","+0090,1","99999,9","04,5,+00420,1,99,9","07,5,+00750,1,99,9",,"07,99,1,99,9,99,9,99999,9,99,9,99,9",,"10108,1,99999,9",,,"0206,1","MET087METAR LPGR 240900Z 32030G40KT 9999 SCT014 BKN025 13/09 Q1011 RMK WIND RWY09 31036G46KT;",
"08515599999","2010-03-24T10:00:00","4","39.092169","-28.029847","26.21","GRACIOSA, PO","FM-15","LPGR ","V020","320,1,N,0154,1","99999,9,C,N","011265,1,N,1","+0130,1","+0070,1","99999,9","04,5,+00450,1,99,9","04,5,+00900,1,99,9",,"04,99,1,99,9,99,9,99999,9,99,9,99,9",,"10108,1,99999,9",,,"0206,1","MET087METAR LPGR 241000Z 32030G40KT 9999 SCT015 SCT030 13/07 Q1011 RMK WIND RWY09 31034G44KT;","P01 009003SCOCIG"
"08515599999","2010-03-24T15:00:00","4","39.092169","-28.029847","26.21","GRACIOSA, PO","FM-15","LPGR ","V020","330,1,N,0098,1","06300,1,C,N","011265,1,N,1","+0130,1","+0060,1","99999,9","04,5,+00480,1,99,9","07,5,+06300,1,99,9",,"07,99,1,99,9,99,9,99999,9,99,9,99,9",,"10129,1,99999,9",,,"0149,1","MET084METAR LPGR 241500Z 33019G29KT 9999 SCT016 BKN210 13/06 Q1013 RMK WIND RWY09 32024KT;",
"08515599999","2010-03-24T16:00:00","4","39.092169","-28.029847","26.21","GRACIOSA, PO","FM-15","LPGR ","V020","330,1,N,0093,1","99999,9,C,N","011265,1,N,1","+0120,1","+0050,1","99999,9","02,5,+00480,1,99,9","04,5,+00900,1,99,9",,"04,99,1,99,9,99,9,99999,9,99,9,99,9",,"10129,1,99999,9",,,"0144,1","MET087METAR LPGR 241600Z 33018G28KT 9999 FEW016 SCT030 12/05 Q1013 RMK WIND RWY09 32026G38KT;","P01 009003SCOCIG"
"08515599999","2010-03-24T17:00:00","4","39.092169","-28.029847","26.21","GRACIOSA, PO","FM-15","LPGR ","V020","330,1,N,0118,1","22000,1,9,N","011265,1,N,1","+0120,1","+0070,1","99999,9","04,5,+00480,1,99,9",,,"04,99,1,99,9,99,9,99999,9,99,9,99,9",,"10129,1,99999,9",,,,"MET074METAR LPGR 241700Z 33023KT 9999 SCT016 12/07 Q1013 RMK WIND RWY09 32025KT;",
"08515599999","2010-03-25T13:00:00","4","39.092169","-28.029847","26.21","GRACIOSA, PO","FM-15","LPGR ","V020","310,1,N,0082,1","99999,9,C,N","011265,1,N,1","+0130,1","+0080,1","99999,9","02,5,+00480,1,99,9","04,5,+00900,1,99,9",,"04,99,1,99,9,99,9,99999,9,99,9,99,9",,"10149,1,99999,9",,,,"MET089METAR LPGR 251300Z 31016KT 270V360 9999 FEW016 SCT030 13/08 Q1015 RMK WIND RWY09 31014KT;","P01 009003SCOCIG"
"08515599999","2010-03-25T14:00:00","4","39.092169","-28.029847","26.21","GRACIOSA, PO","FM-15","LPGR ","V020","310,1,N,0087,1","22000,1,9,N","011265,1,N,1","+0130,1","+0060,1","99999,9","02,5,+00540,1,99,9",,,"02,99,1,99,9,99,9,99999,9,99,9,99,9",,"10149,1,99999,9",,,,"MET082METAR LPGR 251400Z 31017KT 270V340 9999 FEW018 13/06 Q1015 RMK WIND RWY09 30016KT;",
"08515599999","2010-03-25T15:00:00","4","39.092169","-28.029847","26.21","GRACIOSA, PO","FM-15","LPGR ","V020","310,1,N,0072,1","99999,9,C,N","011265,1,N,1","+0130,1","+0080,1","99999,9","04,5,+00540,1,99,9","04,5,+06300,1,99,9",,"04,99,1,99,9,99,9,99999,9,99,9,99,9",,"10149,1,99999,9",,,,"MET089METAR LPGR 251500Z 31014KT 270V340 9999 SCT018 SCT210 13/08 Q1015 RMK WIND RWY09 30013KT;","P01 063003SCOCIG"
"08515599999","2010-03-25T16:00:00","4","39.092169","-28.029847","26.21","GRACIOSA, PO","FM-15","LPGR ","V020","300,1,N,0093,1","06300,1,C,N","011265,1,N,1","+0140,1","+0070,1","99999,9","02,5,+00540,1,99,9","07,5,+06300,1,99,9",,"07,99,1,99,9,99,9,99999,9,99,9,99,9",,"10149,1,99999,9",,,,"MET081METAR LPGR 251600Z 30018KT 9999 FEW018 BKN210 14/07 Q1015 RMK WIND RWY09 29017KT;",
"08515599999","2010-03-26T13:00:00","4","39.092169","-28.029847","26.21","GRACIOSA, PO","FM-15","LPGR ","V020","240,1,N,0103,1","99999,9,C,N","011265,1,N,1","+0170,1","+0120,1","99999,9","02,5,+00450,1,99,9","04,5,+06300,1,99,9",,"04,99,1,99,9,99,9,99999,9,99,9,99,9",,"10169,1,99999,9",,,,"MET081METAR LPGR 261300Z 24020KT 9999 FEW015 SCT210 17/12 Q1017 RMK WIND RWY09 23018KT;","P01 063003SCOCIG"
"08515599999","2010-03-26T14:00:00","4","39.092169","-28.029847","26.21","GRACIOSA, PO","FM-15","LPGR ","V020","240,1,N,0103,1","99999,9,C,N","011265,1,N,1","+0170,1","+0120,1","99999,9","02,5,+00480,1,99,9","04,5,+02700,1,99,9",,"04,99,1,99,9,99,9,99999,9,99,9,99,9",,"10169,1,99999,9",,,,"MET081METAR LPGR 261400Z 24020KT 9999 FEW016 SCT090 17/12 Q1017 RMK WIND RWY09 23018KT;","P01 027003SCOCIG"
"08515599999","2010-03-26T15:00:00","4","39.092169","-28.029847","26.21","GRACIOSA, PO","FM-15","LPGR ","V020","240,1,N,0103,1","02700,1,C,N","011265,1,N,1","+0160,1","+0130,1","99999,9","04,5,+00480,1,99,9","08,5,+02700,1,99,9",,"08,99,1,99,9,99,9,99999,9,99,9,99,9",,"10159,1,99999,9",,,,"MET081METAR LPGR 261500Z 24020KT 9999 SCT016 OVC090 16/13 Q1016 RMK WIND RWY09 23017KT;",
"08515599999","2010-03-26T16:00:00","4","39.092169","-28.029847","26.21","GRACIOSA, PO","FM-15","LPGR ","V020","230,1,N,0103,1","02700,1,C,N","011265,1,N,1","+0160,1","+0130,1","99999,9","02,5,+00480,1,99,9","08,5,+02700,1,99,9",,"08,99,1,99,9,99,9,99999,9,99,9,99,9",,"10159,1,99999,9",,,,"MET084METAR LPGR 261600Z 23020KT 9999 FEW016 OVC090 16/13 Q1016 RMK WIND RWY09 23022G38KT;",
"08515599999","2010-03-26T17:00:00","4","39.092169","-28.029847","26.21","GRACIOSA, PO","FM-15","LPGR ","V020","220,1,N,0077,1","02700,1,C,N","011265,1,N,1","+0170,1","+0120,1","99999,9","02,5,+00480,1,99,9","08,5,+02700,1,99,9",,"08,99,1,99,9,99,9,99999,9,99,9,99,9",,"10159,1,99999,9",,,,"MET081METAR LPGR 261700Z 22015KT 9999 FEW016 OVC090 17/12 Q1016 RMK WIND RWY09 23018KT;",
"08515599999","2010-03-26T18:00:00","4","39.092169","-28.029847","26.21","GRACIOSA, PO","FM-15","LPGR ","V020","210,1,N,0072,1","02700,1,C,N","011265,1,N,1","+0170,1","+0110,1","99999,9","02,5,+00480,1,99,9","08,5,+02700,1,99,9",,"08,99,1,99,9,99,9,99999,9,99,9,99,9",,"10159,1,99999,9",,,,"MET081METAR LPGR 261800Z 21014KT 9999 FEW016 OVC090 17/11 Q1016 RMK WIND RWY09 21014KT;",
"08515599999","2010-03-26T19:00:00","4","39.092169","-28.029847","26.21","GRACIOSA, PO","FM-15","LPGR ","V020","230,1,N,0051,1","02700,1,C,N","011265,1,N,1","+0160,1","+0120,1","99999,9","04,5,+00480,1,99,9","08,5,+02700,1,99,9",,"08,99,1,99,9,99,9,99999,9,99,9,99,9",,"10159,1,99999,9",,,,"MET081METAR LPGR 261900Z 23010KT 9999 SCT016 OVC090 16/12 Q1016 RMK WIND RWY09 23017KT;",
"08515599999","2010-03-27T17:00:00","4","39.092169","-28.029847","26.21","GRACIOSA, PO","FM-15","LPGR ","V020","220,1,N,0051,1","02400,1,C,N","011265,1,N,1","+0160,1","+0130,1","99999,9","04,5,+00420,1,99,9","08,5,+02400,1,99,9",,"08,99,1,99,9,99,9,99999,9,99,9,99,9",,"10091,1,99999,9",,,,"MET081METAR LPGR 271700Z 22010KT 9999 SCT014 OVC080 16/13 Q1009 RMK WIND RWY09 21010KT;",
"08515599999","2010-03-27T18:00:00","4","39.092169","-28.029847","26.21","GRACIOSA, PO","FM-15","LPGR ","V020","230,1,N,0087,1","02400,1,C,N","011265,1,N,1","+0150,1","+0120,1","99999,9","04,5,+00420,1,99,9","08,5,+02400,1,99,9",,"08,99,1,99,9,99,9,99999,9,99,9,99,9",,"10091,1,99999,9",,,,"MET081METAR LPGR 271800Z 23017KT 9999 SCT014 OVC080 15/12 Q1009 RMK WIND RWY09 23016KT;",
"08515599999","2010-03-27T19:00:00","4","39.092169","-28.029847","26.21","GRACIOSA, PO","FM-15","LPGR ","V020","240,1,N,0077,1","00360,1,C,N","009000,1,N,1","+0150,1","+0130,1","99999,9","07,5,+00360,1,99,9","07,5,+02400,1,99,9",,"07,99,1,99,9,99,9,99999,9,99,9,99,9",,"10091,1,99999,9","16,1",,,"MET086METAR LPGR 271900Z 24015KT 9000 VCSH BKN012 BKN080 15/13 Q1009 RMK WIND RWY09 23014KT;",
"08515599999","2010-03-27T20:00:00","4","39.092169","-28.029847","26.21","GRACIOSA, PO","FM-15","LPGR ","V020","240,1,N,0062,1","02400,1,C,N","011265,1,N,1","+0140,1","+0120,1","99999,9","04,5,+00360,1,99,9","07,5,+02400,1,99,9",,"07,99,1,99,9,99,9,99999,9,99,9,99,9",,"10091,1,99999,9",,,,"MET081METAR LPGR 272000Z 24012KT 9999 SCT012 BKN080 14/12 Q1009 RMK WIND RWY09 24010KT;",
"08515599999","2010-03-28T15:00:00","4","39.092169","-28.029847","26.21","GRACIOSA, PO","FM-15","LPGR ","V020","320,1,N,0072,1","22000,1,9,N","011265,1,N,1","+0150,1","+0120,1","99999,9","04,5,+00480,1,02,1",,,"04,99,1,99,9,99,9,99999,9,99,9,99,9",,"10102,1,99999,9",,,,"MET077METAR LPGR 281500Z 32014KT 9999 SCT016TCU 15/12 Q1010 RMK WIND RWY09 31018KT;",
"08515599999","2010-03-28T16:00:00","4","39.092169","-28.029847","26.21","GRACIOSA, PO","FM-15","LPGR ","V020","320,1,N,0087,1","22000,1,9,N","011265,1,N,1","+0150,1","+0120,1","99999,9","02,5,+00480,1,99,9",,,"02,99,1,99,9,99,9,99999,9,99,9,99,9",,"10102,1,99999,9",,,,"MET074METAR LPGR 281600Z 32017KT 9999 FEW016 15/12 Q1010 RMK WIND RWY09 32020KT;",
"08515599999","2010-03-28T17:00:00","4","39.092169","-28.029847","26.21","GRACIOSA, PO","FM-15","LPGR ","V020","320,1,N,0077,1","22000,1,9,N","011265,1,N,1","+0150,1","+0120,1","99999,9","04,5,+00480,1,99,9",,,"04,99,1,99,9,99,9,99999,9,99,9,99,9",,"10119,1,99999,9",,,,"MET074METAR LPGR 281700Z 32015KT 9999 SCT016 15/12 Q1012 RMK WIND RWY09 32018KT;",
"08515599999","2010-03-28T18:00:00","4","39.092169","-28.029847","26.21","GRACIOSA, PO","FM-15","LPGR ","V020","310,1,N,0077,1","22000,1,9,N","011265,1,N,1","+0150,1","+0120,1","99999,9","04,5,+00480,1,99,9",,,"04,99,1,99,9,99,9,99999,9,99,9,99,9",,"10129,1,99999,9",,,,"MET074METAR LPGR 281800Z 31015KT 9999 SCT016 15/12 Q1013 RMK WIND RWY09 31016KT;",
"08515599999","2010-03-28T19:00:00","4","39.092169","-28.029847","26.21","GRACIOSA, PO","FM-15","LPGR ","V020","320,1,N,0072,1","22000,1,9,N","011265,1,N,1","+0150,1","+0110,1","99999,9","02,5,+00480,1,99,9",,,"02,99,1,99,9,99,9,99999,9,99,9,99,9",,"10139,1,99999,9",,,,"MET074METAR LPGR 281900Z 32014KT 9999 FEW016 15/11 Q1014 RMK WIND RWY09 32018KT;",
"08515599999","2010-03-29T07:00:00","4","39.092169","-28.029847","26.21","GRACIOSA, PO","FM-15","LPGR ","V020","360,1,N,0062,1","22000,1,9,N","011265,1,N,1","+0130,1","+0110,1","99999,9","02,5,+00420,1,99,9",,,"02,99,1,99,9,99,9,99999,9,99,9,99,9",,"10200,1,99999,9",,,,"MET074METAR LPGR 290700Z 36012KT 9999 FEW014 13/11 Q1020 RMK WIND RWY09 36012KT;",
"08515599999","2010-03-29T08:00:00","4","39.092169","-28.029847","26.21","GRACIOSA, PO","FM-15","LPGR ","V020","350,1,N,0046,1","22000,1,9,N","011265,1,N,1","+0130,1","+0090,1","99999,9","02,5,+00420,1,99,9",,,"02,99,1,99,9,99,9,99999,9,99,9,99,9",,"10200,1,99999,9",,,,"MET074METAR LPGR 290800Z 35009KT 9999 FEW014 13/09 Q1020 RMK WIND RWY09 34008KT;",
"08515599999","2010-03-29T09:00:00","4","39.092169","-28.029847","26.21","GRACIOSA, PO","FM-15","LPGR ","V020","350,1,N,0041,1","99999,9,C,N","011265,1,N,1","+0130,1","+0100,1","99999,9","02,5,+00450,1,99,9","04,5,+06300,1,99,9",,"04,99,1,99,9,99,9,99999,9,99,9,99,9",,"10210,1,99999,9",,,,"MET081METAR LPGR 290900Z 35008KT 9999 FEW015 SCT210 13/10 Q1021 RMK WIND RWY09 34007KT;","P01 063003SCOCIG"
"08515599999","2010-03-29T14:00:00","4","39.092169","-28.029847","26.21","GRACIOSA, PO","FM-15","LPGR ","V020","010,1,N,0046,1","01050,1,C,N","011265,1,N,1","+0150,1","+0080,1","99999,9","02,5,+00540,1,99,9","07,5,+01050,1,99,9",,"07,99,1,99,9,99,9,99999,9,99,9,99,9",,"10240,1,99999,9",,,,"MET081METAR LPGR 291400Z 01009KT 9999 FEW018 BKN035 15/08 Q1024 RMK WIND RWY09 36010KT;",
"08515599999","2010-03-29T15:00:00","4","39.092169","-28.029847","26.21","GRACIOSA, PO","FM-15","LPGR ","V020","010,1,N,0041,1","01050,1,C,N","011265,1,N,1","+0150,1","+0100,1","99999,9","02,5,+00540,1,99,9","07,5,+01050,1,99,9",,"07,99,1,99,9,99,9,99999,9,99,9,99,9",,"10240,1,99999,9",,,,"MET081METAR LPGR 291500Z 01008KT 9999 FEW018 BKN035 15/10 Q1024 RMK WIND RWY09 35008KT;",
"08515599999","2010-03-29T16:00:00","4","39.092169","-28.029847","26.21","GRACIOSA, PO","FM-15","LPGR ","V020","360,1,N,0041,1","06300,1,C,N","011265,1,N,1","+0160,1","+0090,1","99999,9","02,5,+00540,1,99,9","07,5,+06300,1,99,9",,"07,99,1,99,9,99,9,99999,9,99,9,99,9",,"10251,1,99999,9",,,,"MET081METAR LPGR 291600Z 36008KT 9999 FEW018 BKN210 16/09 Q1025 RMK WIND RWY09 33008KT;",
"08515599999","2010-03-29T17:00:00","4","39.092169","-28.029847","26.21","GRACIOSA, PO","FM-15","LPGR ","V020","350,1,N,0046,1","06000,1,C,N","011265,1,N,1","+0140,1","+0070,1","99999,9","02,5,+00540,1,99,9","08,5,+06000,1,99,9",,"08,99,1,99,9,99,9,99999,9,99,9,99,9",,"10251,1,99999,9",,,,"MET081METAR LPGR 291700Z 35009KT 9999 FEW018 OVC200 14/07 Q1025 RMK WIND RWY09 35006KT;",
"08515599999","2010-03-30T14:00:00","4","39.092169","-28.029847","26.21","GRACIOSA, PO","FM-15","LPGR ","V020","050,1,N,0021,1","06300,1,C,N","011265,1,N,1","+0150,1","+0100,1","99999,9","02,5,+00540,1,99,9","07,5,+06300,1,99,9",,"07,99,1,99,9,99,9,99999,9,99,9,99,9",,"10281,1,99999,9",,,,"MET081METAR LPGR 301400Z 05004KT 9999 FEW018 BKN210 15/10 Q1028 RMK WIND RWY09 04007KT;",
"08515599999","2010-03-30T15:00:00","4","39.092169","-28.029847","26.21","GRACIOSA, PO","FM-15","LPGR ","V020","030,1,N,0021,1","06300,1,C,N","011265,1,N,1","+0150,1","+0100,1","99999,9","02,5,+00540,1,99,9","07,5,+06300,1,99,9",,"07,99,1,99,9,99,9,99999,9,99,9,99,9",,"10281,1,99999,9",,,,"MET081METAR LPGR 301500Z 03004KT 9999 FEW018 BKN210 15/10 Q1028 RMK WIND RWY09 03005KT;",
"08515599999","2010-03-30T16:00:00","4","39.092169","-28.029847","26.21","GRACIOSA, PO","FM-15","LPGR ","V020","030,1,N,0021,1","06300,1,C,N","011265,1,N,1","+0150,1","+0100,1","99999,9","02,5,+00540,1,99,9","07,5,+06300,1,99,9",,"07,99,1,99,9,99,9,99999,9,99,9,99,9",,"10281,1,99999,9",,,,"MET081METAR LPGR 301600Z 03004KT 9999 FEW018 BKN210 15/10 Q1028 RMK WIND RWY09 05006KT;",
"08515599999","2010-03-30T17:00:00","4","39.092169","-28.029847","26.21","GRACIOSA, PO","FM-15","LPGR ","V020","040,1,N,0021,1","06300,1,C,N","011265,1,N,1","+0150,1","+0100,1","99999,9","02,5,+00540,1,99,9","07,5,+06300,1,99,9",,"07,99,1,99,9,99,9,99999,9,99,9,99,9",,"10281,1,99999,9",,,,"MET081METAR LPGR 301700Z 04004KT 9999 FEW018 BKN210 15/10 Q1028 RMK WIND RWY09 05006KT;",
"08515599999","2010-03-31T07:00:00","4","39.092169","-28.029847","26.21","GRACIOSA, PO","FM-15","LPGR ","V020","050,1,N,0010,1","22000,1,9,N","011265,1,N,1","+0090,1","+0080,1","99999,9","02,5,+00480,1,99,9",,,"02,99,1,99,9,99,9,99999,9,99,9,99,9",,"10281,1,99999,9",,,,"MET074METAR LPGR 310700Z 05002KT 9999 FEW016 09/08 Q1028 RMK WIND RWY09 06002KT;",
"08515599999","2010-03-31T08:00:00","4","39.092169","-28.029847","26.21","GRACIOSA, PO","FM-15","LPGR ","V020","050,1,N,0010,1","22000,1,9,N","011265,1,N,1","+0090,1","+0080,1","99999,9","02,5,+00480,1,99,9",,,"02,99,1,99,9,99,9,99999,9,99,9,99,9",,"10271,1,99999,9",,,,"MET074METAR LPGR 310800Z 05002KT 9999 FEW016 09/08 Q1027 RMK WIND RWY09 06002KT;",
"08515599999","2010-03-31T09:00:00","4","39.092169","-28.029847","26.21","GRACIOSA, PO","FM-15","LPGR ","V020","050,1,N,0026,1","99999,9,C,N","011265,1,N,1","+0120,1","+0100,1","99999,9","02,5,+00480,1,99,9","04,5,+02700,1,99,9",,"04,99,1,99,9,99,9,99999,9,99,9,99,9",,"10281,1,99999,9",,,,"MET081METAR LPGR 310900Z 05005KT 9999 FEW016 SCT090 12/10 Q1028 RMK WIND RWY09 06006KT;","P01 027003SCOCIG"
"08515599999","2010-03-31T14:00:00","4","39.092169","-28.029847","26.21","GRACIOSA, PO","FM-15","LPGR ","V020","070,1,N,0031,1","22000,1,9,N","011265,1,N,1","+0150,1","+0100,1","99999,9","02,5,+00540,1,99,9",,,"02,99,1,99,9,99,9,99999,9,99,9,99,9",,"10291,1,99999,9",,,,"MET074METAR LPGR 311400Z 07006KT 9999 FEW018 15/10 Q1029 RMK WIND RWY09 06008KT;",
"08515599999","2010-03-31T15:00:00","4","39.092169","-28.029847","26.21","GRACIOSA, PO","FM-15","LPGR ","V020","060,1,N,0041,1","22000,1,9,N","011265,1,N,1","+0150,1","+0100,1","99999,9","02,5,+00540,1,99,9",,,"02,99,1,99,9,99,9,99999,9,99,9,99,9",,"10281,1,99999,9",,,,"MET074METAR LPGR 311500Z 06008KT 9999 FEW018 15/10 Q1028 RMK WIND RWY09 06008KT;",
"08515599999","2010-03-31T16:00:00","4","39.092169","-28.029847","26.21","GRACIOSA, PO","FM-15","LPGR ","V020","070,1,N,0036,1","22000,1,9,N","011265,1,N,1","+0160,1","+0100,1","99999,9","02,5,+00540,1,99,9",,,"02,99,1,99,9,99,9,99999,9,99,9,99,9",,"10281,1,99999,9",,,,"MET074METAR LPGR 311600Z 07007KT 9999 FEW018 16/10 Q1028 RMK WIND RWY09 06009KT;",
"08515599999","2010-03-31T17:00:00","4","39.092169","-28.029847","26.21","GRACIOSA, PO","FM-15","LPGR ","V020","070,1,N,0036,1","22000,1,9,N","011265,1,N,1","+0150,1","+0100,1","99999,9","02,5,+00540,1,99,9",,,"02,99,1,99,9,99,9,99999,9,99,9,99,9",,"10281,1,99999,9",,,,"MET074METAR LPGR 311700Z 07007KT 9999 FEW018 15/10 Q1028 RMK WIND RWY09 07009KT;",
"08515599999","2010-04-01T14:00:00","4","39.092169","-28.029847","26.21","GRACIOSA, PO","FM-15","LPGR ","V020","090,1,N,0021,1","06300,1,C,N","011265,1,N,1","+0150,1","+0100,1","99999,9","02,5,+00540,1,99,9","07,5,+06300,1,99,9",,"07,99,1,99,9,99,9,99999,9,99,9,99,9",,"10261,1,99999,9",,,,"MET081METAR LPGR 011400Z 09004KT 9999 FEW018 BKN210 15/10 Q1026 RMK WIND RWY09 05005KT;",
"08515599999","2010-04-01T15:00:00","4","39.092169","-28.029847","26.21","GRACIOSA, PO","FM-15","LPGR ","V020","020,1,N,0021,1","06300,1,C,N","011265,1,N,1","+0150,1","+0100,1","99999,9","02,5,+00540,1,99,9","07,5,+06300,1,99,9",,"07,99,1,99,9,99,9,99999,9,99,9,99,9",,"10261,1,99999,9",,,,"MET081METAR LPGR 011500Z 02004KT 9999 FEW018 BKN210 15/10 Q1026 RMK WIND RWY09 02006KT;",
"08515599999","2010-04-01T16:00:00","4","39.092169","-28.029847","26.21","GRACIOSA, PO","FM-15","LPGR ","V020","090,1,N,0036,1","06300,1,C,N","011265,1,N,1","+0160,1","+0110,1","99999,9","02,5,+00540,1,99,9","07,5,+06300,1,99,9",,"07,99,1,99,9,99,9,99999,9,99,9,99,9",,"10261,1,99999,9",,,,"MET081METAR LPGR 011600Z 09007KT 9999 FEW018 BKN210 16/11 Q1026 RMK WIND RWY09 06007KT;",
"08515599999","2010-04-01T17:00:00","4","39.092169","-28.029847","26.21","GRACIOSA, PO","FM-15","LPGR ","V020","100,1,N,0046,1","06300,1,C,N","011265,1,N,1","+0160,1","+0110,1","99999,9","02,5,+00540,1,99,9","07,5,+06300,1,99,9",,"07,99,1,99,9,99,9,99999,9,99,9,99,9",,"10261,1,99999,9",,,,"MET081METAR LPGR 011700Z 10009KT 9999 FEW018 BKN210 16/11 Q1026 RMK WIND RWY09 08008KT;",
"08515599999","2010-04-02T07:00:00","4","39.092169","-28.029847","26.21","GRACIOSA, PO","FM-15","LPGR ","V020","230,1,N,0010,1","99999,9,C,N","011265,1,N,1","+0130,1","+0100,1","99999,9","02,5,+00480,1,99,9","04,5,+00900,1,99,9",,"04,99,1,99,9,99,9,99999,9,99,9,99,9",,"10240,1,99999,9",,,,"MET081METAR LPGR 020700Z 23002KT 9999 FEW016 SCT030 13/10 Q1024 RMK WIND RWY09 22004KT;","P01 009003SCOCIG"
"08515599999","2010-04-02T08:00:00","4","39.092169","-28.029847","26.21","GRACIOSA, PO","FM-15","LPGR ","V020","230,1,N,0010,1","00900,1,C,N","011265,1,N,1","+0130,1","+0100,1","99999,9","02,5,+00480,1,99,9","07,5,+00900,1,99,9",,"07,99,1,99,9,99,9,99999,9,99,9,99,9",,"10240,1,99999,9",,,,"MET081METAR LPGR 020800Z 23002KT 9999 FEW016 BKN030 13/10 Q1024 RMK WIND RWY09 23004KT;",
"08515599999","2010-04-02T09:00:00","4","39.092169","-28.029847","26.21","GRACIOSA, PO","FM-15","LPGR ","V020","320,1,N,0051,1","00900,1,C,N","011265,1,N,1","+0130,1","+0110,1","99999,9","02,5,+00480,1,99,9","07,5,+00900,1,99,9",,"07,99,1,99,9,99,9,99999,9,99,9,99,9",,"10240,1,99999,9",,,,"MET081METAR LPGR 020900Z 32010KT 9999 FEW016 BKN030 13/11 Q1024 RMK WIND RWY09 29010KT;",
"08515599999","2010-04-02T15:00:00","4","39.092169","-28.029847","26.21","GRACIOSA, PO","FM-15","LPGR ","V020","290,1,N,0041,1","01200,1,C,N","011265,1,N,1","+0160,1","+0090,1","99999,9","02,5,+00540,1,99,9","07,5,+01200,1,99,9",,"07,99,1,99,9,99,9,99999,9,99,9,99,9",,"10251,1,99999,9",,,,"MET081METAR LPGR 021500Z 29008KT 9999 FEW018 BKN040 16/09 Q1025 RMK WIND RWY09 27008KT;",
"08515599999","2010-04-02T16:00:00","4","39.092169","-28.029847","26.21","GRACIOSA, PO","FM-15","LPGR ","V020","300,1,N,0041,1","01200,1,C,N","011265,1,N,1","+0160,1","+0110,1","99999,9","02,5,+00540,1,99,9","07,5,+01200,1,99,9",,"07,99,1,99,9,99,9,99999,9,99,9,99,9",,"10251,1,99999,9",,,,"MET081METAR LPGR 021600Z 30008KT 9999 FEW018 BKN040 16/11 Q1025 RMK WIND RWY09 29008KT;",
"08515599999","2010-04-02T17:00:00","4","39.092169","-28.029847","26.21","GRACIOSA, PO","FM-15","LPGR ","V020","260,1,N,0036,1","01200,1,C,N","011265,1,N,1","+0160,1","+0110,1","99999,9","02,5,+00540,1,99,9","07,5,+01200,1,99,9",,"07,99,1,99,9,99,9,99999,9,99,9,99,9",,"10240,1,99999,9",,,,"MET081METAR LPGR 021700Z 26007KT 9999 FEW018 BKN040 16/11 Q1024 RMK WIND RWY09 25008KT;",
"08515599999","2010-04-03T15:00:00","4","39.092169","-28.029847","26.21","GRACIOSA, PO","FM-15","LPGR ","V020","150,1,N,0051,1","00360,1,C,N","007000,1,N,1","+0140,1","+0120,1","99999,9","07,5,+00360,1,99,9",,,"07,99,1,99,9,99,9,99999,9,99,9,99,9",,"10281,1,99999,9","80,1",,,"MET080METAR LPGR 031500Z 15010KT 7000 -SHRA BKN012 14/12 Q1028 RMK WIND RWY09 12009KT;",
"08515599999","2010-04-03T16:00:00","4","39.092169","-28.029847","26.21","GRACIOSA, PO","FM-15","LPGR ","V020","120,1,N,0057,1","00420,1,C,N","011265,1,N,1","+0150,1","+0120,1","99999,9","07,5,+00420,1,99,9","07,5,+00900,1,99,9",,"07,99,1,99,9,99,9,99999,9,99,9,99,9","999,M,+9999,9","10271,1,99999,9",,,,"MET081METAR LPGR 031600Z 12011KT 9999 BKN014 BKN030 15/12 Q1027 RMK WIND RWY09 11009KT;","Q01 -00092ATMX  "
"08515599999","2010-04-03T17:00:00","4","39.092169","-28.029847","26.21","GRACIOSA, PO","FM-15","LPGR ","V020","130,1,N,0051,1","00420,1,C,N","011265,1,N,1","+0150,1","+0120,1","99999,9","07,5,+00420,1,99,9","07,5,+00900,1,99,9",,"07,99,1,99,9,99,9,99999,9,99,9,99,9",,"10271,1,99999,9",,,,"MET081METAR LPGR 031700Z 13010KT 9999 BKN014 BKN030 15/12 Q1027 RMK WIND RWY09 13010KT;",
"08515599999","2010-04-05T14:00:00","4","39.092169","-28.029847","26.21","GRACIOSA, PO","FM-15","LPGR ","V020","240,1,N,0103,1","00300,1,C,N","011265,1,N,1","+0170,1","+0160,1","99999,9","02,5,+00090,1,99,9","07,5,+00300,1,99,9","08,5,+02400,1,99,9","08,99,1,99,9,99,9,99999,9,99,9,99,9",,"10119,1,99999,9",,,,"MET088METAR LPGR 051400Z 24020KT 9999 FEW003 BKN010 OVC080 17/16 Q1012 RMK WIND RWY09 22017KT;",
"08515599999","2010-04-05T15:00:00","4","39.092169","-28.029847","26.21","GRACIOSA, PO","FM-15","LPGR ","V020","240,1,N,0087,1","00300,1,C,N","008000,1,N,1","+0170,1","+0160,1","99999,9","04,5,+00090,1,99,9","07,5,+00300,1,99,9","08,5,+02400,1,99,9","08,99,1,99,9,99,9,99999,9,99,9,99,9",,"10119,1,99999,9",,,,"MET088METAR LPGR 051500Z 24017KT 8000 SCT003 BKN010 OVC080 17/16 Q1012 RMK WIND RWY09 22017KT;",
"08515599999","2010-04-05T16:00:00","4","39.092169","-28.029847","26.21","GRACIOSA, PO","FM-15","LPGR ","V020","240,1,N,0087,1","00300,1,C,N","004000,1,N,1","+0170,1","+0150,1","99999,9","04,5,+00120,1,99,9","07,5,+00300,1,99,9","08,5,+02100,1,99,9","08,99,1,99,9,99,9,99999,9,99,9,99,9",,"10119,1,99999,9","61,1",,,"MET092METAR LPGR 051600Z 24017KT 4000 -RA SCT004 BKN010 OVC070 17/15 Q1012 RMK WIND RWY09 23014KT;",
"08515599999","2010-04-05T17:00:00","4","39.092169","-28.029847","26.21","GRACIOSA, PO","FM-15","LPGR ","V020","240,1,N,0087,1","00300,1,C,N","004000,1,N,1","+0160,1","+0150,1","99999,9","02,5,+00090,1,99,9","07,5,+00300,1,99,9","08,5,+02100,1,99,9","08,99,1,99,9,99,9,99999,9,99,9,99,9",,"10108,1,99999,9","61,1",,,"MET092METAR LPGR 051700Z 24017KT 4000 -RA FEW003 BKN010 OVC070 16/15 Q1011 RMK WIND RWY09 24015KT;",
"08515599999","2010-04-06T15:00:00","4","39.092169","-28.029847","26.21","GRACIOSA, PO","FM-15","LPGR ","V020","110,1,N,0087,1","00900,1,C,N","011265,1,N,1","+0150,1","+0110,1","99999,9","02,5,+00480,1,99,9","07,5,+00900,1,99,9",,"07,99,1,99,9,99,9,99999,9,99,9,99,9","999,M,+9999,9","10180,1,99999,9",,,,"MET081METAR LPGR 061500Z 11017KT 9999 FEW016 BKN030 15/11 Q1018 RMK WIND RWY09 10019KT;","Q01 +00192ATMX  "
"08515599999","2010-04-06T16:00:00","4","39.092169","-28.029847","26.21","GRACIOSA, PO","FM-15","LPGR ","V020","110,1,N,0098,1","00900,1,C,N","011265,1,N,1","+0160,1","+0120,1","99999,9","02,5,+00480,1,99,9","07,5,+00900,1,99,9",,"07,99,1,99,9,99,9,99999,9,99,9,99,9","999,M,+9999,9","10169,1,99999,9",,,,"MET081METAR LPGR 061600Z 11019KT 9999 FEW016 BKN030 16/12 Q1017 RMK WIND RWY09 11018KT;","Q01 -00182ATMX  "
"08515599999","2010-04-06T17:00:00","4","39.092169","-28.029847","26.21","GRACIOSA, PO","FM-15","LPGR ","V020","110,1,N,0087,1","00900,1,C,N","011265,1,N,1","+0150,1","+0120,1","99999,9","02,5,+00480,1,99,9","07,5,+00900,1,99,9",,"07,99,1,99,9,99,9,99999,9,99,9,99,9","999,M,+9999,9","10169,1,99999,9",,,,"MET081METAR LPGR 061700Z 11017KT 9999 FEW016 BKN030 15/12 Q1017 RMK WIND RWY09 10018KT;","Q01 +00182ATMX  "
"08515599999","2010-04-06T18:00:00","4","39.092169","-28.029847","26.21","GRACIOSA, PO","FM-15","LPGR ","V020","120,1,N,0077,1","00900,1,C,N","011265,1,N,1","+0150,1","+0120,1","99999,9","02,5,+00450,1,99,9","07,5,+00900,1,99,9",,"07,99,1,99,9,99,9,99999,9,99,9,99,9","999,M,+9999,9","10169,1,99999,9",,,,"MET081METAR LPGR 061800Z 12015KT 9999 FEW015 BKN030 15/12 Q1017 RMK WIND RWY09 11015KT;","Q01 -00152ATMX  "
"08515599999","2010-04-06T19:00:00","4","39.092169","-28.029847","26.21","GRACIOSA, PO","FM-15","LPGR ","V020","110,1,N,0108,1","00900,1,C,N","011265,1,N,1","+0150,1","+0120,1","99999,9","04,5,+00330,1,99,9","07,5,+00900,1,99,9",,"07,99,1,99,9,99,9,99999,9,99,9,99,9","999,M,+9999,9","10159,1,99999,9",,,,"MET081METAR LPGR 061900Z 11021KT 9999 SCT011 BKN030 15/12 Q1016 RMK WIND RWY09 10018KT;","Q01 +00182ATMX  "
"08515599999","2010-04-06T20:00:00","4","39.092169","-28.029847","26.21","GRACIOSA, PO","FM-15","LPGR ","V020","130,1,N,0098,1","00750,1,C,N","009000,1,N,1","+0140,1","+0130,1","99999,9","04,5,+00330,1,99,9","07,5,+00750,1,99,9",,"07,99,1,99,9,99,9,99999,9,99,9,99,9",,"10169,1,99999,9","61,1",,,"MET085METAR LPGR 062000Z 13019KT 9000 -RA SCT011 BKN025 14/13 Q1017 RMK WIND RWY09 12017KT;",
"08515599999","2010-04-07T07:00:00","4","39.092169","-28.029847","26.21","GRACIOSA, PO","FM-15","LPGR ","V020","190,1,N,0067,1","99999,9,C,N","011265,1,N,1","+0160,1","+0150,1","99999,9","02,5,+00360,1,99,9","04,5,+00750,1,99,9",,"04,99,1,99,9,99,9,99999,9,99,9,99,9",,"10139,1,99999,9",,,,"MET081METAR LPGR 070700Z 19013KT 9999 FEW012 SCT025 16/15 Q1014 RMK WIND RWY09 17013KT;","P01 007503SCOCIG"
"08515599999","2010-04-07T08:00:00","4","39.092169","-28.029847","26.21","GRACIOSA, PO","FM-15","LPGR ","V020","190,1,N,0062,1","99999,9,C,N","011265,1,N,1","+0170,1","+0150,1","99999,9","02,5,+00390,1,99,9","04,5,+00750,1,99,9",,"04,99,1,99,9,99,9,99999,9,99,9,99,9",,"10139,1,99999,9",,,,"MET081METAR LPGR 070800Z 19012KT 9999 FEW013 SCT025 17/15 Q1014 RMK WIND RWY09 17014KT;","P01 007503SCOCIG"
"08515599999","2010-04-07T09:00:00","4","39.092169","-28.029847","26.21","GRACIOSA, PO","FM-15","LPGR ","V020","200,1,N,0046,1","02400,1,C,N","011265,1,N,1","+0170,1","+0150,1","99999,9","02,5,+00420,1,99,9","07,5,+02400,1,99,9",,"07,99,1,99,9,99,9,99999,9,99,9,99,9",,"10139,1,99999,9",,,,"MET081METAR LPGR 070900Z 20009KT 9999 FEW014 BKN080 17/15 Q1014 RMK WIND RWY09 18009KT;",
"08515599999","2010-04-07T10:00:00","4","39.092169","-28.029847","26.21","GRACIOSA, PO","FM-15","LPGR ","V020","180,1,N,0026,1","02400,1,C,N","011265,1,N,1","+0180,1","+0150,1","99999,9","02,5,+00420,1,99,9","07,5,+02400,1,99,9",,"07,99,1,99,9,99,9,99999,9,99,9,99,9",,"10139,1,99999,9",,,,"MET081METAR LPGR 071000Z 18005KT 9999 FEW014 BKN080 18/15 Q1014 RMK WIND RWY09 16008KT;",
"08515599999","2010-04-07T11:00:00","4","39.092169","-28.029847","26.21","GRACIOSA, PO","FM-15","LPGR ","V020","170,1,N,0062,1","99999,9,C,N","011265,1,N,1","+0200,1","+0160,1","99999,9","02,5,+00420,1,99,9","04,5,+02700,1,99,9",,"04,99,1,99,9,99,9,99999,9,99,9,99,9",,"10139,1,99999,9",,,,"MET081METAR LPGR 071100Z 17012KT 9999 FEW014 SCT090 20/16 Q1014 RMK WIND RWY09 16013KT;","P01 027003SCOCIG"
"08515599999","2010-04-07T14:00:00","4","39.092169","-28.029847","26.21","GRACIOSA, PO","FM-15","LPGR ","V020","190,1,N,0098,1","06300,1,C,N","011265,1,N,1","+0190,1","+0170,1","99999,9","04,5,+00300,1,99,9","07,5,+06300,1,99,9",,"07,99,1,99,9,99,9,99999,9,99,9,99,9",,"10129,1,99999,9",,,,"MET081METAR LPGR 071400Z 19019KT 9999 SCT010 BKN210 19/17 Q1013 RMK WIND RWY09 19019KT;",
"08515599999","2010-04-07T15:00:00","4","39.092169","-28.029847","26.21","GRACIOSA, PO","FM-15","LPGR ","V020","190,1,N,0072,1","00300,1,C,N","009000,1,N,1","+0180,1","+0160,1","99999,9","02,5,+00180,1,99,9","07,5,+00300,1,99,9",,"07,99,1,99,9,99,9,99999,9,99,9,99,9",,"10129,1,99999,9","61,1",,,"MET085METAR LPGR 071500Z 19014KT 9000 -RA FEW006 BKN010 18/16 Q1013 RMK WIND RWY09 17013KT;",
"08515599999","2010-04-07T16:00:00","4","39.092169","-28.029847","26.21","GRACIOSA, PO","FM-15","LPGR ","V020","190,1,N,0077,1","00330,1,C,N","004500,1,N,1","+0180,1","+0160,1","99999,9","07,5,+00330,1,99,9","08,5,+02100,1,99,9",,"08,99,1,99,9,99,9,99999,9,99,9,99,9",,"10119,1,99999,9","61,1",,,"MET085METAR LPGR 071600Z 19015KT 4500 -RA BKN011 OVC070 18/16 Q1012 RMK WIND RWY09 17013KT;",
"08515599999","2010-04-07T17:00:00","4","39.092169","-28.029847","26.21","GRACIOSA, PO","FM-15","LPGR ","V020","190,1,N,0072,1","00360,1,C,N","011265,1,N,1","+0180,1","+0160,1","99999,9","07,5,+00360,1,99,9","08,5,+02400,1,99,9",,"08,99,1,99,9,99,9,99999,9,99,9,99,9",,"10119,1,99999,9",,,,"MET081METAR LPGR 071700Z 19014KT 9999 BKN012 OVC080 18/16 Q1012 RMK WIND RWY09 19017KT;",
"08515599999","2010-04-07T18:00:00","4","39.092169","-28.029847","26.21","GRACIOSA, PO","FM-15","LPGR ","V020","200,1,N,0098,1","00360,1,C,N","006000,1,N,1","+0180,1","+0160,1","99999,9","07,5,+00360,1,99,9","08,5,+02400,1,99,9",,"08,99,1,99,9,99,9,99999,9,99,9,99,9",,"10119,1,99999,9","80,1",,,"MET087METAR LPGR 071800Z 20019KT 6000 -SHRA BKN012 OVC080 18/16 Q1012 RMK WIND RWY09 20019KT;",
"08515599999","2010-04-07T19:00:00","4","39.092169","-28.029847","26.21","GRACIOSA, PO","FM-15","LPGR ","V020","210,1,N,0082,1","02100,1,C,N","006000,1,N,1","+0170,1","+0150,1","99999,9","04,5,+00360,1,99,9","08,5,+02100,1,99,9",,"08,99,1,99,9,99,9,99999,9,99,9,99,9",,"10119,1,99999,9","61,1",,,"MET085METAR LPGR 071900Z 21016KT 6000 -RA SCT012 OVC070 17/15 Q1012 RMK WIND RWY09 20016KT;",
"08515599999","2010-04-08T14:00:00","4","39.092169","-28.029847","26.21","GRACIOSA, PO","FM-15","LPGR ","V020","230,1,N,0082,1","99999,9,C,N","011265,1,N,1","+0200,1","+0170,1","99999,9","02,5,+00360,1,99,9","04,5,+00900,1,99,9",,"04,99,1,99,9,99,9,99999,9,99,9,99,9",,"10129,1,99999,9",,,,"MET081METAR LPGR 081400Z 23016KT 9999 FEW012 SCT030 20/17 Q1013 RMK WIND RWY09 23015KT;","P01 009003SCOCIG"
"08515599999","2010-04-08T15:00:00","4","39.092169","-28.029847","26.21","GRACIOSA, PO","FM-15","LPGR ","V020","230,1,N,0067,1","00900,1,C,N","011265,1,N,1","+0180,1","+0170,1","99999,9","04,5,+00360,1,99,9","07,5,+00900,1,99,9",,"07,99,1,99,9,99,9,99999,9,99,9,99,9",,"10129,1,99999,9",,,,"MET081METAR LPGR 081500Z 23013KT 9999 SCT012 BKN030 18/17 Q1013 RMK WIND RWY09 22012KT;",
"08515599999","2010-04-08T16:00:00","4","39.092169","-28.029847","26.21","GRACIOSA, PO","FM-15","LPGR ","V020","240,1,N,0077,1","99999,9,C,N","011265,1,N,1","+0190,1","+0160,1","99999,9","02,5,+00360,1,99,9","04,5,+00900,1,99,9",,"04,99,1,99,9,99,9,99999,9,99,9,99,9",,"10129,1,99999,9",,,,"MET081METAR LPGR 081600Z 24015KT 9999 FEW012 SCT030 19/16 Q1013 RMK WIND RWY09 22016KT;","P01 009003SCOCIG"
"08515599999","2010-04-08T17:00:00","4","39.092169","-28.029847","26.21","GRACIOSA, PO","FM-15","LPGR ","V020","240,1,N,0072,1","00300,1,C,N","011265,1,N,1","+0180,1","+0160,1","99999,9","07,5,+00300,1,99,9",,,"07,99,1,99,9,99,9,99999,9,99,9,99,9",,"10129,1,99999,9",,,,"MET074METAR LPGR 081700Z 24014KT 9999 BKN010 18/16 Q1013 RMK WIND RWY09 23013KT;",
"08515599999","2010-04-09T07:00:00","4","39.092169","-28.029847","26.21","GRACIOSA, PO","FM-15","LPGR ","V020","240,1,N,0051,1","22000,1,9,N","011265,1,N,1","+0150,1","+0130,1","99999,9","02,5,+00420,1,99,9",,,"02,99,1,99,9,99,9,99999,9,99,9,99,9",,"10149,1,99999,9",,,,"MET074METAR LPGR 090700Z 24010KT 9999 FEW014 15/13 Q1015 RMK WIND RWY09 23008KT;",
"08515599999","2010-04-09T08:00:00","4","39.092169","-28.029847","26.21","GRACIOSA, PO","FM-15","LPGR ","V020","240,1,N,0057,1","22000,1,9,N","011265,1,N,1","+0150,1","+0130,1","99999,9","02,5,+00420,1,99,9",,,"02,99,1,99,9,99,9,99999,9,99,9,99,9",,"10149,1,99999,9",,,,"MET074METAR LPGR 090800Z 24011KT 9999 FEW014 15/13 Q1015 RMK WIND RWY09 23008KT;",
"08515599999","2010-04-09T14:00:00","4","39.092169","-28.029847","26.21","GRACIOSA, PO","FM-15","LPGR ","V020","230,1,N,0087,1","22000,1,9,N","011265,1,N,1","+0180,1","+0140,1","99999,9","02,5,+00480,1,99,9",,,"02,99,1,99,9,99,9,99999,9,99,9,99,9",,"10149,1,99999,9",,,,"MET074METAR LPGR 091400Z 23017KT 9999 FEW016 18/14 Q1015 RMK WIND RWY09 22014KT;",
"08515599999","2010-04-09T15:00:00","4","39.092169","-28.029847","26.21","GRACIOSA, PO","FM-15","LPGR ","V020","240,1,N,0072,1","22000,1,9,N","011265,1,N,1","+0190,1","+0130,1","99999,9","02,5,+00540,1,99,9",,,"02,99,1,99,9,99,9,99999,9,99,9,99,9",,"10149,1,99999,9",,,,"MET074METAR LPGR 091500Z 24014KT 9999 FEW018 19/13 Q1015 RMK WIND RWY09 23011KT;",
"08515599999","2010-04-09T16:00:00","4","39.092169","-28.029847","26.21","GRACIOSA, PO","FM-15","LPGR ","V020","250,1,N,0077,1","22000,1,9,N","011265,1,N,1","+0180,1","+0140,1","99999,9","02,5,+00480,1,99,9",,,"02,99,1,99,9,99,9,99999,9,99,9,99,9",,"10149,1,99999,9",,,,"MET074METAR LPGR 091600Z 25015KT 9999 FEW016 18/14 Q1015 RMK WIND RWY09 24016KT;",
"08515599999","2010-04-10T15:00:00","4","39.092169","-28.029847","26.21","GRACIOSA, PO","FM-15","LPGR ","V020","060,1,N,0051,1","02100,1,C,N","006000,1,N,1","+0120,1","+0090,1","99999,9","02,5,+00390,1,99,9","08,5,+02100,1,99,9",,"08,99,1,99,9,99,9,99999,9,99,9,99,9",,"10139,1,99999,9","63,1",,,"MET084METAR LPGR 101500Z 06010KT 6000 RA FEW013 OVC070 12/09 Q1014 RMK WIND RWY09 06012KT;",
"08515599999","2010-04-10T16:00:00","4","39.092169","-28.029847","26.21","GRACIOSA, PO","FM-15","LPGR ","V020","050,1,N,0051,1","02400,1,C,N","011265,1,N,1","+0130,1","+0090,1","99999,9","02,5,+00420,1,99,9","07,5,+02400,1,99,9",,"07,99,1,99,9,99,9,99999,9,99,9,99,9",,"10129,1,99999,9",,,,"MET081METAR LPGR 101600Z 05010KT 9999 FEW014 BKN080 13/09 Q1013 RMK WIND RWY09 05009KT;",
"08515599999","2010-04-10T17:00:00","4","39.092169","-28.029847","26.21","GRACIOSA, PO","FM-15","LPGR ","V020","050,1,N,0026,1","99999,9,C,N","011265,1,N,1","+0130,1","+0090,1","99999,9","02,5,+00420,1,99,9","04,5,+02400,1,99,9",,"04,99,1,99,9,99,9,99999,9,99,9,99,9",,"10129,1,99999,9",,,,"MET081METAR LPGR 101700Z 05005KT 9999 FEW014 SCT080 13/09 Q1013 RMK WIND RWY09 06007KT;","P01 024003SCOCIG"
"08515599999","2010-04-11T15:00:00","4","39.092169","-28.029847","26.21","GRACIOSA, PO","FM-15","LPGR ","V020","350,1,N,0077,1","00900,5,9,N","011265,1,N,1","+0130,1","+0110,1","99999,9","07,5,+00900,5,99,9",,,,,"10060,1,99999,9",,,,"MET084METAR LPGR 111500Z 35015KT 9999 BKB014 BKN030 13/11 Q1006 RMK WIND RWY09 33013G25KT;",
"08515599999","2010-04-11T16:00:00","4","39.092169","-28.029847","26.21","GRACIOSA, PO","FM-15","LPGR ","V020","340,1,N,0067,1","00300,1,C,N","008000,1,N,1","+0130,1","+0120,1","99999,9","02,5,+00180,1,99,9","07,5,+00300,1,99,9","07,5,+00750,1,99,9","07,99,1,99,9,99,9,99999,9,99,9,99,9",,"10061,1,99999,9","80,1",,,"MET094METAR LPGR 111600Z 34013KT 8000 -SHRA FEW006 BKN010 BKN025 13/12 Q1006 RMK WIND RWY09 32015KT;",
"08515599999","2010-04-11T17:00:00","4","39.092169","-28.029847","26.21","GRACIOSA, PO","FM-15","LPGR ","V020","340,1,N,0051,1","00300,1,C,N","011265,1,N,1","+0140,1","+0130,1","99999,9","02,5,+00180,1,99,9","07,5,+00300,1,99,9","07,5,+00750,1,99,9","07,99,1,99,9,99,9,99999,9,99,9,99,9",,"10051,1,99999,9",,,,"MET088METAR LPGR 111700Z 34010KT 9999 FEW006 BKN010 BKN025 14/13 Q1005 RMK WIND RWY09 32011KT;",
"08515599999","2010-04-12T07:00:00","4","39.092169","-28.029847","26.21","GRACIOSA, PO","FM-15","LPGR ","V020","060,1,N,0103,1","00420,1,C,N","011265,1,N,1","+0140,1","+0120,1","99999,9","07,5,+00420,1,99,9",,,"07,99,1,99,9,99,9,99999,9,99,9,99,9",,"10102,1,99999,9",,,,"MET074METAR LPGR 120700Z 06020KT 9999 BKN014 14/12 Q1010 RMK WIND RWY09 06023KT;",
"08515599999","2010-04-12T08:00:00","4","39.092169","-28.029847","26.21","GRACIOSA, PO","FM-15","LPGR ","V020","060,1,N,0098,1","22000,1,9,N","999999,9,N,1","+0140,1","+0120,1","99999,9","02,5,+00420,5,99,9",,,,,"10100,1,99999,9",,,,"MET077METAR LPGR 120800Z 06019KT 020V090 FEW014 14/12 Q1010 RMK WIND RWY09 06023KT;",
"08515599999","2010-04-12T14:00:00","4","39.092169","-28.029847","26.21","GRACIOSA, PO","FM-15","LPGR ","V020","060,1,N,0103,1","00900,1,C,N","011265,1,N,1","+0150,1","+0120,1","99999,9","02,5,+00450,1,99,9","07,5,+00900,1,99,9",,"07,99,1,99,9,99,9,99999,9,99,9,99,9",,"10129,1,99999,9",,,,"MET089METAR LPGR 121400Z 06020KT 020V090 9999 FEW015 BKN030 15/12 Q1013 RMK WIND RWY09 05021KT;",
"08515599999","2010-04-12T15:00:00","4","39.092169","-28.029847","26.21","GRACIOSA, PO","FM-15","LPGR ","V020","060,1,N,0118,1","00900,1,C,N","011265,1,N,1","+0150,1","+0110,1","99999,9","02,5,+00450,1,99,9","07,5,+00900,1,99,9",,"07,99,1,99,9,99,9,99999,9,99,9,99,9",,"10129,1,99999,9",,,,"MET089METAR LPGR 121500Z 06023KT 020V090 9999 FEW015 BKN030 15/11 Q1013 RMK WIND RWY09 05023KT;",
"08515599999","2010-04-12T16:00:00","4","39.092169","-28.029847","26.21","GRACIOSA, PO","FM-15","LPGR ","V020","060,1,N,0118,1","00900,1,C,N","011265,1,N,1","+0150,1","+0110,1","99999,9","02,5,+00450,1,99,9","07,5,+00900,1,99,9",,"07,99,1,99,9,99,9,99999,9,99,9,99,9",,"10119,1,99999,9",,,,"MET089METAR LPGR 121600Z 06023KT 020V090 9999 FEW015 BKN030 15/11 Q1012 RMK WIND RWY09 05024KT;",
"08515599999","2010-04-12T17:00:00","4","39.092169","-28.029847","26.21","GRACIOSA, PO","FM-15","LPGR ","V020","060,1,N,0108,1","99999,9,C,N","011265,1,N,1","+0150,1","+0110,1","99999,9","02,5,+00450,1,99,9","04,5,+00900,1,99,9",,"04,99,1,99,9,99,9,99999,9,99,9,99,9",,"10119,1,99999,9",,,,"MET089METAR LPGR 121700Z 06021KT 020V090 9999 FEW015 SCT030 15/11 Q1012 RMK WIND RWY09 05025KT;","P01 009003SCOCIG"
"08515599999","2010-04-13T14:00:00","4","39.092169","-28.029847","26.21","GRACIOSA, PO","FM-15","LPGR ","V020","060,1,N,0098,1","01050,1,C,N","011265,1,N,1","+0150,1","+0080,1","99999,9","02,5,+00540,1,99,9","07,5,+01050,1,99,9",,"07,99,1,99,9,99,9,99999,9,99,9,99,9",,"10169,1,99999,9",,,,"MET089METAR LPGR 131400Z 06019KT 020V090 9999 FEW018 BKN035 15/08 Q1017 RMK WIND RWY09 06024KT;",
"08515599999","2010-04-13T15:00:00","4","39.092169","-28.029847","26.21","GRACIOSA, PO","FM-15","LPGR ","V020","060,1,N,0087,1","01050,1,C,N","011265,1,N,1","+0150,1","+0080,1","99999,9","02,5,+00540,1,99,9","07,5,+01050,1,99,9",,"07,99,1,99,9,99,9,99999,9,99,9,99,9",,"10169,1,99999,9",,,,"MET089METAR LPGR 131500Z 06017KT 020V090 9999 FEW018 BKN035 15/08 Q1017 RMK WIND RWY09 06020KT;",
"08515599999","2010-04-13T16:00:00","4","39.092169","-28.029847","26.21","GRACIOSA, PO","FM-15","LPGR ","V020","060,1,N,0103,1","01050,1,C,N","011265,1,N,1","+0150,1","+0090,1","99999,9","04,5,+00540,1,99,9","07,5,+01050,1,99,9",,"07,99,1,99,9,99,9,99999,9,99,9,99,9",,"10169,1,99999,9",,,,"MET089METAR LPGR 131600Z 06020KT 020V090 9999 SCT018 BKN035 15/09 Q1017 RMK WIND RWY09 06022KT;",
"08515599999","2010-04-13T17:00:00","4","39.092169","-28.029847","26.21","GRACIOSA, PO","FM-15","LPGR ","V020","060,1,N,0093,1","01050,1,C,N","011265,1,N,1","+0150,1","+0100,1","99999,9","02,5,+00540,1,99,9","07,5,+01050,1,99,9",,"07,99,1,99,9,99,9,99999,9,99,9,99,9",,"10169,1,99999,9",,,,"MET089METAR LPGR 131700Z 06018KT 020V090 9999 FEW018 BKN035 15/10 Q1017 RMK WIND RWY09 06022KT;",
"08515599999","2010-04-14T15:00:00","4","39.092169","-28.029847","26.21","GRACIOSA, PO","FM-15","LPGR ","V020","050,1,N,0103,1","00480,1,C,N","011265,1,N,1","+0140,1","+0090,1","99999,9","07,5,+00480,1,99,9","02,5,+00510,1,02,5",,,,"10169,1,99999,9",,,,"MET092METAR LPGR 141500Z 05020KT 020V090 9999 BKN016 FEW017TCU 14/09 Q1017 RMK WIND RWY09 04021KT;","Q01+000022SCOTCV"
"08515599999","2010-04-14T16:00:00","4","39.092169","-28.029847","26.21","GRACIOSA, PO","FM-15","LPGR ","V020","050,1,N,0103,1","01050,1,C,N","011265,1,N,1","+0140,1","+0090,1","99999,9","02,5,+00480,1,99,9","07,5,+01050,1,99,9",,"07,99,1,99,9,99,9,99999,9,99,9,99,9",,"10159,1,99999,9",,,,"MET089METAR LPGR 141600Z 05020KT 010V080 9999 FEW016 BKN035 14/09 Q1016 RMK WIND RWY09 04023KT;",
"08515599999","2010-04-14T17:00:00","4","39.092169","-28.029847","26.21","GRACIOSA, PO","FM-15","LPGR ","V020","050,1,N,0093,1","22000,1,9,N","011265,1,N,1","+0150,1","+0080,1","99999,9","02,5,+00540,1,99,9",,,"02,99,1,99,9,99,9,99999,9,99,9,99,9",,"10159,1,99999,9",,,,"MET082METAR LPGR 141700Z 05018KT 010V080 9999 FEW018 15/08 Q1016 RMK WIND RWY09 04021KT;",
"08515599999","2010-04-15T14:00:00","4","39.092169","-28.029847","26.21","GRACIOSA, PO","FM-15","LPGR ","V020","040,1,N,0098,1","01050,1,C,N","011265,1,N,1","+0140,1","+0100,1","99999,9","04,5,+00480,1,99,9","07,5,+01050,1,99,9",,"07,99,1,99,9,99,9,99999,9,99,9,99,9",,"10149,1,99999,9",,,,"MET089METAR LPGR 151400Z 04019KT 360V080 9999 SCT016 BKN035 14/10 Q1015 RMK WIND RWY09 04021KT;",
"08515599999","2010-04-15T15:00:00","4","39.092169","-28.029847","26.21","GRACIOSA, PO","FM-15","LPGR ","V020","020,1,N,0067,1","01050,1,C,N","011265,1,N,1","+0140,1","+0110,1","99999,9","02,5,+00480,1,99,9","07,5,+01050,1,99,9",,"07,99,1,99,9,99,9,99999,9,99,9,99,9",,"10139,1,99999,9",,,,"MET081METAR LPGR 151500Z 02013KT 9999 FEW016 BKN035 14/11 Q1014 RMK WIND RWY09 02013KT;",
"08515599999","2010-04-15T16:00:00","4","39.092169","-28.029847","26.21","GRACIOSA, PO","FM-15","LPGR ","V020","030,1,N,0087,1","01050,1,C,N","011265,1,N,1","+0150,1","+0100,1","99999,9","04,5,+00480,1,99,9","07,5,+01050,1,99,9",,"07,99,1,99,9,99,9,99999,9,99,9,99,9",,"10139,1,99999,9",,,,"MET081METAR LPGR 151600Z 03017KT 9999 SCT016 BKN035 15/10 Q1014 RMK WIND RWY09 03015KT;",
"08515599999","2010-04-15T17:00:00","4","39.092169","-28.029847","26.21","GRACIOSA, PO","FM-15","LPGR ","V020","020,1,N,0093,1","01050,1,C,N","011265,1,N,1","+0150,1","+0100,1","99999,9","04,5,+00480,1,99,9","07,5,+01050,1,99,9",,"07,99,1,99,9,99,9,99999,9,99,9,99,9",,"10139,1,99999,9",,,,"MET081METAR LPGR 151700Z 02018KT 9999 SCT016 BKN035 15/10 Q1014 RMK WIND RWY09 02016KT;",
"08515599999","2010-04-16T07:00:00","4","39.092169","-28.029847","26.21","GRACIOSA, PO","FM-15","LPGR ","V020","020,1,N,0057,1","01050,1,C,N","011265,1,N,1","+0120,1","+0090,1","99999,9","02,5,+00480,1,99,9","07,5,+01050,1,99,9",,"07,99,1,99,9,99,9,99999,9,99,9,99,9",,"10108,1,99999,9",,,,"MET081METAR LPGR 160700Z 02011KT 9999 FEW016 BKN035 12/09 Q1011 RMK WIND RWY09 02012KT;",
"08515599999","2010-04-16T08:00:00","4","39.092169","-28.029847","26.21","GRACIOSA, PO","FM-15","LPGR ","V020","030,1,N,0077,1","22000,1,9,N","011265,1,N,1","+0130,1","+0080,1","99999,9","04,5,+00480,1,99,9",,,"04,99,1,99,9,99,9,99999,9,99,9,99,9",,"10119,1,99999,9",,,,"MET074METAR LPGR 160800Z 03015KT 9999 SCT016 13/08 Q1012 RMK WIND RWY09 03017KT;",
"08515599999","2010-04-16T14:00:00","4","39.092169","-28.029847","26.21","GRACIOSA, PO","FM-15","LPGR ","V020","030,1,N,0077,1","01050,1,C,N","011265,1,N,1","+0140,1","+0100,1","99999,9","02,5,+00480,1,99,9","07,5,+01050,1,99,9",,"07,99,1,99,9,99,9,99999,9,99,9,99,9",,"10119,1,99999,9",,,,"MET081METAR LPGR 161400Z 03015KT 9999 FEW016 BKN035 14/10 Q1012 RMK WIND RWY09 02015KT;",
"08515599999","2010-04-16T15:00:00","4","39.092169","-28.029847","26.21","GRACIOSA, PO","FM-15","LPGR ","V020","030,1,N,0077,1","01050,1,C,N","011265,1,N,1","+0150,1","+0100,1","99999,9","04,5,+00480,1,99,9","07,5,+01050,1,99,9",,"07,99,1,99,9,99,9,99999,9,99,9,99,9",,"10119,1,99999,9",,,,"MET081METAR LPGR 161500Z 03015KT 9999 SCT016 BKN035 15/10 Q1012 RMK WIND RWY09 03015KT;",
"08515599999","2010-04-16T16:00:00","4","39.092169","-28.029847","26.21","GRACIOSA, PO","FM-15","LPGR ","V020","030,1,N,0077,1","01050,1,C,N","011265,1,N,1","+0140,1","+0100,1","99999,9","02,5,+00480,1,99,9","07,5,+01050,1,99,9",,"07,99,1,99,9,99,9,99999,9,99,9,99,9",,"10119,1,99999,9",,,,"MET081METAR LPGR 161600Z 03015KT 9999 FEW016 BKN035 14/10 Q1012 RMK WIND RWY09 02014KT;",
"08515599999","2010-04-16T17:00:00","4","39.092169","-28.029847","26.21","GRACIOSA, PO","FM-15","LPGR ","V020","030,1,N,0077,1","01050,1,C,N","011265,1,N,1","+0140,1","+0100,1","99999,9","04,5,+00480,1,99,9","07,5,+01050,1,99,9",,"07,99,1,99,9,99,9,99999,9,99,9,99,9",,"10119,1,99999,9",,,,"MET081METAR LPGR 161700Z 03015KT 9999 SCT016 BKN035 14/10 Q1012 RMK WIND RWY09 02015KT;",
"08515599999","2010-04-17T14:00:00","4","39.092169","-28.029847","26.21","GRACIOSA, PO","FM-15","LPGR ","V020","060,1,N,0021,1","99999,9,C,N","011265,1,N,1","+0150,1","+0120,1","99999,9","02,5,+00480,1,99,9","04,5,+01050,1,99,9",,"04,99,1,99,9,99,9,99999,9,99,9,99,9",,"10108,1,99999,9",,,,"MET081METAR LPGR 171400Z 06004KT 9999 FEW016 SCT035 15/12 Q1011 RMK WIND RWY09 05007KT;","P01 010503SCOCIG"
"08515599999","2010-04-17T15:00:00","4","39.092169","-28.029847","26.21","GRACIOSA, PO","FM-15","LPGR ","V020","090,1,N,0026,1","01050,1,C,N","011265,1,N,1","+0160,1","+0110,1","99999,9","02,5,+00480,1,99,9","07,5,+01050,1,99,9",,"07,99,1,99,9,99,9,99999,9,99,9,99,9",,"10108,1,99999,9",,,,"MET081METAR LPGR 171500Z 09005KT 9999 FEW016 BKN035 16/11 Q1011 RMK WIND RWY09 08007KT;",
"08515599999","2010-04-17T16:00:00","4","39.092169","-28.029847","26.21","GRACIOSA, PO","FM-15","LPGR ","V020","090,1,N,0036,1","01050,1,C,N","011265,1,N,1","+0160,1","+0110,1","99999,9","02,5,+00480,1,99,9","07,5,+01050,1,99,9",,"07,99,1,99,9,99,9,99999,9,99,9,99,9",,"10102,1,99999,9",,,,"MET081METAR LPGR 171600Z 09007KT 9999 FEW016 BKN035 16/11 Q1010 RMK WIND RWY09 09008KT;",
"08515599999","2010-04-18T14:00:00","4","39.092169","-28.029847","26.21","GRACIOSA, PO","FM-15","LPGR ","V020","170,1,N,0067,1","00900,1,C,N","011265,1,N,1","+0180,1","+0140,1","99999,9","02,5,+00360,1,99,9","04,5,+00900,1,99,9","07,5,+06300,1,99,9","07,99,1,99,9,99,9,99999,9,99,9,99,9",,"10010,1,99999,9",,,,"MET088METAR LPGR 181400Z 17013KT 9999 FEW012 SCT030 BKN210 18/14 Q1001 RMK WIND RWY09 16016KT;",
"08515599999","2010-04-18T15:00:00","4","39.092169","-28.029847","26.21","GRACIOSA, PO","FM-15","LPGR ","V020","170,1,N,0077,1","00900,1,C,N","011265,1,N,1","+0180,1","+0140,1","99999,9","02,5,+00360,1,99,9","04,5,+00900,1,99,9","07,5,+06300,1,99,9","07,99,1,99,9,99,9,99999,9,99,9,99,9",,"10010,1,99999,9",,,,"MET088METAR LPGR 181500Z 17015KT 9999 FEW012 SCT030 BKN210 18/14 Q1001 RMK WIND RWY09 17017KT;",
"08515599999","2010-04-18T16:00:00","4","39.092169","-28.029847","26.21","GRACIOSA, PO","FM-15","LPGR ","V020","190,1,N,0067,1","02400,1,C,N","008000,1,N,1","+0150,1","+0130,1","99999,9","04,5,+00300,1,99,9","07,5,+02400,1,99,9",,"07,99,1,99,9,99,9,99999,9,99,9,99,9",,"10010,1,99999,9","80,1",,,"MET087METAR LPGR 181600Z 19013KT 8000 -SHRA SCT010 BKN080 15/13 Q1001 RMK WIND RWY09 19013KT;",
"08515599999","2010-04-18T18:00:00","4","39.092169","-28.029847","26.21","GRACIOSA, PO","FM-15","LPGR ","V020","180,1,N,0021,1","02400,1,C,N","009000,1,N,1","+0150,1","+0140,1","99999,9","04,5,+00360,1,99,9","07,5,+02400,1,99,9",,"07,99,1,99,9,99,9,99999,9,99,9,99,9",,"10000,1,99999,9","80,1",,,"MET087METAR LPGR 181800Z 18004KT 9000 -SHRA SCT012 BKN080 15/14 Q1000 RMK WIND RWY09 17006KT;",
"08515599999","2010-04-18T19:00:00","4","39.092169","-28.029847","26.21","GRACIOSA, PO","FM-15","LPGR ","V020","250,1,N,0051,1","00360,1,C,N","011265,1,N,1","+0140,1","+0120,1","99999,9","07,5,+00360,1,99,9","07,5,+00900,1,99,9",,"07,99,1,99,9,99,9,99999,9,99,9,99,9",,"10000,1,99999,9",,,,"MET081METAR LPGR 181900Z 25010KT 9999 BKN012 BKN030 14/12 Q1000 RMK WIND RWY09 24012KT;",
"08515599999","2010-04-19T07:00:00","4","39.092169","-28.029847","26.21","GRACIOSA, PO","FM-15","LPGR ","V020","190,1,N,0046,1","22000,1,9,N","011265,1,N,1","+0120,1","+0090,1","99999,9","02,5,+00420,1,99,9",,,"02,99,1,99,9,99,9,99999,9,99,9,99,9",,"09990,1,99999,9",,,,"MET074METAR LPGR 190700Z 19009KT 9999 FEW014 12/09 Q0999 RMK WIND RWY09 16008KT;",
"08515599999","2010-04-19T08:00:00","4","39.092169","-28.029847","26.21","GRACIOSA, PO","FM-15","LPGR ","V020","170,1,N,0021,1","22000,1,9,N","011265,1,N,1","+0130,1","+0100,1","99999,9","02,5,+00420,1,99,9",,,"02,99,1,99,9,99,9,99999,9,99,9,99,9",,"10000,1,99999,9",,,,"MET074METAR LPGR 190800Z 17004KT 9999 FEW014 13/10 Q1000 RMK WIND RWY09 16006KT;",
"08515599999","2010-04-19T09:00:00","4","39.092169","-28.029847","26.21","GRACIOSA, PO","FM-15","LPGR ","V020","170,1,N,0051,1","22000,1,9,N","011265,1,N,1","+0140,1","+0120,1","99999,9","02,5,+00420,1,99,9",,,"02,99,1,99,9,99,9,99999,9,99,9,99,9",,"10000,1,99999,9",,,,"MET074METAR LPGR 190900Z 17010KT 9999 FEW014 14/12 Q1000 RMK WIND RWY09 16008KT;",
"08515599999","2010-04-19T14:00:00","4","39.092169","-28.029847","26.21","GRACIOSA, PO","FM-15","LPGR ","V020","150,1,N,0072,1","06300,1,C,N","011265,1,N,1","+0170,1","+0130,1","99999,9","02,5,+00390,1,99,9","07,5,+06300,1,99,9",,"07,99,1,99,9,99,9,99999,9,99,9,99,9",,"09990,1,99999,9",,,,"MET081METAR LPGR 191400Z 15014KT 9999 FEW013 BKN210 17/13 Q0999 RMK WIND RWY09 13016KT;",
"08515599999","2010-04-19T15:00:00","4","39.092169","-28.029847","26.21","GRACIOSA, PO","FM-15","LPGR ","V020","150,1,N,0072,1","06300,1,C,N","011265,1,N,1","+0160,1","+0130,1","99999,9","02,5,+00360,1,99,9","07,5,+06300,1,99,9",,"07,99,1,99,9,99,9,99999,9,99,9,99,9",,"09990,1,99999,9",,,,"MET081METAR LPGR 191500Z 15014KT 9999 FEW012 BKN210 16/13 Q0999 RMK WIND RWY09 14013KT;",
"08515599999","2010-04-19T16:00:00","4","39.092169","-28.029847","26.21","GRACIOSA, PO","FM-15","LPGR ","V020","150,1,N,0062,1","02700,1,C,N","011265,1,N,1","+0160,1","+0130,1","99999,9","02,5,+00360,1,99,9","08,5,+02700,1,99,9",,"08,99,1,99,9,99,9,99999,9,99,9,99,9",,"09980,1,99999,9",,,,"MET081METAR LPGR 191600Z 15012KT 9999 FEW012 OVC090 16/13 Q0998 RMK WIND RWY09 14011KT;",
"08515599999","2010-04-19T17:00:00","4","39.092169","-28.029847","26.21","GRACIOSA, PO","FM-15","LPGR ","V020","140,1,N,0062,1","02400,1,C,N","009000,1,N,1","+0160,1","+0130,1","99999,9","02,5,+00360,1,99,9","08,5,+02400,1,99,9",,"08,99,1,99,9,99,9,99999,9,99,9,99,9",,"09980,1,99999,9","61,1",,,"MET085METAR LPGR 191700Z 14012KT 9000 -RA FEW012 OVC080 16/13 Q0998 RMK WIND RWY09 13012KT;",
"08515599999","2010-04-20T14:00:00","4","39.092169","-28.029847","26.21","GRACIOSA, PO","FM-15","LPGR ","V020","360,1,N,0046,1","22000,1,9,N","011265,1,N,1","+0170,1","+0130,1","99999,9","02,5,+00450,1,99,9",,,"02,99,1,99,9,99,9,99999,9,99,9,99,9",,"10051,1,99999,9",,,,"MET074METAR LPGR 201400Z 36009KT 9999 FEW015 17/13 Q1005 RMK WIND RWY09 36008KT;",
"08515599999","2010-04-20T15:00:00","4","39.092169","-28.029847","26.21","GRACIOSA, PO","FM-15","LPGR ","V020","350,1,N,0041,1","22000,1,9,N","011265,1,N,1","+0160,1","+0130,1","99999,9","02,5,+00480,1,99,9",,,"02,99,1,99,9,99,9,99999,9,99,9,99,9",,"10061,1,99999,9",,,,"MET074METAR LPGR 201500Z 35008KT 9999 FEW016 16/13 Q1006 RMK WIND RWY09 34010KT;",
"08515599999","2010-04-20T16:00:00","4","39.092169","-28.029847","26.21","GRACIOSA, PO","FM-15","LPGR ","V020","350,1,N,0041,1","22000,1,9,N","011265,1,N,1","+0170,1","+0120,1","99999,9","04,5,+00480,1,99,9",,,"04,99,1,99,9,99,9,99999,9,99,9,99,9",,"10061,1,99999,9",,,,"MET074METAR LPGR 201600Z 35008KT 9999 SCT016 17/12 Q1006 RMK WIND RWY09 33010KT;",
"08515599999","2010-04-20T17:00:00","4","39.092169","-28.029847","26.21","GRACIOSA, PO","FM-15","LPGR ","V020","350,1,N,0036,1","22000,1,9,N","011265,1,N,1","+0170,1","+0130,1","99999,9","02,5,+00540,1,99,9",,,"02,99,1,99,9,99,9,99999,9,99,9,99,9",,"10061,1,99999,9",,,,"MET074METAR LPGR 201700Z 35007KT 9999 FEW018 17/13 Q1006 RMK WIND RWY09 32009KT;",
"08515599999","2010-04-21T07:00:00","4","39.092169","-28.029847","26.21","GRACIOSA, PO","FM-15","LPGR ","V020","300,1,N,0031,1","22000,1,9,N","011265,1,N,1","+0140,1","+0130,1","99999,9","04,5,+00330,1,99,9",,,"04,99,1,99,9,99,9,99999,9,99,9,99,9",,"10108,1,99999,9",,,,"MET074METAR LPGR 210700Z 30006KT 9999 SCT011 14/13 Q1011 RMK WIND RWY09 29007KT;",
"08515599999","2010-04-21T08:00:00","4","39.092169","-28.029847","26.21","GRACIOSA, PO","FM-15","LPGR ","V020","320,1,N,0041,1","06300,1,C,N","011265,1,N,1","+0140,1","+0120,1","99999,9","02,5,+00360,1,99,9","07,5,+06300,1,99,9",,"07,99,1,99,9,99,9,99999,9,99,9,99,9",,"10108,1,99999,9",,,,"MET081METAR LPGR 210800Z 32008KT 9999 FEW012 BKN210 14/12 Q1011 RMK WIND RWY09 31008KT;",
"08515599999","2010-04-21T14:00:00","4","39.092169","-28.029847","26.21","GRACIOSA, PO","FM-15","LPGR ","V020","250,1,N,0067,1","02700,1,C,N","011265,1,N,1","+0170,1","+0130,1","99999,9","02,5,+00480,1,99,9","07,5,+02700,1,99,9",,"07,99,1,99,9,99,9,99999,9,99,9,99,9",,"10129,1,99999,9",,,,"MET081METAR LPGR 211400Z 25013KT 9999 FEW016 BKN090 17/13 Q1013 RMK WIND RWY09 24011KT;",
"08515599999","2010-04-21T15:00:00","4","39.092169","-28.029847","26.21","GRACIOSA, PO","FM-15","LPGR ","V020","250,1,N,0057,1","02700,1,C,N","011265,1,N,1","+0170,1","+0130,1","99999,9","02,5,+00540,1,99,9","04,5,+02700,1,99,9","08,5,+06000,1,99,9","08,99,1,99,9,99,9,99999,9,99,9,99,9",,"10129,1,99999,9",,,,"MET088METAR LPGR 211500Z 25011KT 9999 FEW018 SCT090 OVC200 17/13 Q1013 RMK WIND RWY09 23011KT;",
"08515599999","2010-04-21T16:00:00","4","39.092169","-28.029847","26.21","GRACIOSA, PO","FM-15","LPGR ","V020","270,1,N,0067,1","02700,1,C,N","011265,1,N,1","+0180,1","+0130,1","99999,9","02,5,+00540,1,99,9","04,5,+02700,1,99,9","07,5,+06300,1,99,9","07,99,1,99,9,99,9,99999,9,99,9,99,9",,"10129,1,99999,9",,,,"MET088METAR LPGR 211600Z 27013KT 9999 FEW018 SCT090 BKN210 18/13 Q1013 RMK WIND RWY09 27012KT;",
"08515599999","2010-04-21T17:00:00","4","39.092169","-28.029847","26.21","GRACIOSA, PO","FM-15","LPGR ","V020","240,1,N,0077,1","06300,1,C,N","011265,1,N,1","+0180,1","+0130,1","99999,9","02,5,+00540,1,99,9","07,5,+06300,1,99,9",,"07,99,1,99,9,99,9,99999,9,99,9,99,9",,"10129,1,99999,9",,,,"MET081METAR LPGR 211700Z 24015KT 9999 FEW018 BKN210 18/13 Q1013 RMK WIND RWY09 22014KT;",
"08515599999","2010-04-22T14:00:00","4","39.092169","-28.029847","26.21","GRACIOSA, PO","FM-15","LPGR ","V020","310,1,N,0072,1","99999,9,C,N","011265,1,N,1","+0180,1","+0160,1","99999,9","02,5,+00360,1,99,9","04,5,+06300,1,99,9",,"04,99,1,99,9,99,9,99999,9,99,9,99,9",,"10071,1,99999,9",,,,"MET081METAR LPGR 221400Z 31014KT 9999 FEW012 SCT210 18/16 Q1007 RMK WIND RWY09 28016KT;","P01 063003SCOCIG"
"08515599999","2010-04-22T16:00:00","4","39.092169","-28.029847","26.21","GRACIOSA, PO","FM-15","LPGR ","V020","280,1,N,0077,1","22000,1,9,N","011265,1,N,1","+0180,1","+0150,1","99999,9","02,5,+00360,1,99,9",,,"02,99,1,99,9,99,9,99999,9,99,9,99,9",,"10071,1,99999,9",,,,"MET074METAR LPGR 221600Z 28015KT 9999 FEW012 18/15 Q1007 RMK WIND RWY09 27014KT;",
"08515599999","2010-04-23T09:00:00","4","39.092169","-28.029847","26.21","GRACIOSA, PO","FM-15","LPGR ","V020","260,1,N,0072,1","22000,1,9,N","011265,1,N,1","+0150,1","+0140,1","99999,9","02,5,+00330,1,99,9",,,"02,99,1,99,9,99,9,99999,9,99,9,99,9",,"10081,1,99999,9",,,,"MET074METAR LPGR 230900Z 26014KT 9999 FEW011 15/14 Q1008 RMK WIND RWY09 26014KT;",
"08515599999","2010-04-23T15:00:00","4","39.092169","-28.029847","26.21","GRACIOSA, PO","FM-15","LPGR ","V020","250,1,N,0123,1","99999,9,C,N","011265,1,N,1","+0160,1","+0130,1","99999,9","04,5,+00450,1,99,9","04,5,+00900,1,99,9",,"04,99,1,99,9,99,9,99999,9,99,9,99,9",,"10081,1,99999,9",,,,"MET081METAR LPGR 231500Z 25024KT 9999 SCT015 SCT030 16/13 Q1008 RMK WIND RWY09 26020KT;","P01 009003SCOCIG"
"08515599999","2010-04-23T16:00:00","4","39.092169","-28.029847","26.21","GRACIOSA, PO","FM-15","LPGR ","V020","250,1,N,0123,1","99999,9,C,N","011265,1,N,1","+0170,1","+0130,1","99999,9","02,5,+00450,1,99,9","04,5,+00900,1,99,9",,"04,99,1,99,9,99,9,99999,9,99,9,99,9",,"10081,1,99999,9",,,,"MET081METAR LPGR 231600Z 25024KT 9999 FEW015 SCT030 17/13 Q1008 RMK WIND RWY09 25019KT;","P01 009003SCOCIG"
"08515599999","2010-04-23T17:00:00","4","39.092169","-28.029847","26.21","GRACIOSA, PO","FM-15","LPGR ","V020","260,1,N,0103,1","22000,1,9,N","011265,1,N,1","+0180,1","+0130,1","99999,9","02,5,+00450,1,99,9",,,"02,99,1,99,9,99,9,99999,9,99,9,99,9",,"10081,1,99999,9",,,,"MET074METAR LPGR 231700Z 26020KT 9999 FEW015 18/13 Q1008 RMK WIND RWY09 26019KT;",
"08515599999","2010-04-24T15:00:00","4","39.092169","-28.029847","26.21","GRACIOSA, PO","FM-15","LPGR ","V020","200,1,N,0057,1","06000,1,C,N","011265,1,N,1","+0180,1","+0110,1","99999,9","02,5,+00540,1,99,9","07,5,+06000,1,99,9",,"07,99,1,99,9,99,9,99999,9,99,9,99,9",,"10129,1,99999,9",,,,"MET081METAR LPGR 241500Z 20011KT 9999 FEW018 BKN200 18/11 Q1013 RMK WIND RWY09 21010KT;",
"08515599999","2010-04-24T16:00:00","4","39.092169","-28.029847","26.21","GRACIOSA, PO","FM-15","LPGR ","V020","220,1,N,0057,1","06000,1,C,N","011265,1,N,1","+0190,1","+0110,1","99999,9","02,5,+00540,1,99,9","07,5,+06000,1,99,9",,"07,99,1,99,9,99,9,99999,9,99,9,99,9",,"10129,1,99999,9",,,,"MET081METAR LPGR 241600Z 22011KT 9999 FEW018 BKN200 19/11 Q1013 RMK WIND RWY09 20010KT;",
"08515599999","2010-04-24T17:00:00","4","39.092169","-28.029847","26.21","GRACIOSA, PO","FM-15","LPGR ","V020","200,1,N,0062,1","06300,1,C,N","011265,1,N,1","+0190,1","+0110,1","99999,9","02,5,+00540,1,99,9","07,5,+06300,1,99,9",,"07,99,1,99,9,99,9,99999,9,99,9,99,9",,"10129,1,99999,9",,,,"MET081METAR LPGR 241700Z 20012KT 9999 FEW018 BKN210 19/11 Q1013 RMK WIND RWY09 19012KT;",
"08515599999","2010-04-25T14:00:00","4","39.092169","-28.029847","26.21","GRACIOSA, PO","FM-15","LPGR ","V020","200,1,N,0087,1","00900,1,C,N","011265,1,N,1","+0200,1","+0170,1","99999,9","02,5,+00330,1,99,9","07,5,+00900,1,99,9",,"07,99,1,99,9,99,9,99999,9,99,9,99,9",,"10102,1,99999,9",,,,"MET081METAR LPGR 251400Z 20017KT 9999 FEW011 BKN030 20/17 Q1010 RMK WIND RWY09 19017KT;",
"08515599999","2010-04-25T15:00:00","4","39.092169","-28.029847","26.21","GRACIOSA, PO","FM-15","LPGR ","V020","200,1,N,0103,1","00900,1,C,N","011265,1,N,1","+0190,1","+0160,1","99999,9","04,5,+00300,1,99,9","07,5,+00900,1,99,9",,"07,99,1,99,9,99,9,99999,9,99,9,99,9",,"10102,1,99999,9",,,"0154,1","MET087METAR LPGR 251500Z 20020G30KT 9999 SCT010 BKN030 19/16 Q1010 RMK WIND RWY09 20020G30KT;",
"08515599999","2010-04-25T16:00:00","4","39.092169","-28.029847","26.21","GRACIOSA, PO","FM-15","LPGR ","V020","200,1,N,0118,1","00900,1,C,N","011265,1,N,1","+0190,1","+0160,1","99999,9","04,5,+00300,1,99,9","07,5,+00900,1,99,9",,"07,99,1,99,9,99,9,99999,9,99,9,99,9",,"10102,1,99999,9",,,,"MET084METAR LPGR 251600Z 20023KT 9999 SCT010 BKN030 19/16 Q1010 RMK WIND RWY09 19019G29KT;",
"08515599999","2010-04-25T17:00:00","4","39.092169","-28.029847","26.21","GRACIOSA, PO","FM-15","LPGR ","V020","200,1,N,0108,1","00900,1,C,N","011265,1,N,1","+0190,1","+0160,1","99999,9","02,5,+00330,1,99,9","07,5,+00900,1,99,9",,"07,99,1,99,9,99,9,99999,9,99,9,99,9",,"10091,1,99999,9",,,,"MET084METAR LPGR 251700Z 20021KT 9999 FEW011 BKN030 19/16 Q1009 RMK WIND RWY09 19021G31KT;",
"08515599999","2010-04-26T08:00:00","4","39.092169","-28.029847","26.21","GRACIOSA, PO","FM-15","LPGR ","V020","230,1,N,0118,1","22000,1,9,N","011265,1,N,1","+0170,1","+0160,1","99999,9","04,5,+00420,1,99,9",,,"04,99,1,99,9,99,9,99999,9,99,9,99,9",,"10051,1,99999,9",,,,"MET077METAR LPGR 260800Z 23023KT 9999 SCT014 17/16 Q1005 RMK WIND RWY09 22022G35KT;",
"08515599999","2010-04-26T10:00:00","4","39.092169","-28.029847","26.21","GRACIOSA, PO","FM-15","LPGR ","V020","240,1,N,0129,1","22000,1,9,N","011265,1,N,1","+0180,1","+0150,1","99999,9","02,5,+00420,1,99,9",,,"02,99,1,99,9,99,9,99999,9,99,9,99,9",,"10051,1,99999,9",,,,"MET085METAR LPGR 261000Z 24025KT 9999 FEW014 18/15 Q1005 RMK WIND RWY09 22025G38KT 190V260;",
"08515599999","2010-04-26T11:00:00","4","39.092169","-28.029847","26.21","GRACIOSA, PO","FM-15","LPGR ","V020","230,1,N,0139,1","22000,1,9,N","011265,1,N,1","+0190,1","+0150,1","99999,9","02,5,+00450,1,99,9",,,"02,99,1,99,9,99,9,99999,9,99,9,99,9",,"10051,1,99999,9",,,"0190,1","MET088METAR LPGR 261100Z 23027G37KT 9999 FEW015 19/15 Q1005 RMK WIND RWY09 22027G43KT 190V250;",
"08515599999","2010-04-26T14:00:00","4","39.092169","-28.029847","26.21","GRACIOSA, PO","FM-15","LPGR ","V020","230,1,N,0093,1","06300,1,C,N","011265,1,N,1","+0200,1","+0160,1","99999,9","02,5,+00450,1,99,9","07,5,+06300,1,99,9",,"07,99,1,99,9,99,9,99999,9,99,9,99,9",,"10051,1,99999,9",,,"0144,1","MET095METAR LPGR 261400Z 23018G28KT 9999 FEW015 BKN210 20/16 Q1005 RMK WIND RWY09 22019G29KT 190V250;",
"08515599999","2010-04-26T15:00:00","4","39.092169","-28.029847","26.21","GRACIOSA, PO","FM-15","LPGR ","V020","230,1,N,0129,1","06300,1,C,N","011265,1,N,1","+0180,1","+0150,1","99999,9","02,5,+00480,1,99,9","07,5,+06300,1,99,9",,"07,99,1,99,9,99,9,99999,9,99,9,99,9",,"10051,1,99999,9",,,"0180,1","MET095METAR LPGR 261500Z 23025G35KT 9999 FEW016 BKN210 18/15 Q1005 RMK WIND RWY09 22026G37KT 190V250;",
"08515599999","2010-04-26T16:00:00","4","39.092169","-28.029847","26.21","GRACIOSA, PO","FM-15","LPGR ","V020","230,1,N,0134,1","22000,1,9,N","011265,1,N,1","+0190,1","+0150,1","99999,9","02,5,+00480,1,99,9",,,"02,99,1,99,9,99,9,99999,9,99,9,99,9",,"10061,1,99999,9",,,"0195,1","MET088METAR LPGR 261600Z 23026G38KT 9999 FEW016 19/15 Q1006 RMK WIND RWY09 22026G40KT 190V250;",
"08515599999","2010-04-27T14:00:00","4","39.092169","-28.029847","26.21","GRACIOSA, PO","FM-15","LPGR ","V020","310,1,N,0087,1","00900,1,C,N","011265,1,N,1","+0160,1","+0130,1","99999,9","04,5,+00390,1,99,9","07,5,+00900,1,99,9",,"07,99,1,99,9,99,9,99999,9,99,9,99,9",,"10159,1,99999,9",,,,"MET081METAR LPGR 271400Z 31017KT 9999 SCT013 BKN030 16/13 Q1016 RMK WIND RWY09 30015KT;",
"08515599999","2010-04-27T15:00:00","4","39.092169","-28.029847","26.21","GRACIOSA, PO","FM-15","LPGR ","V020","330,1,N,0093,1","99999,9,C,N","011265,1,N,1","+0170,1","+0140,1","99999,9","04,5,+00390,1,99,9","04,5,+00900,1,99,9",,"04,99,1,99,9,99,9,99999,9,99,9,99,9",,"10169,1,99999,9",,,,"MET081METAR LPGR 271500Z 33018KT 9999 SCT013 SCT030 17/14 Q1017 RMK WIND RWY09 31020KT;","P01 009003SCOCIG"
"08515599999","2010-04-27T16:00:00","4","39.092169","-28.029847","26.21","GRACIOSA, PO","FM-15","LPGR ","V020","320,1,N,0103,1","99999,9,C,N","011265,1,N,1","+0170,1","+0140,1","99999,9","04,5,+00390,1,99,9","04,5,+06300,1,99,9",,"04,99,1,99,9,99,9,99999,9,99,9,99,9",,"10180,1,99999,9",,,,"MET081METAR LPGR 271600Z 32020KT 9999 SCT013 SCT210 17/14 Q1018 RMK WIND RWY09 31021KT;","P01 063003SCOCIG"
"08515599999","2010-04-27T17:00:00","4","39.092169","-28.029847","26.21","GRACIOSA, PO","FM-15","LPGR ","V020","320,1,N,0093,1","99999,9,C,N","011265,1,N,1","+0170,1","+0130,1","99999,9","02,5,+00420,1,99,9","04,5,+01050,1,99,9",,"04,99,1,99,9,99,9,99999,9,99,9,99,9",,"10190,1,99999,9",,,,"MET081METAR LPGR 271700Z 32018KT 9999 FEW014 SCT035 17/13 Q1019 RMK WIND RWY09 31019KT;","P01 010503SCOCIG"
"08515599999","2010-04-28T07:00:00","4","39.092169","-28.029847","26.21","GRACIOSA, PO","FM-15","LPGR ","V020","310,1,N,0051,1","22000,1,9,N","011265,1,N,1","+0130,1","+0110,1","99999,9","02,5,+00420,1,99,9",,,"02,99,1,99,9,99,9,99999,9,99,9,99,9",,"10240,1,99999,9",,,,"MET074METAR LPGR 280700Z 31010KT 9999 FEW014 13/11 Q1024 RMK WIND RWY09 29006KT;",
"08515599999","2010-04-28T08:00:00","4","39.092169","-28.029847","26.21","GRACIOSA, PO","FM-15","LPGR ","V020","300,1,N,0031,1","22000,1,9,N","011265,1,N,1","+0140,1","+0110,1","99999,9","02,5,+00420,1,99,9",,,"02,99,1,99,9,99,9,99999,9,99,9,99,9",,"10251,1,99999,9",,,,"MET074METAR LPGR 280800Z 30006KT 9999 FEW014 14/11 Q1025 RMK WIND RWY09 29006KT;",
"08515599999","2010-04-28T09:00:00","4","39.092169","-28.029847","26.21","GRACIOSA, PO","FM-15","LPGR ","V020","290,1,N,0026,1","22000,1,9,N","011265,1,N,1","+0150,1","+0120,1","99999,9","02,5,+00420,1,99,9",,,"02,99,1,99,9,99,9,99999,9,99,9,99,9",,"10251,1,99999,9",,,,"MET074METAR LPGR 280900Z 29005KT 9999 FEW014 15/12 Q1025 RMK WIND RWY09 28008KT;",
"08515599999","2010-04-28T14:00:00","4","39.092169","-28.029847","26.21","GRACIOSA, PO","FM-15","LPGR ","V020","260,1,N,0077,1","01050,1,C,N","011265,1,N,1","+0170,1","+0110,1","99999,9","02,5,+00540,1,99,9","07,5,+01050,1,99,9",,"07,99,1,99,9,99,9,99999,9,99,9,99,9",,"10261,1,99999,9",,,,"MET081METAR LPGR 281400Z 26015KT 9999 FEW018 BKN035 17/11 Q1026 RMK WIND RWY09 26014KT;",
"08515599999","2010-04-28T15:00:00","4","39.092169","-28.029847","26.21","GRACIOSA, PO","FM-15","LPGR ","V020","270,1,N,0087,1","01050,1,C,N","011265,1,N,1","+0180,1","+0120,1","99999,9","02,5,+00540,1,99,9","07,5,+01050,1,99,9",,"07,99,1,99,9,99,9,99999,9,99,9,99,9",,"10261,1,99999,9",,,,"MET081METAR LPGR 281500Z 27017KT 9999 FEW018 BKN035 18/12 Q1026 RMK WIND RWY09 26016KT;",
"08515599999","2010-04-28T16:00:00","4","39.092169","-28.029847","26.21","GRACIOSA, PO","FM-15","LPGR ","V020","260,1,N,0093,1","01200,1,C,N","011265,1,N,1","+0170,1","+0130,1","99999,9","02,5,+00600,1,99,9","07,5,+01200,1,99,9",,"07,99,1,99,9,99,9,99999,9,99,9,99,9",,"10261,1,99999,9",,,,"MET081METAR LPGR 281600Z 26018KT 9999 FEW020 BKN040 17/13 Q1026 RMK WIND RWY09 26017KT;",
"08515599999","2010-04-28T17:00:00","4","39.092169","-28.029847","26.21","GRACIOSA, PO","FM-15","LPGR ","V020","260,1,N,0093,1","01200,1,C,N","011265,1,N,1","+0180,1","+0130,1","99999,9","02,5,+00600,1,99,9","07,5,+01200,1,99,9",,"07,99,1,99,9,99,9,99999,9,99,9,99,9",,"10251,1,99999,9",,,,"MET081METAR LPGR 281700Z 26018KT 9999 FEW020 BKN040 18/13 Q1025 RMK WIND RWY09 26017KT;",
"08515599999","2010-04-29T10:00:00","4","39.092169","-28.029847","26.21","GRACIOSA, PO","FM-15","LPGR ","V020","300,1,N,0067,1","99999,9,C,N","011265,1,N,1","+0170,1","+0160,1","99999,9","02,5,+00300,1,99,9","04,5,+00750,1,99,9",,"04,99,1,99,9,99,9,99999,9,99,9,99,9",,"10251,1,99999,9",,,,"MET081METAR LPGR 291000Z 30013KT 9999 FEW010 SCT025 17/16 Q1025 RMK WIND RWY09 28011KT;","P01 007503SCOCIG"
"08515599999","2010-04-29T14:00:00","4","39.092169","-28.029847","26.21","GRACIOSA, PO","FM-15","LPGR ","V020","300,1,N,0077,1","22000,1,9,N","011265,1,N,1","+0180,1","+0160,1","99999,9","02,5,+00360,1,99,9",,,"02,99,1,99,9,99,9,99999,9,99,9,99,9",,"10251,1,99999,9",,,,"MET074METAR LPGR 291400Z 30015KT 9999 FEW012 18/16 Q1025 RMK WIND RWY09 29015KT;",
"08515599999","2010-04-29T15:00:00","4","39.092169","-28.029847","26.21","GRACIOSA, PO","FM-15","LPGR ","V020","290,1,N,0067,1","06300,1,C,N","011265,1,N,1","+0180,1","+0160,1","99999,9","02,5,+00360,1,99,9","07,5,+06300,1,99,9",,"07,99,1,99,9,99,9,99999,9,99,9,99,9",,"10251,1,99999,9",,,,"MET081METAR LPGR 291500Z 29013KT 9999 FEW012 BKN210 18/16 Q1025 RMK WIND RWY09 28016KT;",
"08515599999","2010-04-29T16:00:00","4","39.092169","-28.029847","26.21","GRACIOSA, PO","FM-15","LPGR ","V020","290,1,N,0067,1","06300,1,C,N","011265,1,N,1","+0180,1","+0150,1","99999,9","02,5,+00360,1,99,9","07,5,+06300,1,99,9",,"07,99,1,99,9,99,9,99999,9,99,9,99,9",,"10251,1,99999,9",,,,"MET081METAR LPGR 291600Z 29013KT 9999 FEW012 BKN210 18/15 Q1025 RMK WIND RWY09 27016KT;",
"08515599999","2010-04-30T07:00:00","4","39.092169","-28.029847","26.21","GRACIOSA, PO","FM-15","LPGR ","V020","310,1,N,0021,1","99999,9,C,N","011265,1,N,1","+0150,1","+0130,1","99999,9","04,5,+00360,1,99,9","04,5,+00750,1,99,9",,"04,99,1,99,9,99,9,99999,9,99,9,99,9",,"10240,1,99999,9",,,,"MET081METAR LPGR 300700Z 31004KT 9999 SCT012 SCT025 15/13 Q1024 RMK WIND RWY09 30004KT;","P01 007503SCOCIG"
"08515599999","2010-04-30T08:00:00","4","39.092169","-28.029847","26.21","GRACIOSA, PO","FM-15","LPGR ","V020","310,1,N,0021,1","00750,1,C,N","011265,1,N,1","+0150,1","+0130,1","99999,9","04,5,+00360,1,99,9","07,5,+00750,1,99,9",,"07,99,1,99,9,99,9,99999,9,99,9,99,9",,"10251,1,99999,9",,,,"MET081METAR LPGR 300800Z 31004KT 9999 SCT012 BKN025 15/13 Q1025 RMK WIND RWY09 30006KT;",
"08515599999","2010-04-30T09:00:00","4","39.092169","-28.029847","26.21","GRACIOSA, PO","FM-15","LPGR ","V020","310,1,N,0021,1","00750,1,C,N","011265,1,N,1","+0160,1","+0130,1","99999,9","02,5,+00390,1,99,9","07,5,+00750,1,99,9",,"07,99,1,99,9,99,9,99999,9,99,9,99,9",,"10251,1,99999,9",,,,"MET081METAR LPGR 300900Z 31004KT 9999 FEW013 BKN025 16/13 Q1025 RMK WIND RWY09 30005KT;",
"08515599999","2010-04-30T15:00:00","4","39.092169","-28.029847","26.21","GRACIOSA, PO","FM-15","LPGR ","V020","300,1,N,0041,1","00900,1,C,N","011265,1,N,1","+0180,1","+0150,1","99999,9","02,5,+00360,1,99,9","07,5,+00900,1,99,9",,"07,99,1,99,9,99,9,99999,9,99,9,99,9",,"10261,1,99999,9",,,,"MET081METAR LPGR 301500Z 30008KT 9999 FEW012 BKN030 18/15 Q1026 RMK WIND RWY09 29008KT;",
"08515599999","2010-04-30T16:00:00","4","39.092169","-28.029847","26.21","GRACIOSA, PO","FM-15","LPGR ","V020","330,1,N,0036,1","02400,1,C,N","011265,1,N,1","+0170,1","+0150,1","99999,9","02,5,+00360,1,99,9","08,5,+02400,1,99,9",,"08,99,1,99,9,99,9,99999,9,99,9,99,9",,"10251,1,99999,9",,,,"MET081METAR LPGR 301600Z 33007KT 9999 FEW012 OVC080 17/15 Q1025 RMK WIND RWY09 31007KT;",
"08515599999","2010-05-01T15:00:00","4","39.092169","-28.029847","26.21","GRACIOSA, PO","FM-15","LPGR ","V020","090,1,N,0026,1","01050,1,C,N","011265,1,N,1","+0180,1","+0140,1","99999,9","02,5,+00420,1,99,9","07,5,+01050,1,99,9",,"07,99,1,99,9,99,9,99999,9,99,9,99,9",,"10230,1,99999,9",,,,"MET081METAR LPGR 011500Z 09005KT 9999 FEW014 BKN035 18/14 Q1023 RMK WIND RWY09 08004KT;",
"08515599999","2010-05-01T16:00:00","4","39.092169","-28.029847","26.21","GRACIOSA, PO","FM-15","LPGR ","V020","110,1,N,0026,1","01050,1,C,N","011265,1,N,1","+0180,1","+0140,1","99999,9","02,5,+00480,1,99,9","07,5,+01050,1,99,9",,"07,99,1,99,9,99,9,99999,9,99,9,99,9","999,M,+9999,9","10220,1,99999,9",,,,"MET081METAR LPGR 011600Z 11005KT 9999 FEW016 BKN035 18/14 Q1022 RMK WIND RWY09 10008KT;","Q01 +00082ATMX  "
"08515599999","2010-05-01T17:00:00","4","39.092169","-28.029847","26.21","GRACIOSA, PO","FM-15","LPGR ","V020","120,1,N,0046,1","01050,1,C,N","011265,1,N,1","+0180,1","+0150,1","99999,9","02,5,+00360,1,99,9","07,5,+01050,1,99,9",,"07,99,1,99,9,99,9,99999,9,99,9,99,9","999,M,+9999,9","10220,1,99999,9",,,,"MET081METAR LPGR 011700Z 12009KT 9999 FEW012 BKN035 18/15 Q1022 RMK WIND RWY09 10008KT;","Q01 +00082ATMX  "
"08515599999","2010-05-02T15:00:00","4","39.092169","-28.029847","26.21","GRACIOSA, PO","FM-15","LPGR ","V020","170,1,N,0036,1","99999,9,C,N","011265,1,N,1","+0220,1","+0140,1","99999,9","02,5,+00600,1,99,9","04,5,+01200,1,99,9",,"04,99,1,99,9,99,9,99999,9,99,9,99,9",,"10210,1,99999,9",,,,"MET081METAR LPGR 021500Z 17007KT 9999 FEW020 SCT040 22/14 Q1021 RMK WIND RWY09 20008KT;","P01 012003SCOCIG"
"08515599999","2010-05-02T16:00:00","4","39.092169","-28.029847","26.21","GRACIOSA, PO","FM-15","LPGR ","V020","130,1,N,0057,1","22000,1,9,N","011265,1,N,1","+0210,1","+0160,1","99999,9","02,5,+00540,1,99,9",,,"02,99,1,99,9,99,9,99999,9,99,9,99,9",,"10210,1,99999,9",,,,"MET074METAR LPGR 021600Z 13011KT 9999 FEW018 21/16 Q1021 RMK WIND RWY09 16011KT;",
"08515599999","2010-05-02T17:00:00","4","39.092169","-28.029847","26.21","GRACIOSA, PO","FM-15","LPGR ","V020","170,1,N,0057,1","22000,1,9,N","011265,1,N,1","+0200,1","+0150,1","99999,9","02,5,+00540,1,99,9",,,"02,99,1,99,9,99,9,99999,9,99,9,99,9",,"10210,1,99999,9",,,,"MET073METAR LPGR 021700Z 17011KT 9999 FEW018 20/15 Q1021 RMK WIND RWY0917014KT;",
"08515599999","2010-05-03T08:00:00","4","39.092169","-28.029847","26.21","GRACIOSA, PO","FM-15","LPGR ","V020","150,1,N,0103,1","00330,1,C,N","011265,1,N,1","+0170,1","+0140,1","99999,9","07,5,+00330,1,99,9","07,5,+00750,1,99,9",,"07,99,1,99,9,99,9,99999,9,99,9,99,9",,"10190,1,99999,9",,,,"MET081METAR LPGR 030800Z 15020KT 9999 BKN011 BKN025 17/14 Q1019 RMK WIND RWY09 16019KT;",
"08515599999","2010-05-03T09:00:00","4","39.092169","-28.029847","26.21","GRACIOSA, PO","FM-15","LPGR ","V020","150,1,N,0123,1","02400,1,C,N","011265,1,N,1","+0170,1","+0140,1","99999,9","04,5,+00360,1,99,9","08,5,+02400,1,99,9",,"08,99,1,99,9,99,9,99999,9,99,9,99,9",,"10180,1,99999,9",,,"0175,1","MET087METAR LPGR 030900Z 15024G34KT 9999 SCT012 OVC080 17/14 Q1018 RMK WIND RWY09 15019G33KT;",
"08515599999","2010-05-03T14:00:00","4","39.092169","-28.029847","26.21","GRACIOSA, PO","FM-15","LPGR ","V020","160,1,N,0113,1","06300,1,C,N","011265,1,N,1","+0180,1","+0140,1","99999,9","04,5,+00360,1,99,9","07,5,+06300,1,99,9",,"07,99,1,99,9,99,9,99999,9,99,9,99,9",,"10169,1,99999,9",,,"0175,1","MET087METAR LPGR 031400Z 16022G34KT 9999 SCT012 BKN210 18/14 Q1017 RMK WIND RWY09 15024G36KT;",
"08515599999","2010-05-03T15:00:00","4","39.092169","-28.029847","26.21","GRACIOSA, PO","FM-15","LPGR ","V020","170,1,N,0118,1","00900,1,C,N","011265,1,N,1","+0180,1","+0140,1","99999,9","02,5,+00360,1,99,9","07,5,+00900,1,99,9",,"07,99,1,99,9,99,9,99999,9,99,9,99,9",,"10169,1,99999,9",,,"0170,1","MET087METAR LPGR 031500Z 17023G33KT 9999 FEW012 BKN030 18/14 Q1017 RMK WIND RWY09 15024G36KT;",
"08515599999","2010-05-03T16:00:00","4","39.092169","-28.029847","26.21","GRACIOSA, PO","FM-15","LPGR ","V020","150,1,N,0108,1","00900,1,C,N","011265,1,N,1","+0180,1","+0140,1","99999,9","04,5,+00360,1,99,9","07,5,+00900,1,99,9",,"07,99,1,99,9,99,9,99999,9,99,9,99,9",,"10159,1,99999,9",,,"0180,1","MET087METAR LPGR 031600Z 15021G35KT 9999 SCT012 BKN030 18/14 Q1016 RMK WIND RWY09 15021G35KT;",
"08515599999","2010-05-03T17:00:00","4","39.092169","-28.029847","26.21","GRACIOSA, PO","FM-15","LPGR ","V020","180,1,N,0123,1","00900,1,C,N","011265,1,N,1","+0180,1","+0140,1","99999,9","04,5,+00360,1,99,9","07,5,+00900,1,99,9",,"07,99,1,99,9,99,9,99999,9,99,9,99,9",,"10149,1,99999,9",,,"0211,1","MET087METAR LPGR 031700Z 18024G41KT 9999 SCT012 BKN030 18/14 Q1015 RMK WIND RWY09 18026G40KT;",
"08515599999","2010-05-04T10:00:00","4","39.092169","-28.029847","26.21","GRACIOSA, PO","FM-15","LPGR ","V020","230,1,N,0021,1","02400,1,C,N","011265,1,N,1","+0150,1","+0140,1","99999,9","02,5,+00360,1,99,9","07,5,+02400,1,99,9",,"07,99,1,99,9,99,9,99999,9,99,9,99,9",,"10139,1,99999,9",,,,"MET081METAR LPGR 041000Z 23004KT 9999 FEW012 BKN080 15/14 Q1014 RMK WIND RWY09 22004KT;",
"08515599999","2010-05-05T14:00:00","4","39.092169","-28.029847","26.21","GRACIOSA, PO","FM-15","LPGR ","V020","190,1,N,0051,1","02400,1,C,N","009000,1,N,1","+0160,1","+0130,1","99999,9","02,5,+00420,1,99,9","08,5,+02400,1,99,9",,"08,99,1,99,9,99,9,99999,9,99,9,99,9",,"10119,1,99999,9","61,1",,,"MET085METAR LPGR 051400Z 19010KT 9000 -RA FEW014 OVC080 16/13 Q1012 RMK WIND RWY09 18011KT;",
"08515599999","2010-05-05T15:00:00","4","39.092169","-28.029847","26.21","GRACIOSA, PO","FM-15","LPGR ","V020","180,1,N,0046,1","02400,1,C,N","007000,1,N,1","+0150,1","+0130,1","99999,9","02,5,+00420,1,99,9","08,5,+02400,1,99,9",,"08,99,1,99,9,99,9,99999,9,99,9,99,9",,"10108,1,99999,9","61,1",,,"MET085METAR LPGR 051500Z 18009KT 7000 -RA FEW014 OVC080 15/13 Q1011 RMK WIND RWY09 18008KT;",
"08515599999","2010-05-05T16:00:00","4","39.092169","-28.029847","26.21","GRACIOSA, PO","FM-15","LPGR ","V020","170,1,N,0051,1","02400,1,C,N","007000,1,N,1","+0150,1","+0130,1","99999,9","02,5,+00360,1,99,9","08,5,+02400,1,99,9",,"08,99,1,99,9,99,9,99999,9,99,9,99,9",,"10102,1,99999,9","61,1",,,"MET085METAR LPGR 051600Z 17010KT 7000 -RA FEW012 OVC080 15/13 Q1010 RMK WIND RWY09 17014KT;",
"08515599999","2010-05-05T17:00:00","4","39.092169","-28.029847","26.21","GRACIOSA, PO","FM-15","LPGR ","V020","170,1,N,0057,1","02400,1,C,N","006000,1,N,1","+0150,1","+0140,1","99999,9","02,5,+00360,1,99,9","08,5,+02400,1,99,9",,"08,99,1,99,9,99,9,99999,9,99,9,99,9",,"10091,1,99999,9","61,1",,,"MET085METAR LPGR 051700Z 17011KT 6000 -RA FEW012 OVC080 15/14 Q1009 RMK WIND RWY09 17012KT;",
"08515599999","2010-05-06T15:00:00","4","39.092169","-28.029847","26.21","GRACIOSA, PO","FM-15","LPGR ","V020","260,1,N,0031,1","99999,9,C,N","011265,1,N,1","+0190,1","+0150,1","99999,9","02,5,+00480,1,99,9","04,5,+01050,1,99,9",,"04,99,1,99,9,99,9,99999,9,99,9,99,9",,"10081,1,99999,9",,,,"MET081METAR LPGR 061500Z 26006KT 9999 FEW016 SCT035 19/15 Q1008 RMK WIND RWY09 27008KT;","P01 010503SCOCIG"
"08515599999","2010-05-06T16:00:00","4","39.092169","-28.029847","26.21","GRACIOSA, PO","FM-15","LPGR ","V020","230,1,N,0036,1","06000,1,C,N","011265,1,N,1","+0180,1","+0140,1","99999,9","02,5,+00480,1,99,9","07,5,+06000,1,99,9",,"07,99,1,99,9,99,9,99999,9,99,9,99,9",,"10081,1,99999,9",,,,"MET081METAR LPGR 061600Z 23007KT 9999 FEW016 BKN200 18/14 Q1008 RMK WIND RWY09 20008KT;",
"08515599999","2010-05-07T07:00:00","4","39.092169","-28.029847","26.21","GRACIOSA, PO","FM-15","LPGR ","V020","250,1,N,0103,1","22000,1,9,N","011265,1,N,1","+0150,1","+0130,1","99999,9","04,5,+00450,1,99,9",,,"04,99,1,99,9,99,9,99999,9,99,9,99,9",,"10020,1,99999,9",,,,"MET074METAR LPGR 070700Z 25020KT 9999 SCT015 15/13 Q1002 RMK WIND RWY09 24020KT;",
"08515599999","2010-05-07T08:00:00","4","39.092169","-28.029847","26.21","GRACIOSA, PO","FM-15","LPGR ","V020","260,1,N,0113,1","22000,1,9,N","011265,1,N,1","+0150,1","+0120,1","99999,9","02,5,+00450,1,99,9",,,"02,99,1,99,9,99,9,99999,9,99,9,99,9",,"10020,1,99999,9",,,,"MET074METAR LPGR 070800Z 26022KT 9999 FEW015 15/12 Q1002 RMK WIND RWY09 25024KT;",
"08515599999","2010-05-07T16:00:00","4","39.092169","-28.029847","26.21","GRACIOSA, PO","FM-15","LPGR ","V020","300,1,N,0129,1","99999,9,C,N","011265,1,N,1","+0170,1","+0130,1","99999,9","02,5,+00360,1,99,9","04,5,+01050,1,99,9",,"04,99,1,99,9,99,9,99999,9,99,9,99,9",,"10031,1,99999,9",,,,"MET092METAR LPGR 071600Z 30025KT 260V330 9999 FEW012 SCT035 17/13 Q1003 RMK WIND RWY09 29024G34KT;","P01 010503SCOCIG"
"08515599999","2010-05-07T17:00:00","4","39.092169","-28.029847","26.21","GRACIOSA, PO","FM-15","LPGR ","V020","300,1,N,0118,1","00390,5,9,N","999999,9,N,1","+0170,1","+0130,1","99999,9","07,5,+00390,5,99,9",,,,,"10030,1,99999,9",,,"0170,1","MET083METAR LPGR 071700Z 30023G33KT 260V330 BKN013 17/13 Q1003 RMK WIND RWY09 29020G30KT;",
"08515599999","2010-05-08T15:00:00","4","39.092169","-28.029847","26.21","GRACIOSA, PO","FM-15","LPGR ","V020","010,1,N,0062,1","00900,1,C,N","011265,1,N,1","+0170,1","+0150,1","99999,9","04,5,+00480,1,99,9","07,5,+00900,1,99,9",,"07,99,1,99,9,99,9,99999,9,99,9,99,9",,"10071,1,99999,9",,,,"MET081METAR LPGR 081500Z 01012KT 9999 SCT016 BKN030 17/15 Q1007 RMK WIND RWY09 01012KT;",
"08515599999","2010-05-08T16:00:00","4","39.092169","-28.029847","26.21","GRACIOSA, PO","FM-15","LPGR ","V020","010,1,N,0057,1","00300,1,C,N","011265,1,N,1","+0170,1","+0160,1","99999,9","07,5,+00300,1,99,9",,,"07,99,1,99,9,99,9,99999,9,99,9,99,9",,"10071,1,99999,9",,,,"MET074METAR LPGR 081600Z 01011KT 9999 BKN010 17/16 Q1007 RMK WIND RWY09 01012KT;",
"08515599999","2010-05-12T14:00:00","4","39.092169","-28.029847","26.21","GRACIOSA, PO","FM-15","LPGR ","V020","040,1,N,0021,1","99999,9,C,N","011265,1,N,1","+0170,1","+0130,1","99999,9","04,5,+00540,1,99,9","04,5,+01050,1,99,9",,"04,99,1,99,9,99,9,99999,9,99,9,99,9",,"10291,1,99999,9",,,,"MET081METAR LPGR 121400Z 04004KT 9999 SCT018 SCT035 17/13 Q1029 RMK WIND RWY09 05007KT;","P01 010503SCOCIG"
"08515599999","2010-05-12T15:00:00","4","39.092169","-28.029847","26.21","GRACIOSA, PO","FM-15","LPGR ","V020","040,1,N,0041,1","01050,1,C,N","011265,1,N,1","+0170,1","+0110,1","99999,9","02,5,+00540,1,99,9","07,5,+01050,1,99,9",,"07,99,1,99,9,99,9,99999,9,99,9,99,9",,"10291,1,99999,9",,,,"MET081METAR LPGR 121500Z 04008KT 9999 FEW018 BKN035 17/11 Q1029 RMK WIND RWY09 05008KT;",
"08515599999","2010-05-13T15:00:00","4","39.092169","-28.029847","26.21","GRACIOSA, PO","FM-15","LPGR ","V020","050,1,N,0036,1","01200,1,C,N","011265,1,N,1","+0180,1","+0120,1","99999,9","02,5,+00540,1,99,9","07,5,+01200,1,99,9",,"07,99,1,99,9,99,9,99999,9,99,9,99,9",,"10329,1,99999,9",,,,"MET081METAR LPGR 131500Z 05007KT 9999 FEW018 BKN040 18/12 Q1033 RMK WIND RWY09 05010KT;",
"08515599999","2010-05-13T16:00:00","4","39.092169","-28.029847","26.21","GRACIOSA, PO","FM-15","LPGR ","V020","050,1,N,0093,1","22000,1,9,N","011265,1,N,1","+0180,1","+0110,1","99999,9","02,5,+00600,1,99,9",,,"02,99,1,99,9,99,9,99999,9,99,9,99,9",,"10329,1,99999,9",,,,"MET074METAR LPGR 131600Z 05018KT 9999 FEW020 18/11 Q1033 RMK WIND RWY09 05010KT;",
"08515599999","2010-05-13T17:00:00","4","39.092169","-28.029847","26.21","GRACIOSA, PO","FM-15","LPGR ","V020","050,1,N,0031,1","22000,1,9,N","011265,1,N,1","+0180,1","+0100,1","99999,9","02,5,+00600,1,99,9",,,"02,99,1,99,9,99,9,99999,9,99,9,99,9",,"10329,1,99999,9",,,,"MET074METAR LPGR 131700Z 05006KT 9999 FEW020 18/10 Q1033 RMK WIND RWY09 05009KT;",
"08515599999","2010-05-13T18:00:00","4","39.092169","-28.029847","26.21","GRACIOSA, PO","FM-15","LPGR ","V020","040,1,N,0036,1","22000,1,9,N","011265,1,N,1","+0170,1","+0100,1","99999,9","02,5,+00600,1,99,9",,,"02,99,1,99,9,99,9,99999,9,99,9,99,9",,"10339,1,99999,9",,,,"MET074METAR LPGR 131800Z 04007KT 9999 FEW020 17/10 Q1034 RMK WIND RWY09 05008KT;",
"08515599999","2010-05-14T07:00:00","4","39.092169","-28.029847","26.21","GRACIOSA, PO","FM-15","LPGR ","V020","050,1,N,0010,1","22000,1,9,N","011265,1,N,1","+0100,1","+0080,1","99999,9","02,5,+00480,1,99,9",,,"02,99,1,99,9,99,9,99999,9,99,9,99,9",,"10329,1,99999,9",,,,"MET074METAR LPGR 140700Z 05002KT 9999 FEW016 10/08 Q1033 RMK WIND RWY09 17002KT;",
"08515599999","2010-05-14T08:00:00","4","39.092169","-28.029847","26.21","GRACIOSA, PO","FM-15","LPGR ","V020","050,1,N,0010,1","22000,1,9,N","011265,1,N,1","+0110,1","+0100,1","99999,9","02,5,+00480,1,99,9",,,"02,99,1,99,9,99,9,99999,9,99,9,99,9",,"10339,1,99999,9",,,,"MET074METAR LPGR 140800Z 05002KT 9999 FEW016 11/10 Q1034 RMK WIND RWY09 17002KT;",
"08515599999","2010-05-14T09:00:00","4","39.092169","-28.029847","26.21","GRACIOSA, PO","FM-15","LPGR ","V020","999,9,C,0000,1","22000,1,9,N","011265,1,N,1","+0140,1","+0110,1","99999,9","02,5,+00480,1,99,9",,,"02,99,1,99,9,99,9,99999,9,99,9,99,9",,"10339,1,99999,9",,,,"MET074METAR LPGR 140900Z 00000KT 9999 FEW016 14/11 Q1034 RMK WIND RWY09 00000KT;",
"08515599999","2010-05-14T15:00:00","4","39.092169","-28.029847","26.21","GRACIOSA, PO","FM-15","LPGR ","V020","100,1,N,0026,1","01200,1,C,N","011265,1,N,1","+0170,1","+0110,1","99999,9","02,5,+00540,1,99,9","07,5,+01200,1,99,9",,"07,99,1,99,9,99,9,99999,9,99,9,99,9",,"10329,1,99999,9",,,,"MET081METAR LPGR 141500Z 10005KT 9999 FEW018 BKN040 17/11 Q1033 RMK WIND RWY09 09007KT;",
"08515599999","2010-05-14T16:00:00","4","39.092169","-28.029847","26.21","GRACIOSA, PO","FM-15","LPGR ","V020","120,1,N,0031,1","01200,1,C,N","011265,1,N,1","+0170,1","+0110,1","99999,9","04,5,+00540,1,99,9","07,5,+01200,1,99,9",,"07,99,1,99,9,99,9,99999,9,99,9,99,9","999,M,+9999,9","10329,1,99999,9",,,,"MET081METAR LPGR 141600Z 12006KT 9999 SCT018 BKN040 17/11 Q1033 RMK WIND RWY09 11006KT;","Q01 -00062ATMX  "
"08515599999","2010-05-14T17:00:00","4","39.092169","-28.029847","26.21","GRACIOSA, PO","FM-15","LPGR ","V020","130,1,N,0026,1","00540,1,C,N","011265,1,N,1","+0160,1","+0100,1","99999,9","07,5,+00540,1,99,9","07,5,+01200,1,99,9",,"07,99,1,99,9,99,9,99999,9,99,9,99,9",,"10329,1,99999,9",,,,"MET081METAR LPGR 141700Z 13005KT 9999 BKN018 BKN040 16/10 Q1033 RMK WIND RWY09 12006KT;",
"08515599999","2010-05-19T09:00:00","4","39.092169","-28.029847","26.21","GRACIOSA, PO","FM-15","LPGR ","V020","230,1,N,0093,1","99999,9,C,N","011265,1,N,1","+0190,1","+0160,1","99999,9","02,5,+00420,1,99,9","04,5,+02700,1,99,9",,"04,99,1,99,9,99,9,99999,9,99,9,99,9",,"10220,1,99999,9",,,,"MET081METAR LPGR 190900Z 23018KT 9999 FEW014 SCT090 19/16 Q1022 RMK WIND RWY09 23019KT;","P01 027003SCOCIG"
"08515599999","2010-05-19T15:00:00","4","39.092169","-28.029847","26.21","GRACIOSA, PO","FM-15","LPGR ","V020","260,1,N,0031,1","00300,1,C,N","006000,1,N,1","+0170,1","+0150,1","99999,9","07,5,+00300,1,99,9","08,5,+02100,1,99,9",,"08,99,1,99,9,99,9,99999,9,99,9,99,9",,"10230,1,99999,9","61,1",,,"MET085METAR LPGR 191500Z 26006KT 6000 -RA BKN010 OVC070 17/15 Q1023 RMK WIND RWY09 25006KT;",
"08515599999","2010-05-19T16:00:00","4","39.092169","-28.029847","26.21","GRACIOSA, PO","FM-15","LPGR ","V020","230,1,N,0057,1","02100,1,C,N","007000,1,N,1","+0170,1","+0160,1","99999,9","04,5,+00360,1,99,9","08,5,+02100,1,99,9",,"08,99,1,99,9,99,9,99999,9,99,9,99,9",,"10220,1,99999,9","61,1",,,"MET085METAR LPGR 191600Z 23011KT 7000 -RA SCT012 OVC070 17/16 Q1022 RMK WIND RWY09 22010KT;",
"08515599999","2010-05-19T17:00:00","4","39.092169","-28.029847","26.21","GRACIOSA, PO","FM-15","LPGR ","V020","230,1,N,0057,1","02400,1,C,N","009000,1,N,1","+0180,1","+0160,1","99999,9","02,5,+00420,1,99,9","08,5,+02400,1,99,9",,"08,99,1,99,9,99,9,99999,9,99,9,99,9",,"10220,1,99999,9","61,1",,,"MET085METAR LPGR 191700Z 23011KT 9000 -RA FEW014 OVC080 18/16 Q1022 RMK WIND RWY09 23010KT;",
"08515599999","2010-05-20T15:00:00","4","39.092169","-28.029847","26.21","GRACIOSA, PO","FM-15","LPGR ","V020","310,1,N,0051,1","99999,9,C,N","011265,1,N,1","+0190,1","+0150,1","99999,9","02,5,+00480,1,99,9","04,5,+01050,1,99,9",,"04,99,1,99,9,99,9,99999,9,99,9,99,9",,"10240,1,99999,9",,,,"MET081METAR LPGR 201500Z 31010KT 9999 FEW016 SCT035 19/15 Q1024 RMK WIND RWY09 28010KT;","P01 010503SCOCIG"
"08515599999","2010-05-20T16:00:00","4","39.092169","-28.029847","26.21","GRACIOSA, PO","FM-15","LPGR ","V020","300,1,N,0051,1","22000,1,9,N","011265,1,N,1","+0180,1","+0140,1","99999,9","02,5,+00480,1,99,9",,,"02,99,1,99,9,99,9,99999,9,99,9,99,9",,"10240,1,99999,9",,,,"MET074METAR LPGR 201600Z 30010KT 9999 FEW016 18/14 Q1024 RMK WIND RWY09 30010KT;",
"08515599999","2010-05-20T17:00:00","4","39.092169","-28.029847","26.21","GRACIOSA, PO","FM-15","LPGR ","V020","310,1,N,0051,1","22000,1,9,N","011265,1,N,1","+0180,1","+0130,1","99999,9","02,5,+00480,1,99,9",,,"02,99,1,99,9,99,9,99999,9,99,9,99,9",,"10240,1,99999,9",,,,"MET074METAR LPGR 201700Z 31010KT 9999 FEW016 18/13 Q1024 RMK WIND RWY09 31008KT;",
"08515599999","2010-05-20T18:00:00","4","39.092169","-28.029847","26.21","GRACIOSA, PO","FM-15","LPGR ","V020","320,1,N,0051,1","22000,1,9,N","011265,1,N,1","+0180,1","+0120,1","99999,9","02,5,+00480,1,99,9",,,"02,99,1,99,9,99,9,99999,9,99,9,99,9",,"10240,1,99999,9",,,,"MET074METAR LPGR 201800Z 32010KT 9999 FEW016 18/12 Q1024 RMK WIND RWY09 31012KT;",
"08515599999","2010-05-21T07:00:00","4","39.092169","-28.029847","26.21","GRACIOSA, PO","FM-15","LPGR ","V020","340,1,N,0021,1","22000,1,9,N","011265,1,N,1","+0150,1","+0100,1","99999,9","02,5,+00540,1,99,9",,,"02,99,1,99,9,99,9,99999,9,99,9,99,9",,"10251,1,99999,9",,,,"MET074METAR LPGR 210700Z 34004KT 9999 FEW018 15/10 Q1025 RMK WIND RWY09 32004KT;",
"08515599999","2010-05-21T08:00:00","4","39.092169","-28.029847","26.21","GRACIOSA, PO","FM-15","LPGR ","V020","360,1,N,0021,1","22000,1,9,N","011265,1,N,1","+0150,1","+0110,1","99999,9","02,5,+00540,1,99,9",,,"02,99,1,99,9,99,9,99999,9,99,9,99,9",,"10261,1,99999,9",,,,"MET074METAR LPGR 210800Z 36004KT 9999 FEW018 15/11 Q1026 RMK WIND RWY09 35006KT;",
"08515599999","2010-05-21T09:00:00","4","39.092169","-28.029847","26.21","GRACIOSA, PO","FM-15","LPGR ","V020","020,1,N,0026,1","22000,1,9,N","011265,1,N,1","+0160,1","+0130,1","99999,9","04,5,+00540,1,99,9",,,"04,99,1,99,9,99,9,99999,9,99,9,99,9",,"10261,1,99999,9",,,,"MET074METAR LPGR 210900Z 02005KT 9999 SCT018 16/13 Q1026 RMK WIND RWY09 01006KT;",
"08515599999","2010-05-21T15:00:00","4","39.092169","-28.029847","26.21","GRACIOSA, PO","FM-15","LPGR ","V020","020,1,N,0026,1","99999,9,C,N","011265,1,N,1","+0170,1","+0120,1","99999,9","02,5,+00540,1,99,9","04,5,+01050,1,99,9",,"04,99,1,99,9,99,9,99999,9,99,9,99,9",,"10271,1,99999,9",,,,"MET081METAR LPGR 211500Z 02005KT 9999 FEW018 SCT035 17/12 Q1027 RMK WIND RWY09 01006KT;","P01 010503SCOCIG"
"08515599999","2010-05-21T16:00:00","4","39.092169","-28.029847","26.21","GRACIOSA, PO","FM-15","LPGR ","V020","350,1,N,0021,1","22000,1,9,N","011265,1,N,1","+0170,1","+0120,1","99999,9","02,5,+00540,1,99,9",,,"02,99,1,99,9,99,9,99999,9,99,9,99,9",,"10271,1,99999,9",,,,"MET074METAR LPGR 211600Z 35004KT 9999 FEW018 17/12 Q1027 RMK WIND RWY09 33006KT;",
"08515599999","2010-05-21T17:00:00","4","39.092169","-28.029847","26.21","GRACIOSA, PO","FM-15","LPGR ","V020","340,1,N,0021,1","22000,1,9,N","011265,1,N,1","+0180,1","+0120,1","99999,9","02,5,+00540,1,99,9",,,"02,99,1,99,9,99,9,99999,9,99,9,99,9",,"10261,1,99999,9",,,,"MET074METAR LPGR 211700Z 34004KT 9999 FEW018 18/12 Q1026 RMK WIND RWY09 32008KT;",
"08515599999","2010-05-23T15:00:00","4","39.092169","-28.029847","26.21","GRACIOSA, PO","FM-15","LPGR ","V020","360,1,N,0036,1","22000,1,9,N","011265,1,N,1","+0180,1","+0110,1","99999,9","02,5,+00600,1,99,9",,,"02,99,1,99,9,99,9,99999,9,99,9,99,9",,"10251,1,99999,9",,,,"MET074METAR LPGR 231500Z 36007KT 9999 FEW020 18/11 Q1025 RMK WIND RWY09 32008KT;",
"08515599999","2010-05-23T16:00:00","4","39.092169","-28.029847","26.21","GRACIOSA, PO","FM-15","LPGR ","V020","340,1,N,0041,1","22000,1,9,N","011265,1,N,1","+0180,1","+0100,1","99999,9","02,5,+00600,1,99,9",,,"02,99,1,99,9,99,9,99999,9,99,9,99,9",,"10251,1,99999,9",,,,"MET074METAR LPGR 231600Z 34008KT 9999 FEW020 18/10 Q1025 RMK WIND RWY09 32009KT;",
"08515599999","2010-05-23T17:00:00","4","39.092169","-28.029847","26.21","GRACIOSA, PO","FM-15","LPGR ","V020","340,1,N,0041,1","22000,1,9,N","011265,1,N,1","+0180,1","+0110,1","99999,9","02,5,+00600,1,99,9",,,"02,99,1,99,9,99,9,99999,9,99,9,99,9",,"10251,1,99999,9",,,,"MET074METAR LPGR 231700Z 34008KT 9999 FEW020 18/11 Q1025 RMK WIND RWY09 32010KT;",
"08515599999","2010-05-24T07:00:00","4","39.092169","-28.029847","26.21","GRACIOSA, PO","FM-15","LPGR ","V020","320,1,N,0036,1","22000,1,9,N","011265,1,N,1","+0160,1","+0120,1","99999,9","02,5,+00540,1,99,9",,,"02,99,1,99,9,99,9,99999,9,99,9,99,9",,"10230,1,99999,9",,,,"MET074METAR LPGR 240700Z 32007KT 9999 FEW018 16/12 Q1023 RMK WIND RWY09 31010KT;",
"08515599999","2010-05-24T08:00:00","4","39.092169","-28.029847","26.21","GRACIOSA, PO","FM-15","LPGR ","V020","330,1,N,0031,1","22000,1,9,N","011265,1,N,1","+0170,1","+0130,1","99999,9","02,5,+00540,1,99,9",,,"02,99,1,99,9,99,9,99999,9,99,9,99,9",,"10230,1,99999,9",,,,"MET074METAR LPGR 240800Z 33006KT 9999 FEW018 17/13 Q1023 RMK WIND RWY09 32008KT;",
"08515599999","2010-05-24T15:00:00","4","39.092169","-28.029847","26.21","GRACIOSA, PO","FM-15","LPGR ","V020","020,1,N,0072,1","00360,1,C,N","011265,1,N,1","+0160,1","+0140,1","99999,9","07,5,+00360,1,99,9",,,"07,99,1,99,9,99,9,99999,9,99,9,99,9",,"10230,1,99999,9",,,,"MET074METAR LPGR 241500Z 02014KT 9999 BKN012 16/14 Q1023 RMK WIND RWY09 02016KT;",
"08515599999","2010-05-25T15:00:00","4","39.092169","-28.029847","26.21","GRACIOSA, PO","FM-15","LPGR ","V020","020,1,N,0015,1","01200,1,C,N","011265,1,N,1","+0170,1","+0070,1","99999,9","02,5,+00600,1,99,9","07,5,+01200,1,99,9",,"07,99,1,99,9,99,9,99999,9,99,9,99,9",,"10210,1,99999,9",,,,"MET081METAR LPGR 251500Z 02003KT 9999 FEW020 BKN040 17/07 Q1021 RMK WIND RWY09 02004KT;",
"08515599999","2010-05-25T16:00:00","4","39.092169","-28.029847","26.21","GRACIOSA, PO","FM-15","LPGR ","V020","010,1,N,0026,1","22000,1,9,N","011265,1,N,1","+0180,1","+0070,1","99999,9","02,5,+00600,1,99,9",,,"02,99,1,99,9,99,9,99999,9,99,9,99,9",,"10210,1,99999,9",,,,"MET074METAR LPGR 251600Z 01005KT 9999 FEW020 18/07 Q1021 RMK WIND RWY09 02006KT;",
"08515599999","2010-05-25T17:00:00","4","39.092169","-28.029847","26.21","GRACIOSA, PO","FM-15","LPGR ","V020","020,1,N,0021,1","22000,1,9,N","011265,1,N,1","+0180,1","+0090,1","99999,9","02,5,+00600,1,99,9",,,"02,99,1,99,9,99,9,99999,9,99,9,99,9",,"10200,1,99999,9",,,,"MET074METAR LPGR 251700Z 02004KT 9999 FEW020 18/09 Q1020 RMK WIND RWY09 35006KT;",
"08515599999","2010-05-26T07:00:00","4","39.092169","-28.029847","26.21","GRACIOSA, PO","FM-15","LPGR ","V020","180,1,N,0021,1","06000,1,C,N","011265,1,N,1","+0140,1","+0110,1","99999,9","02,5,+00540,1,99,9","07,5,+06000,1,99,9",,"07,99,1,99,9,99,9,99999,9,99,9,99,9",,"10149,1,99999,9",,,,"MET081METAR LPGR 260700Z 18004KT 9999 FEW018 BKN200 14/11 Q1015 RMK WIND RWY09 16006KT;",
"08515599999","2010-05-26T08:00:00","4","39.092169","-28.029847","26.21","GRACIOSA, PO","FM-15","LPGR ","V020","160,1,N,0021,1","06000,1,C,N","011265,1,N,1","+0150,1","+0120,1","99999,9","02,5,+00540,1,99,9","07,5,+06000,1,99,9",,"07,99,1,99,9,99,9,99999,9,99,9,99,9",,"10159,1,99999,9",,,,"MET081METAR LPGR 260800Z 16004KT 9999 FEW018 BKN200 15/12 Q1016 RMK WIND RWY09 16008KT;",
"08515599999","2010-05-26T09:00:00","4","39.092169","-28.029847","26.21","GRACIOSA, PO","FM-15","LPGR ","V020","200,1,N,0062,1","06000,1,C,N","011265,1,N,1","+0170,1","+0130,1","99999,9","02,5,+00540,1,99,9","07,5,+06000,1,99,9",,"07,99,1,99,9,99,9,99999,9,99,9,99,9",,"10159,1,99999,9",,,,"MET081METAR LPGR 260900Z 20012KT 9999 FEW018 BKN200 17/13 Q1016 RMK WIND RWY09 20011KT;",
"08515599999","2010-05-26T15:00:00","4","39.092169","-28.029847","26.21","GRACIOSA, PO","FM-15","LPGR ","V020","240,1,N,0077,1","06000,1,C,N","011265,1,N,1","+0210,1","+0130,1","99999,9","02,5,+00540,1,99,9","07,5,+06000,1,99,9",,"07,99,1,99,9,99,9,99999,9,99,9,99,9",,"10149,1,99999,9",,,,"MET081METAR LPGR 261500Z 24015KT 9999 FEW018 BKN200 21/13 Q1015 RMK WIND RWY09 22014KT;",
"08515599999","2010-05-26T16:00:00","4","39.092169","-28.029847","26.21","GRACIOSA, PO","FM-15","LPGR ","V020","300,1,N,0093,1","02700,1,C,N","011265,1,N,1","+0190,1","+0140,1","99999,9","02,5,+00540,1,99,9","04,5,+02700,1,99,9","07,5,+06000,1,99,9","07,99,1,99,9,99,9,99999,9,99,9,99,9",,"10149,1,99999,9",,,,"MET088METAR LPGR 261600Z 30018KT 9999 FEW018 SCT090 BKN200 19/14 Q1015 RMK WIND RWY09 23018KT;",
"08515599999","2010-05-27T15:00:00","4","39.092169","-28.029847","26.21","GRACIOSA, PO","FM-15","LPGR ","V020","250,1,N,0093,1","02700,1,C,N","011265,1,N,1","+0200,1","+0170,1","99999,9","04,5,+00420,1,99,9","08,5,+02700,1,99,9",,"08,99,1,99,9,99,9,99999,9,99,9,99,9",,"10159,1,99999,9",,,,"MET081METAR LPGR 271500Z 25018KT 9999 SCT014 OVC090 20/17 Q1016 RMK WIND RWY09 23018KT;",
"08515599999","2010-05-27T16:00:00","4","39.092169","-28.029847","26.21","GRACIOSA, PO","FM-15","LPGR ","V020","240,1,N,0093,1","02700,1,C,N","011265,1,N,1","+0200,1","+0170,1","99999,9","02,5,+00360,1,99,9","08,5,+02700,1,99,9",,"08,99,1,99,9,99,9,99999,9,99,9,99,9",,"10149,1,99999,9",,,,"MET081METAR LPGR 271600Z 24018KT 9999 FEW012 OVC090 20/17 Q1015 RMK WIND RWY09 23018KT;",
"08515599999","2010-05-27T17:00:00","4","39.092169","-28.029847","26.21","GRACIOSA, PO","FM-15","LPGR ","V020","230,1,N,0077,1","02700,1,C,N","011265,1,N,1","+0190,1","+0160,1","99999,9","02,5,+00390,1,99,9","08,5,+02700,1,99,9",,"08,99,1,99,9,99,9,99999,9,99,9,99,9",,"10149,1,99999,9",,,,"MET081METAR LPGR 271700Z 23015KT 9999 FEW013 OVC090 19/16 Q1015 RMK WIND RWY09 23016KT;",
"08515599999","2010-05-28T08:00:00","4","39.092169","-28.029847","26.21","GRACIOSA, PO","FM-15","LPGR ","V020","240,1,N,0077,1","99999,9,C,N","011265,1,N,1","+0180,1","+0160,1","99999,9","02,5,+00390,1,99,9","04,5,+02700,1,99,9",,"04,99,1,99,9,99,9,99999,9,99,9,99,9",,"10180,1,99999,9",,,,"MET081METAR LPGR 280800Z 24015KT 9999 FEW013 SCT090 18/16 Q1018 RMK WIND RWY09 23014KT;","P01 027003SCOCIG"
"08515599999","2010-05-28T09:00:00","4","39.092169","-28.029847","26.21","GRACIOSA, PO","FM-15","LPGR ","V020","240,1,N,0103,1","99999,9,C,N","011265,1,N,1","+0180,1","+0160,1","99999,9","02,5,+00390,1,99,9","04,5,+02700,1,99,9",,"04,99,1,99,9,99,9,99999,9,99,9,99,9",,"10169,1,99999,9",,,,"MET084METAR LPGR 280900Z 24020KT 9999 FEW013 SCT090 18/16 Q1017 RMK WIND RWY09 23019G29KT;","P01 027003SCOCIG"
"08515599999","2010-05-28T15:00:00","4","39.092169","-28.029847","26.21","GRACIOSA, PO","FM-15","LPGR ","V020","230,1,N,0113,1","06000,1,C,N","011265,1,N,1","+0210,1","+0170,1","99999,9","02,5,+00420,1,99,9","07,5,+06000,1,99,9",,"07,99,1,99,9,99,9,99999,9,99,9,99,9",,"10180,1,99999,9",,,"0165,1","MET084METAR LPGR 281500Z 23022G32KT 9999 FEW014 BKN200 21/17 Q1018 RMK WIND RWY09 23024KT;",
"08515599999","2010-05-28T17:00:00","4","39.092169","-28.029847","26.21","GRACIOSA, PO","FM-15","LPGR ","V020","230,1,N,0103,1","06000,1,C,N","011265,1,N,1","+0200,1","+0170,1","99999,9","02,5,+00360,1,99,9","07,5,+06000,1,99,9",,"07,99,1,99,9,99,9,99999,9,99,9,99,9",,"10180,1,99999,9",,,,"MET084METAR LPGR 281700Z 23020KT 9999 FEW012 BKN200 20/17 Q1018 RMK WIND RWY09 22020G30KT;",
"08515599999","2010-05-29T15:00:00","4","39.092169","-28.029847","26.21","GRACIOSA, PO","FM-15","LPGR ","V020","250,1,N,0093,1","02700,1,C,N","011265,1,N,1","+0210,1","+0150,1","99999,9","02,5,+00420,1,99,9","07,5,+02700,1,99,9",,"07,99,1,99,9,99,9,99999,9,99,9,99,9",,"10220,1,99999,9",,,,"MET081METAR LPGR 291500Z 25018KT 9999 FEW014 BKN090 21/15 Q1022 RMK WIND RWY09 24014KT;",
"08515599999","2010-05-29T16:00:00","4","39.092169","-28.029847","26.21","GRACIOSA, PO","FM-15","LPGR ","V020","230,1,N,0067,1","02700,1,C,N","011265,1,N,1","+0210,1","+0160,1","99999,9","02,5,+00420,1,99,9","07,5,+02700,1,99,9",,"07,99,1,99,9,99,9,99999,9,99,9,99,9",,"10220,1,99999,9",,,,"MET081METAR LPGR 291600Z 23013KT 9999 FEW014 BKN090 21/16 Q1022 RMK WIND RWY09 22014KT;",
"08515599999","2010-05-29T17:00:00","4","39.092169","-28.029847","26.21","GRACIOSA, PO","FM-15","LPGR ","V020","220,1,N,0118,1","02700,1,C,N","011265,1,N,1","+0220,1","+0170,1","99999,9","02,5,+00420,1,99,9","07,5,+02700,1,99,9",,"07,99,1,99,9,99,9,99999,9,99,9,99,9",,"10220,1,99999,9",,,,"MET084METAR LPGR 291700Z 22023KT 9999 FEW014 BKN090 22/17 Q1022 RMK WIND RWY09 22018G38KT;",
"08515599999","2010-05-30T15:00:00","4","39.092169","-28.029847","26.21","GRACIOSA, PO","FM-15","LPGR ","V020","210,1,N,0077,1","02400,1,C,N","009000,1,N,1","+0190,1","+0160,1","99999,9","02,5,+00420,1,99,9","08,5,+02400,1,99,9",,"08,99,1,99,9,99,9,99999,9,99,9,99,9",,"10210,1,99999,9","61,1",,,"MET085METAR LPGR 301500Z 21015KT 9000 -RA FEW014 OVC080 19/16 Q1021 RMK WIND RWY09 22014KT;",
"08515599999","2010-05-30T16:00:00","4","39.092169","-28.029847","26.21","GRACIOSA, PO","FM-15","LPGR ","V020","220,1,N,0077,1","02400,1,C,N","009000,1,N,1","+0190,1","+0160,1","99999,9","02,5,+00420,1,99,9","08,5,+02400,1,99,9",,"08,99,1,99,9,99,9,99999,9,99,9,99,9",,"10210,1,99999,9","61,1",,,"MET088METAR LPGR 301600Z 22015KT 9000 -RA FEW014 OVC080 19/16 Q1021 RMK WIND RWY09 22017G27KT;",
"08515599999","2010-05-30T17:00:00","4","39.092169","-28.029847","26.21","GRACIOSA, PO","FM-15","LPGR ","V020","220,1,N,0093,1","02400,1,C,N","009000,1,N,1","+0190,1","+0160,1","99999,9","02,5,+00420,1,99,9","08,5,+02400,1,99,9",,"08,99,1,99,9,99,9,99999,9,99,9,99,9",,"10210,1,99999,9","61,1",,,"MET088METAR LPGR 301700Z 22018KT 9000 -RA FEW014 OVC080 19/16 Q1021 RMK WIND RWY09 22020G30KT;",
"08515599999","2010-05-30T18:00:00","4","39.092169","-28.029847","26.21","GRACIOSA, PO","FM-15","LPGR ","V020","210,1,N,0103,1","02400,1,C,N","007000,1,N,1","+0190,1","+0170,1","99999,9","02,5,+00420,1,99,9","08,5,+02400,1,99,9",,"08,99,1,99,9,99,9,99999,9,99,9,99,9",,"10220,1,99999,9","61,1",,,"MET088METAR LPGR 301800Z 21020KT 7000 -RA FEW014 OVC080 19/17 Q1022 RMK WIND RWY09 22020G31KT;",
"08515599999","2010-05-31T08:00:00","4","39.092169","-28.029847","26.21","GRACIOSA, PO","FM-15","LPGR ","V020","220,1,N,0067,1","02100,1,C,N","007000,1,N,1","+0180,1","+0170,1","99999,9","02,5,+00360,1,99,9","08,5,+02100,1,99,9",,"08,99,1,99,9,99,9,99999,9,99,9,99,9",,"10200,1,99999,9","61,1",,,"MET085METAR LPGR 310800Z 22013KT 7000 -RA FEW012 OVC070 18/17 Q1020 RMK WIND RWY09 21013KT;",
"08515599999","2010-05-31T09:00:00","4","39.092169","-28.029847","26.21","GRACIOSA, PO","FM-15","LPGR ","V020","220,1,N,0057,1","02100,1,C,N","005000,1,N,1","+0180,1","+0180,1","99999,9","04,5,+00330,1,99,9","08,5,+02100,1,99,9",,"08,99,1,99,9,99,9,99999,9,99,9,99,9",,"10200,1,99999,9","61,1",,,"MET085METAR LPGR 310900Z 22011KT 5000 -RA SCT011 OVC070 18/18 Q1020 RMK WIND RWY09 22012KT;",
"08515599999","2010-05-31T15:00:00","4","39.092169","-28.029847","26.21","GRACIOSA, PO","FM-15","LPGR ","V020","220,1,N,0026,1","02100,1,C,N","006000,1,N,1","+0200,1","+0180,1","99999,9","02,5,+00330,1,99,9","08,5,+02100,1,99,9",,"08,99,1,99,9,99,9,99999,9,99,9,99,9",,"10200,1,99999,9","61,1",,,"MET085METAR LPGR 311500Z 22005KT 6000 -RA FEW011 OVC070 20/18 Q1020 RMK WIND RWY09 21006KT;",
"08515599999","2010-05-31T16:00:00","4","39.092169","-28.029847","26.21","GRACIOSA, PO","FM-15","LPGR ","V020","220,1,N,0036,1","02100,1,C,N","006000,1,N,1","+0190,1","+0180,1","99999,9","04,5,+00300,1,99,9","08,5,+02100,1,99,9",,"08,99,1,99,9,99,9,99999,9,99,9,99,9",,"10190,1,99999,9","61,1",,,"MET085METAR LPGR 311600Z 22007KT 6000 -RA SCT010 OVC070 19/18 Q1019 RMK WIND RWY09 20008KT;",
"08515599999","2010-06-01T15:00:00","4","39.092169","-28.029847","26.21","GRACIOSA, PO","FM-15","LPGR ","V020","260,1,N,0087,1","00300,1,C,N","011265,1,N,1","+0190,1","+0170,1","99999,9","07,5,+00300,1,99,9",,,"07,99,1,99,9,99,9,99999,9,99,9,99,9",,"10129,1,99999,9",,,,"MET074METAR LPGR 011500Z 26017KT 9999 BKN010 19/17 Q1013 RMK WIND RWY09 25016KT;",
"08515599999","2010-06-01T16:00:00","4","39.092169","-28.029847","26.21","GRACIOSA, PO","FM-15","LPGR ","V020","250,1,N,0082,1","22000,1,9,N","011265,1,N,1","+0190,1","+0170,1","99999,9","04,5,+00300,1,99,9",,,"04,99,1,99,9,99,9,99999,9,99,9,99,9",,"10129,1,99999,9",,,,"MET074METAR LPGR 011600Z 25016KT 9999 SCT010 19/17 Q1013 RMK WIND RWY09 25016KT;",
"08515599999","2010-06-01T17:00:00","4","39.092169","-28.029847","26.21","GRACIOSA, PO","FM-15","LPGR ","V020","260,1,N,0082,1","22000,1,9,N","011265,1,N,1","+0190,1","+0160,1","99999,9","02,5,+00390,1,99,9",,,"02,99,1,99,9,99,9,99999,9,99,9,99,9",,"10129,1,99999,9",,,,"MET074METAR LPGR 011700Z 26016KT 9999 FEW013 19/16 Q1013 RMK WIND RWY09 26017KT;",
"08515599999","2010-06-02T07:00:00","4","39.092169","-28.029847","26.21","GRACIOSA, PO","FM-15","LPGR ","V020","240,1,N,0067,1","00300,1,C,N","011265,1,N,1","+0180,1","+0170,1","99999,9","07,5,+00300,1,99,9",,,"07,99,1,99,9,99,9,99999,9,99,9,99,9",,"10102,1,99999,9",,,,"MET074METAR LPGR 020700Z 24013KT 9999 BKN010 18/17 Q1010 RMK WIND RWY09 23016KT;",
"08515599999","2010-06-02T09:00:00","4","39.092169","-28.029847","26.21","GRACIOSA, PO","FM-15","LPGR ","V020","230,1,N,0072,1","99999,9,C,N","011265,1,N,1","+0180,1","+0160,1","99999,9","02,5,+00390,1,99,9","04,5,+02700,1,99,9",,"04,99,1,99,9,99,9,99999,9,99,9,99,9",,"10102,1,99999,9",,,,"MET081METAR LPGR 020900Z 23014KT 9999 FEW013 SCT090 18/16 Q1010 RMK WIND RWY09 22014KT;","P01 027003SCOCIG"
"08515599999","2010-06-02T16:00:00","4","39.092169","-28.029847","26.21","GRACIOSA, PO","FM-15","LPGR ","V020","260,1,N,0113,1","22000,1,9,N","011265,1,N,1","+0200,1","+0140,1","99999,9","02,5,+00540,1,99,9",,,"02,99,1,99,9,99,9,99999,9,99,9,99,9",,"10102,1,99999,9",,,,"MET074METAR LPGR 021600Z 26022KT 9999 FEW018 20/14 Q1010 RMK WIND RWY09 25020KT;",
"08515599999","2010-06-03T15:00:00","4","39.092169","-28.029847","26.21","GRACIOSA, PO","FM-15","LPGR ","V020","270,1,N,0077,1","99999,9,C,N","011265,1,N,1","+0200,1","+0140,1","99999,9","02,5,+00600,1,99,9","04,5,+01200,1,99,9",,"04,99,1,99,9,99,9,99999,9,99,9,99,9",,"10190,1,99999,9",,,,"MET081METAR LPGR 031500Z 27015KT 9999 FEW020 SCT040 20/14 Q1019 RMK WIND RWY09 27018KT;","P01 012003SCOCIG"
"08515599999","2010-06-03T16:00:00","4","39.092169","-28.029847","26.21","GRACIOSA, PO","FM-15","LPGR ","V020","310,1,N,0057,1","22000,1,9,N","011265,1,N,1","+0190,1","+0140,1","99999,9","02,5,+00600,1,99,9",,,"02,99,1,99,9,99,9,99999,9,99,9,99,9",,"10190,1,99999,9",,,,"MET074METAR LPGR 031600Z 31011KT 9999 FEW020 19/14 Q1019 RMK WIND RWY09 29010KT;",
"08515599999","2010-06-04T15:00:00","4","39.092169","-28.029847","26.21","GRACIOSA, PO","FM-15","LPGR ","V020","240,1,N,0093,1","99999,9,C,N","011265,1,N,1","+0200,1","+0150,1","99999,9","02,5,+00480,1,99,9","04,5,+01050,1,99,9",,"04,99,1,99,9,99,9,99999,9,99,9,99,9",,"10200,1,99999,9",,,,"MET081METAR LPGR 041500Z 24018KT 9999 FEW016 SCT035 20/15 Q1020 RMK WIND RWY09 23016KT;","P01 010503SCOCIG"
"08515599999","2010-06-04T16:00:00","4","39.092169","-28.029847","26.21","GRACIOSA, PO","FM-15","LPGR ","V020","230,1,N,0103,1","22000,1,9,N","011265,1,N,1","+0200,1","+0150,1","99999,9","02,5,+00540,1,99,9",,,"02,99,1,99,9,99,9,99999,9,99,9,99,9",,"10200,1,99999,9",,,,"MET074METAR LPGR 041600Z 23020KT 9999 FEW018 20/15 Q1020 RMK WIND RWY09 23018KT;",
"08515599999","2010-06-04T17:00:00","4","39.092169","-28.029847","26.21","GRACIOSA, PO","FM-15","LPGR ","V020","220,1,N,0072,1","01050,1,C,N","011265,1,N,1","+0190,1","+0140,1","99999,9","02,5,+00540,1,99,9","07,5,+01050,1,99,9",,"07,99,1,99,9,99,9,99999,9,99,9,99,9",,"10200,1,99999,9",,,,"MET081METAR LPGR 041700Z 22014KT 9999 FEW018 BKN035 19/14 Q1020 RMK WIND RWY09 22010KT;",
"08515599999","2010-06-05T14:00:00","4","39.092169","-28.029847","26.21","GRACIOSA, PO","FM-15","LPGR ","V020","260,1,N,0057,1","00900,1,C,N","011265,1,N,1","+0190,1","+0160,1","99999,9","02,5,+00360,1,99,9","07,5,+00900,1,99,9",,"07,99,1,99,9,99,9,99999,9,99,9,99,9",,"10251,1,99999,9",,,,"MET081METAR LPGR 051400Z 26011KT 9999 FEW012 BKN030 19/16 Q1025 RMK WIND RWY09 26010KT;",
"08515599999","2010-06-05T15:00:00","4","39.092169","-28.029847","26.21","GRACIOSA, PO","FM-15","LPGR ","V020","270,1,N,0057,1","00900,1,C,N","011265,1,N,1","+0190,1","+0150,1","99999,9","02,5,+00390,1,99,9","07,5,+00900,1,99,9",,"07,99,1,99,9,99,9,99999,9,99,9,99,9",,"10251,1,99999,9",,,,"MET081METAR LPGR 051500Z 27011KT 9999 FEW013 BKN030 19/15 Q1025 RMK WIND RWY09 26010KT;",
"08515599999","2010-06-05T16:00:00","4","39.092169","-28.029847","26.21","GRACIOSA, PO","FM-15","LPGR ","V020","320,1,N,0046,1","01050,1,C,N","011265,1,N,1","+0190,1","+0150,1","99999,9","02,5,+00390,1,99,9","07,5,+01050,1,99,9",,"07,99,1,99,9,99,9,99999,9,99,9,99,9",,"10251,1,99999,9",,,,"MET081METAR LPGR 051600Z 32009KT 9999 FEW013 BKN035 19/15 Q1025 RMK WIND RWY09 29008KT;",
"08515599999","2010-06-06T15:00:00","4","39.092169","-28.029847","26.21","GRACIOSA, PO","FM-15","LPGR ","V020","320,1,N,0067,1","99999,9,C,N","011265,1,N,1","+0210,1","+0150,1","99999,9","02,5,+00600,1,99,9","04,5,+01200,1,99,9",,"04,99,1,99,9,99,9,99999,9,99,9,99,9",,"10261,1,99999,9",,,,"MET081METAR LPGR 061500Z 32013KT 9999 FEW020 SCT040 21/15 Q1026 RMK WIND RWY09 27016KT;","P01 012003SCOCIG"
"08515599999","2010-06-06T16:00:00","4","39.092169","-28.029847","26.21","GRACIOSA, PO","FM-15","LPGR ","V020","270,1,N,0077,1","22000,1,9,N","011265,1,N,1","+0200,1","+0150,1","99999,9","02,5,+00600,1,99,9",,,"02,99,1,99,9,99,9,99999,9,99,9,99,9",,"10261,1,99999,9",,,,"MET074METAR LPGR 061600Z 27015KT 9999 FEW020 20/15 Q1026 RMK WIND RWY09 27016KT;",
"08515599999","2010-06-07T07:00:00","4","39.092169","-28.029847","26.21","GRACIOSA, PO","FM-15","LPGR ","V020","320,1,N,0051,1","22000,1,9,N","011265,1,N,1","+0160,1","+0130,1","99999,9","02,5,+00540,1,99,9",,,"02,99,1,99,9,99,9,99999,9,99,9,99,9",,"10271,1,99999,9",,,,"MET074METAR LPGR 070700Z 32010KT 9999 FEW018 16/13 Q1027 RMK WIND RWY09 31010KT;",
"08515599999","2010-06-07T08:00:00","4","39.092169","-28.029847","26.21","GRACIOSA, PO","FM-15","LPGR ","V020","330,1,N,0046,1","22000,1,9,N","011265,1,N,1","+0170,1","+0130,1","99999,9","04,5,+00540,1,99,9",,,"04,99,1,99,9,99,9,99999,9,99,9,99,9",,"10271,1,99999,9",,,,"MET074METAR LPGR 070800Z 33009KT 9999 SCT018 17/13 Q1027 RMK WIND RWY09 31010KT;",
"08515599999","2010-06-07T09:00:00","4","39.092169","-28.029847","26.21","GRACIOSA, PO","FM-15","LPGR ","V020","340,1,N,0051,1","99999,9,C,N","011265,1,N,1","+0170,1","+0140,1","99999,9","02,5,+00480,1,99,9","04,5,+01050,1,99,9",,"04,99,1,99,9,99,9,99999,9,99,9,99,9",,"10271,1,99999,9",,,,"MET081METAR LPGR 070900Z 34010KT 9999 FEW016 SCT035 17/14 Q1027 RMK WIND RWY09 32011KT;","P01 010503SCOCIG"
"08515599999","2010-06-07T10:00:00","4","39.092169","-28.029847","26.21","GRACIOSA, PO","FM-15","LPGR ","V020","330,1,N,0046,1","22000,1,9,N","011265,1,N,1","+0180,1","+0140,1","99999,9","04,5,+00480,1,99,9",,,"04,99,1,99,9,99,9,99999,9,99,9,99,9",,"10281,1,99999,9",,,,"MET074METAR LPGR 071000Z 33009KT 9999 SCT016 18/14 Q1028 RMK WIND RWY09 30010KT;",
"08515599999","2010-06-07T15:00:00","4","39.092169","-28.029847","26.21","GRACIOSA, PO","FM-15","LPGR ","V020","320,1,N,0041,1","00900,1,C,N","011265,1,N,1","+0190,1","+0160,1","99999,9","04,5,+00360,1,99,9","07,5,+00900,1,99,9",,"07,99,1,99,9,99,9,99999,9,99,9,99,9",,"10271,1,99999,9",,,,"MET081METAR LPGR 071500Z 32008KT 9999 SCT012 BKN030 19/16 Q1027 RMK WIND RWY09 31009KT;",
"08515599999","2010-06-07T16:00:00","4","39.092169","-28.029847","26.21","GRACIOSA, PO","FM-15","LPGR ","V020","310,1,N,0051,1","00300,1,C,N","004000,1,N,1","+0190,1","+0170,1","99999,9","02,5,+00090,1,99,9","07,5,+00300,1,99,9",,"07,99,1,99,9,99,9,99999,9,99,9,99,9",,"10271,1,99999,9","80,1",,,"MET087METAR LPGR 071600Z 31010KT 4000 -SHRA FEW003 BKN010 19/17 Q1027 RMK WIND RWY09 31010KT;",
"08515599999","2010-06-07T17:00:00","4","39.092169","-28.029847","26.21","GRACIOSA, PO","FM-15","LPGR ","V020","320,1,N,0057,1","01050,1,C,N","011265,1,N,1","+0180,1","+0160,1","99999,9","04,5,+00390,1,99,9","07,5,+01050,1,99,9",,"07,99,1,99,9,99,9,99999,9,99,9,99,9",,"10271,1,99999,9",,,,"MET081METAR LPGR 071700Z 32011KT 9999 SCT013 BKN035 18/16 Q1027 RMK WIND RWY09 31012KT;",
"08515599999","2010-06-08T14:00:00","4","39.092169","-28.029847","26.21","GRACIOSA, PO","FM-15","LPGR ","V020","320,1,N,0072,1","00090,1,C,N","003500,1,N,1","+0180,1","+0170,1","99999,9","02,5,+00060,1,99,9","07,5,+00090,1,99,9",,"07,99,1,99,9,99,9,99999,9,99,9,99,9",,"10251,1,99999,9","10,1",,,"MET084METAR LPGR 081400Z 32014KT 3500 BR FEW002 BKN003 18/17 Q1025 RMK WIND RWY09 31013KT;",
"08515599999","2010-06-08T15:00:00","4","39.092169","-28.029847","26.21","GRACIOSA, PO","FM-15","LPGR ","V020","320,1,N,0072,1","00150,1,C,N","006000,1,N,1","+0190,1","+0180,1","99999,9","04,5,+00090,1,99,9","07,5,+00150,1,99,9",,"07,99,1,99,9,99,9,99999,9,99,9,99,9",,"10240,1,99999,9",,,,"MET081METAR LPGR 081500Z 32014KT 6000 SCT003 BKN005 19/18 Q1024 RMK WIND RWY09 31015KT;",
"08515599999","2010-06-08T16:00:00","4","39.092169","-28.029847","26.21","GRACIOSA, PO","FM-15","LPGR ","V020","320,1,N,0067,1","00300,1,C,N","006000,1,N,1","+0190,1","+0180,1","99999,9","04,5,+00150,1,99,9","07,5,+00300,1,99,9",,"07,99,1,99,9,99,9,99999,9,99,9,99,9",,"10240,1,99999,9",,,,"MET081METAR LPGR 081600Z 32013KT 6000 SCT005 BKN010 19/18 Q1024 RMK WIND RWY09 32017KT;",
"08515599999","2010-06-08T17:00:00","4","39.092169","-28.029847","26.21","GRACIOSA, PO","FM-15","LPGR ","V020","340,1,N,0057,1","00150,1,C,N","004500,1,N,1","+0190,1","+0170,1","99999,9","02,5,+00090,1,99,9","04,5,+00150,1,99,9","07,5,+00300,1,99,9","07,99,1,99,9,99,9,99999,9,99,9,99,9",,"10240,1,99999,9","10,1",,,"MET091METAR LPGR 081700Z 34011KT 4500 BR FEW003 SCT005 BKN010 19/17 Q1024 RMK WIND RWY09 32013KT;",
"08515599999","2010-06-08T18:00:00","4","39.092169","-28.029847","26.21","GRACIOSA, PO","FM-15","LPGR ","V020","330,1,N,0062,1","00150,1,C,N","004000,1,N,1","+0190,1","+0170,1","99999,9","02,5,+00090,1,99,9","04,5,+00150,1,99,9","07,5,+00300,1,99,9","07,99,1,99,9,99,9,99999,9,99,9,99,9",,"10240,1,99999,9","10,1",,,"MET091METAR LPGR 081800Z 33012KT 4000 BR FEW003 SCT005 BKN010 19/17 Q1024 RMK WIND RWY09 32014KT;",
"08515599999","2010-06-09T07:00:00","4","39.092169","-28.029847","26.21","GRACIOSA, PO","FM-15","LPGR ","V020","010,1,N,0087,1","00150,1,C,N","008000,1,N,1","+0170,1","+0160,1","99999,9","02,5,+00060,1,99,9","07,5,+00150,1,99,9",,"07,99,1,99,9,99,9,99999,9,99,9,99,9",,"10240,1,99999,9",,,,"MET081METAR LPGR 090700Z 01017KT 8000 FEW002 BKN005 17/16 Q1024 RMK WIND RWY09 35015KT;",
"08515599999","2010-06-09T08:00:00","4","39.092169","-28.029847","26.21","GRACIOSA, PO","FM-15","LPGR ","V020","360,1,N,0077,1","00150,1,C,N","004800,1,N,1","+0170,1","+0160,1","99999,9","02,5,+00060,1,99,9","07,5,+00150,1,99,9",,"07,99,1,99,9,99,9,99999,9,99,9,99,9",,"10240,1,99999,9","10,1","51,1",,"MET088METAR LPGR 090800Z 36015KT 4800 -DZ BR FEW002 BKN005 17/16 Q1024 RMK WIND RWY09 34015KT;",
"08515599999","2010-06-09T09:00:00","4","39.092169","-28.029847","26.21","GRACIOSA, PO","FM-15","LPGR ","V020","340,1,N,0057,1","00300,1,C,N","008000,1,N,1","+0170,1","+0160,1","99999,9","04,5,+00150,1,99,9","07,5,+00300,1,99,9",,"07,99,1,99,9,99,9,99999,9,99,9,99,9",,"10240,1,99999,9",,,,"MET081METAR LPGR 090900Z 34011KT 8000 SCT005 BKN010 17/16 Q1024 RMK WIND RWY09 33007KT;",
"08515599999","2010-06-09T10:00:00","4","39.092169","-28.029847","26.21","GRACIOSA, PO","FM-15","LPGR ","V020","360,1,N,0077,1","00300,1,C,N","006000,1,N,1","+0180,1","+0160,1","99999,9","04,5,+00180,1,99,9","07,5,+00300,1,99,9",,"07,99,1,99,9,99,9,99999,9,99,9,99,9",,"10251,1,99999,9",,,,"MET081METAR LPGR 091000Z 36015KT 6000 SCT006 BKN010 18/16 Q1025 RMK WIND RWY09 35014KT;",
"08515599999","2010-06-09T11:00:00","4","39.092169","-28.029847","26.21","GRACIOSA, PO","FM-15","LPGR ","V020","360,1,N,0077,1","00300,1,C,N","009000,1,N,1","+0180,1","+0160,1","99999,9","02,5,+00180,1,99,9","07,5,+00300,1,99,9",,"07,99,1,99,9,99,9,99999,9,99,9,99,9",,"10251,1,99999,9",,,,"MET081METAR LPGR 091100Z 36015KT 9000 FEW006 BKN010 18/16 Q1025 RMK WIND RWY09 35014KT;",
"08515599999","2010-06-09T12:00:00","4","39.092169","-28.029847","26.21","GRACIOSA, PO","FM-15","LPGR ","V020","010,1,N,0072,1","00300,1,C,N","011265,1,N,1","+0190,1","+0160,1","99999,9","07,5,+00300,1,99,9",,,"07,99,1,99,9,99,9,99999,9,99,9,99,9",,"10251,1,99999,9",,,,"MET074METAR LPGR 091200Z 01014KT 9999 BKN010 19/16 Q1025 RMK WIND RWY09 35013KT;",
"08515599999","2010-06-09T14:00:00","4","39.092169","-28.029847","26.21","GRACIOSA, PO","FM-15","LPGR ","V020","360,1,N,0072,1","00300,1,C,N","009000,1,N,1","+0190,1","+0170,1","99999,9","04,5,+00150,1,99,9","07,5,+00300,1,99,9",,"07,99,1,99,9,99,9,99999,9,99,9,99,9",,"10240,1,99999,9",,,,"MET081METAR LPGR 091400Z 36014KT 9000 SCT005 BKN010 19/17 Q1024 RMK WIND RWY09 35013KT;",
"08515599999","2010-06-09T15:00:00","4","39.092169","-28.029847","26.21","GRACIOSA, PO","FM-15","LPGR ","V020","010,1,N,0077,1","00300,1,C,N","006000,1,N,1","+0180,1","+0170,1","99999,9","04,5,+00120,1,99,9","07,5,+00300,1,99,9",,"07,99,1,99,9,99,9,99999,9,99,9,99,9",,"10240,1,99999,9",,,,"MET081METAR LPGR 091500Z 01015KT 6000 SCT004 BKN010 18/17 Q1024 RMK WIND RWY09 35013KT;",
"08515599999","2010-06-09T16:00:00","4","39.092169","-28.029847","26.21","GRACIOSA, PO","FM-15","LPGR ","V020","020,1,N,0062,1","00120,1,C,N","003000,1,N,1","+0190,1","+0170,1","99999,9","02,5,+00060,1,99,9","04,5,+00120,1,99,9","07,5,+00300,1,99,9","07,99,1,99,9,99,9,99999,9,99,9,99,9",,"10240,1,99999,9","10,1","51,1",,"MET095METAR LPGR 091600Z 02012KT 3000 -DZ BR FEW002 SCT004 BKN010 19/17 Q1024 RMK WIND RWY09 01012KT;",
"08515599999","2010-06-09T17:00:00","4","39.092169","-28.029847","26.21","GRACIOSA, PO","FM-15","LPGR ","V020","020,1,N,0057,1","22000,1,9,N","011265,1,N,1","+0190,1","+0170,1","99999,9","04,5,+00330,1,99,9",,,"04,99,1,99,9,99,9,99999,9,99,9,99,9",,"10240,1,99999,9",,,,"MET074METAR LPGR 091700Z 02011KT 9999 SCT011 19/17 Q1024 RMK WIND RWY09 01010KT;",
"08515599999","2010-06-09T18:00:00","4","39.092169","-28.029847","26.21","GRACIOSA, PO","FM-15","LPGR ","V020","020,1,N,0057,1","00330,1,C,N","011265,1,N,1","+0190,1","+0170,1","99999,9","07,5,+00330,1,99,9",,,"07,99,1,99,9,99,9,99999,9,99,9,99,9",,"10230,1,99999,9",,,,"MET074METAR LPGR 091800Z 02011KT 9999 BKN011 19/17 Q1023 RMK WIND RWY09 02010KT;",
"08515599999","2010-06-10T14:00:00","4","39.092169","-28.029847","26.21","GRACIOSA, PO","FM-15","LPGR ","V020","100,1,N,0046,1","99999,9,C,N","011265,1,N,1","+0200,1","+0120,1","99999,9","02,5,+00480,1,99,9","04,5,+00900,1,99,9",,"04,99,1,99,9,99,9,99999,9,99,9,99,9",,"10251,1,99999,9",,,,"MET081METAR LPGR 101400Z 10009KT 9999 FEW016 SCT030 20/12 Q1025 RMK WIND RWY09 08010KT;","P01 009003SCOCIG"
"08515599999","2010-06-10T15:00:00","4","39.092169","-28.029847","26.21","GRACIOSA, PO","FM-15","LPGR ","V020","070,1,N,0041,1","00750,1,C,N","011265,1,N,1","+0190,1","+0130,1","99999,9","02,5,+00450,1,99,9","07,5,+00750,1,99,9",,"07,99,1,99,9,99,9,99999,9,99,9,99,9",,"10251,1,99999,9",,,,"MET081METAR LPGR 101500Z 07008KT 9999 FEW015 BKN025 19/13 Q1025 RMK WIND RWY09 05010KT;",
"08515599999","2010-06-10T17:00:00","4","39.092169","-28.029847","26.21","GRACIOSA, PO","FM-15","LPGR ","V020","050,1,N,0031,1","22000,1,9,N","011265,1,N,1","+0200,1","+0130,1","99999,9","02,5,+00540,1,99,9",,,"02,99,1,99,9,99,9,99999,9,99,9,99,9",,"10251,1,99999,9",,,,"MET074METAR LPGR 101700Z 05006KT 9999 FEW018 20/13 Q1025 RMK WIND RWY09 05007KT;",
"08515599999","2010-06-11T07:00:00","4","39.092169","-28.029847","26.21","GRACIOSA, PO","FM-15","LPGR ","V020","090,1,N,0031,1","00750,1,C,N","011265,1,N,1","+0160,1","+0140,1","99999,9","04,5,+00360,1,99,9","07,5,+00750,1,99,9",,"07,99,1,99,9,99,9,99999,9,99,9,99,9",,"10271,1,99999,9",,,,"MET081METAR LPGR 110700Z 09006KT 9999 SCT012 BKN025 16/14 Q1027 RMK WIND RWY09 09006KT;",
"08515599999","2010-06-11T08:00:00","4","39.092169","-28.029847","26.21","GRACIOSA, PO","FM-15","LPGR ","V020","170,1,N,0021,1","00900,1,C,N","011265,1,N,1","+0160,1","+0140,1","99999,9","02,5,+00450,1,99,9","07,5,+00900,1,99,9",,"07,99,1,99,9,99,9,99999,9,99,9,99,9",,"10271,1,99999,9",,,,"MET081METAR LPGR 110800Z 17004KT 9999 FEW015 BKN030 16/14 Q1027 RMK WIND RWY09 14005KT;",
"08515599999","2010-06-11T09:00:00","4","39.092169","-28.029847","26.21","GRACIOSA, PO","FM-15","LPGR ","V020","080,1,N,0026,1","00900,1,C,N","011265,1,N,1","+0170,1","+0150,1","99999,9","02,5,+00450,1,99,9","07,5,+00900,1,99,9",,"07,99,1,99,9,99,9,99999,9,99,9,99,9",,"10281,1,99999,9",,,,"MET081METAR LPGR 110900Z 08005KT 9999 FEW015 BKN030 17/15 Q1028 RMK WIND RWY09 08005KT;",
"08515599999","2010-06-11T14:00:00","4","39.092169","-28.029847","26.21","GRACIOSA, PO","FM-15","LPGR ","V020","050,1,N,0026,1","00900,1,C,N","011265,1,N,1","+0190,1","+0150,1","99999,9","02,5,+00480,1,99,9","07,5,+00900,1,99,9",,"07,99,1,99,9,99,9,99999,9,99,9,99,9",,"10291,1,99999,9",,,,"MET081METAR LPGR 111400Z 05005KT 9999 FEW016 BKN030 19/15 Q1029 RMK WIND RWY09 05007KT;",
"08515599999","2010-06-11T15:00:00","4","39.092169","-28.029847","26.21","GRACIOSA, PO","FM-15","LPGR ","V020","070,1,N,0036,1","00900,1,C,N","011265,1,N,1","+0200,1","+0150,1","99999,9","02,5,+00540,1,99,9","07,5,+00900,1,99,9",,"07,99,1,99,9,99,9,99999,9,99,9,99,9",,"10291,1,99999,9",,,,"MET081METAR LPGR 111500Z 07007KT 9999 FEW018 BKN030 20/15 Q1029 RMK WIND RWY09 07008KT;",
"08515599999","2010-06-11T16:00:00","4","39.092169","-28.029847","26.21","GRACIOSA, PO","FM-15","LPGR ","V020","090,1,N,0051,1","22000,1,9,N","011265,1,N,1","+0190,1","+0130,1","99999,9","02,5,+00540,1,99,9",,,"02,99,1,99,9,99,9,99999,9,99,9,99,9",,"10291,1,99999,9",,,,"MET074METAR LPGR 111600Z 09010KT 9999 FEW018 19/13 Q1029 RMK WIND RWY09 09011KT;",
"08515599999","2010-06-11T17:00:00","4","39.092169","-28.029847","26.21","GRACIOSA, PO","FM-15","LPGR ","V020","070,1,N,0036,1","22000,1,9,N","011265,1,N,1","+0200,1","+0130,1","99999,9","02,5,+00600,1,99,9",,,"02,99,1,99,9,99,9,99999,9,99,9,99,9",,"10291,1,99999,9",,,,"MET074METAR LPGR 111700Z 07007KT 9999 FEW020 20/13 Q1029 RMK WIND RWY09 06008KT;",
"08515599999","2010-06-11T18:00:00","4","39.092169","-28.029847","26.21","GRACIOSA, PO","FM-15","LPGR ","V020","060,1,N,0031,1","22000,1,9,N","011265,1,N,1","+0200,1","+0140,1","99999,9","02,5,+00540,1,99,9",,,"02,99,1,99,9,99,9,99999,9,99,9,99,9",,"10291,1,99999,9",,,,"MET074METAR LPGR 111800Z 06006KT 9999 FEW018 20/14 Q1029 RMK WIND RWY09 05008KT;",
"08515599999","2010-06-12T14:00:00","4","39.092169","-28.029847","26.21","GRACIOSA, PO","FM-15","LPGR ","V020","080,1,N,0046,1","22000,1,9,N","011265,1,N,1","+0190,1","+0120,1","99999,9","02,5,+00600,1,99,9",,,"02,99,1,99,9,99,9,99999,9,99,9,99,9",,"10318,1,99999,9",,,,"MET074METAR LPGR 121400Z 08009KT 9999 FEW020 19/12 Q1032 RMK WIND RWY09 08009KT;",
"08515599999","2010-06-12T15:00:00","4","39.092169","-28.029847","26.21","GRACIOSA, PO","FM-15","LPGR ","V020","070,1,N,0041,1","22000,1,9,N","011265,1,N,1","+0200,1","+0120,1","99999,9","02,5,+00600,1,99,9",,,"02,99,1,99,9,99,9,99999,9,99,9,99,9",,"10318,1,99999,9",,,,"MET074METAR LPGR 121500Z 07008KT 9999 FEW020 20/12 Q1032 RMK WIND RWY09 09009KT;",
"08515599999","2010-06-12T16:00:00","4","39.092169","-28.029847","26.21","GRACIOSA, PO","FM-15","LPGR ","V020","100,1,N,0046,1","22000,1,9,N","011265,1,N,1","+0200,1","+0130,1","99999,9","02,5,+00600,1,99,9",,,"02,99,1,99,9,99,9,99999,9,99,9,99,9",,"10312,1,99999,9",,,,"MET074METAR LPGR 121600Z 10009KT 9999 FEW020 20/13 Q1031 RMK WIND RWY09 08009KT;",
"08515599999","2010-06-12T17:00:00","4","39.092169","-28.029847","26.21","GRACIOSA, PO","FM-15","LPGR ","V020","080,1,N,0046,1","22000,1,9,N","011265,1,N,1","+0200,1","+0120,1","99999,9","02,5,+00600,1,99,9",,,"02,99,1,99,9,99,9,99999,9,99,9,99,9",,"10312,1,99999,9",,,,"MET074METAR LPGR 121700Z 08009KT 9999 FEW020 20/12 Q1031 RMK WIND RWY09 08010KT;",
"08515599999","2010-06-13T14:00:00","4","39.092169","-28.029847","26.21","GRACIOSA, PO","FM-15","LPGR ","V020","120,1,N,0057,1","00900,1,C,N","011265,1,N,1","+0190,1","+0120,1","99999,9","02,5,+00600,1,99,9","07,5,+00900,1,99,9",,"07,99,1,99,9,99,9,99999,9,99,9,99,9","999,M,+9999,9","10301,1,99999,9",,,,"MET081METAR LPGR 131400Z 12011KT 9999 FEW020 BKN030 19/12 Q1030 RMK WIND RWY09 11011KT;","Q01 -00112ATMX  "
"08515599999","2010-06-13T15:00:00","4","39.092169","-28.029847","26.21","GRACIOSA, PO","FM-15","LPGR ","V020","100,1,N,0062,1","99999,9,C,N","011265,1,N,1","+0200,1","+0120,1","99999,9","02,5,+00600,1,99,9","04,5,+01050,1,99,9",,"04,99,1,99,9,99,9,99999,9,99,9,99,9",,"10301,1,99999,9",,,,"MET081METAR LPGR 131500Z 10012KT 9999 FEW020 SCT035 20/12 Q1030 RMK WIND RWY09 09010KT;","P01 010503SCOCIG"
"08515599999","2010-06-13T16:00:00","4","39.092169","-28.029847","26.21","GRACIOSA, PO","FM-15","LPGR ","V020","090,1,N,0057,1","22000,1,9,N","011265,1,N,1","+0200,1","+0120,1","99999,9","02,5,+00600,1,99,9",,,"02,99,1,99,9,99,9,99999,9,99,9,99,9",,"10301,1,99999,9",,,,"MET074METAR LPGR 131600Z 09011KT 9999 FEW020 20/12 Q1030 RMK WIND RWY09 08012KT;",
"08515599999","2010-06-13T17:00:00","4","39.092169","-28.029847","26.21","GRACIOSA, PO","FM-15","LPGR ","V020","100,1,N,0062,1","22000,1,9,N","011265,1,N,1","+0200,1","+0120,1","99999,9","02,5,+00600,1,99,9",,,"02,99,1,99,9,99,9,99999,9,99,9,99,9",,"10301,1,99999,9",,,,"MET074METAR LPGR 131700Z 10012KT 9999 FEW020 20/12 Q1030 RMK WIND RWY09 09013KT;",
"08515599999","2010-06-14T07:00:00","4","39.092169","-28.029847","26.21","GRACIOSA, PO","FM-15","LPGR ","V020","140,1,N,0021,1","00750,1,C,N","011265,1,N,1","+0160,1","+0130,1","99999,9","02,5,+00450,1,99,9","07,5,+00750,1,99,9",,"07,99,1,99,9,99,9,99999,9,99,9,99,9",,"10291,1,99999,9",,,,"MET081METAR LPGR 140700Z 14004KT 9999 FEW015 BKN025 16/13 Q1029 RMK WIND RWY09 15002KT;",
"08515599999","2010-06-14T08:00:00","4","39.092169","-28.029847","26.21","GRACIOSA, PO","FM-15","LPGR ","V020","140,1,N,0015,1","00750,1,C,N","011265,1,N,1","+0160,1","+0130,1","99999,9","02,5,+00450,1,99,9","07,5,+00750,1,99,9",,"07,99,1,99,9,99,9,99999,9,99,9,99,9",,"10291,1,99999,9",,,,"MET081METAR LPGR 140800Z 14003KT 9999 FEW015 BKN025 16/13 Q1029 RMK WIND RWY09 15003KT;",
"08515599999","2010-06-14T09:00:00","4","39.092169","-28.029847","26.21","GRACIOSA, PO","FM-15","LPGR ","V020","140,1,N,0010,1","00750,1,C,N","011265,1,N,1","+0170,1","+0130,1","99999,9","02,5,+00480,1,99,9","07,5,+00750,1,99,9",,"07,99,1,99,9,99,9,99999,9,99,9,99,9",,"10291,1,99999,9",,,,"MET081METAR LPGR 140900Z 14002KT 9999 FEW016 BKN025 17/13 Q1029 RMK WIND RWY09 15001KT;",
"08515599999","2010-06-14T14:00:00","4","39.092169","-28.029847","26.21","GRACIOSA, PO","FM-15","LPGR ","V020","100,1,N,0051,1","01050,1,C,N","011265,1,N,1","+0210,1","+0140,1","99999,9","02,5,+00540,1,99,9","07,5,+01050,1,99,9",,"07,99,1,99,9,99,9,99999,9,99,9,99,9","999,M,+9999,9","10291,1,99999,9",,,,"MET081METAR LPGR 141400Z 10010KT 9999 FEW018 BKN035 21/14 Q1029 RMK WIND RWY09 10010KT;","Q01 +00102ATMX  "
"08515599999","2010-06-14T15:00:00","4","39.092169","-28.029847","26.21","GRACIOSA, PO","FM-15","LPGR ","V020","110,1,N,0057,1","01050,1,C,N","011265,1,N,1","+0200,1","+0160,1","99999,9","04,5,+00480,1,99,9","07,5,+01050,1,99,9",,"07,99,1,99,9,99,9,99999,9,99,9,99,9","999,M,+9999,9","10291,1,99999,9",,,,"MET081METAR LPGR 141500Z 11011KT 9999 SCT016 BKN035 20/16 Q1029 RMK WIND RWY09 10010KT;","Q01 +00102ATMX  "
"08515599999","2010-06-14T16:00:00","4","39.092169","-28.029847","26.21","GRACIOSA, PO","FM-15","LPGR ","V020","100,1,N,0051,1","00900,1,C,N","011265,1,N,1","+0200,1","+0150,1","99999,9","04,5,+00480,1,99,9","07,5,+00900,1,99,9",,"07,99,1,99,9,99,9,99999,9,99,9,99,9",,"10291,1,99999,9",,,,"MET081METAR LPGR 141600Z 10010KT 9999 SCT016 BKN030 20/15 Q1029 RMK WIND RWY09 08009KT;",
"08515599999","2010-06-14T17:00:00","4","39.092169","-28.029847","26.21","GRACIOSA, PO","FM-15","LPGR ","V020","100,1,N,0057,1","00900,1,C,N","011265,1,N,1","+0190,1","+0150,1","99999,9","04,5,+00480,1,99,9","07,5,+00900,1,99,9",,"07,99,1,99,9,99,9,99999,9,99,9,99,9","999,M,+9999,9","10291,1,99999,9",,,,"MET081METAR LPGR 141700Z 10011KT 9999 SCT016 BKN030 19/15 Q1029 RMK WIND RWY09 10011KT;","Q01 +00112ATMX  "
"08515599999","2010-06-15T14:00:00","4","39.092169","-28.029847","26.21","GRACIOSA, PO","FM-15","LPGR ","V020","110,1,N,0051,1","22000,1,9,N","011265,1,N,1","+0210,1","+0140,1","99999,9","02,5,+00600,1,99,9",,,"02,99,1,99,9,99,9,99999,9,99,9,99,9",,"10301,1,99999,9",,,,"MET074METAR LPGR 151400Z 11010KT 9999 FEW020 21/14 Q1030 RMK WIND RWY09 09011KT;",
"08515599999","2010-06-15T15:00:00","4","39.092169","-28.029847","26.21","GRACIOSA, PO","FM-15","LPGR ","V020","100,1,N,0057,1","99999,9,C,N","011265,1,N,1","+0200,1","+0130,1","99999,9","02,5,+00600,1,99,9","04,5,+00900,1,99,9",,"04,99,1,99,9,99,9,99999,9,99,9,99,9","999,M,+9999,9","10301,1,99999,9",,,,"MET081METAR LPGR 151500Z 10011KT 9999 FEW020 SCT030 20/13 Q1030 RMK WIND RWY09 10012KT;","Q01 +00122ATMX  P01 009003SCOCIG"
"08515599999","2010-06-15T16:00:00","4","39.092169","-28.029847","26.21","GRACIOSA, PO","FM-15","LPGR ","V020","100,1,N,0046,1","99999,9,C,N","011265,1,N,1","+0210,1","+0140,1","99999,9","02,5,+00600,1,99,9","04,5,+00900,1,99,9",,"04,99,1,99,9,99,9,99999,9,99,9,99,9",,"10301,1,99999,9",,,,"MET081METAR LPGR 151600Z 10009KT 9999 FEW020 SCT030 21/14 Q1030 RMK WIND RWY09 09011KT;","P01 009003SCOCIG"
"08515599999","2010-06-15T17:00:00","4","39.092169","-28.029847","26.21","GRACIOSA, PO","FM-15","LPGR ","V020","110,1,N,0057,1","99999,9,C,N","011265,1,N,1","+0210,1","+0120,1","99999,9","02,5,+00600,1,99,9","04,5,+01050,1,99,9",,"04,99,1,99,9,99,9,99999,9,99,9,99,9","999,M,+9999,9","10301,1,99999,9",,,,"MET081METAR LPGR 151700Z 11011KT 9999 FEW020 SCT035 21/12 Q1030 RMK WIND RWY09 10011KT;","Q01 +00112ATMX  P01 010503SCOCIG"
"08515599999","2010-06-16T07:00:00","4","39.092169","-28.029847","26.21","GRACIOSA, PO","FM-15","LPGR ","V020","140,1,N,0021,1","00750,1,C,N","011265,1,N,1","+0170,1","+0120,1","99999,9","02,5,+00480,1,99,9","07,5,+00750,1,99,9",,"07,99,1,99,9,99,9,99999,9,99,9,99,9",,"10291,1,99999,9",,,,"MET081METAR LPGR 160700Z 14004KT 9999 FEW016 BKN025 17/12 Q1029 RMK WIND RWY09 13003KT;",
"08515599999","2010-06-16T08:00:00","4","39.092169","-28.029847","26.21","GRACIOSA, PO","FM-15","LPGR ","V020","120,1,N,0026,1","00750,1,C,N","011265,1,N,1","+0180,1","+0120,1","99999,9","02,5,+00480,1,99,9","07,5,+00750,1,99,9",,"07,99,1,99,9,99,9,99999,9,99,9,99,9",,"10291,1,99999,9",,,,"MET081METAR LPGR 160800Z 12005KT 9999 FEW016 BKN025 18/12 Q1029 RMK WIND RWY09 13005KT;",
"08515599999","2010-06-16T09:00:00","4","39.092169","-28.029847","26.21","GRACIOSA, PO","FM-15","LPGR ","V020","150,1,N,0036,1","00900,1,C,N","011265,1,N,1","+0180,1","+0110,1","99999,9","02,5,+00540,1,99,9","07,5,+00900,1,99,9",,"07,99,1,99,9,99,9,99999,9,99,9,99,9",,"10291,1,99999,9",,,,"MET081METAR LPGR 160900Z 15007KT 9999 FEW018 BKN030 18/11 Q1029 RMK WIND RWY09 13006KT;",
"08515599999","2010-06-16T14:00:00","4","39.092169","-28.029847","26.21","GRACIOSA, PO","FM-15","LPGR ","V020","120,1,N,0057,1","00900,1,C,N","011265,1,N,1","+0210,1","+0130,1","99999,9","02,5,+00600,1,99,9","07,5,+00900,1,99,9",,"07,99,1,99,9,99,9,99999,9,99,9,99,9",,"10291,1,99999,9",,,,"MET081METAR LPGR 161400Z 12011KT 9999 FEW020 BKN030 21/13 Q1029 RMK WIND RWY09 12011KT;",
"08515599999","2010-06-16T15:00:00","4","39.092169","-28.029847","26.21","GRACIOSA, PO","FM-15","LPGR ","V020","120,1,N,0062,1","01050,1,C,N","011265,1,N,1","+0200,1","+0130,1","99999,9","02,5,+00600,1,99,9","07,5,+01050,1,99,9",,"07,99,1,99,9,99,9,99999,9,99,9,99,9","999,M,+9999,9","10291,1,99999,9",,,,"MET081METAR LPGR 161500Z 12012KT 9999 FEW020 BKN035 20/13 Q1029 RMK WIND RWY09 10011KT;","Q01 +00112ATMX  "
"08515599999","2010-06-16T16:00:00","4","39.092169","-28.029847","26.21","GRACIOSA, PO","FM-15","LPGR ","V020","110,1,N,0062,1","01050,1,C,N","011265,1,N,1","+0200,1","+0130,1","99999,9","02,5,+00600,1,99,9","07,5,+01050,1,99,9",,"07,99,1,99,9,99,9,99999,9,99,9,99,9","999,M,+9999,9","10291,1,99999,9",,,,"MET081METAR LPGR 161600Z 11012KT 9999 FEW020 BKN035 20/13 Q1029 RMK WIND RWY09 11011KT;","Q01 -00112ATMX  "
"08515599999","2010-06-16T17:00:00","4","39.092169","-28.029847","26.21","GRACIOSA, PO","FM-15","LPGR ","V020","130,1,N,0062,1","99999,9,C,N","011265,1,N,1","+0210,1","+0130,1","99999,9","02,5,+00600,1,99,9","04,5,+01050,1,99,9",,"04,99,1,99,9,99,9,99999,9,99,9,99,9",,"10281,1,99999,9",,,,"MET081METAR LPGR 161700Z 13012KT 9999 FEW020 SCT035 21/13 Q1028 RMK WIND RWY09 12011KT;","P01 010503SCOCIG"
"08515599999","2010-06-17T14:00:00","4","39.092169","-28.029847","26.21","GRACIOSA, PO","FM-15","LPGR ","V020","180,1,N,0051,1","06300,1,C,N","011265,1,N,1","+0220,1","+0140,1","99999,9","02,5,+00600,1,99,9","07,5,+06300,1,99,9",,"07,99,1,99,9,99,9,99999,9,99,9,99,9",,"10261,1,99999,9",,,,"MET081METAR LPGR 171400Z 18010KT 9999 FEW020 BKN210 22/14 Q1026 RMK WIND RWY09 17008KT;",
"08515599999","2010-06-17T15:00:00","4","39.092169","-28.029847","26.21","GRACIOSA, PO","FM-15","LPGR ","V020","220,1,N,0041,1","06300,1,C,N","011265,1,N,1","+0220,1","+0140,1","99999,9","02,5,+00600,1,99,9","07,5,+06300,1,99,9",,"07,99,1,99,9,99,9,99999,9,99,9,99,9",,"10261,1,99999,9",,,,"MET081METAR LPGR 171500Z 22008KT 9999 FEW020 BKN210 22/14 Q1026 RMK WIND RWY09 24010KT;",
"08515599999","2010-06-17T16:00:00","4","39.092169","-28.029847","26.21","GRACIOSA, PO","FM-15","LPGR ","V020","200,1,N,0026,1","06300,1,C,N","011265,1,N,1","+0220,1","+0150,1","99999,9","02,5,+00600,1,99,9","07,5,+06300,1,99,9",,"07,99,1,99,9,99,9,99999,9,99,9,99,9",,"10261,1,99999,9",,,,"MET081METAR LPGR 171600Z 20005KT 9999 FEW020 BKN210 22/15 Q1026 RMK WIND RWY09 20007KT;",
"08515599999","2010-06-17T17:00:00","4","39.092169","-28.029847","26.21","GRACIOSA, PO","FM-15","LPGR ","V020","180,1,N,0021,1","06300,1,C,N","011265,1,N,1","+0220,1","+0150,1","99999,9","02,5,+00600,1,99,9","07,5,+06300,1,99,9",,"07,99,1,99,9,99,9,99999,9,99,9,99,9",,"10251,1,99999,9",,,,"MET081METAR LPGR 171700Z 18004KT 9999 FEW020 BKN210 22/15 Q1025 RMK WIND RWY09 23009KT;",
"08515599999","2010-06-18T07:00:00","4","39.092169","-28.029847","26.21","GRACIOSA, PO","FM-15","LPGR ","V020","200,1,N,0005,1","00900,1,C,N","011265,1,N,1","+0180,1","+0150,1","99999,9","02,5,+00480,1,99,9","07,5,+00900,1,99,9",,"07,99,1,99,9,99,9,99999,9,99,9,99,9",,"10271,1,99999,9",,,,"MET081METAR LPGR 180700Z 20001KT 9999 FEW016 BKN030 18/15 Q1027 RMK WIND RWY09 18002KT;",
"08515599999","2010-06-18T08:00:00","4","39.092169","-28.029847","26.21","GRACIOSA, PO","FM-15","LPGR ","V020","200,1,N,0005,1","01050,1,C,N","011265,1,N,1","+0190,1","+0160,1","99999,9","02,5,+00480,1,99,9","04,5,+01050,1,99,9","08,5,+02400,1,99,9","08,99,1,99,9,99,9,99999,9,99,9,99,9",,"10281,1,99999,9",,,,"MET088METAR LPGR 180800Z 20001KT 9999 FEW016 SCT035 OVC080 19/16 Q1028 RMK WIND RWY09 18001KT;",
"08515599999","2010-06-18T09:00:00","4","39.092169","-28.029847","26.21","GRACIOSA, PO","FM-15","LPGR ","V020","200,1,N,0005,1","01050,1,C,N","011265,1,N,1","+0190,1","+0160,1","99999,9","02,5,+00480,1,99,9","04,5,+01050,1,99,9","08,5,+02400,1,99,9","08,99,1,99,9,99,9,99999,9,99,9,99,9",,"10281,1,99999,9",,,,"MET088METAR LPGR 180900Z 20001KT 9999 FEW016 SCT035 OVC080 19/16 Q1028 RMK WIND RWY09 22002KT;",
"08515599999","2010-06-18T14:00:00","4","39.092169","-28.029847","26.21","GRACIOSA, PO","FM-15","LPGR ","V020","260,1,N,0036,1","01050,1,C,N","011265,1,N,1","+0210,1","+0160,1","99999,9","02,5,+00540,1,99,9","07,5,+01050,1,99,9",,"07,99,1,99,9,99,9,99999,9,99,9,99,9",,"10291,1,99999,9",,,,"MET081METAR LPGR 181400Z 26007KT 9999 FEW018 BKN035 21/16 Q1029 RMK WIND RWY09 25008KT;",
"08515599999","2010-06-18T15:00:00","4","39.092169","-28.029847","26.21","GRACIOSA, PO","FM-15","LPGR ","V020","240,1,N,0041,1","01050,1,C,N","011265,1,N,1","+0230,1","+0160,1","99999,9","02,5,+00600,1,99,9","07,5,+01050,1,99,9",,"07,99,1,99,9,99,9,99999,9,99,9,99,9",,"10291,1,99999,9",,,,"MET081METAR LPGR 181500Z 24008KT 9999 FEW020 BKN035 23/16 Q1029 RMK WIND RWY09 23009KT;",
"08515599999","2010-06-18T16:00:00","4","39.092169","-28.029847","26.21","GRACIOSA, PO","FM-15","LPGR ","V020","270,1,N,0046,1","01200,1,C,N","011265,1,N,1","+0220,1","+0160,1","99999,9","02,5,+00600,1,99,9","07,5,+01200,1,99,9",,"07,99,1,99,9,99,9,99999,9,99,9,99,9",,"10291,1,99999,9",,,,"MET081METAR LPGR 181600Z 27009KT 9999 FEW020 BKN040 22/16 Q1029 RMK WIND RWY09 27009KT;",
"08515599999","2010-06-18T17:00:00","4","39.092169","-28.029847","26.21","GRACIOSA, PO","FM-15","LPGR ","V020","270,1,N,0031,1","01200,1,C,N","011265,1,N,1","+0220,1","+0160,1","99999,9","02,5,+00540,1,99,9","07,5,+01200,1,99,9",,"07,99,1,99,9,99,9,99999,9,99,9,99,9",,"10291,1,99999,9",,,,"MET081METAR LPGR 181700Z 27006KT 9999 FEW018 BKN040 22/16 Q1029 RMK WIND RWY09 27006KT;",
"08515599999","2010-06-18T18:00:00","4","39.092169","-28.029847","26.21","GRACIOSA, PO","FM-15","LPGR ","V020","270,1,N,0031,1","01200,1,C,N","011265,1,N,1","+0220,1","+0160,1","99999,9","02,5,+00540,1,99,9","07,5,+01200,1,99,9",,"07,99,1,99,9,99,9,99999,9,99,9,99,9",,"10291,1,99999,9",,,,"MET081METAR LPGR 181800Z 27006KT 9999 FEW018 BKN040 22/16 Q1029 RMK WIND RWY09 27006KT;",
"08515599999","2010-06-19T14:00:00","4","39.092169","-28.029847","26.21","GRACIOSA, PO","FM-15","LPGR ","V020","260,1,N,0077,1","00300,1,C,N","006000,1,N,1","+0190,1","+0180,1","99999,9","04,5,+00180,1,99,9","07,5,+00300,1,99,9",,"07,99,1,99,9,99,9,99999,9,99,9,99,9",,"10291,1,99999,9","51,1",,,"MET085METAR LPGR 191400Z 26015KT 6000 -DZ SCT006 BKN010 19/18 Q1029 RMK WIND RWY09 25015KT;",
"08515599999","2010-06-19T15:00:00","4","39.092169","-28.029847","26.21","GRACIOSA, PO","FM-15","LPGR ","V020","260,1,N,0072,1","00300,1,C,N","009000,1,N,1","+0200,1","+0180,1","99999,9","07,5,+00300,1,99,9",,,"07,99,1,99,9,99,9,99999,9,99,9,99,9",,"10281,1,99999,9",,,,"MET074METAR LPGR 191500Z 26014KT 9000 BKN010 20/18 Q1028 RMK WIND RWY09 25013KT;",
"08515599999","2010-06-19T16:00:00","4","39.092169","-28.029847","26.21","GRACIOSA, PO","FM-15","LPGR ","V020","270,1,N,0062,1","00360,1,C,N","011265,1,N,1","+0200,1","+0180,1","99999,9","02,5,+00300,1,99,9","07,5,+00360,1,99,9",,"07,99,1,99,9,99,9,99999,9,99,9,99,9",,"10281,1,99999,9",,,,"MET081METAR LPGR 191600Z 27012KT 9999 FEW010 BKN012 20/18 Q1028 RMK WIND RWY09 26011KT;",
"08515599999","2010-06-19T17:00:00","4","39.092169","-28.029847","26.21","GRACIOSA, PO","FM-15","LPGR ","V020","270,1,N,0067,1","00900,1,C,N","011265,1,N,1","+0210,1","+0180,1","99999,9","04,5,+00360,1,99,9","07,5,+00900,1,99,9",,"07,99,1,99,9,99,9,99999,9,99,9,99,9",,"10271,1,99999,9",,,,"MET081METAR LPGR 191700Z 27013KT 9999 SCT012 BKN030 21/18 Q1027 RMK WIND RWY09 26013KT;",
"08515599999","2010-06-20T14:00:00","4","39.092169","-28.029847","26.21","GRACIOSA, PO","FM-15","LPGR ","V020","240,1,N,0082,1","22000,1,9,N","011265,1,N,1","+0230,1","+0170,1","99999,9","02,5,+00450,1,99,9",,,"02,99,1,99,9,99,9,99999,9,99,9,99,9",,"10251,1,99999,9",,,,"MET074METAR LPGR 201400Z 24016KT 9999 FEW015 23/17 Q1025 RMK WIND RWY09 24015KT;",
"08515599999","2010-06-20T15:00:00","4","39.092169","-28.029847","26.21","GRACIOSA, PO","FM-15","LPGR ","V020","250,1,N,0087,1","22000,1,9,N","011265,1,N,1","+0220,1","+0170,1","99999,9","02,5,+00450,1,99,9",,,"02,99,1,99,9,99,9,99999,9,99,9,99,9",,"10251,1,99999,9",,,,"MET074METAR LPGR 201500Z 25017KT 9999 FEW015 22/17 Q1025 RMK WIND RWY09 25015KT;",
"08515599999","2010-06-20T16:00:00","4","39.092169","-28.029847","26.21","GRACIOSA, PO","FM-15","LPGR ","V020","250,1,N,0093,1","99999,9,C,N","011265,1,N,1","+0220,1","+0170,1","99999,9","02,5,+00450,1,99,9","04,5,+06300,1,99,9",,"04,99,1,99,9,99,9,99999,9,99,9,99,9",,"10240,1,99999,9",,,,"MET081METAR LPGR 201600Z 25018KT 9999 FEW015 SCT210 22/17 Q1024 RMK WIND RWY09 25017KT;","P01 063003SCOCIG"
"08515599999","2010-06-20T17:00:00","4","39.092169","-28.029847","26.21","GRACIOSA, PO","FM-15","LPGR ","V020","260,1,N,0087,1","99999,9,C,N","011265,1,N,1","+0220,1","+0170,1","99999,9","02,5,+00450,1,99,9","04,5,+06300,1,99,9",,"04,99,1,99,9,99,9,99999,9,99,9,99,9",,"10251,1,99999,9",,,,"MET081METAR LPGR 201700Z 26017KT 9999 FEW015 SCT210 22/17 Q1025 RMK WIND RWY09 25017KT;","P01 063003SCOCIG"
"08515599999","2010-06-21T07:00:00","4","39.092169","-28.029847","26.21","GRACIOSA, PO","FM-15","LPGR ","V020","250,1,N,0087,1","00090,1,C,N","001500,1,N,1","+0190,1","+0180,1","99999,9","02,5,+00030,1,99,9","07,5,+00090,1,99,9",,"07,99,1,99,9,99,9,99999,9,99,9,99,9",,"10230,1,99999,9","10,1","61,1",,"MET088METAR LPGR 210700Z 25017KT 1500 -RA BR FEW001 BKN003 19/18 Q1023 RMK WIND RWY09 24015KT;",
"08515599999","2010-06-21T08:00:00","4","39.092169","-28.029847","26.21","GRACIOSA, PO","FM-15","LPGR ","V020","260,1,N,0077,1","00090,1,C,N","001500,1,N,1","+0190,1","+0180,1","99999,9","04,5,+00030,1,99,9","07,5,+00090,1,99,9",,"07,99,1,99,9,99,9,99999,9,99,9,99,9",,"10240,1,99999,9","10,1","61,1",,"MET088METAR LPGR 210800Z 26015KT 1500 -RA BR SCT001 BKN003 19/18 Q1024 RMK WIND RWY09 26014KT;",
"08515599999","2010-06-21T09:00:00","4","39.092169","-28.029847","26.21","GRACIOSA, PO","FM-15","LPGR ","V020","350,1,N,0031,1","00060,1,C,N","003500,1,N,1","+0180,1","+0180,1","99999,9","02,5,+00030,1,99,9","07,5,+00060,1,99,9",,"07,99,1,99,9,99,9,99999,9,99,9,99,9",,"10251,1,99999,9","10,1",,,"MET084METAR LPGR 210900Z 35006KT 3500 BR FEW001 BKN002 18/18 Q1025 RMK WIND RWY09 34008KT;",
"08515599999","2010-06-21T10:00:00","4","39.092169","-28.029847","26.21","GRACIOSA, PO","FM-15","LPGR ","V020","360,1,N,0051,1","00060,1,C,N","002000,1,N,1","+0180,1","+0180,1","99999,9","02,5,+00030,1,99,9","07,5,+00060,1,99,9",,"07,99,1,99,9,99,9,99999,9,99,9,99,9",,"10251,1,99999,9","10,1","51,1",,"MET088METAR LPGR 211000Z 36010KT 2000 -DZ BR FEW001 BKN002 18/18 Q1025 RMK WIND RWY09 35009KT;",
"08515599999","2010-06-21T14:00:00","4","39.092169","-28.029847","26.21","GRACIOSA, PO","FM-15","LPGR ","V020","010,1,N,0031,1","00900,1,C,N","011265,1,N,1","+0190,1","+0160,1","99999,9","02,5,+00420,1,99,9","07,5,+00900,1,99,9",,"07,99,1,99,9,99,9,99999,9,99,9,99,9",,"10261,1,99999,9",,,,"MET081METAR LPGR 211400Z 01006KT 9999 FEW014 BKN030 19/16 Q1026 RMK WIND RWY09 35007KT;",
"08515599999","2010-06-21T15:00:00","4","39.092169","-28.029847","26.21","GRACIOSA, PO","FM-15","LPGR ","V020","010,1,N,0036,1","00900,1,C,N","011265,1,N,1","+0190,1","+0160,1","99999,9","02,5,+00420,1,99,9","07,5,+00900,1,99,9",,"07,99,1,99,9,99,9,99999,9,99,9,99,9",,"10261,1,99999,9",,,,"MET081METAR LPGR 211500Z 01007KT 9999 FEW014 BKN030 19/16 Q1026 RMK WIND RWY09 36006KT;",
"08515599999","2010-06-21T16:00:00","4","39.092169","-28.029847","26.21","GRACIOSA, PO","FM-15","LPGR ","V020","360,1,N,0041,1","00900,1,C,N","011265,1,N,1","+0190,1","+0160,1","99999,9","04,5,+00420,1,99,9","07,5,+00900,1,99,9",,"07,99,1,99,9,99,9,99999,9,99,9,99,9",,"10261,1,99999,9",,,,"MET081METAR LPGR 211600Z 36008KT 9999 SCT014 BKN030 19/16 Q1026 RMK WIND RWY09 02007KT;",
"08515599999","2010-06-21T17:00:00","4","39.092169","-28.029847","26.21","GRACIOSA, PO","FM-15","LPGR ","V020","360,1,N,0041,1","99999,9,C,N","011265,1,N,1","+0200,1","+0150,1","99999,9","02,5,+00420,1,99,9","04,5,+06300,1,99,9",,"04,99,1,99,9,99,9,99999,9,99,9,99,9",,"10261,1,99999,9",,,,"MET081METAR LPGR 211700Z 36008KT 9999 FEW014 SCT210 20/15 Q1026 RMK WIND RWY09 01008KT;","P01 063003SCOCIG"
"08515599999","2010-06-21T18:00:00","4","39.092169","-28.029847","26.21","GRACIOSA, PO","FM-15","LPGR ","V020","010,1,N,0041,1","99999,9,C,N","011265,1,N,1","+0200,1","+0140,1","99999,9","02,5,+00480,1,99,9","04,5,+06300,1,99,9",,"04,99,1,99,9,99,9,99999,9,99,9,99,9",,"10261,1,99999,9",,,,"MET081METAR LPGR 211800Z 01008KT 9999 FEW016 SCT210 20/14 Q1026 RMK WIND RWY09 35007KT;","P01 063003SCOCIG"
"08515599999","2010-06-21T19:00:00","4","39.092169","-28.029847","26.21","GRACIOSA, PO","FM-15","LPGR ","V020","360,1,N,0031,1","99999,9,C,N","011265,1,N,1","+0200,1","+0140,1","99999,9","02,5,+00540,1,99,9","04,5,+06300,1,99,9",,"04,99,1,99,9,99,9,99999,9,99,9,99,9",,"10261,1,99999,9",,,,"MET081METAR LPGR 211900Z 36006KT 9999 FEW018 SCT210 20/14 Q1026 RMK WIND RWY09 33007KT;","P01 063003SCOCIG"
"08515599999","2010-06-22T14:00:00","4","39.092169","-28.029847","26.21","GRACIOSA, PO","FM-15","LPGR ","V020","010,1,N,0036,1","00900,1,C,N","011265,1,N,1","+0200,1","+0160,1","99999,9","02,5,+00450,1,99,9","07,5,+00900,1,99,9",,"07,99,1,99,9,99,9,99999,9,99,9,99,9",,"10281,1,99999,9",,,,"MET081METAR LPGR 221400Z 01007KT 9999 FEW015 BKN030 20/16 Q1028 RMK WIND RWY09 35007KT;",
"08515599999","2010-06-22T15:00:00","4","39.092169","-28.029847","26.21","GRACIOSA, PO","FM-15","LPGR ","V020","010,1,N,0041,1","22000,1,9,N","011265,1,N,1","+0210,1","+0150,1","99999,9","02,5,+00480,1,99,9",,,"02,99,1,99,9,99,9,99999,9,99,9,99,9",,"10281,1,99999,9",,,,"MET074METAR LPGR 221500Z 01008KT 9999 FEW016 21/15 Q1028 RMK WIND RWY09 35007KT;",
"08515599999","2010-06-22T16:00:00","4","39.092169","-28.029847","26.21","GRACIOSA, PO","FM-15","LPGR ","V020","010,1,N,0036,1","22000,1,9,N","011265,1,N,1","+0200,1","+0150,1","99999,9","02,5,+00540,1,99,9",,,"02,99,1,99,9,99,9,99999,9,99,9,99,9",,"10281,1,99999,9",,,,"MET074METAR LPGR 221600Z 01007KT 9999 FEW018 20/15 Q1028 RMK WIND RWY09 35007KT;",
"08515599999","2010-06-22T17:00:00","4","39.092169","-28.029847","26.21","GRACIOSA, PO","FM-15","LPGR ","V020","010,1,N,0036,1","22000,1,9,N","011265,1,N,1","+0210,1","+0150,1","99999,9","02,5,+00600,1,99,9",,,"02,99,1,99,9,99,9,99999,9,99,9,99,9",,"10281,1,99999,9",,,,"MET074METAR LPGR 221700Z 01007KT 9999 FEW020 21/15 Q1028 RMK WIND RWY09 35007KT;",
"08515599999","2010-06-23T07:00:00","4","39.092169","-28.029847","26.21","GRACIOSA, PO","FM-15","LPGR ","V020","360,1,N,0021,1","22000,1,9,N","011265,1,N,1","+0140,1","+0130,1","99999,9","02,5,+00480,1,99,9",,,"02,99,1,99,9,99,9,99999,9,99,9,99,9",,"10271,1,99999,9",,,,"MET074METAR LPGR 230700Z 36004KT 9999 FEW016 14/13 Q1027 RMK WIND RWY09 32002KT;",
"08515599999","2010-06-23T08:00:00","4","39.092169","-28.029847","26.21","GRACIOSA, PO","FM-15","LPGR ","V020","360,1,N,0015,1","22000,1,9,N","011265,1,N,1","+0160,1","+0150,1","99999,9","02,5,+00480,1,99,9",,,"02,99,1,99,9,99,9,99999,9,99,9,99,9",,"10271,1,99999,9",,,,"MET074METAR LPGR 230800Z 36003KT 9999 FEW016 16/15 Q1027 RMK WIND RWY09 23002KT;",
"08515599999","2010-06-23T09:00:00","4","39.092169","-28.029847","26.21","GRACIOSA, PO","FM-15","LPGR ","V020","260,1,N,0021,1","22000,1,9,N","011265,1,N,1","+0180,1","+0160,1","99999,9","02,5,+00540,1,99,9",,,"02,99,1,99,9,99,9,99999,9,99,9,99,9",,"10271,1,99999,9",,,,"MET074METAR LPGR 230900Z 26004KT 9999 FEW018 18/16 Q1027 RMK WIND RWY09 23003KT;",
"08515599999","2010-06-23T15:00:00","4","39.092169","-28.029847","26.21","GRACIOSA, PO","FM-15","LPGR ","V020","320,1,N,0041,1","22000,1,9,N","011265,1,N,1","+0220,1","+0160,1","99999,9","02,5,+00600,1,99,9",,,"02,99,1,99,9,99,9,99999,9,99,9,99,9",,"10271,1,99999,9",,,,"MET074METAR LPGR 231500Z 32008KT 9999 FEW020 22/16 Q1027 RMK WIND RWY09 27008KT;",
"08515599999","2010-06-23T16:00:00","4","39.092169","-28.029847","26.21","GRACIOSA, PO","FM-15","LPGR ","V020","320,1,N,0041,1","22000,1,9,N","011265,1,N,1","+0210,1","+0160,1","99999,9","02,5,+00600,1,99,9",,,"02,99,1,99,9,99,9,99999,9,99,9,99,9",,"10271,1,99999,9",,,,"MET074METAR LPGR 231600Z 32008KT 9999 FEW020 21/16 Q1027 RMK WIND RWY09 26009KT;",
"08515599999","2010-06-23T17:00:00","4","39.092169","-28.029847","26.21","GRACIOSA, PO","FM-15","LPGR ","V020","270,1,N,0041,1","22000,1,9,N","011265,1,N,1","+0210,1","+0160,1","99999,9","02,5,+00600,1,99,9",,,"02,99,1,99,9,99,9,99999,9,99,9,99,9",,"10271,1,99999,9",,,,"MET074METAR LPGR 231700Z 27008KT 9999 FEW020 21/16 Q1027 RMK WIND RWY09 27007KT;",
"08515599999","2010-06-24T15:00:00","4","39.092169","-28.029847","26.21","GRACIOSA, PO","FM-15","LPGR ","V020","260,1,N,0072,1","01050,1,C,N","011265,1,N,1","+0230,1","+0180,1","99999,9","02,5,+00480,1,99,9","07,5,+01050,1,99,9",,"07,99,1,99,9,99,9,99999,9,99,9,99,9",,"10271,1,99999,9",,,,"MET081METAR LPGR 241500Z 26014KT 9999 FEW016 BKN035 23/18 Q1027 RMK WIND RWY09 25015KT;",
"08515599999","2010-06-24T16:00:00","4","39.092169","-28.029847","26.21","GRACIOSA, PO","FM-15","LPGR ","V020","270,1,N,0072,1","01050,1,C,N","011265,1,N,1","+0220,1","+0180,1","99999,9","02,5,+00480,1,99,9","07,5,+01050,1,99,9",,"07,99,1,99,9,99,9,99999,9,99,9,99,9",,"10261,1,99999,9",,,,"MET081METAR LPGR 241600Z 27014KT 9999 FEW016 BKN035 22/18 Q1026 RMK WIND RWY09 26013KT;",
"08515599999","2010-06-24T17:00:00","4","39.092169","-28.029847","26.21","GRACIOSA, PO","FM-15","LPGR ","V020","270,1,N,0067,1","01050,1,C,N","011265,1,N,1","+0220,1","+0180,1","99999,9","02,5,+00480,1,99,9","07,5,+01050,1,99,9",,"07,99,1,99,9,99,9,99999,9,99,9,99,9",,"10261,1,99999,9",,,,"MET081METAR LPGR 241700Z 27013KT 9999 FEW016 BKN035 22/18 Q1026 RMK WIND RWY09 26012KT;",
"08515599999","2010-06-25T07:00:00","4","39.092169","-28.029847","26.21","GRACIOSA, PO","FM-15","LPGR ","V020","050,1,N,0041,1","00120,1,C,N","008000,1,N,1","+0180,1","+0170,1","99999,9","04,5,+00090,1,99,9","07,5,+00120,1,99,9",,"07,99,1,99,9,99,9,99999,9,99,9,99,9",,"10261,1,99999,9",,,,"MET081METAR LPGR 250700Z 05008KT 8000 SCT003 BKN004 18/17 Q1026 RMK WIND RWY09 05009KT;",
"08515599999","2010-06-25T08:00:00","4","39.092169","-28.029847","26.21","GRACIOSA, PO","FM-15","LPGR ","V020","070,1,N,0036,1","00300,1,C,N","009000,1,N,1","+0180,1","+0170,1","99999,9","04,5,+00090,1,99,9","07,5,+00300,1,99,9",,"07,99,1,99,9,99,9,99999,9,99,9,99,9",,"10261,1,99999,9",,,,"MET081METAR LPGR 250800Z 07007KT 9000 SCT003 BKN010 18/17 Q1026 RMK WIND RWY09 06010KT;",
"08515599999","2010-06-25T09:00:00","4","39.092169","-28.029847","26.21","GRACIOSA, PO","FM-15","LPGR ","V020","070,1,N,0036,1","00750,1,C,N","011265,1,N,1","+0190,1","+0170,1","99999,9","04,5,+00360,1,99,9","07,5,+00750,1,99,9",,"07,99,1,99,9,99,9,99999,9,99,9,99,9",,"10261,1,99999,9",,,,"MET081METAR LPGR 250900Z 07007KT 9999 SCT012 BKN025 19/17 Q1026 RMK WIND RWY09 06010KT;",
"08515599999","2010-06-25T14:00:00","4","39.092169","-28.029847","26.21","GRACIOSA, PO","FM-15","LPGR ","V020","100,1,N,0062,1","00900,1,C,N","011265,1,N,1","+0220,1","+0160,1","99999,9","04,5,+00420,1,99,9","07,5,+00900,1,99,9",,"07,99,1,99,9,99,9,99999,9,99,9,99,9",,"10251,1,99999,9",,,,"MET081METAR LPGR 251400Z 10012KT 9999 SCT014 BKN030 22/16 Q1025 RMK WIND RWY09 09012KT;",
"08515599999","2010-06-25T16:00:00","4","39.092169","-28.029847","26.21","GRACIOSA, PO","FM-15","LPGR ","V020","100,1,N,0062,1","00900,1,C,N","011265,1,N,1","+0210,1","+0160,1","99999,9","04,5,+00450,1,99,9","07,5,+00900,1,99,9",,"07,99,1,99,9,99,9,99999,9,99,9,99,9","999,M,+9999,9","10251,1,99999,9",,,,"MET081METAR LPGR 251600Z 10012KT 9999 SCT015 BKN030 21/16 Q1025 RMK WIND RWY09 11012KT;","Q01 -00122ATMX  "
"08515599999","2010-06-25T17:00:00","4","39.092169","-28.029847","26.21","GRACIOSA, PO","FM-15","LPGR ","V020","110,1,N,0057,1","00300,1,C,N","006000,1,N,1","+0200,1","+0170,1","99999,9","07,5,+00300,1,99,9",,,"07,99,1,99,9,99,9,99999,9,99,9,99,9","999,M,+9999,9","10251,1,99999,9","80,1",,,"MET080METAR LPGR 251700Z 11011KT 6000 -SHRA BKN010 20/17 Q1025 RMK WIND RWY09 10010KT;","Q01 +00102ATMX  "
"08515599999","2010-06-26T14:00:00","4","39.092169","-28.029847","26.21","GRACIOSA, PO","FM-15","LPGR ","V020","999,9,9,9999,9","99999,9,C,N","009000,1,N,1","+0220,1","+0210,1","99999,9","04,5,+00300,1,99,9","04,5,+00360,1,99,9",,"04,99,1,99,9,99,9,99999,9,99,9,99,9",,"10180,1,99999,9",,,,"MET081METAR LPGR 261400Z /////KT 9000 SCT010 SCT012 22/21 Q1018 RMK WIND RWY09 25016KT;","P01 003603SCOCIG"
"08515599999","2010-06-26T15:00:00","4","39.092169","-28.029847","26.21","GRACIOSA, PO","FM-15","LPGR ","V020","999,9,9,9999,9","99999,9,C,N","009000,1,N,1","+0210,1","+0190,1","99999,9","04,5,+00300,1,99,9","04,5,+00360,1,99,9",,"04,99,1,99,9,99,9,99999,9,99,9,99,9",,"10180,1,99999,9",,,,"MET081METAR LPGR 261500Z /////KT 9000 SCT010 SCT012 21/19 Q1018 RMK WIND RWY09 25013KT;","P01 003603SCOCIG"
"08515599999","2010-06-26T16:00:00","4","39.092169","-28.029847","26.21","GRACIOSA, PO","FM-15","LPGR ","V020","999,9,9,9999,9","99999,9,C,N","009000,1,N,1","+0220,1","+0200,1","99999,9","04,5,+00300,1,99,9","04,5,+00360,1,99,9",,"04,99,1,99,9,99,9,99999,9,99,9,99,9",,"10180,1,99999,9",,,,"MET081METAR LPGR 261600Z /////KT 9000 SCT010 SCT012 22/20 Q1018 RMK WIND RWY09 25014KT;","P01 003603SCOCIG"
"08515599999","2010-06-26T17:00:00","4","39.092169","-28.029847","26.21","GRACIOSA, PO","FM-15","LPGR ","V020","999,9,9,9999,9","99999,9,C,N","011265,1,N,1","+0220,1","+0200,1","99999,9","04,5,+00300,1,99,9","04,5,+00390,1,99,9",,"04,99,1,99,9,99,9,99999,9,99,9,99,9",,"10180,1,99999,9",,,,"MET081METAR LPGR 261700Z /////KT 9999 SCT010 SCT013 22/20 Q1018 RMK WIND RWY09 26015KT;","P01 003903SCOCIG"
"08515599999","2010-06-26T18:00:00","4","39.092169","-28.029847","26.21","GRACIOSA, PO","FM-15","LPGR ","V020","999,9,9,9999,9","99999,9,C,N","011265,1,N,1","+0210,1","+0190,1","99999,9","04,5,+00300,1,99,9","04,5,+00390,1,99,9",,"04,99,1,99,9,99,9,99999,9,99,9,99,9",,"10180,1,99999,9",,,,"MET081METAR LPGR 261800Z /////KT 9999 SCT010 SCT013 21/19 Q1018 RMK WIND RWY09 26013KT;","P01 003903SCOCIG"
"08515599999","2010-06-27T14:00:00","4","39.092169","-28.029847","26.21","GRACIOSA, PO","FM-15","LPGR ","V020","999,9,9,9999,9","99999,9,C,N","011265,1,N,1","+0210,1","+0200,1","99999,9","04,5,+00300,1,99,9","04,5,+00420,1,99,9",,"04,99,1,99,9,99,9,99999,9,99,9,99,9",,"10220,1,99999,9",,,,"MET081METAR LPGR 271400Z /////KT 9999 SCT010 SCT014 21/20 Q1022 RMK WIND RWY09 26009KT;","P01 004203SCOCIG"
"08515599999","2010-06-27T15:00:00","4","39.092169","-28.029847","26.21","GRACIOSA, PO","FM-15","LPGR ","V020","280,1,N,0051,1","00180,1,C,N","009000,1,N,1","+0220,1","+0200,1","99999,9","02,5,+00090,1,99,9","04,5,+00180,1,99,9","07,5,+00360,1,99,9","07,99,1,99,9,99,9,99999,9,99,9,99,9",,"10220,1,99999,9",,,,"MET088METAR LPGR 271500Z 28010KT 9000 FEW003 SCT006 BKN012 22/20 Q1022 RMK WIND RWY09 26009KT;",
"08515599999","2010-06-27T16:00:00","4","39.092169","-28.029847","26.21","GRACIOSA, PO","FM-15","LPGR ","V020","280,1,N,0057,1","00180,1,C,N","008000,1,N,1","+0220,1","+0210,1","99999,9","02,5,+00060,1,99,9","07,5,+00180,1,99,9",,"07,99,1,99,9,99,9,99999,9,99,9,99,9",,"10220,1,99999,9",,,,"MET081METAR LPGR 271600Z 28011KT 8000 FEW002 BKN006 22/21 Q1022 RMK WIND RWY09 27012KT;",
"08515599999","2010-06-27T17:00:00","4","39.092169","-28.029847","26.21","GRACIOSA, PO","FM-15","LPGR ","V020","270,1,N,0051,1","00180,1,C,N","009000,1,N,1","+0220,1","+0200,1","99999,9","02,5,+00090,1,99,9","04,5,+00180,1,99,9","07,5,+00300,1,99,9","07,99,1,99,9,99,9,99999,9,99,9,99,9",,"10220,1,99999,9",,,,"MET088METAR LPGR 271700Z 27010KT 9000 FEW003 SCT006 BKN010 22/20 Q1022 RMK WIND RWY09 26010KT;",
"08515599999","2010-06-28T09:00:00","4","39.092169","-28.029847","26.21","GRACIOSA, PO","FM-15","LPGR ","V020","300,1,N,0046,1","00090,1,C,N","003000,1,N,1","+0200,1","+0190,1","99999,9","02,5,+00030,1,99,9","04,5,+00090,1,99,9","07,5,+00150,1,99,9","07,99,1,99,9,99,9,99999,9,99,9,99,9",,"10251,1,99999,9","10,1","51,1",,"MET095METAR LPGR 280900Z 30009KT 3000 -DZ BR FEW001 SCT003 BKN005 20/19 Q1025 RMK WIND RWY09 30009KT;",
"08515599999","2010-06-28T10:00:00","4","39.092169","-28.029847","26.21","GRACIOSA, PO","FM-15","LPGR ","V020","300,1,N,0036,1","99999,9,C,N","011265,1,N,1","+0220,1","+0190,1","99999,9","04,5,+00300,1,99,9","04,5,+00750,1,99,9",,"04,99,1,99,9,99,9,99999,9,99,9,99,9",,"10251,1,99999,9",,,,"MET081METAR LPGR 281000Z 30007KT 9999 SCT010 SCT025 22/19 Q1025 RMK WIND RWY09 29007KT;","P01 007503SCOCIG"
"08515599999","2010-06-28T14:00:00","4","39.092169","-28.029847","26.21","GRACIOSA, PO","FM-15","LPGR ","V020","300,1,N,0041,1","00300,1,C,N","011265,1,N,1","+0220,1","+0190,1","99999,9","07,5,+00300,1,99,9",,,"07,99,1,99,9,99,9,99999,9,99,9,99,9",,"10271,1,99999,9",,,,"MET074METAR LPGR 281400Z 30008KT 9999 BKN010 22/19 Q1027 RMK WIND RWY09 30009KT;",
"08515599999","2010-06-28T15:00:00","4","39.092169","-28.029847","26.21","GRACIOSA, PO","FM-15","LPGR ","V020","320,1,N,0046,1","00750,1,C,N","011265,1,N,1","+0220,1","+0200,1","99999,9","04,5,+00300,1,99,9","07,5,+00750,1,99,9",,"07,99,1,99,9,99,9,99999,9,99,9,99,9",,"10271,1,99999,9",,,,"MET081METAR LPGR 281500Z 32009KT 9999 SCT010 BKN025 22/20 Q1027 RMK WIND RWY09 29008KT;",
"08515599999","2010-06-28T16:00:00","4","39.092169","-28.029847","26.21","GRACIOSA, PO","FM-15","LPGR ","V020","340,1,N,0036,1","00750,1,C,N","011265,1,N,1","+0230,1","+0200,1","99999,9","04,5,+00330,1,99,9","07,5,+00750,1,99,9",,"07,99,1,99,9,99,9,99999,9,99,9,99,9",,"10271,1,99999,9",,,,"MET081METAR LPGR 281600Z 34007KT 9999 SCT011 BKN025 23/20 Q1027 RMK WIND RWY09 32009KT;",
"08515599999","2010-06-28T17:00:00","4","39.092169","-28.029847","26.21","GRACIOSA, PO","FM-15","LPGR ","V020","320,1,N,0036,1","00900,1,C,N","011265,1,N,1","+0220,1","+0190,1","99999,9","02,5,+00360,1,99,9","07,5,+00900,1,99,9",,"07,99,1,99,9,99,9,99999,9,99,9,99,9",,"10271,1,99999,9",,,,"MET081METAR LPGR 281700Z 32007KT 9999 FEW012 BKN030 22/19 Q1027 RMK WIND RWY09 31008KT;",
"08515599999","2010-06-29T14:00:00","4","39.092169","-28.029847","26.21","GRACIOSA, PO","FM-15","LPGR ","V020","290,1,N,0026,1","00900,1,C,N","011265,1,N,1","+0220,1","+0180,1","99999,9","02,5,+00450,1,99,9","07,5,+00900,1,99,9",,"07,99,1,99,9,99,9,99999,9,99,9,99,9",,"10291,1,99999,9",,,,"MET081METAR LPGR 291400Z 29005KT 9999 FEW015 BKN030 22/18 Q1029 RMK WIND RWY09 23007KT;",
"08515599999","2010-06-29T15:00:00","4","39.092169","-28.029847","26.21","GRACIOSA, PO","FM-15","LPGR ","V020","260,1,N,0051,1","00900,1,C,N","011265,1,N,1","+0220,1","+0180,1","99999,9","02,5,+00480,1,99,9","07,5,+00900,1,99,9",,"07,99,1,99,9,99,9,99999,9,99,9,99,9",,"10291,1,99999,9",,,,"MET081METAR LPGR 291500Z 26010KT 9999 FEW016 BKN030 22/18 Q1029 RMK WIND RWY09 25008KT;",
"08515599999","2010-06-29T16:00:00","4","39.092169","-28.029847","26.21","GRACIOSA, PO","FM-15","LPGR ","V020","290,1,N,0036,1","99999,9,C,N","011265,1,N,1","+0220,1","+0170,1","99999,9","02,5,+00480,1,99,9","04,5,+01050,1,99,9",,"04,99,1,99,9,99,9,99999,9,99,9,99,9",,"10291,1,99999,9",,,,"MET081METAR LPGR 291600Z 29007KT 9999 FEW016 SCT035 22/17 Q1029 RMK WIND RWY09 27009KT;","P01 010503SCOCIG"
"08515599999","2010-06-29T17:00:00","4","39.092169","-28.029847","26.21","GRACIOSA, PO","FM-15","LPGR ","V020","280,1,N,0051,1","22000,1,9,N","011265,1,N,1","+0230,1","+0180,1","99999,9","02,5,+00480,1,99,9",,,"02,99,1,99,9,99,9,99999,9,99,9,99,9",,"10291,1,99999,9",,,,"MET074METAR LPGR 291700Z 28010KT 9999 FEW016 23/18 Q1029 RMK WIND RWY09 27010KT;",
"08515599999","2010-06-29T18:00:00","4","39.092169","-28.029847","26.21","GRACIOSA, PO","FM-15","LPGR ","V020","270,1,N,0046,1","22000,1,9,N","011265,1,N,1","+0230,1","+0180,1","99999,9","02,5,+00480,1,99,9",,,"02,99,1,99,9,99,9,99999,9,99,9,99,9",,"10281,1,99999,9",,,,"MET074METAR LPGR 291800Z 27009KT 9999 FEW016 23/18 Q1028 RMK WIND RWY09 26009KT;",
"08515599999","2010-06-30T09:00:00","4","39.092169","-28.029847","26.21","GRACIOSA, PO","FM-15","LPGR ","V020","250,1,N,0087,1","22000,1,9,N","011265,1,N,1","+0210,1","+0190,1","99999,9","02,5,+00360,1,99,9",,,"02,99,1,99,9,99,9,99999,9,99,9,99,9",,"10261,1,99999,9",,,,"MET074METAR LPGR 300900Z 25017KT 9999 FEW012 21/19 Q1026 RMK WIND RWY09 25015KT;",
"08515599999","2010-06-30T10:00:00","4","39.092169","-28.029847","26.21","GRACIOSA, PO","FM-15","LPGR ","V020","260,1,N,0082,1","22000,1,9,N","011265,1,N,1","+0220,1","+0200,1","99999,9","04,5,+00300,1,99,9",,,"04,99,1,99,9,99,9,99999,9,99,9,99,9",,"10261,1,99999,9",,,,"MET074METAR LPGR 301000Z 26016KT 9999 SCT010 22/20 Q1026 RMK WIND RWY09 25017KT;",
"08515599999","2010-06-30T11:00:00","4","39.092169","-28.029847","26.21","GRACIOSA, PO","FM-15","LPGR ","V020","250,1,N,0103,1","22000,1,9,N","011265,1,N,1","+0220,1","+0190,1","99999,9","02,5,+00330,1,99,9",,,"02,99,1,99,9,99,9,99999,9,99,9,99,9",,"10251,1,99999,9",,,,"MET074METAR LPGR 301100Z 25020KT 9999 FEW011 22/19 Q1025 RMK WIND RWY09 25017KT;",
"08515599999","2010-06-30T12:00:00","4","39.092169","-28.029847","26.21","GRACIOSA, PO","FM-15","LPGR ","V020","260,1,N,0098,1","00750,1,C,N","011265,1,N,1","+0230,1","+0190,1","99999,9","04,5,+00330,1,99,9","07,5,+00750,1,99,9",,"07,99,1,99,9,99,9,99999,9,99,9,99,9",,"10261,1,99999,9",,,,"MET081METAR LPGR 301200Z 26019KT 9999 SCT011 BKN025 23/19 Q1026 RMK WIND RWY09 25017KT;",
"08515599999","2010-06-30T13:00:00","4","39.092169","-28.029847","26.21","GRACIOSA, PO","FM-15","LPGR ","V020","260,1,N,0103,1","99999,9,C,N","011265,1,N,1","+0230,1","+0200,1","99999,9","02,5,+00300,1,99,9","04,5,+00750,1,99,9",,"04,99,1,99,9,99,9,99999,9,99,9,99,9",,"10251,1,99999,9",,,,"MET081METAR LPGR 301300Z 26020KT 9999 FEW010 SCT025 23/20 Q1025 RMK WIND RWY09 25019KT;","P01 007503SCOCIG"
"08515599999","2010-06-30T14:00:00","4","39.092169","-28.029847","26.21","GRACIOSA, PO","FM-15","LPGR ","V020","260,1,N,0098,1","00750,1,C,N","011265,1,N,1","+0230,1","+0200,1","99999,9","04,5,+00300,1,99,9","07,5,+00750,1,99,9",,"07,99,1,99,9,99,9,99999,9,99,9,99,9",,"10251,1,99999,9",,,,"MET081METAR LPGR 301400Z 26019KT 9999 SCT010 BKN025 23/20 Q1025 RMK WIND RWY09 25017KT;",
"08515599999","2010-06-30T15:00:00","4","39.092169","-28.029847","26.21","GRACIOSA, PO","FM-15","LPGR ","V020","260,1,N,0093,1","22000,1,9,N","011265,1,N,1","+0230,1","+0200,1","99999,9","02,5,+00330,1,99,9",,,"02,99,1,99,9,99,9,99999,9,99,9,99,9",,"10240,1,99999,9",,,,"MET074METAR LPGR 301500Z 26018KT 9999 FEW011 23/20 Q1024 RMK WIND RWY09 25017KT;",
"08515599999","2010-06-30T16:00:00","4","39.092169","-28.029847","26.21","GRACIOSA, PO","FM-15","LPGR ","V020","260,1,N,0103,1","22000,1,9,N","011265,1,N,1","+0230,1","+0200,1","99999,9","02,5,+00330,1,99,9",,,"02,99,1,99,9,99,9,99999,9,99,9,99,9",,"10240,1,99999,9",,,,"MET074METAR LPGR 301600Z 26020KT 9999 FEW011 23/20 Q1024 RMK WIND RWY09 25019KT;",
"08515599999","2010-06-30T17:00:00","4","39.092169","-28.029847","26.21","GRACIOSA, PO","FM-15","LPGR ","V020","260,1,N,0103,1","99999,9,C,N","011265,1,N,1","+0230,1","+0200,1","99999,9","02,5,+00330,1,99,9","04,5,+02400,1,99,9",,"04,99,1,99,9,99,9,99999,9,99,9,99,9",,"10240,1,99999,9",,,,"MET081METAR LPGR 301700Z 26020KT 9999 FEW011 SCT080 23/20 Q1024 RMK WIND RWY09 25018KT;","P01 024003SCOCIG"
"08515599999","2010-07-01T08:00:00","4","39.092169","-28.029847","26.21","GRACIOSA, PO","FM-15","LPGR ","V020","270,1,N,0093,1","00300,1,C,N","006000,1,N,1","+0210,1","+0200,1","99999,9","02,5,+00150,1,99,9","07,5,+00300,1,99,9",,"07,99,1,99,9,99,9,99999,9,99,9,99,9",,"10200,1,99999,9",,,,"MET081METAR LPGR 010800Z 27018KT 6000 FEW005 BKN010 21/20 Q1020 RMK WIND RWY09 26017KT;",
"08515599999","2010-07-01T09:00:00","4","39.092169","-28.029847","26.21","GRACIOSA, PO","FM-15","LPGR ","V020","270,1,N,0093,1","00150,1,C,N","003000,1,N,1","+0210,1","+0200,1","99999,9","02,5,+00090,1,99,9","04,5,+00150,1,99,9","07,5,+00300,1,99,9","07,99,1,99,9,99,9,99999,9,99,9,99,9",,"10190,1,99999,9","10,1",,,"MET091METAR LPGR 010900Z 27018KT 3000 BR FEW003 SCT005 BKN010 21/20 Q1019 RMK WIND RWY09 26015KT;",
"08515599999","2010-07-01T14:00:00","4","39.092169","-28.029847","26.21","GRACIOSA, PO","FM-15","LPGR ","V020","320,1,N,0046,1","00300,1,C,N","011265,1,N,1","+0210,1","+0200,1","99999,9","02,5,+00180,1,99,9","07,5,+00300,1,99,9",,"07,99,1,99,9,99,9,99999,9,99,9,99,9",,"10190,1,99999,9",,,,"MET081METAR LPGR 011400Z 32009KT 9999 FEW006 BKN010 21/20 Q1019 RMK WIND RWY09 31009KT;",
"08515599999","2010-07-01T15:00:00","4","39.092169","-28.029847","26.21","GRACIOSA, PO","FM-15","LPGR ","V020","010,1,N,0041,1","00300,1,C,N","005000,1,N,1","+0210,1","+0200,1","99999,9","04,5,+00060,1,99,9","07,5,+00300,1,99,9",,"07,99,1,99,9,99,9,99999,9,99,9,99,9",,"10190,1,99999,9","10,1",,,"MET084METAR LPGR 011500Z 01008KT 5000 BR SCT002 BKN010 21/20 Q1019 RMK WIND RWY09 35007KT;",
"08515599999","2010-07-01T16:00:00","4","39.092169","-28.029847","26.21","GRACIOSA, PO","FM-15","LPGR ","V020","040,1,N,0036,1","00300,1,C,N","011265,1,N,1","+0210,1","+0200,1","99999,9","02,5,+00180,1,99,9","07,5,+00300,1,99,9",,"07,99,1,99,9,99,9,99999,9,99,9,99,9",,"10190,1,99999,9",,,,"MET081METAR LPGR 011600Z 04007KT 9999 FEW006 BKN010 21/20 Q1019 RMK WIND RWY09 04010KT;",
"08515599999","2010-07-01T18:00:00","4","39.092169","-28.029847","26.21","GRACIOSA, PO","FM-15","LPGR ","V020","040,1,N,0046,1","00750,1,C,N","011265,1,N,1","+0200,1","+0180,1","99999,9","04,5,+00330,1,99,9","07,5,+00750,1,99,9",,"07,99,1,99,9,99,9,99999,9,99,9,99,9",,"10200,1,99999,9",,,,"MET081METAR LPGR 011800Z 04009KT 9999 SCT011 BKN025 20/18 Q1020 RMK WIND RWY09 04011KT;",
"08515599999","2010-07-02T14:00:00","4","39.092169","-28.029847","26.21","GRACIOSA, PO","FM-15","LPGR ","V020","050,1,N,0036,1","22000,1,9,N","011265,1,N,1","+0210,1","+0130,1","99999,9","02,5,+00600,1,99,9",,,"02,99,1,99,9,99,9,99999,9,99,9,99,9",,"10251,1,99999,9",,,,"MET074METAR LPGR 021400Z 05007KT 9999 FEW020 21/13 Q1025 RMK WIND RWY09 05010KT;",
"08515599999","2010-07-02T15:00:00","4","39.092169","-28.029847","26.21","GRACIOSA, PO","FM-15","LPGR ","V020","050,1,N,0036,1","22000,1,9,N","011265,1,N,1","+0210,1","+0140,1","99999,9","02,5,+00600,1,99,9",,,"02,99,1,99,9,99,9,99999,9,99,9,99,9",,"10251,1,99999,9",,,,"MET074METAR LPGR 021500Z 05007KT 9999 FEW020 21/14 Q1025 RMK WIND RWY09 04010KT;",
"08515599999","2010-07-02T16:00:00","4","39.092169","-28.029847","26.21","GRACIOSA, PO","FM-15","LPGR ","V020","060,1,N,0036,1","22000,1,9,N","011265,1,N,1","+0220,1","+0130,1","99999,9","02,5,+00600,1,99,9",,,"02,99,1,99,9,99,9,99999,9,99,9,99,9",,"10251,1,99999,9",,,,"MET074METAR LPGR 021600Z 06007KT 9999 FEW020 22/13 Q1025 RMK WIND RWY09 06008KT;",
"08515599999","2010-07-03T15:00:00","4","39.092169","-28.029847","26.21","GRACIOSA, PO","FM-15","LPGR ","V020","060,1,N,0021,1","99999,9,C,N","011265,1,N,1","+0210,1","+0150,1","99999,9","02,5,+00600,1,99,9","04,5,+01050,1,99,9",,"04,99,1,99,9,99,9,99999,9,99,9,99,9",,"10281,1,99999,9",,,,"MET081METAR LPGR 031500Z 06004KT 9999 FEW020 SCT035 21/15 Q1028 RMK WIND RWY09 06005KT;","P01 010503SCOCIG"
"08515599999","2010-07-03T16:00:00","4","39.092169","-28.029847","26.21","GRACIOSA, PO","FM-15","LPGR ","V020","060,1,N,0021,1","99999,9,C,N","011265,1,N,1","+0220,1","+0140,1","99999,9","02,5,+00600,1,99,9","04,5,+01050,1,99,9",,"04,99,1,99,9,99,9,99999,9,99,9,99,9",,"10281,1,99999,9",,,,"MET081METAR LPGR 031600Z 06004KT 9999 FEW020 SCT035 22/14 Q1028 RMK WIND RWY09 07005KT;","P01 010503SCOCIG"
"08515599999","2010-07-03T17:00:00","4","39.092169","-28.029847","26.21","GRACIOSA, PO","FM-15","LPGR ","V020","040,1,N,0026,1","22000,1,9,N","011265,1,N,1","+0220,1","+0150,1","99999,9","02,5,+00600,1,99,9",,,"02,99,1,99,9,99,9,99999,9,99,9,99,9",,"10281,1,99999,9",,,,"MET074METAR LPGR 031700Z 04005KT 9999 FEW020 22/15 Q1028 RMK WIND RWY09 05007KT;",
"08515599999","2010-07-03T18:00:00","4","39.092169","-28.029847","26.21","GRACIOSA, PO","FM-15","LPGR ","V020","060,1,N,0026,1","22000,1,9,N","011265,1,N,1","+0210,1","+0150,1","99999,9","02,5,+00600,1,99,9",,,"02,99,1,99,9,99,9,99999,9,99,9,99,9",,"10281,1,99999,9",,,,"MET074METAR LPGR 031800Z 06005KT 9999 FEW020 21/15 Q1028 RMK WIND RWY09 07007KT;",
"08515599999","2010-07-03T19:00:00","4","39.092169","-28.029847","26.21","GRACIOSA, PO","FM-15","LPGR ","V020","070,1,N,0026,1","22000,1,9,N","011265,1,N,1","+0220,1","+0150,1","99999,9","02,5,+00600,1,99,9",,,"02,99,1,99,9,99,9,99999,9,99,9,99,9",,"10281,1,99999,9",,,,"MET074METAR LPGR 031900Z 07005KT 9999 FEW020 22/15 Q1028 RMK WIND RWY09 07007KT;",
"08515599999","2010-07-05T15:00:00","4","39.092169","-28.029847","26.21","GRACIOSA, PO","FM-15","LPGR ","V020","110,1,N,0057,1","22000,1,9,N","011265,1,N,1","+0230,1","+0170,1","99999,9","02,5,+00600,1,99,9",,,"02,99,1,99,9,99,9,99999,9,99,9,99,9",,"10312,1,99999,9",,,,"MET074METAR LPGR 051500Z 11011KT 9999 FEW020 23/17 Q1031 RMK WIND RWY09 09008KT;",
"08515599999","2010-07-05T16:00:00","4","39.092169","-28.029847","26.21","GRACIOSA, PO","FM-15","LPGR ","V020","110,1,N,0051,1","22000,1,9,N","011265,1,N,1","+0230,1","+0170,1","99999,9","02,5,+00600,1,99,9",,,"02,99,1,99,9,99,9,99999,9,99,9,99,9",,"10312,1,99999,9",,,,"MET074METAR LPGR 051600Z 11010KT 9999 FEW020 23/17 Q1031 RMK WIND RWY09 08012KT;",
"08515599999","2010-07-05T17:00:00","4","39.092169","-28.029847","26.21","GRACIOSA, PO","FM-15","LPGR ","V020","100,1,N,0046,1","22000,1,9,N","011265,1,N,1","+0230,1","+0170,1","99999,9","02,5,+00600,1,99,9",,,"02,99,1,99,9,99,9,99999,9,99,9,99,9","999,M,+9999,9","10312,1,99999,9",,,,"MET074METAR LPGR 051700Z 10009KT 9999 FEW020 23/17 Q1031 RMK WIND RWY09 10012KT;","Q01 +00122ATMX  "
"08515599999","2010-07-06T07:00:00","4","39.092169","-28.029847","26.21","GRACIOSA, PO","FM-15","LPGR ","V020","140,1,N,0021,1","00360,1,C,N","011265,1,N,1","+0200,1","+0170,1","99999,9","07,5,+00360,1,99,9","07,5,+00750,1,99,9",,"07,99,1,99,9,99,9,99999,9,99,9,99,9",,"10312,1,99999,9",,,,"MET081METAR LPGR 060700Z 14004KT 9999 BKN012 BKN025 20/17 Q1031 RMK WIND RWY09 14002KT;",
"08515599999","2010-07-06T08:00:00","4","39.092169","-28.029847","26.21","GRACIOSA, PO","FM-15","LPGR ","V020","090,1,N,0026,1","00390,1,C,N","011265,1,N,1","+0200,1","+0170,1","99999,9","07,5,+00390,1,99,9","07,5,+00750,1,99,9",,"07,99,1,99,9,99,9,99999,9,99,9,99,9",,"10312,1,99999,9",,,,"MET081METAR LPGR 060800Z 09005KT 9999 BKN013 BKN025 20/17 Q1031 RMK WIND RWY09 06006KT;",
"08515599999","2010-07-06T09:00:00","4","39.092169","-28.029847","26.21","GRACIOSA, PO","FM-15","LPGR ","V020","070,1,N,0021,1","00750,1,C,N","011265,1,N,1","+0210,1","+0180,1","99999,9","04,5,+00420,1,99,9","07,5,+00750,1,99,9",,"07,99,1,99,9,99,9,99999,9,99,9,99,9",,"10312,1,99999,9",,,,"MET081METAR LPGR 060900Z 07004KT 9999 SCT014 BKN025 21/18 Q1031 RMK WIND RWY09 08006KT;",
"08515599999","2010-07-06T10:00:00","4","39.092169","-28.029847","26.21","GRACIOSA, PO","FM-15","LPGR ","V020","110,1,N,0031,1","00750,1,C,N","011265,1,N,1","+0210,1","+0180,1","99999,9","04,5,+00360,1,99,9","07,5,+00750,1,99,9",,"07,99,1,99,9,99,9,99999,9,99,9,99,9","999,M,+9999,9","10318,1,99999,9",,,,"MET081METAR LPGR 061000Z 11006KT 9999 SCT012 BKN025 21/18 Q1032 RMK WIND RWY09 10006KT;","Q01 +00062ATMX  "
"08515599999","2010-07-06T11:00:00","4","39.092169","-28.029847","26.21","GRACIOSA, PO","FM-15","LPGR ","V020","090,1,N,0026,1","00750,1,C,N","011265,1,N,1","+0230,1","+0170,1","99999,9","02,5,+00420,1,99,9","07,5,+00750,1,99,9",,"07,99,1,99,9,99,9,99999,9,99,9,99,9",,"10312,1,99999,9",,,,"MET081METAR LPGR 061100Z 09005KT 9999 FEW014 BKN025 23/17 Q1031 RMK WIND RWY09 07006KT;",
"08515599999","2010-07-06T12:00:00","4","39.092169","-28.029847","26.21","GRACIOSA, PO","FM-15","LPGR ","V020","090,1,N,0031,1","00900,1,C,N","011265,1,N,1","+0240,1","+0180,1","99999,9","02,5,+00420,1,99,9","07,5,+00900,1,99,9",,"07,99,1,99,9,99,9,99999,9,99,9,99,9",,"10312,1,99999,9",,,,"MET081METAR LPGR 061200Z 09006KT 9999 FEW014 BKN030 24/18 Q1031 RMK WIND RWY09 07006KT;",
"08515599999","2010-07-06T13:00:00","4","39.092169","-28.029847","26.21","GRACIOSA, PO","FM-15","LPGR ","V020","100,1,N,0041,1","00900,1,C,N","011265,1,N,1","+0230,1","+0180,1","99999,9","02,5,+00360,1,99,9","07,5,+00900,1,99,9",,"07,99,1,99,9,99,9,99999,9,99,9,99,9","999,M,+9999,9","10312,1,99999,9",,,,"MET081METAR LPGR 061300Z 10008KT 9999 FEW012 BKN030 23/18 Q1031 RMK WIND RWY09 10008KT;","Q01 +00082ATMX  "
"08515599999","2010-07-06T14:00:00","4","39.092169","-28.029847","26.21","GRACIOSA, PO","FM-15","LPGR ","V020","070,1,N,0026,1","00900,1,C,N","011265,1,N,1","+0230,1","+0180,1","99999,9","02,5,+00360,1,99,9","07,5,+00900,1,99,9",,"07,99,1,99,9,99,9,99999,9,99,9,99,9",,"10312,1,99999,9",,,,"MET081METAR LPGR 061400Z 07005KT 9999 FEW012 BKN030 23/18 Q1031 RMK WIND RWY09 07008KT;",
"08515599999","2010-07-06T15:00:00","4","39.092169","-28.029847","26.21","GRACIOSA, PO","FM-15","LPGR ","V020","100,1,N,0036,1","00900,1,C,N","011265,1,N,1","+0230,1","+0180,1","99999,9","02,5,+00390,1,99,9","07,5,+00900,1,99,9",,"07,99,1,99,9,99,9,99999,9,99,9,99,9",,"10301,1,99999,9",,,,"MET081METAR LPGR 061500Z 10007KT 9999 FEW013 BKN030 23/18 Q1030 RMK WIND RWY09 09009KT;",
"08515599999","2010-07-06T16:00:00","4","39.092169","-28.029847","26.21","GRACIOSA, PO","FM-15","LPGR ","V020","110,1,N,0041,1","22000,1,9,N","011265,1,N,1","+0240,1","+0180,1","99999,9","02,5,+00420,1,99,9",,,"02,99,1,99,9,99,9,99999,9,99,9,99,9","999,M,+9999,9","10301,1,99999,9",,,,"MET074METAR LPGR 061600Z 11008KT 9999 FEW014 24/18 Q1030 RMK WIND RWY09 10008KT;","Q01 +00082ATMX  "
"08515599999","2010-07-06T17:00:00","4","39.092169","-28.029847","26.21","GRACIOSA, PO","FM-15","LPGR ","V020","080,1,N,0031,1","22000,1,9,N","011265,1,N,1","+0240,1","+0180,1","99999,9","02,5,+00420,1,99,9",,,"02,99,1,99,9,99,9,99999,9,99,9,99,9",,"10291,1,99999,9",,,,"MET074METAR LPGR 061700Z 08006KT 9999 FEW014 24/18 Q1029 RMK WIND RWY09 09008KT;",
"08515599999","2010-07-06T18:00:00","4","39.092169","-28.029847","26.21","GRACIOSA, PO","FM-15","LPGR ","V020","070,1,N,0036,1","22000,1,9,N","011265,1,N,1","+0230,1","+0170,1","99999,9","02,5,+00420,1,99,9",,,"02,99,1,99,9,99,9,99999,9,99,9,99,9",,"10291,1,99999,9",,,,"MET074METAR LPGR 061800Z 07007KT 9999 FEW014 23/17 Q1029 RMK WIND RWY09 06008KT;",
"08515599999","2010-07-07T07:00:00","4","39.092169","-28.029847","26.21","GRACIOSA, PO","FM-15","LPGR ","V020","110,1,N,0021,1","22000,1,9,N","006000,1,N,1","+0190,1","+0180,1","99999,9","04,5,+00300,5,99,9",,,,"999,M,+9999,9","10270,1,99999,9","51,1",,,"MET084METAR LPGR 070700Z 11004KT 6000 -DZ ST005 SCT010 19/18 Q1027 RMK WIND RWY09 11005KT;","Q01 -00052ATMX  "
"08515599999","2010-07-07T08:00:00","4","39.092169","-28.029847","26.21","GRACIOSA, PO","FM-15","LPGR ","V020","110,1,N,0015,1","00030,1,9,N","011265,1,N,1","+0190,1","+0180,1","99999,9","07,1,+00030,1,99,9",,,"07,99,1,99,9,99,9,99999,9,99,9,99,9","999,M,+9999,9","10281,1,99999,9",,,,"MET075METAR LPGR 070800Z 11003KT 9999 BKN0012 19/18 Q1028 RMK WIND RWY09 11002KT;","Q01 -00022ATMX  "
"08515599999","2010-07-07T09:00:00","4","39.092169","-28.029847","26.21","GRACIOSA, PO","FM-15","LPGR ","V020","050,1,N,0021,1","00330,1,C,N","011265,1,N,1","+0200,1","+0180,1","99999,9","07,5,+00330,1,99,9",,,"07,99,1,99,9,99,9,99999,9,99,9,99,9",,"10271,1,99999,9",,,,"MET074METAR LPGR 070900Z 05004KT 9999 BKN011 20/18 Q1027 RMK WIND RWY09 04006KT;",
"08515599999","2010-07-07T10:00:00","4","39.092169","-28.029847","26.21","GRACIOSA, PO","FM-15","LPGR ","V020","030,1,N,0015,1","00360,1,C,N","006000,1,N,1","+0200,1","+0180,1","99999,9","07,5,+00360,1,99,9",,,"07,99,1,99,9,99,9,99999,9,99,9,99,9",,"10281,1,99999,9","80,1",,,"MET080METAR LPGR 071000Z 03003KT 6000 -SHRA BKN012 20/18 Q1028 RMK WIND RWY09 04004KT;",
"08515599999","2010-07-07T11:00:00","4","39.092169","-28.029847","26.21","GRACIOSA, PO","FM-15","LPGR ","V020","030,1,N,0015,1","00360,1,C,N","011265,1,N,1","+0220,1","+0180,1","99999,9","07,5,+00360,1,99,9",,,"07,99,1,99,9,99,9,99999,9,99,9,99,9",,"10281,1,99999,9",,,,"MET074METAR LPGR 071100Z 03003KT 9999 BKN012 22/18 Q1028 RMK WIND RWY09 30002KT;",
"08515599999","2010-07-07T12:00:00","4","39.092169","-28.029847","26.21","GRACIOSA, PO","FM-15","LPGR ","V020","060,1,N,0026,1","00900,1,C,N","011265,1,N,1","+0220,1","+0170,1","99999,9","04,5,+00420,1,99,9","07,5,+00900,1,99,9",,"07,99,1,99,9,99,9,99999,9,99,9,99,9",,"10271,1,99999,9",,,,"MET081METAR LPGR 071200Z 06005KT 9999 SCT014 BKN030 22/17 Q1027 RMK WIND RWY09 05006KT;",
"08515599999","2010-07-07T14:00:00","4","39.092169","-28.029847","26.21","GRACIOSA, PO","FM-15","LPGR ","V020","050,1,N,0026,1","22000,1,9,N","011265,1,N,1","+0240,1","+0180,1","99999,9","02,5,+00420,1,99,9",,,"02,99,1,99,9,99,9,99999,9,99,9,99,9",,"10271,1,99999,9",,,,"MET074METAR LPGR 071400Z 05005KT 9999 FEW014 24/18 Q1027 RMK WIND RWY09 05006KT;",
"08515599999","2010-07-07T15:00:00","4","39.092169","-28.029847","26.21","GRACIOSA, PO","FM-15","LPGR ","V020","080,1,N,0015,1","00420,1,C,N","011265,1,N,1","+0230,1","+0180,1","99999,9","07,5,+00420,1,99,9",,,"07,99,1,99,9,99,9,99999,9,99,9,99,9",,"10271,1,99999,9",,,,"MET074METAR LPGR 071500Z 08003KT 9999 BKN014 23/18 Q1027 RMK WIND RWY09 03004KT;",
"08515599999","2010-07-07T17:00:00","4","39.092169","-28.029847","26.21","GRACIOSA, PO","FM-15","LPGR ","V020","130,1,N,0021,1","00390,1,C,N","009000,1,N,1","+0210,1","+0190,1","99999,9","07,5,+00390,1,99,9",,,"07,99,1,99,9,99,9,99999,9,99,9,99,9",,"10261,1,99999,9","80,1",,,"MET080METAR LPGR 071700Z 13004KT 9000 -SHRA BKN013 21/19 Q1026 RMK WIND RWY09 15004KT;",
"08515599999","2010-07-08T07:00:00","4","39.092169","-28.029847","26.21","GRACIOSA, PO","FM-15","LPGR ","V020","310,1,N,0041,1","00900,1,C,N","011265,1,N,1","+0200,1","+0180,1","99999,9","04,5,+00420,1,99,9","07,5,+00900,1,99,9",,"07,99,1,99,9,99,9,99999,9,99,9,99,9",,"10230,1,99999,9",,,,"MET081METAR LPGR 080700Z 31008KT 9999 SCT014 BKN030 20/18 Q1023 RMK WIND RWY09 30009KT;",
"08515599999","2010-07-08T08:00:00","4","39.092169","-28.029847","26.21","GRACIOSA, PO","FM-15","LPGR ","V020","240,1,N,0026,1","00900,1,C,N","011265,1,N,1","+0200,1","+0180,1","99999,9","02,5,+00420,1,99,9","07,5,+00900,1,99,9",,"07,99,1,99,9,99,9,99999,9,99,9,99,9",,"10230,1,99999,9",,,,"MET081METAR LPGR 080800Z 24005KT 9999 FEW014 BKN030 20/18 Q1023 RMK WIND RWY09 25005KT;",
"08515599999","2010-07-08T14:00:00","4","39.092169","-28.029847","26.21","GRACIOSA, PO","FM-15","LPGR ","V020","240,1,N,0062,1","22000,1,9,N","011265,1,N,1","+0240,1","+0170,1","99999,9","02,5,+00600,1,99,9",,,"02,99,1,99,9,99,9,99999,9,99,9,99,9",,"10230,1,99999,9",,,,"MET074METAR LPGR 081400Z 24012KT 9999 FEW020 24/17 Q1023 RMK WIND RWY09 22011KT;",
"08515599999","2010-07-08T15:00:00","4","39.092169","-28.029847","26.21","GRACIOSA, PO","FM-15","LPGR ","V020","250,1,N,0062,1","22000,1,9,N","011265,1,N,1","+0250,1","+0190,1","99999,9","02,5,+00600,1,99,9",,,"02,99,1,99,9,99,9,99999,9,99,9,99,9",,"10220,1,99999,9",,,,"MET074METAR LPGR 081500Z 25012KT 9999 FEW020 25/19 Q1022 RMK WIND RWY09 22012KT;",
"08515599999","2010-07-08T16:00:00","4","39.092169","-28.029847","26.21","GRACIOSA, PO","FM-15","LPGR ","V020","280,1,N,0062,1","99999,9,C,N","011265,1,N,1","+0240,1","+0180,1","99999,9","02,5,+00540,1,99,9","04,5,+06300,1,99,9",,"04,99,1,99,9,99,9,99999,9,99,9,99,9",,"10220,1,99999,9",,,,"MET081METAR LPGR 081600Z 28012KT 9999 FEW018 SCT210 24/18 Q1022 RMK WIND RWY09 26013KT;","P01 063003SCOCIG"
"08515599999","2010-07-08T17:00:00","4","39.092169","-28.029847","26.21","GRACIOSA, PO","FM-15","LPGR ","V020","270,1,N,0072,1","22000,1,9,N","011265,1,N,1","+0240,1","+0180,1","99999,9","02,5,+00540,1,99,9",,,"02,99,1,99,9,99,9,99999,9,99,9,99,9",,"10220,1,99999,9",,,,"MET074METAR LPGR 081700Z 27014KT 9999 FEW018 24/18 Q1022 RMK WIND RWY09 26013KT;",
"08515599999","2010-07-09T07:00:00","4","39.092169","-28.029847","26.21","GRACIOSA, PO","FM-15","LPGR ","V020","250,1,N,0067,1","00900,1,C,N","011265,1,N,1","+0210,1","+0190,1","99999,9","04,5,+00360,1,99,9","07,5,+00900,1,99,9",,"07,99,1,99,9,99,9,99999,9,99,9,99,9",,"10190,1,99999,9",,,,"MET081METAR LPGR 090700Z 25013KT 9999 SCT012 BKN030 21/19 Q1019 RMK WIND RWY09 24011KT;",
"08515599999","2010-07-09T08:00:00","4","39.092169","-28.029847","26.21","GRACIOSA, PO","FM-15","LPGR ","V020","250,1,N,0067,1","00900,1,C,N","011265,1,N,1","+0210,1","+0190,1","99999,9","04,5,+00360,1,99,9","07,5,+00900,1,99,9",,"07,99,1,99,9,99,9,99999,9,99,9,99,9",,"10190,1,99999,9",,,,"MET081METAR LPGR 090800Z 25013KT 9999 SCT012 BKN030 21/19 Q1019 RMK WIND RWY09 25015KT;",
"08515599999","2010-07-09T09:00:00","4","39.092169","-28.029847","26.21","GRACIOSA, PO","FM-15","LPGR ","V020","250,1,N,0077,1","01050,1,C,N","011265,1,N,1","+0220,1","+0200,1","99999,9","02,5,+00360,1,99,9","07,5,+01050,1,99,9",,"07,99,1,99,9,99,9,99999,9,99,9,99,9",,"10190,1,99999,9",,,,"MET081METAR LPGR 090900Z 25015KT 9999 FEW012 BKN035 22/20 Q1019 RMK WIND RWY09 25015KT;",
"08515599999","2010-07-09T14:00:00","4","39.092169","-28.029847","26.21","GRACIOSA, PO","FM-15","LPGR ","V020","250,1,N,0108,1","00900,1,C,N","011265,1,N,1","+0240,1","+0200,1","99999,9","02,5,+00390,1,99,9","07,5,+00900,1,99,9",,"07,99,1,99,9,99,9,99999,9,99,9,99,9",,"10200,1,99999,9",,,,"MET081METAR LPGR 091400Z 25021KT 9999 FEW013 BKN030 24/20 Q1020 RMK WIND RWY09 23018KT;",
"08515599999","2010-07-09T15:00:00","4","39.092169","-28.029847","26.21","GRACIOSA, PO","FM-15","LPGR ","V020","250,1,N,0093,1","00900,1,C,N","011265,1,N,1","+0240,1","+0210,1","99999,9","04,5,+00390,1,99,9","07,5,+00900,1,99,9",,"07,99,1,99,9,99,9,99999,9,99,9,99,9",,"10200,1,99999,9",,,,"MET081METAR LPGR 091500Z 25018KT 9999 SCT013 BKN030 24/21 Q1020 RMK WIND RWY09 23016KT;",
"08515599999","2010-07-09T16:00:00","4","39.092169","-28.029847","26.21","GRACIOSA, PO","FM-15","LPGR ","V020","260,1,N,0077,1","00360,1,C,N","009000,1,N,1","+0220,1","+0210,1","99999,9","07,5,+00360,1,99,9",,,"07,99,1,99,9,99,9,99999,9,99,9,99,9",,"10200,1,99999,9","80,1",,,"MET080METAR LPGR 091600Z 26015KT 9000 -SHRA BKN012 22/21 Q1020 RMK WIND RWY09 25015KT;",
"08515599999","2010-07-09T17:00:00","4","39.092169","-28.029847","26.21","GRACIOSA, PO","FM-15","LPGR ","V020","250,1,N,0072,1","00900,1,C,N","011265,1,N,1","+0220,1","+0210,1","99999,9","04,5,+00300,1,99,9","07,5,+00900,1,99,9",,"07,99,1,99,9,99,9,99999,9,99,9,99,9",,"10200,1,99999,9",,,,"MET081METAR LPGR 091700Z 25014KT 9999 SCT010 BKN030 22/21 Q1020 RMK WIND RWY09 25014KT;",
"08515599999","2010-07-10T07:00:00","4","39.092169","-28.029847","26.21","GRACIOSA, PO","FM-15","LPGR ","V020","320,1,N,0010,1","00420,1,C,N","011265,1,N,1","+0180,1","+0160,1","99999,9","07,5,+00420,1,99,9",,,"07,99,1,99,9,99,9,99999,9,99,9,99,9",,"10220,1,99999,9",,,,"MET074METAR LPGR 100700Z 32002KT 9999 BKN014 18/16 Q1022 RMK WIND RWY09 31002KT;",
"08515599999","2010-07-10T08:00:00","4","39.092169","-28.029847","26.21","GRACIOSA, PO","FM-15","LPGR ","V020","020,1,N,0026,1","00300,1,C,N","009000,1,N,1","+0190,1","+0170,1","99999,9","07,5,+00300,1,99,9",,,"07,99,1,99,9,99,9,99999,9,99,9,99,9",,"10230,1,99999,9","80,1",,,"MET080METAR LPGR 100800Z 02005KT 9000 -SHRA BKN010 19/17 Q1023 RMK WIND RWY09 02006KT;",
"08515599999","2010-07-10T09:00:00","4","39.092169","-28.029847","26.21","GRACIOSA, PO","FM-15","LPGR ","V020","050,1,N,0026,1","00900,5,9,N","011265,1,N,1","+0190,1","+0170,1","99999,9","07,5,+00900,5,99,9",,,,,"10240,1,99999,9",,,,"MET080METAR LPGR 100900Z 05005KT 9999 ST014 BKN030 19/17 Q1024 RMK WIND RWY09 06006KT;",
"08515599999","2010-07-10T14:00:00","4","39.092169","-28.029847","26.21","GRACIOSA, PO","FM-15","LPGR ","V020","050,1,N,0026,1","06300,1,C,N","011265,1,N,1","+0230,1","+0160,1","99999,9","02,5,+00540,1,99,9","07,5,+06300,1,99,9",,"07,99,1,99,9,99,9,99999,9,99,9,99,9",,"10240,1,99999,9",,,,"MET081METAR LPGR 101400Z 05005KT 9999 FEW018 BKN210 23/16 Q1024 RMK WIND RWY09 03006KT;",
"08515599999","2010-07-10T15:00:00","4","39.092169","-28.029847","26.21","GRACIOSA, PO","FM-15","LPGR ","V020","090,1,N,0021,1","06300,1,C,N","011265,1,N,1","+0230,1","+0150,1","99999,9","02,5,+00540,1,99,9","07,5,+06300,1,99,9",,"07,99,1,99,9,99,9,99999,9,99,9,99,9",,"10240,1,99999,9",,,,"MET081METAR LPGR 101500Z 09004KT 9999 FEW018 BKN210 23/15 Q1024 RMK WIND RWY09 02006KT;",
"08515599999","2010-07-10T16:00:00","4","39.092169","-28.029847","26.21","GRACIOSA, PO","FM-15","LPGR ","V020","030,1,N,0026,1","06300,1,C,N","011265,1,N,1","+0230,1","+0160,1","99999,9","02,5,+00540,1,99,9","07,5,+06300,1,99,9",,"07,99,1,99,9,99,9,99999,9,99,9,99,9",,"10240,1,99999,9",,,,"MET081METAR LPGR 101600Z 03005KT 9999 FEW018 BKN210 23/16 Q1024 RMK WIND RWY09 03006KT;",
"08515599999","2010-07-10T17:00:00","4","39.092169","-28.029847","26.21","GRACIOSA, PO","FM-15","LPGR ","V020","020,1,N,0026,1","06300,1,C,N","011265,1,N,1","+0240,1","+0150,1","99999,9","02,5,+00540,1,99,9","07,5,+06300,1,99,9",,"07,99,1,99,9,99,9,99999,9,99,9,99,9",,"10240,1,99999,9",,,,"MET081METAR LPGR 101700Z 02005KT 9999 FEW018 BKN210 24/15 Q1024 RMK WIND RWY09 03008KT;",
"08515599999","2010-07-11T07:00:00","4","39.092169","-28.029847","26.21","GRACIOSA, PO","FM-15","LPGR ","V020","260,1,N,0041,1","22000,1,9,N","011265,1,N,1","+0180,1","+0160,1","99999,9","02,5,+00480,1,99,9",,,"02,99,1,99,9,99,9,99999,9,99,9,99,9",,"10230,1,99999,9",,,,"MET076METAR LPGR 110700Z 26008KT 9999 FEW016 18/16 Q1023 RMK E WIND RWY09 27010KT;",
"08515599999","2010-07-11T08:00:00","4","39.092169","-28.029847","26.21","GRACIOSA, PO","FM-15","LPGR ","V020","310,1,N,0057,1","00480,1,C,N","011265,1,N,1","+0200,1","+0160,1","99999,9","07,5,+00480,1,99,9",,,"07,99,1,99,9,99,9,99999,9,99,9,99,9",,"10230,1,99999,9",,,,"MET074METAR LPGR 110800Z 31011KT 9999 BKN016 20/16 Q1023 RMK WIND RWY09 31011KT;",
"08515599999","2010-07-11T09:00:00","4","39.092169","-28.029847","26.21","GRACIOSA, PO","FM-15","LPGR ","V020","310,1,N,0057,1","22000,1,9,N","011265,1,N,1","+0200,1","+0170,1","99999,9","02,5,+00480,1,99,9",,,"02,99,1,99,9,99,9,99999,9,99,9,99,9",,"10230,1,99999,9",,,,"MET074METAR LPGR 110900Z 31011KT 9999 FEW016 20/17 Q1023 RMK WIND RWY09 30010KT;",
"08515599999","2010-07-11T14:00:00","4","39.092169","-28.029847","26.21","GRACIOSA, PO","FM-15","LPGR ","V020","290,1,N,0062,1","22000,1,9,N","011265,1,N,1","+0240,1","+0160,1","99999,9","02,5,+00600,1,99,9",,,"02,99,1,99,9,99,9,99999,9,99,9,99,9",,"10240,1,99999,9",,,,"MET074METAR LPGR 111400Z 29012KT 9999 FEW020 24/16 Q1024 RMK WIND RWY09 27016KT;",
"08515599999","2010-07-11T15:00:00","4","39.092169","-28.029847","26.21","GRACIOSA, PO","FM-15","LPGR ","V020","280,1,N,0067,1","22000,1,9,N","011265,1,N,1","+0240,1","+0170,1","99999,9","02,5,+00600,1,99,9",,,"02,99,1,99,9,99,9,99999,9,99,9,99,9",,"10230,1,99999,9",,,,"MET074METAR LPGR 111500Z 28013KT 9999 FEW020 24/17 Q1023 RMK WIND RWY09 27014KT;",
"08515599999","2010-07-11T16:00:00","4","39.092169","-28.029847","26.21","GRACIOSA, PO","FM-15","LPGR ","V020","270,1,N,0077,1","22000,1,9,N","011265,1,N,1","+0240,1","+0170,1","99999,9","02,5,+00600,1,99,9",,,"02,99,1,99,9,99,9,99999,9,99,9,99,9",,"10230,1,99999,9",,,,"MET074METAR LPGR 111600Z 27015KT 9999 FEW020 24/17 Q1023 RMK WIND RWY09 27014KT;",
"08515599999","2010-07-11T17:00:00","4","39.092169","-28.029847","26.21","GRACIOSA, PO","FM-15","LPGR ","V020","270,1,N,0077,1","01200,1,C,N","011265,1,N,1","+0240,1","+0180,1","99999,9","02,5,+00600,1,99,9","07,5,+01200,1,99,9",,"07,99,1,99,9,99,9,99999,9,99,9,99,9",,"10230,1,99999,9",,,,"MET081METAR LPGR 111700Z 27015KT 9999 FEW020 BKN040 24/18 Q1023 RMK WIND RWY09 26016KT;",
"08515599999","2010-07-12T07:00:00","4","39.092169","-28.029847","26.21","GRACIOSA, PO","FM-15","LPGR ","V020","270,1,N,0041,1","00300,1,C,N","007000,1,N,1","+0210,1","+0200,1","99999,9","04,5,+00180,1,99,9","07,5,+00300,1,99,9",,"07,99,1,99,9,99,9,99999,9,99,9,99,9",,"10240,1,99999,9","51,1",,,"MET085METAR LPGR 120700Z 27008KT 7000 -DZ SCT006 BKN010 21/20 Q1024 RMK WIND RWY09 26009KT;",
"08515599999","2010-07-12T08:00:00","4","39.092169","-28.029847","26.21","GRACIOSA, PO","FM-15","LPGR ","V020","280,1,N,0057,1","00150,1,C,N","003000,1,N,1","+0210,1","+0200,1","99999,9","02,5,+00090,1,99,9","04,5,+00150,1,99,9","07,5,+00300,1,99,9","07,99,1,99,9,99,9,99999,9,99,9,99,9",,"10240,1,99999,9","80,1",,,"MET094METAR LPGR 120800Z 28011KT 3000 -SHRA FEW003 SCT005 BKN010 21/20 Q1024 RMK WIND RWY09 27010KT;",
"08515599999","2010-07-12T09:00:00","4","39.092169","-28.029847","26.21","GRACIOSA, PO","FM-15","LPGR ","V020","340,1,N,0031,1","00150,1,C,N","008000,1,N,1","+0210,1","+0200,1","99999,9","02,5,+00090,1,99,9","04,5,+00150,1,99,9","07,5,+00300,1,99,9","07,99,1,99,9,99,9,99999,9,99,9,99,9",,"10251,1,99999,9",,,,"MET088METAR LPGR 120900Z 34006KT 8000 FEW003 SCT005 BKN010 21/20 Q1025 RMK WIND RWY09 31008KT;",
"08515599999","2010-07-12T10:00:00","4","39.092169","-28.029847","26.21","GRACIOSA, PO","FM-15","LPGR ","V020","330,1,N,0026,1","00300,1,C,N","011265,1,N,1","+0220,1","+0210,1","99999,9","02,5,+00180,1,99,9","04,5,+00300,1,99,9","07,5,+00750,1,99,9","07,99,1,99,9,99,9,99999,9,99,9,99,9",,"10251,1,99999,9",,,,"MET088METAR LPGR 121000Z 33005KT 9999 FEW006 SCT010 BKN025 22/21 Q1025 RMK WIND RWY09 32006KT;",
"08515599999","2010-07-12T11:00:00","4","39.092169","-28.029847","26.21","GRACIOSA, PO","FM-15","LPGR ","V020","330,1,N,0021,1","00900,1,C,N","011265,1,N,1","+0220,1","+0210,1","99999,9","04,5,+00360,1,99,9","07,5,+00900,1,99,9",,"07,99,1,99,9,99,9,99999,9,99,9,99,9",,"10251,1,99999,9",,,,"MET081METAR LPGR 121100Z 33004KT 9999 SCT012 BKN030 22/21 Q1025 RMK WIND RWY09 31005KT;",
"08515599999","2010-07-12T12:00:00","4","39.092169","-28.029847","26.21","GRACIOSA, PO","FM-15","LPGR ","V020","350,1,N,0036,1","01050,1,C,N","011265,1,N,1","+0230,1","+0200,1","99999,9","04,5,+00360,1,99,9","07,5,+01050,1,99,9",,"07,99,1,99,9,99,9,99999,9,99,9,99,9",,"10251,1,99999,9",,,,"MET081METAR LPGR 121200Z 35007KT 9999 SCT012 BKN035 23/20 Q1025 RMK WIND RWY09 32008KT;",
"08515599999","2010-07-12T13:00:00","4","39.092169","-28.029847","26.21","GRACIOSA, PO","FM-15","LPGR ","V020","350,1,N,0036,1","99999,9,C,N","011265,1,N,1","+0240,1","+0200,1","99999,9","02,5,+00360,1,99,9","04,5,+01200,1,99,9",,"04,99,1,99,9,99,9,99999,9,99,9,99,9",,"10261,1,99999,9",,,,"MET081METAR LPGR 121300Z 35007KT 9999 FEW012 SCT040 24/20 Q1026 RMK WIND RWY09 32008KT;","P01 012003SCOCIG"
"08515599999","2010-07-12T14:00:00","4","39.092169","-28.029847","26.21","GRACIOSA, PO","FM-15","LPGR ","V020","350,1,N,0041,1","01050,1,C,N","011265,1,N,1","+0240,1","+0190,1","99999,9","02,5,+00360,1,99,9","07,5,+01050,1,99,9",,"07,99,1,99,9,99,9,99999,9,99,9,99,9",,"10261,1,99999,9",,,,"MET081METAR LPGR 121400Z 35008KT 9999 FEW012 BKN035 24/19 Q1026 RMK WIND RWY09 32008KT;",
"08515599999","2010-07-12T15:00:00","4","39.092169","-28.029847","26.21","GRACIOSA, PO","FM-15","LPGR ","V020","350,1,N,0041,1","22000,1,9,N","011265,1,N,1","+0230,1","+0200,1","99999,9","02,5,+00420,1,99,9",,,"02,99,1,99,9,99,9,99999,9,99,9,99,9",,"10261,1,99999,9",,,,"MET074METAR LPGR 121500Z 35008KT 9999 FEW014 23/20 Q1026 RMK WIND RWY09 32009KT;",
"08515599999","2010-07-12T16:00:00","4","39.092169","-28.029847","26.21","GRACIOSA, PO","FM-15","LPGR ","V020","350,1,N,0036,1","00900,1,C,N","011265,1,N,1","+0230,1","+0200,1","99999,9","02,5,+00450,1,99,9","07,5,+00900,1,99,9",,"07,99,1,99,9,99,9,99999,9,99,9,99,9",,"10261,1,99999,9",,,,"MET081METAR LPGR 121600Z 35007KT 9999 FEW015 BKN030 23/20 Q1026 RMK WIND RWY09 32009KT;",
"08515599999","2010-07-12T17:00:00","4","39.092169","-28.029847","26.21","GRACIOSA, PO","FM-15","LPGR ","V020","320,1,N,0036,1","00750,1,C,N","011265,1,N,1","+0230,1","+0200,1","99999,9","02,5,+00480,1,99,9","07,5,+00750,1,99,9",,"07,99,1,99,9,99,9,99999,9,99,9,99,9",,"10261,1,99999,9",,,,"MET081METAR LPGR 121700Z 32007KT 9999 FEW016 BKN025 23/20 Q1026 RMK WIND RWY09 32008KT;",
"08515599999","2010-07-13T07:00:00","4","39.092169","-28.029847","26.21","GRACIOSA, PO","FM-15","LPGR ","V020","360,1,N,0051,1","00300,1,C,N","008000,1,N,1","+0200,1","+0190,1","99999,9","04,5,+00180,1,99,9","07,5,+00300,1,99,9",,"07,99,1,99,9,99,9,99999,9,99,9,99,9",,"10261,1,99999,9","51,1",,,"MET085METAR LPGR 130700Z 36010KT 8000 -DZ SCT006 BKN010 20/19 Q1026 RMK WIND RWY09 35011KT;",
"08515599999","2010-07-13T08:00:00","4","39.092169","-28.029847","26.21","GRACIOSA, PO","FM-15","LPGR ","V020","360,1,N,0051,1","00150,1,C,N","008000,1,N,1","+0200,1","+0200,1","99999,9","02,5,+00090,1,99,9","04,5,+00150,1,99,9","07,5,+00300,1,99,9","07,99,1,99,9,99,9,99999,9,99,9,99,9",,"10261,1,99999,9","16,1",,,"MET093METAR LPGR 130800Z 36010KT 8000 VCSH FEW003 SCT005 BKN010 20/20 Q1026 RMK WIND RWY09 34010KT;",
"08515599999","2010-07-13T09:00:00","4","39.092169","-28.029847","26.21","GRACIOSA, PO","FM-15","LPGR ","V020","350,1,N,0036,1","00150,1,C,N","002000,1,N,1","+0200,1","+0190,1","99999,9","04,5,+00060,1,99,9","07,5,+00150,1,99,9",,"07,99,1,99,9,99,9,99999,9,99,9,99,9",,"10261,1,99999,9","10,1","51,1",,"MET088METAR LPGR 130900Z 35007KT 2000 -DZ BR SCT002 BKN005 20/19 Q1026 RMK WIND RWY09 32008KT;",
"08515599999","2010-07-13T10:00:00","4","39.092169","-28.029847","26.21","GRACIOSA, PO","FM-15","LPGR ","V020","350,1,N,0031,1","00150,1,C,N","005000,1,N,1","+0200,1","+0190,1","99999,9","04,5,+00060,1,99,9","07,5,+00150,1,99,9",,"07,99,1,99,9,99,9,99999,9,99,9,99,9",,"10261,1,99999,9","10,1",,,"MET084METAR LPGR 131000Z 35006KT 5000 BR SCT002 BKN005 20/19 Q1026 RMK WIND RWY09 35008KT;",
"08515599999","2010-07-13T11:00:00","4","39.092169","-28.029847","26.21","GRACIOSA, PO","FM-15","LPGR ","V020","350,1,N,0041,1","00300,1,C,N","011265,1,N,1","+0210,1","+0200,1","99999,9","02,5,+00180,1,99,9","07,5,+00300,1,99,9",,"07,99,1,99,9,99,9,99999,9,99,9,99,9",,"10261,1,99999,9",,,,"MET081METAR LPGR 131100Z 35008KT 9999 FEW006 BKN010 21/20 Q1026 RMK WIND RWY09 32007KT;",
"08515599999","2010-07-13T12:00:00","4","39.092169","-28.029847","26.21","GRACIOSA, PO","FM-15","LPGR ","V020","360,1,N,0057,1","00300,1,C,N","011265,1,N,1","+0210,1","+0200,1","99999,9","02,5,+00180,1,99,9","07,5,+00300,1,99,9",,"07,99,1,99,9,99,9,99999,9,99,9,99,9",,"10261,1,99999,9",,,,"MET081METAR LPGR 131200Z 36011KT 9999 FEW006 BKN010 21/20 Q1026 RMK WIND RWY09 36010KT;",
"08515599999","2010-07-14T09:00:00","4","39.092169","-28.029847","26.21","GRACIOSA, PO","FM-15","LPGR ","V020","040,1,N,0015,1","00750,1,C,N","011265,1,N,1","+0200,1","+0170,1","99999,9","02,5,+00480,1,99,9","07,5,+00750,1,99,9",,"07,99,1,99,9,99,9,99999,9,99,9,99,9",,"10261,1,99999,9",,,,"MET081METAR LPGR 140900Z 04003KT 9999 FEW016 BKN025 20/17 Q1026 RMK WIND RWY09 03004KT;",
"08515599999","2010-07-14T10:00:00","4","39.092169","-28.029847","26.21","GRACIOSA, PO","FM-15","LPGR ","V020","030,1,N,0021,1","99999,9,C,N","011265,1,N,1","+0210,1","+0150,1","99999,9","02,5,+00540,1,99,9","04,5,+00750,1,99,9",,"04,99,1,99,9,99,9,99999,9,99,9,99,9",,"10261,1,99999,9",,,,"MET081METAR LPGR 141000Z 03004KT 9999 FEW018 SCT025 21/15 Q1026 RMK WIND RWY09 01004KT;","P01 007503SCOCIG"
"08515599999","2010-07-14T13:00:00","4","39.092169","-28.029847","26.21","GRACIOSA, PO","FM-15","LPGR ","V020","030,1,N,0026,1","22000,1,9,N","011265,1,N,1","+0220,1","+0160,1","99999,9","02,5,+00600,1,99,9",,,"02,99,1,99,9,99,9,99999,9,99,9,99,9",,"10261,1,99999,9",,,,"MET074METAR LPGR 141300Z 03005KT 9999 FEW020 22/16 Q1026 RMK WIND RWY09 01006KT;",
"08515599999","2010-07-14T14:00:00","4","39.092169","-28.029847","26.21","GRACIOSA, PO","FM-15","LPGR ","V020","360,1,N,0026,1","22000,1,9,N","011265,1,N,1","+0220,1","+0160,1","99999,9","02,5,+00600,1,99,9",,,"02,99,1,99,9,99,9,99999,9,99,9,99,9",,"10261,1,99999,9",,,,"MET074METAR LPGR 141400Z 36005KT 9999 FEW020 22/16 Q1026 RMK WIND RWY09 33006KT;",
"08515599999","2010-07-14T15:00:00","4","39.092169","-28.029847","26.21","GRACIOSA, PO","FM-15","LPGR ","V020","010,1,N,0026,1","22000,1,9,N","011265,1,N,1","+0220,1","+0170,1","99999,9","02,5,+00600,1,99,9",,,"02,99,1,99,9,99,9,99999,9,99,9,99,9",,"10261,1,99999,9",,,,"MET074METAR LPGR 141500Z 01005KT 9999 FEW020 22/17 Q1026 RMK WIND RWY09 34007KT;",
"08515599999","2010-07-14T16:00:00","4","39.092169","-28.029847","26.21","GRACIOSA, PO","FM-15","LPGR ","V020","340,1,N,0036,1","22000,1,9,N","011265,1,N,1","+0230,1","+0170,1","99999,9","02,5,+00600,1,99,9",,,"02,99,1,99,9,99,9,99999,9,99,9,99,9",,"10261,1,99999,9",,,,"MET074METAR LPGR 141600Z 34007KT 9999 FEW020 23/17 Q1026 RMK WIND RWY09 31008KT;",
"08515599999","2010-07-14T17:00:00","4","39.092169","-28.029847","26.21","GRACIOSA, PO","FM-15","LPGR ","V020","340,1,N,0036,1","22000,1,9,N","011265,1,N,1","+0230,1","+0160,1","99999,9","02,5,+00600,1,99,9",,,"02,99,1,99,9,99,9,99999,9,99,9,99,9",,"10261,1,99999,9",,,,"MET074METAR LPGR 141700Z 34007KT 9999 FEW020 23/16 Q1026 RMK WIND RWY09 32008KT;",
"08515599999","2010-07-15T07:00:00","4","39.092169","-28.029847","26.21","GRACIOSA, PO","FM-15","LPGR ","V020","290,1,N,0021,1","00900,1,C,N","011265,1,N,1","+0200,1","+0180,1","99999,9","02,5,+00360,1,99,9","07,5,+00900,1,99,9",,"07,99,1,99,9,99,9,99999,9,99,9,99,9",,"10240,1,99999,9",,,,"MET081METAR LPGR 150700Z 29004KT 9999 FEW012 BKN030 20/18 Q1024 RMK WIND RWY09 26004KT;",
"08515599999","2010-07-15T08:00:00","4","39.092169","-28.029847","26.21","GRACIOSA, PO","FM-15","LPGR ","V020","300,1,N,0036,1","00900,1,C,N","011265,1,N,1","+0210,1","+0180,1","99999,9","02,5,+00360,1,99,9","07,5,+00900,1,99,9",,"07,99,1,99,9,99,9,99999,9,99,9,99,9",,"10240,1,99999,9",,,,"MET081METAR LPGR 150800Z 30007KT 9999 FEW012 BKN030 21/18 Q1024 RMK WIND RWY09 29009KT;",
"08515599999","2010-07-15T09:00:00","4","39.092169","-28.029847","26.21","GRACIOSA, PO","FM-15","LPGR ","V020","290,1,N,0036,1","00900,1,C,N","011265,1,N,1","+0210,1","+0180,1","99999,9","02,5,+00360,1,99,9","07,5,+00900,1,99,9",,"07,99,1,99,9,99,9,99999,9,99,9,99,9",,"10240,1,99999,9",,,,"MET081METAR LPGR 150900Z 29007KT 9999 FEW012 BKN030 21/18 Q1024 RMK WIND RWY09 28008KT;",
"08515599999","2010-07-15T14:00:00","4","39.092169","-28.029847","26.21","GRACIOSA, PO","FM-15","LPGR ","V020","300,1,N,0041,1","00900,1,C,N","011265,1,N,1","+0230,1","+0190,1","99999,9","04,5,+00420,1,99,9","07,5,+00900,1,99,9",,"07,99,1,99,9,99,9,99999,9,99,9,99,9",,"10240,1,99999,9",,,,"MET081METAR LPGR 151400Z 30008KT 9999 SCT014 BKN030 23/19 Q1024 RMK WIND RWY09 29010KT;",
"08515599999","2010-07-15T15:00:00","4","39.092169","-28.029847","26.21","GRACIOSA, PO","FM-15","LPGR ","V020","300,1,N,0041,1","22000,1,9,N","011265,1,N,1","+0250,1","+0180,1","99999,9","02,5,+00420,1,99,9",,,"02,99,1,99,9,99,9,99999,9,99,9,99,9",,"10240,1,99999,9",,,,"MET074METAR LPGR 151500Z 30008KT 9999 FEW014 25/18 Q1024 RMK WIND RWY09 30008KT;",
"08515599999","2010-07-15T16:00:00","4","39.092169","-28.029847","26.21","GRACIOSA, PO","FM-15","LPGR ","V020","320,1,N,0051,1","22000,1,9,N","011265,1,N,1","+0250,1","+0190,1","99999,9","02,5,+00450,1,99,9",,,"02,99,1,99,9,99,9,99999,9,99,9,99,9",,"10240,1,99999,9",,,,"MET074METAR LPGR 151600Z 32010KT 9999 FEW015 25/19 Q1024 RMK WIND RWY09 32010KT;",
"08515599999","2010-07-15T17:00:00","4","39.092169","-28.029847","26.21","GRACIOSA, PO","FM-15","LPGR ","V020","320,1,N,0046,1","22000,1,9,N","011265,1,N,1","+0240,1","+0190,1","99999,9","02,5,+00450,1,99,9",,,"02,99,1,99,9,99,9,99999,9,99,9,99,9",,"10240,1,99999,9",,,,"MET074METAR LPGR 151700Z 32009KT 9999 FEW015 24/19 Q1024 RMK WIND RWY09 31010KT;",
"08515599999","2010-07-16T08:00:00","4","39.092169","-28.029847","26.21","GRACIOSA, PO","FM-15","LPGR ","V020","320,1,N,0021,1","00300,1,C,N","002500,1,N,1","+0200,1","+0190,1","99999,9","04,5,+00150,1,99,9","07,5,+00300,1,99,9",,"07,99,1,99,9,99,9,99999,9,99,9,99,9",,"10251,1,99999,9","51,1",,,"MET086METAR LPGR 160800Z 32004KT 2500E -DZ SCT005 BKN010 20/19 Q1025 RMK WIND RWY09 30005KT;",
"08515599999","2010-07-16T09:00:00","4","39.092169","-28.029847","26.21","GRACIOSA, PO","FM-15","LPGR ","V020","140,1,N,0021,1","00900,1,C,N","011265,1,N,1","+0210,1","+0200,1","99999,9","02,5,+00390,1,99,9","07,5,+00900,1,99,9",,"07,99,1,99,9,99,9,99999,9,99,9,99,9",,"10261,1,99999,9",,,,"MET081METAR LPGR 160900Z 14004KT 9999 FEW013 BKN030 21/20 Q1026 RMK WIND RWY09 02004KT;",
"08515599999","2010-07-16T14:00:00","4","39.092169","-28.029847","26.21","GRACIOSA, PO","FM-15","LPGR ","V020","290,1,N,0026,1","00900,1,C,N","011265,1,N,1","+0240,1","+0180,1","99999,9","02,5,+00420,1,99,9","07,5,+00900,1,99,9",,"07,99,1,99,9,99,9,99999,9,99,9,99,9",,"10261,1,99999,9",,,,"MET081METAR LPGR 161400Z 29005KT 9999 FEW014 BKN030 24/18 Q1026 RMK WIND RWY09 27007KT;",
"08515599999","2010-07-16T15:00:00","4","39.092169","-28.029847","26.21","GRACIOSA, PO","FM-15","LPGR ","V020","080,1,N,0021,1","00900,1,C,N","011265,1,N,1","+0240,1","+0180,1","99999,9","02,5,+00420,1,99,9","07,5,+00900,1,99,9",,"07,99,1,99,9,99,9,99999,9,99,9,99,9",,"10261,1,99999,9",,,,"MET081METAR LPGR 161500Z 08004KT 9999 FEW014 BKN030 24/18 Q1026 RMK WIND RWY09 23002KT;",
"08515599999","2010-07-16T16:00:00","4","39.092169","-28.029847","26.21","GRACIOSA, PO","FM-15","LPGR ","V020","050,1,N,0026,1","99999,9,C,N","011265,1,N,1","+0240,1","+0190,1","99999,9","02,5,+00450,1,99,9","04,5,+01050,1,99,9",,"04,99,1,99,9,99,9,99999,9,99,9,99,9",,"10251,1,99999,9",,,,"MET081METAR LPGR 161600Z 05005KT 9999 FEW015 SCT035 24/19 Q1025 RMK WIND RWY09 05004KT;","P01 010503SCOCIG"
"08515599999","2010-07-16T17:00:00","4","39.092169","-28.029847","26.21","GRACIOSA, PO","FM-15","LPGR ","V020","050,1,N,0041,1","22000,1,9,N","011265,1,N,1","+0260,1","+0180,1","99999,9","02,5,+00450,1,99,9",,,"02,99,1,99,9,99,9,99999,9,99,9,99,9",,"10251,1,99999,9",,,,"MET074METAR LPGR 161700Z 05008KT 9999 FEW015 26/18 Q1025 RMK WIND RWY09 28005KT;",
"08515599999","2010-07-17T08:00:00","4","39.092169","-28.029847","26.21","GRACIOSA, PO","FM-15","LPGR ","V020","240,1,N,0021,1","22000,1,9,N","011265,1,N,1","+0210,1","+0190,1","99999,9","02,5,+00390,1,99,9",,,"02,99,1,99,9,99,9,99999,9,99,9,99,9",,"10251,1,99999,9",,,,"MET074METAR LPGR 170800Z 24004KT 9999 FEW013 21/19 Q1025 RMK WIND RWY09 23004KT;",
"08515599999","2010-07-17T09:00:00","4","39.092169","-28.029847","26.21","GRACIOSA, PO","FM-15","LPGR ","V020","240,1,N,0026,1","99999,9,C,N","011265,1,N,1","+0220,1","+0200,1","99999,9","02,5,+00450,1,99,9","04,5,+00900,1,99,9",,"04,99,1,99,9,99,9,99999,9,99,9,99,9",,"10261,1,99999,9",,,,"MET081METAR LPGR 170900Z 24005KT 9999 FEW015 SCT030 22/20 Q1026 RMK WIND RWY09 24005KT;","P01 009003SCOCIG"
"08515599999","2010-07-17T10:00:00","4","39.092169","-28.029847","26.21","GRACIOSA, PO","FM-15","LPGR ","V020","240,1,N,0041,1","01050,1,C,N","011265,1,N,1","+0230,1","+0190,1","99999,9","02,5,+00480,1,99,9","07,5,+01050,1,99,9",,"07,99,1,99,9,99,9,99999,9,99,9,99,9",,"10261,1,99999,9",,,,"MET081METAR LPGR 171000Z 24008KT 9999 FEW016 BKN035 23/19 Q1026 RMK WIND RWY09 22007KT;",
"08515599999","2010-07-17T11:00:00","4","39.092169","-28.029847","26.21","GRACIOSA, PO","FM-15","LPGR ","V020","230,1,N,0062,1","99999,9,C,N","011265,1,N,1","+0240,1","+0190,1","99999,9","02,5,+00480,1,99,9","04,5,+01050,1,99,9",,"04,99,1,99,9,99,9,99999,9,99,9,99,9",,"10261,1,99999,9",,,,"MET081METAR LPGR 171100Z 23012KT 9999 FEW016 SCT035 24/19 Q1026 RMK WIND RWY09 23008KT;","P01 010503SCOCIG"
"08515599999","2010-07-17T12:00:00","4","39.092169","-28.029847","26.21","GRACIOSA, PO","FM-15","LPGR ","V020","250,1,N,0062,1","01050,1,C,N","011265,1,N,1","+0250,1","+0180,1","99999,9","02,5,+00540,1,99,9","07,5,+01050,1,99,9",,"07,99,1,99,9,99,9,99999,9,99,9,99,9",,"10261,1,99999,9",,,,"MET081METAR LPGR 171200Z 25012KT 9999 FEW018 BKN035 25/18 Q1026 RMK WIND RWY09 25011KT;",
"08515599999","2010-07-17T13:00:00","4","39.092169","-28.029847","26.21","GRACIOSA, PO","FM-15","LPGR ","V020","260,1,N,0072,1","01200,1,C,N","011265,1,N,1","+0230,1","+0190,1","99999,9","02,5,+00480,1,99,9","07,5,+01200,1,99,9",,"07,99,1,99,9,99,9,99999,9,99,9,99,9",,"10261,1,99999,9",,,,"MET081METAR LPGR 171300Z 26014KT 9999 FEW016 BKN040 23/19 Q1026 RMK WIND RWY09 26013KT;",
"08515599999","2010-07-17T14:00:00","4","39.092169","-28.029847","26.21","GRACIOSA, PO","FM-15","LPGR ","V020","250,1,N,0051,1","01200,1,C,N","011265,1,N,1","+0250,1","+0180,1","99999,9","02,5,+00600,1,99,9","07,5,+01200,1,99,9",,"07,99,1,99,9,99,9,99999,9,99,9,99,9",,"10261,1,99999,9",,,,"MET081METAR LPGR 171400Z 25010KT 9999 FEW020 BKN040 25/18 Q1026 RMK WIND RWY09 26010KT;",
"08515599999","2010-07-17T15:00:00","4","39.092169","-28.029847","26.21","GRACIOSA, PO","FM-15","LPGR ","V020","270,1,N,0067,1","01200,1,C,N","011265,1,N,1","+0260,1","+0200,1","99999,9","02,5,+00600,1,99,9","07,5,+01200,1,99,9",,"07,99,1,99,9,99,9,99999,9,99,9,99,9",,"10261,1,99999,9",,,,"MET081METAR LPGR 171500Z 27013KT 9999 FEW020 BKN040 26/20 Q1026 RMK WIND RWY09 26013KT;",
"08515599999","2010-07-17T16:00:00","4","39.092169","-28.029847","26.21","GRACIOSA, PO","FM-15","LPGR ","V020","280,1,N,0057,1","99999,9,C,N","011265,1,N,1","+0260,1","+0200,1","99999,9","02,5,+00600,1,99,9","04,5,+01200,1,99,9",,"04,99,1,99,9,99,9,99999,9,99,9,99,9",,"10251,1,99999,9",,,,"MET081METAR LPGR 171600Z 28011KT 9999 FEW020 SCT040 26/20 Q1025 RMK WIND RWY09 26011KT;","P01 012003SCOCIG"
"08515599999","2010-07-17T17:00:00","4","39.092169","-28.029847","26.21","GRACIOSA, PO","FM-15","LPGR ","V020","280,1,N,0057,1","01200,1,C,N","011265,1,N,1","+0250,1","+0190,1","99999,9","02,5,+00600,1,99,9","07,5,+01200,1,99,9",,"07,99,1,99,9,99,9,99999,9,99,9,99,9",,"10251,1,99999,9",,,,"MET081METAR LPGR 171700Z 28011KT 9999 FEW020 BKN040 25/19 Q1025 RMK WIND RWY09 26009KT;",
"08515599999","2010-07-18T07:00:00","4","39.092169","-28.029847","26.21","GRACIOSA, PO","FM-15","LPGR ","V020","230,1,N,0051,1","22000,1,9,N","011265,1,N,1","+0210,1","+0180,1","99999,9","02,5,+00450,1,99,9",,,"02,99,1,99,9,99,9,99999,9,99,9,99,9",,"10240,1,99999,9",,,,"MET074METAR LPGR 180700Z 23010KT 9999 FEW015 21/18 Q1024 RMK WIND RWY09 23009KT;",
"08515599999","2010-07-18T08:00:00","4","39.092169","-28.029847","26.21","GRACIOSA, PO","FM-15","LPGR ","V020","230,1,N,0031,1","22000,1,9,N","011265,1,N,1","+0210,1","+0190,1","99999,9","02,5,+00450,1,99,9",,,"02,99,1,99,9,99,9,99999,9,99,9,99,9",,"10240,1,99999,9",,,,"MET074METAR LPGR 180800Z 23006KT 9999 FEW015 21/19 Q1024 RMK WIND RWY09 22006KT;",
"08515599999","2010-07-18T09:00:00","4","39.092169","-28.029847","26.21","GRACIOSA, PO","FM-15","LPGR ","V020","230,1,N,0046,1","22000,1,9,N","011265,1,N,1","+0220,1","+0190,1","99999,9","02,5,+00480,1,99,9",,,"02,99,1,99,9,99,9,99999,9,99,9,99,9",,"10240,1,99999,9",,,,"MET074METAR LPGR 180900Z 23009KT 9999 FEW016 22/19 Q1024 RMK WIND RWY09 23009KT;",
"08515599999","2010-07-18T14:00:00","4","39.092169","-28.029847","26.21","GRACIOSA, PO","FM-15","LPGR ","V020","250,1,N,0087,1","22000,1,9,N","011265,1,N,1","+0270,1","+0180,1","99999,9","02,5,+00600,1,99,9",,,"02,99,1,99,9,99,9,99999,9,99,9,99,9",,"10240,1,99999,9",,,,"MET074METAR LPGR 181400Z 25017KT 9999 FEW020 27/18 Q1024 RMK WIND RWY09 24017KT;",
"08515599999","2010-07-18T15:00:00","4","39.092169","-28.029847","26.21","GRACIOSA, PO","FM-15","LPGR ","V020","250,1,N,0093,1","22000,1,9,N","011265,1,N,1","+0260,1","+0180,1","99999,9","02,5,+00600,1,99,9",,,"02,99,1,99,9,99,9,99999,9,99,9,99,9",,"10240,1,99999,9",,,,"MET074METAR LPGR 181500Z 25018KT 9999 FEW020 26/18 Q1024 RMK WIND RWY09 23016KT;",
"08515599999","2010-07-18T16:00:00","4","39.092169","-28.029847","26.21","GRACIOSA, PO","FM-15","LPGR ","V020","250,1,N,0093,1","22000,1,9,N","011265,1,N,1","+0260,1","+0190,1","99999,9","02,5,+00600,1,99,9",,,"02,99,1,99,9,99,9,99999,9,99,9,99,9",,"10240,1,99999,9",,,,"MET074METAR LPGR 181600Z 25018KT 9999 FEW020 26/19 Q1024 RMK WIND RWY09 25016KT;",
"08515599999","2010-07-18T17:00:00","4","39.092169","-28.029847","26.21","GRACIOSA, PO","FM-15","LPGR ","V020","250,1,N,0093,1","22000,1,9,N","011265,1,N,1","+0260,1","+0180,1","99999,9","02,5,+00600,1,99,9",,,"02,99,1,99,9,99,9,99999,9,99,9,99,9",,"10230,1,99999,9",,,,"MET074METAR LPGR 181700Z 25018KT 9999 FEW020 26/18 Q1023 RMK WIND RWY09 25018KT;",
"08515599999","2010-07-19T07:00:00","4","39.092169","-28.029847","26.21","GRACIOSA, PO","FM-15","LPGR ","V020","230,1,N,0082,1","22000,1,9,N","011265,1,N,1","+0220,1","+0190,1","99999,9","02,5,+00480,1,99,9",,,"02,99,1,99,9,99,9,99999,9,99,9,99,9",,"10240,1,99999,9",,,,"MET074METAR LPGR 190700Z 23016KT 9999 FEW016 22/19 Q1024 RMK WIND RWY09 22014KT;",
"08515599999","2010-07-19T08:00:00","4","39.092169","-28.029847","26.21","GRACIOSA, PO","FM-15","LPGR ","V020","240,1,N,0093,1","22000,1,9,N","011265,1,N,1","+0230,1","+0180,1","99999,9","02,5,+00480,1,99,9",,,"02,99,1,99,9,99,9,99999,9,99,9,99,9",,"10240,1,99999,9",,,,"MET074METAR LPGR 190800Z 24018KT 9999 FEW016 23/18 Q1024 RMK WIND RWY09 24019KT;",
"08515599999","2010-07-19T09:00:00","4","39.092169","-28.029847","26.21","GRACIOSA, PO","FM-15","LPGR ","V020","240,1,N,0093,1","22000,1,9,N","011265,1,N,1","+0230,1","+0190,1","99999,9","02,5,+00480,1,99,9",,,"02,99,1,99,9,99,9,99999,9,99,9,99,9",,"10240,1,99999,9",,,,"MET074METAR LPGR 190900Z 24018KT 9999 FEW016 23/19 Q1024 RMK WIND RWY09 24017KT;",
"08515599999","2010-07-19T10:00:00","4","39.092169","-28.029847","26.21","GRACIOSA, PO","FM-15","LPGR ","V020","240,1,N,0098,1","22000,1,9,N","011265,1,N,1","+0240,1","+0180,1","99999,9","02,5,+00540,1,99,9",,,"02,99,1,99,9,99,9,99999,9,99,9,99,9",,"10240,1,99999,9",,,,"MET074METAR LPGR 191000Z 24019KT 9999 FEW018 24/18 Q1024 RMK WIND RWY09 23018KT;",
"08515599999","2010-07-19T11:00:00","4","39.092169","-28.029847","26.21","GRACIOSA, PO","FM-15","LPGR ","V020","240,1,N,0103,1","22000,1,9,N","011265,1,N,1","+0240,1","+0180,1","99999,9","02,5,+00540,1,99,9",,,"02,99,1,99,9,99,9,99999,9,99,9,99,9",,"10240,1,99999,9",,,,"MET074METAR LPGR 191100Z 24020KT 9999 FEW018 24/18 Q1024 RMK WIND RWY09 24018KT;",
"08515599999","2010-07-19T13:00:00","4","39.092169","-28.029847","26.21","GRACIOSA, PO","FM-15","LPGR ","V020","250,1,N,0103,1","99999,9,C,N","011265,1,N,1","+0250,1","+0190,1","99999,9","02,5,+00540,1,99,9","04,5,+02700,1,99,9",,"04,99,1,99,9,99,9,99999,9,99,9,99,9",,"10251,1,99999,9",,,,"MET081METAR LPGR 191300Z 25020KT 9999 FEW018 SCT090 25/19 Q1025 RMK WIND RWY09 25018KT;","P01 027003SCOCIG"
"08515599999","2010-07-19T14:00:00","4","39.092169","-28.029847","26.21","GRACIOSA, PO","FM-15","LPGR ","V020","240,1,N,0113,1","02700,1,C,N","011265,1,N,1","+0240,1","+0190,1","99999,9","02,5,+00540,1,99,9","07,5,+02700,1,99,9",,"07,99,1,99,9,99,9,99999,9,99,9,99,9",,"10251,1,99999,9",,,,"MET081METAR LPGR 191400Z 24022KT 9999 FEW018 BKN090 24/19 Q1025 RMK WIND RWY09 22015KT;",
"08515599999","2010-07-19T15:00:00","4","39.092169","-28.029847","26.21","GRACIOSA, PO","FM-15","LPGR ","V020","240,1,N,0113,1","02700,1,C,N","011265,1,N,1","+0250,1","+0190,1","99999,9","02,5,+00540,1,99,9","07,5,+02700,1,99,9",,"07,99,1,99,9,99,9,99999,9,99,9,99,9",,"10240,1,99999,9",,,,"MET084METAR LPGR 191500Z 24022KT 9999 FEW018 BKN090 25/19 Q1024 RMK WIND RWY09 24012G22KT;",
"08515599999","2010-07-19T16:00:00","4","39.092169","-28.029847","26.21","GRACIOSA, PO","FM-15","LPGR ","V020","240,1,N,0113,1","99999,9,C,N","011265,1,N,1","+0260,1","+0190,1","99999,9","02,5,+00540,1,99,9","04,5,+02700,1,99,9",,"04,99,1,99,9,99,9,99999,9,99,9,99,9",,"10240,1,99999,9",,,,"MET084METAR LPGR 191600Z 24022KT 9999 FEW018 SCT090 26/19 Q1024 RMK WIND RWY09 23014G25KT;","P01 027003SCOCIG"
"08515599999","2010-07-19T17:00:00","4","39.092169","-28.029847","26.21","GRACIOSA, PO","FM-15","LPGR ","V020","250,1,N,0103,1","02700,1,C,N","011265,1,N,1","+0250,1","+0200,1","99999,9","02,5,+00540,1,99,9","07,5,+02700,1,99,9",,"07,99,1,99,9,99,9,99999,9,99,9,99,9",,"10240,1,99999,9",,,,"MET081METAR LPGR 191700Z 25020KT 9999 FEW018 BKN090 25/20 Q1024 RMK WIND RWY09 24017KT;",
"08515599999","2010-07-20T08:00:00","4","39.092169","-28.029847","26.21","GRACIOSA, PO","FM-15","LPGR ","V020","260,1,N,0082,1","00300,1,C,N","011265,1,N,1","+0220,1","+0210,1","99999,9","02,5,+00180,1,99,9","07,5,+00300,1,99,9",,"07,99,1,99,9,99,9,99999,9,99,9,99,9",,"10240,1,99999,9",,,,"MET081METAR LPGR 200800Z 26016KT 9999 FEW006 BKN010 22/21 Q1024 RMK WIND RWY09 25015KT;",
"08515599999","2010-07-20T09:00:00","4","39.092169","-28.029847","26.21","GRACIOSA, PO","FM-15","LPGR ","V020","260,1,N,0072,1","00300,1,C,N","011265,1,N,1","+0230,1","+0210,1","99999,9","02,5,+00180,1,99,9","07,5,+00300,1,99,9",,"07,99,1,99,9,99,9,99999,9,99,9,99,9",,"10251,1,99999,9",,,,"MET081METAR LPGR 200900Z 26014KT 9999 FEW006 BKN010 23/21 Q1025 RMK WIND RWY09 26012KT;",
"08515599999","2010-07-20T11:00:00","4","39.092169","-28.029847","26.21","GRACIOSA, PO","FM-15","LPGR ","V020","280,1,N,0046,1","00300,1,C,N","011265,1,N,1","+0230,1","+0200,1","99999,9","02,5,+00150,1,99,9","04,5,+00300,1,99,9","07,5,+00750,1,99,9","07,99,1,99,9,99,9,99999,9,99,9,99,9",,"10251,1,99999,9",,,,"MET088METAR LPGR 201100Z 28009KT 9999 FEW005 SCT010 BKN025 23/20 Q1025 RMK WIND RWY09 27011KT;",
"08515599999","2010-07-20T14:00:00","4","39.092169","-28.029847","26.21","GRACIOSA, PO","FM-15","LPGR ","V020","280,1,N,0057,1","00750,1,C,N","011265,1,N,1","+0240,1","+0220,1","99999,9","04,5,+00300,1,99,9","07,5,+00750,1,99,9",,"07,99,1,99,9,99,9,99999,9,99,9,99,9",,"10251,1,99999,9",,,,"MET081METAR LPGR 201400Z 28011KT 9999 SCT010 BKN025 24/22 Q1025 RMK WIND RWY09 27010KT;",
"08515599999","2010-07-20T15:00:00","4","39.092169","-28.029847","26.21","GRACIOSA, PO","FM-15","LPGR ","V020","290,1,N,0051,1","00300,1,C,N","011265,1,N,1","+0240,1","+0220,1","99999,9","02,5,+00090,1,99,9","04,5,+00300,1,99,9","07,5,+00750,1,99,9","07,99,1,99,9,99,9,99999,9,99,9,99,9",,"10251,1,99999,9",,,,"MET088METAR LPGR 201500Z 29010KT 9999 FEW003 SCT010 BKN025 24/22 Q1025 RMK WIND RWY09 27011KT;",
"08515599999","2010-07-20T16:00:00","4","39.092169","-28.029847","26.21","GRACIOSA, PO","FM-15","LPGR ","V020","290,1,N,0057,1","00900,1,C,N","011265,1,N,1","+0240,1","+0220,1","99999,9","04,5,+00300,1,99,9","07,5,+00900,1,99,9",,"07,99,1,99,9,99,9,99999,9,99,9,99,9",,"10240,1,99999,9",,,,"MET081METAR LPGR 201600Z 29011KT 9999 SCT010 BKN030 24/22 Q1024 RMK WIND RWY09 28011KT;",
"08515599999","2010-07-20T17:00:00","4","39.092169","-28.029847","26.21","GRACIOSA, PO","FM-15","LPGR ","V020","300,1,N,0057,1","00900,1,C,N","011265,1,N,1","+0240,1","+0220,1","99999,9","04,5,+00300,1,99,9","07,5,+00900,1,99,9",,"07,99,1,99,9,99,9,99999,9,99,9,99,9",,"10240,1,99999,9",,,,"MET081METAR LPGR 201700Z 30011KT 9999 SCT010 BKN030 24/22 Q1024 RMK WIND RWY09 28009KT;",
"08515599999","2010-07-21T07:00:00","4","39.092169","-28.029847","26.21","GRACIOSA, PO","FM-15","LPGR ","V020","290,1,N,0062,1","00300,1,C,N","011265,1,N,1","+0220,1","+0210,1","99999,9","02,5,+00150,1,99,9","04,5,+00300,1,99,9","07,5,+00900,1,99,9","07,99,1,99,9,99,9,99999,9,99,9,99,9",,"10220,1,99999,9",,,,"MET088METAR LPGR 210700Z 29012KT 9999 FEW005 SCT010 BKN030 22/21 Q1022 RMK WIND RWY09 28009KT;",
"08515599999","2010-07-21T08:00:00","4","39.092169","-28.029847","26.21","GRACIOSA, PO","FM-15","LPGR ","V020","300,1,N,0051,1","00300,1,C,N","011265,1,N,1","+0220,1","+0210,1","99999,9","02,5,+00090,1,99,9","04,5,+00300,1,99,9","07,5,+06000,1,99,9","07,99,1,99,9,99,9,99999,9,99,9,99,9",,"10230,1,99999,9",,,,"MET088METAR LPGR 210800Z 30010KT 9999 FEW003 SCT010 BKN200 22/21 Q1023 RMK WIND RWY09 28007KT;",
"08515599999","2010-07-21T09:00:00","4","39.092169","-28.029847","26.21","GRACIOSA, PO","FM-15","LPGR ","V020","320,1,N,0041,1","00300,1,C,N","011265,1,N,1","+0220,1","+0210,1","99999,9","02,5,+00150,1,99,9","07,5,+00300,1,99,9",,"07,99,1,99,9,99,9,99999,9,99,9,99,9",,"10230,1,99999,9",,,,"MET081METAR LPGR 210900Z 32008KT 9999 FEW005 BKN010 22/21 Q1023 RMK WIND RWY09 30005KT;",
"08515599999","2010-07-21T11:00:00","4","39.092169","-28.029847","26.21","GRACIOSA, PO","FM-15","LPGR ","V020","330,1,N,0026,1","00300,1,C,N","006000,1,N,1","+0220,1","+0210,1","99999,9","04,5,+00060,1,99,9","07,5,+00300,1,99,9",,"07,99,1,99,9,99,9,99999,9,99,9,99,9",,"10230,1,99999,9","51,1",,,"MET085METAR LPGR 211100Z 33005KT 6000 -DZ SCT002 BKN010 22/21 Q1023 RMK WIND RWY09 31004KT;",
"08515599999","2010-07-21T14:00:00","4","39.092169","-28.029847","26.21","GRACIOSA, PO","FM-15","LPGR ","V020","020,1,N,0077,1","06000,1,C,N","011265,1,N,1","+0240,1","+0210,1","99999,9","04,5,+00300,1,99,9","07,5,+06000,1,99,9",,"07,99,1,99,9,99,9,99999,9,99,9,99,9",,"10251,1,99999,9",,,,"MET081METAR LPGR 211400Z 02015KT 9999 SCT010 BKN200 24/21 Q1025 RMK WIND RWY09 02012KT;",
"08515599999","2010-07-21T15:00:00","4","39.092169","-28.029847","26.21","GRACIOSA, PO","FM-15","LPGR ","V020","040,1,N,0026,1","22000,1,9,N","011265,1,N,1","+0240,1","+0200,1","99999,9","04,5,+00360,1,99,9",,,"04,99,1,99,9,99,9,99999,9,99,9,99,9",,"10230,1,99999,9",,,,"MET080METAR LPGR 211500Z 04005KT 9999 SCT012 ST090 24/20 Q1023 RMK WIND RWY09 /////KT;",
"08515599999","2010-07-21T16:00:00","4","39.092169","-28.029847","26.21","GRACIOSA, PO","FM-15","LPGR ","V020","020,1,N,0026,1","02400,5,9,N","011265,1,N,1","+0240,1","+0210,1","99999,9","07,5,+02400,5,99,9",,,,,"10230,1,99999,9",,,,"MET080METAR LPGR 211600Z 02005KT 9999 ST010 BKN080 24/21 Q1023 RMK WIND RWY09 02007KT;",
"08515599999","2010-07-21T17:00:00","4","39.092169","-28.029847","26.21","GRACIOSA, PO","FM-15","LPGR ","V020","020,1,N,0026,1","02400,1,C,N","011265,1,N,1","+0240,1","+0210,1","99999,9","04,5,+00300,1,99,9","07,5,+02400,1,99,9",,"07,99,1,99,9,99,9,99999,9,99,9,99,9",,"10230,1,99999,9",,,,"MET081METAR LPGR 211700Z 02005KT 9999 SCT010 BKN080 24/21 Q1023 RMK WIND RWY09 02005KT;",
"08515599999","2010-07-22T09:00:00","4","39.092169","-28.029847","26.21","GRACIOSA, PO","FM-15","LPGR ","V020","100,1,N,0031,1","22000,1,9,N","011265,1,N,1","+0220,1","+0170,1","99999,9","02,5,+00480,1,99,9",,,"02,99,1,99,9,99,9,99999,9,99,9,99,9","999,M,+9999,9","10251,1,99999,9",,,,"MET074METAR LPGR 220900Z 10006KT 9999 FEW016 22/17 Q1025 RMK WIND RWY09 11005KT;","Q01 -00052ATMX  "
"08515599999","2010-07-22T10:00:00","4","39.092169","-28.029847","26.21","GRACIOSA, PO","FM-15","LPGR ","V020","100,1,N,0031,1","22000,1,9,N","011265,1,N,1","+0240,1","+0170,1","99999,9","02,5,+00480,1,99,9",,,"02,99,1,99,9,99,9,99999,9,99,9,99,9","999,M,+9999,9","10261,1,99999,9",,,,"MET074METAR LPGR 221000Z 10006KT 9999 FEW016 24/17 Q1026 RMK WIND RWY09 10004KT;","Q01 +00042ATMX  "
"08515599999","2010-07-22T11:00:00","4","39.092169","-28.029847","26.21","GRACIOSA, PO","FM-15","LPGR ","V020","100,1,N,0046,1","22000,1,9,N","011265,1,N,1","+0240,1","+0170,1","99999,9","02,5,+00480,1,99,9",,,"02,99,1,99,9,99,9,99999,9,99,9,99,9",,"10261,1,99999,9",,,,"MET074METAR LPGR 221100Z 10009KT 9999 FEW016 24/17 Q1026 RMK WIND RWY09 08006KT;",
"08515599999","2010-07-22T14:00:00","4","39.092169","-28.029847","26.21","GRACIOSA, PO","FM-15","LPGR ","V020","100,1,N,0062,1","99999,9,9,N","011265,1,N,1","+0240,1","+0170,1","99999,9",,,,,"999,M,+9999,9","10260,1,99999,9",,,,"MET073METAR LPGR 221400Z 10012KT 9999 ST018 24/17 Q1026 RMK WIND RWY09 10010KT;","Q01 +00102ATMX  "
"08515599999","2010-07-22T15:00:00","4","39.092169","-28.029847","26.21","GRACIOSA, PO","FM-15","LPGR ","V020","100,1,N,0062,1","22000,1,9,N","011265,1,N,1","+0240,1","+0170,1","99999,9","04,5,+00540,1,99,9",,,"04,99,1,99,9,99,9,99999,9,99,9,99,9",,"10261,1,99999,9",,,,"MET074METAR LPGR 221500Z 10012KT 9999 SCT018 24/17 Q1026 RMK WIND RWY09 13005KT;",
"08515599999","2010-07-22T17:00:00","4","39.092169","-28.029847","26.21","GRACIOSA, PO","FM-15","LPGR ","V020","100,1,N,0051,1","22000,1,9,N","011265,1,N,1","+0230,1","+0170,1","99999,9","02,5,+00540,1,99,9",,,"02,99,1,99,9,99,9,99999,9,99,9,99,9","999,M,+9999,9","10261,1,99999,9",,,,"MET074METAR LPGR 221700Z 10010KT 9999 FEW018 23/17 Q1026 RMK WIND RWY09 10007KT;","Q01 +00072ATMX  "
"08515599999","2010-07-23T07:00:00","4","39.092169","-28.029847","26.21","GRACIOSA, PO","FM-15","LPGR ","V020","170,1,N,0021,1","22000,1,9,N","011265,1,N,1","+0190,1","+0170,1","99999,9","02,5,+00540,1,99,9",,,"02,99,1,99,9,99,9,99999,9,99,9,99,9",,"10281,1,99999,9",,,,"MET074METAR LPGR 230700Z 17004KT 9999 FEW018 19/17 Q1028 RMK WIND RWY09 16003KT;",
"08515599999","2010-07-23T08:00:00","4","39.092169","-28.029847","26.21","GRACIOSA, PO","FM-15","LPGR ","V020","170,1,N,0015,1","22000,1,9,N","011265,1,N,1","+0200,1","+0180,1","99999,9","02,5,+00540,1,99,9",,,"02,99,1,99,9,99,9,99999,9,99,9,99,9",,"10281,1,99999,9",,,,"MET074METAR LPGR 230800Z 17003KT 9999 FEW018 20/18 Q1028 RMK WIND RWY09 15002KT;",
"08515599999","2010-07-23T09:00:00","4","39.092169","-28.029847","26.21","GRACIOSA, PO","FM-15","LPGR ","V020","180,1,N,0010,1","22000,1,9,N","011265,1,N,1","+0210,1","+0180,1","99999,9","02,5,+00540,1,99,9",,,"02,99,1,99,9,99,9,99999,9,99,9,99,9",,"10281,1,99999,9",,,,"MET074METAR LPGR 230900Z 18002KT 9999 FEW018 21/18 Q1028 RMK WIND RWY09 15002KT;",
"08515599999","2010-07-23T10:00:00","4","39.092169","-28.029847","26.21","GRACIOSA, PO","FM-15","LPGR ","V020","060,1,N,0015,1","22000,1,9,N","011265,1,N,1","+0240,1","+0180,1","99999,9","02,5,+00540,1,99,9",,,"02,99,1,99,9,99,9,99999,9,99,9,99,9",,"10291,1,99999,9",,,,"MET074METAR LPGR 231000Z 06003KT 9999 FEW018 24/18 Q1029 RMK WIND RWY09 VRB02KT;",
"08515599999","2010-07-23T11:00:00","4","39.092169","-28.029847","26.21","GRACIOSA, PO","FM-15","LPGR ","V020","080,1,N,0026,1","22000,1,9,N","011265,1,N,1","+0250,1","+0170,1","99999,9","02,5,+00600,1,99,9",,,"02,99,1,99,9,99,9,99999,9,99,9,99,9",,"10291,1,99999,9",,,,"MET074METAR LPGR 231100Z 08005KT 9999 FEW020 25/17 Q1029 RMK WIND RWY09 02006KT;",
"08515599999","2010-07-23T14:00:00","4","39.092169","-28.029847","26.21","GRACIOSA, PO","FM-15","LPGR ","V020","300,1,N,0031,1","22000,1,9,N","011265,1,N,1","+0240,1","+0170,1","99999,9","04,5,+00600,1,99,9",,,"04,99,1,99,9,99,9,99999,9,99,9,99,9",,"10291,1,99999,9",,,,"MET074METAR LPGR 231400Z 30006KT 9999 SCT020 24/17 Q1029 RMK WIND RWY09 33008KT;",
"08515599999","2010-07-23T15:00:00","4","39.092169","-28.029847","26.21","GRACIOSA, PO","FM-15","LPGR ","V020","330,1,N,0021,1","00600,1,C,N","011265,1,N,1","+0240,1","+0180,1","99999,9","07,5,+00600,1,99,9",,,"07,99,1,99,9,99,9,99999,9,99,9,99,9",,"10291,1,99999,9",,,,"MET074METAR LPGR 231500Z 33004KT 9999 BKN020 24/18 Q1029 RMK WIND RWY09 32010KT;",
"08515599999","2010-07-23T16:00:00","4","39.092169","-28.029847","26.21","GRACIOSA, PO","FM-15","LPGR ","V020","060,1,N,0031,1","22000,1,9,N","011265,1,N,1","+0250,1","+0170,1","99999,9","04,5,+00600,1,99,9",,,"04,99,1,99,9,99,9,99999,9,99,9,99,9",,"10291,1,99999,9",,,,"MET074METAR LPGR 231600Z 06006KT 9999 SCT020 25/17 Q1029 RMK WIND RWY09 32006KT;",
"08515599999","2010-07-23T17:00:00","4","39.092169","-28.029847","26.21","GRACIOSA, PO","FM-15","LPGR ","V020","080,1,N,0026,1","22000,1,9,N","011265,1,N,1","+0260,1","+0170,1","99999,9","02,5,+00600,1,99,9",,,"02,99,1,99,9,99,9,99999,9,99,9,99,9",,"10301,1,99999,9",,,,"MET074METAR LPGR 231700Z 08005KT 9999 FEW020 26/17 Q1030 RMK WIND RWY09 05006KT;",
"08515599999","2010-07-24T09:00:00","4","39.092169","-28.029847","26.21","GRACIOSA, PO","FM-15","LPGR ","V020","150,1,N,0010,1","22000,1,9,N","011265,1,N,1","+0210,1","+0180,1","99999,9","02,5,+00540,1,99,9",,,"02,99,1,99,9,99,9,99999,9,99,9,99,9",,"10301,1,99999,9",,,,"MET074METAR LPGR 240900Z 15002KT 9999 FEW018 21/18 Q1030 RMK WIND RWY09 18002KT;",
"08515599999","2010-07-24T10:00:00","4","39.092169","-28.029847","26.21","GRACIOSA, PO","FM-15","LPGR ","V020","170,1,N,0026,1","22000,1,9,N","011265,1,N,1","+0240,1","+0170,1","99999,9","02,5,+00600,1,99,9",,,"02,99,1,99,9,99,9,99999,9,99,9,99,9",,"10301,1,99999,9",,,,"MET074METAR LPGR 241000Z 17005KT 9999 FEW020 24/17 Q1030 RMK WIND RWY09 17004KT;",
"08515599999","2010-07-24T11:00:00","4","39.092169","-28.029847","26.21","GRACIOSA, PO","FM-15","LPGR ","V020","100,1,N,0057,1","22000,1,9,N","011265,1,N,1","+0240,1","+0170,1","99999,9","02,5,+00600,1,99,9",,,"02,99,1,99,9,99,9,99999,9,99,9,99,9",,"10301,1,99999,9",,,,"MET074METAR LPGR 241100Z 10011KT 9999 FEW020 24/17 Q1030 RMK WIND RWY09 16006KT;",
"08515599999","2010-07-24T12:00:00","4","39.092169","-28.029847","26.21","GRACIOSA, PO","FM-15","LPGR ","V020","100,1,N,0062,1","22000,1,9,N","011265,1,N,1","+0250,1","+0170,1","99999,9","02,5,+00600,1,99,9",,,"02,99,1,99,9,99,9,99999,9,99,9,99,9","999,M,+9999,9","10301,1,99999,9",,,,"MET074METAR LPGR 241200Z 10012KT 9999 FEW020 25/17 Q1030 RMK WIND RWY09 11008KT;","Q01 -00082ATMX  "
"08515599999","2010-07-24T13:00:00","4","39.092169","-28.029847","26.21","GRACIOSA, PO","FM-15","LPGR ","V020","110,1,N,0067,1","22000,1,9,N","011265,1,N,1","+0250,1","+0170,1","99999,9","02,5,+00600,1,99,9",,,"02,99,1,99,9,99,9,99999,9,99,9,99,9","999,M,+9999,9","10301,1,99999,9",,,,"MET074METAR LPGR 241300Z 11013KT 9999 FEW020 25/17 Q1030 RMK WIND RWY09 10014KT;","Q01 +00142ATMX  "
"08515599999","2010-07-24T15:00:00","4","39.092169","-28.029847","26.21","GRACIOSA, PO","FM-15","LPGR ","V020","110,1,N,0077,1","22000,1,9,N","011265,1,N,1","+0250,1","+0170,1","99999,9","02,5,+00600,1,99,9",,,"02,99,1,99,9,99,9,99999,9,99,9,99,9",,"10301,1,99999,9",,,,"MET074METAR LPGR 241500Z 11015KT 9999 FEW020 25/17 Q1030 RMK WIND RWY09 12010KT;",
"08515599999","2010-07-24T16:00:00","4","39.092169","-28.029847","26.21","GRACIOSA, PO","FM-15","LPGR ","V020","110,1,N,0067,1","22000,1,9,N","011265,1,N,1","+0250,1","+0170,1","99999,9","02,5,+00600,1,99,9",,,"02,99,1,99,9,99,9,99999,9,99,9,99,9","999,M,+9999,9","10291,1,99999,9",,,,"MET074METAR LPGR 241600Z 11013KT 9999 FEW020 25/17 Q1029 RMK WIND RWY09 11012KT;","Q01 -00122ATMX  "
"08515599999","2010-07-24T17:00:00","4","39.092169","-28.029847","26.21","GRACIOSA, PO","FM-15","LPGR ","V020","100,1,N,0062,1","22000,1,9,N","011265,1,N,1","+0250,1","+0160,1","99999,9","02,5,+00600,1,99,9",,,"02,99,1,99,9,99,9,99999,9,99,9,99,9","999,M,+9999,9","10301,1,99999,9",,,,"MET074METAR LPGR 241700Z 10012KT 9999 FEW020 25/16 Q1030 RMK WIND RWY09 11012KT;","Q01 -00122ATMX  "
"08515599999","2010-07-25T09:00:00","4","39.092169","-28.029847","26.21","GRACIOSA, PO","FM-15","LPGR ","V020","170,1,N,0046,1","22000,1,9,N","011265,1,N,1","+0220,1","+0160,1","99999,9","02,5,+00600,1,99,9",,,"02,99,1,99,9,99,9,99999,9,99,9,99,9",,"10281,1,99999,9",,,,"MET074METAR LPGR 250900Z 17009KT 9999 FEW020 22/16 Q1028 RMK WIND RWY09 16004KT;",
"08515599999","2010-07-25T11:00:00","4","39.092169","-28.029847","26.21","GRACIOSA, PO","FM-15","LPGR ","V020","160,1,N,0031,1","22000,1,9,N","011265,1,N,1","+0230,1","+0160,1","99999,9","02,5,+00600,1,99,9",,,"02,99,1,99,9,99,9,99999,9,99,9,99,9",,"10281,1,99999,9",,,,"MET074METAR LPGR 251100Z 16006KT 9999 FEW020 23/16 Q1028 RMK WIND RWY09 16006KT;",
"08515599999","2010-07-25T12:00:00","4","39.092169","-28.029847","26.21","GRACIOSA, PO","FM-15","LPGR ","V020","110,1,N,0067,1","22000,1,9,N","011265,1,N,1","+0250,1","+0160,1","99999,9","02,5,+00600,1,99,9",,,"02,99,1,99,9,99,9,99999,9,99,9,99,9","999,M,+9999,9","10281,1,99999,9",,,,"MET074METAR LPGR 251200Z 11013KT 9999 FEW020 25/16 Q1028 RMK WIND RWY09 10010KT;","Q01 +00102ATMX  "
"08515599999","2010-07-25T14:00:00","4","39.092169","-28.029847","26.21","GRACIOSA, PO","FM-15","LPGR ","V020","170,1,N,0026,1","22000,1,9,N","011265,1,N,1","+0220,1","+0160,1","99999,9","02,5,+00600,1,99,9",,,"02,99,1,99,9,99,9,99999,9,99,9,99,9",,"10281,1,99999,9",,,,"MET074METAR LPGR 251400Z 17005KT 9999 FEW020 22/16 Q1028 RMK WIND RWY09 16004KT;",
"08515599999","2010-07-25T15:00:00","4","39.092169","-28.029847","26.21","GRACIOSA, PO","FM-15","LPGR ","V020","100,1,N,0067,1","22000,1,9,N","011265,1,N,1","+0250,1","+0160,1","99999,9","02,5,+00600,1,99,9",,,"02,99,1,99,9,99,9,99999,9,99,9,99,9",,"10271,1,99999,9",,,,"MET074METAR LPGR 251500Z 10013KT 9999 FEW020 25/16 Q1027 RMK WIND RWY09 09010KT;",
"08515599999","2010-07-25T16:00:00","4","39.092169","-28.029847","26.21","GRACIOSA, PO","FM-15","LPGR ","V020","100,1,N,0067,1","22000,1,9,N","011265,1,N,1","+0240,1","+0160,1","99999,9","02,5,+00600,1,99,9",,,"02,99,1,99,9,99,9,99999,9,99,9,99,9","999,M,+9999,9","10271,1,99999,9",,,,"MET074METAR LPGR 251600Z 10013KT 9999 FEW020 24/16 Q1027 RMK WIND RWY09 10013KT;","Q01 +00132ATMX  "
"08515599999","2010-07-25T17:00:00","4","39.092169","-28.029847","26.21","GRACIOSA, PO","FM-15","LPGR ","V020","100,1,N,0067,1","22000,1,9,N","011265,1,N,1","+0250,1","+0160,1","99999,9","02,5,+00600,1,99,9",,,"02,99,1,99,9,99,9,99999,9,99,9,99,9",,"10271,1,99999,9",,,,"MET074METAR LPGR 251700Z 10013KT 9999 FEW020 25/16 Q1027 RMK WIND RWY09 09011KT;",
"08515599999","2010-07-26T07:00:00","4","39.092169","-28.029847","26.21","GRACIOSA, PO","FM-15","LPGR ","V020","130,1,N,0010,1","00420,1,C,N","011265,1,N,1","+0200,1","+0180,1","99999,9","07,5,+00420,1,99,9","07,5,+00750,1,99,9",,"07,99,1,99,9,99,9,99999,9,99,9,99,9",,"10251,1,99999,9",,,,"MET081METAR LPGR 260700Z 13002KT 9999 BKN014 BKN025 20/18 Q1025 RMK WIND RWY09 12002KT;",
"08515599999","2010-07-26T08:00:00","4","39.092169","-28.029847","26.21","GRACIOSA, PO","FM-15","LPGR ","V020","220,1,N,0041,1","00750,1,C,N","011265,1,N,1","+0210,1","+0180,1","99999,9","04,5,+00420,1,99,9","07,5,+00750,1,99,9",,"07,99,1,99,9,99,9,99999,9,99,9,99,9",,"10251,1,99999,9",,,,"MET081METAR LPGR 260800Z 22008KT 9999 SCT014 BKN025 21/18 Q1025 RMK WIND RWY09 22007KT;",
"08515599999","2010-07-26T09:00:00","4","39.092169","-28.029847","26.21","GRACIOSA, PO","FM-15","LPGR ","V020","220,1,N,0057,1","00900,1,C,N","011265,1,N,1","+0200,1","+0180,1","99999,9","04,5,+00450,1,99,9","07,5,+00900,1,99,9",,"07,99,1,99,9,99,9,99999,9,99,9,99,9",,"10251,1,99999,9",,,,"MET081METAR LPGR 260900Z 22011KT 9999 SCT015 BKN030 20/18 Q1025 RMK WIND RWY09 20008KT;",
"08515599999","2010-07-26T10:00:00","4","39.092169","-28.029847","26.21","GRACIOSA, PO","FM-15","LPGR ","V020","090,1,N,0026,1","00900,1,C,N","011265,1,N,1","+0240,1","+0170,1","99999,9","02,5,+00450,1,99,9","07,5,+00900,1,99,9",,"07,99,1,99,9,99,9,99999,9,99,9,99,9",,"10251,1,99999,9",,,,"MET081METAR LPGR 261000Z 09005KT 9999 FEW015 BKN030 24/17 Q1025 RMK WIND RWY09 08005KT;",
"08515599999","2010-07-26T11:00:00","4","39.092169","-28.029847","26.21","GRACIOSA, PO","FM-15","LPGR ","V020","110,1,N,0046,1","00360,1,C,N","011265,1,N,1","+0220,1","+0190,1","99999,9","07,5,+00360,1,99,9","07,5,+00900,1,99,9",,"07,99,1,99,9,99,9,99999,9,99,9,99,9","999,M,+9999,9","10251,1,99999,9",,,,"MET081METAR LPGR 261100Z 11009KT 9999 BKN012 BKN030 22/19 Q1025 RMK WIND RWY09 10008KT;","Q01 +00082ATMX  "
"08515599999","2010-07-26T13:00:00","4","39.092169","-28.029847","26.21","GRACIOSA, PO","FM-15","LPGR ","V020","050,1,N,0026,1","00900,1,C,N","011265,1,N,1","+0240,1","+0170,1","99999,9","04,5,+00420,1,99,9","07,5,+00900,1,99,9",,"07,99,1,99,9,99,9,99999,9,99,9,99,9",,"10251,1,99999,9",,,,"MET081METAR LPGR 261300Z 05005KT 9999 SCT014 BKN030 24/17 Q1025 RMK WIND RWY09 04004KT;",
"08515599999","2010-07-26T14:00:00","4","39.092169","-28.029847","26.21","GRACIOSA, PO","FM-15","LPGR ","V020","020,1,N,0026,1","01050,1,C,N","011265,1,N,1","+0240,1","+0180,1","99999,9","04,5,+00480,1,99,9","07,5,+01050,1,99,9",,"07,99,1,99,9,99,9,99999,9,99,9,99,9",,"10251,1,99999,9",,,,"MET081METAR LPGR 261400Z 02005KT 9999 SCT016 BKN035 24/18 Q1025 RMK WIND RWY09 01005KT;",
"08515599999","2010-07-26T15:00:00","4","39.092169","-28.029847","26.21","GRACIOSA, PO","FM-15","LPGR ","V020","040,1,N,0026,1","22000,1,9,N","011265,1,N,1","+0250,1","+0170,1","99999,9","02,5,+00480,1,99,9",,,"02,99,1,99,9,99,9,99999,9,99,9,99,9",,"10251,1,99999,9",,,,"MET074METAR LPGR 261500Z 04005KT 9999 FEW016 25/17 Q1025 RMK WIND RWY09 02006KT;",
"08515599999","2010-07-26T17:00:00","4","39.092169","-28.029847","26.21","GRACIOSA, PO","FM-15","LPGR ","V020","080,1,N,0046,1","01050,1,C,N","011265,1,N,1","+0260,1","+0170,1","99999,9","02,5,+00480,1,99,9","07,5,+01050,1,99,9",,"07,99,1,99,9,99,9,99999,9,99,9,99,9",,"10240,1,99999,9",,,,"MET081METAR LPGR 261700Z 08009KT 9999 FEW016 BKN035 26/17 Q1024 RMK WIND RWY09 08009KT;",
"08515599999","2010-07-27T07:00:00","4","39.092169","-28.029847","26.21","GRACIOSA, PO","FM-15","LPGR ","V020","120,1,N,0010,1","00900,1,C,N","011265,1,N,1","+0210,1","+0190,1","99999,9","02,5,+00420,1,99,9","07,5,+00900,1,99,9",,"07,99,1,99,9,99,9,99999,9,99,9,99,9",,"10230,1,99999,9",,,,"MET081METAR LPGR 270700Z 12002KT 9999 FEW014 BKN030 21/19 Q1023 RMK WIND RWY09 13002KT;",
"08515599999","2010-07-27T08:00:00","4","39.092169","-28.029847","26.21","GRACIOSA, PO","FM-15","LPGR ","V020","120,1,N,0010,1","00900,1,C,N","011265,1,N,1","+0210,1","+0190,1","99999,9","02,5,+00420,1,99,9","07,5,+00900,1,99,9",,"07,99,1,99,9,99,9,99999,9,99,9,99,9",,"10230,1,99999,9",,,,"MET081METAR LPGR 270800Z 12002KT 9999 FEW014 BKN030 21/19 Q1023 RMK WIND RWY09 13002KT;",
"08515599999","2010-07-27T09:00:00","4","39.092169","-28.029847","26.21","GRACIOSA, PO","FM-15","LPGR ","V020","120,1,N,0010,1","00900,1,C,N","011265,1,N,1","+0220,1","+0200,1","99999,9","02,5,+00450,1,99,9","07,5,+00900,1,99,9",,"07,99,1,99,9,99,9,99999,9,99,9,99,9",,"10230,1,99999,9",,,,"MET081METAR LPGR 270900Z 12002KT 9999 FEW015 BKN030 22/20 Q1023 RMK WIND RWY09 13002KT;",
"08515599999","2010-07-27T10:00:00","4","39.092169","-28.029847","26.21","GRACIOSA, PO","FM-15","LPGR ","V020","120,1,N,0010,1","00900,1,C,N","011265,1,N,1","+0230,1","+0190,1","99999,9","02,5,+00450,1,99,9","07,5,+00900,1,99,9",,"07,99,1,99,9,99,9,99999,9,99,9,99,9","999,M,+9999,9","10240,1,99999,9",,,,"MET081METAR LPGR 271000Z 12002KT 9999 FEW015 BKN030 23/19 Q1024 RMK WIND RWY09 11002KT;","Q01 -00022ATMX  "
"08515599999","2010-07-27T11:00:00","4","39.092169","-28.029847","26.21","GRACIOSA, PO","FM-15","LPGR ","V020","020,1,N,0010,1","00900,1,C,N","011265,1,N,1","+0240,1","+0190,1","99999,9","02,5,+00480,1,99,9","07,5,+00900,1,99,9",,"07,99,1,99,9,99,9,99999,9,99,9,99,9",,"10240,1,99999,9",,,,"MET081METAR LPGR 271100Z 02002KT 9999 FEW016 BKN030 24/19 Q1024 RMK WIND RWY09 36002KT;",
"08515599999","2010-07-27T15:00:00","4","39.092169","-28.029847","26.21","GRACIOSA, PO","FM-15","LPGR ","V020","080,1,N,0026,1","00900,1,C,N","011265,1,N,1","+0250,1","+0190,1","99999,9","04,5,+00450,1,99,9","07,5,+00900,1,99,9",,"07,99,1,99,9,99,9,99999,9,99,9,99,9",,"10240,1,99999,9",,,,"MET081METAR LPGR 271500Z 08005KT 9999 SCT015 BKN030 25/19 Q1024 RMK WIND RWY09 08006KT;",
"08515599999","2010-07-27T16:00:00","4","39.092169","-28.029847","26.21","GRACIOSA, PO","FM-15","LPGR ","V020","100,1,N,0031,1","00900,1,C,N","011265,1,N,1","+0250,1","+0200,1","99999,9","04,5,+00450,1,99,9","07,5,+00900,1,99,9",,"07,99,1,99,9,99,9,99999,9,99,9,99,9",,"10230,1,99999,9",,,,"MET081METAR LPGR 271600Z 10006KT 9999 SCT015 BKN030 25/20 Q1023 RMK WIND RWY09 08006KT;",
"08515599999","2010-07-27T17:00:00","4","39.092169","-28.029847","26.21","GRACIOSA, PO","FM-15","LPGR ","V020","100,1,N,0046,1","00900,1,C,N","011265,1,N,1","+0250,1","+0190,1","99999,9","02,5,+00450,1,99,9","07,5,+00900,1,99,9",,"07,99,1,99,9,99,9,99999,9,99,9,99,9",,"10230,1,99999,9",,,,"MET081METAR LPGR 271700Z 10009KT 9999 FEW015 BKN030 25/19 Q1023 RMK WIND RWY09 08009KT;",
"08515599999","2010-07-28T07:00:00","4","39.092169","-28.029847","26.21","GRACIOSA, PO","FM-15","LPGR ","V020","200,1,N,0015,1","22000,1,9,N","011265,1,N,1","+0180,1","+0170,1","99999,9","02,5,+00480,1,99,9",,,"02,99,1,99,9,99,9,99999,9,99,9,99,9",,"10240,1,99999,9",,,,"MET074METAR LPGR 280700Z 20003KT 9999 FEW016 18/17 Q1024 RMK WIND RWY09 25002KT;",
"08515599999","2010-07-28T08:00:00","4","39.092169","-28.029847","26.21","GRACIOSA, PO","FM-15","LPGR ","V020","200,1,N,0010,1","22000,1,9,N","011265,1,N,1","+0190,1","+0170,1","99999,9","02,5,+00480,1,99,9",,,"02,99,1,99,9,99,9,99999,9,99,9,99,9",,"10240,1,99999,9",,,,"MET074METAR LPGR 280800Z 20002KT 9999 FEW016 19/17 Q1024 RMK WIND RWY09 25002KT;",
"08515599999","2010-07-28T09:00:00","4","39.092169","-28.029847","26.21","GRACIOSA, PO","FM-15","LPGR ","V020","010,1,N,0010,1","22000,1,9,N","011265,1,N,1","+0230,1","+0200,1","99999,9","02,5,+00480,1,99,9",,,"02,99,1,99,9,99,9,99999,9,99,9,99,9",,"10251,1,99999,9",,,,"MET074METAR LPGR 280900Z 01002KT 9999 FEW016 23/20 Q1025 RMK WIND RWY09 12002KT;",
"08515599999","2010-07-28T10:00:00","4","39.092169","-28.029847","26.21","GRACIOSA, PO","FM-15","LPGR ","V020","090,1,N,0041,1","22000,1,9,N","011265,1,N,1","+0250,1","+0180,1","99999,9","02,5,+00540,1,99,9",,,"02,99,1,99,9,99,9,99999,9,99,9,99,9",,"10251,1,99999,9",,,,"MET074METAR LPGR 281000Z 09008KT 9999 FEW018 25/18 Q1025 RMK WIND RWY09 08008KT;",
"08515599999","2010-07-28T11:00:00","4","39.092169","-28.029847","26.21","GRACIOSA, PO","FM-15","LPGR ","V020","080,1,N,0051,1","22000,1,9,N","011265,1,N,1","+0250,1","+0170,1","99999,9","02,5,+00600,1,99,9",,,"02,99,1,99,9,99,9,99999,9,99,9,99,9",,"10251,1,99999,9",,,,"MET074METAR LPGR 281100Z 08010KT 9999 FEW020 25/17 Q1025 RMK WIND RWY09 08010KT;",
"08515599999","2010-07-28T14:00:00","4","39.092169","-28.029847","26.21","GRACIOSA, PO","FM-15","LPGR ","V020","090,1,N,0026,1","01050,1,C,N","011265,1,N,1","+0230,1","+0170,1","99999,9","02,5,+00600,1,99,9","07,5,+01050,1,99,9",,"07,99,1,99,9,99,9,99999,9,99,9,99,9",,"10261,1,99999,9",,,,"MET081METAR LPGR 281400Z 09005KT 9999 FEW020 BKN035 23/17 Q1026 RMK WIND RWY09 08010KT;",
"08515599999","2010-07-28T15:00:00","4","39.092169","-28.029847","26.21","GRACIOSA, PO","FM-15","LPGR ","V020","080,1,N,0051,1","01200,1,C,N","011265,1,N,1","+0250,1","+0170,1","99999,9","02,5,+00600,1,99,9","07,5,+01200,1,99,9",,"07,99,1,99,9,99,9,99999,9,99,9,99,9",,"10251,1,99999,9",,,,"MET081METAR LPGR 281500Z 08010KT 9999 FEW020 BKN040 25/17 Q1025 RMK WIND RWY09 08010KT;",
"08515599999","2010-07-28T16:00:00","4","39.092169","-28.029847","26.21","GRACIOSA, PO","FM-15","LPGR ","V020","090,1,N,0057,1","01200,1,C,N","011265,1,N,1","+0250,1","+0170,1","99999,9","02,5,+00600,1,99,9","07,5,+01200,1,99,9",,"07,99,1,99,9,99,9,99999,9,99,9,99,9",,"10251,1,99999,9",,,,"MET081METAR LPGR 281600Z 09011KT 9999 FEW020 BKN040 25/17 Q1025 RMK WIND RWY09 09010KT;",
"08515599999","2010-07-28T17:00:00","4","39.092169","-28.029847","26.21","GRACIOSA, PO","FM-15","LPGR ","V020","080,1,N,0051,1","01200,1,C,N","011265,1,N,1","+0250,1","+0180,1","99999,9","02,5,+00600,1,99,9","07,5,+01200,1,99,9",,"07,99,1,99,9,99,9,99999,9,99,9,99,9",,"10251,1,99999,9",,,,"MET081METAR LPGR 281700Z 08010KT 9999 FEW020 BKN040 25/18 Q1025 RMK WIND RWY09 07008KT;",
"08515599999","2010-07-29T07:00:00","4","39.092169","-28.029847","26.21","GRACIOSA, PO","FM-15","LPGR ","V020","130,1,N,0031,1","00750,1,C,N","011265,1,N,1","+0220,1","+0170,1","99999,9","04,5,+00420,1,99,9","07,5,+00750,1,99,9",,"07,99,1,99,9,99,9,99999,9,99,9,99,9",,"10240,1,99999,9",,,,"MET081METAR LPGR 290700Z 13006KT 9999 SCT014 BKN025 22/17 Q1024 RMK WIND RWY09 13004KT;",
"08515599999","2010-07-29T08:00:00","4","39.092169","-28.029847","26.21","GRACIOSA, PO","FM-15","LPGR ","V020","130,1,N,0021,1","00750,1,C,N","011265,1,N,1","+0220,1","+0170,1","99999,9","04,5,+00420,1,99,9","07,5,+00750,1,99,9",,"07,99,1,99,9,99,9,99999,9,99,9,99,9",,"10240,1,99999,9",,,,"MET081METAR LPGR 290800Z 13004KT 9999 SCT014 BKN025 22/17 Q1024 RMK WIND RWY09 15003KT;",
"08515599999","2010-07-29T09:00:00","4","39.092169","-28.029847","26.21","GRACIOSA, PO","FM-15","LPGR ","V020","080,1,N,0046,1","00900,1,C,N","011265,1,N,1","+0230,1","+0170,1","99999,9","02,5,+00450,1,99,9","07,5,+00900,1,99,9",,"07,99,1,99,9,99,9,99999,9,99,9,99,9",,"10240,1,99999,9",,,,"MET081METAR LPGR 290900Z 08009KT 9999 FEW015 BKN030 23/17 Q1024 RMK WIND RWY09 08009KT;",
"08515599999","2010-07-29T11:00:00","4","39.092169","-28.029847","26.21","GRACIOSA, PO","FM-15","LPGR ","V020","070,1,N,0046,1","00900,1,C,N","011265,1,N,1","+0250,1","+0170,1","99999,9","02,5,+00480,1,99,9","07,5,+00900,1,99,9",,"07,99,1,99,9,99,9,99999,9,99,9,99,9",,"10240,1,99999,9",,,,"MET081METAR LPGR 291100Z 07009KT 9999 FEW016 BKN030 25/17 Q1024 RMK WIND RWY09 06009KT;",
"08515599999","2010-07-29T12:00:00","4","39.092169","-28.029847","26.21","GRACIOSA, PO","FM-15","LPGR ","V020","080,1,N,0051,1","00900,1,C,N","011265,1,N,1","+0250,1","+0170,1","99999,9","02,5,+00480,1,99,9","07,5,+00900,1,99,9",,"07,99,1,99,9,99,9,99999,9,99,9,99,9",,"10240,1,99999,9",,,,"MET081METAR LPGR 291200Z 08010KT 9999 FEW016 BKN030 25/17 Q1024 RMK WIND RWY09 08010KT;",
"08515599999","2010-07-29T14:00:00","4","39.092169","-28.029847","26.21","GRACIOSA, PO","FM-15","LPGR ","V020","050,1,N,0036,1","01200,1,C,N","011265,1,N,1","+0250,1","+0160,1","99999,9","02,5,+00600,1,99,9","07,5,+01200,1,99,9",,"07,99,1,99,9,99,9,99999,9,99,9,99,9",,"10240,1,99999,9",,,,"MET081METAR LPGR 291400Z 05007KT 9999 FEW020 BKN040 25/16 Q1024 RMK WIND RWY09 05008KT;",
"08515599999","2010-07-29T15:00:00","4","39.092169","-28.029847","26.21","GRACIOSA, PO","FM-15","LPGR ","V020","070,1,N,0046,1","01200,1,C,N","011265,1,N,1","+0260,1","+0170,1","99999,9","02,5,+00600,1,99,9","07,5,+01200,1,99,9",,"07,99,1,99,9,99,9,99999,9,99,9,99,9",,"10240,1,99999,9",,,,"MET081METAR LPGR 291500Z 07009KT 9999 FEW020 BKN040 26/17 Q1024 RMK WIND RWY09 06010KT;",
"08515599999","2010-07-29T16:00:00","4","39.092169","-28.029847","26.21","GRACIOSA, PO","FM-15","LPGR ","V020","060,1,N,0046,1","22000,1,9,N","011265,1,N,1","+0270,1","+0180,1","99999,9","02,5,+00600,1,99,9",,,"02,99,1,99,9,99,9,99999,9,99,9,99,9",,"10240,1,99999,9",,,,"MET074METAR LPGR 291600Z 06009KT 9999 FEW020 27/18 Q1024 RMK WIND RWY09 06008KT;",
"08515599999","2010-07-30T08:00:00","4","39.092169","-28.029847","26.21","GRACIOSA, PO","FM-15","LPGR ","V020","040,1,N,0021,1","00900,1,C,N","011265,1,N,1","+0220,1","+0170,1","99999,9","02,5,+00450,1,99,9","07,5,+00900,1,99,9",,"07,99,1,99,9,99,9,99999,9,99,9,99,9",,"10220,1,99999,9",,,,"MET081METAR LPGR 300800Z 04004KT 9999 FEW015 BKN030 22/17 Q1022 RMK WIND RWY09 04004KT;",
"08515599999","2010-07-30T09:00:00","4","39.092169","-28.029847","26.21","GRACIOSA, PO","FM-15","LPGR ","V020","080,1,N,0041,1","00900,1,C,N","011265,1,N,1","+0220,1","+0170,1","99999,9","04,5,+00450,1,99,9","07,5,+00900,1,99,9",,"07,99,1,99,9,99,9,99999,9,99,9,99,9",,"10230,1,99999,9",,,,"MET081METAR LPGR 300900Z 08008KT 9999 SCT015 BKN030 22/17 Q1023 RMK WIND RWY09 07007KT;",
"08515599999","2010-07-30T10:00:00","4","39.092169","-28.029847","26.21","GRACIOSA, PO","FM-15","LPGR ","V020","080,1,N,0041,1","01050,1,C,N","011265,1,N,1","+0230,1","+0170,1","99999,9","02,5,+00480,1,99,9","07,5,+01050,1,99,9",,"07,99,1,99,9,99,9,99999,9,99,9,99,9",,"10230,1,99999,9",,,,"MET081METAR LPGR 301000Z 08008KT 9999 FEW016 BKN035 23/17 Q1023 RMK WIND RWY09 06007KT;",
"08515599999","2010-07-30T14:00:00","4","39.092169","-28.029847","26.21","GRACIOSA, PO","FM-15","LPGR ","V020","050,1,N,0051,1","22000,1,9,N","011265,1,N,1","+0260,1","+0170,1","99999,9","02,5,+00600,1,99,9",,,"02,99,1,99,9,99,9,99999,9,99,9,99,9",,"10220,1,99999,9",,,,"MET074METAR LPGR 301400Z 05010KT 9999 FEW020 26/17 Q1022 RMK WIND RWY09 04010KT;",
"08515599999","2010-07-30T15:00:00","4","39.092169","-28.029847","26.21","GRACIOSA, PO","FM-15","LPGR ","V020","060,1,N,0051,1","01200,1,C,N","011265,1,N,1","+0250,1","+0160,1","99999,9","02,5,+00600,1,99,9","07,5,+01200,1,99,9",,"07,99,1,99,9,99,9,99999,9,99,9,99,9",,"10220,1,99999,9",,,,"MET081METAR LPGR 301500Z 06010KT 9999 FEW020 BKN040 25/16 Q1022 RMK WIND RWY09 05010KT;",
"08515599999","2010-07-30T16:00:00","4","39.092169","-28.029847","26.21","GRACIOSA, PO","FM-15","LPGR ","V020","090,1,N,0057,1","01200,1,C,N","011265,1,N,1","+0250,1","+0170,1","99999,9","04,5,+00540,1,99,9","07,5,+01200,1,99,9",,"07,99,1,99,9,99,9,99999,9,99,9,99,9",,"10220,1,99999,9",,,,"MET081METAR LPGR 301600Z 09011KT 9999 SCT018 BKN040 25/17 Q1022 RMK WIND RWY09 09011KT;",
"08515599999","2010-07-30T17:00:00","4","39.092169","-28.029847","26.21","GRACIOSA, PO","FM-15","LPGR ","V020","070,1,N,0051,1","01200,1,C,N","011265,1,N,1","+0240,1","+0170,1","99999,9","02,5,+00540,1,99,9","07,5,+01200,1,99,9",,"07,99,1,99,9,99,9,99999,9,99,9,99,9",,"10230,1,99999,9",,,,"MET081METAR LPGR 301700Z 07010KT 9999 FEW018 BKN040 24/17 Q1023 RMK WIND RWY09 06010KT;",
"08515599999","2010-07-31T07:00:00","4","39.092169","-28.029847","26.21","GRACIOSA, PO","FM-15","LPGR ","V020","120,1,N,0021,1","00750,1,C,N","011265,1,N,1","+0200,1","+0190,1","99999,9","04,5,+00420,1,99,9","07,5,+00750,1,99,9",,"07,99,1,99,9,99,9,99999,9,99,9,99,9",,"10240,1,99999,9",,,,"MET081METAR LPGR 310700Z 12004KT 9999 SCT014 BKN025 20/19 Q1024 RMK WIND RWY09 13002KT;",
"08515599999","2010-07-31T09:00:00","4","39.092169","-28.029847","26.21","GRACIOSA, PO","FM-15","LPGR ","V020","100,1,N,0051,1","01050,1,C,N","011265,1,N,1","+0210,1","+0190,1","99999,9","02,5,+00540,1,99,9","07,5,+01050,1,99,9",,"07,99,1,99,9,99,9,99999,9,99,9,99,9","999,M,+9999,9","10251,1,99999,9",,,,"MET081METAR LPGR 310900Z 10010KT 9999 FEW018 BKN035 21/19 Q1025 RMK WIND RWY09 10005KT;","Q01 +00052ATMX  "
"08515599999","2010-07-31T15:00:00","4","39.092169","-28.029847","26.21","GRACIOSA, PO","FM-15","LPGR ","V020","060,1,N,0046,1","01200,1,C,N","011265,1,N,1","+0250,1","+0180,1","99999,9","02,5,+00600,1,99,9","07,5,+01200,1,99,9",,"07,99,1,99,9,99,9,99999,9,99,9,99,9",,"10271,1,99999,9",,,,"MET081METAR LPGR 311500Z 06009KT 9999 FEW020 BKN040 25/18 Q1027 RMK WIND RWY09 06008KT;",
"08515599999","2010-07-31T16:00:00","4","39.092169","-28.029847","26.21","GRACIOSA, PO","FM-15","LPGR ","V020","080,1,N,0051,1","01200,1,C,N","011265,1,N,1","+0260,1","+0180,1","99999,9","02,5,+00600,1,99,9","07,5,+01200,1,99,9",,"07,99,1,99,9,99,9,99999,9,99,9,99,9",,"10271,1,99999,9",,,,"MET081METAR LPGR 311600Z 08010KT 9999 FEW020 BKN040 26/18 Q1027 RMK WIND RWY09 07010KT;",
"08515599999","2010-07-31T17:00:00","4","39.092169","-28.029847","26.21","GRACIOSA, PO","FM-15","LPGR ","V020","080,1,N,0051,1","01200,1,C,N","011265,1,N,1","+0260,1","+0180,1","99999,9","02,5,+00600,1,99,9","07,5,+01200,1,99,9",,"07,99,1,99,9,99,9,99999,9,99,9,99,9",,"10271,1,99999,9",,,,"MET081METAR LPGR 311700Z 08010KT 9999 FEW020 BKN040 26/18 Q1027 RMK WIND RWY09 07012KT;",
"08515599999","2010-07-31T18:00:00","4","39.092169","-28.029847","26.21","GRACIOSA, PO","FM-15","LPGR ","V020","080,1,N,0057,1","01200,1,C,N","011265,1,N,1","+0250,1","+0170,1","99999,9","02,5,+00600,1,99,9","07,5,+01200,1,99,9",,"07,99,1,99,9,99,9,99999,9,99,9,99,9",,"10261,1,99999,9",,,,"MET081METAR LPGR 311800Z 08011KT 9999 FEW020 BKN040 25/17 Q1026 RMK WIND RWY09 08012KT;",
"08515599999","2010-07-31T19:00:00","4","39.092169","-28.029847","26.21","GRACIOSA, PO","FM-15","LPGR ","V020","090,1,N,0057,1","01200,1,C,N","011265,1,N,1","+0240,1","+0190,1","99999,9","02,5,+00540,1,99,9","07,5,+01200,1,99,9",,"07,99,1,99,9,99,9,99999,9,99,9,99,9",,"10261,1,99999,9",,,,"MET081METAR LPGR 311900Z 09011KT 9999 FEW018 BKN040 24/19 Q1026 RMK WIND RWY09 08009KT;",
"08515599999","2010-08-01T07:00:00","4","39.092169","-28.029847","26.21","GRACIOSA, PO","FM-15","LPGR ","V020","080,1,N,0051,1","22000,1,9,N","011265,1,N,1","+0210,1","+0180,1","99999,9","02,5,+00450,1,99,9",,,"02,99,1,99,9,99,9,99999,9,99,9,99,9",,"10281,1,99999,9",,,,"MET074METAR LPGR 010700Z 08010KT 9999 FEW015 21/18 Q1028 RMK WIND RWY09 07008KT;",
"08515599999","2010-08-01T08:00:00","4","39.092169","-28.029847","26.21","GRACIOSA, PO","FM-15","LPGR ","V020","080,1,N,0051,1","22000,1,9,N","011265,1,N,1","+0220,1","+0190,1","99999,9","02,5,+00480,1,99,9",,,"02,99,1,99,9,99,9,99999,9,99,9,99,9",,"10291,1,99999,9",,,,"MET074METAR LPGR 010800Z 08010KT 9999 FEW016 22/19 Q1029 RMK WIND RWY09 07007KT;",
"08515599999","2010-08-01T09:00:00","4","39.092169","-28.029847","26.21","GRACIOSA, PO","FM-15","LPGR ","V020","080,1,N,0051,1","22000,1,9,N","011265,1,N,1","+0230,1","+0180,1","99999,9","02,5,+00480,1,99,9",,,"02,99,1,99,9,99,9,99999,9,99,9,99,9",,"10291,1,99999,9",,,,"MET074METAR LPGR 010900Z 08010KT 9999 FEW016 23/18 Q1029 RMK WIND RWY09 08007KT;",
"08515599999","2010-08-01T10:00:00","4","39.092169","-28.029847","26.21","GRACIOSA, PO","FM-15","LPGR ","V020","080,1,N,0046,1","22000,1,9,N","011265,1,N,1","+0240,1","+0180,1","99999,9","02,5,+00540,1,99,9",,,"02,99,1,99,9,99,9,99999,9,99,9,99,9",,"10301,1,99999,9",,,,"MET074METAR LPGR 011000Z 08009KT 9999 FEW018 24/18 Q1030 RMK WIND RWY09 06009KT;",
"08515599999","2010-08-01T11:00:00","4","39.092169","-28.029847","26.21","GRACIOSA, PO","FM-15","LPGR ","V020","080,1,N,0046,1","22000,1,9,N","011265,1,N,1","+0250,1","+0180,1","99999,9","02,5,+00540,1,99,9",,,"02,99,1,99,9,99,9,99999,9,99,9,99,9",,"10301,1,99999,9",,,,"MET074METAR LPGR 011100Z 08009KT 9999 FEW018 25/18 Q1030 RMK WIND RWY09 07009KT;",
"08515599999","2010-08-01T13:00:00","4","39.092169","-28.029847","26.21","GRACIOSA, PO","FM-15","LPGR ","V020","080,1,N,0051,1","22000,1,9,N","011265,1,N,1","+0260,1","+0170,1","99999,9","02,5,+00600,1,99,9",,,"02,99,1,99,9,99,9,99999,9,99,9,99,9",,"10301,1,99999,9",,,,"MET074METAR LPGR 011300Z 08010KT 9999 FEW020 26/17 Q1030 RMK WIND RWY09 08009KT;",
"08515599999","2010-08-01T14:00:00","4","39.092169","-28.029847","26.21","GRACIOSA, PO","FM-15","LPGR ","V020","070,1,N,0046,1","01200,1,C,N","011265,1,N,1","+0250,1","+0180,1","99999,9","02,5,+00600,1,99,9","07,5,+01200,1,99,9",,"07,99,1,99,9,99,9,99999,9,99,9,99,9",,"10301,1,99999,9",,,,"MET081METAR LPGR 011400Z 07009KT 9999 FEW020 BKN040 25/18 Q1030 RMK WIND RWY09 06009KT;",
"08515599999","2010-08-01T15:00:00","4","39.092169","-28.029847","26.21","GRACIOSA, PO","FM-15","LPGR ","V020","070,1,N,0062,1","01200,1,C,N","011265,1,N,1","+0250,1","+0190,1","99999,9","02,5,+00600,1,99,9","07,5,+01200,1,99,9",,"07,99,1,99,9,99,9,99999,9,99,9,99,9",,"10301,1,99999,9",,,,"MET081METAR LPGR 011500Z 07012KT 9999 FEW020 BKN040 25/19 Q1030 RMK WIND RWY09 05012KT;",
"08515599999","2010-08-01T16:00:00","4","39.092169","-28.029847","26.21","GRACIOSA, PO","FM-15","LPGR ","V020","040,1,N,0062,1","01050,1,C,N","011265,1,N,1","+0240,1","+0200,1","99999,9","02,5,+00510,1,99,9","07,5,+01050,1,99,9",,"07,99,1,99,9,99,9,99999,9,99,9,99,9",,"10301,1,99999,9",,,,"MET081METAR LPGR 011600Z 04012KT 9999 FEW017 BKN035 24/20 Q1030 RMK WIND RWY09 05011KT;",
"08515599999","2010-08-01T17:00:00","4","39.092169","-28.029847","26.21","GRACIOSA, PO","FM-15","LPGR ","V020","040,1,N,0046,1","01050,1,C,N","011265,1,N,1","+0240,1","+0190,1","99999,9","02,5,+00480,1,99,9","07,5,+01050,1,99,9",,"07,99,1,99,9,99,9,99999,9,99,9,99,9",,"10301,1,99999,9",,,,"MET081METAR LPGR 011700Z 04009KT 9999 FEW016 BKN035 24/19 Q1030 RMK WIND RWY09 04008KT;",
"08515599999","2010-08-02T07:00:00","4","39.092169","-28.029847","26.21","GRACIOSA, PO","FM-15","LPGR ","V020","060,1,N,0046,1","00900,1,C,N","011265,1,N,1","+0220,1","+0170,1","99999,9","02,5,+00480,1,99,9","07,5,+00900,1,99,9",,"07,99,1,99,9,99,9,99999,9,99,9,99,9",,"10312,1,99999,9",,,,"MET081METAR LPGR 020700Z 06009KT 9999 FEW016 BKN030 22/17 Q1031 RMK WIND RWY09 05009KT;",
"08515599999","2010-08-02T08:00:00","4","39.092169","-28.029847","26.21","GRACIOSA, PO","FM-15","LPGR ","V020","090,1,N,0057,1","01050,1,C,N","011265,1,N,1","+0220,1","+0160,1","99999,9","02,5,+00540,1,99,9","07,5,+01050,1,99,9",,"07,99,1,99,9,99,9,99999,9,99,9,99,9",,"10312,1,99999,9",,,,"MET081METAR LPGR 020800Z 09011KT 9999 FEW018 BKN035 22/16 Q1031 RMK WIND RWY09 09008KT;",
"08515599999","2010-08-02T09:00:00","4","39.092169","-28.029847","26.21","GRACIOSA, PO","FM-15","LPGR ","V020","090,1,N,0057,1","01050,1,C,N","011265,1,N,1","+0230,1","+0160,1","99999,9","02,5,+00540,1,99,9","07,5,+01050,1,99,9",,"07,99,1,99,9,99,9,99999,9,99,9,99,9","999,M,+9999,9","10318,1,99999,9",,,,"MET081METAR LPGR 020900Z 09011KT 9999 FEW018 BKN035 23/16 Q1032 RMK WIND RWY09 10010KT;","Q01 +00102ATMX  "
"08515599999","2010-08-02T11:00:00","4","39.092169","-28.029847","26.21","GRACIOSA, PO","FM-15","LPGR ","V020","060,1,N,0062,1","01050,1,C,N","011265,1,N,1","+0230,1","+0180,1","99999,9","02,5,+00540,1,99,9","07,5,+01050,1,99,9",,"07,99,1,99,9,99,9,99999,9,99,9,99,9",,"10318,1,99999,9",,,,"MET081METAR LPGR 021100Z 06012KT 9999 FEW018 BKN035 23/18 Q1032 RMK WIND RWY09 05014KT;",
"08515599999","2010-08-02T13:00:00","4","39.092169","-28.029847","26.21","GRACIOSA, PO","FM-15","LPGR ","V020","060,1,N,0067,1","01050,1,C,N","009000,1,N,1","+0220,1","+0180,1","99999,9","04,5,+00480,1,99,9","07,5,+01050,1,99,9",,"07,99,1,99,9,99,9,99999,9,99,9,99,9",,"10318,1,99999,9","80,1",,,"MET087METAR LPGR 021300Z 06013KT 9000 -SHRA SCT016 BKN035 22/18 Q1032 RMK WIND RWY09 05016KT;",
"08515599999","2010-08-02T14:00:00","4","39.092169","-28.029847","26.21","GRACIOSA, PO","FM-15","LPGR ","V020","070,1,N,0067,1","01050,1,C,N","011265,1,N,1","+0230,1","+0180,1","99999,9","02,5,+00480,1,99,9","07,5,+01050,1,99,9",,"07,99,1,99,9,99,9,99999,9,99,9,99,9",,"10318,1,99999,9",,,,"MET081METAR LPGR 021400Z 07013KT 9999 FEW016 BKN035 23/18 Q1032 RMK WIND RWY09 06013KT;",
"08515599999","2010-08-02T15:00:00","4","39.092169","-28.029847","26.21","GRACIOSA, PO","FM-15","LPGR ","V020","070,1,N,0067,1","01050,1,C,N","011265,1,N,1","+0240,1","+0170,1","99999,9","02,5,+00540,1,99,9","07,5,+01050,1,99,9",,"07,99,1,99,9,99,9,99999,9,99,9,99,9",,"10318,1,99999,9",,,,"MET081METAR LPGR 021500Z 07013KT 9999 FEW018 BKN035 24/17 Q1032 RMK WIND RWY09 07013KT;",
"08515599999","2010-08-02T17:00:00","4","39.092169","-28.029847","26.21","GRACIOSA, PO","FM-15","LPGR ","V020","080,1,N,0057,1","22000,1,9,N","011265,1,N,1","+0250,1","+0170,1","99999,9","02,5,+00600,1,99,9",,,"02,99,1,99,9,99,9,99999,9,99,9,99,9",,"10318,1,99999,9",,,,"MET074METAR LPGR 021700Z 08011KT 9999 FEW020 25/17 Q1032 RMK WIND RWY09 07012KT;",
"08515599999","2010-08-03T07:00:00","4","39.092169","-28.029847","26.21","GRACIOSA, PO","FM-15","LPGR ","V020","050,1,N,0036,1","01050,1,C,N","011265,1,N,1","+0200,1","+0180,1","99999,9","04,5,+00450,1,99,9","07,5,+01050,1,99,9",,"07,99,1,99,9,99,9,99999,9,99,9,99,9",,"10301,1,99999,9","80,1",,,"MET087METAR LPGR 030700Z 05007KT 9999 -SHRA SCT015 BKN035 20/18 Q1030 RMK WIND RWY09 07005KT;",
"08515599999","2010-08-03T08:00:00","4","39.092169","-28.029847","26.21","GRACIOSA, PO","FM-15","LPGR ","V020","080,1,N,0067,1","99999,9,C,N","011265,1,N,1","+0210,1","+0170,1","99999,9","04,5,+00450,1,99,9","04,5,+01200,1,99,9",,"04,99,1,99,9,99,9,99999,9,99,9,99,9",,"10301,1,99999,9",,,,"MET081METAR LPGR 030800Z 08013KT 9999 SCT015 SCT040 21/17 Q1030 RMK WIND RWY09 08014KT;","P01 012003SCOCIG"
"08515599999","2010-08-03T09:00:00","4","39.092169","-28.029847","26.21","GRACIOSA, PO","FM-15","LPGR ","V020","080,1,N,0067,1","22000,1,9,N","011265,1,N,1","+0220,1","+0180,1","99999,9","02,5,+00480,1,99,9",,,"02,99,1,99,9,99,9,99999,9,99,9,99,9",,"10301,1,99999,9",,,,"MET074METAR LPGR 030900Z 08013KT 9999 FEW016 22/18 Q1030 RMK WIND RWY09 07013KT;",
"08515599999","2010-08-03T10:00:00","4","39.092169","-28.029847","26.21","GRACIOSA, PO","FM-15","LPGR ","V020","080,1,N,0067,1","22000,1,9,N","011265,1,N,1","+0230,1","+0170,1","99999,9","02,5,+00480,1,99,9",,,"02,99,1,99,9,99,9,99999,9,99,9,99,9",,"10301,1,99999,9",,,,"MET074METAR LPGR 031000Z 08013KT 9999 FEW016 23/17 Q1030 RMK WIND RWY09 08013KT;",
"08515599999","2010-08-03T11:00:00","4","39.092169","-28.029847","26.21","GRACIOSA, PO","FM-15","LPGR ","V020","080,1,N,0067,1","22000,1,9,N","011265,1,N,1","+0240,1","+0180,1","99999,9","02,5,+00540,1,99,9",,,"02,99,1,99,9,99,9,99999,9,99,9,99,9",,"10301,1,99999,9",,,,"MET074METAR LPGR 031100Z 08013KT 9999 FEW018 24/18 Q1030 RMK WIND RWY09 08016KT;",
"08515599999","2010-08-03T13:00:00","4","39.092169","-28.029847","26.21","GRACIOSA, PO","FM-15","LPGR ","V020","090,1,N,0067,1","99999,9,C,N","011265,1,N,1","+0250,1","+0180,1","99999,9","02,5,+00540,1,99,9","04,5,+01200,1,99,9",,"04,99,1,99,9,99,9,99999,9,99,9,99,9",,"10301,1,99999,9",,,,"MET081METAR LPGR 031300Z 09013KT 9999 FEW018 SCT040 25/18 Q1030 RMK WIND RWY09 08015KT;","P01 012003SCOCIG"
"08515599999","2010-08-03T14:00:00","4","39.092169","-28.029847","26.21","GRACIOSA, PO","FM-15","LPGR ","V020","080,1,N,0062,1","22000,1,9,N","011265,1,N,1","+0250,1","+0180,1","99999,9","02,5,+00600,1,99,9",,,"02,99,1,99,9,99,9,99999,9,99,9,99,9",,"10291,1,99999,9",,,,"MET074METAR LPGR 031400Z 08012KT 9999 FEW020 25/18 Q1029 RMK WIND RWY09 08013KT;",
"08515599999","2010-08-03T15:00:00","4","39.092169","-28.029847","26.21","GRACIOSA, PO","FM-15","LPGR ","V020","080,1,N,0067,1","99999,9,C,N","011265,1,N,1","+0250,1","+0180,1","99999,9","04,5,+00600,1,99,9","04,5,+01200,1,99,9",,"04,99,1,99,9,99,9,99999,9,99,9,99,9",,"10291,1,99999,9",,,,"MET081METAR LPGR 031500Z 08013KT 9999 SCT020 SCT040 25/18 Q1029 RMK WIND RWY09 08013KT;","P01 012003SCOCIG"
"08515599999","2010-08-03T16:00:00","4","39.092169","-28.029847","26.21","GRACIOSA, PO","FM-15","LPGR ","V020","070,1,N,0062,1","99999,9,C,N","011265,1,N,1","+0250,1","+0180,1","99999,9","04,5,+00600,1,99,9","04,5,+01200,1,99,9",,"04,99,1,99,9,99,9,99999,9,99,9,99,9",,"10291,1,99999,9",,,,"MET081METAR LPGR 031600Z 07012KT 9999 SCT020 SCT040 25/18 Q1029 RMK WIND RWY09 07014KT;","P01 012003SCOCIG"
"08515599999","2010-08-03T17:00:00","4","39.092169","-28.029847","26.21","GRACIOSA, PO","FM-15","LPGR ","V020","070,1,N,0067,1","99999,9,C,N","011265,1,N,1","+0240,1","+0200,1","99999,9","02,5,+00510,1,99,9","04,5,+01200,1,99,9",,"04,99,1,99,9,99,9,99999,9,99,9,99,9",,"10291,1,99999,9",,,,"MET081METAR LPGR 031700Z 07013KT 9999 FEW017 SCT040 24/20 Q1029 RMK WIND RWY09 07013KT;","P01 012003SCOCIG"
"08515599999","2010-08-04T07:00:00","4","39.092169","-28.029847","26.21","GRACIOSA, PO","FM-15","LPGR ","V020","080,1,N,0021,1","00750,1,C,N","011265,1,N,1","+0210,1","+0170,1","99999,9","04,5,+00420,1,99,9","07,5,+00750,1,99,9",,"07,99,1,99,9,99,9,99999,9,99,9,99,9",,"10271,1,99999,9",,,,"MET081METAR LPGR 040700Z 08004KT 9999 SCT014 BKN025 21/17 Q1027 RMK WIND RWY09 07016KT;",
"08515599999","2010-08-04T08:00:00","4","39.092169","-28.029847","26.21","GRACIOSA, PO","FM-15","LPGR ","V020","080,1,N,0067,1","00750,1,C,N","011265,1,N,1","+0210,1","+0170,1","99999,9","04,5,+00420,1,99,9","07,5,+00750,1,99,9",,"07,99,1,99,9,99,9,99999,9,99,9,99,9",,"10271,1,99999,9",,,,"MET081METAR LPGR 040800Z 08013KT 9999 SCT014 BKN025 21/17 Q1027 RMK WIND RWY09 07012KT;",
"08515599999","2010-08-04T09:00:00","4","39.092169","-28.029847","26.21","GRACIOSA, PO","FM-15","LPGR ","V020","080,1,N,0062,1","00750,1,C,N","011265,1,N,1","+0220,1","+0180,1","99999,9","04,5,+00420,1,99,9","07,5,+00750,1,99,9",,"07,99,1,99,9,99,9,99999,9,99,9,99,9",,"10271,1,99999,9",,,,"MET081METAR LPGR 040900Z 08012KT 9999 SCT014 BKN025 22/18 Q1027 RMK WIND RWY09 08013KT;",
"08515599999","2010-08-04T10:00:00","4","39.092169","-28.029847","26.21","GRACIOSA, PO","FM-15","LPGR ","V020","090,1,N,0067,1","00420,1,C,N","011265,1,N,1","+0220,1","+0180,1","99999,9","07,5,+00420,1,99,9",,,"07,99,1,99,9,99,9,99999,9,99,9,99,9",,"10271,1,99999,9",,,,"MET074METAR LPGR 041000Z 09013KT 9999 BKN014 22/18 Q1027 RMK WIND RWY09 09012KT;",
"08515599999","2010-08-04T11:00:00","4","39.092169","-28.029847","26.21","GRACIOSA, PO","FM-15","LPGR ","V020","040,1,N,0062,1","22000,1,9,N","011265,1,N,1","+0230,1","+0180,1","99999,9","04,5,+00420,1,99,9",,,"04,99,1,99,9,99,9,99999,9,99,9,99,9",,"10271,1,99999,9",,,,"MET074METAR LPGR 041100Z 04012KT 9999 SCT014 23/18 Q1027 RMK WIND RWY09 07014KT;",
"08515599999","2010-08-04T14:00:00","4","39.092169","-28.029847","26.21","GRACIOSA, PO","FM-15","LPGR ","V020","100,1,N,0062,1","22000,1,9,N","011265,1,N,1","+0250,1","+0180,1","99999,9","04,5,+00480,1,99,9",,,"04,99,1,99,9,99,9,99999,9,99,9,99,9",,"10271,1,99999,9",,,,"MET074METAR LPGR 041400Z 10012KT 9999 SCT016 25/18 Q1027 RMK WIND RWY09 08012KT;",
"08515599999","2010-08-04T15:00:00","4","39.092169","-28.029847","26.21","GRACIOSA, PO","FM-15","LPGR ","V020","100,1,N,0072,1","22000,1,9,N","011265,1,N,1","+0250,1","+0180,1","99999,9","04,5,+00480,1,99,9",,,"04,99,1,99,9,99,9,99999,9,99,9,99,9","999,M,+9999,9","10271,1,99999,9",,,,"MET074METAR LPGR 041500Z 10014KT 9999 SCT016 25/18 Q1027 RMK WIND RWY09 11014KT;","Q01 -00142ATMX  "
"08515599999","2010-08-04T16:00:00","4","39.092169","-28.029847","26.21","GRACIOSA, PO","FM-15","LPGR ","V020","110,1,N,0057,1","22000,1,9,N","011265,1,N,1","+0250,1","+0180,1","99999,9","04,5,+00480,1,99,9",,,"04,99,1,99,9,99,9,99999,9,99,9,99,9","999,M,+9999,9","10261,1,99999,9",,,,"MET074METAR LPGR 041600Z 11011KT 9999 SCT016 25/18 Q1026 RMK WIND RWY09 10010KT;","Q01 +00102ATMX  "
"08515599999","2010-08-04T17:00:00","4","39.092169","-28.029847","26.21","GRACIOSA, PO","FM-15","LPGR ","V020","080,1,N,0051,1","99999,9,C,N","011265,1,N,1","+0250,1","+0180,1","99999,9","02,5,+00480,1,99,9","04,5,+00900,1,99,9",,"04,99,1,99,9,99,9,99999,9,99,9,99,9",,"10261,1,99999,9",,,,"MET081METAR LPGR 041700Z 08010KT 9999 FEW016 SCT030 25/18 Q1026 RMK WIND RWY09 08010KT;","P01 009003SCOCIG"
"08515599999","2010-08-05T07:00:00","4","39.092169","-28.029847","26.21","GRACIOSA, PO","FM-15","LPGR ","V020","110,1,N,0067,1","00900,1,C,N","011265,1,N,1","+0210,1","+0190,1","99999,9","04,5,+00300,1,99,9","07,5,+00900,1,99,9",,"07,99,1,99,9,99,9,99999,9,99,9,99,9","999,M,+9999,9","10240,1,99999,9",,,,"MET081METAR LPGR 050700Z 11013KT 9999 SCT010 BKN030 21/19 Q1024 RMK WIND RWY09 10010KT;","Q01 +00102ATMX  "
"08515599999","2010-08-05T08:00:00","4","39.092169","-28.029847","26.21","GRACIOSA, PO","FM-15","LPGR ","V020","120,1,N,0062,1","00900,1,C,N","011265,1,N,1","+0210,1","+0200,1","99999,9","04,5,+00360,1,99,9","07,5,+00900,1,99,9",,"07,99,1,99,9,99,9,99999,9,99,9,99,9",,"10240,1,99999,9",,,,"MET081METAR LPGR 050800Z 12012KT 9999 SCT012 BKN030 21/20 Q1024 RMK WIND RWY09 12012KT;",
"08515599999","2010-08-05T09:00:00","4","39.092169","-28.029847","26.21","GRACIOSA, PO","FM-15","LPGR ","V020","130,1,N,0057,1","00900,1,C,N","011265,1,N,1","+0210,1","+0190,1","99999,9","04,5,+00360,1,99,9","07,5,+00900,1,99,9",,"07,99,1,99,9,99,9,99999,9,99,9,99,9",,"10251,1,99999,9","16,1",,,"MET086METAR LPGR 050900Z 13011KT 9999 VCSH SCT012 BKN030 21/19 Q1025 RMK WIND RWY09 15008KT;",
"08515599999","2010-08-05T10:00:00","4","39.092169","-28.029847","26.21","GRACIOSA, PO","FM-15","LPGR ","V020","120,1,N,0067,1","00900,1,C,N","011265,1,N,1","+0220,1","+0190,1","99999,9","02,5,+00360,1,99,9","07,5,+00900,1,99,9",,"07,99,1,99,9,99,9,99999,9,99,9,99,9","999,M,+9999,9","10240,1,99999,9",,,,"MET081METAR LPGR 051000Z 12013KT 9999 FEW012 BKN030 22/19 Q1024 RMK WIND RWY09 11010KT;","Q01 -00102ATMX  "
"08515599999","2010-08-05T11:00:00","4","39.092169","-28.029847","26.21","GRACIOSA, PO","FM-15","LPGR ","V020","130,1,N,0051,1","00900,1,C,N","011265,1,N,1","+0220,1","+0190,1","99999,9","04,5,+00360,1,99,9","07,5,+00900,1,99,9",,"07,99,1,99,9,99,9,99999,9,99,9,99,9",,"10251,1,99999,9","80,1",,,"MET087METAR LPGR 051100Z 13010KT 9999 -SHRA SCT012 BKN030 22/19 Q1025 RMK WIND RWY09 13006KT;",
"08515599999","2010-08-05T13:00:00","4","39.092169","-28.029847","26.21","GRACIOSA, PO","FM-15","LPGR ","V020","120,1,N,0067,1","01050,1,C,N","011265,1,N,1","+0240,1","+0180,1","99999,9","04,5,+00420,1,99,9","07,5,+01050,1,99,9",,"07,99,1,99,9,99,9,99999,9,99,9,99,9","999,M,+9999,9","10251,1,99999,9",,,,"MET081METAR LPGR 051300Z 12013KT 9999 SCT014 BKN035 24/18 Q1025 RMK WIND RWY09 11013KT;","Q01 -00132ATMX  "
"08515599999","2010-08-05T14:00:00","4","39.092169","-28.029847","26.21","GRACIOSA, PO","FM-15","LPGR ","V020","110,1,N,0077,1","01050,1,C,N","011265,1,N,1","+0250,1","+0200,1","99999,9","04,5,+00420,1,99,9","07,5,+01050,1,99,9",,"07,99,1,99,9,99,9,99999,9,99,9,99,9","999,M,+9999,9","10240,1,99999,9",,,,"MET081METAR LPGR 051400Z 11015KT 9999 SCT014 BKN035 25/20 Q1024 RMK WIND RWY09 10014KT;","Q01 +00142ATMX  "
"08515599999","2010-08-05T15:00:00","4","39.092169","-28.029847","26.21","GRACIOSA, PO","FM-15","LPGR ","V020","110,1,N,0077,1","01050,1,C,N","011265,1,N,1","+0240,1","+0200,1","99999,9","02,5,+00420,1,99,9","07,5,+01050,1,99,9",,"07,99,1,99,9,99,9,99999,9,99,9,99,9",,"10240,1,99999,9",,,,"MET081METAR LPGR 051500Z 11015KT 9999 FEW014 BKN035 24/20 Q1024 RMK WIND RWY09 12011KT;",
"08515599999","2010-08-05T16:00:00","4","39.092169","-28.029847","26.21","GRACIOSA, PO","FM-15","LPGR ","V020","120,1,N,0067,1","01050,1,C,N","011265,1,N,1","+0230,1","+0200,1","99999,9","04,5,+00360,1,99,9","07,5,+01050,1,99,9",,"07,99,1,99,9,99,9,99999,9,99,9,99,9","999,M,+9999,9","10240,1,99999,9",,,,"MET081METAR LPGR 051600Z 12013KT 9999 SCT012 BKN035 23/20 Q1024 RMK WIND RWY09 11009KT;","Q01 -00092ATMX  "
"08515599999","2010-08-05T17:00:00","4","39.092169","-28.029847","26.21","GRACIOSA, PO","FM-15","LPGR ","V020","130,1,N,0067,1","00390,1,C,N","009000,1,N,1","+0230,1","+0200,1","99999,9","07,5,+00390,1,99,9",,,"07,99,1,99,9,99,9,99999,9,99,9,99,9",,"10240,1,99999,9","80,1",,,"MET080METAR LPGR 051700Z 13013KT 9000 -SHRA BKN013 23/20 Q1024 RMK WIND RWY09 12010KT;",
"08515599999","2010-08-05T18:00:00","4","39.092169","-28.029847","26.21","GRACIOSA, PO","FM-15","LPGR ","V020","120,1,N,0072,1","01050,1,C,N","011265,1,N,1","+0230,1","+0200,1","99999,9","04,5,+00450,1,99,9","07,5,+01050,1,99,9",,"07,99,1,99,9,99,9,99999,9,99,9,99,9",,"10230,1,99999,9",,,,"MET081METAR LPGR 051800Z 12014KT 9999 SCT015 BKN035 23/20 Q1023 RMK WIND RWY09 12012KT;",
"08515599999","2010-08-06T07:00:00","4","39.092169","-28.029847","26.21","GRACIOSA, PO","FM-15","LPGR ","V020","100,1,N,0062,1","01050,1,C,N","011265,1,N,1","+0210,1","+0170,1","99999,9","02,5,+00360,1,99,9","07,5,+01050,1,99,9",,"07,99,1,99,9,99,9,99999,9,99,9,99,9","999,M,+9999,9","10220,1,99999,9",,,,"MET081METAR LPGR 060700Z 10012KT 9999 FEW012 BKN035 21/17 Q1022 RMK WIND RWY09 10012KT;","Q01 +00122ATMX  "
"08515599999","2010-08-06T08:00:00","4","39.092169","-28.029847","26.21","GRACIOSA, PO","FM-15","LPGR ","V020","120,1,N,0062,1","00480,1,C,N","011265,1,N,1","+0200,1","+0190,1","99999,9","02,5,+00360,1,99,9","04,5,+00480,1,99,9","07,5,+00900,1,99,9","07,99,1,99,9,99,9,99999,9,99,9,99,9","999,M,+9999,9","10230,1,99999,9","16,1",,,"MET093METAR LPGR 060800Z 12012KT 9999 VCSH FEW012 SCT016 BKN030 20/19 Q1023 RMK WIND RWY09 10010KT;","Q01 +00102ATMX  "
"08515599999","2010-08-06T09:00:00","4","39.092169","-28.029847","26.21","GRACIOSA, PO","FM-15","LPGR ","V020","120,1,N,0046,1","99999,9,C,N","011265,1,N,1","+0210,1","+0190,1","99999,9","02,5,+00390,1,99,9","04,5,+00480,1,99,9",,"04,99,1,99,9,99,9,99999,9,99,9,99,9","999,M,+9999,9","10230,1,99999,9","16,1",,,"MET086METAR LPGR 060900Z 12009KT 9999 VCSH FEW013 SCT016 21/19 Q1023 RMK WIND RWY09 11007KT;","Q01 -00072ATMX  P01 004803SCOCIG"
"08515599999","2010-08-06T10:00:00","4","39.092169","-28.029847","26.21","GRACIOSA, PO","FM-15","LPGR ","V020","110,1,N,0072,1","01050,1,C,N","011265,1,N,1","+0230,1","+0180,1","99999,9","02,5,+00450,1,99,9","07,5,+01050,1,99,9",,"07,99,1,99,9,99,9,99999,9,99,9,99,9","999,M,+9999,9","10230,1,99999,9",,,,"MET081METAR LPGR 061000Z 11014KT 9999 FEW015 BKN035 23/18 Q1023 RMK WIND RWY09 10012KT;","Q01 +00122ATMX  "
"08515599999","2010-08-06T11:00:00","4","39.092169","-28.029847","26.21","GRACIOSA, PO","FM-15","LPGR ","V020","120,1,N,0077,1","01050,1,C,N","011265,1,N,1","+0230,1","+0180,1","99999,9","02,5,+00450,1,99,9","07,5,+01050,1,99,9",,"07,99,1,99,9,99,9,99999,9,99,9,99,9","999,M,+9999,9","10230,1,99999,9",,,,"MET081METAR LPGR 061100Z 12015KT 9999 FEW015 BKN035 23/18 Q1023 RMK WIND RWY09 11013KT;","Q01 -00132ATMX  "
"08515599999","2010-08-06T13:00:00","4","39.092169","-28.029847","26.21","GRACIOSA, PO","FM-15","LPGR ","V020","130,1,N,0077,1","01200,1,C,N","011265,1,N,1","+0240,1","+0170,1","99999,9","04,5,+00480,1,99,9","07,5,+01200,1,99,9",,"07,99,1,99,9,99,9,99999,9,99,9,99,9","999,M,+9999,9","10230,1,99999,9",,,,"MET081METAR LPGR 061300Z 13015KT 9999 SCT016 BKN040 24/17 Q1023 RMK WIND RWY09 11013KT;","Q01 -00132ATMX  "
"08515599999","2010-08-06T14:00:00","4","39.092169","-28.029847","26.21","GRACIOSA, PO","FM-15","LPGR ","V020","120,1,N,0093,1","22000,1,9,N","011265,1,N,1","+0250,1","+0180,1","99999,9","02,5,+00540,1,99,9",,,"02,99,1,99,9,99,9,99999,9,99,9,99,9",,"10220,1,99999,9",,,,"MET074METAR LPGR 061400Z 12018KT 9999 FEW018 25/18 Q1022 RMK WIND RWY09 12017KT;",
"08515599999","2010-08-06T15:00:00","4","39.092169","-28.029847","26.21","GRACIOSA, PO","FM-15","LPGR ","V020","130,1,N,0093,1","01200,1,C,N","011265,1,N,1","+0250,1","+0180,1","99999,9","02,5,+00600,1,99,9","07,5,+01200,1,99,9",,"07,99,1,99,9,99,9,99999,9,99,9,99,9","999,M,+9999,9","10220,1,99999,9",,,,"MET081METAR LPGR 061500Z 13018KT 9999 FEW020 BKN040 25/18 Q1022 RMK WIND RWY09 11014KT;","Q01 -00142ATMX  "
"08515599999","2010-08-06T16:00:00","4","39.092169","-28.029847","26.21","GRACIOSA, PO","FM-15","LPGR ","V020","130,1,N,0082,1","99999,9,C,N","011265,1,N,1","+0240,1","+0180,1","99999,9","02,5,+00600,1,99,9","04,5,+01200,1,99,9",,"04,99,1,99,9,99,9,99999,9,99,9,99,9",,"10220,1,99999,9",,,,"MET081METAR LPGR 061600Z 13016KT 9999 FEW020 SCT040 24/18 Q1022 RMK WIND RWY09 12014KT;","P01 012003SCOCIG"
"08515599999","2010-08-06T17:00:00","4","39.092169","-28.029847","26.21","GRACIOSA, PO","FM-15","LPGR ","V020","130,1,N,0082,1","99999,9,C,N","011265,1,N,1","+0240,1","+0180,1","99999,9","02,5,+00540,1,99,9","04,5,+01050,1,99,9",,"04,99,1,99,9,99,9,99999,9,99,9,99,9",,"10220,1,99999,9",,,,"MET081METAR LPGR 061700Z 13016KT 9999 FEW018 SCT035 24/18 Q1022 RMK WIND RWY09 13014KT;","P01 010503SCOCIG"
"08515599999","2010-08-06T18:00:00","4","39.092169","-28.029847","26.21","GRACIOSA, PO","FM-15","LPGR ","V020","130,1,N,0067,1","01050,1,C,N","011265,1,N,1","+0230,1","+0190,1","99999,9","02,5,+00480,1,99,9","07,5,+01050,1,99,9",,"07,99,1,99,9,99,9,99999,9,99,9,99,9",,"10220,1,99999,9",,,,"MET081METAR LPGR 061800Z 13013KT 9999 FEW016 BKN035 23/19 Q1022 RMK WIND RWY09 12012KT;",
"08515599999","2010-08-06T19:00:00","4","39.092169","-28.029847","26.21","GRACIOSA, PO","FM-15","LPGR ","V020","110,1,N,0077,1","00900,1,C,N","011265,1,N,1","+0230,1","+0190,1","99999,9","02,5,+00480,1,99,9","07,5,+00900,1,99,9",,"07,99,1,99,9,99,9,99999,9,99,9,99,9","999,M,+9999,9","10220,1,99999,9",,,,"MET081METAR LPGR 061900Z 11015KT 9999 FEW016 BKN030 23/19 Q1022 RMK WIND RWY09 10013KT;","Q01 +00132ATMX  "
"08515599999","2010-08-07T07:00:00","4","39.092169","-28.029847","26.21","GRACIOSA, PO","FM-15","LPGR ","V020","160,1,N,0021,1","00900,1,C,N","011265,1,N,1","+0200,1","+0180,1","99999,9","02,5,+00420,1,99,9","07,5,+00900,1,99,9",,"07,99,1,99,9,99,9,99999,9,99,9,99,9",,"10220,1,99999,9",,,,"MET081METAR LPGR 070700Z 16004KT 9999 FEW014 BKN030 20/18 Q1022 RMK WIND RWY09 18001KT;",
"08515599999","2010-08-07T08:00:00","4","39.092169","-28.029847","26.21","GRACIOSA, PO","FM-15","LPGR ","V020","210,1,N,0021,1","00900,1,C,N","011265,1,N,1","+0210,1","+0180,1","99999,9","02,5,+00360,1,99,9","07,5,+00900,1,99,9",,"07,99,1,99,9,99,9,99999,9,99,9,99,9",,"10220,1,99999,9",,,,"MET081METAR LPGR 070800Z 21004KT 9999 FEW012 BKN030 21/18 Q1022 RMK WIND RWY09 17004KT;",
"08515599999","2010-08-07T09:00:00","4","39.092169","-28.029847","26.21","GRACIOSA, PO","FM-15","LPGR ","V020","130,1,N,0036,1","01050,1,C,N","011265,1,N,1","+0220,1","+0180,1","99999,9","02,5,+00420,1,99,9","07,5,+01050,1,99,9",,"07,99,1,99,9,99,9,99999,9,99,9,99,9",,"10230,1,99999,9",,,,"MET081METAR LPGR 070900Z 13007KT 9999 FEW014 BKN035 22/18 Q1023 RMK WIND RWY09 14008KT;",
"08515599999","2010-08-07T10:00:00","4","39.092169","-28.029847","26.21","GRACIOSA, PO","FM-15","LPGR ","V020","130,1,N,0051,1","01050,1,C,N","011265,1,N,1","+0230,1","+0180,1","99999,9","02,5,+00480,1,99,9","07,5,+01050,1,99,9",,"07,99,1,99,9,99,9,99999,9,99,9,99,9",,"10230,1,99999,9",,,,"MET081METAR LPGR 071000Z 13010KT 9999 FEW016 BKN035 23/18 Q1023 RMK WIND RWY09 15005KT;",
"08515599999","2010-08-07T11:00:00","4","39.092169","-28.029847","26.21","GRACIOSA, PO","FM-15","LPGR ","V020","120,1,N,0057,1","01200,1,C,N","011265,1,N,1","+0240,1","+0180,1","99999,9","02,5,+00480,1,99,9","07,5,+01200,1,99,9",,"07,99,1,99,9,99,9,99999,9,99,9,99,9",,"10230,1,99999,9",,,,"MET081METAR LPGR 071100Z 12011KT 9999 FEW016 BKN040 24/18 Q1023 RMK WIND RWY09 12008KT;",
"08515599999","2010-08-07T13:00:00","4","39.092169","-28.029847","26.21","GRACIOSA, PO","FM-15","LPGR ","V020","110,1,N,0057,1","99999,9,C,N","011265,1,N,1","+0250,1","+0180,1","99999,9","04,5,+00480,1,99,9","04,5,+01200,1,99,9",,"04,99,1,99,9,99,9,99999,9,99,9,99,9",,"10230,1,99999,9",,,,"MET081METAR LPGR 071300Z 11011KT 9999 SCT016 SCT040 25/18 Q1023 RMK WIND RWY09 12008KT;","P01 012003SCOCIG"
"08515599999","2010-08-07T14:00:00","4","39.092169","-28.029847","26.21","GRACIOSA, PO","FM-15","LPGR ","V020","120,1,N,0072,1","99999,9,C,N","011265,1,N,1","+0240,1","+0180,1","99999,9","04,5,+00480,1,99,9","04,5,+01200,1,99,9",,"04,99,1,99,9,99,9,99999,9,99,9,99,9","999,M,+9999,9","10230,1,99999,9",,,,"MET081METAR LPGR 071400Z 12014KT 9999 SCT016 SCT040 24/18 Q1023 RMK WIND RWY09 11013KT;","Q01 -00132ATMX  P01 012003SCOCIG"
"08515599999","2010-08-07T15:00:00","4","39.092169","-28.029847","26.21","GRACIOSA, PO","FM-15","LPGR ","V020","110,1,N,0062,1","99999,9,C,N","011265,1,N,1","+0250,1","+0180,1","99999,9","02,5,+00600,1,99,9","04,5,+01200,1,99,9",,"04,99,1,99,9,99,9,99999,9,99,9,99,9","999,M,+9999,9","10230,1,99999,9",,,,"MET081METAR LPGR 071500Z 11012KT 9999 FEW020 SCT040 25/18 Q1023 RMK WIND RWY09 10010KT;","Q01 +00102ATMX  P01 012003SCOCIG"
"08515599999","2010-08-08T08:00:00","4","39.092169","-28.029847","26.21","GRACIOSA, PO","FM-15","LPGR ","V020","110,1,N,0062,1","22000,1,9,N","011265,1,N,1","+0210,1","+0180,1","99999,9","04,5,+00420,1,99,9",,,"04,99,1,99,9,99,9,99999,9,99,9,99,9","999,M,+9999,9","10240,1,99999,9",,,,"MET074METAR LPGR 080800Z 11012KT 9999 SCT014 21/18 Q1024 RMK WIND RWY09 10008KT;","Q01 +00082ATMX  "
"08515599999","2010-08-08T09:00:00","4","39.092169","-28.029847","26.21","GRACIOSA, PO","FM-15","LPGR ","V020","100,1,N,0051,1","22000,1,9,N","011265,1,N,1","+0230,1","+0180,1","99999,9","02,5,+00480,1,99,9",,,"02,99,1,99,9,99,9,99999,9,99,9,99,9","999,M,+9999,9","10240,1,99999,9",,,,"MET074METAR LPGR 080900Z 10010KT 9999 FEW016 23/18 Q1024 RMK WIND RWY09 10008KT;","Q01 +00082ATMX  "
"08515599999","2010-08-08T10:00:00","4","39.092169","-28.029847","26.21","GRACIOSA, PO","FM-15","LPGR ","V020","090,1,N,0057,1","22000,1,9,N","011265,1,N,1","+0230,1","+0180,1","99999,9","04,5,+00480,1,99,9",,,"04,99,1,99,9,99,9,99999,9,99,9,99,9",,"10240,1,99999,9",,,,"MET074METAR LPGR 081000Z 09011KT 9999 SCT016 23/18 Q1024 RMK WIND RWY09 08013KT;",
"08515599999","2010-08-08T11:00:00","4","39.092169","-28.029847","26.21","GRACIOSA, PO","FM-15","LPGR ","V020","080,1,N,0057,1","01200,1,C,N","011265,1,N,1","+0240,1","+0190,1","99999,9","02,5,+00480,1,99,9","07,5,+01200,1,99,9",,"07,99,1,99,9,99,9,99999,9,99,9,99,9",,"10240,1,99999,9",,,,"MET081METAR LPGR 081100Z 08011KT 9999 FEW016 BKN040 24/19 Q1024 RMK WIND RWY09 07012KT;",
"08515599999","2010-08-08T13:00:00","4","39.092169","-28.029847","26.21","GRACIOSA, PO","FM-15","LPGR ","V020","090,1,N,0067,1","22000,1,9,N","011265,1,N,1","+0250,1","+0170,1","99999,9","02,5,+00600,1,99,9",,,"02,99,1,99,9,99,9,99999,9,99,9,99,9",,"10240,1,99999,9",,,,"MET074METAR LPGR 081300Z 09013KT 9999 FEW020 25/17 Q1024 RMK WIND RWY09 09014KT;",
"08515599999","2010-08-08T14:00:00","4","39.092169","-28.029847","26.21","GRACIOSA, PO","FM-15","LPGR ","V020","090,1,N,0062,1","22000,1,9,N","011265,1,N,1","+0250,1","+0180,1","99999,9","02,5,+00600,1,99,9",,,"02,99,1,99,9,99,9,99999,9,99,9,99,9","999,M,+9999,9","10240,1,99999,9",,,,"MET074METAR LPGR 081400Z 09012KT 9999 FEW020 25/18 Q1024 RMK WIND RWY09 10011KT;","Q01 +00112ATMX  "
"08515599999","2010-08-08T15:00:00","4","39.092169","-28.029847","26.21","GRACIOSA, PO","FM-15","LPGR ","V020","070,1,N,0051,1","22000,1,9,N","011265,1,N,1","+0250,1","+0170,1","99999,9","02,5,+00600,1,99,9",,,"02,99,1,99,9,99,9,99999,9,99,9,99,9",,"10240,1,99999,9",,,,"MET074METAR LPGR 081500Z 07010KT 9999 FEW020 25/17 Q1024 RMK WIND RWY09 07013KT;",
"08515599999","2010-08-08T16:00:00","4","39.092169","-28.029847","26.21","GRACIOSA, PO","FM-15","LPGR ","V020","080,1,N,0062,1","22000,1,9,N","011265,1,N,1","+0250,1","+0180,1","99999,9","02,5,+00600,1,99,9",,,"02,99,1,99,9,99,9,99999,9,99,9,99,9",,"10240,1,99999,9",,,,"MET074METAR LPGR 081600Z 08012KT 9999 FEW020 25/18 Q1024 RMK WIND RWY09 08013KT;",
"08515599999","2010-08-08T17:00:00","4","39.092169","-28.029847","26.21","GRACIOSA, PO","FM-15","LPGR ","V020","080,1,N,0062,1","22000,1,9,N","011265,1,N,1","+0250,1","+0180,1","99999,9","02,5,+00600,1,99,9",,,"02,99,1,99,9,99,9,99999,9,99,9,99,9",,"10240,1,99999,9",,,,"MET074METAR LPGR 081700Z 08012KT 9999 FEW020 25/18 Q1024 RMK WIND RWY09 08012KT;",
"08515599999","2010-08-09T07:00:00","4","39.092169","-28.029847","26.21","GRACIOSA, PO","FM-15","LPGR ","V020","080,1,N,0051,1","22000,1,9,N","011265,1,N,1","+0210,1","+0170,1","99999,9","02,5,+00450,1,99,9",,,"02,99,1,99,9,99,9,99999,9,99,9,99,9",,"10230,1,99999,9",,,,"MET074METAR LPGR 090700Z 08010KT 9999 FEW015 21/17 Q1023 RMK WIND RWY09 07009KT;",
"08515599999","2010-08-09T08:00:00","4","39.092169","-28.029847","26.21","GRACIOSA, PO","FM-15","LPGR ","V020","080,1,N,0046,1","22000,1,9,N","011265,1,N,1","+0220,1","+0180,1","99999,9","04,5,+00450,1,99,9",,,"04,99,1,99,9,99,9,99999,9,99,9,99,9",,"10230,1,99999,9",,,,"MET074METAR LPGR 090800Z 08009KT 9999 SCT015 22/18 Q1023 RMK WIND RWY09 07009KT;",
"08515599999","2010-08-09T09:00:00","4","39.092169","-28.029847","26.21","GRACIOSA, PO","FM-15","LPGR ","V020","070,1,N,0046,1","99999,9,C,N","011265,1,N,1","+0230,1","+0180,1","99999,9","02,5,+00480,1,99,9","04,5,+01050,1,99,9",,"04,99,1,99,9,99,9,99999,9,99,9,99,9",,"10240,1,99999,9",,,,"MET081METAR LPGR 090900Z 07009KT 9999 FEW016 SCT035 23/18 Q1024 RMK WIND RWY09 07008KT;","P01 010503SCOCIG"
"08515599999","2010-08-09T10:00:00","4","39.092169","-28.029847","26.21","GRACIOSA, PO","FM-15","LPGR ","V020","070,1,N,0041,1","01200,1,C,N","011265,1,N,1","+0230,1","+0170,1","99999,9","02,5,+00540,1,99,9","07,5,+01200,1,99,9",,"07,99,1,99,9,99,9,99999,9,99,9,99,9",,"10240,1,99999,9",,,,"MET081METAR LPGR 091000Z 07008KT 9999 FEW018 BKN040 23/17 Q1024 RMK WIND RWY09 07008KT;",
"08515599999","2010-08-09T11:00:00","4","39.092169","-28.029847","26.21","GRACIOSA, PO","FM-15","LPGR ","V020","080,1,N,0046,1","22000,1,9,N","011265,1,N,1","+0240,1","+0170,1","99999,9","02,5,+00600,1,99,9",,,"02,99,1,99,9,99,9,99999,9,99,9,99,9",,"10240,1,99999,9",,,,"MET074METAR LPGR 091100Z 08009KT 9999 FEW020 24/17 Q1024 RMK WIND RWY09 08009KT;",
"08515599999","2010-08-09T13:00:00","4","39.092169","-28.029847","26.21","GRACIOSA, PO","FM-15","LPGR ","V020","070,1,N,0041,1","22000,1,9,N","011265,1,N,1","+0250,1","+0170,1","99999,9","02,5,+00600,1,99,9",,,"02,99,1,99,9,99,9,99999,9,99,9,99,9",,"10240,1,99999,9",,,,"MET074METAR LPGR 091300Z 07008KT 9999 FEW020 25/17 Q1024 RMK WIND RWY09 07008KT;",
"08515599999","2010-08-09T14:00:00","4","39.092169","-28.029847","26.21","GRACIOSA, PO","FM-15","LPGR ","V020","060,1,N,0051,1","01050,1,C,N","011265,1,N,1","+0250,1","+0170,1","99999,9","02,5,+00600,1,99,9","07,5,+01050,1,99,9",,"07,99,1,99,9,99,9,99999,9,99,9,99,9",,"10230,1,99999,9",,,,"MET081METAR LPGR 091400Z 06010KT 9999 FEW020 BKN035 25/17 Q1023 RMK WIND RWY09 05008KT;",
"08515599999","2010-08-09T15:00:00","4","39.092169","-28.029847","26.21","GRACIOSA, PO","FM-15","LPGR ","V020","060,1,N,0046,1","01200,1,C,N","011265,1,N,1","+0240,1","+0170,1","99999,9","02,5,+00600,1,99,9","07,5,+01200,1,99,9",,"07,99,1,99,9,99,9,99999,9,99,9,99,9",,"10230,1,99999,9",,,,"MET081METAR LPGR 091500Z 06009KT 9999 FEW020 BKN040 24/17 Q1023 RMK WIND RWY09 05008KT;",
"08515599999","2010-08-09T16:00:00","4","39.092169","-28.029847","26.21","GRACIOSA, PO","FM-15","LPGR ","V020","070,1,N,0031,1","01200,1,C,N","011265,1,N,1","+0240,1","+0180,1","99999,9","02,5,+00600,1,99,9","07,5,+01200,1,99,9",,"07,99,1,99,9,99,9,99999,9,99,9,99,9",,"10230,1,99999,9",,,,"MET081METAR LPGR 091600Z 07006KT 9999 FEW020 BKN040 24/18 Q1023 RMK WIND RWY09 08006KT;",
"08515599999","2010-08-09T17:00:00","4","39.092169","-28.029847","26.21","GRACIOSA, PO","FM-15","LPGR ","V020","080,1,N,0041,1","01200,1,C,N","011265,1,N,1","+0240,1","+0170,1","99999,9","02,5,+00600,1,99,9","07,5,+01200,1,99,9",,"07,99,1,99,9,99,9,99999,9,99,9,99,9",,"10220,1,99999,9",,,,"MET081METAR LPGR 091700Z 08008KT 9999 FEW020 BKN040 24/17 Q1022 RMK WIND RWY09 06008KT;",
"08515599999","2010-08-10T07:00:00","4","39.092169","-28.029847","26.21","GRACIOSA, PO","FM-15","LPGR ","V020","130,1,N,0021,1","00900,1,C,N","011265,1,N,1","+0200,1","+0170,1","99999,9","02,5,+00420,1,99,9","07,5,+00900,1,99,9",,"07,99,1,99,9,99,9,99999,9,99,9,99,9",,"10220,1,99999,9",,,,"MET081METAR LPGR 100700Z 13004KT 9999 FEW014 BKN030 20/17 Q1022 RMK WIND RWY09 12001KT;",
"08515599999","2010-08-10T08:00:00","4","39.092169","-28.029847","26.21","GRACIOSA, PO","FM-15","LPGR ","V020","090,1,N,0026,1","00900,1,C,N","011265,1,N,1","+0210,1","+0180,1","99999,9","02,5,+00450,1,99,9","07,5,+00900,1,99,9",,"07,99,1,99,9,99,9,99999,9,99,9,99,9",,"10220,1,99999,9",,,,"MET081METAR LPGR 100800Z 09005KT 9999 FEW015 BKN030 21/18 Q1022 RMK WIND RWY09 12001KT;",
"08515599999","2010-08-10T09:00:00","4","39.092169","-28.029847","26.21","GRACIOSA, PO","FM-15","LPGR ","V020","080,1,N,0026,1","99999,9,C,N","011265,1,N,1","+0220,1","+0170,1","99999,9","02,5,+00480,1,99,9","04,5,+01050,1,99,9",,"04,99,1,99,9,99,9,99999,9,99,9,99,9",,"10220,1,99999,9",,,,"MET081METAR LPGR 100900Z 08005KT 9999 FEW016 SCT035 22/17 Q1022 RMK WIND RWY09 07003KT;","P01 010503SCOCIG"
"08515599999","2010-08-10T10:00:00","4","39.092169","-28.029847","26.21","GRACIOSA, PO","FM-15","LPGR ","V020","070,1,N,0031,1","22000,1,9,N","011265,1,N,1","+0240,1","+0170,1","99999,9","02,5,+00540,1,99,9",,,"02,99,1,99,9,99,9,99999,9,99,9,99,9",,"10230,1,99999,9",,,,"MET074METAR LPGR 101000Z 07006KT 9999 FEW018 24/17 Q1023 RMK WIND RWY09 06005KT;",
"08515599999","2010-08-10T13:00:00","4","39.092169","-28.029847","26.21","GRACIOSA, PO","FM-15","LPGR ","V020","100,1,N,0051,1","22000,1,9,N","011265,1,N,1","+0260,1","+0160,1","99999,9","02,5,+00600,1,99,9",,,"02,99,1,99,9,99,9,99999,9,99,9,99,9",,"10220,1,99999,9",,,,"MET074METAR LPGR 101300Z 10010KT 9999 FEW020 26/16 Q1022 RMK WIND RWY09 08008KT;",
"08515599999","2010-08-10T14:00:00","4","39.092169","-28.029847","26.21","GRACIOSA, PO","FM-15","LPGR ","V020","080,1,N,0046,1","22000,1,9,N","011265,1,N,1","+0250,1","+0160,1","99999,9","02,5,+00600,1,99,9",,,"02,99,1,99,9,99,9,99999,9,99,9,99,9","999,M,+9999,9","10220,1,99999,9",,,,"MET074METAR LPGR 101400Z 08009KT 9999 FEW020 25/16 Q1022 RMK WIND RWY09 10007KT;","Q01 +00072ATMX  "
"08515599999","2010-08-10T15:00:00","4","39.092169","-28.029847","26.21","GRACIOSA, PO","FM-15","LPGR ","V020","090,1,N,0046,1","22000,1,9,N","011265,1,N,1","+0250,1","+0160,1","99999,9","02,5,+00600,1,99,9",,,"02,99,1,99,9,99,9,99999,9,99,9,99,9",,"10220,1,99999,9",,,,"MET074METAR LPGR 101500Z 09009KT 9999 FEW020 25/16 Q1022 RMK WIND RWY09 09008KT;",
"08515599999","2010-08-10T16:00:00","4","39.092169","-28.029847","26.21","GRACIOSA, PO","FM-15","LPGR ","V020","100,1,N,0051,1","22000,1,9,N","011265,1,N,1","+0250,1","+0160,1","99999,9","02,5,+00600,1,99,9",,,"02,99,1,99,9,99,9,99999,9,99,9,99,9",,"10220,1,99999,9",,,,"MET074METAR LPGR 101600Z 10010KT 9999 FEW020 25/16 Q1022 RMK WIND RWY09 09010KT;",
"08515599999","2010-08-10T17:00:00","4","39.092169","-28.029847","26.21","GRACIOSA, PO","FM-15","LPGR ","V020","080,1,N,0051,1","22000,1,9,N","011265,1,N,1","+0250,1","+0160,1","99999,9","02,5,+00600,1,99,9",,,"02,99,1,99,9,99,9,99999,9,99,9,99,9",,"10220,1,99999,9",,,,"MET074METAR LPGR 101700Z 08010KT 9999 FEW020 25/16 Q1022 RMK WIND RWY09 09008KT;",
"08515599999","2010-08-11T07:00:00","4","39.092169","-28.029847","26.21","GRACIOSA, PO","FM-15","LPGR ","V020","140,1,N,0021,1","22000,1,9,N","011265,1,N,1","+0170,1","+0140,1","99999,9","02,5,+00480,1,99,9",,,"02,99,1,99,9,99,9,99999,9,99,9,99,9",,"10230,1,99999,9",,,,"MET074METAR LPGR 110700Z 14004KT 9999 FEW016 17/14 Q1023 RMK WIND RWY09 13003KT;",
"08515599999","2010-08-11T08:00:00","4","39.092169","-28.029847","26.21","GRACIOSA, PO","FM-15","LPGR ","V020","140,1,N,0021,1","22000,1,9,N","011265,1,N,1","+0180,1","+0150,1","99999,9","02,5,+00480,1,99,9",,,"02,99,1,99,9,99,9,99999,9,99,9,99,9",,"10230,1,99999,9",,,,"MET074METAR LPGR 110800Z 14004KT 9999 FEW016 18/15 Q1023 RMK WIND RWY09 13002KT;",
"08515599999","2010-08-11T09:00:00","4","39.092169","-28.029847","26.21","GRACIOSA, PO","FM-15","LPGR ","V020","110,1,N,0046,1","22000,1,9,N","011265,1,N,1","+0220,1","+0170,1","99999,9","02,5,+00540,1,99,9",,,"02,99,1,99,9,99,9,99999,9,99,9,99,9",,"10240,1,99999,9",,,,"MET074METAR LPGR 110900Z 11009KT 9999 FEW018 22/17 Q1024 RMK WIND RWY09 12005KT;",
"08515599999","2010-08-11T10:00:00","4","39.092169","-28.029847","26.21","GRACIOSA, PO","FM-15","LPGR ","V020","100,1,N,0051,1","22000,1,9,N","011265,1,N,1","+0240,1","+0160,1","99999,9","02,5,+00540,1,99,9",,,"02,99,1,99,9,99,9,99999,9,99,9,99,9",,"10240,1,99999,9",,,,"MET074METAR LPGR 111000Z 10010KT 9999 FEW018 24/16 Q1024 RMK WIND RWY09 09008KT;",
"08515599999","2010-08-11T11:00:00","4","39.092169","-28.029847","26.21","GRACIOSA, PO","FM-15","LPGR ","V020","100,1,N,0062,1","22000,1,9,N","011265,1,N,1","+0250,1","+0160,1","99999,9","02,5,+00600,1,99,9",,,"02,99,1,99,9,99,9,99999,9,99,9,99,9",,"10240,1,99999,9",,,,"MET074METAR LPGR 111100Z 10012KT 9999 FEW020 25/16 Q1024 RMK WIND RWY09 09010KT;",
"08515599999","2010-08-11T13:00:00","4","39.092169","-28.029847","26.21","GRACIOSA, PO","FM-15","LPGR ","V020","100,1,N,0062,1","22000,1,9,N","011265,1,N,1","+0260,1","+0160,1","99999,9","02,5,+00600,1,99,9",,,"02,99,1,99,9,99,9,99999,9,99,9,99,9",,"10240,1,99999,9",,,,"MET074METAR LPGR 111300Z 10012KT 9999 FEW020 26/16 Q1024 RMK WIND RWY09 09012KT;",
"08515599999","2010-08-11T14:00:00","4","39.092169","-28.029847","26.21","GRACIOSA, PO","FM-15","LPGR ","V020","100,1,N,0062,1","22000,1,9,N","011265,1,N,1","+0250,1","+0160,1","99999,9","02,5,+00600,1,99,9",,,"02,99,1,99,9,99,9,99999,9,99,9,99,9",,"10240,1,99999,9",,,,"MET074METAR LPGR 111400Z 10012KT 9999 FEW020 25/16 Q1024 RMK WIND RWY09 12012KT;",
"08515599999","2010-08-11T15:00:00","4","39.092169","-28.029847","26.21","GRACIOSA, PO","FM-15","LPGR ","V020","100,1,N,0062,1","22000,1,9,N","011265,1,N,1","+0250,1","+0160,1","99999,9","02,5,+00600,1,99,9",,,"02,99,1,99,9,99,9,99999,9,99,9,99,9","999,M,+9999,9","10240,1,99999,9",,,,"MET074METAR LPGR 111500Z 10012KT 9999 FEW020 25/16 Q1024 RMK WIND RWY09 11010KT;","Q01 -00102ATMX  "
"08515599999","2010-08-11T16:00:00","4","39.092169","-28.029847","26.21","GRACIOSA, PO","FM-15","LPGR ","V020","100,1,N,0067,1","22000,1,9,N","011265,1,N,1","+0260,1","+0160,1","99999,9","02,5,+00600,1,99,9",,,"02,99,1,99,9,99,9,99999,9,99,9,99,9",,"10240,1,99999,9",,,,"MET074METAR LPGR 111600Z 10013KT 9999 FEW020 26/16 Q1024 RMK WIND RWY09 12013KT;",
"08515599999","2010-08-11T17:00:00","4","39.092169","-28.029847","26.21","GRACIOSA, PO","FM-15","LPGR ","V020","100,1,N,0062,1","01200,1,C,N","011265,1,N,1","+0250,1","+0160,1","99999,9","02,5,+00600,1,99,9","07,5,+01200,1,99,9",,"07,99,1,99,9,99,9,99999,9,99,9,99,9","999,M,+9999,9","10240,1,99999,9",,,,"MET081METAR LPGR 111700Z 10012KT 9999 FEW020 BKN040 25/16 Q1024 RMK WIND RWY09 10010KT;","Q01 +00102ATMX  "
"08515599999","2010-08-12T07:00:00","4","39.092169","-28.029847","26.21","GRACIOSA, PO","FM-15","LPGR ","V020","140,1,N,0057,1","00900,1,C,N","011265,1,N,1","+0210,1","+0160,1","99999,9","02,5,+00480,1,99,9","07,5,+00900,1,99,9",,"07,99,1,99,9,99,9,99999,9,99,9,99,9",,"10240,1,99999,9",,,,"MET081METAR LPGR 120700Z 14011KT 9999 FEW016 BKN030 21/16 Q1024 RMK WIND RWY09 12007KT;",
"08515599999","2010-08-12T08:00:00","4","39.092169","-28.029847","26.21","GRACIOSA, PO","FM-15","LPGR ","V020","130,1,N,0072,1","00900,1,C,N","011265,1,N,1","+0220,1","+0190,1","99999,9","02,5,+00480,1,99,9","07,5,+00900,1,99,9",,"07,99,1,99,9,99,9,99999,9,99,9,99,9",,"10240,1,99999,9",,,,"MET081METAR LPGR 120800Z 13014KT 9999 FEW016 BKN030 22/19 Q1024 RMK WIND RWY09 12012KT;",
"08515599999","2010-08-12T09:00:00","4","39.092169","-28.029847","26.21","GRACIOSA, PO","FM-15","LPGR ","V020","130,1,N,0067,1","00900,1,C,N","011265,1,N,1","+0220,1","+0190,1","99999,9","04,5,+00450,1,99,9","07,5,+00900,1,99,9",,"07,99,1,99,9,99,9,99999,9,99,9,99,9",,"10240,1,99999,9","80,1",,,"MET087METAR LPGR 120900Z 13013KT 9999 -SHRA SCT015 BKN030 22/19 Q1024 RMK WIND RWY09 12008KT;",
"08515599999","2010-08-12T10:00:00","4","39.092169","-28.029847","26.21","GRACIOSA, PO","FM-15","LPGR ","V020","110,1,N,0051,1","01050,1,C,N","011265,1,N,1","+0230,1","+0180,1","99999,9","02,5,+00480,1,99,9","07,5,+01050,1,99,9",,"07,99,1,99,9,99,9,99999,9,99,9,99,9","999,M,+9999,9","10251,1,99999,9",,,,"MET081METAR LPGR 121000Z 11010KT 9999 FEW016 BKN035 23/18 Q1025 RMK WIND RWY09 11005KT;","Q01 -00052ATMX  "
"08515599999","2010-08-12T11:00:00","4","39.092169","-28.029847","26.21","GRACIOSA, PO","FM-15","LPGR ","V020","130,1,N,0046,1","99999,9,C,N","011265,1,N,1","+0240,1","+0180,1","99999,9","02,5,+00480,1,99,9","04,5,+01050,1,99,9",,"04,99,1,99,9,99,9,99999,9,99,9,99,9",,"10251,1,99999,9",,,,"MET081METAR LPGR 121100Z 13009KT 9999 FEW016 SCT035 24/18 Q1025 RMK WIND RWY09 12006KT;","P01 010503SCOCIG"
"08515599999","2010-08-12T13:00:00","4","39.092169","-28.029847","26.21","GRACIOSA, PO","FM-15","LPGR ","V020","160,1,N,0067,1","22000,1,9,N","011265,1,N,1","+0250,1","+0170,1","99999,9","02,5,+00600,1,99,9",,,"02,99,1,99,9,99,9,99999,9,99,9,99,9",,"10251,1,99999,9",,,,"MET074METAR LPGR 121300Z 16013KT 9999 FEW020 25/17 Q1025 RMK WIND RWY09 17008KT;",
"08515599999","2010-08-12T14:00:00","4","39.092169","-28.029847","26.21","GRACIOSA, PO","FM-15","LPGR ","V020","180,1,N,0062,1","22000,1,9,N","011265,1,N,1","+0250,1","+0170,1","99999,9","02,5,+00600,1,99,9",,,"02,99,1,99,9,99,9,99999,9,99,9,99,9",,"10251,1,99999,9",,,,"MET074METAR LPGR 121400Z 18012KT 9999 FEW020 25/17 Q1025 RMK WIND RWY09 19011KT;",
"08515599999","2010-08-12T15:00:00","4","39.092169","-28.029847","26.21","GRACIOSA, PO","FM-15","LPGR ","V020","190,1,N,0051,1","22000,1,9,N","011265,1,N,1","+0260,1","+0170,1","99999,9","02,5,+00600,1,99,9",,,"02,99,1,99,9,99,9,99999,9,99,9,99,9",,"10251,1,99999,9",,,,"MET074METAR LPGR 121500Z 19010KT 9999 FEW020 26/17 Q1025 RMK WIND RWY09 17010KT;",
"08515599999","2010-08-12T16:00:00","4","39.092169","-28.029847","26.21","GRACIOSA, PO","FM-15","LPGR ","V020","190,1,N,0062,1","22000,1,9,N","011265,1,N,1","+0260,1","+0180,1","99999,9","02,5,+00600,1,99,9",,,"02,99,1,99,9,99,9,99999,9,99,9,99,9",,"10251,1,99999,9",,,,"MET074METAR LPGR 121600Z 19012KT 9999 FEW020 26/18 Q1025 RMK WIND RWY09 16009KT;",
"08515599999","2010-08-12T17:00:00","4","39.092169","-28.029847","26.21","GRACIOSA, PO","FM-15","LPGR ","V020","160,1,N,0051,1","22000,1,9,N","011265,1,N,1","+0260,1","+0170,1","99999,9","02,5,+00600,1,99,9",,,"02,99,1,99,9,99,9,99999,9,99,9,99,9",,"10251,1,99999,9",,,,"MET074METAR LPGR 121700Z 16010KT 9999 FEW020 26/17 Q1025 RMK WIND RWY09 17008KT;",
"08515599999","2010-08-13T07:00:00","4","39.092169","-28.029847","26.21","GRACIOSA, PO","FM-15","LPGR ","V020","180,1,N,0021,1","22000,1,9,N","011265,1,N,1","+0180,1","+0160,1","99999,9","02,5,+00450,1,99,9",,,"02,99,1,99,9,99,9,99999,9,99,9,99,9",,"10251,1,99999,9",,,,"MET074METAR LPGR 130700Z 18004KT 9999 FEW015 18/16 Q1025 RMK WIND RWY09 18001KT;",
"08515599999","2010-08-13T08:00:00","4","39.092169","-28.029847","26.21","GRACIOSA, PO","FM-15","LPGR ","V020","180,1,N,0021,1","22000,1,9,N","011265,1,N,1","+0190,1","+0170,1","99999,9","02,5,+00450,1,99,9",,,"02,99,1,99,9,99,9,99999,9,99,9,99,9",,"10261,1,99999,9",,,,"MET074METAR LPGR 130800Z 18004KT 9999 FEW015 19/17 Q1026 RMK WIND RWY09 18001KT;",
"08515599999","2010-08-13T09:00:00","4","39.092169","-28.029847","26.21","GRACIOSA, PO","FM-15","LPGR ","V020","180,1,N,0015,1","22000,1,9,N","011265,1,N,1","+0220,1","+0180,1","99999,9","02,5,+00480,1,99,9",,,"02,99,1,99,9,99,9,99999,9,99,9,99,9",,"10261,1,99999,9",,,,"MET074METAR LPGR 130900Z 18003KT 9999 FEW016 22/18 Q1026 RMK WIND RWY09 18001KT;",
"08515599999","2010-08-13T10:00:00","4","39.092169","-28.029847","26.21","GRACIOSA, PO","FM-15","LPGR ","V020","110,1,N,0015,1","22000,1,9,N","011265,1,N,1","+0240,1","+0180,1","99999,9","02,5,+00540,1,99,9",,,"02,99,1,99,9,99,9,99999,9,99,9,99,9",,"10261,1,99999,9",,,,"MET074METAR LPGR 131000Z 11003KT 9999 FEW018 24/18 Q1026 RMK WIND RWY09 07004KT;",
"08515599999","2010-08-13T11:00:00","4","39.092169","-28.029847","26.21","GRACIOSA, PO","FM-15","LPGR ","V020","080,1,N,0026,1","22000,1,9,N","011265,1,N,1","+0250,1","+0180,1","99999,9","02,5,+00600,1,99,9",,,"02,99,1,99,9,99,9,99999,9,99,9,99,9",,"10261,1,99999,9",,,,"MET074METAR LPGR 131100Z 08005KT 9999 FEW020 25/18 Q1026 RMK WIND RWY09 05003KT;",
"08515599999","2010-08-13T13:00:00","4","39.092169","-28.029847","26.21","GRACIOSA, PO","FM-15","LPGR ","V020","060,1,N,0036,1","22000,1,9,N","011265,1,N,1","+0260,1","+0180,1","99999,9","02,5,+00600,1,99,9",,,"02,99,1,99,9,99,9,99999,9,99,9,99,9",,"10271,1,99999,9",,,,"MET074METAR LPGR 131300Z 06007KT 9999 FEW020 26/18 Q1027 RMK WIND RWY09 05005KT;",
"08515599999","2010-08-13T14:00:00","4","39.092169","-28.029847","26.21","GRACIOSA, PO","FM-15","LPGR ","V020","010,1,N,0026,1","22000,1,9,N","011265,1,N,1","+0260,1","+0180,1","99999,9","02,5,+00600,1,99,9",,,"02,99,1,99,9,99,9,99999,9,99,9,99,9",,"10261,1,99999,9",,,,"MET074METAR LPGR 131400Z 01005KT 9999 FEW020 26/18 Q1026 RMK WIND RWY09 31003KT;",
"08515599999","2010-08-13T15:00:00","4","39.092169","-28.029847","26.21","GRACIOSA, PO","FM-15","LPGR ","V020","280,1,N,0051,1","22000,1,9,N","011265,1,N,1","+0270,1","+0200,1","99999,9","02,5,+00600,1,99,9",,,"02,99,1,99,9,99,9,99999,9,99,9,99,9",,"10261,1,99999,9",,,,"MET074METAR LPGR 131500Z 28010KT 9999 FEW020 27/20 Q1026 RMK WIND RWY09 29010KT;",
"08515599999","2010-08-13T16:00:00","4","39.092169","-28.029847","26.21","GRACIOSA, PO","FM-15","LPGR ","V020","260,1,N,0062,1","22000,1,9,N","011265,1,N,1","+0270,1","+0200,1","99999,9","02,5,+00600,1,99,9",,,"02,99,1,99,9,99,9,99999,9,99,9,99,9",,"10261,1,99999,9",,,,"MET074METAR LPGR 131600Z 26012KT 9999 FEW020 27/20 Q1026 RMK WIND RWY09 26011KT;",
"08515599999","2010-08-13T17:00:00","4","39.092169","-28.029847","26.21","GRACIOSA, PO","FM-15","LPGR ","V020","270,1,N,0062,1","22000,1,9,N","011265,1,N,1","+0260,1","+0200,1","99999,9","02,5,+00600,1,99,9",,,"02,99,1,99,9,99,9,99999,9,99,9,99,9",,"10261,1,99999,9",,,,"MET074METAR LPGR 131700Z 27012KT 9999 FEW020 26/20 Q1026 RMK WIND RWY09 26010KT;",
"08515599999","2010-08-14T07:00:00","4","39.092169","-28.029847","26.21","GRACIOSA, PO","FM-15","LPGR ","V020","320,1,N,0041,1","22000,1,9,N","011265,1,N,1","+0220,1","+0210,1","99999,9","04,5,+00300,1,99,9",,,"04,99,1,99,9,99,9,99999,9,99,9,99,9",,"10261,1,99999,9",,,,"MET074METAR LPGR 140700Z 32008KT 9999 SCT010 22/21 Q1026 RMK WIND RWY09 30007KT;",
"08515599999","2010-08-14T08:00:00","4","39.092169","-28.029847","26.21","GRACIOSA, PO","FM-15","LPGR ","V020","320,1,N,0041,1","99999,9,C,N","011265,1,N,1","+0230,1","+0210,1","99999,9","02,5,+00300,1,99,9","04,5,+06300,1,99,9",,"04,99,1,99,9,99,9,99999,9,99,9,99,9",,"10261,1,99999,9",,,,"MET081METAR LPGR 140800Z 32008KT 9999 FEW010 SCT210 23/21 Q1026 RMK WIND RWY09 30005KT;","P01 063003SCOCIG"
"08515599999","2010-08-14T09:00:00","4","39.092169","-28.029847","26.21","GRACIOSA, PO","FM-15","LPGR ","V020","320,1,N,0041,1","99999,9,C,N","011265,1,N,1","+0230,1","+0220,1","99999,9","02,5,+00360,1,99,9","04,5,+00450,1,99,9",,"04,99,1,99,9,99,9,99999,9,99,9,99,9",,"10261,1,99999,9",,,,"MET081METAR LPGR 140900Z 32008KT 9999 FEW012 SCT015 23/22 Q1026 RMK WIND RWY09 30005KT;","P01 004503SCOCIG"
"08515599999","2010-08-14T10:00:00","4","39.092169","-28.029847","26.21","GRACIOSA, PO","FM-15","LPGR ","V020","360,1,N,0036,1","22000,1,9,N","011265,1,N,1","+0240,1","+0210,1","99999,9","02,5,+00420,1,99,9",,,"02,99,1,99,9,99,9,99999,9,99,9,99,9",,"10271,1,99999,9",,,,"MET074METAR LPGR 141000Z 36007KT 9999 FEW014 24/21 Q1027 RMK WIND RWY09 32003KT;",
"08515599999","2010-08-14T11:00:00","4","39.092169","-28.029847","26.21","GRACIOSA, PO","FM-15","LPGR ","V020","360,1,N,0041,1","22000,1,9,N","011265,1,N,1","+0250,1","+0200,1","99999,9","02,5,+00480,1,99,9",,,"02,99,1,99,9,99,9,99999,9,99,9,99,9",,"10271,1,99999,9",,,,"MET074METAR LPGR 141100Z 36008KT 9999 FEW016 25/20 Q1027 RMK WIND RWY09 35003KT;",
"08515599999","2010-08-14T13:00:00","4","39.092169","-28.029847","26.21","GRACIOSA, PO","FM-15","LPGR ","V020","010,1,N,0046,1","22000,1,9,N","011265,1,N,1","+0260,1","+0200,1","99999,9","02,5,+00540,1,99,9",,,"02,99,1,99,9,99,9,99999,9,99,9,99,9",,"10271,1,99999,9",,,,"MET074METAR LPGR 141300Z 01009KT 9999 FEW018 26/20 Q1027 RMK WIND RWY09 35007KT;",
"08515599999","2010-08-14T14:00:00","4","39.092169","-28.029847","26.21","GRACIOSA, PO","FM-15","LPGR ","V020","010,1,N,0046,1","22000,1,9,N","011265,1,N,1","+0260,1","+0200,1","99999,9","02,5,+00540,1,99,9",,,"02,99,1,99,9,99,9,99999,9,99,9,99,9",,"10271,1,99999,9",,,,"MET074METAR LPGR 141400Z 01009KT 9999 FEW018 26/20 Q1027 RMK WIND RWY09 35005KT;",
"08515599999","2010-08-14T15:00:00","4","39.092169","-28.029847","26.21","GRACIOSA, PO","FM-15","LPGR ","V020","010,1,N,0046,1","22000,1,9,N","011265,1,N,1","+0260,1","+0210,1","99999,9","02,5,+00480,1,99,9",,,"02,99,1,99,9,99,9,99999,9,99,9,99,9",,"10271,1,99999,9",,,,"MET074METAR LPGR 141500Z 01009KT 9999 FEW016 26/21 Q1027 RMK WIND RWY09 35006KT;",
"08515599999","2010-08-14T16:00:00","4","39.092169","-28.029847","26.21","GRACIOSA, PO","FM-15","LPGR ","V020","010,1,N,0046,1","22000,1,9,N","011265,1,N,1","+0260,1","+0200,1","99999,9","02,5,+00540,1,99,9",,,"02,99,1,99,9,99,9,99999,9,99,9,99,9",,"10271,1,99999,9",,,,"MET074METAR LPGR 141600Z 01009KT 9999 FEW018 26/20 Q1027 RMK WIND RWY09 33005KT;",
"08515599999","2010-08-14T18:00:00","4","39.092169","-28.029847","26.21","GRACIOSA, PO","FM-15","LPGR ","V020","010,1,N,0046,1","22000,1,9,N","011265,1,N,1","+0250,1","+0210,1","99999,9","02,5,+00480,1,99,9",,,"02,99,1,99,9,99,9,99999,9,99,9,99,9",,"10261,1,99999,9",,,,"MET074METAR LPGR 141800Z 01009KT 9999 FEW016 25/21 Q1026 RMK WIND RWY09 36005KT;",
"08515599999","2010-08-14T19:00:00","4","39.092169","-28.029847","26.21","GRACIOSA, PO","FM-15","LPGR ","V020","010,1,N,0051,1","22000,1,9,N","011265,1,N,1","+0250,1","+0200,1","99999,9","02,5,+00480,1,99,9",,,"02,99,1,99,9,99,9,99999,9,99,9,99,9",,"10261,1,99999,9",,,,"MET074METAR LPGR 141900Z 01010KT 9999 FEW016 25/20 Q1026 RMK WIND RWY09 35008KT;",
"08515599999","2010-08-15T07:00:00","4","39.092169","-28.029847","26.21","GRACIOSA, PO","FM-15","LPGR ","V020","060,1,N,0021,1","22000,1,9,N","011265,1,N,1","+0200,1","+0190,1","99999,9","02,5,+00360,1,99,9",,,"02,99,1,99,9,99,9,99999,9,99,9,99,9",,"10261,1,99999,9",,,,"MET074METAR LPGR 150700Z 06004KT 9999 FEW012 20/19 Q1026 RMK WIND RWY09 00000KT;",
"08515599999","2010-08-15T08:00:00","4","39.092169","-28.029847","26.21","GRACIOSA, PO","FM-15","LPGR ","V020","060,1,N,0021,1","22000,1,9,N","011265,1,N,1","+0210,1","+0200,1","99999,9","02,5,+00360,1,99,9",,,"02,99,1,99,9,99,9,99999,9,99,9,99,9",,"10271,1,99999,9",,,,"MET074METAR LPGR 150800Z 06004KT 9999 FEW012 21/20 Q1027 RMK WIND RWY09 05001KT;",
"08515599999","2010-08-15T09:00:00","4","39.092169","-28.029847","26.21","GRACIOSA, PO","FM-15","LPGR ","V020","040,1,N,0021,1","22000,1,9,N","011265,1,N,1","+0230,1","+0210,1","99999,9","02,5,+00390,1,99,9",,,"02,99,1,99,9,99,9,99999,9,99,9,99,9",,"10271,1,99999,9",,,,"MET074METAR LPGR 150900Z 04004KT 9999 FEW013 23/21 Q1027 RMK WIND RWY09 05002KT;",
"08515599999","2010-08-15T10:00:00","4","39.092169","-28.029847","26.21","GRACIOSA, PO","FM-15","LPGR ","V020","040,1,N,0026,1","22000,1,9,N","011265,1,N,1","+0250,1","+0200,1","99999,9","02,5,+00450,1,99,9",,,"02,99,1,99,9,99,9,99999,9,99,9,99,9",,"10281,1,99999,9",,,,"MET074METAR LPGR 151000Z 04005KT 9999 FEW015 25/20 Q1028 RMK WIND RWY09 03002KT;",
"08515599999","2010-08-15T11:00:00","4","39.092169","-28.029847","26.21","GRACIOSA, PO","FM-15","LPGR ","V020","030,1,N,0026,1","22000,1,9,N","011265,1,N,1","+0250,1","+0200,1","99999,9","02,5,+00480,1,99,9",,,"02,99,1,99,9,99,9,99999,9,99,9,99,9",,"10281,1,99999,9",,,,"MET074METAR LPGR 151100Z 03005KT 9999 FEW016 25/20 Q1028 RMK WIND RWY09 02003KT;",
"08515599999","2010-08-15T13:00:00","4","39.092169","-28.029847","26.21","GRACIOSA, PO","FM-15","LPGR ","V020","040,1,N,0031,1","22000,1,9,N","011265,1,N,1","+0260,1","+0210,1","99999,9","02,5,+00480,1,99,9",,,"02,99,1,99,9,99,9,99999,9,99,9,99,9",,"10281,1,99999,9",,,,"MET074METAR LPGR 151300Z 04006KT 9999 FEW016 26/21 Q1028 RMK WIND RWY09 03005KT;",
"08515599999","2010-08-15T14:00:00","4","39.092169","-28.029847","26.21","GRACIOSA, PO","FM-15","LPGR ","V020","040,1,N,0026,1","22000,1,9,N","011265,1,N,1","+0260,1","+0210,1","99999,9","02,5,+00480,1,99,9",,,"02,99,1,99,9,99,9,99999,9,99,9,99,9",,"10281,1,99999,9",,,,"MET074METAR LPGR 151400Z 04005KT 9999 FEW016 26/21 Q1028 RMK WIND RWY09 02005KT;",
"08515599999","2010-08-15T15:00:00","4","39.092169","-28.029847","26.21","GRACIOSA, PO","FM-15","LPGR ","V020","040,1,N,0031,1","22000,1,9,N","011265,1,N,1","+0260,1","+0210,1","99999,9","02,5,+00480,1,99,9",,,"02,99,1,99,9,99,9,99999,9,99,9,99,9",,"10281,1,99999,9",,,,"MET074METAR LPGR 151500Z 04006KT 9999 FEW016 26/21 Q1028 RMK WIND RWY09 04005KT;",
"08515599999","2010-08-15T16:00:00","4","39.092169","-28.029847","26.21","GRACIOSA, PO","FM-15","LPGR ","V020","060,1,N,0036,1","22000,1,9,N","011265,1,N,1","+0260,1","+0210,1","99999,9","02,5,+00480,1,99,9",,,"02,99,1,99,9,99,9,99999,9,99,9,99,9",,"10281,1,99999,9",,,,"MET074METAR LPGR 151600Z 06007KT 9999 FEW016 26/21 Q1028 RMK WIND RWY09 05006KT;",
"08515599999","2010-08-15T17:00:00","4","39.092169","-28.029847","26.21","GRACIOSA, PO","FM-15","LPGR ","V020","050,1,N,0036,1","99999,9,C,N","011265,1,N,1","+0260,1","+0200,1","99999,9","02,5,+00540,1,99,9","04,5,+06300,1,99,9",,"04,99,1,99,9,99,9,99999,9,99,9,99,9",,"10281,1,99999,9",,,,"MET081METAR LPGR 151700Z 05007KT 9999 FEW018 SCT210 26/20 Q1028 RMK WIND RWY09 05006KT;","P01 063003SCOCIG"
"08515599999","2010-08-16T06:00:00","4","39.092169","-28.029847","26.21","GRACIOSA, PO","FM-15","LPGR ","V020","060,1,N,0015,1","22000,1,9,N","011265,1,N,1","+0210,1","+0190,1","99999,9","02,5,+00420,1,99,9",,,"02,99,1,99,9,99,9,99999,9,99,9,99,9",,"10291,1,99999,9",,,,"MET074METAR LPGR 160600Z 06003KT 9999 FEW014 21/19 Q1029 RMK WIND RWY09 00000KT;",
"08515599999","2010-08-16T07:00:00","4","39.092169","-28.029847","26.21","GRACIOSA, PO","FM-15","LPGR ","V020","060,1,N,0015,1","00900,1,C,N","011265,1,N,1","+0220,1","+0200,1","99999,9","02,5,+00450,1,99,9","07,5,+00900,1,99,9",,"07,99,1,99,9,99,9,99999,9,99,9,99,9",,"10291,1,99999,9",,,,"MET081METAR LPGR 160700Z 06003KT 9999 FEW015 BKN030 22/20 Q1029 RMK WIND RWY09 06002KT;",
"08515599999","2010-08-16T08:00:00","4","39.092169","-28.029847","26.21","GRACIOSA, PO","FM-15","LPGR ","V020","160,1,N,0015,1","01050,1,C,N","011265,1,N,1","+0220,1","+0200,1","99999,9","02,5,+00450,1,99,9","07,5,+01050,1,99,9",,"07,99,1,99,9,99,9,99999,9,99,9,99,9",,"10291,1,99999,9",,,,"MET081METAR LPGR 160800Z 16003KT 9999 FEW015 BKN035 22/20 Q1029 RMK WIND RWY09 06001KT;",
"08515599999","2010-08-16T09:00:00","4","39.092169","-28.029847","26.21","GRACIOSA, PO","FM-15","LPGR ","V020","160,1,N,0015,1","01050,1,C,N","011265,1,N,1","+0230,1","+0200,1","99999,9","02,5,+00450,1,99,9","07,5,+01050,1,99,9",,"07,99,1,99,9,99,9,99999,9,99,9,99,9",,"10291,1,99999,9",,,,"MET081METAR LPGR 160900Z 16003KT 9999 FEW015 BKN035 23/20 Q1029 RMK WIND RWY09 00000KT;",
"08515599999","2010-08-16T10:00:00","4","39.092169","-28.029847","26.21","GRACIOSA, PO","FM-15","LPGR ","V020","160,1,N,0015,1","01050,1,C,N","011265,1,N,1","+0240,1","+0190,1","99999,9","02,5,+00480,1,99,9","07,5,+01050,1,99,9",,"07,99,1,99,9,99,9,99999,9,99,9,99,9",,"10291,1,99999,9",,,,"MET081METAR LPGR 161000Z 16003KT 9999 FEW016 BKN035 24/19 Q1029 RMK WIND RWY09 02002KT;",
"08515599999","2010-08-16T11:00:00","4","39.092169","-28.029847","26.21","GRACIOSA, PO","FM-15","LPGR ","V020","340,1,N,0015,1","01050,1,C,N","011265,1,N,1","+0250,1","+0190,1","99999,9","02,5,+00480,1,99,9","07,5,+01050,1,99,9",,"07,99,1,99,9,99,9,99999,9,99,9,99,9",,"10291,1,99999,9",,,,"MET081METAR LPGR 161100Z 34003KT 9999 FEW016 BKN035 25/19 Q1029 RMK WIND RWY09 02002KT;",
"08515599999","2010-08-16T13:00:00","4","39.092169","-28.029847","26.21","GRACIOSA, PO","FM-15","LPGR ","V020","999,9,9,9999,9","01050,1,C,N","011265,1,N,1","+0250,1","+0200,1","99999,9","02,5,+00480,1,99,9","07,5,+01050,1,99,9",,"07,99,1,99,9,99,9,99999,9,99,9,99,9",,"10301,1,99999,9",,,,"MET081METAR LPGR 161300Z /////KT 9999 FEW016 BKN035 25/20 Q1030 RMK WIND RWY09 32004KT;",
"08515599999","2010-08-16T14:00:00","4","39.092169","-28.029847","26.21","GRACIOSA, PO","FM-15","LPGR ","V020","350,1,N,0026,1","01050,1,C,N","011265,1,N,1","+0260,1","+0210,1","99999,9","02,5,+00480,1,99,9","07,5,+01050,1,99,9",,"07,99,1,99,9,99,9,99999,9,99,9,99,9",,"10301,1,99999,9",,,,"MET081METAR LPGR 161400Z 35005KT 9999 FEW016 BKN035 26/21 Q1030 RMK WIND RWY09 33006KT;",
"08515599999","2010-08-16T15:00:00","4","39.092169","-28.029847","26.21","GRACIOSA, PO","FM-15","LPGR ","V020","360,1,N,0026,1","01050,1,C,N","011265,1,N,1","+0260,1","+0210,1","99999,9","02,5,+00480,1,99,9","07,5,+01050,1,99,9",,"07,99,1,99,9,99,9,99999,9,99,9,99,9",,"10301,1,99999,9",,,,"MET081METAR LPGR 161500Z 36005KT 9999 FEW016 BKN035 26/21 Q1030 RMK WIND RWY09 34005KT;",
"08515599999","2010-08-16T16:00:00","4","39.092169","-28.029847","26.21","GRACIOSA, PO","FM-15","LPGR ","V020","010,1,N,0026,1","01050,1,C,N","011265,1,N,1","+0250,1","+0210,1","99999,9","02,5,+00420,1,99,9","07,5,+01050,1,99,9",,"07,99,1,99,9,99,9,99999,9,99,9,99,9",,"10291,1,99999,9",,,,"MET081METAR LPGR 161600Z 01005KT 9999 FEW014 BKN035 25/21 Q1029 RMK WIND RWY09 35003KT;",
"08515599999","2010-08-16T17:00:00","4","39.092169","-28.029847","26.21","GRACIOSA, PO","FM-15","LPGR ","V020","360,1,N,0036,1","01050,1,C,N","011265,1,N,1","+0250,1","+0210,1","99999,9","02,5,+00420,1,99,9","07,5,+01050,1,99,9",,"07,99,1,99,9,99,9,99999,9,99,9,99,9",,"10291,1,99999,9",,,,"MET081METAR LPGR 161700Z 36007KT 9999 FEW014 BKN035 25/21 Q1029 RMK WIND RWY09 33004KT;",
"08515599999","2010-08-17T07:00:00","4","39.092169","-28.029847","26.21","GRACIOSA, PO","FM-15","LPGR ","V020","240,1,N,0026,1","00900,1,C,N","011265,1,N,1","+0220,1","+0210,1","99999,9","02,5,+00240,1,99,9","07,5,+00900,1,99,9",,"07,99,1,99,9,99,9,99999,9,99,9,99,9",,"10291,1,99999,9",,,,"MET081METAR LPGR 170700Z 24005KT 9999 FEW008 BKN030 22/21 Q1029 RMK WIND RWY09 25004KT;",
"08515599999","2010-08-17T08:00:00","4","39.092169","-28.029847","26.21","GRACIOSA, PO","FM-15","LPGR ","V020","240,1,N,0015,1","00900,1,C,N","011265,1,N,1","+0220,1","+0210,1","99999,9","04,5,+00180,1,99,9","07,5,+00900,1,99,9",,"07,99,1,99,9,99,9,99999,9,99,9,99,9",,"10291,1,99999,9",,,,"MET081METAR LPGR 170800Z 24003KT 9999 SCT006 BKN030 22/21 Q1029 RMK WIND RWY09 25002KT;",
"08515599999","2010-08-17T09:00:00","4","39.092169","-28.029847","26.21","GRACIOSA, PO","FM-15","LPGR ","V020","240,1,N,0010,1","99999,9,C,N","011265,1,N,1","+0230,1","+0220,1","99999,9","02,5,+00300,1,99,9","04,5,+00900,1,99,9",,"04,99,1,99,9,99,9,99999,9,99,9,99,9",,"10291,1,99999,9",,,,"MET081METAR LPGR 170900Z 24002KT 9999 FEW010 SCT030 23/22 Q1029 RMK WIND RWY09 24001KT;","P01 009003SCOCIG"
"08515599999","2010-08-17T10:00:00","4","39.092169","-28.029847","26.21","GRACIOSA, PO","FM-15","LPGR ","V020","350,1,N,0010,1","00900,1,C,N","011265,1,N,1","+0240,1","+0210,1","99999,9","02,5,+00420,1,99,9","07,5,+00900,1,99,9",,"07,99,1,99,9,99,9,99999,9,99,9,99,9",,"10291,1,99999,9",,,,"MET081METAR LPGR 171000Z 35002KT 9999 FEW014 BKN030 24/21 Q1029 RMK WIND RWY09 35002KT;",
"08515599999","2010-08-17T11:00:00","4","39.092169","-28.029847","26.21","GRACIOSA, PO","FM-15","LPGR ","V020","350,1,N,0010,1","00900,1,C,N","011265,1,N,1","+0250,1","+0210,1","99999,9","02,5,+00420,1,99,9","07,5,+00900,1,99,9",,"07,99,1,99,9,99,9,99999,9,99,9,99,9",,"10291,1,99999,9",,,,"MET081METAR LPGR 171100Z 35002KT 9999 FEW014 BKN030 25/21 Q1029 RMK WIND RWY09 33002KT;",
"08515599999","2010-08-17T13:00:00","4","39.092169","-28.029847","26.21","GRACIOSA, PO","FM-15","LPGR ","V020","100,1,N,0026,1","00900,1,C,N","011265,1,N,1","+0230,1","+0210,1","99999,9","04,5,+00360,1,99,9","07,5,+00900,1,99,9",,"07,99,1,99,9,99,9,99999,9,99,9,99,9",,"10291,1,99999,9",,,,"MET081METAR LPGR 171300Z 10005KT 9999 SCT012 BKN030 23/21 Q1029 RMK WIND RWY09 09004KT;",
"08515599999","2010-08-17T14:00:00","4","39.092169","-28.029847","26.21","GRACIOSA, PO","FM-15","LPGR ","V020","080,1,N,0021,1","00900,1,C,N","011265,1,N,1","+0260,1","+0200,1","99999,9","02,5,+00450,1,99,9","07,5,+00900,1,99,9",,"07,99,1,99,9,99,9,99999,9,99,9,99,9",,"10291,1,99999,9",,,,"MET081METAR LPGR 171400Z 08004KT 9999 FEW015 BKN030 26/20 Q1029 RMK WIND RWY09 08003KT;",
"08515599999","2010-08-17T15:00:00","4","39.092169","-28.029847","26.21","GRACIOSA, PO","FM-15","LPGR ","V020","090,1,N,0036,1","00900,1,C,N","011265,1,N,1","+0260,1","+0210,1","99999,9","02,5,+00480,1,99,9","07,5,+00900,1,99,9",,"07,99,1,99,9,99,9,99999,9,99,9,99,9",,"10281,1,99999,9",,,,"MET081METAR LPGR 171500Z 09007KT 9999 FEW016 BKN030 26/21 Q1028 RMK WIND RWY09 09008KT;",
"08515599999","2010-08-17T16:00:00","4","39.092169","-28.029847","26.21","GRACIOSA, PO","FM-15","LPGR ","V020","090,1,N,0031,1","00900,1,C,N","011265,1,N,1","+0250,1","+0210,1","99999,9","04,5,+00450,1,99,9","07,5,+00900,1,99,9",,"07,99,1,99,9,99,9,99999,9,99,9,99,9",,"10281,1,99999,9",,,,"MET081METAR LPGR 171600Z 09006KT 9999 SCT015 BKN030 25/21 Q1028 RMK WIND RWY09 09007KT;",
"08515599999","2010-08-17T17:00:00","4","39.092169","-28.029847","26.21","GRACIOSA, PO","FM-15","LPGR ","V020","110,1,N,0010,1","00900,1,C,N","011265,1,N,1","+0240,1","+0210,1","99999,9","04,5,+00420,1,99,9","07,5,+00900,1,99,9",,"07,99,1,99,9,99,9,99999,9,99,9,99,9",,"10281,1,99999,9",,,,"MET081METAR LPGR 171700Z 11002KT 9999 SCT014 BKN030 24/21 Q1028 RMK WIND RWY09 25005KT;",
"08515599999","2010-08-18T07:00:00","4","39.092169","-28.029847","26.21","GRACIOSA, PO","FM-15","LPGR ","V020","260,1,N,0010,1","00360,1,C,N","011265,1,N,1","+0220,1","+0200,1","99999,9","07,5,+00360,1,99,9","07,5,+00900,1,99,9",,"07,99,1,99,9,99,9,99999,9,99,9,99,9",,"10251,1,99999,9",,,,"MET081METAR LPGR 180700Z 26002KT 9999 BKN012 BKN030 22/20 Q1025 RMK WIND RWY09 00000KT;",
"08515599999","2010-08-18T08:00:00","4","39.092169","-28.029847","26.21","GRACIOSA, PO","FM-15","LPGR ","V020","260,1,N,0021,1","00900,1,C,N","009000,1,N,1","+0220,1","+0210,1","99999,9","04,5,+00360,1,99,9","07,5,+00900,1,99,9",,"07,99,1,99,9,99,9,99999,9,99,9,99,9",,"10251,1,99999,9","80,1",,,"MET087METAR LPGR 180800Z 26004KT 9000 -SHRA SCT012 BKN030 22/21 Q1025 RMK WIND RWY09 26001KT;",
"08515599999","2010-08-18T09:00:00","4","39.092169","-28.029847","26.21","GRACIOSA, PO","FM-15","LPGR ","V020","260,1,N,0036,1","00900,1,C,N","011265,1,N,1","+0220,1","+0210,1","99999,9","02,5,+00420,1,99,9","07,5,+00900,1,99,9",,"07,99,1,99,9,99,9,99999,9,99,9,99,9",,"10240,1,99999,9",,,,"MET081METAR LPGR 180900Z 26007KT 9999 FEW014 BKN030 22/21 Q1024 RMK WIND RWY09 25003KT;",
"08515599999","2010-08-18T10:00:00","4","39.092169","-28.029847","26.21","GRACIOSA, PO","FM-15","LPGR ","V020","270,1,N,0057,1","00900,1,C,N","011265,1,N,1","+0230,1","+0200,1","99999,9","02,5,+00450,1,99,9","07,5,+00900,1,99,9",,"07,99,1,99,9,99,9,99999,9,99,9,99,9",,"10240,1,99999,9",,,,"MET081METAR LPGR 181000Z 27011KT 9999 FEW015 BKN030 23/20 Q1024 RMK WIND RWY09 26010KT;",
"08515599999","2010-08-18T11:00:00","4","39.092169","-28.029847","26.21","GRACIOSA, PO","FM-15","LPGR ","V020","270,1,N,0062,1","00900,1,C,N","011265,1,N,1","+0240,1","+0190,1","99999,9","02,5,+00450,1,99,9","07,5,+00900,1,99,9",,"07,99,1,99,9,99,9,99999,9,99,9,99,9",,"10240,1,99999,9",,,,"MET081METAR LPGR 181100Z 27012KT 9999 FEW015 BKN030 24/19 Q1024 RMK WIND RWY09 27010KT;",
"08515599999","2010-08-18T13:00:00","4","39.092169","-28.029847","26.21","GRACIOSA, PO","FM-15","LPGR ","V020","280,1,N,0062,1","99999,9,C,N","011265,1,N,1","+0250,1","+0190,1","99999,9","02,5,+00480,1,99,9","04,5,+01050,1,99,9",,"04,99,1,99,9,99,9,99999,9,99,9,99,9",,"10230,1,99999,9",,,,"MET081METAR LPGR 181300Z 28012KT 9999 FEW016 SCT035 25/19 Q1023 RMK WIND RWY09 26011KT;","P01 010503SCOCIG"
"08515599999","2010-08-18T14:00:00","4","39.092169","-28.029847","26.21","GRACIOSA, PO","FM-15","LPGR ","V020","270,1,N,0062,1","99999,9,C,N","011265,1,N,1","+0260,1","+0190,1","99999,9","02,5,+00540,1,99,9","04,5,+01200,1,99,9",,"04,99,1,99,9,99,9,99999,9,99,9,99,9",,"10230,1,99999,9",,,,"MET081METAR LPGR 181400Z 27012KT 9999 FEW018 SCT040 26/19 Q1023 RMK WIND RWY09 27012KT;","P01 012003SCOCIG"
"08515599999","2010-08-18T15:00:00","4","39.092169","-28.029847","26.21","GRACIOSA, PO","FM-15","LPGR ","V020","270,1,N,0067,1","22000,1,9,N","011265,1,N,1","+0250,1","+0190,1","99999,9","02,5,+00540,1,99,9",,,"02,99,1,99,9,99,9,99999,9,99,9,99,9",,"10220,1,99999,9",,,,"MET074METAR LPGR 181500Z 27013KT 9999 FEW018 25/19 Q1022 RMK WIND RWY09 25013KT;",
"08515599999","2010-08-18T16:00:00","4","39.092169","-28.029847","26.21","GRACIOSA, PO","FM-15","LPGR ","V020","280,1,N,0062,1","22000,1,9,N","011265,1,N,1","+0260,1","+0190,1","99999,9","02,5,+00600,1,99,9",,,"02,99,1,99,9,99,9,99999,9,99,9,99,9",,"10220,1,99999,9",,,,"MET074METAR LPGR 181600Z 28012KT 9999 FEW020 26/19 Q1022 RMK WIND RWY09 26011KT;",
"08515599999","2010-08-19T08:00:00","4","39.092169","-28.029847","26.21","GRACIOSA, PO","FM-15","LPGR ","V020","260,1,N,0093,1","99999,9,C,N","011265,1,N,1","+0230,1","+0200,1","99999,9","02,5,+00420,1,99,9","04,5,+00900,1,99,9",,"04,99,1,99,9,99,9,99999,9,99,9,99,9",,"10149,1,99999,9",,,,"MET081METAR LPGR 190800Z 26018KT 9999 FEW014 SCT030 23/20 Q1015 RMK WIND RWY09 25016KT;","P01 009003SCOCIG"
"08515599999","2010-08-19T09:00:00","4","39.092169","-28.029847","26.21","GRACIOSA, PO","FM-15","LPGR ","V020","250,1,N,0093,1","00900,1,C,N","011265,1,N,1","+0240,1","+0200,1","99999,9","04,5,+00420,1,99,9","07,5,+00900,1,99,9",,"07,99,1,99,9,99,9,99999,9,99,9,99,9",,"10149,1,99999,9",,,,"MET081METAR LPGR 190900Z 25018KT 9999 SCT014 BKN030 24/20 Q1015 RMK WIND RWY09 25018KT;",
"08515599999","2010-08-19T10:00:00","4","39.092169","-28.029847","26.21","GRACIOSA, PO","FM-15","LPGR ","V020","250,1,N,0098,1","99999,9,C,N","011265,1,N,1","+0240,1","+0210,1","99999,9","02,5,+00420,1,99,9","04,5,+06300,1,99,9",,"04,99,1,99,9,99,9,99999,9,99,9,99,9",,"10149,1,99999,9",,,,"MET081METAR LPGR 191000Z 25019KT 9999 FEW014 SCT210 24/21 Q1015 RMK WIND RWY09 25018KT;","P01 063003SCOCIG"
"08515599999","2010-08-19T11:00:00","4","39.092169","-28.029847","26.21","GRACIOSA, PO","FM-15","LPGR ","V020","260,1,N,0103,1","22000,1,9,N","011265,1,N,1","+0250,1","+0210,1","99999,9","02,5,+00450,1,99,9",,,"02,99,1,99,9,99,9,99999,9,99,9,99,9",,"10139,1,99999,9",,,,"MET074METAR LPGR 191100Z 26020KT 9999 FEW015 25/21 Q1014 RMK WIND RWY09 25017KT;",
"08515599999","2010-08-19T12:00:00","4","39.092169","-28.029847","26.21","GRACIOSA, PO","FM-15","LPGR ","V020","250,1,N,0113,1","22000,1,9,N","011265,1,N,1","+0260,1","+0220,1","99999,9","02,5,+00390,1,99,9",,,"02,99,1,99,9,99,9,99999,9,99,9,99,9",,"10139,1,99999,9",,,,"MET074METAR LPGR 191200Z 25022KT 9999 FEW013 26/22 Q1014 RMK WIND RWY09 25022KT;",
"08515599999","2010-08-19T13:00:00","4","39.092169","-28.029847","26.21","GRACIOSA, PO","FM-15","LPGR ","V020","260,1,N,0118,1","22000,1,9,N","011265,1,N,1","+0260,1","+0210,1","99999,9","02,5,+00390,1,99,9",,,"02,99,1,99,9,99,9,99999,9,99,9,99,9",,"10139,1,99999,9",,,,"MET077METAR LPGR 191300Z 26023KT 9999 FEW013 26/21 Q1014 RMK WIND RWY09 25019G29KT;",
"08515599999","2010-08-19T14:00:00","4","39.092169","-28.029847","26.21","GRACIOSA, PO","FM-15","LPGR ","V020","250,1,N,0118,1","99999,9,C,N","011265,1,N,1","+0260,1","+0210,1","99999,9","02,5,+00450,1,99,9","04,5,+06300,1,99,9",,"04,99,1,99,9,99,9,99999,9,99,9,99,9",,"10139,1,99999,9",,,,"MET081METAR LPGR 191400Z 25023KT 9999 FEW015 SCT210 26/21 Q1014 RMK WIND RWY09 25020KT;","P01 063003SCOCIG"
"08515599999","2010-08-19T15:00:00","4","39.092169","-28.029847","26.21","GRACIOSA, PO","FM-15","LPGR ","V020","250,1,N,0113,1","00900,1,C,N","011265,1,N,1","+0260,1","+0210,1","99999,9","02,5,+00510,1,99,9","07,5,+00900,1,99,9",,"07,99,1,99,9,99,9,99999,9,99,9,99,9",,"10129,1,99999,9",,,,"MET081METAR LPGR 191500Z 25022KT 9999 FEW017 BKN030 26/21 Q1013 RMK WIND RWY09 25017KT;",
"08515599999","2010-08-19T16:00:00","4","39.092169","-28.029847","26.21","GRACIOSA, PO","FM-15","LPGR ","V020","250,1,N,0108,1","99999,9,C,N","011265,1,N,1","+0260,1","+0220,1","99999,9","02,5,+00390,1,99,9","04,5,+01050,1,99,9",,"04,99,1,99,9,99,9,99999,9,99,9,99,9",,"10129,1,99999,9",,,,"MET081METAR LPGR 191600Z 25021KT 9999 FEW013 SCT035 26/22 Q1013 RMK WIND RWY09 24020KT;","P01 010503SCOCIG"
"08515599999","2010-08-19T17:00:00","4","39.092169","-28.029847","26.21","GRACIOSA, PO","FM-15","LPGR ","V020","250,1,N,0093,1","00360,1,C,N","006000,1,N,1","+0240,1","+0220,1","99999,9","07,5,+00360,1,99,9",,,"07,99,1,99,9,99,9,99999,9,99,9,99,9",,"10129,1,99999,9","80,1",,,"MET080METAR LPGR 191700Z 25018KT 6000 -SHRA BKN012 24/22 Q1013 RMK WIND RWY09 26017KT;",
"08515599999","2010-08-20T07:00:00","4","39.092169","-28.029847","26.21","GRACIOSA, PO","FM-15","LPGR ","V020","999,9,9,9999,9","00750,1,C,N","011265,1,N,1","+0220,1","+0180,1","99999,9","02,5,+00420,1,99,9","07,5,+00750,1,99,9",,"07,99,1,99,9,99,9,99999,9,99,9,99,9",,"10129,1,99999,9",,,,"MET081METAR LPGR 200700Z /////KT 9999 FEW014 BKN025 22/18 Q1013 RMK WIND RWY09 23004KT;",
"08515599999","2010-08-20T08:00:00","4","39.092169","-28.029847","26.21","GRACIOSA, PO","FM-15","LPGR ","V020","999,9,9,9999,9","99999,9,C,N","011265,1,N,1","+0230,1","+0210,1","99999,9","02,5,+00420,1,99,9","04,5,+00900,1,99,9",,"04,99,1,99,9,99,9,99999,9,99,9,99,9",,"10139,1,99999,9",,,,"MET081METAR LPGR 200800Z /////KT 9999 FEW014 SCT030 23/21 Q1014 RMK WIND RWY09 28009KT;","P01 009003SCOCIG"
"08515599999","2010-08-20T09:00:00","4","39.092169","-28.029847","26.21","GRACIOSA, PO","FM-15","LPGR ","V020","999,9,9,9999,9","99999,9,C,N","011265,1,N,1","+0230,1","+0210,1","99999,9","02,5,+00420,1,99,9","04,5,+01050,1,99,9",,"04,99,1,99,9,99,9,99999,9,99,9,99,9",,"10139,1,99999,9",,,,"MET081METAR LPGR 200900Z /////KT 9999 FEW014 SCT035 23/21 Q1014 RMK WIND RWY09 28008KT;","P01 010503SCOCIG"
"08515599999","2010-08-20T15:00:00","4","39.092169","-28.029847","26.21","GRACIOSA, PO","FM-15","LPGR ","V020","999,9,9,9999,9","06300,1,C,N","011265,1,N,1","+0260,1","+0200,1","99999,9","02,5,+00480,1,99,9","02,5,+00540,1,09,5","07,5,+06300,1,99,9","07,99,1,99,9,99,9,99999,9,99,9,99,9",,"10159,1,99999,9",,,,"MET090METAR LPGR 201500Z /////KT 9999 FEW016 FEW018CB BKN210 26/20 Q1016 RMK WIND RWY09 28006KT;",
"08515599999","2010-08-20T16:00:00","4","39.092169","-28.029847","26.21","GRACIOSA, PO","FM-15","LPGR ","V020","999,9,9,9999,9","06300,1,C,N","011265,1,N,1","+0260,1","+0200,1","99999,9","02,5,+00540,1,99,9","07,5,+06300,1,99,9",,"07,99,1,99,9,99,9,99999,9,99,9,99,9",,"10159,1,99999,9",,,,"MET081METAR LPGR 201600Z /////KT 9999 FEW018 BKN210 26/20 Q1016 RMK WIND RWY09 27007KT;",
"08515599999","2010-08-20T17:00:00","4","39.092169","-28.029847","26.21","GRACIOSA, PO","FM-15","LPGR ","V020","999,9,9,9999,9","06300,1,C,N","011265,1,N,1","+0260,1","+0200,1","99999,9","02,5,+00540,1,99,9","07,5,+06300,1,99,9",,"07,99,1,99,9,99,9,99999,9,99,9,99,9",,"10159,1,99999,9",,,,"MET081METAR LPGR 201700Z /////KT 9999 FEW018 BKN210 26/20 Q1016 RMK WIND RWY09 28008KT;",
"08515599999","2010-08-21T07:00:00","4","39.092169","-28.029847","26.21","GRACIOSA, PO","FM-15","LPGR ","V020","999,9,9,9999,9","22000,1,9,N","011265,1,N,1","+0220,1","+0190,1","99999,9","02,5,+00450,1,99,9",,,"02,99,1,99,9,99,9,99999,9,99,9,99,9",,"10180,1,99999,9",,,,"MET074METAR LPGR 210700Z /////KT 9999 FEW015 22/19 Q1018 RMK WIND RWY09 23004KT;",
"08515599999","2010-08-21T08:00:00","4","39.092169","-28.029847","26.21","GRACIOSA, PO","FM-15","LPGR ","V020","999,9,9,9999,9","22000,1,9,N","011265,1,N,1","+0220,1","+0200,1","99999,9","02,5,+00450,1,99,9",,,"02,99,1,99,9,99,9,99999,9,99,9,99,9",,"10180,1,99999,9",,,,"MET074METAR LPGR 210800Z /////KT 9999 FEW015 22/20 Q1018 RMK WIND RWY09 24004KT;",
"08515599999","2010-08-21T09:00:00","4","39.092169","-28.029847","26.21","GRACIOSA, PO","FM-15","LPGR ","V020","999,9,9,9999,9","06300,1,C,N","011265,1,N,1","+0230,1","+0200,1","99999,9","02,5,+00450,1,99,9","07,5,+06300,1,99,9",,"07,99,1,99,9,99,9,99999,9,99,9,99,9",,"10190,1,99999,9",,,,"MET081METAR LPGR 210900Z /////KT 9999 FEW015 BKN210 23/20 Q1019 RMK WIND RWY09 25007KT;",
"08515599999","2010-08-21T15:00:00","4","39.092169","-28.029847","26.21","GRACIOSA, PO","FM-15","LPGR ","V020","999,9,9,9999,9","22000,1,9,N","011265,1,N,1","+0260,1","+0210,1","99999,9","02,5,+00480,1,99,9",,,"02,99,1,99,9,99,9,99999,9,99,9,99,9",,"10200,1,99999,9",,,,"MET074METAR LPGR 211500Z /////KT 9999 FEW016 26/21 Q1020 RMK WIND RWY09 27012KT;",
"08515599999","2010-08-21T16:00:00","4","39.092169","-28.029847","26.21","GRACIOSA, PO","FM-15","LPGR ","V020","999,9,9,9999,9","22000,1,9,N","011265,1,N,1","+0260,1","+0210,1","99999,9","02,5,+00480,1,99,9",,,"02,99,1,99,9,99,9,99999,9,99,9,99,9",,"10190,1,99999,9",,,,"MET074METAR LPGR 211600Z /////KT 9999 FEW016 26/21 Q1019 RMK WIND RWY09 26013KT;",
"08515599999","2010-08-21T17:00:00","4","39.092169","-28.029847","26.21","GRACIOSA, PO","FM-15","LPGR ","V020","999,9,9,9999,9","06300,1,C,N","011265,1,N,1","+0260,1","+0210,1","99999,9","02,5,+00480,1,99,9","07,5,+06300,1,99,9",,"07,99,1,99,9,99,9,99999,9,99,9,99,9",,"10190,1,99999,9",,,,"MET081METAR LPGR 211700Z /////KT 9999 FEW016 BKN210 26/21 Q1019 RMK WIND RWY09 25014KT;",
"08515599999","2010-08-22T07:00:00","4","39.092169","-28.029847","26.21","GRACIOSA, PO","FM-15","LPGR ","V020","999,9,9,9999,9","22000,1,9,N","011265,1,N,1","+0240,1","+0230,1","99999,9","04,5,+00300,1,99,9",,,"04,99,1,99,9,99,9,99999,9,99,9,99,9",,"10159,1,99999,9",,,,"MET074METAR LPGR 220700Z /////KT 9999 SCT010 24/23 Q1016 RMK WIND RWY09 25017KT;",
"08515599999","2010-08-22T08:00:00","4","39.092169","-28.029847","26.21","GRACIOSA, PO","FM-15","LPGR ","V020","999,9,9,9999,9","99999,9,C,N","009000,1,N,1","+0240,1","+0230,1","99999,9","04,5,+00300,1,99,9","04,5,+00420,1,99,9",,"04,99,1,99,9,99,9,99999,9,99,9,99,9",,"10159,1,99999,9",,,,"MET081METAR LPGR 220800Z /////KT 9000 SCT010 SCT014 24/23 Q1016 RMK WIND RWY09 25018KT;","P01 004203SCOCIG"
"08515599999","2010-08-22T09:00:00","4","39.092169","-28.029847","26.21","GRACIOSA, PO","FM-15","LPGR ","V020","999,9,9,9999,9","99999,9,C,N","009000,1,N,1","+0250,1","+0240,1","99999,9","04,5,+00300,1,99,9","04,5,+00420,1,99,9",,"04,99,1,99,9,99,9,99999,9,99,9,99,9",,"10169,1,99999,9",,,,"MET081METAR LPGR 220900Z /////KT 9000 SCT010 SCT014 25/24 Q1017 RMK WIND RWY09 26017KT;","P01 004203SCOCIG"
"08515599999","2010-08-22T15:00:00","4","39.092169","-28.029847","26.21","GRACIOSA, PO","FM-15","LPGR ","V020","999,9,9,9999,9","00420,1,C,N","008000,1,N,1","+0270,1","+0240,1","99999,9","04,5,+00300,1,99,9","07,5,+00420,1,99,9",,"07,99,1,99,9,99,9,99999,9,99,9,99,9",,"10169,1,99999,9",,,,"MET081METAR LPGR 221500Z /////KT 8000 SCT010 BKN014 27/24 Q1017 RMK WIND RWY09 25017KT;",
"08515599999","2010-08-22T16:00:00","4","39.092169","-28.029847","26.21","GRACIOSA, PO","FM-15","LPGR ","V020","999,9,9,9999,9","99999,9,C,N","008000,1,N,1","+0260,1","+0240,1","99999,9","04,5,+00300,1,99,9","04,5,+00420,1,99,9",,"04,99,1,99,9,99,9,99999,9,99,9,99,9",,"10169,1,99999,9",,,,"MET081METAR LPGR 221600Z /////KT 8000 SCT010 SCT014 26/24 Q1017 RMK WIND RWY09 26016KT;","P01 004203SCOCIG"
"08515599999","2010-08-22T17:00:00","4","39.092169","-28.029847","26.21","GRACIOSA, PO","FM-15","LPGR ","V020","999,9,9,9999,9","99999,9,C,N","008000,1,N,1","+0260,1","+0240,1","99999,9","04,5,+00300,1,99,9","04,5,+00420,1,99,9",,"04,99,1,99,9,99,9,99999,9,99,9,99,9",,"10169,1,99999,9",,,,"MET081METAR LPGR 221700Z /////KT 8000 SCT010 SCT014 26/24 Q1017 RMK WIND RWY09 27015KT;","P01 004203SCOCIG"
"08515599999","2010-08-23T16:00:00","4","39.092169","-28.029847","26.21","GRACIOSA, PO","FM-15","LPGR ","V020","260,1,N,0103,1","06300,1,C,N","011265,1,N,1","+0260,1","+0230,1","99999,9","02,5,+00360,1,99,9","07,5,+06300,1,99,9",,"07,99,1,99,9,99,9,99999,9,99,9,99,9",,"10139,1,99999,9",,,,"MET081METAR LPGR 231600Z 26020KT 9999 FEW012 BKN210 26/23 Q1014 RMK WIND RWY09 25018KT;",
"08515599999","2010-08-23T17:00:00","4","39.092169","-28.029847","26.21","GRACIOSA, PO","FM-15","LPGR ","V020","250,1,N,0113,1","06300,1,C,N","011265,1,N,1","+0260,1","+0230,1","99999,9","02,5,+00360,1,99,9","07,5,+06300,1,99,9",,"07,99,1,99,9,99,9,99999,9,99,9,99,9",,"10139,1,99999,9",,,,"MET081METAR LPGR 231700Z 25022KT 9999 FEW012 BKN210 26/23 Q1014 RMK WIND RWY09 25018KT;",
"08515599999","2010-08-23T18:00:00","4","39.092169","-28.029847","26.21","GRACIOSA, PO","FM-15","LPGR ","V020","260,1,N,0118,1","06300,1,C,N","011265,1,N,1","+0260,1","+0230,1","99999,9","02,5,+00360,1,99,9","07,5,+06300,1,99,9",,"07,99,1,99,9,99,9,99999,9,99,9,99,9",,"10129,1,99999,9",,,,"MET081METAR LPGR 231800Z 26023KT 9999 FEW012 BKN210 26/23 Q1013 RMK WIND RWY09 25022KT;",
"08515599999","2010-08-23T19:00:00","4","39.092169","-28.029847","26.21","GRACIOSA, PO","FM-15","LPGR ","V020","999,9,9,9999,9","99999,9,C,N","011265,1,N,1","+0250,1","+0220,1","99999,9","04,5,+00360,1,99,9","04,5,+06300,1,99,9",,"04,99,1,99,9,99,9,99999,9,99,9,99,9",,"10129,1,99999,9",,,,"MET084METAR LPGR 231900Z /////KT 9999 SCT012 SCT210 25/22 Q1013 RMK WIND RWY09 25015G25KT;","P01 063003SCOCIG"
"08515599999","2010-08-24T07:00:00","4","39.092169","-28.029847","26.21","GRACIOSA, PO","FM-15","LPGR ","V020","250,1,N,0077,1","00750,1,C,N","011265,1,N,1","+0230,1","+0210,1","99999,9","04,5,+00300,1,99,9","07,5,+00750,1,99,9",,"07,99,1,99,9,99,9,99999,9,99,9,99,9",,"10119,1,99999,9",,,,"MET081METAR LPGR 240700Z 25015KT 9999 SCT010 BKN025 23/21 Q1012 RMK WIND RWY09 25013KT;",
"08515599999","2010-08-24T08:00:00","4","39.092169","-28.029847","26.21","GRACIOSA, PO","FM-15","LPGR ","V020","250,1,N,0103,1","00900,1,C,N","011265,1,N,1","+0230,1","+0220,1","99999,9","04,5,+00360,1,99,9","07,5,+00900,1,99,9",,"07,99,1,99,9,99,9,99999,9,99,9,99,9",,"10119,1,99999,9",,,,"MET081METAR LPGR 240800Z 25020KT 9999 SCT012 BKN030 23/22 Q1012 RMK WIND RWY09 24018KT;",
"08515599999","2010-08-24T09:00:00","4","39.092169","-28.029847","26.21","GRACIOSA, PO","FM-15","LPGR ","V020","999,9,9,9999,9","02400,1,C,N","011265,1,N,1","+0240,1","+0210,1","99999,9","02,5,+00390,1,99,9","07,5,+02400,1,99,9",,"07,99,1,99,9,99,9,99999,9,99,9,99,9",,"10119,1,99999,9",,,,"MET081METAR LPGR 240900Z /////KT 9999 FEW013 BKN080 24/21 Q1012 RMK WIND RWY09 25016KT;",
"08515599999","2010-08-24T10:00:00","4","39.092169","-28.029847","26.21","GRACIOSA, PO","FM-15","LPGR ","V020","999,9,9,9999,9","99999,9,C,N","011265,1,N,1","+0240,1","+0210,1","99999,9","02,5,+00420,1,99,9","04,5,+02400,1,99,9",,"04,99,1,99,9,99,9,99999,9,99,9,99,9",,"10119,1,99999,9",,,,"MET081METAR LPGR 241000Z /////KT 9999 FEW014 SCT080 24/21 Q1012 RMK WIND RWY09 26015KT;","P01 024003SCOCIG"
"08515599999","2010-08-24T15:00:00","4","39.092169","-28.029847","26.21","GRACIOSA, PO","FM-15","LPGR ","V020","260,1,N,0103,1","06300,1,C,N","011265,1,N,1","+0260,1","+0220,1","99999,9","02,5,+00390,1,99,9","07,5,+06300,1,99,9",,"07,99,1,99,9,99,9,99999,9,99,9,99,9",,"10119,1,99999,9",,,,"MET081METAR LPGR 241500Z 26020KT 9999 FEW013 BKN210 26/22 Q1012 RMK WIND RWY09 25017KT;",
"08515599999","2010-08-24T16:00:00","4","39.092169","-28.029847","26.21","GRACIOSA, PO","FM-15","LPGR ","V020","260,1,N,0082,1","02400,1,C,N","011265,1,N,1","+0250,1","+0220,1","99999,9","02,5,+00390,1,99,9","04,5,+02400,1,99,9","08,5,+06300,1,99,9","08,99,1,99,9,99,9,99999,9,99,9,99,9",,"10119,1,99999,9",,,,"MET088METAR LPGR 241600Z 26016KT 9999 FEW013 SCT080 OVC210 25/22 Q1012 RMK WIND RWY09 26015KT;",
"08515599999","2010-08-24T17:00:00","4","39.092169","-28.029847","26.21","GRACIOSA, PO","FM-15","LPGR ","V020","280,1,N,0067,1","02400,1,C,N","011265,1,N,1","+0250,1","+0220,1","99999,9","02,5,+00390,1,99,9","04,5,+02400,1,99,9","08,5,+06300,1,99,9","08,99,1,99,9,99,9,99999,9,99,9,99,9",,"10119,1,99999,9",,,,"MET088METAR LPGR 241700Z 28013KT 9999 FEW013 SCT080 OVC210 25/22 Q1012 RMK WIND RWY09 27012KT;",
"08515599999","2010-08-24T18:00:00","4","39.092169","-28.029847","26.21","GRACIOSA, PO","FM-15","LPGR ","V020","240,1,N,0031,1","02400,1,C,N","011265,1,N,1","+0230,1","+0190,1","99999,9","02,5,+00390,1,99,9","07,5,+02400,1,99,9","08,5,+06300,1,99,9","08,99,1,99,9,99,9,99999,9,99,9,99,9",,"10108,1,99999,9",,,,"MET088METAR LPGR 241800Z 24006KT 9999 FEW013 BKN080 OVC210 23/19 Q1011 RMK WIND RWY09 19004KT;",
"08515599999","2010-08-24T19:00:00","4","39.092169","-28.029847","26.21","GRACIOSA, PO","FM-15","LPGR ","V020","230,1,N,0067,1","02400,1,C,N","011265,1,N,1","+0230,1","+0190,1","99999,9","02,5,+00390,1,99,9","07,5,+02400,1,99,9",,"07,99,1,99,9,99,9,99999,9,99,9,99,9",,"10102,1,99999,9",,,,"MET081METAR LPGR 241900Z 23013KT 9999 FEW013 BKN080 23/19 Q1010 RMK WIND RWY09 22012KT;",
"08515599999","2010-08-25T07:00:00","4","39.092169","-28.029847","26.21","GRACIOSA, PO","FM-15","LPGR ","V020","300,1,N,0051,1","01050,1,C,N","011265,1,N,1","+0220,1","+0180,1","99999,9","02,5,+00450,1,99,9","07,5,+01050,1,99,9",,"07,99,1,99,9,99,9,99999,9,99,9,99,9",,"10081,1,99999,9",,,,"MET081METAR LPGR 250700Z 30010KT 9999 FEW015 BKN035 22/18 Q1008 RMK WIND RWY09 28006KT;",
"08515599999","2010-08-25T08:00:00","4","39.092169","-28.029847","26.21","GRACIOSA, PO","FM-15","LPGR ","V020","310,1,N,0057,1","01050,1,C,N","011265,1,N,1","+0220,1","+0180,1","99999,9","02,5,+00480,1,99,9","07,5,+01050,1,99,9",,"07,99,1,99,9,99,9,99999,9,99,9,99,9",,"10091,1,99999,9",,,,"MET081METAR LPGR 250800Z 31011KT 9999 FEW016 BKN035 22/18 Q1009 RMK WIND RWY09 29010KT;",
"08515599999","2010-08-25T09:00:00","4","39.092169","-28.029847","26.21","GRACIOSA, PO","FM-15","LPGR ","V020","300,1,N,0057,1","01050,1,C,N","011265,1,N,1","+0220,1","+0180,1","99999,9","02,5,+00480,1,99,9","07,5,+01050,1,99,9",,"07,99,1,99,9,99,9,99999,9,99,9,99,9",,"10091,1,99999,9",,,,"MET081METAR LPGR 250900Z 30011KT 9999 FEW016 BKN035 22/18 Q1009 RMK WIND RWY09 29007KT;",
"08515599999","2010-08-25T15:00:00","4","39.092169","-28.029847","26.21","GRACIOSA, PO","FM-15","LPGR ","V020","270,1,N,0072,1","22000,1,9,N","011265,1,N,1","+0250,1","+0190,1","99999,9","04,5,+00600,1,99,9",,,"04,99,1,99,9,99,9,99999,9,99,9,99,9",,"10102,1,99999,9",,,,"MET074METAR LPGR 251500Z 27014KT 9999 SCT020 25/19 Q1010 RMK WIND RWY09 26014KT;",
"08515599999","2010-08-25T16:00:00","4","39.092169","-28.029847","26.21","GRACIOSA, PO","FM-15","LPGR ","V020","280,1,N,0062,1","22000,1,9,N","011265,1,N,1","+0260,1","+0190,1","99999,9","02,5,+00600,1,99,9",,,"02,99,1,99,9,99,9,99999,9,99,9,99,9",,"10102,1,99999,9",,,,"MET074METAR LPGR 251600Z 28012KT 9999 FEW020 26/19 Q1010 RMK WIND RWY09 27013KT;",
"08515599999","2010-08-25T17:00:00","4","39.092169","-28.029847","26.21","GRACIOSA, PO","FM-15","LPGR ","V020","350,1,N,0067,1","22000,1,9,N","011265,1,N,1","+0250,1","+0190,1","99999,9","02,5,+00540,1,99,9",,,"02,99,1,99,9,99,9,99999,9,99,9,99,9",,"10102,1,99999,9",,,,"MET074METAR LPGR 251700Z 35013KT 9999 FEW018 25/19 Q1010 RMK WIND RWY09 35010KT;",
"08515599999","2010-08-30T16:00:00","4","39.092169","-28.029847","26.21","GRACIOSA, PO","FM-15","LPGR ","V020","320,1,N,0072,1","00900,1,C,N","011265,1,N,1","+0240,1","+0180,1","99999,9","02,5,+00480,1,99,9","07,5,+00900,1,99,9",,"07,99,1,99,9,99,9,99999,9,99,9,99,9",,"10139,1,99999,9",,,,"MET081METAR LPGR 301600Z 32014KT 9999 FEW016 BKN030 24/18 Q1014 RMK WIND RWY09 31017KT;",
"08515599999","2010-08-31T07:00:00","4","39.092169","-28.029847","26.21","GRACIOSA, PO","FM-15","LPGR ","V020","310,1,N,0041,1","00750,1,C,N","011265,1,N,1","+0210,1","+0160,1","99999,9","02,5,+00390,1,99,9","07,5,+00750,1,99,9",,"07,99,1,99,9,99,9,99999,9,99,9,99,9",,"10159,1,99999,9",,,,"MET081METAR LPGR 310700Z 31008KT 9999 FEW013 BKN025 21/16 Q1016 RMK WIND RWY09 30007KT;",
"08515599999","2010-08-31T08:00:00","4","39.092169","-28.029847","26.21","GRACIOSA, PO","FM-15","LPGR ","V020","310,1,N,0046,1","00750,1,C,N","011265,1,N,1","+0210,1","+0170,1","99999,9","02,5,+00420,1,99,9","07,5,+00750,1,99,9",,"07,99,1,99,9,99,9,99999,9,99,9,99,9",,"10159,1,99999,9",,,,"MET095METAR LPGR 310800Z 31009KT 9999 FEW014 BKN025 21/17 Q1016 RMK WIND RWY09 30008KT ESTIMATE WIND;",
"08515599999","2010-08-31T09:00:00","4","39.092169","-28.029847","26.21","GRACIOSA, PO","FM-15","LPGR ","V020","310,1,N,0031,1","00900,1,C,N","011265,1,N,1","+0220,1","+0170,1","99999,9","02,5,+00420,1,99,9","07,5,+00900,1,99,9",,"07,99,1,99,9,99,9,99999,9,99,9,99,9",,"10159,1,99999,9",,,,"MET095METAR LPGR 310900Z 31006KT 9999 FEW014 BKN030 22/17 Q1016 RMK WIND RWY09 28005KT ESTIMATE WIND;",
"08515599999","2010-08-31T15:00:00","4","39.092169","-28.029847","26.21","GRACIOSA, PO","FM-15","LPGR ","V020","260,1,N,0067,1","22000,1,9,N","011265,1,N,1","+0240,1","+0190,1","99999,9","02,5,+00480,1,99,9",,,"02,99,1,99,9,99,9,99999,9,99,9,99,9",,"10159,1,99999,9",,,,"MET088METAR LPGR 311500Z 26013KT 9999 FEW016 24/19 Q1016 RMK WIND RWY09 26012KT ESTIMATE WIND;",
"08515599999","2010-08-31T16:00:00","4","39.092169","-28.029847","26.21","GRACIOSA, PO","FM-15","LPGR ","V020","280,1,N,0077,1","22000,1,9,N","011265,1,N,1","+0240,1","+0180,1","99999,9","02,5,+00480,1,99,9",,,"02,99,1,99,9,99,9,99999,9,99,9,99,9",,"10159,1,99999,9",,,,"MET088METAR LPGR 311600Z 28015KT 9999 FEW016 24/18 Q1016 RMK WIND RWY09 27014KT ESTIMATE WIND;",
"08515599999","2010-08-31T17:00:00","4","39.092169","-28.029847","26.21","GRACIOSA, PO","FM-15","LPGR ","V020","260,1,N,0077,1","22000,1,9,N","011265,1,N,1","+0240,1","+0180,1","99999,9","02,5,+00480,1,99,9",,,"02,99,1,99,9,99,9,99999,9,99,9,99,9",,"10149,1,99999,9",,,,"MET088METAR LPGR 311700Z 26015KT 9999 FEW016 24/18 Q1015 RMK WIND RWY09 26013KT ESTIMATE WIND;",
"08515599999","2010-09-01T07:00:00","4","39.092169","-28.029847","26.21","GRACIOSA, PO","FM-15","LPGR ","V020","240,1,N,0113,1","00750,1,C,N","011265,1,N,1","+0230,1","+0210,1","99999,9","04,5,+00360,1,99,9","07,5,+00750,1,99,9",,"07,99,1,99,9,99,9,99999,9,99,9,99,9",,"10108,1,99999,9",,,,"MET089METAR LPGR 010700Z 24022KT 9999 SCT012 BKN025 23/21 Q1011 RMK WIND RWY09 24019KT EST WND;",
"08515599999","2010-09-01T08:00:00","4","39.092169","-28.029847","26.21","GRACIOSA, PO","FM-15","LPGR ","V020","240,1,N,0118,1","00900,1,C,N","011265,1,N,1","+0230,1","+0210,1","99999,9","02,5,+00360,1,99,9","07,5,+00900,1,99,9",,"07,99,1,99,9,99,9,99999,9,99,9,99,9",,"10108,1,99999,9",,,,"MET089METAR LPGR 010800Z 24023KT 9999 FEW012 BKN030 23/21 Q1011 RMK WIND RWY09 24020KT EST WND;",
"08515599999","2010-09-01T09:00:00","4","39.092169","-28.029847","26.21","GRACIOSA, PO","FM-15","LPGR ","V020","240,1,N,0123,1","00900,1,C,N","011265,1,N,1","+0240,1","+0210,1","99999,9","02,5,+00360,1,99,9","07,5,+00900,1,99,9",,"07,99,1,99,9,99,9,99999,9,99,9,99,9",,"10108,1,99999,9",,,,"MET089METAR LPGR 010900Z 24024KT 9999 FEW012 BKN030 24/21 Q1011 RMK WIND RWY09 24022KT EST WND;",
"08515599999","2010-09-01T10:00:00","4","39.092169","-28.029847","26.21","GRACIOSA, PO","FM-15","LPGR ","V020","240,1,N,0129,1","99999,9,C,N","011265,1,N,1","+0240,1","+0210,1","99999,9","02,5,+00360,1,99,9","04,5,+00900,1,99,9",,"04,99,1,99,9,99,9,99999,9,99,9,99,9",,"10108,1,99999,9",,,,"MET089METAR LPGR 011000Z 24025KT 9999 FEW012 SCT030 24/21 Q1011 RMK WIND RWY09 24020KT EST WND;","P01 009003SCOCIG"
"08515599999","2010-09-01T14:00:00","4","39.092169","-28.029847","26.21","GRACIOSA, PO","FM-15","LPGR ","V020","250,1,N,0077,1","01050,1,C,N","011265,1,N,1","+0240,1","+0210,1","99999,9","02,5,+00360,1,99,9","07,5,+01050,1,99,9",,"07,99,1,99,9,99,9,99999,9,99,9,99,9",,"10119,1,99999,9",,,,"MET089METAR LPGR 011400Z 25015KT 9999 FEW012 BKN035 24/21 Q1012 RMK WIND RWY09 26014KT EST WND;",
"08515599999","2010-09-01T15:00:00","4","39.092169","-28.029847","26.21","GRACIOSA, PO","FM-15","LPGR ","V020","250,1,N,0077,1","22000,1,9,N","011265,1,N,1","+0250,1","+0210,1","99999,9","02,5,+00420,1,99,9",,,"02,99,1,99,9,99,9,99999,9,99,9,99,9",,"10119,1,99999,9",,,,"MET082METAR LPGR 011500Z 25015KT 9999 FEW014 25/21 Q1012 RMK WIND RWY09 26014KT EST WND;",
"08515599999","2010-09-01T16:00:00","4","39.092169","-28.029847","26.21","GRACIOSA, PO","FM-15","LPGR ","V020","270,1,N,0072,1","22000,1,9,N","011265,1,N,1","+0250,1","+0200,1","99999,9","02,5,+00420,1,99,9",,,"02,99,1,99,9,99,9,99999,9,99,9,99,9",,"10119,1,99999,9",,,,"MET082METAR LPGR 011600Z 27014KT 9999 FEW014 25/20 Q1012 RMK WIND RWY09 27014KT EST WND;",
"08515599999","2010-09-01T17:00:00","4","39.092169","-28.029847","26.21","GRACIOSA, PO","FM-15","LPGR ","V020","270,1,N,0077,1","22000,1,9,N","011265,1,N,1","+0250,1","+0190,1","99999,9","02,5,+00420,1,99,9",,,"02,99,1,99,9,99,9,99999,9,99,9,99,9",,"10119,1,99999,9",,,,"MET082METAR LPGR 011700Z 27015KT 9999 FEW014 25/19 Q1012 RMK WIND RWY09 27015KT EST WND;",
"08515599999","2010-09-01T18:00:00","4","39.092169","-28.029847","26.21","GRACIOSA, PO","FM-15","LPGR ","V020","260,1,N,0067,1","01050,1,C,N","011265,1,N,1","+0230,1","+0190,1","99999,9","02,5,+00420,1,99,9","07,5,+01050,1,99,9",,"07,99,1,99,9,99,9,99999,9,99,9,99,9",,"10129,1,99999,9",,,,"MET089METAR LPGR 011800Z 26013KT 9999 FEW014 BKN035 23/19 Q1013 RMK WIND RWY09 27012KT EST WND;",
"08515599999","2010-09-02T15:00:00","4","39.092169","-28.029847","26.21","GRACIOSA, PO","FM-15","LPGR ","V020","220,1,N,0062,1","02400,1,C,N","009000,1,N,1","+0220,1","+0200,1","99999,9","04,5,+00360,1,99,9","08,5,+02400,1,99,9",,"08,99,1,99,9,99,9,99999,9,99,9,99,9",,"10129,1,99999,9","61,1",,,"MET093METAR LPGR 021500Z 22012KT 9000 -RA SCT012 OVC080 22/20 Q1013 RMK WIND RWY09 22012KT EST WND;",
"08515599999","2010-09-02T16:00:00","4","39.092169","-28.029847","26.21","GRACIOSA, PO","FM-15","LPGR ","V020","230,1,N,0077,1","02700,1,C,N","011265,1,N,1","+0230,1","+0220,1","99999,9","02,5,+00330,1,99,9","07,5,+02700,1,99,9",,"07,99,1,99,9,99,9,99999,9,99,9,99,9",,"10119,1,99999,9",,,,"MET089METAR LPGR 021600Z 23015KT 9999 FEW011 BKN090 23/22 Q1012 RMK WIND RWY09 23013KT EST WND;",
"08515599999","2010-09-02T17:00:00","4","39.092169","-28.029847","26.21","GRACIOSA, PO","FM-15","LPGR ","V020","220,1,N,0087,1","99999,9,C,N","011265,1,N,1","+0240,1","+0210,1","99999,9","02,5,+00360,1,99,9","04,5,+02700,1,99,9",,"04,99,1,99,9,99,9,99999,9,99,9,99,9",,"10119,1,99999,9",,,,"MET089METAR LPGR 021700Z 22017KT 9999 FEW012 SCT090 24/21 Q1012 RMK WIND RWY09 23015KT EST WND;","P01 027003SCOCIG"
"08515599999","2010-09-02T18:00:00","4","39.092169","-28.029847","26.21","GRACIOSA, PO","FM-15","LPGR ","V020","230,1,N,0098,1","99999,9,C,N","011265,1,N,1","+0240,1","+0210,1","99999,9","02,5,+00390,1,99,9","04,5,+02700,1,99,9",,"04,99,1,99,9,99,9,99999,9,99,9,99,9",,"10119,1,99999,9",,,,"MET089METAR LPGR 021800Z 23019KT 9999 FEW013 SCT090 24/21 Q1012 RMK WIND RWY09 23020KT EST WND;","P01 027003SCOCIG"
"08515599999","2010-09-03T09:00:00","4","39.092169","-28.029847","26.21","GRACIOSA, PO","FM-15","LPGR ","V020","300,1,N,0015,1","22000,1,9,N","011265,1,N,1","+0200,1","+0160,1","99999,9","02,5,+00420,1,99,9",,,"02,99,1,99,9,99,9,99999,9,99,9,99,9",,"10159,1,99999,9",,,,"MET082METAR LPGR 030900Z 30003KT 9999 FEW014 20/16 Q1016 RMK WIND RWY09 30005KT EST WND;",
"08515599999","2010-09-04T15:00:00","4","39.092169","-28.029847","26.21","GRACIOSA, PO","FM-15","LPGR ","V020","270,1,N,0062,1","22000,1,9,N","011265,1,N,1","+0250,1","+0180,1","99999,9","02,5,+00600,1,99,9",,,"02,99,1,99,9,99,9,99999,9,99,9,99,9",,"10190,1,99999,9",,,,"MET082METAR LPGR 041500Z 27012KT 9999 FEW020 25/18 Q1019 RMK WIND RWY09 26013KT EST WND;",
"08515599999","2010-09-04T16:00:00","4","39.092169","-28.029847","26.21","GRACIOSA, PO","FM-15","LPGR ","V020","260,1,N,0067,1","22000,1,9,N","011265,1,N,1","+0250,1","+0180,1","99999,9","02,5,+00600,1,99,9",,,"02,99,1,99,9,99,9,99999,9,99,9,99,9",,"10190,1,99999,9",,,,"MET082METAR LPGR 041600Z 26013KT 9999 FEW020 25/18 Q1019 RMK WIND RWY09 26012KT EST WND;",
"08515599999","2010-09-04T17:00:00","4","39.092169","-28.029847","26.21","GRACIOSA, PO","FM-15","LPGR ","V020","260,1,N,0067,1","22000,1,9,N","011265,1,N,1","+0240,1","+0180,1","99999,9","02,5,+00600,1,99,9",,,"02,99,1,99,9,99,9,99999,9,99,9,99,9",,"10190,1,99999,9",,,,"MET082METAR LPGR 041700Z 26013KT 9999 FEW020 24/18 Q1019 RMK WIND RWY09 26010KT EST WND;",
"08515599999","2010-09-06T07:00:00","4","39.092169","-28.029847","26.21","GRACIOSA, PO","FM-15","LPGR ","V020","350,1,N,0041,1","22000,1,9,N","011265,1,N,1","+0190,1","+0160,1","99999,9","02,5,+00420,1,99,9",,,"02,99,1,99,9,99,9,99999,9,99,9,99,9",,"10220,1,99999,9",,,,"MET082METAR LPGR 060700Z 35008KT 9999 FEW014 19/16 Q1022 RMK WIND RWY09 35008KT EST WND;",
"08515599999","2010-09-06T09:00:00","4","39.092169","-28.029847","26.21","GRACIOSA, PO","FM-15","LPGR ","V020","340,1,N,0041,1","99999,9,C,N","011265,1,N,1","+0200,1","+0160,1","99999,9","02,5,+00450,1,99,9","04,5,+06300,1,99,9",,"04,99,1,99,9,99,9,99999,9,99,9,99,9",,"10230,1,99999,9",,,,"MET089METAR LPGR 060900Z 34008KT 9999 FEW015 SCT210 20/16 Q1023 RMK WIND RWY09 34008KT EST WND;","P01 063003SCOCIG"
"08515599999","2010-09-06T15:00:00","4","39.092169","-28.029847","26.21","GRACIOSA, PO","FM-15","LPGR ","V020","290,1,N,0036,1","22000,1,9,N","011265,1,N,1","+0230,1","+0160,1","99999,9","02,5,+00600,1,99,9",,,"02,99,1,99,9,99,9,99999,9,99,9,99,9",,"10230,1,99999,9",,,,"MET082METAR LPGR 061500Z 29007KT 9999 FEW020 23/16 Q1023 RMK WIND RWY09 32008KT EST WND;",
"08515599999","2010-09-06T16:00:00","4","39.092169","-28.029847","26.21","GRACIOSA, PO","FM-15","LPGR ","V020","310,1,N,0041,1","22000,1,9,N","011265,1,N,1","+0230,1","+0160,1","99999,9","02,5,+00600,1,99,9",,,"02,99,1,99,9,99,9,99999,9,99,9,99,9",,"10230,1,99999,9",,,,"MET082METAR LPGR 061600Z 31008KT 9999 FEW020 23/16 Q1023 RMK WIND RWY09 32008KT EST WND;",
"08515599999","2010-09-06T17:00:00","4","39.092169","-28.029847","26.21","GRACIOSA, PO","FM-15","LPGR ","V020","300,1,N,0046,1","22000,1,9,N","011265,1,N,1","+0230,1","+0160,1","99999,9","02,5,+00600,1,99,9",,,"02,99,1,99,9,99,9,99999,9,99,9,99,9",,"10230,1,99999,9",,,,"MET082METAR LPGR 061700Z 30009KT 9999 FEW020 23/16 Q1023 RMK WIND RWY09 32008KT EST WND;",
"08515599999","2010-09-07T15:00:00","4","39.092169","-28.029847","26.21","GRACIOSA, PO","FM-15","LPGR ","V020","310,1,N,0046,1","22000,1,9,N","011265,1,N,1","+0230,1","+0180,1","99999,9","02,5,+00540,1,99,9",,,"02,99,1,99,9,99,9,99999,9,99,9,99,9",,"10220,1,99999,9",,,,"MET082METAR LPGR 071500Z 31009KT 9999 FEW018 23/18 Q1022 RMK WIND RWY09 32008KT EST WND;",
"08515599999","2010-09-07T16:00:00","4","39.092169","-28.029847","26.21","GRACIOSA, PO","FM-15","LPGR ","V020","300,1,N,0046,1","22000,1,9,N","011265,1,N,1","+0240,1","+0180,1","99999,9","04,5,+00540,1,99,9",,,"04,99,1,99,9,99,9,99999,9,99,9,99,9",,"10220,1,99999,9",,,,"MET082METAR LPGR 071600Z 30009KT 9999 SCT018 24/18 Q1022 RMK WIND RWY09 31008KT EST WND;",
"08515599999","2010-09-08T07:00:00","4","39.092169","-28.029847","26.21","GRACIOSA, PO","FM-15","LPGR ","V020","310,1,N,0010,1","22000,1,9,N","011265,1,N,1","+0200,1","+0180,1","99999,9","02,5,+00420,1,99,9",,,"02,99,1,99,9,99,9,99999,9,99,9,99,9",,"10210,1,99999,9",,,,"MET082METAR LPGR 080700Z 31002KT 9999 FEW014 20/18 Q1021 RMK WIND RWY09 31002KT EST WND;",
"08515599999","2010-09-08T08:00:00","4","39.092169","-28.029847","26.21","GRACIOSA, PO","FM-15","LPGR ","V020","310,1,N,0010,1","22000,1,9,N","011265,1,N,1","+0190,1","+0180,1","99999,9","02,5,+00360,1,99,9",,,"02,99,1,99,9,99,9,99999,9,99,9,99,9",,"10210,1,99999,9",,,,"MET082METAR LPGR 080800Z 31002KT 9999 FEW012 19/18 Q1021 RMK WIND RWY09 31002KT EST WND;",
"08515599999","2010-09-08T09:00:00","4","39.092169","-28.029847","26.21","GRACIOSA, PO","FM-15","LPGR ","V020","310,1,N,0010,1","22000,1,9,N","011265,1,N,1","+0210,1","+0200,1","99999,9",,,,,,"10210,1,99999,9",,,,"MET081METAR LPGR 080900Z 31002KT 9999 FE012 21/20 Q1021 RMK WIND RWY09 31002KT EST WND;",
"08515599999","2010-09-08T16:00:00","4","39.092169","-28.029847","26.21","GRACIOSA, PO","FM-15","LPGR ","V020","170,1,N,0015,1","99999,9,C,N","011265,1,N,1","+0240,1","+0190,1","99999,9","02,5,+00420,1,99,9","04,5,+00900,1,99,9",,"04,99,1,99,9,99,9,99999,9,99,9,99,9",,"10210,1,99999,9",,,,"MET089METAR LPGR 081600Z 17003KT 9999 FEW014 SCT030 24/19 Q1021 RMK WIND RWY09 29004KT EST WND;","P01 009003SCOCIG"
"08515599999","2010-09-08T17:00:00","4","39.092169","-28.029847","26.21","GRACIOSA, PO","FM-15","LPGR ","V020","050,1,N,0015,1","22000,1,9,N","011265,1,N,1","+0250,1","+0190,1","99999,9","04,5,+00420,1,99,9",,,"04,99,1,99,9,99,9,99999,9,99,9,99,9",,"10200,1,99999,9",,,,"MET082METAR LPGR 081700Z 05003KT 9999 SCT014 25/19 Q1020 RMK WIND RWY09 29009KT EST WND;",
"08515599999","2010-09-09T15:00:00","4","39.092169","-28.029847","26.21","GRACIOSA, PO","FM-15","LPGR ","V020","280,1,N,0051,1","22000,1,9,N","011265,1,N,1","+0270,1","+0180,1","99999,9","02,5,+00600,1,99,9",,,"02,99,1,99,9,99,9,99999,9,99,9,99,9",,"10220,1,99999,9",,,,"MET082METAR LPGR 091500Z 28010KT 9999 FEW020 27/18 Q1022 RMK WIND RWY09 27012KT EST WND;",
"08515599999","2010-09-09T16:00:00","4","39.092169","-28.029847","26.21","GRACIOSA, PO","FM-15","LPGR ","V020","260,1,N,0051,1","22000,1,9,N","011265,1,N,1","+0260,1","+0190,1","99999,9","02,5,+00600,1,99,9",,,"02,99,1,99,9,99,9,99999,9,99,9,99,9",,"10210,1,99999,9",,,,"MET082METAR LPGR 091600Z 26010KT 9999 FEW020 26/19 Q1021 RMK WIND RWY09 27010KT EST WND;",
"08515599999","2010-09-09T17:00:00","4","39.092169","-28.029847","26.21","GRACIOSA, PO","FM-15","LPGR ","V020","240,1,N,0046,1","22000,1,9,N","011265,1,N,1","+0260,1","+0180,1","99999,9","02,5,+00600,1,99,9",,,"02,99,1,99,9,99,9,99999,9,99,9,99,9",,"10210,1,99999,9",,,,"MET082METAR LPGR 091700Z 24009KT 9999 FEW020 26/18 Q1021 RMK WIND RWY09 24009KT EST WND;",
"08515599999","2010-09-10T07:00:00","4","39.092169","-28.029847","26.21","GRACIOSA, PO","FM-15","LPGR ","V020","230,1,N,0041,1","22000,1,9,N","011265,1,N,1","+0220,1","+0190,1","99999,9","02,5,+00450,1,99,9",,,"02,99,1,99,9,99,9,99999,9,99,9,99,9",,"10220,1,99999,9",,,,"MET074METAR LPGR 100700Z 23008KT 9999 FEW015 22/19 Q1022 RMK WIND RWY09 23008KT;",
"08515599999","2010-09-10T08:00:00","4","39.092169","-28.029847","26.21","GRACIOSA, PO","FM-15","LPGR ","V020","220,1,N,0041,1","22000,1,9,N","011265,1,N,1","+0220,1","+0200,1","99999,9","02,5,+00450,1,99,9",,,"02,99,1,99,9,99,9,99999,9,99,9,99,9",,"10220,1,99999,9",,,,"MET074METAR LPGR 100800Z 22008KT 9999 FEW015 22/20 Q1022 RMK WIND RWY09 22010KT;",
"08515599999","2010-09-10T09:00:00","4","39.092169","-28.029847","26.21","GRACIOSA, PO","FM-15","LPGR ","V020","230,1,N,0051,1","22000,1,9,N","011265,1,N,1","+0230,1","+0210,1","99999,9","04,5,+00360,1,99,9",,,"04,99,1,99,9,99,9,99999,9,99,9,99,9",,"10220,1,99999,9",,,,"MET074METAR LPGR 100900Z 23010KT 9999 SCT012 23/21 Q1022 RMK WIND RWY09 23010KT;",
"08515599999","2010-09-10T15:00:00","4","39.092169","-28.029847","26.21","GRACIOSA, PO","FM-15","LPGR ","V020","250,1,N,0062,1","22000,1,9,N","011265,1,N,1","+0250,1","+0210,1","99999,9","04,5,+00360,1,99,9",,,"04,99,1,99,9,99,9,99999,9,99,9,99,9",,"10230,1,99999,9",,,,"MET074METAR LPGR 101500Z 25012KT 9999 SCT012 25/21 Q1023 RMK WIND RWY09 25012KT;",
"08515599999","2010-09-10T17:00:00","4","39.092169","-28.029847","26.21","GRACIOSA, PO","FM-15","LPGR ","V020","310,1,N,0036,1","22000,1,9,N","011265,1,N,1","+0250,1","+0210,1","99999,9","04,5,+00360,1,99,9",,,"04,99,1,99,9,99,9,99999,9,99,9,99,9",,"10220,1,99999,9",,,,"MET074METAR LPGR 101700Z 31007KT 9999 SCT012 25/21 Q1022 RMK WIND RWY09 29009KT;",
"08515599999","2010-09-11T17:00:00","4","39.092169","-28.029847","26.21","GRACIOSA, PO","FM-15","LPGR ","V020","070,1,N,0062,1","22000,1,9,N","011265,1,N,1","+0240,1","+0140,1","99999,9","02,5,+00600,1,99,9",,,"02,99,1,99,9,99,9,99999,9,99,9,99,9",,"10271,1,99999,9",,,,"MET074METAR LPGR 111700Z 07012KT 9999 FEW020 24/14 Q1027 RMK WIND RWY09 07014KT;",
"08515599999","2010-09-12T15:00:00","4","39.092169","-28.029847","26.21","GRACIOSA, PO","FM-15","LPGR ","V020","090,1,N,0072,1","22000,1,9,N","011265,1,N,1","+0240,1","+0160,1","99999,9","02,5,+00600,1,99,9",,,"02,99,1,99,9,99,9,99999,9,99,9,99,9",,"10281,1,99999,9",,,,"MET074METAR LPGR 121500Z 09014KT 9999 FEW020 24/16 Q1028 RMK WIND RWY09 09017KT;",
"08515599999","2010-09-12T16:00:00","4","39.092169","-28.029847","26.21","GRACIOSA, PO","FM-15","LPGR ","V020","090,1,N,0062,1","01050,1,C,N","011265,1,N,1","+0220,1","+0150,1","99999,9","04,5,+00540,1,99,9","07,5,+01050,1,99,9",,"07,99,1,99,9,99,9,99999,9,99,9,99,9",,"10281,1,99999,9",,,,"MET081METAR LPGR 121600Z 09012KT 9999 SCT018 BKN035 22/15 Q1028 RMK WIND RWY09 09013KT;",
"08515599999","2010-09-13T07:00:00","4","39.092169","-28.029847","26.21","GRACIOSA, PO","FM-15","LPGR ","V020","090,1,N,0067,1","22000,1,9,N","011265,1,N,1","+0200,1","+0160,1","99999,9","02,5,+00480,1,99,9",,,"02,99,1,99,9,99,9,99999,9,99,9,99,9",,"10281,1,99999,9",,,,"MET074METAR LPGR 130700Z 09013KT 9999 FEW016 20/16 Q1028 RMK WIND RWY09 09014KT;",
"08515599999","2010-09-13T08:00:00","4","39.092169","-28.029847","26.21","GRACIOSA, PO","FM-15","LPGR ","V020","090,1,N,0062,1","22000,1,9,N","011265,1,N,1","+0210,1","+0160,1","99999,9","02,5,+00480,1,99,9",,,"02,99,1,99,9,99,9,99999,9,99,9,99,9",,"10281,1,99999,9",,,,"MET074METAR LPGR 130800Z 09012KT 9999 FEW016 21/16 Q1028 RMK WIND RWY09 09012KT;",
"08515599999","2010-09-13T09:00:00","4","39.092169","-28.029847","26.21","GRACIOSA, PO","FM-15","LPGR ","V020","090,1,N,0051,1","99999,9,C,N","011265,1,N,1","+0210,1","+0160,1","99999,9","02,5,+00480,1,99,9","04,5,+01050,1,99,9",,"04,99,1,99,9,99,9,99999,9,99,9,99,9",,"10281,1,99999,9",,,,"MET081METAR LPGR 130900Z 09010KT 9999 FEW016 SCT035 21/16 Q1028 RMK WIND RWY09 09014KT;","P01 010503SCOCIG"
"08515599999","2010-09-13T15:00:00","4","39.092169","-28.029847","26.21","GRACIOSA, PO","FM-15","LPGR ","V020","100,1,N,0077,1","01050,1,C,N","011265,1,N,1","+0240,1","+0150,1","99999,9","02,5,+00540,1,99,9","07,5,+01050,1,99,9",,"07,99,1,99,9,99,9,99999,9,99,9,99,9","999,M,+9999,9","10281,1,99999,9",,,,"MET081METAR LPGR 131500Z 10015KT 9999 FEW018 BKN035 24/15 Q1028 RMK WIND RWY09 10016KT;","Q01 +00162ATMX  "
"08515599999","2010-09-13T16:00:00","4","39.092169","-28.029847","26.21","GRACIOSA, PO","FM-15","LPGR ","V020","100,1,N,0077,1","22000,1,9,N","011265,1,N,1","+0250,1","+0150,1","99999,9","02,5,+00540,1,99,9",,,"02,99,1,99,9,99,9,99999,9,99,9,99,9","999,M,+9999,9","10281,1,99999,9",,,,"MET074METAR LPGR 131600Z 10015KT 9999 FEW018 25/15 Q1028 RMK WIND RWY09 10016KT;","Q01 +00162ATMX  "
"08515599999","2010-09-13T17:00:00","4","39.092169","-28.029847","26.21","GRACIOSA, PO","FM-15","LPGR ","V020","090,1,N,0072,1","22000,1,9,N","011265,1,N,1","+0240,1","+0140,1","99999,9","02,5,+00540,1,99,9",,,"02,99,1,99,9,99,9,99999,9,99,9,99,9",,"10281,1,99999,9",,,,"MET074METAR LPGR 131700Z 09014KT 9999 FEW018 24/14 Q1028 RMK WIND RWY09 09016KT;",
"08515599999","2010-09-14T09:00:00","4","39.092169","-28.029847","26.21","GRACIOSA, PO","FM-15","LPGR ","V020","070,1,N,0051,1","22000,1,9,N","011265,1,N,1","+0210,1","+0160,1","99999,9","04,5,+00480,1,99,9",,,"04,99,1,99,9,99,9,99999,9,99,9,99,9",,"10271,1,99999,9",,,,"MET074METAR LPGR 140900Z 07010KT 9999 SCT016 21/16 Q1027 RMK WIND RWY09 08013KT;",
"08515599999","2010-09-14T16:00:00","4","39.092169","-28.029847","26.21","GRACIOSA, PO","FM-15","LPGR ","V020","050,1,N,0041,1","22000,1,9,N","011265,1,N,1","+0240,1","+0150,1","99999,9","02,5,+00600,1,99,9",,,"02,99,1,99,9,99,9,99999,9,99,9,99,9",,"10271,1,99999,9",,,,"MET074METAR LPGR 141600Z 05008KT 9999 FEW020 24/15 Q1027 RMK WIND RWY09 05010KT;",
"08515599999","2010-09-14T17:00:00","4","39.092169","-28.029847","26.21","GRACIOSA, PO","FM-15","LPGR ","V020","060,1,N,0041,1","22000,1,9,N","011265,1,N,1","+0230,1","+0140,1","99999,9","02,5,+00600,1,99,9",,,"02,99,1,99,9,99,9,99999,9,99,9,99,9",,"10271,1,99999,9",,,,"MET074METAR LPGR 141700Z 06008KT 9999 FEW020 23/14 Q1027 RMK WIND RWY09 06010KT;",
"08515599999","2010-09-15T07:00:00","4","39.092169","-28.029847","26.21","GRACIOSA, PO","FM-15","LPGR ","V020","040,1,N,0036,1","22000,1,9,N","011265,1,N,1","+0200,1","+0140,1","99999,9","04,5,+00480,1,99,9",,,"04,99,1,99,9,99,9,99999,9,99,9,99,9",,"10261,1,99999,9",,,,"MET074METAR LPGR 150700Z 04007KT 9999 SCT016 20/14 Q1026 RMK WIND RWY09 04008KT;",
"08515599999","2010-09-15T08:00:00","4","39.092169","-28.029847","26.21","GRACIOSA, PO","FM-15","LPGR ","V020","040,1,N,0036,1","22000,1,9,N","011265,1,N,1","+0200,1","+0140,1","99999,9","02,5,+00480,1,99,9",,,"02,99,1,99,9,99,9,99999,9,99,9,99,9",,"10271,1,99999,9",,,,"MET074METAR LPGR 150800Z 04007KT 9999 FEW016 20/14 Q1027 RMK WIND RWY09 02008KT;",
"08515599999","2010-09-15T09:00:00","4","39.092169","-28.029847","26.21","GRACIOSA, PO","FM-15","LPGR ","V020","040,1,N,0046,1","22000,1,9,N","011265,1,N,1","+0200,1","+0130,1","99999,9","02,5,+00480,1,99,9",,,"02,99,1,99,9,99,9,99999,9,99,9,99,9",,"10271,1,99999,9",,,,"MET074METAR LPGR 150900Z 04009KT 9999 FEW016 20/13 Q1027 RMK WIND RWY09 04009KT;",
"08515599999","2010-09-15T15:00:00","4","39.092169","-28.029847","26.21","GRACIOSA, PO","FM-15","LPGR ","V020","070,1,N,0041,1","22000,1,9,N","011265,1,N,1","+0240,1","+0150,1","99999,9","02,5,+00600,1,99,9",,,"02,99,1,99,9,99,9,99999,9,99,9,99,9",,"10271,1,99999,9",,,,"MET074METAR LPGR 151500Z 07008KT 9999 FEW020 24/15 Q1027 RMK WIND RWY09 06010KT;",
"08515599999","2010-09-15T16:00:00","4","39.092169","-28.029847","26.21","GRACIOSA, PO","FM-15","LPGR ","V020","050,1,N,0041,1","22000,1,9,N","011265,1,N,1","+0240,1","+0150,1","99999,9","02,5,+00600,1,99,9",,,"02,99,1,99,9,99,9,99999,9,99,9,99,9",,"10271,1,99999,9",,,,"MET074METAR LPGR 151600Z 05008KT 9999 FEW020 24/15 Q1027 RMK WIND RWY09 05010KT;",
"08515599999","2010-09-16T15:00:00","4","39.092169","-28.029847","26.21","GRACIOSA, PO","FM-15","LPGR ","V020","030,1,N,0021,1","06000,1,C,N","011265,1,N,1","+0220,1","+0120,1","99999,9","02,5,+00600,1,99,9","07,5,+06000,1,99,9",,"07,99,1,99,9,99,9,99999,9,99,9,99,9",,"10271,1,99999,9",,,,"MET081METAR LPGR 161500Z 03004KT 9999 FEW020 BKN200 22/12 Q1027 RMK WIND RWY09 04008KT;",
"08515599999","2010-09-16T16:00:00","4","39.092169","-28.029847","26.21","GRACIOSA, PO","FM-15","LPGR ","V020","040,1,N,0026,1","06000,1,C,N","011265,1,N,1","+0220,1","+0120,1","99999,9","02,5,+00600,1,99,9","07,5,+06000,1,99,9",,"07,99,1,99,9,99,9,99999,9,99,9,99,9",,"10271,1,99999,9",,,,"MET081METAR LPGR 161600Z 04005KT 9999 FEW020 BKN200 22/12 Q1027 RMK WIND RWY09 04007KT;",
"08515599999","2010-09-16T17:00:00","4","39.092169","-28.029847","26.21","GRACIOSA, PO","FM-15","LPGR ","V020","030,1,N,0026,1","99999,9,C,N","011265,1,N,1","+0220,1","+0140,1","99999,9","02,5,+00600,1,99,9","04,5,+06300,1,99,9",,"04,99,1,99,9,99,9,99999,9,99,9,99,9",,"10271,1,99999,9",,,,"MET081METAR LPGR 161700Z 03005KT 9999 FEW020 SCT210 22/14 Q1027 RMK WIND RWY09 03008KT;","P01 063003SCOCIG"
"08515599999","2010-09-17T07:00:00","4","39.092169","-28.029847","26.21","GRACIOSA, PO","FM-15","LPGR ","V020","040,1,N,0010,1","99999,9,C,N","011265,1,N,1","+0160,1","+0130,1","99999,9","02,5,+00480,1,99,9","04,5,+00900,1,99,9",,"04,99,1,99,9,99,9,99999,9,99,9,99,9",,"10261,1,99999,9",,,,"MET081METAR LPGR 170700Z 04002KT 9999 FEW016 SCT030 16/13 Q1026 RMK WIND RWY09 12002KT;","P01 009003SCOCIG"
"08515599999","2010-09-17T08:00:00","4","39.092169","-28.029847","26.21","GRACIOSA, PO","FM-15","LPGR ","V020","040,1,N,0010,1","00900,1,C,N","011265,1,N,1","+0160,1","+0130,1","99999,9","02,5,+00600,1,99,9","07,5,+00900,1,99,9",,"07,99,1,99,9,99,9,99999,9,99,9,99,9",,"10261,1,99999,9",,,,"MET081METAR LPGR 170800Z 04002KT 9999 FEW020 BKN030 16/13 Q1026 RMK WIND RWY09 12002KT;",
"08515599999","2010-09-17T09:00:00","4","39.092169","-28.029847","26.21","GRACIOSA, PO","FM-15","LPGR ","V020","999,9,C,0000,1","00900,1,C,N","011265,1,N,1","+0170,1","+0140,1","99999,9","02,5,+00480,1,99,9","07,5,+00900,1,99,9",,"07,99,1,99,9,99,9,99999,9,99,9,99,9",,"10261,1,99999,9",,,,"MET081METAR LPGR 170900Z 00000KT 9999 FEW016 BKN030 17/14 Q1026 RMK WIND RWY09 00000KT;",
"08515599999","2010-09-17T15:00:00","4","39.092169","-28.029847","26.21","GRACIOSA, PO","FM-15","LPGR ","V020","320,1,N,0041,1","22000,1,9,N","011265,1,N,1","+0240,1","+0150,1","99999,9","02,5,+00600,1,99,9",,,"02,99,1,99,9,99,9,99999,9,99,9,99,9",,"10251,1,99999,9",,,,"MET074METAR LPGR 171500Z 32008KT 9999 FEW020 24/15 Q1025 RMK WIND RWY09 29008KT;",
"08515599999","2010-09-17T16:00:00","4","39.092169","-28.029847","26.21","GRACIOSA, PO","FM-15","LPGR ","V020","320,1,N,0041,1","22000,1,9,N","011265,1,N,1","+0230,1","+0150,1","99999,9","02,5,+00600,1,99,9",,,"02,99,1,99,9,99,9,99999,9,99,9,99,9",,"10251,1,99999,9",,,,"MET074METAR LPGR 171600Z 32008KT 9999 FEW020 23/15 Q1025 RMK WIND RWY09 29010KT;",
"08515599999","2010-09-17T17:00:00","4","39.092169","-28.029847","26.21","GRACIOSA, PO","FM-15","LPGR ","V020","310,1,N,0041,1","22000,1,9,N","011265,1,N,1","+0230,1","+0160,1","99999,9","02,5,+00600,1,99,9",,,"02,99,1,99,9,99,9,99999,9,99,9,99,9",,"10251,1,99999,9",,,,"MET074METAR LPGR 171700Z 31008KT 9999 FEW020 23/16 Q1025 RMK WIND RWY09 28010KT;",
"08515599999","2010-09-18T15:00:00","4","39.092169","-28.029847","26.21","GRACIOSA, PO","FM-15","LPGR ","V020","360,1,N,0062,1","00900,1,C,N","011265,1,N,1","+0220,1","+0170,1","99999,9","02,5,+00540,1,99,9","07,5,+00900,1,99,9",,"07,99,1,99,9,99,9,99999,9,99,9,99,9",,"10251,1,99999,9",,,,"MET081METAR LPGR 181500Z 36012KT 9999 FEW018 BKN030 22/17 Q1025 RMK WIND RWY09 35012KT;",
"08515599999","2010-09-18T16:00:00","4","39.092169","-28.029847","26.21","GRACIOSA, PO","FM-15","LPGR ","V020","360,1,N,0062,1","00900,1,C,N","011265,1,N,1","+0220,1","+0170,1","99999,9","02,5,+00540,1,99,9","07,5,+00900,1,99,9",,"07,99,1,99,9,99,9,99999,9,99,9,99,9",,"10251,1,99999,9",,,,"MET081METAR LPGR 181600Z 36012KT 9999 FEW018 BKN030 22/17 Q1025 RMK WIND RWY09 36010KT;",
"08515599999","2010-09-18T17:00:00","4","39.092169","-28.029847","26.21","GRACIOSA, PO","FM-15","LPGR ","V020","010,1,N,0057,1","00900,1,C,N","011265,1,N,1","+0230,1","+0170,1","99999,9","02,5,+00540,1,99,9","07,5,+00900,1,99,9",,"07,99,1,99,9,99,9,99999,9,99,9,99,9",,"10240,1,99999,9",,,,"MET081METAR LPGR 181700Z 01011KT 9999 FEW018 BKN030 23/17 Q1024 RMK WIND RWY09 01010KT;",
"08515599999","2010-09-19T09:00:00","4","39.092169","-28.029847","26.21","GRACIOSA, PO","FM-15","LPGR ","V020","020,1,N,0005,1","00900,1,C,N","011265,1,N,1","+0200,1","+0180,1","99999,9","02,5,+00480,1,99,9","07,5,+00900,1,99,9",,"07,99,1,99,9,99,9,99999,9,99,9,99,9",,"10230,1,99999,9",,,,"MET081METAR LPGR 190900Z 02001KT 9999 FEW016 BKN030 20/18 Q1023 RMK WIND RWY09 03001KT;",
"08515599999","2010-09-19T14:00:00","4","39.092169","-28.029847","26.21","GRACIOSA, PO","FM-15","LPGR ","V020","050,1,N,0015,1","99999,9,C,N","011265,1,N,1","+0230,1","+0170,1","99999,9","02,5,+00480,1,99,9","04,5,+01050,1,99,9",,"04,99,1,99,9,99,9,99999,9,99,9,99,9",,"10220,1,99999,9",,,,"MET081METAR LPGR 191400Z 05003KT 9999 FEW016 SCT035 23/17 Q1022 RMK WIND RWY09 05005KT;","P01 010503SCOCIG"
"08515599999","2010-09-19T15:00:00","4","39.092169","-28.029847","26.21","GRACIOSA, PO","FM-15","LPGR ","V020","020,1,N,0015,1","22000,1,9,N","011265,1,N,1","+0230,1","+0170,1","99999,9","02,5,+00480,1,99,9",,,"02,99,1,99,9,99,9,99999,9,99,9,99,9",,"10210,1,99999,9",,,,"MET074METAR LPGR 191500Z 02003KT 9999 FEW016 23/17 Q1021 RMK WIND RWY09 01007KT;",
"08515599999","2010-09-19T16:00:00","4","39.092169","-28.029847","26.21","GRACIOSA, PO","FM-15","LPGR ","V020","350,1,N,0021,1","22000,1,9,N","011265,1,N,1","+0240,1","+0170,1","99999,9","02,5,+00540,1,99,9",,,"02,99,1,99,9,99,9,99999,9,99,9,99,9",,"10200,1,99999,9",,,,"MET074METAR LPGR 191600Z 35004KT 9999 FEW018 24/17 Q1020 RMK WIND RWY09 30009KT;",
"08515599999","2010-09-19T17:00:00","4","39.092169","-28.029847","26.21","GRACIOSA, PO","FM-15","LPGR ","V020","300,1,N,0031,1","22000,1,9,N","011265,1,N,1","+0240,1","+0170,1","99999,9","02,5,+00540,1,99,9",,,"02,99,1,99,9,99,9,99999,9,99,9,99,9",,"10200,1,99999,9",,,,"MET074METAR LPGR 191700Z 30006KT 9999 FEW018 24/17 Q1020 RMK WIND RWY09 28008KT;",
"08515599999","2010-09-20T07:00:00","4","39.092169","-28.029847","26.21","GRACIOSA, PO","FM-15","LPGR ","V020","250,1,N,0057,1","00900,1,C,N","011265,1,N,1","+0210,1","+0180,1","99999,9","02,5,+00420,1,99,9","07,5,+00900,1,99,9",,"07,99,1,99,9,99,9,99999,9,99,9,99,9",,"10139,1,99999,9",,,,"MET081METAR LPGR 200700Z 25011KT 9999 FEW014 BKN030 21/18 Q1014 RMK WIND RWY09 25012KT;",
"08515599999","2010-09-20T08:00:00","4","39.092169","-28.029847","26.21","GRACIOSA, PO","FM-15","LPGR ","V020","260,1,N,0051,1","00360,1,C,N","011265,1,N,1","+0200,1","+0190,1","99999,9","02,5,+00300,1,99,9","04,5,+00360,1,02,5","07,5,+00420,1,09,5","07,99,1,99,9,99,9,99999,9,99,9,99,9",,"10149,1,99999,9","17,1",,,"MET096METAR LPGR 200800Z 26010KT 9999 TS FEW010 SCT012TCU BKN014CB 20/19 Q1015 RMK WIND RWY09 27010KT;",
"08515599999","2010-09-20T09:00:00","4","39.092169","-28.029847","26.21","GRACIOSA, PO","FM-15","LPGR ","V020","260,1,N,0046,1","00360,1,C,N","009000,1,N,1","+0200,1","+0190,1","99999,9","02,5,+00300,1,99,9","04,5,+00360,1,02,5","07,5,+00420,1,09,5","07,99,1,99,9,99,9,99999,9,99,9,99,9",,"10139,1,99999,9","80,1",,,"MET104METAR LPGR 200900Z 26009KT 9000 -SHRA FEW010 SCT012TCU BKN014CB 20/19 Q1014 RMK WIND RWY09 23010KT RETS;",
"08515599999","2010-09-20T14:00:00","4","39.092169","-28.029847","26.21","GRACIOSA, PO","FM-15","LPGR ","V020","350,1,N,0031,1","02100,1,C,N","009000,1,N,1","+0190,1","+0170,1","99999,9","02,5,+00390,1,99,9","08,5,+02100,1,99,9",,"08,99,1,99,9,99,9,99999,9,99,9,99,9",,"10139,1,99999,9","61,1",,,"MET085METAR LPGR 201400Z 35006KT 9000 -RA FEW013 OVC070 19/17 Q1014 RMK WIND RWY09 35008KT;",
"08515599999","2010-09-20T15:00:00","4","39.092169","-28.029847","26.21","GRACIOSA, PO","FM-15","LPGR ","V020","350,1,N,0031,1","99999,9,C,N","011265,1,N,1","+0200,1","+0180,1","99999,9","02,5,+00450,1,99,9","04,5,+02400,1,99,9",,"04,99,1,99,9,99,9,99999,9,99,9,99,9",,"10139,1,99999,9",,,,"MET081METAR LPGR 201500Z 35006KT 9999 FEW015 SCT080 20/18 Q1014 RMK WIND RWY09 33007KT;","P01 024003SCOCIG"
"08515599999","2010-09-20T16:00:00","4","39.092169","-28.029847","26.21","GRACIOSA, PO","FM-15","LPGR ","V020","330,1,N,0041,1","01050,1,C,N","011265,1,N,1","+0210,1","+0170,1","99999,9","02,5,+00450,1,99,9","07,5,+01050,1,99,9",,"07,99,1,99,9,99,9,99999,9,99,9,99,9",,"10129,1,99999,9",,,,"MET081METAR LPGR 201600Z 33008KT 9999 FEW015 BKN035 21/17 Q1013 RMK WIND RWY09 33012KT;",
"08515599999","2010-09-20T17:00:00","4","39.092169","-28.029847","26.21","GRACIOSA, PO","FM-15","LPGR ","V020","340,1,N,0041,1","00900,1,C,N","011265,1,N,1","+0210,1","+0160,1","99999,9","02,5,+00450,1,99,9","07,5,+00900,1,99,9",,"07,99,1,99,9,99,9,99999,9,99,9,99,9",,"10139,1,99999,9",,,,"MET081METAR LPGR 201700Z 34008KT 9999 FEW015 BKN030 21/16 Q1014 RMK WIND RWY09 32011KT;",
"08515599999","2010-09-21T15:00:00","4","39.092169","-28.029847","26.21","GRACIOSA, PO","FM-15","LPGR ","V020","010,1,N,0051,1","22000,1,9,N","011265,1,N,1","+0220,1","+0140,1","99999,9","02,5,+00600,1,99,9",,,"02,99,1,99,9,99,9,99999,9,99,9,99,9",,"10169,1,99999,9",,,,"MET074METAR LPGR 211500Z 01010KT 9999 FEW020 22/14 Q1017 RMK WIND RWY09 01009KT;",
"08515599999","2010-09-21T16:00:00","4","39.092169","-28.029847","26.21","GRACIOSA, PO","FM-15","LPGR ","V020","010,1,N,0051,1","22000,1,9,N","011265,1,N,1","+0220,1","+0140,1","99999,9","02,5,+00600,1,99,9",,,"02,99,1,99,9,99,9,99999,9,99,9,99,9",,"10159,1,99999,9",,,,"MET074METAR LPGR 211600Z 01010KT 9999 FEW020 22/14 Q1016 RMK WIND RWY09 35012KT;",
"08515599999","2010-09-21T17:00:00","4","39.092169","-28.029847","26.21","GRACIOSA, PO","FM-15","LPGR ","V020","010,1,N,0057,1","22000,1,9,N","011265,1,N,1","+0220,1","+0140,1","99999,9","02,5,+00600,1,99,9",,,"02,99,1,99,9,99,9,99999,9,99,9,99,9",,"10159,1,99999,9",,,,"MET074METAR LPGR 211700Z 01011KT 9999 FEW020 22/14 Q1016 RMK WIND RWY09 35010KT;",
"08515599999","2010-09-22T08:00:00","4","39.092169","-28.029847","26.21","GRACIOSA, PO","FM-15","LPGR ","V020","330,1,N,0015,1","00900,1,C,N","011265,1,N,1","+0170,1","+0140,1","99999,9","04,5,+00450,1,99,9","07,5,+00900,1,99,9",,"07,99,1,99,9,99,9,99999,9,99,9,99,9",,"10159,1,99999,9",,,,"MET081METAR LPGR 220800Z 33003KT 9999 SCT015 BKN030 17/14 Q1016 RMK WIND RWY09 23004KT;",
"08515599999","2010-09-22T09:00:00","4","39.092169","-28.029847","26.21","GRACIOSA, PO","FM-15","LPGR ","V020","270,1,N,0015,1","00900,1,C,N","011265,1,N,1","+0180,1","+0160,1","99999,9","04,5,+00510,1,99,9","07,5,+00900,1,99,9",,"07,99,1,99,9,99,9,99999,9,99,9,99,9",,"10159,1,99999,9",,,,"MET081METAR LPGR 220900Z 27003KT 9999 SCT017 BKN030 18/16 Q1016 RMK WIND RWY09 21004KT;",
"08515599999","2010-09-22T15:00:00","4","39.092169","-28.029847","26.21","GRACIOSA, PO","FM-15","LPGR ","V020","060,1,N,0021,1","01200,1,C,N","011265,1,N,1","+0220,1","+0140,1","99999,9","02,5,+00600,1,99,9","07,5,+01200,1,99,9",,"07,99,1,99,9,99,9,99999,9,99,9,99,9","999,M,+9999,9","10169,1,99999,9",,,,"MET081METAR LPGR 221500Z 06004KT 9999 FEW020 BKN040 22/14 Q1017 RMK WIND RWY09 10005KT;","Q01 +00052ATMX  "
"08515599999","2010-09-22T16:00:00","4","39.092169","-28.029847","26.21","GRACIOSA, PO","FM-15","LPGR ","V020","050,1,N,0021,1","99999,9,C,N","011265,1,N,1","+0210,1","+0150,1","99999,9","02,5,+00600,1,99,9","04,5,+01200,1,99,9",,"04,99,1,99,9,99,9,99999,9,99,9,99,9",,"10169,1,99999,9",,,,"MET081METAR LPGR 221600Z 05004KT 9999 FEW020 SCT040 21/15 Q1017 RMK WIND RWY09 05005KT;","P01 012003SCOCIG"
"08515599999","2010-09-22T17:00:00","4","39.092169","-28.029847","26.21","GRACIOSA, PO","FM-15","LPGR ","V020","070,1,N,0026,1","22000,1,9,N","011265,1,N,1","+0220,1","+0140,1","99999,9","02,5,+00600,1,99,9",,,"02,99,1,99,9,99,9,99999,9,99,9,99,9",,"10169,1,99999,9",,,,"MET074METAR LPGR 221700Z 07005KT 9999 FEW020 22/14 Q1017 RMK WIND RWY09 07006KT;",
"08515599999","2010-09-23T15:00:00","4","39.092169","-28.029847","26.21","GRACIOSA, PO","FM-15","LPGR ","V020","060,1,N,0026,1","22000,1,9,N","011265,1,N,1","+0220,1","+0130,1","99999,9","02,5,+00600,1,99,9",,,"02,99,1,99,9,99,9,99999,9,99,9,99,9",,"10210,1,99999,9",,,,"MET074METAR LPGR 231500Z 06005KT 9999 FEW020 22/13 Q1021 RMK WIND RWY09 06006KT;",
"08515599999","2010-09-23T16:00:00","4","39.092169","-28.029847","26.21","GRACIOSA, PO","FM-15","LPGR ","V020","050,1,N,0026,1","22000,1,9,N","011265,1,N,1","+0210,1","+0140,1","99999,9","02,5,+00600,1,99,9",,,"02,99,1,99,9,99,9,99999,9,99,9,99,9",,"10210,1,99999,9",,,,"MET074METAR LPGR 231600Z 05005KT 9999 FEW020 21/14 Q1021 RMK WIND RWY09 05005KT;",
"08515599999","2010-09-24T08:00:00","4","39.092169","-28.029847","26.21","GRACIOSA, PO","FM-15","LPGR ","V020","170,1,N,0010,1","22000,1,9,N","011265,1,N,1","+0150,1","+0130,1","99999,9","02,5,+00480,1,99,9",,,"02,99,1,99,9,99,9,99999,9,99,9,99,9",,"10220,1,99999,9",,,,"MET074METAR LPGR 240800Z 17002KT 9999 FEW016 15/13 Q1022 RMK WIND RWY09 13003KT;",
"08515599999","2010-09-24T09:00:00","4","39.092169","-28.029847","26.21","GRACIOSA, PO","FM-15","LPGR ","V020","170,1,N,0010,1","22000,1,9,N","011265,1,N,1","+0170,1","+0140,1","99999,9","02,5,+00480,1,99,9",,,"02,99,1,99,9,99,9,99999,9,99,9,99,9",,"10220,1,99999,9",,,,"MET074METAR LPGR 240900Z 17002KT 9999 FEW016 17/14 Q1022 RMK WIND RWY09 13002KT;",
"08515599999","2010-09-24T15:00:00","4","39.092169","-28.029847","26.21","GRACIOSA, PO","FM-15","LPGR ","V020","090,1,N,0051,1","22000,1,9,N","011265,1,N,1","+0230,1","+0150,1","99999,9","02,5,+00600,1,99,9",,,"02,99,1,99,9,99,9,99999,9,99,9,99,9",,"10220,1,99999,9",,,,"MET074METAR LPGR 241500Z 09010KT 9999 FEW020 23/15 Q1022 RMK WIND RWY09 08011KT;",
"08515599999","2010-09-24T16:00:00","4","39.092169","-28.029847","26.21","GRACIOSA, PO","FM-15","LPGR ","V020","080,1,N,0041,1","99999,9,C,N","011265,1,N,1","+0210,1","+0150,1","99999,9","02,5,+00600,1,99,9","04,5,+06300,1,99,9",,"04,99,1,99,9,99,9,99999,9,99,9,99,9",,"10210,1,99999,9",,,,"MET081METAR LPGR 241600Z 08008KT 9999 FEW020 SCT210 21/15 Q1021 RMK WIND RWY09 09009KT;","P01 063003SCOCIG"
"08515599999","2010-09-24T17:00:00","4","39.092169","-28.029847","26.21","GRACIOSA, PO","FM-15","LPGR ","V020","100,1,N,0046,1","99999,9,C,N","011265,1,N,1","+0220,1","+0150,1","99999,9","02,5,+00600,1,99,9","04,5,+06300,1,99,9",,"04,99,1,99,9,99,9,99999,9,99,9,99,9",,"10210,1,99999,9",,,,"MET081METAR LPGR 241700Z 10009KT 9999 FEW020 SCT210 22/15 Q1021 RMK WIND RWY09 09011KT;","P01 063003SCOCIG"
"08515599999","2010-09-25T09:00:00","4","39.092169","-28.029847","26.21","GRACIOSA, PO","FM-15","LPGR ","V020","150,1,N,0015,1","06300,1,C,N","011265,1,N,1","+0160,1","+0150,1","99999,9","02,5,+00450,1,99,9","07,5,+06300,1,99,9",,"07,99,1,99,9,99,9,99999,9,99,9,99,9",,"10190,1,99999,9",,,,"MET081METAR LPGR 250900Z 15003KT 9999 FEW015 BKN210 16/15 Q1019 RMK WIND RWY09 19001KT;",
"08515599999","2010-09-25T14:00:00","4","39.092169","-28.029847","26.21","GRACIOSA, PO","FM-15","LPGR ","V020","340,1,N,0026,1","00510,5,C,N","011265,1,N,1","+0220,1","+0170,1","99999,9","04,5,+00450,1,99,9","02,5,+00510,1,02,5",,,,"10190,1,99999,9",,,,"MET084METAR LPGR 251400Z 34005KT 9999 SCT015 FEW017TCU 22/17 Q1019 RMK WIND RWY09 35004KT;","Q01+000022SCOTCV"
"08515599999","2010-09-25T15:00:00","4","39.092169","-28.029847","26.21","GRACIOSA, PO","FM-15","LPGR ","V020","360,1,N,0021,1","99999,9,C,N","011265,1,N,1","+0220,1","+0170,1","99999,9","02,5,+00480,1,99,9","04,5,+00900,1,99,9",,"04,99,1,99,9,99,9,99999,9,99,9,99,9",,"10190,1,99999,9",,,,"MET081METAR LPGR 251500Z 36004KT 9999 FEW016 SCT030 22/17 Q1019 RMK WIND RWY09 34004KT;","P01 009003SCOCIG"
"08515599999","2010-09-25T16:00:00","4","39.092169","-28.029847","26.21","GRACIOSA, PO","FM-15","LPGR ","V020","350,1,N,0015,1","00480,1,C,N","011265,1,N,1","+0210,1","+0170,1","99999,9","02,5,+00420,1,99,9","07,5,+00480,1,99,9",,"07,99,1,99,9,99,9,99999,9,99,9,99,9",,"10190,1,99999,9","80,1",,,"MET087METAR LPGR 251600Z 35003KT 9999 -SHRA FEW014 BKN016 21/17 Q1019 RMK WIND RWY09 33005KT;",
"08515599999","2010-09-25T17:00:00","4","39.092169","-28.029847","26.21","GRACIOSA, PO","FM-15","LPGR ","V020","350,1,N,0031,1","00510,5,C,N","011265,1,N,1","+0220,1","+0170,1","99999,9","04,5,+00480,1,99,9","02,5,+00510,1,02,5",,,,"10180,1,99999,9","16,1",,,"MET089METAR LPGR 251700Z 35006KT 9999 VCSH SCT016 FEW017TCU 22/17 Q1018 RMK WIND RWY09 33007KT;","Q01+000022SCOTCV"
"08515599999","2010-09-26T09:00:00","4","39.092169","-28.029847","26.21","GRACIOSA, PO","FM-15","LPGR ","V020","250,1,N,0046,1","01200,1,C,N","011265,1,N,1","+0210,1","+0180,1","99999,9","02,5,+00450,1,99,9","04,5,+01200,1,99,9","07,5,+06300,1,99,9","07,99,1,99,9,99,9,99999,9,99,9,99,9",,"10180,1,99999,9",,,,"MET088METAR LPGR 260900Z 25009KT 9999 FEW015 SCT040 BKN210 21/18 Q1018 RMK WIND RWY09 25009KT;",
"08515599999","2010-09-26T14:00:00","4","39.092169","-28.029847","26.21","GRACIOSA, PO","FM-15","LPGR ","V020","250,1,N,0046,1","00450,1,C,N","011265,1,N,1","+0210,1","+0190,1","99999,9","04,5,+00390,1,99,9","02,5,+00450,1,02,5","07,5,+00900,1,99,9","07,99,1,99,9,99,9,99999,9,99,9,99,9",,"10190,1,99999,9","16,1",,,"MET096METAR LPGR 261400Z 25009KT 9999 VCSH SCT013 FEW015TCU BKN030 21/19 Q1019 RMK WIND RWY09 25008KT;",
"08515599999","2010-09-26T15:00:00","4","39.092169","-28.029847","26.21","GRACIOSA, PO","FM-15","LPGR ","V020","250,1,N,0067,1","01050,1,C,N","011265,1,N,1","+0230,1","+0200,1","99999,9","02,5,+00360,1,99,9","07,5,+01050,1,99,9",,"07,99,1,99,9,99,9,99999,9,99,9,99,9",,"10180,1,99999,9",,,,"MET081METAR LPGR 261500Z 25013KT 9999 FEW012 BKN035 23/20 Q1018 RMK WIND RWY09 25014KT;",
"08515599999","2010-09-26T16:00:00","4","39.092169","-28.029847","26.21","GRACIOSA, PO","FM-15","LPGR ","V020","250,1,N,0072,1","01050,1,C,N","011265,1,N,1","+0230,1","+0190,1","99999,9","02,5,+00390,1,99,9","02,5,+00450,1,02,5","07,5,+01050,1,99,9","07,99,1,99,9,99,9,99999,9,99,9,99,9",,"10180,1,99999,9",,,,"MET091METAR LPGR 261600Z 25014KT 9999 FEW013 FEW015TCU BKN035 23/19 Q1018 RMK WIND RWY09 26013KT;",
"08515599999","2010-09-26T17:00:00","4","39.092169","-28.029847","26.21","GRACIOSA, PO","FM-15","LPGR ","V020","340,1,N,0036,1","01050,1,C,N","011265,1,N,1","+0230,1","+0190,1","99999,9","02,5,+00390,1,99,9","02,5,+00450,1,02,5","07,5,+01050,1,99,9","07,99,1,99,9,99,9,99999,9,99,9,99,9",,"10190,1,99999,9",,,,"MET091METAR LPGR 261700Z 34007KT 9999 FEW013 FEW015TCU BKN035 23/19 Q1019 RMK WIND RWY09 32009KT;",
"08515599999","2010-09-27T07:00:00","4","39.092169","-28.029847","26.21","GRACIOSA, PO","FM-15","LPGR ","V020","020,1,N,0010,1","22000,1,9,N","011265,1,N,1","+0150,1","+0140,1","99999,9","02,5,+00420,1,99,9",,,"02,99,1,99,9,99,9,99999,9,99,9,99,9",,"10200,1,99999,9",,,,"MET074METAR LPGR 270700Z 02002KT 9999 FEW014 15/14 Q1020 RMK WIND RWY09 17003KT;",
"08515599999","2010-09-27T08:00:00","4","39.092169","-28.029847","26.21","GRACIOSA, PO","FM-15","LPGR ","V020","020,1,N,0010,1","22000,1,9,N","011265,1,N,1","+0160,1","+0150,1","99999,9","02,5,+00420,1,99,9",,,"02,99,1,99,9,99,9,99999,9,99,9,99,9",,"10200,1,99999,9",,,,"MET074METAR LPGR 270800Z 02002KT 9999 FEW014 16/15 Q1020 RMK WIND RWY09 17003KT;",
"08515599999","2010-09-27T09:00:00","4","39.092169","-28.029847","26.21","GRACIOSA, PO","FM-15","LPGR ","V020","020,1,N,0010,1","01200,1,C,N","011265,1,N,1","+0180,1","+0160,1","99999,9","02,5,+00480,1,99,9","07,5,+01200,1,99,9",,"07,99,1,99,9,99,9,99999,9,99,9,99,9",,"10200,1,99999,9",,,,"MET081METAR LPGR 270900Z 02002KT 9999 FEW016 BKN040 18/16 Q1020 RMK WIND RWY09 17002KT;",
"08515599999","2010-09-27T15:00:00","4","39.092169","-28.029847","26.21","GRACIOSA, PO","FM-15","LPGR ","V020","260,1,N,0062,1","06300,1,C,N","011265,1,N,1","+0240,1","+0180,1","99999,9","02,5,+00480,1,99,9","07,5,+06300,1,99,9",,"07,99,1,99,9,99,9,99999,9,99,9,99,9",,"10190,1,99999,9",,,,"MET081METAR LPGR 271500Z 26012KT 9999 FEW016 BKN210 24/18 Q1019 RMK WIND RWY09 25012KT;",
"08515599999","2010-09-27T16:00:00","4","39.092169","-28.029847","26.21","GRACIOSA, PO","FM-15","LPGR ","V020","260,1,N,0072,1","22000,1,9,N","011265,1,N,1","+0230,1","+0190,1","99999,9","02,5,+00480,1,99,9",,,"02,99,1,99,9,99,9,99999,9,99,9,99,9",,"10190,1,99999,9",,,,"MET074METAR LPGR 271600Z 26014KT 9999 FEW016 23/19 Q1019 RMK WIND RWY09 26013KT;",
"08515599999","2010-09-27T17:00:00","4","39.092169","-28.029847","26.21","GRACIOSA, PO","FM-15","LPGR ","V020","270,1,N,0067,1","22000,1,9,N","011265,1,N,1","+0230,1","+0190,1","99999,9","04,5,+00450,1,99,9",,,"04,99,1,99,9,99,9,99999,9,99,9,99,9",,"10190,1,99999,9",,,,"MET074METAR LPGR 271700Z 27013KT 9999 SCT015 23/19 Q1019 RMK WIND RWY09 27014KT;",
"08515599999","2010-09-28T09:00:00","4","39.092169","-28.029847","26.21","GRACIOSA, PO","FM-15","LPGR ","V020","290,1,N,0031,1","22000,1,9,N","011265,1,N,1","+0210,1","+0200,1","99999,9","02,5,+00360,1,99,9",,,"02,99,1,99,9,99,9,99999,9,99,9,99,9",,"10200,1,99999,9",,,,"MET074METAR LPGR 280900Z 29006KT 9999 FEW012 21/20 Q1020 RMK WIND RWY09 28006KT;",
"08515599999","2010-09-28T15:00:00","4","39.092169","-28.029847","26.21","GRACIOSA, PO","FM-15","LPGR ","V020","310,1,N,0031,1","01200,1,C,N","011265,1,N,1","+0240,1","+0190,1","99999,9","02,5,+00480,1,99,9","07,5,+01200,1,99,9",,"07,99,1,99,9,99,9,99999,9,99,9,99,9",,"10220,1,99999,9",,,,"MET081METAR LPGR 281500Z 31006KT 9999 FEW016 BKN040 24/19 Q1022 RMK WIND RWY09 28006KT;",
"08515599999","2010-09-28T17:00:00","4","39.092169","-28.029847","26.21","GRACIOSA, PO","FM-15","LPGR ","V020","350,1,N,0036,1","01200,1,C,N","011265,1,N,1","+0220,1","+0190,1","99999,9","02,5,+00420,1,99,9","07,5,+01200,1,99,9",,"07,99,1,99,9,99,9,99999,9,99,9,99,9",,"10220,1,99999,9",,,,"MET081METAR LPGR 281700Z 35007KT 9999 FEW014 BKN040 22/19 Q1022 RMK WIND RWY09 32009KT;",
"08515599999","2010-09-29T08:00:00","4","39.092169","-28.029847","26.21","GRACIOSA, PO","FM-15","LPGR ","V020","090,1,N,0046,1","99999,9,C,N","011265,1,N,1","+0200,1","+0160,1","99999,9","02,5,+00420,1,99,9","04,5,+00900,1,99,9",,"04,99,1,99,9,99,9,99999,9,99,9,99,9",,"10261,1,99999,9",,,,"MET081METAR LPGR 290800Z 09009KT 9999 FEW014 SCT030 20/16 Q1026 RMK WIND RWY09 08011KT;","P01 009003SCOCIG"
"08515599999","2010-09-29T09:00:00","4","39.092169","-28.029847","26.21","GRACIOSA, PO","FM-15","LPGR ","V020","070,1,N,0057,1","00900,1,C,N","011265,1,N,1","+0200,1","+0160,1","99999,9","02,5,+00450,1,99,9","07,5,+00900,1,99,9",,"07,99,1,99,9,99,9,99999,9,99,9,99,9",,"10261,1,99999,9",,,,"MET081METAR LPGR 290900Z 07011KT 9999 FEW015 BKN030 20/16 Q1026 RMK WIND RWY09 08012KT;",
"08515599999","2010-09-29T15:00:00","4","39.092169","-28.029847","26.21","GRACIOSA, PO","FM-15","LPGR ","V020","100,1,N,0067,1","99999,9,C,N","011265,1,N,1","+0230,1","+0160,1","99999,9","02,5,+00480,1,99,9","04,5,+01200,1,99,9",,"04,99,1,99,9,99,9,99999,9,99,9,99,9",,"10281,1,99999,9",,,,"MET081METAR LPGR 291500Z 10013KT 9999 FEW016 SCT040 23/16 Q1028 RMK WIND RWY09 09014KT;","P01 012003SCOCIG"
"08515599999","2010-09-29T16:00:00","4","39.092169","-28.029847","26.21","GRACIOSA, PO","FM-15","LPGR ","V020","100,1,N,0067,1","22000,1,9,N","011265,1,N,1","+0230,1","+0160,1","99999,9","02,5,+00480,1,99,9",,,"02,99,1,99,9,99,9,99999,9,99,9,99,9","999,M,+9999,9","10271,1,99999,9",,,,"MET074METAR LPGR 291600Z 10013KT 9999 FEW016 23/16 Q1027 RMK WIND RWY09 10014KT;","Q01 +00142ATMX  "
"08515599999","2010-09-29T17:00:00","4","39.092169","-28.029847","26.21","GRACIOSA, PO","FM-15","LPGR ","V020","100,1,N,0062,1","01050,1,C,N","011265,1,N,1","+0230,1","+0170,1","99999,9","02,5,+00480,1,99,9","07,5,+01050,1,99,9",,"07,99,1,99,9,99,9,99999,9,99,9,99,9",,"10271,1,99999,9",,,,"MET081METAR LPGR 291700Z 10012KT 9999 FEW016 BKN035 23/17 Q1027 RMK WIND RWY09 09014KT;",
"08515599999","2010-09-30T09:00:00","4","39.092169","-28.029847","26.21","GRACIOSA, PO","FM-15","LPGR ","V020","250,1,N,0021,1","99999,9,C,N","011265,1,N,1","+0200,1","+0180,1","99999,9","02,5,+00450,1,99,9","04,5,+00900,1,99,9",,"04,99,1,99,9,99,9,99999,9,99,9,99,9",,"10271,1,99999,9",,,,"MET081METAR LPGR 300900Z 25004KT 9999 FEW015 SCT030 20/18 Q1027 RMK WIND RWY09 28006KT;","P01 009003SCOCIG"
"08515599999","2010-09-30T14:00:00","4","39.092169","-28.029847","26.21","GRACIOSA, PO","FM-15","LPGR ","V020","330,1,N,0036,1","22000,1,9,N","011265,1,N,1","+0220,1","+0150,1","99999,9","02,5,+00540,1,99,9",,,"02,99,1,99,9,99,9,99999,9,99,9,99,9",,"10271,1,99999,9",,,,"MET074METAR LPGR 301400Z 33007KT 9999 FEW018 22/15 Q1027 RMK WIND RWY09 32009KT;",
"08515599999","2010-09-30T15:00:00","4","39.092169","-28.029847","26.21","GRACIOSA, PO","FM-15","LPGR ","V020","300,1,N,0041,1","22000,1,9,N","011265,1,N,1","+0220,1","+0150,1","99999,9","02,5,+00540,1,99,9",,,"02,99,1,99,9,99,9,99999,9,99,9,99,9",,"10261,1,99999,9",,,,"MET074METAR LPGR 301500Z 30008KT 9999 FEW018 22/15 Q1026 RMK WIND RWY09 30009KT;",
"08515599999","2010-09-30T16:00:00","4","39.092169","-28.029847","26.21","GRACIOSA, PO","FM-15","LPGR ","V020","310,1,N,0046,1","22000,1,9,N","011265,1,N,1","+0220,1","+0150,1","99999,9","02,5,+00540,1,99,9",,,"02,99,1,99,9,99,9,99999,9,99,9,99,9",,"10251,1,99999,9",,,,"MET074METAR LPGR 301600Z 31009KT 9999 FEW018 22/15 Q1025 RMK WIND RWY09 30011KT;",
"08515599999","2010-09-30T17:00:00","4","39.092169","-28.029847","26.21","GRACIOSA, PO","FM-15","LPGR ","V020","330,1,N,0046,1","22000,1,9,N","011265,1,N,1","+0220,1","+0150,1","99999,9","02,5,+00540,1,99,9",,,"02,99,1,99,9,99,9,99999,9,99,9,99,9",,"10251,1,99999,9",,,,"MET074METAR LPGR 301700Z 33009KT 9999 FEW018 22/15 Q1025 RMK WIND RWY09 28011KT;",
"08515599999","2010-10-01T07:00:00","4","39.092169","-28.029847","26.21","GRACIOSA, PO","FM-15","LPGR ","V020","270,1,N,0077,1","00900,1,C,N","011265,1,N,1","+0210,1","+0190,1","99999,9","04,5,+00420,1,99,9","07,5,+00900,1,99,9",,"07,99,1,99,9,99,9,99999,9,99,9,99,9",,"10200,1,99999,9","80,1",,,"MET087METAR LPGR 010700Z 27015KT 9999 -SHRA SCT014 BKN030 21/19 Q1020 RMK WIND RWY09 26015KT;",
"08515599999","2010-10-01T08:00:00","4","39.092169","-28.029847","26.21","GRACIOSA, PO","FM-15","LPGR ","V020","260,1,N,0072,1","99999,9,C,N","011265,1,N,1","+0210,1","+0190,1","99999,9","02,5,+00360,1,99,9","04,5,+00420,1,99,9",,"04,99,1,99,9,99,9,99999,9,99,9,99,9",,"10190,1,99999,9",,,,"MET081METAR LPGR 010800Z 26014KT 9999 FEW012 SCT014 21/19 Q1019 RMK WIND RWY09 25014KT;","P01 004203SCOCIG"
"08515599999","2010-10-01T09:00:00","4","39.092169","-28.029847","26.21","GRACIOSA, PO","FM-15","LPGR ","V020","280,1,N,0077,1","00420,1,C,N","005000,1,N,1","+0210,1","+0200,1","99999,9","04,5,+00330,1,99,9","07,5,+00420,1,99,9",,"07,99,1,99,9,99,9,99999,9,99,9,99,9",,"10190,1,99999,9","80,1",,,"MET087METAR LPGR 010900Z 28015KT 5000 -SHRA SCT011 BKN014 21/20 Q1019 RMK WIND RWY09 32019KT;",
"08515599999","2010-10-01T15:00:00","4","39.092169","-28.029847","26.21","GRACIOSA, PO","FM-15","LPGR ","V020","280,1,N,0077,1","22000,1,9,N","011265,1,N,1","+0230,1","+0200,1","99999,9","02,5,+00360,1,99,9",,,"02,99,1,99,9,99,9,99999,9,99,9,99,9",,"10159,1,99999,9",,,,"MET074METAR LPGR 011500Z 28015KT 9999 FEW012 23/20 Q1016 RMK WIND RWY09 27017KT;",
"08515599999","2010-10-01T16:00:00","4","39.092169","-28.029847","26.21","GRACIOSA, PO","FM-15","LPGR ","V020","270,1,N,0082,1","22000,1,9,N","011265,1,N,1","+0230,1","+0200,1","99999,9","02,5,+00360,1,99,9",,,"02,99,1,99,9,99,9,99999,9,99,9,99,9",,"10149,1,99999,9",,,,"MET074METAR LPGR 011600Z 27016KT 9999 FEW012 23/20 Q1015 RMK WIND RWY09 26015KT;",
"08515599999","2010-10-01T17:00:00","4","39.092169","-28.029847","26.21","GRACIOSA, PO","FM-15","LPGR ","V020","270,1,N,0087,1","99999,9,C,N","011265,1,N,1","+0230,1","+0200,1","99999,9","02,5,+00390,1,99,9","04,5,+01050,1,99,9",,"04,99,1,99,9,99,9,99999,9,99,9,99,9",,"10149,1,99999,9",,,,"MET081METAR LPGR 011700Z 27017KT 9999 FEW013 SCT035 23/20 Q1015 RMK WIND RWY09 27017KT;","P01 010503SCOCIG"
"08515599999","2010-10-02T09:00:00","4","39.092169","-28.029847","26.21","GRACIOSA, PO","FM-15","LPGR ","V020","010,1,N,0057,1","00750,1,C,N","011265,1,N,1","+0200,1","+0180,1","99999,9","04,5,+00390,1,99,9","07,5,+00750,1,99,9",,"07,99,1,99,9,99,9,99999,9,99,9,99,9",,"10108,1,99999,9",,,,"MET081METAR LPGR 020900Z 01011KT 9999 SCT013 BKN025 20/18 Q1011 RMK WIND RWY09 35010KT;",
"08515599999","2010-10-02T14:00:00","4","39.092169","-28.029847","26.21","GRACIOSA, PO","FM-15","LPGR ","V020","330,1,N,0046,1","06300,1,C,N","011265,1,N,1","+0210,1","+0160,1","99999,9","02,5,+00480,1,99,9","07,5,+06300,1,99,9",,"07,99,1,99,9,99,9,99999,9,99,9,99,9",,"10129,1,99999,9",,,,"MET081METAR LPGR 021400Z 33009KT 9999 FEW016 BKN210 21/16 Q1013 RMK WIND RWY09 32013KT;",
"08515599999","2010-10-02T15:00:00","4","39.092169","-28.029847","26.21","GRACIOSA, PO","FM-15","LPGR ","V020","320,1,N,0062,1","06300,1,C,N","011265,1,N,1","+0210,1","+0150,1","99999,9","02,5,+00480,1,99,9","07,5,+06300,1,99,9",,"07,99,1,99,9,99,9,99999,9,99,9,99,9",,"10119,1,99999,9",,,,"MET081METAR LPGR 021500Z 32012KT 9999 FEW016 BKN210 21/15 Q1012 RMK WIND RWY09 31015KT;",
"08515599999","2010-10-02T16:00:00","4","39.092169","-28.029847","26.21","GRACIOSA, PO","FM-15","LPGR ","V020","320,1,N,0062,1","06300,1,C,N","011265,1,N,1","+0220,1","+0160,1","99999,9","02,5,+00480,1,99,9","07,5,+06300,1,99,9",,"07,99,1,99,9,99,9,99999,9,99,9,99,9",,"10119,1,99999,9",,,,"MET081METAR LPGR 021600Z 32012KT 9999 FEW016 BKN210 22/16 Q1012 RMK WIND RWY09 31014KT;",
"08515599999","2010-10-02T17:00:00","4","39.092169","-28.029847","26.21","GRACIOSA, PO","FM-15","LPGR ","V020","310,1,N,0072,1","06300,1,C,N","011265,1,N,1","+0210,1","+0170,1","99999,9","02,5,+00480,1,99,9","07,5,+06300,1,99,9",,"07,99,1,99,9,99,9,99999,9,99,9,99,9",,"10108,1,99999,9",,,,"MET081METAR LPGR 021700Z 31014KT 9999 FEW016 BKN210 21/17 Q1011 RMK WIND RWY09 30013KT;",
"08515599999","2010-10-03T09:00:00","4","39.092169","-28.029847","26.21","GRACIOSA, PO","FM-15","LPGR ","V020","350,1,N,0082,1","00750,1,C,N","011265,1,N,1","+0200,1","+0160,1","99999,9","02,5,+00450,1,99,9","07,5,+00750,1,99,9",,"07,99,1,99,9,99,9,99999,9,99,9,99,9",,"10159,1,99999,9",,,,"MET081METAR LPGR 030900Z 35016KT 9999 FEW015 BKN025 20/16 Q1016 RMK WIND RWY09 35016KT;",
"08515599999","2010-10-03T14:00:00","4","39.092169","-28.029847","26.21","GRACIOSA, PO","FM-15","LPGR ","V020","010,1,N,0062,1","00900,1,C,N","011265,1,N,1","+0220,1","+0150,1","99999,9","02,5,+00480,1,99,9","07,5,+00900,1,99,9",,"07,99,1,99,9,99,9,99999,9,99,9,99,9",,"10190,1,99999,9",,,,"MET081METAR LPGR 031400Z 01012KT 9999 FEW016 BKN030 22/15 Q1019 RMK WIND RWY09 35013KT;",
"08515599999","2010-10-03T15:00:00","4","39.092169","-28.029847","26.21","GRACIOSA, PO","FM-15","LPGR ","V020","010,1,N,0057,1","00900,1,C,N","011265,1,N,1","+0210,1","+0150,1","99999,9","02,5,+00480,1,99,9","07,5,+00900,1,99,9",,"07,99,1,99,9,99,9,99999,9,99,9,99,9",,"10200,1,99999,9",,,,"MET081METAR LPGR 031500Z 01011KT 9999 FEW016 BKN030 21/15 Q1020 RMK WIND RWY09 35010KT;",
"08515599999","2010-10-03T16:00:00","4","39.092169","-28.029847","26.21","GRACIOSA, PO","FM-15","LPGR ","V020","020,1,N,0057,1","01050,1,C,N","011265,1,N,1","+0220,1","+0160,1","99999,9","02,5,+00480,1,99,9","07,5,+01050,1,99,9",,"07,99,1,99,9,99,9,99999,9,99,9,99,9",,"10200,1,99999,9",,,,"MET081METAR LPGR 031600Z 02011KT 9999 FEW016 BKN035 22/16 Q1020 RMK WIND RWY09 01008KT;",
"08515599999","2010-10-03T17:00:00","4","39.092169","-28.029847","26.21","GRACIOSA, PO","FM-15","LPGR ","V020","350,1,N,0051,1","01050,1,C,N","011265,1,N,1","+0210,1","+0160,1","99999,9","02,5,+00480,1,99,9","07,5,+01050,1,99,9",,"07,99,1,99,9,99,9,99999,9,99,9,99,9",,"10200,1,99999,9",,,,"MET081METAR LPGR 031700Z 35010KT 9999 FEW016 BKN035 21/16 Q1020 RMK WIND RWY09 36008KT;",
"08515599999","2010-10-04T07:00:00","4","39.092169","-28.029847","26.21","GRACIOSA, PO","FM-15","LPGR ","V020","300,1,N,0051,1","22000,1,9,N","011265,1,N,1","+0200,1","+0170,1","99999,9","02,5,+00450,1,99,9",,,"02,99,1,99,9,99,9,99999,9,99,9,99,9",,"10210,1,99999,9",,,,"MET074METAR LPGR 040700Z 30010KT 9999 FEW015 20/17 Q1021 RMK WIND RWY09 29010KT;",
"08515599999","2010-10-04T08:00:00","4","39.092169","-28.029847","26.21","GRACIOSA, PO","FM-15","LPGR ","V020","300,1,N,0062,1","00900,1,C,N","011265,1,N,1","+0200,1","+0180,1","99999,9","02,5,+00420,1,99,9","07,5,+00900,1,99,9",,"07,99,1,99,9,99,9,99999,9,99,9,99,9",,"10220,1,99999,9",,,,"MET081METAR LPGR 040800Z 30012KT 9999 FEW014 BKN030 20/18 Q1022 RMK WIND RWY09 29010KT;",
"08515599999","2010-10-04T14:00:00","4","39.092169","-28.029847","26.21","GRACIOSA, PO","FM-15","LPGR ","V020","270,1,N,0082,1","99999,9,C,N","011265,1,N,1","+0240,1","+0190,1","99999,9","02,5,+00480,1,99,9","04,5,+06300,1,99,9",,"04,99,1,99,9,99,9,99999,9,99,9,99,9",,"10200,1,99999,9",,,,"MET081METAR LPGR 041400Z 27016KT 9999 FEW016 SCT210 24/19 Q1020 RMK WIND RWY09 26016KT;","P01 063003SCOCIG"
"08515599999","2010-10-04T15:00:00","4","39.092169","-28.029847","26.21","GRACIOSA, PO","FM-15","LPGR ","V020","270,1,N,0093,1","99999,9,C,N","011265,1,N,1","+0240,1","+0180,1","99999,9","02,5,+00480,1,99,9","04,5,+06300,1,99,9",,"04,99,1,99,9,99,9,99999,9,99,9,99,9",,"10190,1,99999,9",,,,"MET081METAR LPGR 041500Z 27018KT 9999 FEW016 SCT210 24/18 Q1019 RMK WIND RWY09 27018KT;","P01 063003SCOCIG"
"08515599999","2010-10-04T16:00:00","4","39.092169","-28.029847","26.21","GRACIOSA, PO","FM-15","LPGR ","V020","280,1,N,0087,1","06300,1,C,N","011265,1,N,1","+0240,1","+0190,1","99999,9","02,5,+00480,1,99,9","07,5,+06300,1,99,9",,"07,99,1,99,9,99,9,99999,9,99,9,99,9",,"10190,1,99999,9",,,,"MET081METAR LPGR 041600Z 28017KT 9999 FEW016 BKN210 24/19 Q1019 RMK WIND RWY09 27018KT;",
"08515599999","2010-10-04T17:00:00","4","39.092169","-28.029847","26.21","GRACIOSA, PO","FM-15","LPGR ","V020","270,1,N,0087,1","06300,1,C,N","011265,1,N,1","+0240,1","+0190,1","99999,9","02,5,+00480,1,99,9","07,5,+06300,1,99,9",,"07,99,1,99,9,99,9,99999,9,99,9,99,9",,"10190,1,99999,9",,,,"MET081METAR LPGR 041700Z 27017KT 9999 FEW016 BKN210 24/19 Q1019 RMK WIND RWY09 27016KT;",
"08515599999","2010-10-05T14:00:00","4","39.092169","-28.029847","26.21","GRACIOSA, PO","FM-15","LPGR ","V020","320,1,N,0041,1","00900,1,C,N","011265,1,N,1","+0180,1","+0150,1","99999,9","02,5,+00390,1,99,9","07,5,+00900,1,99,9",,"07,99,1,99,9,99,9,99999,9,99,9,99,9",,"10159,1,99999,9",,,,"MET081METAR LPGR 051400Z 32008KT 9999 FEW013 BKN030 18/15 Q1016 RMK WIND RWY09 31010KT;",
"08515599999","2010-10-05T15:00:00","4","39.092169","-28.029847","26.21","GRACIOSA, PO","FM-15","LPGR ","V020","330,1,N,0036,1","00900,1,C,N","011265,1,N,1","+0180,1","+0150,1","99999,9","02,5,+00420,1,99,9","07,5,+00900,1,99,9",,"07,99,1,99,9,99,9,99999,9,99,9,99,9",,"10159,1,99999,9",,,,"MET081METAR LPGR 051500Z 33007KT 9999 FEW014 BKN030 18/15 Q1016 RMK WIND RWY09 32009KT;",
"08515599999","2010-10-05T16:00:00","4","39.092169","-28.029847","26.21","GRACIOSA, PO","FM-15","LPGR ","V020","340,1,N,0046,1","00450,5,C,N","011265,1,N,1","+0190,1","+0140,1","99999,9","04,5,+00420,1,99,9","02,5,+00450,1,02,5",,,,"10159,1,99999,9",,,,"MET084METAR LPGR 051600Z 34009KT 9999 SCT014 FEW015TCU 19/14 Q1016 RMK WIND RWY09 33011KT;","Q01+000022SCOTCV"
"08515599999","2010-10-05T17:00:00","4","39.092169","-28.029847","26.21","GRACIOSA, PO","FM-15","LPGR ","V020","350,1,N,0062,1","00900,1,C,N","011265,1,N,1","+0190,1","+0140,1","99999,9","02,5,+00420,1,99,9","07,5,+00900,1,99,9",,"07,99,1,99,9,99,9,99999,9,99,9,99,9",,"10159,1,99999,9",,,,"MET081METAR LPGR 051700Z 35012KT 9999 FEW014 BKN030 19/14 Q1016 RMK WIND RWY09 35012KT;",
"08515599999","2010-10-06T07:00:00","4","39.092169","-28.029847","26.21","GRACIOSA, PO","FM-15","LPGR ","V020","270,1,N,0031,1","22000,1,9,N","011265,1,N,1","+0160,1","+0090,1","99999,9","02,5,+00420,1,99,9",,,"02,99,1,99,9,99,9,99999,9,99,9,99,9",,"10149,1,99999,9",,,,"MET074METAR LPGR 060700Z 27006KT 9999 FEW014 16/09 Q1015 RMK WIND RWY09 27006KT;",
"08515599999","2010-10-06T08:00:00","4","39.092169","-28.029847","26.21","GRACIOSA, PO","FM-15","LPGR ","V020","300,1,N,0041,1","00900,1,C,N","011265,1,N,1","+0170,1","+0090,1","99999,9","02,5,+00450,1,99,9","07,5,+00900,1,99,9",,"07,99,1,99,9,99,9,99999,9,99,9,99,9",,"10149,1,99999,9",,,,"MET081METAR LPGR 060800Z 30008KT 9999 FEW015 BKN030 17/09 Q1015 RMK WIND RWY09 28008KT;",
"08515599999","2010-10-06T09:00:00","4","39.092169","-28.029847","26.21","GRACIOSA, PO","FM-15","LPGR ","V020","290,1,N,0036,1","00900,1,C,N","011265,1,N,1","+0180,1","+0100,1","99999,9","02,5,+00480,1,99,9","07,5,+00900,1,99,9",,"07,99,1,99,9,99,9,99999,9,99,9,99,9",,"10139,1,99999,9",,,,"MET081METAR LPGR 060900Z 29007KT 9999 FEW016 BKN030 18/10 Q1014 RMK WIND RWY09 28008KT;",
"08515599999","2010-10-06T15:00:00","4","39.092169","-28.029847","26.21","GRACIOSA, PO","FM-15","LPGR ","V020","240,1,N,0067,1","02700,1,C,N","011265,1,N,1","+0200,1","+0120,1","99999,9","02,5,+00480,1,99,9","08,5,+02700,1,99,9",,"08,99,1,99,9,99,9,99999,9,99,9,99,9",,"10108,1,99999,9",,,,"MET081METAR LPGR 061500Z 24013KT 9999 FEW016 OVC090 20/12 Q1011 RMK WIND RWY09 23013KT;",
"08515599999","2010-10-06T16:00:00","4","39.092169","-28.029847","26.21","GRACIOSA, PO","FM-15","LPGR ","V020","240,1,N,0051,1","02700,1,C,N","011265,1,N,1","+0190,1","+0110,1","99999,9","02,5,+00480,1,99,9","08,5,+02700,1,99,9",,"08,99,1,99,9,99,9,99999,9,99,9,99,9",,"10102,1,99999,9",,,,"MET081METAR LPGR 061600Z 24010KT 9999 FEW016 OVC090 19/11 Q1010 RMK WIND RWY09 23010KT;",
"08515599999","2010-10-06T17:00:00","4","39.092169","-28.029847","26.21","GRACIOSA, PO","FM-15","LPGR ","V020","190,1,N,0051,1","02700,1,C,N","011265,1,N,1","+0200,1","+0110,1","99999,9","02,5,+00480,1,99,9","08,5,+02700,1,99,9",,"08,99,1,99,9,99,9,99999,9,99,9,99,9",,"10081,1,99999,9",,,,"MET081METAR LPGR 061700Z 19010KT 9999 FEW016 OVC090 20/11 Q1008 RMK WIND RWY09 19010KT;",
"08515599999","2010-10-07T14:00:00","4","39.092169","-28.029847","26.21","GRACIOSA, PO","FM-15","LPGR ","V020","300,1,N,0139,1","22000,1,9,N","999999,9,N,1","+0180,1","+0080,1","99999,9","04,5,+00540,5,99,9",,,,,"10010,1,99999,9",,,"0221,1","MET083METAR LPGR 071400Z 30027G43KT 260V340 SCT018 18/08 Q1001 RMK WIND RWY09 31032G42KT;",
"08515599999","2010-10-08T07:00:00","4","39.092169","-28.029847","26.21","GRACIOSA, PO","FM-15","LPGR ","V020","300,1,N,0062,1","22000,1,9,N","011265,1,N,1","+0140,1","+0100,1","99999,9","02,5,+00420,1,99,9",,,"02,99,1,99,9,99,9,99999,9,99,9,99,9",,"10041,1,99999,9",,,"0139,1","MET088METAR LPGR 080700Z 30012G27KT 260V340 9999 FEW014 14/10 Q1004 RMK WIND RWY09 30014G25KT;",
"08515599999","2010-10-08T08:00:00","4","39.092169","-28.029847","26.21","GRACIOSA, PO","FM-15","LPGR ","V020","320,1,N,0103,1","22000,1,9,N","011265,1,N,1","+0160,1","+0070,1","99999,9","04,5,+00450,1,99,9",,,"04,99,1,99,9,99,9,99999,9,99,9,99,9",,"10051,1,99999,9",,,"0175,1","MET080METAR LPGR 080800Z 32020G34KT 9999 SCT015 16/07 Q1005 RMK WIND RWY09 21024G35KT;",
"08515599999","2010-10-08T09:00:00","4","39.092169","-28.029847","26.21","GRACIOSA, PO","FM-15","LPGR ","V020","320,1,N,0093,1","00480,1,C,N","011265,1,N,1","+0160,1","+0070,1","99999,9","07,5,+00480,1,99,9",,,"07,99,1,99,9,99,9,99999,9,99,9,99,9",,"10061,1,99999,9",,,"0154,1","MET088METAR LPGR 080900Z 32018G30KT 290V350 9999 BKN016 16/07 Q1006 RMK WIND RWY09 32024G34KT;",
"08515599999","2010-10-08T10:00:00","4","39.092169","-28.029847","26.21","GRACIOSA, PO","FM-15","LPGR ","V020","330,1,N,0093,1","22000,1,9,N","011265,1,N,1","+0170,1","+0080,1","99999,9","04,5,+00540,1,99,9",,,"04,99,1,99,9,99,9,99999,9,99,9,99,9",,"10061,1,99999,9",,,"0144,1","MET080METAR LPGR 081000Z 33018G28KT 9999 SCT018 17/08 Q1006 RMK WIND RWY09 32026G38KT;",
"08515599999","2010-10-08T15:00:00","4","39.092169","-28.029847","26.21","GRACIOSA, PO","FM-15","LPGR ","V020","310,1,N,0123,1","22000,1,9,N","011265,1,N,1","+0180,1","+0100,1","99999,9","04,5,+00540,1,99,9",,,"04,99,1,99,9,99,9,99999,9,99,9,99,9",,"10061,1,99999,9",,,"0185,1","MET080METAR LPGR 081500Z 31024G36KT 9999 SCT018 18/10 Q1006 RMK WIND RWY09 30026G36KT;",
"08515599999","2010-10-09T15:00:00","4","39.092169","-28.029847","26.21","GRACIOSA, PO","FM-15","LPGR ","V020","250,1,N,0113,1","02400,1,C,N","005000,1,N,1","+0200,1","+0170,1","99999,9","04,5,+00450,1,99,9","08,5,+02400,1,99,9",,"08,99,1,99,9,99,9,99999,9,99,9,99,9",,"10041,1,99999,9","61,1",,"0165,1","MET088METAR LPGR 091500Z 25022G32KT 5000 -RA SCT015 OVC080 20/17 Q1004 RMK WIND RWY09 24025KT;",
"08515599999","2010-10-09T16:00:00","4","39.092169","-28.029847","26.21","GRACIOSA, PO","FM-15","LPGR ","V020","250,1,N,0123,1","02400,1,C,N","006000,1,N,1","+0200,1","+0190,1","99999,9","04,5,+00360,1,99,9","08,5,+02400,1,99,9",,"08,99,1,99,9,99,9,99999,9,99,9,99,9",,"10041,1,99999,9","61,1",,"0175,1","MET091METAR LPGR 091600Z 25024G34KT 6000 -RA SCT012 OVC080 20/19 Q1004 RMK WIND RWY09 25020G32KT;",
"08515599999","2010-10-09T17:00:00","4","39.092169","-28.029847","26.21","GRACIOSA, PO","FM-15","LPGR ","V020","250,1,N,0123,1","02400,1,C,N","006000,1,N,1","+0200,1","+0190,1","99999,9","04,5,+00300,1,99,9","08,5,+02400,1,99,9",,"08,99,1,99,9,99,9,99999,9,99,9,99,9",,"10041,1,99999,9",,,"0175,1","MET087METAR LPGR 091700Z 25024G34KT 6000 SCT010 OVC080 20/19 Q1004 RMK WIND RWY09 24022G32KT;",
"08515599999","2010-10-10T15:00:00","4","39.092169","-28.029847","26.21","GRACIOSA, PO","FM-15","LPGR ","V020","170,1,N,0031,1","00300,1,C,N","009000,1,N,1","+0240,1","+0230,1","99999,9","04,5,+00180,1,99,9","07,5,+00300,1,99,9",,"07,99,1,99,9,99,9,99999,9,99,9,99,9",,"10091,1,99999,9",,,,"MET081METAR LPGR 101500Z 17006KT 9000 SCT006 BKN010 24/23 Q1009 RMK WIND RWY09 19006KT;",
"08515599999","2010-10-10T16:00:00","4","39.092169","-28.029847","26.21","GRACIOSA, PO","FM-15","LPGR ","V020","120,1,N,0036,1","00300,1,C,N","009000,1,N,1","+0230,1","+0230,1","99999,9","02,5,+00180,1,99,9","07,5,+00300,1,99,9","07,5,+00750,1,99,9","07,99,1,99,9,99,9,99999,9,99,9,99,9",,"10081,1,99999,9",,,,"MET088METAR LPGR 101600Z 12007KT 9000 FEW006 BKN010 BKN025 23/23 Q1008 RMK WIND RWY09 09007KT;",
"08515599999","2010-10-10T17:00:00","4","39.092169","-28.029847","26.21","GRACIOSA, PO","FM-15","LPGR ","V020","110,1,N,0041,1","00360,1,C,N","009000,1,N,1","+0220,1","+0220,1","99999,9","02,5,+00180,1,99,9","07,5,+00360,1,99,9",,"07,99,1,99,9,99,9,99999,9,99,9,99,9","999,M,+9999,9","10081,1,99999,9",,,,"MET081METAR LPGR 101700Z 11008KT 9000 FEW006 BKN012 22/22 Q1008 RMK WIND RWY09 10006KT;","Q01 +00062ATMX  "
"08515599999","2010-10-10T18:00:00","4","39.092169","-28.029847","26.21","GRACIOSA, PO","FM-15","LPGR ","V020","999,9,V,0005,1","00390,1,C,N","009000,1,N,1","+0230,1","+0220,1","99999,9","07,5,+00390,1,99,9","07,5,+00750,1,99,9",,"07,99,1,99,9,99,9,99999,9,99,9,99,9",,"10081,1,99999,9",,,,"MET081METAR LPGR 101800Z VRB01KT 9000 BKN013 BKN025 23/22 Q1008 RMK WIND RWY09 VRB02KT;",
"08515599999","2010-10-11T08:00:00","4","39.092169","-28.029847","26.21","GRACIOSA, PO","FM-15","LPGR ","V020","250,1,N,0093,1","00750,1,C,N","008000,1,N,1","+0210,1","+0190,1","99999,9","04,5,+00390,1,99,9","07,5,+00750,1,99,9",,"07,99,1,99,9,99,9,99999,9,99,9,99,9",,"10091,1,99999,9",,,,"MET081METAR LPGR 110800Z 25018KT 8000 SCT013 BKN025 21/19 Q1009 RMK WIND RWY09 24017KT;",
"08515599999","2010-10-11T09:00:00","4","39.092169","-28.029847","26.21","GRACIOSA, PO","FM-15","LPGR ","V020","260,1,N,0093,1","00750,1,C,N","011265,1,N,1","+0200,1","+0190,1","99999,9","04,5,+00420,1,99,9","07,5,+00750,1,99,9",,"07,99,1,99,9,99,9,99999,9,99,9,99,9",,"10091,1,99999,9",,,,"MET081METAR LPGR 110900Z 26018KT 9999 SCT014 BKN025 20/19 Q1009 RMK WIND RWY09 25015KT;",
"08515599999","2010-10-11T15:00:00","4","39.092169","-28.029847","26.21","GRACIOSA, PO","FM-15","LPGR ","V020","300,1,N,0103,1","00300,1,C,N","011265,1,N,1","+0200,1","+0180,1","99999,9","07,5,+00300,1,99,9","07,5,+00750,1,99,9",,"07,99,1,99,9,99,9,99999,9,99,9,99,9",,"10108,1,99999,9",,,,"MET081METAR LPGR 111500Z 30020KT 9999 BKN010 BKN025 20/18 Q1011 RMK WIND RWY09 29018KT;",
"08515599999","2010-10-11T16:00:00","4","39.092169","-28.029847","26.21","GRACIOSA, PO","FM-15","LPGR ","V020","300,1,N,0103,1","00750,1,C,N","011265,1,N,1","+0200,1","+0180,1","99999,9","04,5,+00360,1,99,9","07,5,+00750,1,99,9",,"07,99,1,99,9,99,9,99999,9,99,9,99,9",,"10108,1,99999,9",,,"0154,1","MET087METAR LPGR 111600Z 30020G30KT 9999 SCT012 BKN025 20/18 Q1011 RMK WIND RWY09 30019G29KT;",
"08515599999","2010-10-11T17:00:00","4","39.092169","-28.029847","26.21","GRACIOSA, PO","FM-15","LPGR ","V020","250,1,N,0093,1","00750,5,9,N","006000,1,N,1","+0210,1","+0190,1","99999,9","07,5,+00750,5,99,9",,,,,"10080,1,99999,9",,,"0144,1","MET083METAR LPGR 111700Z 25018G28KT 6000 ST010 BKN025 21/19 Q1008 RMK WIND RWY09 24018KT;",
"08515599999","2010-10-12T09:00:00","4","39.092169","-28.029847","26.21","GRACIOSA, PO","FM-15","LPGR ","V020","330,1,N,0072,1","22000,1,9,N","011265,1,N,1","+0170,1","+0150,1","99999,9","04,5,+00300,1,99,9",,,"04,99,1,99,9,99,9,99999,9,99,9,99,9",,"10169,1,99999,9",,,"0123,1","MET077METAR LPGR 120900Z 33014G24KT 9999 SCT010 17/15 Q1017 RMK WIND RWY09 32019KT;",
"08515599999","2010-10-12T15:00:00","4","39.092169","-28.029847","26.21","GRACIOSA, PO","FM-15","LPGR ","V020","340,1,N,0072,1","00360,1,C,N","011265,1,N,1","+0190,1","+0160,1","99999,9","07,5,+00360,1,99,9","07,5,+00900,1,99,9",,"07,99,1,99,9,99,9,99999,9,99,9,99,9",,"10159,1,99999,9",,,"0129,1","MET087METAR LPGR 121500Z 34014G25KT 9999 BKN012 BKN030 19/16 Q1016 RMK WIND RWY09 33018G28KT;",
"08515599999","2010-10-12T16:00:00","4","39.092169","-28.029847","26.21","GRACIOSA, PO","FM-15","LPGR ","V020","340,1,N,0072,1","22000,1,9,N","011265,1,N,1","+0190,1","+0160,1","99999,9","02,5,+00390,1,99,9",,,"02,99,1,99,9,99,9,99999,9,99,9,99,9",,"10159,1,99999,9",,,,"MET074METAR LPGR 121600Z 34014KT 9999 FEW013 19/16 Q1016 RMK WIND RWY09 32018KT;",
"08515599999","2010-10-12T17:00:00","4","39.092169","-28.029847","26.21","GRACIOSA, PO","FM-15","LPGR ","V020","350,1,N,0082,1","00900,1,C,N","011265,1,N,1","+0180,1","+0160,1","99999,9","02,5,+00420,1,99,9","07,5,+00900,1,99,9",,"07,99,1,99,9,99,9,99999,9,99,9,99,9",,"10159,1,99999,9",,,,"MET081METAR LPGR 121700Z 35016KT 9999 FEW014 BKN030 18/16 Q1016 RMK WIND RWY09 32016KT;",
"08515599999","2010-10-13T07:00:00","4","39.092169","-28.029847","26.21","GRACIOSA, PO","FM-15","LPGR ","V020","010,1,N,0072,1","22000,1,9,N","011265,1,N,1","+0180,1","+0160,1","99999,9","02,5,+00420,1,99,9",,,"02,99,1,99,9,99,9,99999,9,99,9,99,9",,"10169,1,99999,9",,,,"MET074METAR LPGR 130700Z 01014KT 9999 FEW014 18/16 Q1017 RMK WIND RWY09 01014KT;",
"08515599999","2010-10-13T08:00:00","4","39.092169","-28.029847","26.21","GRACIOSA, PO","FM-15","LPGR ","V020","010,1,N,0072,1","00420,1,C,N","011265,1,N,1","+0180,1","+0160,1","99999,9","07,5,+00420,1,99,9","07,5,+00750,1,99,9",,"07,99,1,99,9,99,9,99999,9,99,9,99,9",,"10169,1,99999,9",,,,"MET081METAR LPGR 130800Z 01014KT 9999 BKN014 BKN025 18/16 Q1017 RMK WIND RWY09 01016KT;",
"08515599999","2010-10-13T09:00:00","4","39.092169","-28.029847","26.21","GRACIOSA, PO","FM-15","LPGR ","V020","020,1,N,0067,1","00750,1,C,N","011265,1,N,1","+0180,1","+0160,1","99999,9","04,5,+00420,1,99,9","07,5,+00750,1,99,9",,"07,99,1,99,9,99,9,99999,9,99,9,99,9",,"10180,1,99999,9",,,"0123,1","MET084METAR LPGR 130900Z 02013G24KT 9999 SCT014 BKN025 18/16 Q1018 RMK WIND RWY09 02016KT;",
"08515599999","2010-10-13T15:00:00","4","39.092169","-28.029847","26.21","GRACIOSA, PO","FM-15","LPGR ","V020","040,1,N,0062,1","99999,9,C,N","011265,1,N,1","+0200,1","+0130,1","99999,9","02,5,+00540,1,99,9","04,5,+01050,1,99,9",,"04,99,1,99,9,99,9,99999,9,99,9,99,9",,"10180,1,99999,9",,,,"MET081METAR LPGR 131500Z 04012KT 9999 FEW018 SCT035 20/13 Q1018 RMK WIND RWY09 04015KT;","P01 010503SCOCIG"
"08515599999","2010-10-13T16:00:00","4","39.092169","-28.029847","26.21","GRACIOSA, PO","FM-15","LPGR ","V020","040,1,N,0077,1","99999,9,C,N","011265,1,N,1","+0200,1","+0140,1","99999,9","02,5,+00540,1,99,9","04,5,+01050,1,99,9",,"04,99,1,99,9,99,9,99999,9,99,9,99,9",,"10180,1,99999,9",,,,"MET081METAR LPGR 131600Z 04015KT 9999 FEW018 SCT035 20/14 Q1018 RMK WIND RWY09 03016KT;","P01 010503SCOCIG"
"08515599999","2010-10-13T17:00:00","4","39.092169","-28.029847","26.21","GRACIOSA, PO","FM-15","LPGR ","V020","040,1,N,0072,1","22000,1,9,N","011265,1,N,1","+0200,1","+0140,1","99999,9","02,5,+00540,1,99,9",,,"02,99,1,99,9,99,9,99999,9,99,9,99,9",,"10180,1,99999,9",,,,"MET074METAR LPGR 131700Z 04014KT 9999 FEW018 20/14 Q1018 RMK WIND RWY09 03018KT;",
"08515599999","2010-10-14T09:00:00","4","39.092169","-28.029847","26.21","GRACIOSA, PO","FM-15","LPGR ","V020","070,1,N,0072,1","22000,1,9,N","011265,1,N,1","+0180,1","+0160,1","99999,9","04,5,+00450,1,99,9",,,"04,99,1,99,9,99,9,99999,9,99,9,99,9",,"10159,1,99999,9",,,,"MET074METAR LPGR 140900Z 07014KT 9999 SCT015 18/16 Q1016 RMK WIND RWY09 06014KT;",
"08515599999","2010-10-14T15:00:00","4","39.092169","-28.029847","26.21","GRACIOSA, PO","FM-15","LPGR ","V020","090,1,N,0062,1","01200,1,C,N","011265,1,N,1","+0220,1","+0150,1","99999,9","02,5,+00600,1,99,9","07,5,+01200,1,99,9",,"07,99,1,99,9,99,9,99999,9,99,9,99,9",,"10159,1,99999,9",,,,"MET081METAR LPGR 141500Z 09012KT 9999 FEW020 BKN040 22/15 Q1016 RMK WIND RWY09 09016KT;",
"08515599999","2010-10-14T16:00:00","4","39.092169","-28.029847","26.21","GRACIOSA, PO","FM-15","LPGR ","V020","080,1,N,0051,1","99999,9,C,N","011265,1,N,1","+0200,1","+0160,1","99999,9","04,5,+00540,1,02,1","04,5,+01200,1,99,9",,"04,99,1,99,9,99,9,99999,9,99,9,99,9",,"10159,1,99999,9",,,,"MET084METAR LPGR 141600Z 08010KT 9999 SCT018TCU SCT040 20/16 Q1016 RMK WIND RWY09 08014KT;","P01 012003SCOCIG"
"08515599999","2010-10-14T17:00:00","4","39.092169","-28.029847","26.21","GRACIOSA, PO","FM-15","LPGR ","V020","080,1,N,0062,1","00420,1,C,N","011265,1,N,1","+0200,1","+0170,1","99999,9","07,5,+00420,1,99,9","07,5,+00750,1,99,9",,"07,99,1,99,9,99,9,99999,9,99,9,99,9",,"10159,1,99999,9",,,,"MET081METAR LPGR 141700Z 08012KT 9999 BKN014 BKN025 20/17 Q1016 RMK WIND RWY09 08015KT;",
"08515599999","2010-10-15T09:00:00","4","39.092169","-28.029847","26.21","GRACIOSA, PO","FM-15","LPGR ","V020","130,1,N,0010,1","99999,9,C,N","011265,1,N,1","+0180,1","+0160,1","99999,9","02,5,+00420,1,99,9","04,5,+00900,1,99,9",,"04,99,1,99,9,99,9,99999,9,99,9,99,9",,"10149,1,99999,9",,,,"MET081METAR LPGR 150900Z 13002KT 9999 FEW014 SCT030 18/16 Q1015 RMK WIND RWY09 13003KT;","P01 009003SCOCIG"
"08515599999","2010-10-15T14:00:00","4","39.092169","-28.029847","26.21","GRACIOSA, PO","FM-15","LPGR ","V020","110,1,N,0051,1","00900,1,C,N","011265,1,N,1","+0200,1","+0170,1","99999,9","02,5,+00450,1,99,9","07,5,+00900,1,99,9",,"07,99,1,99,9,99,9,99999,9,99,9,99,9","999,M,+9999,9","10149,1,99999,9",,,,"MET081METAR LPGR 151400Z 11010KT 9999 FEW015 BKN030 20/17 Q1015 RMK WIND RWY09 10012KT;","Q01 +00122ATMX  "
"08515599999","2010-10-15T15:00:00","4","39.092169","-28.029847","26.21","GRACIOSA, PO","FM-15","LPGR ","V020","100,1,N,0046,1","00900,1,C,N","011265,1,N,1","+0200,1","+0170,1","99999,9","02,5,+00390,1,99,9","07,5,+00900,1,99,9",,"07,99,1,99,9,99,9,99999,9,99,9,99,9","999,M,+9999,9","10149,1,99999,9",,,,"MET081METAR LPGR 151500Z 10009KT 9999 FEW013 BKN030 20/17 Q1015 RMK WIND RWY09 10012KT;","Q01 +00122ATMX  "
"08515599999","2010-10-15T16:00:00","4","39.092169","-28.029847","26.21","GRACIOSA, PO","FM-15","LPGR ","V020","100,1,N,0046,1","00420,1,C,N","011265,1,N,1","+0200,1","+0170,1","99999,9","07,5,+00420,1,99,9","07,5,+00900,1,99,9",,"07,99,1,99,9,99,9,99999,9,99,9,99,9","999,M,+9999,9","10149,1,99999,9",,,,"MET081METAR LPGR 151600Z 10009KT 9999 BKN014 BKN030 20/17 Q1015 RMK WIND RWY09 10012KT;","Q01 +00122ATMX  "
"08515599999","2010-10-15T17:00:00","4","39.092169","-28.029847","26.21","GRACIOSA, PO","FM-15","LPGR ","V020","100,1,N,0067,1","99999,9,C,N","011265,1,N,1","+0200,1","+0160,1","99999,9","02,5,+00450,1,99,9","04,5,+01050,1,99,9",,"04,99,1,99,9,99,9,99999,9,99,9,99,9","999,M,+9999,9","10149,1,99999,9",,,,"MET081METAR LPGR 151700Z 10013KT 9999 FEW015 SCT035 20/16 Q1015 RMK WIND RWY09 10014KT;","Q01 +00142ATMX  P01 010503SCOCIG"
"08515599999","2010-10-16T09:00:00","4","39.092169","-28.029847","26.21","GRACIOSA, PO","FM-15","LPGR ","V020","080,1,N,0062,1","99999,9,C,N","011265,1,N,1","+0190,1","+0160,1","99999,9","02,5,+00420,1,99,9","04,5,+00900,1,99,9",,"04,99,1,99,9,99,9,99999,9,99,9,99,9",,"10169,1,99999,9",,,,"MET081METAR LPGR 160900Z 08012KT 9999 FEW014 SCT030 19/16 Q1017 RMK WIND RWY09 08017KT;","P01 009003SCOCIG"
"08515599999","2010-10-16T15:00:00","4","39.092169","-28.029847","26.21","GRACIOSA, PO","FM-15","LPGR ","V020","090,1,N,0072,1","02700,1,C,N","011265,1,N,1","+0200,1","+0160,1","99999,9","02,5,+00480,1,99,9","07,5,+02700,1,99,9",,"07,99,1,99,9,99,9,99999,9,99,9,99,9",,"10169,1,99999,9",,,,"MET081METAR LPGR 161500Z 09014KT 9999 FEW016 BKN090 20/16 Q1017 RMK WIND RWY09 09017KT;",
"08515599999","2010-10-16T16:00:00","4","39.092169","-28.029847","26.21","GRACIOSA, PO","FM-15","LPGR ","V020","090,1,N,0082,1","22000,1,9,N","011265,1,N,1","+0200,1","+0160,1","99999,9","02,5,+00480,1,99,9",,,"02,99,1,99,9,99,9,99999,9,99,9,99,9","999,M,+9999,9","10170,1,99999,9",,,,"MET081METAR LPGR 161600Z 09016KT 9999 FEW016 OCV090 20/16 Q1017 RMK WIND RWY09 10019KT;","Q01 +00192ATMX  "
"08515599999","2010-10-17T15:00:00","4","39.092169","-28.029847","26.21","GRACIOSA, PO","FM-15","LPGR ","V020","100,1,N,0098,1","22000,1,9,N","011265,1,N,1","+0210,1","+0150,1","99999,9","02,5,+00600,1,99,9",,,"02,99,1,99,9,99,9,99999,9,99,9,99,9","999,M,+9999,9","10190,1,99999,9",,,,"MET074METAR LPGR 171500Z 10019KT 9999 FEW020 21/15 Q1019 RMK WIND RWY09 10020KT;","Q01 +00202ATMX  "
"08515599999","2010-10-18T07:00:00","4","39.092169","-28.029847","26.21","GRACIOSA, PO","FM-15","LPGR ","V020","090,1,N,0082,1","22000,1,9,N","011265,1,N,1","+0180,1","+0150,1","99999,9","02,5,+00420,1,99,9",,,"02,99,1,99,9,99,9,99999,9,99,9,99,9","999,M,+9999,9","10159,1,99999,9",,,,"MET074METAR LPGR 180700Z 09016KT 9999 FEW014 18/15 Q1016 RMK WIND RWY09 10019KT;","Q01 +00192ATMX  "
"08515599999","2010-10-18T08:00:00","4","39.092169","-28.029847","26.21","GRACIOSA, PO","FM-15","LPGR ","V020","090,1,N,0082,1","22000,1,9,N","011265,1,N,1","+0190,1","+0150,1","99999,9","04,5,+00420,1,99,9",,,"04,99,1,99,9,99,9,99999,9,99,9,99,9",,"10169,1,99999,9",,,,"MET074METAR LPGR 180800Z 09016KT 9999 SCT014 19/15 Q1017 RMK WIND RWY09 09020KT;",
"08515599999","2010-10-18T09:00:00","4","39.092169","-28.029847","26.21","GRACIOSA, PO","FM-15","LPGR ","V020","090,1,N,0087,1","22000,1,9,N","011265,1,N,1","+0190,1","+0160,1","99999,9","04,5,+00420,1,99,9",,,"04,99,1,99,9,99,9,99999,9,99,9,99,9",,"10169,1,99999,9",,,,"MET074METAR LPGR 180900Z 09017KT 9999 SCT014 19/16 Q1017 RMK WIND RWY09 09020KT;",
"08515599999","2010-10-18T15:00:00","4","39.092169","-28.029847","26.21","GRACIOSA, PO","FM-15","LPGR ","V020","090,1,N,0093,1","22000,1,9,N","011265,1,N,1","+0200,1","+0160,1","99999,9","04,5,+00480,1,99,9",,,"04,99,1,99,9,99,9,99999,9,99,9,99,9",,"10159,1,99999,9",,,,"MET074METAR LPGR 181500Z 09018KT 9999 SCT016 20/16 Q1016 RMK WIND RWY09 09020KT;",
"08515599999","2010-10-18T16:00:00","4","39.092169","-28.029847","26.21","GRACIOSA, PO","FM-15","LPGR ","V020","090,1,N,0082,1","22000,1,9,N","011265,1,N,1","+0200,1","+0160,1","99999,9","04,5,+00480,1,99,9",,,"04,99,1,99,9,99,9,99999,9,99,9,99,9",,"10149,1,99999,9",,,,"MET074METAR LPGR 181600Z 09016KT 9999 SCT016 20/16 Q1015 RMK WIND RWY09 09018KT;",
"08515599999","2010-10-19T09:00:00","4","39.092169","-28.029847","26.21","GRACIOSA, PO","FM-15","LPGR ","V020","030,1,N,0062,1","00300,1,C,N","011265,1,N,1","+0180,1","+0170,1","99999,9","07,5,+00300,1,99,9","07,5,+00750,1,99,9",,"07,99,1,99,9,99,9,99999,9,99,9,99,9",,"10139,1,99999,9",,,,"MET081METAR LPGR 190900Z 03012KT 9999 BKN010 BKN025 18/17 Q1014 RMK WIND RWY09 02014KT;",
"08515599999","2010-10-19T15:00:00","4","39.092169","-28.029847","26.21","GRACIOSA, PO","FM-15","LPGR ","V020","010,1,N,0031,1","00750,1,C,N","011265,1,N,1","+0190,1","+0170,1","99999,9","04,5,+00450,1,99,9","07,5,+00750,1,99,9",,"07,99,1,99,9,99,9,99999,9,99,9,99,9",,"10139,1,99999,9",,,,"MET081METAR LPGR 191500Z 01006KT 9999 SCT015 BKN025 19/17 Q1014 RMK WIND RWY09 01009KT;",
"08515599999","2010-10-19T16:00:00","4","39.092169","-28.029847","26.21","GRACIOSA, PO","FM-15","LPGR ","V020","360,1,N,0041,1","00750,1,C,N","011265,1,N,1","+0190,1","+0170,1","99999,9","04,5,+00360,1,99,9","07,5,+00750,1,99,9",,"07,99,1,99,9,99,9,99999,9,99,9,99,9",,"10139,1,99999,9",,,,"MET081METAR LPGR 191600Z 36008KT 9999 SCT012 BKN025 19/17 Q1014 RMK WIND RWY09 35010KT;",
"08515599999","2010-10-20T07:00:00","4","39.092169","-28.029847","26.21","GRACIOSA, PO","FM-15","LPGR ","V020","040,1,N,0036,1","00300,1,C,N","005000,1,N,1","+0180,1","+0170,1","99999,9","07,5,+00300,1,99,9","07,5,+00750,1,99,9",,"07,99,1,99,9,99,9,99999,9,99,9,99,9",,"10149,1,99999,9","81,1",,,"MET086METAR LPGR 200700Z 04007KT 5000 SHRA BKN010 BKN025 18/17 Q1015 RMK WIND RWY09 05010KT;",
"08515599999","2010-10-20T08:00:00","4","39.092169","-28.029847","26.21","GRACIOSA, PO","FM-15","LPGR ","V020","060,1,N,0051,1","00300,1,C,N","011265,1,N,1","+0180,1","+0180,1","99999,9","07,5,+00300,1,99,9",,,"07,99,1,99,9,99,9,99999,9,99,9,99,9",,"10159,1,99999,9",,,,"MET074METAR LPGR 200800Z 06010KT 9999 BKN010 18/18 Q1016 RMK WIND RWY09 06015KT;",
"08515599999","2010-10-20T09:00:00","4","39.092169","-28.029847","26.21","GRACIOSA, PO","FM-15","LPGR ","V020","050,1,N,0072,1","22000,1,9,N","011265,1,N,1","+0180,1","+0170,1","99999,9","02,5,+00300,1,99,9",,,"02,99,1,99,9,99,9,99999,9,99,9,99,9",,"10169,1,99999,9",,,,"MET074METAR LPGR 200900Z 05014KT 9999 FEW010 18/17 Q1017 RMK WIND RWY09 05016KT;",
"08515599999","2010-10-20T15:00:00","4","39.092169","-28.029847","26.21","GRACIOSA, PO","FM-15","LPGR ","V020","030,1,N,0062,1","22000,1,9,N","011265,1,N,1","+0200,1","+0170,1","99999,9","04,5,+00450,1,99,9",,,"04,99,1,99,9,99,9,99999,9,99,9,99,9",,"10180,1,99999,9",,,,"MET074METAR LPGR 201500Z 03012KT 9999 SCT015 20/17 Q1018 RMK WIND RWY09 03014KT;",
"08515599999","2010-10-20T16:00:00","4","39.092169","-28.029847","26.21","GRACIOSA, PO","FM-15","LPGR ","V020","030,1,N,0051,1","22000,1,9,N","011265,1,N,1","+0200,1","+0170,1","99999,9","02,5,+00450,1,99,9",,,"02,99,1,99,9,99,9,99999,9,99,9,99,9",,"10180,1,99999,9",,,,"MET074METAR LPGR 201600Z 03010KT 9999 FEW015 20/17 Q1018 RMK WIND RWY09 02015KT;",
"08515599999","2010-10-20T17:00:00","4","39.092169","-28.029847","26.21","GRACIOSA, PO","FM-15","LPGR ","V020","020,1,N,0057,1","22000,1,9,N","011265,1,N,1","+0190,1","+0160,1","99999,9","02,5,+00450,1,99,9",,,"02,99,1,99,9,99,9,99999,9,99,9,99,9",,"10190,1,99999,9",,,,"MET074METAR LPGR 201700Z 02011KT 9999 FEW015 19/16 Q1019 RMK WIND RWY09 03015KT;",
"08515599999","2010-10-21T09:00:00","4","39.092169","-28.029847","26.21","GRACIOSA, PO","FM-15","LPGR ","V020","020,1,N,0062,1","00450,1,C,N","011265,1,N,1","+0180,1","+0140,1","99999,9","07,5,+00450,1,99,9",,,"07,99,1,99,9,99,9,99999,9,99,9,99,9",,"10240,1,99999,9",,,,"MET074METAR LPGR 210900Z 02012KT 9999 BKN015 18/14 Q1024 RMK WIND RWY09 03014KT;",
"08515599999","2010-10-21T15:00:00","4","39.092169","-28.029847","26.21","GRACIOSA, PO","FM-15","LPGR ","V020","030,1,N,0062,1","22000,1,9,N","011265,1,N,1","+0200,1","+0150,1","99999,9","02,5,+00540,1,99,9",,,"02,99,1,99,9,99,9,99999,9,99,9,99,9",,"10251,1,99999,9",,,,"MET074METAR LPGR 211500Z 03012KT 9999 FEW018 20/15 Q1025 RMK WIND RWY09 04014KT;",
"08515599999","2010-10-21T16:00:00","4","39.092169","-28.029847","26.21","GRACIOSA, PO","FM-15","LPGR ","V020","030,1,N,0051,1","22000,1,9,N","011265,1,N,1","+0200,1","+0150,1","99999,9","02,5,+00540,1,99,9",,,"02,99,1,99,9,99,9,99999,9,99,9,99,9",,"10240,1,99999,9",,,,"MET074METAR LPGR 211600Z 03010KT 9999 FEW018 20/15 Q1024 RMK WIND RWY09 04014KT;",
"08515599999","2010-10-22T07:00:00","4","39.092169","-28.029847","26.21","GRACIOSA, PO","FM-15","LPGR ","V020","020,1,N,0031,1","22000,1,9,N","011265,1,N,1","+0170,1","+0130,1","99999,9","02,5,+00480,1,99,9",,,"02,99,1,99,9,99,9,99999,9,99,9,99,9",,"10271,1,99999,9",,,,"MET074METAR LPGR 220700Z 02006KT 9999 FEW016 17/13 Q1027 RMK WIND RWY09 01008KT;",
"08515599999","2010-10-22T08:00:00","4","39.092169","-28.029847","26.21","GRACIOSA, PO","FM-15","LPGR ","V020","030,1,N,0031,1","22000,1,9,N","011265,1,N,1","+0170,1","+0130,1","99999,9","04,5,+00480,1,99,9",,,"04,99,1,99,9,99,9,99999,9,99,9,99,9",,"10271,1,99999,9",,,,"MET074METAR LPGR 220800Z 03006KT 9999 SCT016 17/13 Q1027 RMK WIND RWY09 02007KT;",
"08515599999","2010-10-22T15:00:00","4","39.092169","-28.029847","26.21","GRACIOSA, PO","FM-15","LPGR ","V020","020,1,N,0021,1","22000,1,9,N","011265,1,N,1","+0200,1","+0130,1","99999,9","02,5,+00600,1,99,9",,,"02,99,1,99,9,99,9,99999,9,99,9,99,9",,"10281,1,99999,9",,,,"MET074METAR LPGR 221500Z 02004KT 9999 FEW020 20/13 Q1028 RMK WIND RWY09 03007KT;",
"08515599999","2010-10-22T16:00:00","4","39.092169","-28.029847","26.21","GRACIOSA, PO","FM-15","LPGR ","V020","030,1,N,0026,1","22000,1,9,N","011265,1,N,1","+0190,1","+0140,1","99999,9","02,5,+00600,1,99,9",,,"02,99,1,99,9,99,9,99999,9,99,9,99,9",,"10281,1,99999,9",,,,"MET074METAR LPGR 221600Z 03005KT 9999 FEW020 19/14 Q1028 RMK WIND RWY09 02008KT;",
"08515599999","2010-10-22T17:00:00","4","39.092169","-28.029847","26.21","GRACIOSA, PO","FM-15","LPGR ","V020","020,1,N,0026,1","22000,1,9,N","011265,1,N,1","+0190,1","+0140,1","99999,9","02,5,+00600,1,99,9",,,"02,99,1,99,9,99,9,99999,9,99,9,99,9",,"10281,1,99999,9",,,,"MET074METAR LPGR 221700Z 02005KT 9999 FEW020 19/14 Q1028 RMK WIND RWY09 01006KT;",
"08515599999","2010-10-23T09:00:00","4","39.092169","-28.029847","26.21","GRACIOSA, PO","FM-15","LPGR ","V020","180,1,N,0010,1","00750,1,C,N","011265,1,N,1","+0140,1","+0130,1","99999,9","02,5,+00420,1,99,9","07,5,+00750,1,99,9",,"07,99,1,99,9,99,9,99999,9,99,9,99,9",,"10281,1,99999,9",,,,"MET081METAR LPGR 230900Z 18002KT 9999 FEW014 BKN025 14/13 Q1028 RMK WIND RWY09 23002KT;",
"08515599999","2010-10-23T16:00:00","4","39.092169","-28.029847","26.21","GRACIOSA, PO","FM-15","LPGR ","V020","270,1,N,0031,1","22000,1,9,N","011265,1,N,1","+0200,1","+0150,1","99999,9","02,5,+00600,1,99,9",,,"02,99,1,99,9,99,9,99999,9,99,9,99,9",,"10271,1,99999,9",,,,"MET074METAR LPGR 231600Z 27006KT 9999 FEW020 20/15 Q1027 RMK WIND RWY09 28010KT;",
"08515599999","2010-10-24T16:00:00","4","39.092169","-28.029847","26.21","GRACIOSA, PO","FM-15","LPGR ","V020","240,1,N,0041,1","22000,1,9,N","011265,1,N,1","+0220,1","+0130,1","99999,9","02,5,+00600,1,99,9",,,"02,99,1,99,9,99,9,99999,9,99,9,99,9",,"10240,1,99999,9",,,,"MET074METAR LPGR 241600Z 24008KT 9999 FEW020 22/13 Q1024 RMK WIND RWY09 24012KT;",
"08515599999","2010-10-25T07:00:00","4","39.092169","-28.029847","26.21","GRACIOSA, PO","FM-15","LPGR ","V020","190,1,N,0051,1","00900,1,C,N","011265,1,N,1","+0190,1","+0160,1","99999,9","02,5,+00480,1,99,9","07,5,+00900,1,99,9",,"07,99,1,99,9,99,9,99999,9,99,9,99,9",,"10230,1,99999,9",,,,"MET081METAR LPGR 250700Z 19010KT 9999 FEW016 BKN030 19/16 Q1023 RMK WIND RWY09 19010KT;",
"08515599999","2010-10-25T08:00:00","4","39.092169","-28.029847","26.21","GRACIOSA, PO","FM-15","LPGR ","V020","190,1,N,0051,1","00900,1,C,N","011265,1,N,1","+0190,1","+0150,1","99999,9","02,5,+00480,1,99,9","07,5,+00900,1,99,9",,"07,99,1,99,9,99,9,99999,9,99,9,99,9",,"10230,1,99999,9",,,,"MET081METAR LPGR 250800Z 19010KT 9999 FEW016 BKN030 19/15 Q1023 RMK WIND RWY09 19012KT;",
"08515599999","2010-10-25T09:00:00","4","39.092169","-28.029847","26.21","GRACIOSA, PO","FM-15","LPGR ","V020","200,1,N,0051,1","00900,5,9,N","999999,9,N,1","+0190,1","+0160,1","99999,9","02,5,+00480,5,99,9","07,5,+00900,5,99,9",,,,"10240,1,99999,9",,,,"MET076METAR LPGR 250900Z 20010KT FEW016 BKN030 19/16 Q1024 RMK WIND RWY09 19010KT;",
"08515599999","2010-10-25T16:00:00","4","39.092169","-28.029847","26.21","GRACIOSA, PO","FM-15","LPGR ","V020","250,1,N,0062,1","22000,1,9,N","011265,1,N,1","+0230,1","+0150,1","99999,9","02,5,+00600,1,99,9",,,"02,99,1,99,9,99,9,99999,9,99,9,99,9",,"10230,1,99999,9",,,,"MET074METAR LPGR 251600Z 25012KT 9999 FEW020 23/15 Q1023 RMK WIND RWY09 22012KT;",
"08515599999","2010-10-26T09:00:00","4","39.092169","-28.029847","26.21","GRACIOSA, PO","FM-15","LPGR ","V020","300,1,N,0021,1","02100,1,C,N","002500,1,N,1","+0190,1","+0190,1","99999,9","04,5,+00300,1,99,9","08,5,+02100,1,99,9",,"08,99,1,99,9,99,9,99999,9,99,9,99,9",,"10251,1,99999,9","63,1",,,"MET084METAR LPGR 260900Z 30004KT 2500 RA SCT010 OVC070 19/19 Q1025 RMK WIND RWY09 30006KT;",
"08515599999","2010-10-26T16:00:00","4","39.092169","-28.029847","26.21","GRACIOSA, PO","FM-15","LPGR ","V020","090,1,N,0031,1","00360,1,C,N","011265,1,N,1","+0190,1","+0180,1","99999,9","07,5,+00360,1,99,9","08,5,+02400,1,99,9",,"08,99,1,99,9,99,9,99999,9,99,9,99,9",,"10261,1,99999,9",,,,"MET081METAR LPGR 261600Z 09006KT 9999 BKN012 OVC080 19/18 Q1026 RMK WIND RWY09 08007KT;",
"08515599999","2010-10-26T17:00:00","4","39.092169","-28.029847","26.21","GRACIOSA, PO","FM-15","LPGR ","V020","080,1,N,0026,1","02400,1,C,N","011265,1,N,1","+0190,1","+0180,1","99999,9","04,5,+00390,1,99,9","08,5,+02400,1,99,9",,"08,99,1,99,9,99,9,99999,9,99,9,99,9",,"10261,1,99999,9",,,,"MET081METAR LPGR 261700Z 08005KT 9999 SCT013 OVC080 19/18 Q1026 RMK WIND RWY09 08006KT;",
"08515599999","2010-10-27T07:00:00","4","39.092169","-28.029847","26.21","GRACIOSA, PO","FM-15","LPGR ","V020","080,1,N,0051,1","00300,1,C,N","002000,1,N,1","+0160,1","+0160,1","99999,9","04,5,+00090,1,99,9","04,5,+00300,1,99,9","08,5,+02100,1,99,9","08,99,1,99,9,99,9,99999,9,99,9,99,9",,"10261,1,99999,9","61,1",,,"MET092METAR LPGR 270700Z 08010KT 2000 -RA SCT003 SCT010 OVC070 16/16 Q1026 RMK WIND RWY09 08014KT;",
"08515599999","2010-10-27T08:00:00","4","39.092169","-28.029847","26.21","GRACIOSA, PO","FM-15","LPGR ","V020","080,1,N,0051,1","00090,1,C,N","002000,1,N,1","+0160,1","+0160,1","99999,9","07,5,+00090,1,99,9","07,5,+00300,1,99,9",,"07,99,1,99,9,99,9,99999,9,99,9,99,9",,"10261,1,99999,9","51,1",,,"MET085METAR LPGR 270800Z 08010KT 2000 -DZ BKN003 BKN010 16/16 Q1026 RMK WIND RWY09 07014KT;",
"08515599999","2010-10-27T09:00:00","4","39.092169","-28.029847","26.21","GRACIOSA, PO","FM-15","LPGR ","V020","090,1,N,0051,1","00090,1,C,N","002000,1,N,1","+0170,1","+0170,1","99999,9","07,5,+00090,1,99,9","07,5,+00300,1,99,9",,"07,99,1,99,9,99,9,99999,9,99,9,99,9",,"10261,1,99999,9","51,1",,,"MET086METAR LPGR 270900Z 09010KT 2000E -DZ BKN003 BKN010 17/17 Q1026 RMK WIND RWY09 09012KT;",
"08515599999","2010-10-27T10:00:00","4","39.092169","-28.029847","26.21","GRACIOSA, PO","FM-15","LPGR ","V020","120,1,N,0051,1","00150,1,C,N","005000,1,N,1","+0170,1","+0170,1","99999,9","07,5,+00150,1,99,9","07,5,+00300,1,99,9",,"07,99,1,99,9,99,9,99999,9,99,9,99,9","999,M,+9999,9","10261,1,99999,9","51,1",,,"MET085METAR LPGR 271000Z 12010KT 5000 -DZ BKN005 BKN010 17/17 Q1026 RMK WIND RWY09 11009KT;","Q01 -00092ATMX  "
"08515599999","2010-10-27T11:00:00","4","39.092169","-28.029847","26.21","GRACIOSA, PO","FM-15","LPGR ","V020","140,1,N,0051,1","00300,1,C,N","011265,1,N,1","+0180,1","+0170,1","99999,9","02,5,+00150,1,99,9","04,5,+00300,1,99,9","07,5,+00750,1,99,9","07,99,1,99,9,99,9,99999,9,99,9,99,9",,"10261,1,99999,9",,,,"MET088METAR LPGR 271100Z 14010KT 9999 FEW005 SCT010 BKN025 18/17 Q1026 RMK WIND RWY09 12010KT;",
"08515599999","2010-10-27T17:00:00","4","39.092169","-28.029847","26.21","GRACIOSA, PO","FM-15","LPGR ","V020","230,1,N,0051,1","22000,1,9,N","011265,1,N,1","+0210,1","+0170,1","99999,9","02,5,+00480,1,99,9",,,"02,99,1,99,9,99,9,99999,9,99,9,99,9",,"10220,1,99999,9",,,,"MET074METAR LPGR 271700Z 23010KT 9999 FEW016 21/17 Q1022 RMK WIND RWY09 24012KT;",
"08515599999","2010-10-28T15:00:00","4","39.092169","-28.029847","26.21","GRACIOSA, PO","FM-15","LPGR ","V020","330,1,N,0072,1","22000,1,9,N","011265,1,N,1","+0180,1","+0100,1","99999,9","04,5,+00540,1,99,9",,,"04,99,1,99,9,99,9,99999,9,99,9,99,9",,"10169,1,99999,9",,,,"MET074METAR LPGR 281500Z 33014KT 9999 SCT018 18/10 Q1017 RMK WIND RWY09 32020KT;",
"08515599999","2010-10-28T16:00:00","4","39.092169","-28.029847","26.21","GRACIOSA, PO","FM-15","LPGR ","V020","330,1,N,0072,1","22000,1,9,N","011265,1,N,1","+0170,1","+0100,1","99999,9","02,5,+00540,1,99,9",,,"02,99,1,99,9,99,9,99999,9,99,9,99,9",,"10169,1,99999,9",,,,"MET074METAR LPGR 281600Z 33014KT 9999 FEW018 17/10 Q1017 RMK WIND RWY09 32018KT;",
"08515599999","2010-10-29T07:00:00","4","39.092169","-28.029847","26.21","GRACIOSA, PO","FM-15","LPGR ","V020","340,1,N,0051,1","22000,1,9,N","011265,1,N,1","+0160,1","+0110,1","99999,9","02,5,+00480,1,99,9",,,"02,99,1,99,9,99,9,99999,9,99,9,99,9",,"10190,1,99999,9",,,,"MET074METAR LPGR 290700Z 34010KT 9999 FEW016 16/11 Q1019 RMK WIND RWY09 32012KT;",
"08515599999","2010-10-29T08:00:00","4","39.092169","-28.029847","26.21","GRACIOSA, PO","FM-15","LPGR ","V020","320,1,N,0062,1","22000,1,9,N","011265,1,N,1","+0160,1","+0110,1","99999,9","02,5,+00480,1,99,9",,,"02,99,1,99,9,99,9,99999,9,99,9,99,9",,"10200,1,99999,9",,,,"MET074METAR LPGR 290800Z 32012KT 9999 FEW016 16/11 Q1020 RMK WIND RWY09 32014KT;",
"08515599999","2010-10-29T09:00:00","4","39.092169","-28.029847","26.21","GRACIOSA, PO","FM-15","LPGR ","V020","320,1,N,0072,1","22000,1,9,N","011265,1,N,1","+0160,1","+0090,1","99999,9","02,5,+00540,1,99,9",,,"02,99,1,99,9,99,9,99999,9,99,9,99,9",,"10200,1,99999,9",,,,"MET074METAR LPGR 290900Z 32014KT 9999 FEW018 16/09 Q1020 RMK WIND RWY09 30014KT;",
"08515599999","2010-10-29T16:00:00","4","39.092169","-28.029847","26.21","GRACIOSA, PO","FM-15","LPGR ","V020","300,1,N,0082,1","06300,1,C,N","011265,1,N,1","+0190,1","+0140,1","99999,9","04,5,+00540,1,99,9","07,5,+06300,1,99,9",,"07,99,1,99,9,99,9,99999,9,99,9,99,9",,"10190,1,99999,9",,,,"MET081METAR LPGR 291600Z 30016KT 9999 SCT018 BKN210 19/14 Q1019 RMK WIND RWY09 28024KT;",
"08515599999","2010-10-30T15:00:00","4","39.092169","-28.029847","26.21","GRACIOSA, PO","FM-15","LPGR ","V020","300,1,N,0082,1","22000,1,9,N","011265,1,N,1","+0210,1","+0190,1","99999,9","02,5,+00360,1,99,9",,,"02,99,1,99,9,99,9,99999,9,99,9,99,9",,"10190,1,99999,9",,,,"MET074METAR LPGR 301500Z 30016KT 9999 FEW012 21/19 Q1019 RMK WIND RWY09 30016KT;",
"08515599999","2010-10-30T16:00:00","4","39.092169","-28.029847","26.21","GRACIOSA, PO","FM-15","LPGR ","V020","320,1,N,0082,1","22000,1,9,N","011265,1,N,1","+0200,1","+0180,1","99999,9","02,5,+00360,1,99,9",,,"02,99,1,99,9,99,9,99999,9,99,9,99,9",,"10190,1,99999,9",,,,"MET074METAR LPGR 301600Z 32016KT 9999 FEW012 20/18 Q1019 RMK WIND RWY09 30014KT;",
"08515599999","2010-10-30T17:00:00","4","39.092169","-28.029847","26.21","GRACIOSA, PO","FM-15","LPGR ","V020","300,1,N,0072,1","22000,1,9,N","011265,1,N,1","+0200,1","+0180,1","99999,9","02,5,+00390,1,99,9",,,"02,99,1,99,9,99,9,99999,9,99,9,99,9",,"10200,1,99999,9",,,,"MET074METAR LPGR 301700Z 30014KT 9999 FEW013 20/18 Q1020 RMK WIND RWY09 30014KT;",
"08515599999","2010-10-31T09:00:00","4","39.092169","-28.029847","26.21","GRACIOSA, PO","FM-15","LPGR ","V020","180,1,N,0015,1","22000,1,9,N","011265,1,N,1","+0140,1","+0140,1","99999,9","02,5,+00390,1,99,9",,,"02,99,1,99,9,99,9,99999,9,99,9,99,9",,"10261,1,99999,9",,,,"MET074METAR LPGR 310900Z 18003KT 9999 FEW013 14/14 Q1026 RMK WIND RWY09 02002KT;",
"08515599999","2010-10-31T10:00:00","4","39.092169","-28.029847","26.21","GRACIOSA, PO","FM-15","LPGR ","V020","999,9,C,0000,1","22000,1,9,N","011265,1,N,1","+0170,1","+0160,1","99999,9","02,5,+00420,1,99,9",,,"02,99,1,99,9,99,9,99999,9,99,9,99,9",,"10271,1,99999,9",,,,"MET074METAR LPGR 311000Z 00000KT 9999 FEW014 17/16 Q1027 RMK WIND RWY09 00000KT;",
"08515599999","2010-10-31T11:00:00","4","39.092169","-28.029847","26.21","GRACIOSA, PO","FM-15","LPGR ","V020","999,9,C,0000,1","22000,1,9,N","011265,1,N,1","+0190,1","+0150,1","99999,9","02,5,+00420,1,99,9",,,"02,99,1,99,9,99,9,99999,9,99,9,99,9",,"10271,1,99999,9",,,,"MET074METAR LPGR 311100Z 00000KT 9999 FEW014 19/15 Q1027 RMK WIND RWY09 16004KT;",
"08515599999","2010-10-31T12:00:00","4","39.092169","-28.029847","26.21","GRACIOSA, PO","FM-15","LPGR ","V020","320,1,N,0021,1","22000,1,9,N","011265,1,N,1","+0200,1","+0150,1","99999,9","02,5,+00450,1,99,9",,,"02,99,1,99,9,99,9,99999,9,99,9,99,9",,"10281,1,99999,9",,,,"MET074METAR LPGR 311200Z 32004KT 9999 FEW015 20/15 Q1028 RMK WIND RWY09 21004KT;",
"08515599999","2010-11-01T09:00:00","4","39.092169","-28.029847","26.21","GRACIOSA, PO","FM-15","LPGR ","V020","230,1,N,0031,1","22000,1,9,N","011265,1,N,1","+0160,1","+0150,1","99999,9","02,5,+00420,1,99,9",,,"02,99,1,99,9,99,9,99999,9,99,9,99,9",,"10291,1,99999,9",,,,"MET074METAR LPGR 010900Z 23006KT 9999 FEW014 16/15 Q1029 RMK WIND RWY09 26004KT;",
"08515599999","2010-11-01T10:00:00","4","39.092169","-28.029847","26.21","GRACIOSA, PO","FM-15","LPGR ","V020","240,1,N,0031,1","22000,1,9,N","011265,1,N,1","+0180,1","+0160,1","99999,9","02,5,+00450,1,99,9",,,"02,99,1,99,9,99,9,99999,9,99,9,99,9",,"10291,1,99999,9",,,,"MET074METAR LPGR 011000Z 24006KT 9999 FEW015 18/16 Q1029 RMK WIND RWY09 23010KT;",
"08515599999","2010-11-01T11:00:00","4","39.092169","-28.029847","26.21","GRACIOSA, PO","FM-15","LPGR ","V020","230,1,N,0051,1","22000,1,9,N","011265,1,N,1","+0200,1","+0160,1","99999,9","02,5,+00480,1,99,9",,,"02,99,1,99,9,99,9,99999,9,99,9,99,9",,"10291,1,99999,9",,,,"MET074METAR LPGR 011100Z 23010KT 9999 FEW016 20/16 Q1029 RMK WIND RWY09 24010KT;",
"08515599999","2010-11-01T12:00:00","4","39.092169","-28.029847","26.21","GRACIOSA, PO","FM-15","LPGR ","V020","230,1,N,0057,1","22000,1,9,N","011265,1,N,1","+0210,1","+0150,1","99999,9","02,5,+00480,1,99,9",,,"02,99,1,99,9,99,9,99999,9,99,9,99,9",,"10291,1,99999,9",,,,"MET074METAR LPGR 011200Z 23011KT 9999 FEW016 21/15 Q1029 RMK WIND RWY09 23010KT;",
"08515599999","2010-11-02T09:00:00","4","39.092169","-28.029847","26.21","GRACIOSA, PO","FM-15","LPGR ","V020","200,1,N,0031,1","22000,1,9,N","011265,1,N,1","+0150,1","+0140,1","99999,9","02,5,+00450,1,99,9",,,"02,99,1,99,9,99,9,99999,9,99,9,99,9",,"10251,1,99999,9",,,,"MET074METAR LPGR 020900Z 20006KT 9999 FEW015 15/14 Q1025 RMK WIND RWY09 19003KT;",
"08515599999","2010-11-02T12:00:00","4","39.092169","-28.029847","26.21","GRACIOSA, PO","FM-15","LPGR ","V020","210,1,N,0051,1","22000,1,9,N","011265,1,N,1","+0210,1","+0140,1","99999,9","02,5,+00480,1,99,9",,,"02,99,1,99,9,99,9,99999,9,99,9,99,9",,"10251,1,99999,9",,,,"MET074METAR LPGR 021200Z 21010KT 9999 FEW016 21/14 Q1025 RMK WIND RWY09 19010KT;",
"08515599999","2010-11-02T13:00:00","4","39.092169","-28.029847","26.21","GRACIOSA, PO","FM-15","LPGR ","V020","220,1,N,0051,1","22000,1,9,N","011265,1,N,1","+0210,1","+0150,1","99999,9","02,5,+00480,1,99,9",,,"02,99,1,99,9,99,9,99999,9,99,9,99,9",,"10251,1,99999,9",,,,"MET074METAR LPGR 021300Z 22010KT 9999 FEW016 21/15 Q1025 RMK WIND RWY09 20011KT;",
"08515599999","2010-11-02T14:00:00","4","39.092169","-28.029847","26.21","GRACIOSA, PO","FM-15","LPGR ","V020","340,1,N,0031,1","22000,1,9,N","011265,1,N,1","+0210,1","+0150,1","99999,9","02,5,+00480,1,99,9",,,"02,99,1,99,9,99,9,99999,9,99,9,99,9",,"10240,1,99999,9",,,,"MET074METAR LPGR 021400Z 34006KT 9999 FEW016 21/15 Q1024 RMK WIND RWY09 32008KT;",
"08515599999","2010-11-02T15:00:00","4","39.092169","-28.029847","26.21","GRACIOSA, PO","FM-15","LPGR ","V020","280,1,N,0031,1","22000,1,9,N","011265,1,N,1","+0220,1","+0150,1","99999,9","02,5,+00480,1,99,9",,,"02,99,1,99,9,99,9,99999,9,99,9,99,9",,"10240,1,99999,9",,,,"MET074METAR LPGR 021500Z 28006KT 9999 FEW016 22/15 Q1024 RMK WIND RWY09 27010KT;",
"08515599999","2010-11-03T08:00:00","4","39.092169","-28.029847","26.21","GRACIOSA, PO","FM-15","LPGR ","V020","190,1,N,0031,1","22000,1,9,N","011265,1,N,1","+0160,1","+0130,1","99999,9","02,5,+00450,1,99,9",,,"02,99,1,99,9,99,9,99999,9,99,9,99,9",,"10200,1,99999,9",,,,"MET074METAR LPGR 030800Z 19006KT 9999 FEW015 16/13 Q1020 RMK WIND RWY09 19005KT;",
"08515599999","2010-11-03T10:00:00","4","39.092169","-28.029847","26.21","GRACIOSA, PO","FM-15","LPGR ","V020","170,1,N,0026,1","22000,1,9,N","011265,1,N,1","+0190,1","+0140,1","99999,9","02,5,+00480,1,99,9",,,"02,99,1,99,9,99,9,99999,9,99,9,99,9",,"10200,1,99999,9",,,,"MET074METAR LPGR 031000Z 17005KT 9999 FEW016 19/14 Q1020 RMK WIND RWY09 18005KT;",
"08515599999","2010-11-03T11:00:00","4","39.092169","-28.029847","26.21","GRACIOSA, PO","FM-15","LPGR ","V020","180,1,N,0031,1","22000,1,9,N","011265,1,N,1","+0210,1","+0150,1","99999,9","02,5,+00480,1,99,9",,,"02,99,1,99,9,99,9,99999,9,99,9,99,9",,"10200,1,99999,9",,,,"MET074METAR LPGR 031100Z 18006KT 9999 FEW016 21/15 Q1020 RMK WIND RWY09 19006KT;",
"08515599999","2010-11-03T14:00:00","4","39.092169","-28.029847","26.21","GRACIOSA, PO","FM-15","LPGR ","V020","200,1,N,0077,1","99999,9,C,N","011265,1,N,1","+0220,1","+0150,1","99999,9","02,5,+00540,1,99,9","04,5,+01050,1,99,9",,"04,99,1,99,9,99,9,99999,9,99,9,99,9",,"10200,1,99999,9",,,,"MET081METAR LPGR 031400Z 20015KT 9999 FEW018 SCT035 22/15 Q1020 RMK WIND RWY09 19014KT;","P01 010503SCOCIG"
"08515599999","2010-11-03T15:00:00","4","39.092169","-28.029847","26.21","GRACIOSA, PO","FM-15","LPGR ","V020","190,1,N,0062,1","00900,1,C,N","011265,1,N,1","+0210,1","+0160,1","99999,9","02,5,+00480,1,99,9","07,5,+00900,1,99,9",,"07,99,1,99,9,99,9,99999,9,99,9,99,9",,"10190,1,99999,9",,,,"MET081METAR LPGR 031500Z 19012KT 9999 FEW016 BKN030 21/16 Q1019 RMK WIND RWY09 18013KT;",
"08515599999","2010-11-04T10:00:00","4","39.092169","-28.029847","26.21","GRACIOSA, PO","FM-15","LPGR ","V020","190,1,N,0041,1","22000,1,9,N","011265,1,N,1","+0200,1","+0160,1","99999,9","02,5,+00480,1,99,9",,,"02,99,1,99,9,99,9,99999,9,99,9,99,9",,"10200,1,99999,9",,,,"MET074METAR LPGR 041000Z 19008KT 9999 FEW016 20/16 Q1020 RMK WIND RWY09 18013KT;",
"08515599999","2010-11-04T11:00:00","4","39.092169","-28.029847","26.21","GRACIOSA, PO","FM-15","LPGR ","V020","190,1,N,0062,1","22000,1,9,N","011265,1,N,1","+0210,1","+0170,1","99999,9","02,5,+00480,1,99,9",,,"02,99,1,99,9,99,9,99999,9,99,9,99,9",,"10200,1,99999,9",,,,"MET074METAR LPGR 041100Z 19012KT 9999 FEW016 21/17 Q1020 RMK WIND RWY09 18012KT;",
"08515599999","2010-11-04T13:00:00","4","39.092169","-28.029847","26.21","GRACIOSA, PO","FM-15","LPGR ","V020","180,1,N,0067,1","22000,1,9,N","011265,1,N,1","+0220,1","+0180,1","99999,9","02,5,+00420,1,99,9",,,"02,99,1,99,9,99,9,99999,9,99,9,99,9",,"10200,1,99999,9",,,,"MET074METAR LPGR 041300Z 18013KT 9999 FEW014 22/18 Q1020 RMK WIND RWY09 16014KT;",
"08515599999","2010-11-04T14:00:00","4","39.092169","-28.029847","26.21","GRACIOSA, PO","FM-15","LPGR ","V020","180,1,N,0067,1","22000,1,9,N","011265,1,N,1","+0220,1","+0180,1","99999,9","02,5,+00360,1,99,9",,,"02,99,1,99,9,99,9,99999,9,99,9,99,9",,"10190,1,99999,9",,,,"MET074METAR LPGR 041400Z 18013KT 9999 FEW012 22/18 Q1019 RMK WIND RWY09 17013KT;",
"08515599999","2010-11-04T15:00:00","4","39.092169","-28.029847","26.21","GRACIOSA, PO","FM-15","LPGR ","V020","180,1,N,0067,1","22000,1,9,N","011265,1,N,1","+0220,1","+0180,1","99999,9","02,5,+00360,1,99,9",,,"02,99,1,99,9,99,9,99999,9,99,9,99,9",,"10190,1,99999,9",,,,"MET074METAR LPGR 041500Z 18013KT 9999 FEW012 22/18 Q1019 RMK WIND RWY09 16013KT;",
"08515599999","2010-11-05T09:00:00","4","39.092169","-28.029847","26.21","GRACIOSA, PO","FM-15","LPGR ","V020","190,1,N,0031,1","06300,1,C,N","011265,1,N,1","+0190,1","+0160,1","99999,9","02,5,+00420,1,99,9","07,5,+06300,1,99,9",,"07,99,1,99,9,99,9,99999,9,99,9,99,9",,"10200,1,99999,9",,,,"MET081METAR LPGR 050900Z 19006KT 9999 FEW014 BKN210 19/16 Q1020 RMK WIND RWY09 19008KT;",
"08515599999","2010-11-05T10:00:00","4","39.092169","-28.029847","26.21","GRACIOSA, PO","FM-15","LPGR ","V020","190,1,N,0026,1","06300,1,C,N","011265,1,N,1","+0200,1","+0170,1","99999,9","02,5,+00420,1,99,9","07,5,+06300,1,99,9",,"07,99,1,99,9,99,9,99999,9,99,9,99,9",,"10200,1,99999,9",,,,"MET081METAR LPGR 051000Z 19005KT 9999 FEW014 BKN210 20/17 Q1020 RMK WIND RWY09 19005KT;",
"08515599999","2010-11-05T11:00:00","4","39.092169","-28.029847","26.21","GRACIOSA, PO","FM-15","LPGR ","V020","120,1,N,0031,1","06300,1,C,N","011265,1,N,1","+0220,1","+0170,1","99999,9","02,5,+00420,1,99,9","07,5,+06300,1,99,9",,"07,99,1,99,9,99,9,99999,9,99,9,99,9",,"10200,1,99999,9",,,,"MET081METAR LPGR 051100Z 12006KT 9999 FEW014 BKN210 22/17 Q1020 RMK WIND RWY09 13006KT;",
"08515599999","2010-11-05T12:00:00","4","39.092169","-28.029847","26.21","GRACIOSA, PO","FM-15","LPGR ","V020","180,1,N,0041,1","06300,1,C,N","011265,1,N,1","+0230,1","+0170,1","99999,9","02,5,+00480,1,99,9","07,5,+06300,1,99,9",,"07,99,1,99,9,99,9,99999,9,99,9,99,9",,"10210,1,99999,9",,,,"MET081METAR LPGR 051200Z 18008KT 9999 FEW016 BKN210 23/17 Q1021 RMK WIND RWY09 17010KT;",
"08515599999","2010-11-05T13:00:00","4","39.092169","-28.029847","26.21","GRACIOSA, PO","FM-15","LPGR ","V020","190,1,N,0062,1","06300,1,C,N","011265,1,N,1","+0230,1","+0170,1","99999,9","02,5,+00480,1,99,9","07,5,+06300,1,99,9",,"07,99,1,99,9,99,9,99999,9,99,9,99,9",,"10200,1,99999,9",,,,"MET081METAR LPGR 051300Z 19012KT 9999 FEW016 BKN210 23/17 Q1020 RMK WIND RWY09 17011KT;",
"08515599999","2010-11-05T14:00:00","4","39.092169","-28.029847","26.21","GRACIOSA, PO","FM-15","LPGR ","V020","200,1,N,0057,1","06300,1,C,N","011265,1,N,1","+0230,1","+0170,1","99999,9","02,5,+00420,1,99,9","07,5,+06300,1,99,9",,"07,99,1,99,9,99,9,99999,9,99,9,99,9",,"10200,1,99999,9",,,,"MET081METAR LPGR 051400Z 20011KT 9999 FEW014 BKN210 23/17 Q1020 RMK WIND RWY09 19013KT;",
"08515599999","2010-11-06T16:00:00","4","39.092169","-28.029847","26.21","GRACIOSA, PO","FM-15","LPGR ","V020","040,1,N,0062,1","00300,1,C,N","008000,1,N,1","+0190,1","+0180,1","99999,9","04,5,+00180,1,99,9","07,5,+00300,1,99,9","07,5,+00750,1,99,9","07,99,1,99,9,99,9,99999,9,99,9,99,9",,"10291,1,99999,9","51,1",,,"MET092METAR LPGR 061600Z 04012KT 8000 -DZ SCT006 BKN010 BKN025 19/18 Q1029 RMK WIND RWY09 05015KT;",
"08515599999","2010-11-06T17:00:00","4","39.092169","-28.029847","26.21","GRACIOSA, PO","FM-15","LPGR ","V020","060,1,N,0067,1","00300,1,C,N","009000,1,N,1","+0180,1","+0180,1","99999,9","04,5,+00180,1,99,9","07,5,+00300,1,99,9","07,5,+00750,1,99,9","07,99,1,99,9,99,9,99999,9,99,9,99,9",,"10301,1,99999,9",,,,"MET088METAR LPGR 061700Z 06013KT 9000 SCT006 BKN010 BKN025 18/18 Q1030 RMK WIND RWY09 05014KT;",
"08515599999","2010-11-06T18:00:00","4","39.092169","-28.029847","26.21","GRACIOSA, PO","FM-15","LPGR ","V020","050,1,N,0077,1","00300,1,C,N","009000,1,N,1","+0180,1","+0170,1","99999,9","04,5,+00150,1,99,9","07,5,+00300,1,99,9",,"07,99,1,99,9,99,9,99999,9,99,9,99,9",,"10301,1,99999,9",,,,"MET089METAR LPGR 061800Z 05015KT 020V080 9000 SCT005 BKN010 18/17 Q1030 RMK WIND RWY09 05019KT;",
"08515599999","2010-11-07T10:00:00","4","39.092169","-28.029847","26.21","GRACIOSA, PO","FM-15","LPGR ","V020","050,1,N,0062,1","00750,1,C,N","011265,1,N,1","+0170,1","+0110,1","99999,9","02,5,+00420,1,99,9","07,5,+00750,1,99,9",,"07,99,1,99,9,99,9,99999,9,99,9,99,9",,"10339,1,99999,9",,,,"MET081METAR LPGR 071000Z 05012KT 9999 FEW014 BKN025 17/11 Q1034 RMK WIND RWY09 05016KT;",
"08515599999","2010-11-07T11:00:00","4","39.092169","-28.029847","26.21","GRACIOSA, PO","FM-15","LPGR ","V020","050,1,N,0072,1","00900,1,C,N","011265,1,N,1","+0170,1","+0100,1","99999,9","02,5,+00450,1,99,9","07,5,+00900,1,99,9",,"07,99,1,99,9,99,9,99999,9,99,9,99,9",,"10339,1,99999,9",,,,"MET081METAR LPGR 071100Z 05014KT 9999 FEW015 BKN030 17/10 Q1034 RMK WIND RWY09 06014KT;",
"08515599999","2010-11-07T12:00:00","4","39.092169","-28.029847","26.21","GRACIOSA, PO","FM-15","LPGR ","V020","060,1,N,0067,1","00900,1,C,N","011265,1,N,1","+0170,1","+0110,1","99999,9","02,5,+00450,1,99,9","07,5,+00900,1,99,9",,"07,99,1,99,9,99,9,99999,9,99,9,99,9",,"10339,1,99999,9",,,,"MET081METAR LPGR 071200Z 06013KT 9999 FEW015 BKN030 17/11 Q1034 RMK WIND RWY09 06015KT;",
"08515599999","2010-11-08T09:00:00","4","39.092169","-28.029847","26.21","GRACIOSA, PO","FM-15","LPGR ","V020","010,1,N,0057,1","00900,1,C,N","011265,1,N,1","+0150,1","+0100,1","99999,9","02,5,+00450,1,99,9","07,5,+00900,1,99,9",,"07,99,1,99,9,99,9,99999,9,99,9,99,9",,"10281,1,99999,9",,,,"MET081METAR LPGR 080900Z 01011KT 9999 FEW015 BKN030 15/10 Q1028 RMK WIND RWY09 36011KT;",
"08515599999","2010-11-08T10:00:00","4","39.092169","-28.029847","26.21","GRACIOSA, PO","FM-15","LPGR ","V020","010,1,N,0051,1","00900,1,C,N","011265,1,N,1","+0160,1","+0100,1","99999,9","02,5,+00450,1,99,9","07,5,+00900,1,99,9",,"07,99,1,99,9,99,9,99999,9,99,9,99,9",,"10281,1,99999,9",,,,"MET081METAR LPGR 081000Z 01010KT 9999 FEW015 BKN030 16/10 Q1028 RMK WIND RWY09 35012KT;",
"08515599999","2010-11-08T11:00:00","4","39.092169","-28.029847","26.21","GRACIOSA, PO","FM-15","LPGR ","V020","010,1,N,0051,1","00900,1,C,N","011265,1,N,1","+0160,1","+0110,1","99999,9","02,5,+00450,1,99,9","07,5,+00900,1,99,9",,"07,99,1,99,9,99,9,99999,9,99,9,99,9",,"10281,1,99999,9",,,,"MET081METAR LPGR 081100Z 01010KT 9999 FEW015 BKN030 16/11 Q1028 RMK WIND RWY09 01011KT;",
"08515599999","2010-11-08T12:00:00","4","39.092169","-28.029847","26.21","GRACIOSA, PO","FM-15","LPGR ","V020","010,1,N,0062,1","00900,1,C,N","011265,1,N,1","+0160,1","+0110,1","99999,9","02,5,+00450,1,99,9","07,5,+00900,1,99,9",,"07,99,1,99,9,99,9,99999,9,99,9,99,9",,"10281,1,99999,9",,,,"MET081METAR LPGR 081200Z 01012KT 9999 FEW015 BKN030 16/11 Q1028 RMK WIND RWY09 01012KT;",
"08515599999","2010-11-09T09:00:00","4","39.092169","-28.029847","26.21","GRACIOSA, PO","FM-15","LPGR ","V020","360,1,N,0041,1","00420,1,C,N","009000,1,N,1","+0150,1","+0130,1","99999,9","07,5,+00420,1,99,9","07,5,+00900,1,99,9",,"07,99,1,99,9,99,9,99999,9,99,9,99,9",,"10220,1,99999,9","80,1",,,"MET087METAR LPGR 090900Z 36008KT 9000 -SHRA BKN014 BKN030 15/13 Q1022 RMK WIND RWY09 33008KT;",
"08515599999","2010-11-09T10:00:00","4","39.092169","-28.029847","26.21","GRACIOSA, PO","FM-15","LPGR ","V020","010,1,N,0062,1","00750,1,C,N","011265,1,N,1","+0150,1","+0120,1","99999,9","04,5,+00420,1,99,9","07,5,+00750,1,99,9",,"07,99,1,99,9,99,9,99999,9,99,9,99,9",,"10220,1,99999,9",,,,"MET081METAR LPGR 091000Z 01012KT 9999 SCT014 BKN025 15/12 Q1022 RMK WIND RWY09 01012KT;",
"08515599999","2010-11-09T11:00:00","4","39.092169","-28.029847","26.21","GRACIOSA, PO","FM-15","LPGR ","V020","360,1,N,0051,1","00750,1,C,N","011265,1,N,1","+0160,1","+0120,1","99999,9","02,5,+00420,1,99,9","07,5,+00750,1,99,9",,"07,99,1,99,9,99,9,99999,9,99,9,99,9",,"10220,1,99999,9",,,,"MET081METAR LPGR 091100Z 36010KT 9999 FEW014 BKN025 16/12 Q1022 RMK WIND RWY09 35011KT;",
"08515599999","2010-11-09T12:00:00","4","39.092169","-28.029847","26.21","GRACIOSA, PO","FM-15","LPGR ","V020","010,1,N,0057,1","00900,1,C,N","011265,1,N,1","+0170,1","+0120,1","99999,9","02,5,+00450,1,99,9","07,5,+00900,1,99,9",,"07,99,1,99,9,99,9,99999,9,99,9,99,9",,"10220,1,99999,9",,,,"MET081METAR LPGR 091200Z 01011KT 9999 FEW015 BKN030 17/12 Q1022 RMK WIND RWY09 36013KT;",
"08515599999","2010-11-09T13:00:00","4","39.092169","-28.029847","26.21","GRACIOSA, PO","FM-15","LPGR ","V020","020,1,N,0051,1","00900,1,C,N","011265,1,N,1","+0170,1","+0110,1","99999,9","02,5,+00450,1,99,9","07,5,+00900,1,99,9",,"07,99,1,99,9,99,9,99999,9,99,9,99,9",,"10220,1,99999,9",,,,"MET081METAR LPGR 091300Z 02010KT 9999 FEW015 BKN030 17/11 Q1022 RMK WIND RWY09 02011KT;",
"08515599999","2010-11-09T14:00:00","4","39.092169","-28.029847","26.21","GRACIOSA, PO","FM-15","LPGR ","V020","350,1,N,0041,1","00900,1,C,N","011265,1,N,1","+0160,1","+0130,1","99999,9","04,5,+00450,1,99,9","07,5,+00900,1,99,9",,"07,99,1,99,9,99,9,99999,9,99,9,99,9",,"10220,1,99999,9","16,1",,,"MET086METAR LPGR 091400Z 35008KT 9999 VCSH SCT015 BKN030 16/13 Q1022 RMK WIND RWY09 36005KT;",
"08515599999","2010-11-09T15:00:00","4","39.092169","-28.029847","26.21","GRACIOSA, PO","FM-15","LPGR ","V020","030,1,N,0051,1","99999,9,C,N","011265,1,N,1","+0170,1","+0120,1","99999,9","02,5,+00450,1,99,9","04,5,+00900,1,99,9",,"04,99,1,99,9,99,9,99999,9,99,9,99,9",,"10210,1,99999,9",,,,"MET081METAR LPGR 091500Z 03010KT 9999 FEW015 SCT030 17/12 Q1021 RMK WIND RWY09 02010KT;","P01 009003SCOCIG"
"08515599999","2010-11-09T16:00:00","4","39.092169","-28.029847","26.21","GRACIOSA, PO","FM-15","LPGR ","V020","010,1,N,0036,1","00900,1,C,N","011265,1,N,1","+0170,1","+0120,1","99999,9","02,5,+00450,1,99,9","07,5,+00900,1,99,9",,"07,99,1,99,9,99,9,99999,9,99,9,99,9",,"10210,1,99999,9",,,,"MET081METAR LPGR 091600Z 01007KT 9999 FEW015 BKN030 17/12 Q1021 RMK WIND RWY09 02008KT;",
"08515599999","2010-11-10T08:00:00","4","39.092169","-28.029847","26.21","GRACIOSA, PO","FM-15","LPGR ","V020","020,1,N,0031,1","00900,1,C,N","011265,1,N,1","+0150,1","+0140,1","99999,9","02,5,+00360,1,99,9","07,5,+00900,1,99,9",,"07,99,1,99,9,99,9,99999,9,99,9,99,9",,"10210,1,99999,9",,,,"MET081METAR LPGR 100800Z 02006KT 9999 FEW012 BKN030 15/14 Q1021 RMK WIND RWY09 29004KT;",
"08515599999","2010-11-10T09:00:00","4","39.092169","-28.029847","26.21","GRACIOSA, PO","FM-15","LPGR ","V020","020,1,N,0010,1","99999,9,C,N","011265,1,N,1","+0150,1","+0140,1","99999,9","04,5,+00360,1,99,9","04,5,+00900,1,99,9",,"04,99,1,99,9,99,9,99999,9,99,9,99,9",,"10220,1,99999,9",,,,"MET081METAR LPGR 100900Z 02002KT 9999 SCT012 SCT030 15/14 Q1022 RMK WIND RWY09 22005KT;","P01 009003SCOCIG"
"08515599999","2010-11-10T10:00:00","4","39.092169","-28.029847","26.21","GRACIOSA, PO","FM-15","LPGR ","V020","030,1,N,0015,1","99999,9,C,N","011265,1,N,1","+0160,1","+0140,1","99999,9","04,5,+00360,1,99,9","04,5,+00900,1,99,9",,"04,99,1,99,9,99,9,99999,9,99,9,99,9",,"10230,1,99999,9","16,1",,,"MET086METAR LPGR 101000Z 03003KT 9999 VCSH SCT012 SCT030 16/14 Q1023 RMK WIND RWY09 22002KT;","P01 009003SCOCIG"
"08515599999","2010-11-10T11:00:00","4","39.092169","-28.029847","26.21","GRACIOSA, PO","FM-15","LPGR ","V020","030,1,N,0026,1","99999,9,C,N","011265,1,N,1","+0160,1","+0150,1","99999,9","04,5,+00360,1,99,9","04,5,+00900,1,99,9",,"04,99,1,99,9,99,9,99999,9,99,9,99,9",,"10230,1,99999,9",,,,"MET081METAR LPGR 101100Z 03005KT 9999 SCT012 SCT030 16/15 Q1023 RMK WIND RWY09 12006KT;","P01 009003SCOCIG"
"08515599999","2010-11-10T12:00:00","4","39.092169","-28.029847","26.21","GRACIOSA, PO","FM-15","LPGR ","V020","350,1,N,0021,1","00900,1,C,N","009000,1,N,1","+0160,1","+0150,1","99999,9","04,5,+00330,1,99,9","07,5,+00900,1,99,9",,"07,99,1,99,9,99,9,99999,9,99,9,99,9",,"10230,1,99999,9","80,1",,,"MET087METAR LPGR 101200Z 35004KT 9000 -SHRA SCT011 BKN030 16/15 Q1023 RMK WIND RWY09 35004KT;",
"08515599999","2010-11-10T13:00:00","4","39.092169","-28.029847","26.21","GRACIOSA, PO","FM-15","LPGR ","V020","350,1,N,0021,1","00900,1,C,N","011265,1,N,1","+0170,1","+0150,1","99999,9","04,5,+00300,1,99,9","07,5,+00900,1,99,9",,"07,99,1,99,9,99,9,99999,9,99,9,99,9",,"10230,1,99999,9",,,,"MET081METAR LPGR 101300Z 35004KT 9999 SCT010 BKN030 17/15 Q1023 RMK WIND RWY09 35004KT;",
"08515599999","2010-11-10T14:00:00","4","39.092169","-28.029847","26.21","GRACIOSA, PO","FM-15","LPGR ","V020","310,1,N,0021,1","99999,9,C,N","011265,1,N,1","+0170,1","+0150,1","99999,9","04,5,+00330,1,99,9","04,5,+00900,1,99,9",,"04,99,1,99,9,99,9,99999,9,99,9,99,9",,"10220,1,99999,9",,,,"MET081METAR LPGR 101400Z 31004KT 9999 SCT011 SCT030 17/15 Q1022 RMK WIND RWY09 32005KT;","P01 009003SCOCIG"
"08515599999","2010-11-10T15:00:00","4","39.092169","-28.029847","26.21","GRACIOSA, PO","FM-15","LPGR ","V020","320,1,N,0026,1","99999,9,C,N","011265,1,N,1","+0180,1","+0150,1","99999,9","02,5,+00180,1,99,9","04,5,+00330,1,99,9",,"04,99,1,99,9,99,9,99999,9,99,9,99,9",,"10220,1,99999,9",,,,"MET081METAR LPGR 101500Z 32005KT 9999 FEW006 SCT011 18/15 Q1022 RMK WIND RWY09 29007KT;","P01 003303SCOCIG"
"08515599999","2010-11-11T09:00:00","4","39.092169","-28.029847","26.21","GRACIOSA, PO","FM-15","LPGR ","V020","250,1,N,0051,1","00900,1,C,N","011265,1,N,1","+0180,1","+0130,1","99999,9","02,5,+00480,1,99,9","07,5,+00900,1,99,9",,"07,99,1,99,9,99,9,99999,9,99,9,99,9",,"10220,1,99999,9",,,,"MET081METAR LPGR 110900Z 25010KT 9999 FEW016 BKN030 18/13 Q1022 RMK WIND RWY09 24012KT;",
"08515599999","2010-11-11T10:00:00","4","39.092169","-28.029847","26.21","GRACIOSA, PO","FM-15","LPGR ","V020","240,1,N,0041,1","00900,1,C,N","011265,1,N,1","+0180,1","+0130,1","99999,9","02,5,+00480,1,99,9","07,5,+00900,1,99,9",,"07,99,1,99,9,99,9,99999,9,99,9,99,9",,"10220,1,99999,9",,,,"MET081METAR LPGR 111000Z 24008KT 9999 FEW016 BKN030 18/13 Q1022 RMK WIND RWY09 23010KT;",
"08515599999","2010-11-11T11:00:00","4","39.092169","-28.029847","26.21","GRACIOSA, PO","FM-15","LPGR ","V020","240,1,N,0051,1","00900,1,C,N","011265,1,N,1","+0190,1","+0140,1","99999,9","02,5,+00480,1,99,9","07,5,+00900,1,99,9",,"07,99,1,99,9,99,9,99999,9,99,9,99,9",,"10220,1,99999,9",,,,"MET081METAR LPGR 111100Z 24010KT 9999 FEW016 BKN030 19/14 Q1022 RMK WIND RWY09 22012KT;",
"08515599999","2010-11-11T12:00:00","4","39.092169","-28.029847","26.21","GRACIOSA, PO","FM-15","LPGR ","V020","230,1,N,0046,1","00900,1,C,N","011265,1,N,1","+0190,1","+0140,1","99999,9","02,5,+00480,1,99,9","07,5,+00900,1,99,9",,"07,99,1,99,9,99,9,99999,9,99,9,99,9",,"10220,1,99999,9",,,,"MET081METAR LPGR 111200Z 23009KT 9999 FEW016 BKN030 19/14 Q1022 RMK WIND RWY09 23010KT;",
"08515599999","2010-11-11T13:00:00","4","39.092169","-28.029847","26.21","GRACIOSA, PO","FM-15","LPGR ","V020","220,1,N,0041,1","00900,1,C,N","011265,1,N,1","+0190,1","+0130,1","99999,9","02,5,+00480,1,99,9","07,5,+00900,1,99,9",,"07,99,1,99,9,99,9,99999,9,99,9,99,9",,"10220,1,99999,9",,,,"MET081METAR LPGR 111300Z 22008KT 9999 FEW016 BKN030 19/13 Q1022 RMK WIND RWY09 21010KT;",
"08515599999","2010-11-11T14:00:00","4","39.092169","-28.029847","26.21","GRACIOSA, PO","FM-15","LPGR ","V020","220,1,N,0051,1","22000,1,9,N","011265,1,N,1","+0200,1","+0150,1","99999,9","02,5,+00480,1,99,9",,,"02,99,1,99,9,99,9,99999,9,99,9,99,9",,"10210,1,99999,9",,,,"MET074METAR LPGR 111400Z 22010KT 9999 FEW016 20/15 Q1021 RMK WIND RWY09 21010KT;",
"08515599999","2010-11-12T09:00:00","4","39.092169","-28.029847","26.21","GRACIOSA, PO","FM-15","LPGR ","V020","230,1,N,0082,1","99999,9,C,N","011265,1,N,1","+0190,1","+0180,1","99999,9","02,5,+00360,1,99,9","04,5,+00900,1,99,9",,"04,99,1,99,9,99,9,99999,9,99,9,99,9",,"10159,1,99999,9",,,,"MET081METAR LPGR 120900Z 23016KT 9999 FEW012 SCT030 19/18 Q1016 RMK WIND RWY09 22017KT;","P01 009003SCOCIG"
"08515599999","2010-11-12T12:00:00","4","39.092169","-28.029847","26.21","GRACIOSA, PO","FM-15","LPGR ","V020","240,1,N,0103,1","99999,9,C,N","011265,1,N,1","+0200,1","+0180,1","99999,9","02,5,+00360,1,99,9","04,5,+02400,1,99,9",,"04,99,1,99,9,99,9,99999,9,99,9,99,9",,"10159,1,99999,9",,,"0154,1","MET084METAR LPGR 121200Z 24020G30KT 9999 FEW012 SCT080 20/18 Q1016 RMK WIND RWY09 23020KT;","P01 024003SCOCIG"
"08515599999","2010-11-12T13:00:00","4","39.092169","-28.029847","26.21","GRACIOSA, PO","FM-15","LPGR ","V020","240,1,N,0098,1","00360,1,C,N","011265,1,N,1","+0210,1","+0190,1","99999,9","02,5,+00300,1,99,9","07,5,+00360,1,99,9",,"07,99,1,99,9,99,9,99999,9,99,9,99,9",,"10159,1,99999,9",,,"0154,1","MET084METAR LPGR 121300Z 24019G30KT 9999 FEW010 BKN012 21/19 Q1016 RMK WIND RWY09 24020KT;",
"08515599999","2010-11-12T14:00:00","4","39.092169","-28.029847","26.21","GRACIOSA, PO","FM-15","LPGR ","V020","240,1,N,0093,1","99999,9,C,N","011265,1,N,1","+0210,1","+0190,1","99999,9","02,5,+00300,1,99,9","04,5,+00360,1,99,9",,"04,99,1,99,9,99,9,99999,9,99,9,99,9",,"10149,1,99999,9",,,,"MET081METAR LPGR 121400Z 24018KT 9999 FEW010 SCT012 21/19 Q1015 RMK WIND RWY09 24018KT;","P01 003603SCOCIG"
"08515599999","2010-11-13T09:00:00","4","39.092169","-28.029847","26.21","GRACIOSA, PO","FM-15","LPGR ","V020","340,1,N,0067,1","99999,9,C,N","011265,1,N,1","+0150,1","+0090,1","99999,9","02,5,+00480,1,99,9","04,5,+06300,1,99,9",,"04,99,1,99,9,99,9,99999,9,99,9,99,9",,"10149,1,99999,9",,,,"MET081METAR LPGR 130900Z 34013KT 9999 FEW016 SCT210 15/09 Q1015 RMK WIND RWY09 33017KT;","P01 063003SCOCIG"
"08515599999","2010-11-13T17:00:00","4","39.092169","-28.029847","26.21","GRACIOSA, PO","FM-15","LPGR ","V020","020,1,N,0082,1","99999,9,C,N","011265,1,N,1","+0150,1","+0080,1","99999,9","04,5,+00480,1,99,9","04,5,+00900,1,99,9",,"04,99,1,99,9,99,9,99999,9,99,9,99,9",,"10169,1,99999,9",,,,"MET081METAR LPGR 131700Z 02016KT 9999 SCT016 SCT030 15/08 Q1017 RMK WIND RWY09 01017KT;","P01 009003SCOCIG"
"08515599999","2010-11-14T09:00:00","4","39.092169","-28.029847","26.21","GRACIOSA, PO","FM-15","LPGR ","V020","060,1,N,0036,1","00750,1,C,N","011265,1,N,1","+0140,1","+0060,1","99999,9","02,5,+00540,1,99,9","07,5,+00750,1,99,9",,"07,99,1,99,9,99,9,99999,9,99,9,99,9",,"10220,1,99999,9",,,,"MET081METAR LPGR 140900Z 06007KT 9999 FEW018 BKN025 14/06 Q1022 RMK WIND RWY09 06007KT;",
"08515599999","2010-11-14T10:00:00","4","39.092169","-28.029847","26.21","GRACIOSA, PO","FM-15","LPGR ","V020","070,1,N,0041,1","00750,1,C,N","011265,1,N,1","+0150,1","+0060,1","99999,9","02,5,+00540,1,99,9","07,5,+00750,1,99,9",,"07,99,1,99,9,99,9,99999,9,99,9,99,9",,"10230,1,99999,9",,,,"MET081METAR LPGR 141000Z 07008KT 9999 FEW018 BKN025 15/06 Q1023 RMK WIND RWY09 08011KT;",
"08515599999","2010-11-14T11:00:00","4","39.092169","-28.029847","26.21","GRACIOSA, PO","FM-15","LPGR ","V020","050,1,N,0031,1","00900,1,C,N","011265,1,N,1","+0160,1","+0050,1","99999,9","02,5,+00600,1,99,9","07,5,+00900,1,99,9",,"07,99,1,99,9,99,9,99999,9,99,9,99,9",,"10230,1,99999,9",,,,"MET081METAR LPGR 141100Z 05006KT 9999 FEW020 BKN030 16/05 Q1023 RMK WIND RWY09 07010KT;",
"08515599999","2010-11-14T12:00:00","4","39.092169","-28.029847","26.21","GRACIOSA, PO","FM-15","LPGR ","V020","080,1,N,0036,1","99999,9,C,N","011265,1,N,1","+0160,1","+0050,1","99999,9","02,5,+00600,1,99,9","04,5,+01050,1,99,9",,"04,99,1,99,9,99,9,99999,9,99,9,99,9",,"10230,1,99999,9",,,,"MET081METAR LPGR 141200Z 08007KT 9999 FEW020 SCT035 16/05 Q1023 RMK WIND RWY09 07010KT;","P01 010503SCOCIG"
"08515599999","2010-11-15T09:00:00","4","39.092169","-28.029847","26.21","GRACIOSA, PO","FM-15","LPGR ","V020","160,1,N,0108,1","06300,1,C,N","011265,1,N,1","+0180,1","+0120,1","99999,9","02,5,+00450,1,99,9","07,5,+06300,1,99,9",,"07,99,1,99,9,99,9,99999,9,99,9,99,9",,"10169,1,99999,9",,,"0170,1","MET084METAR LPGR 150900Z 16021G33KT 9999 FEW015 BKN210 18/12 Q1017 RMK WIND RWY09 17020KT;",
"08515599999","2010-11-15T10:00:00","4","39.092169","-28.029847","26.21","GRACIOSA, PO","FM-15","LPGR ","V020","160,1,N,0103,1","06300,1,C,N","011265,1,N,1","+0180,1","+0130,1","99999,9","02,5,+00480,1,99,9","07,5,+06300,1,99,9",,"07,99,1,99,9,99,9,99999,9,99,9,99,9",,"10159,1,99999,9",,,"0154,1","MET087METAR LPGR 151000Z 16020G30KT 9999 FEW016 BKN210 18/13 Q1016 RMK WIND RWY09 16020G30KT;",
"08515599999","2010-11-15T11:00:00","4","39.092169","-28.029847","26.21","GRACIOSA, PO","FM-15","LPGR ","V020","190,1,N,0098,1","06300,5,9,N","999999,9,N,1","+0190,1","+0140,1","99999,9","02,5,+00480,5,99,9","07,5,+06300,5,99,9",,,,"10150,1,99999,9",,,"0165,1","MET098METAR LPGR 151100Z 19019G32KT 140V210 FEW016 BKN210 19/14 Q1015 RMK WIND RWY09 18018G31KT 140V210;",
"08515599999","2010-11-15T12:00:00","4","39.092169","-28.029847","26.21","GRACIOSA, PO","FM-15","LPGR ","V020","180,1,N,0103,1","06300,1,C,N","011265,1,N,1","+0190,1","+0140,1","99999,9","02,5,+00480,1,99,9","07,5,+06300,1,99,9",,"07,99,1,99,9,99,9,99999,9,99,9,99,9",,"10139,1,99999,9",,,"0154,1","MET103METAR LPGR 151200Z 18020G30KT 140V210 9999 FEW016 BKN210 19/14 Q1014 RMK WIND RWY09 18022G33KT 140V210;",
"08515599999","2010-11-16T09:00:00","4","39.092169","-28.029847","26.21","GRACIOSA, PO","FM-15","LPGR ","V020","330,1,N,0067,1","00300,1,C,N","011265,1,N,1","+0180,1","+0170,1","99999,9","07,5,+00300,1,99,9",,,"07,99,1,99,9,99,9,99999,9,99,9,99,9",,"10149,1,99999,9",,,,"MET074METAR LPGR 160900Z 33013KT 9999 BKN010 18/17 Q1015 RMK WIND RWY09 31015KT;",
"08515599999","2010-11-16T10:00:00","4","39.092169","-28.029847","26.21","GRACIOSA, PO","FM-15","LPGR ","V020","010,1,N,0087,1","00360,1,C,N","011265,1,N,1","+0170,1","+0160,1","99999,9","04,5,+00300,1,99,9","07,5,+00360,1,99,9",,"07,99,1,99,9,99,9,99999,9,99,9,99,9",,"10159,1,99999,9",,,,"MET081METAR LPGR 161000Z 01017KT 9999 SCT010 BKN012 17/16 Q1016 RMK WIND RWY09 01014KT;",
"08515599999","2010-11-16T11:00:00","4","39.092169","-28.029847","26.21","GRACIOSA, PO","FM-15","LPGR ","V020","010,1,N,0087,1","00900,1,C,N","011265,1,N,1","+0170,1","+0160,1","99999,9","04,5,+00360,1,99,9","07,5,+00900,1,99,9",,"07,99,1,99,9,99,9,99999,9,99,9,99,9",,"10180,1,99999,9",,,,"MET081METAR LPGR 161100Z 01017KT 9999 SCT012 BKN030 17/16 Q1018 RMK WIND RWY09 01015KT;",
"08515599999","2010-11-16T12:00:00","4","39.092169","-28.029847","26.21","GRACIOSA, PO","FM-15","LPGR ","V020","020,1,N,0072,1","00900,1,C,N","011265,1,N,1","+0170,1","+0140,1","99999,9","04,5,+00420,1,99,9","07,5,+00900,1,99,9",,"07,99,1,99,9,99,9,99999,9,99,9,99,9",,"10190,1,99999,9",,,,"MET081METAR LPGR 161200Z 02014KT 9999 SCT014 BKN030 17/14 Q1019 RMK WIND RWY09 02014KT;",
"08515599999","2010-11-16T13:00:00","4","39.092169","-28.029847","26.21","GRACIOSA, PO","FM-15","LPGR ","V020","030,1,N,0067,1","00900,1,C,N","011265,1,N,1","+0170,1","+0130,1","99999,9","02,5,+00420,1,99,9","07,5,+00900,1,99,9",,"07,99,1,99,9,99,9,99999,9,99,9,99,9",,"10200,1,99999,9",,,,"MET081METAR LPGR 161300Z 03013KT 9999 FEW014 BKN030 17/13 Q1020 RMK WIND RWY09 01016KT;",
"08515599999","2010-11-16T14:00:00","4","39.092169","-28.029847","26.21","GRACIOSA, PO","FM-15","LPGR ","V020","040,1,N,0051,1","00900,1,C,N","011265,1,N,1","+0170,1","+0130,1","99999,9","04,5,+00420,1,99,9","07,5,+00900,1,99,9",,"07,99,1,99,9,99,9,99999,9,99,9,99,9",,"10200,1,99999,9",,,,"MET081METAR LPGR 161400Z 04010KT 9999 SCT014 BKN030 17/13 Q1020 RMK WIND RWY09 03014KT;",
"08515599999","2010-11-16T15:00:00","4","39.092169","-28.029847","26.21","GRACIOSA, PO","FM-15","LPGR ","V020","030,1,N,0062,1","00900,1,C,N","011265,1,N,1","+0170,1","+0120,1","99999,9","02,5,+00450,1,99,9","07,5,+00900,1,99,9",,"07,99,1,99,9,99,9,99999,9,99,9,99,9",,"10200,1,99999,9",,,,"MET081METAR LPGR 161500Z 03012KT 9999 FEW015 BKN030 17/12 Q1020 RMK WIND RWY09 03015KT;",
"08515599999","2010-11-17T09:00:00","4","39.092169","-28.029847","26.21","GRACIOSA, PO","FM-15","LPGR ","V020","120,1,N,0051,1","00900,1,C,N","011265,1,N,1","+0150,1","+0090,1","99999,9","02,5,+00480,1,99,9","04,5,+00900,1,99,9","07,5,+06300,1,99,9","07,99,1,99,9,99,9,99999,9,99,9,99,9","999,M,+9999,9","10251,1,99999,9",,,,"MET088METAR LPGR 170900Z 12010KT 9999 FEW016 SCT030 BKN210 15/09 Q1025 RMK WIND RWY09 11006KT;","Q01 -00062ATMX  "
"08515599999","2010-11-17T10:00:00","4","39.092169","-28.029847","26.21","GRACIOSA, PO","FM-15","LPGR ","V020","110,1,N,0051,1","00900,1,C,N","011265,1,N,1","+0160,1","+0100,1","99999,9","02,5,+00480,1,99,9","04,5,+00900,1,99,9","08,5,+06300,1,99,9","08,99,1,99,9,99,9,99999,9,99,9,99,9","999,M,+9999,9","10251,1,99999,9",,,,"MET088METAR LPGR 171000Z 11010KT 9999 FEW016 SCT030 OVC210 16/10 Q1025 RMK WIND RWY09 10011KT;","Q01 +00112ATMX  "
"08515599999","2010-11-17T11:00:00","4","39.092169","-28.029847","26.21","GRACIOSA, PO","FM-15","LPGR ","V020","110,1,N,0057,1","00900,1,C,N","011265,1,N,1","+0160,1","+0100,1","99999,9","02,5,+00480,1,99,9","04,5,+00900,1,99,9","08,5,+06300,1,99,9","08,99,1,99,9,99,9,99999,9,99,9,99,9",,"10251,1,99999,9",,,,"MET088METAR LPGR 171100Z 11011KT 9999 FEW016 SCT030 OVC210 16/10 Q1025 RMK WIND RWY09 12011KT;",
"08515599999","2010-11-17T12:00:00","4","39.092169","-28.029847","26.21","GRACIOSA, PO","FM-15","LPGR ","V020","110,1,N,0067,1","00900,1,C,N","011265,1,N,1","+0170,1","+0100,1","99999,9","02,5,+00480,1,99,9","04,5,+00900,1,99,9","07,5,+02400,1,99,9","07,99,1,99,9,99,9,99999,9,99,9,99,9",,"10251,1,99999,9",,,,"MET088METAR LPGR 171200Z 11013KT 9999 FEW016 SCT030 BKN080 17/10 Q1025 RMK WIND RWY09 12012KT;",
"08515599999","2010-11-17T13:00:00","4","39.092169","-28.029847","26.21","GRACIOSA, PO","FM-15","LPGR ","V020","140,1,N,0057,1","06300,1,C,N","011265,1,N,1","+0180,1","+0100,1","99999,9","02,5,+00540,1,99,9","07,5,+06300,1,99,9",,"07,99,1,99,9,99,9,99999,9,99,9,99,9",,"10251,1,99999,9",,,,"MET081METAR LPGR 171300Z 14011KT 9999 FEW018 BKN210 18/10 Q1025 RMK WIND RWY09 15012KT;",
"08515599999","2010-11-17T14:00:00","4","39.092169","-28.029847","26.21","GRACIOSA, PO","FM-15","LPGR ","V020","130,1,N,0057,1","02400,1,C,N","011265,1,N,1","+0170,1","+0100,1","99999,9","02,5,+00540,1,99,9","04,5,+02400,1,99,9","07,5,+06300,1,99,9","07,99,1,99,9,99,9,99999,9,99,9,99,9",,"10240,1,99999,9",,,,"MET088METAR LPGR 171400Z 13011KT 9999 FEW018 SCT080 BKN210 17/10 Q1024 RMK WIND RWY09 12011KT;",
"08515599999","2010-11-17T15:00:00","4","39.092169","-28.029847","26.21","GRACIOSA, PO","FM-15","LPGR ","V020","130,1,N,0062,1","02400,1,C,N","011265,1,N,1","+0170,1","+0110,1","99999,9","02,5,+00540,1,99,9","08,5,+02400,1,99,9",,"08,99,1,99,9,99,9,99999,9,99,9,99,9",,"10230,1,99999,9",,,,"MET081METAR LPGR 171500Z 13012KT 9999 FEW018 OVC080 17/11 Q1023 RMK WIND RWY09 12011KT;",
"08515599999","2010-11-18T10:00:00","4","39.092169","-28.029847","26.21","GRACIOSA, PO","FM-15","LPGR ","V020","130,1,N,0057,1","00360,1,C,N","008000,1,N,1","+0160,1","+0150,1","99999,9","04,5,+00150,1,99,9","07,5,+00360,1,99,9",,"07,99,1,99,9,99,9,99999,9,99,9,99,9",,"10129,1,99999,9","51,1",,,"MET085METAR LPGR 181000Z 13011KT 8000 -DZ SCT005 BKN012 16/15 Q1013 RMK WIND RWY09 12011KT;",
"08515599999","2010-11-18T11:00:00","4","39.092169","-28.029847","26.21","GRACIOSA, PO","FM-15","LPGR ","V020","130,1,N,0046,1","00360,1,C,N","009000,1,N,1","+0170,1","+0160,1","99999,9","04,5,+00150,1,99,9","07,5,+00360,1,99,9",,"07,99,1,99,9,99,9,99999,9,99,9,99,9",,"10129,1,99999,9",,,,"MET081METAR LPGR 181100Z 13009KT 9000 SCT005 BKN012 17/16 Q1013 RMK WIND RWY09 13009KT;",
"08515599999","2010-11-18T12:00:00","4","39.092169","-28.029847","26.21","GRACIOSA, PO","FM-15","LPGR ","V020","130,1,N,0031,1","00300,1,C,N","011265,1,N,1","+0170,1","+0160,1","99999,9","02,5,+00150,1,99,9","04,5,+00300,1,99,9","07,5,+00360,1,99,9","07,99,1,99,9,99,9,99999,9,99,9,99,9",,"10129,1,99999,9",,,,"MET088METAR LPGR 181200Z 13006KT 9999 FEW005 SCT010 BKN012 17/16 Q1013 RMK WIND RWY09 16008KT;",
"08515599999","2010-11-18T13:00:00","4","39.092169","-28.029847","26.21","GRACIOSA, PO","FM-15","LPGR ","V020","130,1,N,0026,1","00360,1,C,N","011265,1,N,1","+0180,1","+0170,1","99999,9","02,5,+00180,1,99,9","07,5,+00360,1,99,9","07,5,+02400,1,99,9","07,99,1,99,9,99,9,99999,9,99,9,99,9",,"10129,1,99999,9",,,,"MET088METAR LPGR 181300Z 13005KT 9999 FEW006 BKN012 BKN080 18/17 Q1013 RMK WIND RWY09 15006KT;",
"08515599999","2010-11-18T14:00:00","4","39.092169","-28.029847","26.21","GRACIOSA, PO","FM-15","LPGR ","V020","230,1,N,0041,1","00390,1,C,N","011265,1,N,1","+0190,1","+0180,1","99999,9","04,5,+00300,1,99,9","07,5,+00390,1,99,9","07,5,+02400,1,99,9","07,99,1,99,9,99,9,99999,9,99,9,99,9",,"10119,1,99999,9",,,,"MET088METAR LPGR 181400Z 23008KT 9999 SCT010 BKN013 BKN080 19/18 Q1012 RMK WIND RWY09 23008KT;",
"08515599999","2010-11-18T15:00:00","4","39.092169","-28.029847","26.21","GRACIOSA, PO","FM-15","LPGR ","V020","250,1,N,0036,1","00300,1,C,N","011265,1,N,1","+0190,1","+0180,1","99999,9","04,5,+00150,1,99,9","07,5,+00300,1,99,9","07,5,+02400,1,99,9","07,99,1,99,9,99,9,99999,9,99,9,99,9",,"10108,1,99999,9",,,,"MET088METAR LPGR 181500Z 25007KT 9999 SCT005 BKN010 BKN080 19/18 Q1011 RMK WIND RWY09 25008KT;",
"08515599999","2010-11-19T09:00:00","4","39.092169","-28.029847","26.21","GRACIOSA, PO","FM-15","LPGR ","V020","330,1,N,0010,1","00015,1,C,N","000700,1,N,1","+0170,1","+0170,1","99999,9","09,1,+00015,1,99,9",,,"09,99,1,99,9,99,9,00025,1,99,9,99,9",,"10139,1,99999,9","45,1",,,"MET076METAR LPGR 190900Z 33002KT 0700 FG VV/// 17/17 Q1014 RMK WIND RWY09 26002KT;",
"08515599999","2010-11-19T10:00:00","4","39.092169","-28.029847","26.21","GRACIOSA, PO","FM-15","LPGR ","V020","020,1,N,0010,1","00015,1,C,N","000700,1,N,1","+0170,1","+0170,1","99999,9","09,1,+00015,1,99,9",,,"09,99,1,99,9,99,9,00025,1,99,9,99,9",,"10139,1,99999,9","45,1","51,1",,"MET079METAR LPGR 191000Z 02002KT 0700 -DZFG VV/// 17/17 Q1014 RMK WIND RWY09 27004KT;",
"08515599999","2010-11-19T11:00:00","4","39.092169","-28.029847","26.21","GRACIOSA, PO","FM-15","LPGR ","V020","090,1,N,0026,1","00120,1,C,N","011265,1,N,1","+0180,1","+0170,1","99999,9","04,5,+00060,1,99,9","07,5,+00120,1,99,9",,"07,99,1,99,9,99,9,99999,9,99,9,99,9",,"10139,1,99999,9",,,,"MET081METAR LPGR 191100Z 09005KT 9999 SCT002 BKN004 18/17 Q1014 RMK WIND RWY09 08007KT;",
"08515599999","2010-11-19T12:00:00","4","39.092169","-28.029847","26.21","GRACIOSA, PO","FM-15","LPGR ","V020","100,1,N,0026,1","99999,9,C,N","011265,1,N,1","+0180,1","+0170,1","99999,9","04,5,+00090,1,99,9","04,5,+00150,1,99,9",,"04,99,1,99,9,99,9,99999,9,99,9,99,9","999,M,+9999,9","10149,1,99999,9",,,,"MET081METAR LPGR 191200Z 10005KT 9999 SCT003 SCT005 18/17 Q1015 RMK WIND RWY09 10005KT;","Q01 +00052ATMX  P01 001503SCOCIG"
"08515599999","2010-11-19T13:00:00","4","39.092169","-28.029847","26.21","GRACIOSA, PO","FM-15","LPGR ","V020","110,1,N,0031,1","00300,1,C,N","011265,1,N,1","+0180,1","+0170,1","99999,9","04,5,+00180,1,99,9","07,5,+00300,1,99,9","07,5,+00750,1,99,9","07,99,1,99,9,99,9,99999,9,99,9,99,9","999,M,+9999,9","10149,1,99999,9",,,,"MET088METAR LPGR 191300Z 11006KT 9999 SCT006 BKN010 BKN025 18/17 Q1015 RMK WIND RWY09 10006KT;","Q01 +00062ATMX  "
"08515599999","2010-11-19T14:00:00","4","39.092169","-28.029847","26.21","GRACIOSA, PO","FM-15","LPGR ","V020","100,1,N,0026,1","00300,1,C,N","011265,1,N,1","+0180,1","+0170,1","99999,9","02,5,+00180,1,99,9","04,5,+00300,1,99,9","07,5,+00750,1,99,9","07,99,1,99,9,99,9,99999,9,99,9,99,9","999,M,+9999,9","10139,1,99999,9",,,,"MET088METAR LPGR 191400Z 10005KT 9999 FEW006 SCT010 BKN025 18/17 Q1014 RMK WIND RWY09 10004KT;","Q01 +00042ATMX  "
"08515599999","2010-11-19T15:00:00","4","39.092169","-28.029847","26.21","GRACIOSA, PO","FM-15","LPGR ","V020","100,1,N,0026,1","00360,1,C,N","011265,1,N,1","+0180,1","+0170,1","99999,9","02,5,+00180,1,99,9","04,5,+00360,1,99,9","07,5,+00750,1,99,9","07,99,1,99,9,99,9,99999,9,99,9,99,9","999,M,+9999,9","10139,1,99999,9",,,,"MET088METAR LPGR 191500Z 10005KT 9999 FEW006 SCT012 BKN025 18/17 Q1014 RMK WIND RWY09 10004KT;","Q01 +00042ATMX  "
"08515599999","2010-11-19T16:00:00","4","39.092169","-28.029847","26.21","GRACIOSA, PO","FM-15","LPGR ","V020","110,1,N,0031,1","00120,1,C,N","007000,1,N,1","+0180,1","+0170,1","99999,9","04,5,+00060,1,99,9","07,5,+00120,1,99,9",,"07,99,1,99,9,99,9,99999,9,99,9,99,9","999,M,+9999,9","10139,1,99999,9","51,1",,,"MET085METAR LPGR 191600Z 11006KT 7000 -DZ SCT002 BKN004 18/17 Q1014 RMK WIND RWY09 10005KT;","Q01 +00052ATMX  "
"08515599999","2010-11-19T17:00:00","4","39.092169","-28.029847","26.21","GRACIOSA, PO","FM-15","LPGR ","V020","070,1,N,0041,1","00030,1,C,N","001500,1,N,1","+0170,1","+0170,1","99999,9","07,5,+00030,1,99,9","07,5,+00120,1,99,9",,"07,99,1,99,9,99,9,99999,9,99,9,99,9",,"10139,1,99999,9","10,1","51,1",,"MET088METAR LPGR 191700Z 07008KT 1500 -DZ BR BKN001 BKN004 17/17 Q1014 RMK WIND RWY09 07010KT;",
"08515599999","2010-11-20T08:00:00","4","39.092169","-28.029847","26.21","GRACIOSA, PO","FM-15","LPGR ","V020","100,1,N,0031,1","00180,1,C,N","007000,1,N,1","+0180,1","+0170,1","99999,9","04,5,+00090,1,99,9","07,5,+00180,1,99,9",,"07,99,1,99,9,99,9,99999,9,99,9,99,9",,"10169,1,99999,9","51,1","61,1",,"MET087METAR LPGR 200800Z 10006KT 7000 -RADZ SCT003 BKN006 18/17 Q1017 RMK WIND RWY09 13004KT;",
"08515599999","2010-11-20T09:00:00","4","39.092169","-28.029847","26.21","GRACIOSA, PO","FM-15","LPGR ","V020","150,1,N,0031,1","00300,1,C,N","007000,1,N,1","+0180,1","+0180,1","99999,9","02,5,+00150,1,99,9","04,5,+00300,1,99,9","07,5,+00360,1,99,9","07,99,1,99,9,99,9,99999,9,99,9,99,9",,"10169,1,99999,9","61,1",,,"MET092METAR LPGR 200900Z 15006KT 7000 -RA FEW005 SCT010 BKN012 18/18 Q1017 RMK WIND RWY09 16006KT;",
"08515599999","2010-11-20T10:00:00","4","39.092169","-28.029847","26.21","GRACIOSA, PO","FM-15","LPGR ","V020","110,1,N,0021,1","00450,1,C,N","011265,1,N,1","+0190,1","+0180,1","99999,9","02,5,+00180,1,99,9","04,5,+00450,1,99,9","07,5,+06300,1,99,9","07,99,1,99,9,99,9,99999,9,99,9,99,9",,"10180,1,99999,9",,,,"MET088METAR LPGR 201000Z 11004KT 9999 FEW006 SCT015 BKN210 19/18 Q1018 RMK WIND RWY09 15009KT;",
"08515599999","2010-11-20T11:00:00","4","39.092169","-28.029847","26.21","GRACIOSA, PO","FM-15","LPGR ","V020","160,1,N,0026,1","02400,1,C,N","011265,1,N,1","+0190,1","+0180,1","99999,9","02,5,+00180,1,99,9","07,5,+02400,1,99,9",,"07,99,1,99,9,99,9,99999,9,99,9,99,9",,"10180,1,99999,9",,,,"MET081METAR LPGR 201100Z 16005KT 9999 FEW006 BKN080 19/18 Q1018 RMK WIND RWY09 14008KT;",
"08515599999","2010-11-20T12:00:00","4","39.092169","-28.029847","26.21","GRACIOSA, PO","FM-15","LPGR ","V020","140,1,N,0031,1","01200,1,C,N","011265,1,N,1","+0210,1","+0190,1","99999,9","02,5,+00180,1,99,9","07,5,+01200,1,99,9",,"07,99,1,99,9,99,9,99999,9,99,9,99,9",,"10180,1,99999,9",,,,"MET081METAR LPGR 201200Z 14006KT 9999 FEW006 BKN040 21/19 Q1018 RMK WIND RWY09 17008KT;",
"08515599999","2010-11-20T13:00:00","4","39.092169","-28.029847","26.21","GRACIOSA, PO","FM-15","LPGR ","V020","110,1,N,0026,1","99999,9,C,N","011265,1,N,1","+0210,1","+0200,1","99999,9","02,5,+00180,1,99,9","04,5,+01200,1,99,9",,"04,99,1,99,9,99,9,99999,9,99,9,99,9","999,M,+9999,9","10180,1,99999,9",,,,"MET081METAR LPGR 201300Z 11005KT 9999 FEW006 SCT040 21/20 Q1018 RMK WIND RWY09 11004KT;","Q01 -00042ATMX  P01 012003SCOCIG"
"08515599999","2010-11-20T14:00:00","4","39.092169","-28.029847","26.21","GRACIOSA, PO","FM-15","LPGR ","V020","110,1,N,0026,1","99999,9,C,N","011265,1,N,1","+0210,1","+0200,1","99999,9","02,5,+00180,1,99,9","04,5,+06300,1,99,9",,"04,99,1,99,9,99,9,99999,9,99,9,99,9",,"10169,1,99999,9",,,,"MET081METAR LPGR 201400Z 11005KT 9999 FEW006 SCT210 21/20 Q1017 RMK WIND RWY09 01005KT;","P01 063003SCOCIG"
"08515599999","2010-11-20T15:00:00","4","39.092169","-28.029847","26.21","GRACIOSA, PO","FM-15","LPGR ","V020","110,1,N,0031,1","22000,1,9,N","011265,1,N,1","+0210,1","+0200,1","99999,9","02,5,+00180,1,99,9",,,"02,99,1,99,9,99,9,99999,9,99,9,99,9",,"10169,1,99999,9",,,,"MET074METAR LPGR 201500Z 11006KT 9999 FEW006 21/20 Q1017 RMK WIND RWY09 09004KT;",
"08515599999","2010-11-20T16:00:00","4","39.092169","-28.029847","26.21","GRACIOSA, PO","FM-15","LPGR ","V020","120,1,N,0036,1","22000,1,9,N","011265,1,N,1","+0210,1","+0200,1","99999,9","02,5,+00180,1,99,9",,,"02,99,1,99,9,99,9,99999,9,99,9,99,9",,"10159,1,99999,9",,,,"MET074METAR LPGR 201600Z 12007KT 9999 FEW006 21/20 Q1016 RMK WIND RWY09 19006KT;",
"08515599999","2010-11-20T17:00:00","4","39.092169","-28.029847","26.21","GRACIOSA, PO","FM-15","LPGR ","V020","100,1,N,0010,1","06300,1,C,N","011265,1,N,1","+0210,1","+0190,1","99999,9","02,5,+00180,1,99,9","07,5,+06300,1,99,9",,"07,99,1,99,9,99,9,99999,9,99,9,99,9",,"10159,1,99999,9",,,,"MET081METAR LPGR 201700Z 10002KT 9999 FEW006 BKN210 21/19 Q1016 RMK WIND RWY09 21005KT;",
"08515599999","2010-11-20T18:00:00","4","39.092169","-28.029847","26.21","GRACIOSA, PO","FM-15","LPGR ","V020","110,1,N,0026,1","06300,1,C,N","011265,1,N,1","+0200,1","+0180,1","99999,9","02,5,+00180,1,99,9","07,5,+06300,1,99,9",,"07,99,1,99,9,99,9,99999,9,99,9,99,9",,"10159,1,99999,9",,,,"MET081METAR LPGR 201800Z 11005KT 9999 FEW006 BKN210 20/18 Q1016 RMK WIND RWY09 12004KT;",
"08515599999","2010-11-21T09:00:00","4","39.092169","-28.029847","26.21","GRACIOSA, PO","FM-15","LPGR ","V020","190,1,N,0041,1","22000,1,9,N","011265,1,N,1","+0180,1","+0170,1","99999,9","02,5,+00450,1,99,9",,,"02,99,1,99,9,99,9,99999,9,99,9,99,9",,"10129,1,99999,9",,,,"MET074METAR LPGR 210900Z 19008KT 9999 FEW015 18/17 Q1013 RMK WIND RWY09 16010KT;",
"08515599999","2010-11-21T10:00:00","4","39.092169","-28.029847","26.21","GRACIOSA, PO","FM-15","LPGR ","V020","160,1,N,0041,1","22000,1,9,N","011265,1,N,1","+0190,1","+0170,1","99999,9","02,5,+00450,1,99,9",,,"02,99,1,99,9,99,9,99999,9,99,9,99,9",,"10129,1,99999,9",,,,"MET074METAR LPGR 211000Z 16008KT 9999 FEW015 19/17 Q1013 RMK WIND RWY09 17014KT;",
"08515599999","2010-11-21T11:00:00","4","39.092169","-28.029847","26.21","GRACIOSA, PO","FM-15","LPGR ","V020","200,1,N,0041,1","99999,9,C,N","011265,1,N,1","+0200,1","+0180,1","99999,9","02,5,+00360,1,99,9","04,5,+06300,1,99,9",,"04,99,1,99,9,99,9,99999,9,99,9,99,9",,"10129,1,99999,9",,,,"MET081METAR LPGR 211100Z 20008KT 9999 FEW012 SCT210 20/18 Q1013 RMK WIND RWY09 23006KT;","P01 063003SCOCIG"
"08515599999","2010-11-21T12:00:00","4","39.092169","-28.029847","26.21","GRACIOSA, PO","FM-15","LPGR ","V020","220,1,N,0031,1","06300,1,C,N","011265,1,N,1","+0200,1","+0180,1","99999,9","02,5,+00360,1,99,9","07,5,+06300,1,99,9",,"07,99,1,99,9,99,9,99999,9,99,9,99,9",,"10119,1,99999,9",,,,"MET081METAR LPGR 211200Z 22006KT 9999 FEW012 BKN210 20/18 Q1012 RMK WIND RWY09 19007KT;",
"08515599999","2010-11-21T13:00:00","4","39.092169","-28.029847","26.21","GRACIOSA, PO","FM-15","LPGR ","V020","200,1,N,0015,1","06300,1,C,N","011265,1,N,1","+0210,1","+0180,1","99999,9","02,5,+00360,1,99,9","07,5,+06300,1,99,9",,"07,99,1,99,9,99,9,99999,9,99,9,99,9",,"10119,1,99999,9",,,,"MET081METAR LPGR 211300Z 20003KT 9999 FEW012 BKN210 21/18 Q1012 RMK WIND RWY09 23006KT;",
"08515599999","2010-11-21T14:00:00","4","39.092169","-28.029847","26.21","GRACIOSA, PO","FM-15","LPGR ","V020","230,1,N,0021,1","06300,1,C,N","011265,1,N,1","+0220,1","+0180,1","99999,9","02,5,+00420,1,99,9","07,5,+06300,1,99,9",,"07,99,1,99,9,99,9,99999,9,99,9,99,9",,"10108,1,99999,9",,,,"MET081METAR LPGR 211400Z 23004KT 9999 FEW014 BKN210 22/18 Q1011 RMK WIND RWY09 26008KT;",
"08515599999","2010-11-21T15:00:00","4","39.092169","-28.029847","26.21","GRACIOSA, PO","FM-15","LPGR ","V020","090,1,N,0021,1","00900,1,C,N","011265,1,N,1","+0210,1","+0170,1","99999,9","02,5,+00420,1,99,9","04,5,+00900,1,99,9","07,5,+06300,1,99,9","07,99,1,99,9,99,9,99999,9,99,9,99,9",,"10102,1,99999,9",,,,"MET088METAR LPGR 211500Z 09004KT 9999 FEW014 SCT030 BKN210 21/17 Q1010 RMK WIND RWY09 13004KT;",
"08515599999","2010-11-21T16:00:00","4","39.092169","-28.029847","26.21","GRACIOSA, PO","FM-15","LPGR ","V020","080,1,N,0021,1","00900,1,C,N","011265,1,N,1","+0200,1","+0180,1","99999,9","02,5,+00420,1,99,9","07,5,+00900,1,99,9",,"07,99,1,99,9,99,9,99999,9,99,9,99,9",,"10102,1,99999,9","61,1",,,"MET085METAR LPGR 211600Z 08004KT 9999 -RA FEW014 BKN030 20/18 Q1010 RMK WIND RWY09 09006KT;",
"08515599999","2010-11-21T17:00:00","4","39.092169","-28.029847","26.21","GRACIOSA, PO","FM-15","LPGR ","V020","120,1,N,0031,1","00900,1,C,N","007000,1,N,1","+0190,1","+0180,1","99999,9","02,5,+00180,1,99,9","04,5,+00900,1,99,9","07,5,+02100,1,99,9","07,99,1,99,9,99,9,99999,9,99,9,99,9","999,M,+9999,9","10091,1,99999,9","61,1",,,"MET092METAR LPGR 211700Z 12006KT 7000 -RA FEW006 SCT030 BKN070 19/18 Q1009 RMK WIND RWY09 10005KT;","Q01 +00052ATMX  "
"08515599999","2010-11-22T09:00:00","4","39.092169","-28.029847","26.21","GRACIOSA, PO","FM-15","LPGR ","V020","350,1,N,0067,1","06300,1,C,N","011265,1,N,1","+0150,1","+0130,1","99999,9","04,5,+00360,1,99,9","07,5,+06300,1,99,9",,"07,99,1,99,9,99,9,99999,9,99,9,99,9",,"10108,1,99999,9",,,,"MET081METAR LPGR 220900Z 35013KT 9999 SCT012 BKN210 15/13 Q1011 RMK WIND RWY09 33015KT;",
"08515599999","2010-11-22T10:00:00","4","39.092169","-28.029847","26.21","GRACIOSA, PO","FM-15","LPGR ","V020","340,1,N,0072,1","00900,1,C,N","011265,1,N,1","+0150,1","+0130,1","99999,9","04,5,+00420,1,99,9","07,5,+00900,1,99,9",,"07,99,1,99,9,99,9,99999,9,99,9,99,9",,"10108,1,99999,9","16,1",,,"MET086METAR LPGR 221000Z 34014KT 9999 VCSH SCT014 BKN030 15/13 Q1011 RMK WIND RWY09 33016KT;",
"08515599999","2010-11-22T11:00:00","4","39.092169","-28.029847","26.21","GRACIOSA, PO","FM-15","LPGR ","V020","340,1,N,0062,1","00900,1,C,N","011265,1,N,1","+0160,1","+0110,1","99999,9","02,5,+00450,1,99,9","07,5,+00900,1,99,9",,"07,99,1,99,9,99,9,99999,9,99,9,99,9",,"10108,1,99999,9",,,,"MET081METAR LPGR 221100Z 34012KT 9999 FEW015 BKN030 16/11 Q1011 RMK WIND RWY09 33014KT;",
"08515599999","2010-11-22T12:00:00","4","39.092169","-28.029847","26.21","GRACIOSA, PO","FM-15","LPGR ","V020","330,1,N,0062,1","00900,1,C,N","011265,1,N,1","+0160,1","+0110,1","99999,9","02,5,+00450,1,99,9","07,5,+00900,1,99,9",,"07,99,1,99,9,99,9,99999,9,99,9,99,9",,"10119,1,99999,9",,,,"MET081METAR LPGR 221200Z 33012KT 9999 FEW015 BKN030 16/11 Q1012 RMK WIND RWY09 31016KT;",
"08515599999","2010-11-23T09:00:00","4","39.092169","-28.029847","26.21","GRACIOSA, PO","FM-15","LPGR ","V020","180,1,N,0021,1","99999,9,C,N","011265,1,N,1","+0130,1","+0100,1","99999,9","02,5,+00450,1,99,9","04,5,+06300,1,99,9",,"04,99,1,99,9,99,9,99999,9,99,9,99,9",,"10102,1,99999,9",,,,"MET081METAR LPGR 230900Z 18004KT 9999 FEW015 SCT210 13/10 Q1010 RMK WIND RWY09 19003KT;","P01 063003SCOCIG"
"08515599999","2010-11-23T10:00:00","4","39.092169","-28.029847","26.21","GRACIOSA, PO","FM-15","LPGR ","V020","210,1,N,0026,1","06300,1,C,N","011265,1,N,1","+0160,1","+0110,1","99999,9","02,5,+00450,1,99,9","07,5,+06300,1,99,9",,"07,99,1,99,9,99,9,99999,9,99,9,99,9",,"10102,1,99999,9",,,,"MET081METAR LPGR 231000Z 21005KT 9999 FEW015 BKN210 16/11 Q1010 RMK WIND RWY09 19004KT;",
"08515599999","2010-11-23T11:00:00","4","39.092169","-28.029847","26.21","GRACIOSA, PO","FM-15","LPGR ","V020","220,1,N,0031,1","00900,1,C,N","011265,1,N,1","+0180,1","+0120,1","99999,9","02,5,+00450,1,99,9","04,5,+00900,1,99,9","07,5,+06300,1,99,9","07,99,1,99,9,99,9,99999,9,99,9,99,9",,"10102,1,99999,9",,,,"MET088METAR LPGR 231100Z 22006KT 9999 FEW015 SCT030 BKN210 18/12 Q1010 RMK WIND RWY09 22008KT;",
"08515599999","2010-11-23T12:00:00","4","39.092169","-28.029847","26.21","GRACIOSA, PO","FM-15","LPGR ","V020","240,1,N,0062,1","06300,1,C,N","011265,1,N,1","+0190,1","+0130,1","99999,9","02,5,+00480,1,99,9","07,5,+06300,1,99,9",,"07,99,1,99,9,99,9,99999,9,99,9,99,9",,"10102,1,99999,9",,,,"MET081METAR LPGR 231200Z 24012KT 9999 FEW016 BKN210 19/13 Q1010 RMK WIND RWY09 25016KT;",
"08515599999","2010-11-23T13:00:00","4","39.092169","-28.029847","26.21","GRACIOSA, PO","FM-15","LPGR ","V020","240,1,N,0067,1","02400,1,C,N","011265,1,N,1","+0170,1","+0140,1","99999,9","02,5,+00360,1,99,9","04,5,+02400,1,99,9","07,5,+06300,1,99,9","07,99,1,99,9,99,9,99999,9,99,9,99,9",,"10102,1,99999,9",,,,"MET088METAR LPGR 231300Z 24013KT 9999 FEW012 SCT080 BKN210 17/14 Q1010 RMK WIND RWY09 24012KT;",
"08515599999","2010-11-23T14:00:00","4","39.092169","-28.029847","26.21","GRACIOSA, PO","FM-15","LPGR ","V020","250,1,N,0067,1","02400,1,C,N","011265,1,N,1","+0180,1","+0140,1","99999,9","02,5,+00420,1,99,9","04,5,+02400,1,99,9","07,5,+06300,1,99,9","07,99,1,99,9,99,9,99999,9,99,9,99,9",,"10102,1,99999,9",,,,"MET088METAR LPGR 231400Z 25013KT 9999 FEW014 SCT080 BKN210 18/14 Q1010 RMK WIND RWY09 25014KT;",
"08515599999","2010-11-23T15:00:00","4","39.092169","-28.029847","26.21","GRACIOSA, PO","FM-15","LPGR ","V020","250,1,N,0072,1","02400,1,C,N","011265,1,N,1","+0180,1","+0140,1","99999,9","02,5,+00420,1,99,9","07,5,+02400,1,99,9",,"07,99,1,99,9,99,9,99999,9,99,9,99,9",,"10102,1,99999,9",,,,"MET081METAR LPGR 231500Z 25014KT 9999 FEW014 BKN080 18/14 Q1010 RMK WIND RWY09 25014KT;",
"08515599999","2010-11-24T09:00:00","4","39.092169","-28.029847","26.21","GRACIOSA, PO","FM-15","LPGR ","V020","130,1,N,0021,1","00900,1,C,N","011265,1,N,1","+0160,1","+0150,1","99999,9","02,5,+00360,1,99,9","04,5,+00900,1,99,9","07,5,+02400,1,99,9","07,99,1,99,9,99,9,99999,9,99,9,99,9","999,M,+9999,9","10108,1,99999,9",,,,"MET088METAR LPGR 240900Z 13004KT 9999 FEW012 SCT030 BKN080 16/15 Q1011 RMK WIND RWY09 11001KT;","Q01 -00012ATMX  "
"08515599999","2010-11-24T10:00:00","4","39.092169","-28.029847","26.21","GRACIOSA, PO","FM-15","LPGR ","V020","340,1,N,0015,1","00900,1,C,N","011265,1,N,1","+0160,1","+0140,1","99999,9","02,5,+00360,1,99,9","04,5,+00900,1,99,9","07,5,+02400,1,99,9","07,99,1,99,9,99,9,99999,9,99,9,99,9",,"10119,1,99999,9",,,,"MET088METAR LPGR 241000Z 34003KT 9999 FEW012 SCT030 BKN080 16/14 Q1012 RMK WIND RWY09 19003KT;",
"08515599999","2010-11-24T11:00:00","4","39.092169","-28.029847","26.21","GRACIOSA, PO","FM-15","LPGR ","V020","190,1,N,0036,1","01050,1,C,N","011265,1,N,1","+0170,1","+0130,1","99999,9","02,5,+00420,1,99,9","04,5,+01050,1,99,9","07,5,+02400,1,99,9","07,99,1,99,9,99,9,99999,9,99,9,99,9",,"10119,1,99999,9",,,,"MET088METAR LPGR 241100Z 19007KT 9999 FEW014 SCT035 BKN080 17/13 Q1012 RMK WIND RWY09 17006KT;",
"08515599999","2010-11-24T12:00:00","4","39.092169","-28.029847","26.21","GRACIOSA, PO","FM-15","LPGR ","V020","170,1,N,0031,1","01050,1,C,N","011265,1,N,1","+0170,1","+0130,1","99999,9","02,5,+00420,1,99,9","04,5,+01050,1,99,9","07,5,+02400,1,99,9","07,99,1,99,9,99,9,99999,9,99,9,99,9",,"10119,1,99999,9",,,,"MET088METAR LPGR 241200Z 17006KT 9999 FEW014 SCT035 BKN080 17/13 Q1012 RMK WIND RWY09 16006KT;",
"08515599999","2010-11-24T13:00:00","4","39.092169","-28.029847","26.21","GRACIOSA, PO","FM-15","LPGR ","V020","140,1,N,0031,1","02400,1,C,N","011265,1,N,1","+0180,1","+0140,1","99999,9","02,5,+00450,1,99,9","04,5,+02400,1,99,9","07,5,+06300,1,99,9","07,99,1,99,9,99,9,99999,9,99,9,99,9",,"10108,1,99999,9",,,,"MET088METAR LPGR 241300Z 14006KT 9999 FEW015 SCT080 BKN210 18/14 Q1011 RMK WIND RWY09 16007KT;",
"08515599999","2010-11-24T14:00:00","4","39.092169","-28.029847","26.21","GRACIOSA, PO","FM-15","LPGR ","V020","140,1,N,0046,1","02400,1,C,N","011265,1,N,1","+0180,1","+0130,1","99999,9","02,5,+00450,1,99,9","04,5,+02400,1,99,9","07,5,+06300,1,99,9","07,99,1,99,9,99,9,99999,9,99,9,99,9",,"10108,1,99999,9",,,,"MET088METAR LPGR 241400Z 14009KT 9999 FEW015 SCT080 BKN210 18/13 Q1011 RMK WIND RWY09 14009KT;",
"08515599999","2010-11-25T09:00:00","4","39.092169","-28.029847","26.21","GRACIOSA, PO","FM-15","LPGR ","V020","100,1,N,0062,1","00900,1,C,N","011265,1,N,1","+0160,1","+0120,1","99999,9","02,5,+00450,1,99,9","04,5,+00900,1,99,9","07,5,+06300,1,99,9","07,99,1,99,9,99,9,99999,9,99,9,99,9","999,M,+9999,9","10091,1,99999,9",,,,"MET088METAR LPGR 250900Z 10012KT 9999 FEW015 SCT030 BKN210 16/12 Q1009 RMK WIND RWY09 10011KT;","Q01 +00112ATMX  "
"08515599999","2010-11-25T10:00:00","4","39.092169","-28.029847","26.21","GRACIOSA, PO","FM-15","LPGR ","V020","100,1,N,0057,1","01050,1,C,N","011265,1,N,1","+0170,1","+0110,1","99999,9","02,5,+00480,1,99,9","07,5,+01050,1,99,9",,"07,99,1,99,9,99,9,99999,9,99,9,99,9","999,M,+9999,9","10102,1,99999,9",,,,"MET081METAR LPGR 251000Z 10011KT 9999 FEW016 BKN035 17/11 Q1010 RMK WIND RWY09 10012KT;","Q01 +00122ATMX  "
"08515599999","2010-11-25T11:00:00","4","39.092169","-28.029847","26.21","GRACIOSA, PO","FM-15","LPGR ","V020","080,1,N,0051,1","99999,9,C,N","011265,1,N,1","+0170,1","+0130,1","99999,9","02,5,+00480,1,99,9","04,5,+01200,1,99,9",,"04,99,1,99,9,99,9,99999,9,99,9,99,9",,"10108,1,99999,9",,,,"MET081METAR LPGR 251100Z 08010KT 9999 FEW016 SCT040 17/13 Q1011 RMK WIND RWY09 08013KT;","P01 012003SCOCIG"
"08515599999","2010-11-25T12:00:00","4","39.092169","-28.029847","26.21","GRACIOSA, PO","FM-15","LPGR ","V020","060,1,N,0051,1","01200,1,C,N","011265,1,N,1","+0180,1","+0140,1","99999,9","02,5,+00450,1,99,9","07,5,+01200,1,99,9",,"07,99,1,99,9,99,9,99999,9,99,9,99,9",,"10108,1,99999,9",,,,"MET081METAR LPGR 251200Z 06010KT 9999 FEW015 BKN040 18/14 Q1011 RMK WIND RWY09 06014KT;",
"08515599999","2010-11-25T13:00:00","4","39.092169","-28.029847","26.21","GRACIOSA, PO","FM-15","LPGR ","V020","070,1,N,0051,1","22000,1,9,N","011265,1,N,1","+0180,1","+0140,1","99999,9","02,5,+00450,1,99,9",,,"02,99,1,99,9,99,9,99999,9,99,9,99,9",,"10108,1,99999,9",,,,"MET074METAR LPGR 251300Z 07010KT 9999 FEW015 18/14 Q1011 RMK WIND RWY09 07016KT;",
"08515599999","2010-11-25T14:00:00","4","39.092169","-28.029847","26.21","GRACIOSA, PO","FM-15","LPGR ","V020","110,1,N,0057,1","22000,1,9,N","011265,1,N,1","+0190,1","+0150,1","99999,9","02,5,+00450,1,99,9",,,"02,99,1,99,9,99,9,99999,9,99,9,99,9","999,M,+9999,9","10102,1,99999,9",,,,"MET074METAR LPGR 251400Z 11011KT 9999 FEW015 19/15 Q1010 RMK WIND RWY09 10014KT;","Q01 +00142ATMX  "
"08515599999","2010-11-25T15:00:00","4","39.092169","-28.029847","26.21","GRACIOSA, PO","FM-15","LPGR ","V020","110,1,N,0062,1","22000,1,9,N","011265,1,N,1","+0180,1","+0150,1","99999,9","04,5,+00450,1,99,9",,,"04,99,1,99,9,99,9,99999,9,99,9,99,9","999,M,+9999,9","10102,1,99999,9",,,,"MET074METAR LPGR 251500Z 11012KT 9999 SCT015 18/15 Q1010 RMK WIND RWY09 10013KT;","Q01 +00132ATMX  "
"08515599999","2010-11-26T12:00:00","4","39.092169","-28.029847","26.21","GRACIOSA, PO","FM-15","LPGR ","V020","090,1,N,0082,1","22000,1,9,N","011265,1,N,1","+0180,1","+0110,1","99999,9","02,5,+00480,1,99,9",,,"02,99,1,99,9,99,9,99999,9,99,9,99,9",,"10139,1,99999,9",,,,"MET074METAR LPGR 261200Z 09016KT 9999 FEW016 18/11 Q1014 RMK WIND RWY09 09020KT;",
"08515599999","2010-11-26T13:00:00","4","39.092169","-28.029847","26.21","GRACIOSA, PO","FM-15","LPGR ","V020","090,1,N,0098,1","22000,1,9,N","011265,1,N,1","+0170,1","+0110,1","99999,9","02,5,+00480,1,99,9",,,"02,99,1,99,9,99,9,99999,9,99,9,99,9",,"10129,1,99999,9",,,,"MET074METAR LPGR 261300Z 09019KT 9999 FEW016 17/11 Q1013 RMK WIND RWY09 09022KT;",
"08515599999","2010-11-26T14:00:00","4","39.092169","-28.029847","26.21","GRACIOSA, PO","FM-15","LPGR ","V020","100,1,N,0087,1","22000,1,9,N","011265,1,N,1","+0180,1","+0100,1","99999,9","02,5,+00540,1,99,9",,,"02,99,1,99,9,99,9,99999,9,99,9,99,9","999,M,+9999,9","10129,1,99999,9",,,,"MET074METAR LPGR 261400Z 10017KT 9999 FEW018 18/10 Q1013 RMK WIND RWY09 10018KT;","Q01 +00182ATMX  "
"08515599999","2010-11-26T15:00:00","4","39.092169","-28.029847","26.21","GRACIOSA, PO","FM-15","LPGR ","V020","100,1,N,0082,1","22000,1,9,N","011265,1,N,1","+0170,1","+0110,1","99999,9","04,5,+00540,1,99,9",,,"04,99,1,99,9,99,9,99999,9,99,9,99,9",,"10119,1,99999,9",,,,"MET074METAR LPGR 261500Z 10016KT 9999 SCT018 17/11 Q1012 RMK WIND RWY09 09018KT;",
"08515599999","2010-11-27T15:00:00","4","39.092169","-28.029847","26.21","GRACIOSA, PO","FM-15","LPGR ","V020","100,1,N,0108,1","00480,1,C,N","011265,1,N,1","+0170,1","+0110,1","99999,9","07,5,+00480,1,99,9",,,"07,99,1,99,9,99,9,99999,9,99,9,99,9","999,M,+9999,9","10091,1,99999,9",,,"0159,1","MET080METAR LPGR 271500Z 10021G31KT 9999 BKN016 17/11 Q1009 RMK WIND RWY09 10022G32KT;","Q01 +00222ATMX  "
"08515599999","2010-11-27T16:00:00","4","39.092169","-28.029847","26.21","GRACIOSA, PO","FM-15","LPGR ","V020","110,1,N,0123,1","00480,1,C,N","011265,1,N,1","+0160,1","+0110,1","99999,9","07,5,+00480,1,99,9","07,5,+00900,1,99,9",,"07,99,1,99,9,99,9,99999,9,99,9,99,9","999,M,+9999,9","10091,1,99999,9",,,"0175,1","MET087METAR LPGR 271600Z 11024G34KT 9999 BKN016 BKN030 16/11 Q1009 RMK WIND RWY09 10023G33KT;","Q01 +00232ATMX  "
"08515599999","2010-11-27T17:00:00","4","39.092169","-28.029847","26.21","GRACIOSA, PO","FM-15","LPGR ","V020","090,1,N,0123,1","00480,1,C,N","011265,1,N,1","+0160,1","+0110,1","99999,9","07,5,+00480,1,99,9","07,5,+00900,1,99,9",,"07,99,1,99,9,99,9,99999,9,99,9,99,9",,"10091,1,99999,9",,,"0175,1","MET087METAR LPGR 271700Z 09024G34KT 9999 BKN016 BKN030 16/11 Q1009 RMK WIND RWY09 09024G34KT;",
"08515599999","2010-11-28T11:00:00","4","39.092169","-28.029847","26.21","GRACIOSA, PO","FM-15","LPGR ","V020","090,1,N,0082,1","00480,1,C,N","011265,1,N,1","+0150,1","+0110,1","99999,9","07,5,+00480,1,99,9",,,"07,99,1,99,9,99,9,99999,9,99,9,99,9",,"10129,1,99999,9",,,,"MET074METAR LPGR 281100Z 09016KT 9999 BKN016 15/11 Q1013 RMK WIND RWY09 08020KT;",
"08515599999","2010-11-28T12:00:00","4","39.092169","-28.029847","26.21","GRACIOSA, PO","FM-15","LPGR ","V020","070,1,N,0082,1","99999,9,C,N","011265,1,N,1","+0150,1","+0110,1","99999,9","02,5,+00480,1,99,9","04,5,+06300,1,99,9",,"04,99,1,99,9,99,9,99999,9,99,9,99,9",,"10139,1,99999,9",,,,"MET081METAR LPGR 281200Z 07016KT 9999 FEW016 SCT210 15/11 Q1014 RMK WIND RWY09 07022KT;","P01 063003SCOCIG"
"08515599999","2010-11-29T09:00:00","4","39.092169","-28.029847","26.21","GRACIOSA, PO","FM-15","LPGR ","V020","010,1,N,0082,1","00900,1,C,N","011265,1,N,1","+0140,1","+0060,1","99999,9","04,5,+00480,1,99,9","07,5,+00900,1,99,9",,"07,99,1,99,9,99,9,99999,9,99,9,99,9",,"10129,1,99999,9",,,"0134,1","MET084METAR LPGR 290900Z 01016G26KT 9999 SCT016 BKN030 14/06 Q1013 RMK WIND RWYO9 01016KT;",
"08515599999","2010-11-29T11:00:00","4","39.092169","-28.029847","26.21","GRACIOSA, PO","FM-15","LPGR ","V020","020,1,N,0082,1","00900,1,C,N","011265,1,N,1","+0140,1","+0090,1","99999,9","04,5,+00480,1,99,9","07,5,+00900,1,99,9",,"07,99,1,99,9,99,9,99999,9,99,9,99,9",,"10139,1,99999,9",,,"0134,1","MET084METAR LPGR 291100Z 02016G26KT 9999 SCT016 BKN030 14/09 Q1014 RMK WIND RWY09 02022KT;",
"08515599999","2010-11-29T12:00:00","4","39.092169","-28.029847","26.21","GRACIOSA, PO","FM-15","LPGR ","V020","020,1,N,0062,1","00900,1,C,N","011265,1,N,1","+0130,1","+0090,1","99999,9","02,5,+00480,1,99,9","07,5,+00900,1,99,9",,"07,99,1,99,9,99,9,99999,9,99,9,99,9",,"10129,1,99999,9",,,,"MET081METAR LPGR 291200Z 02012KT 9999 FEW016 BKN030 13/09 Q1013 RMK WIND RWY09 01013KT;",
"08515599999","2010-11-29T13:00:00","4","39.092169","-28.029847","26.21","GRACIOSA, PO","FM-15","LPGR ","V020","010,1,N,0082,1","22000,1,9,N","011265,1,N,1","+0150,1","+0090,1","99999,9","04,5,+00480,1,99,9",,,"04,99,1,99,9,99,9,99999,9,99,9,99,9",,"10129,1,99999,9",,,,"MET074METAR LPGR 291300Z 01016KT 9999 SCT016 15/09 Q1013 RMK WIND RWY09 02016KT;",
"08515599999","2010-11-30T12:00:00","4","39.092169","-28.029847","26.21","GRACIOSA, PO","FM-15","LPGR ","V020","030,1,N,0051,1","22000,1,9,N","011265,1,N,1","+0140,1","+0040,1","99999,9","04,5,+00540,1,99,9",,,"04,99,1,99,9,99,9,99999,9,99,9,99,9",,"10159,1,99999,9",,,,"MET074METAR LPGR 301200Z 03010KT 9999 SCT018 14/04 Q1016 RMK WIND RWY09 02012KT;",
"08515599999","2010-11-30T13:00:00","4","39.092169","-28.029847","26.21","GRACIOSA, PO","FM-15","LPGR ","V020","040,1,N,0051,1","22000,1,9,N","011265,1,N,1","+0130,1","+0050,1","99999,9","02,5,+00600,1,99,9",,,"02,99,1,99,9,99,9,99999,9,99,9,99,9",,"10159,1,99999,9",,,,"MET074METAR LPGR 301300Z 04010KT 9999 FEW020 13/05 Q1016 RMK WIND RWY09 05012KT;",
"08515599999","2010-11-30T14:00:00","4","39.092169","-28.029847","26.21","GRACIOSA, PO","FM-15","LPGR ","V020","040,1,N,0051,1","06300,1,C,N","011265,1,N,1","+0140,1","+0050,1","99999,9","02,5,+00600,1,99,9","07,5,+06300,1,99,9",,"07,99,1,99,9,99,9,99999,9,99,9,99,9",,"10149,1,99999,9",,,,"MET081METAR LPGR 301400Z 04010KT 9999 FEW020 BKN210 14/05 Q1015 RMK WIND RWY09 05014KT;",
"08515599999","2010-12-01T08:00:00","4","39.092169","-28.029847","26.21","GRACIOSA, PO","FM-15","LPGR ","V020","140,1,N,0031,1","22000,1,9,N","011265,1,N,1","+0120,1","+0040,1","99999,9","02,5,+00480,1,99,9",,,"02,99,1,99,9,99,9,99999,9,99,9,99,9",,"10159,1,99999,9",,,,"MET074METAR LPGR 010800Z 14006KT 9999 FEW016 12/04 Q1016 RMK WIND RWY09 14005KT;",
"08515599999","2010-12-01T09:00:00","4","39.092169","-28.029847","26.21","GRACIOSA, PO","FM-15","LPGR ","V020","130,1,N,0082,1","99999,9,C,N","011265,1,N,1","+0120,1","+0060,1","99999,9","02,5,+00540,1,99,9","04,5,+06300,1,99,9",,"04,99,1,99,9,99,9,99999,9,99,9,99,9",,"10159,1,99999,9",,,,"MET081METAR LPGR 010900Z 13016KT 9999 FEW018 SCT210 12/06 Q1016 RMK WIND RWY09 13009KT;","P01 063003SCOCIG"
"08515599999","2010-12-01T10:00:00","4","39.092169","-28.029847","26.21","GRACIOSA, PO","FM-15","LPGR ","V020","130,1,N,0057,1","06000,1,C,N","011265,1,N,1","+0130,1","+0060,1","99999,9","02,5,+00540,1,99,9","08,5,+06000,1,99,9",,"08,99,1,99,9,99,9,99999,9,99,9,99,9",,"10159,1,99999,9",,,,"MET081METAR LPGR 011000Z 13011KT 9999 FEW018 OVC200 13/06 Q1016 RMK WIND RWY09 12010KT;",
"08515599999","2010-12-01T12:00:00","4","39.092169","-28.029847","26.21","GRACIOSA, PO","FM-15","LPGR ","V020","120,1,N,0062,1","02700,1,C,N","011265,1,N,1","+0140,1","+0060,1","99999,9","02,5,+00540,1,99,9","08,5,+02700,1,99,9",,"08,99,1,99,9,99,9,99999,9,99,9,99,9",,"10169,1,99999,9",,,,"MET081METAR LPGR 011200Z 12012KT 9999 FEW018 OVC090 14/06 Q1017 RMK WIND RWY09 12010KT;",
"08515599999","2010-12-01T13:00:00","4","39.092169","-28.029847","26.21","GRACIOSA, PO","FM-15","LPGR ","V020","120,1,N,0062,1","02700,1,C,N","011265,1,N,1","+0140,1","+0070,1","99999,9","04,5,+00540,1,99,9","08,5,+02700,1,99,9",,"08,99,1,99,9,99,9,99999,9,99,9,99,9",,"10169,1,99999,9",,,,"MET081METAR LPGR 011300Z 12012KT 9999 SCT018 OVC090 14/07 Q1017 RMK WIND RWY09 12010KT;",
"08515599999","2010-12-01T14:00:00","4","39.092169","-28.029847","26.21","GRACIOSA, PO","FM-15","LPGR ","V020","130,1,N,0062,1","02700,1,C,N","011265,1,N,1","+0140,1","+0070,1","99999,9","04,5,+00540,1,99,9","08,5,+02700,1,99,9",,"08,99,1,99,9,99,9,99999,9,99,9,99,9",,"10169,1,99999,9",,,,"MET081METAR LPGR 011400Z 13012KT 9999 SCT018 OVC090 14/07 Q1017 RMK WIND RWY09 12012KT;",
"08515599999","2010-12-02T09:00:00","4","39.092169","-28.029847","26.21","GRACIOSA, PO","FM-15","LPGR ","V020","130,1,N,0108,1","02100,1,C,N","003500,1,N,1","+0130,1","+0110,1","99999,9","04,5,+00390,1,99,9","08,5,+02100,1,99,9",,"08,99,1,99,9,99,9,99999,9,99,9,99,9",,"10139,1,99999,9","63,1",,"0159,1","MET090METAR LPGR 020900Z 13021G31KT 3500 RA SCT013 OVC070 13/11 Q1014 RMK WIND RWY09 12022G32KT;",
"08515599999","2010-12-03T11:00:00","4","39.092169","-28.029847","26.21","GRACIOSA, PO","FM-15","LPGR ","V020","120,1,N,0123,1","00300,1,C,N","004000,1,N,1","+0160,1","+0150,1","99999,9","07,5,+00300,1,99,9","08,5,+02100,1,99,9",,"08,99,1,99,9,99,9,99999,9,99,9,99,9",,"10020,1,99999,9","61,1",,"0175,1","MET091METAR LPGR 031100Z 12024G34KT 4000 -RA BKN010 OVC070 16/15 Q1002 RMK WIND RWY09 12028G40KT;",
"08515599999","2010-12-03T12:00:00","4","39.092169","-28.029847","26.21","GRACIOSA, PO","FM-15","LPGR ","V020","130,1,N,0093,1","00300,1,C,N","005000,1,N,1","+0170,1","+0160,1","99999,9","02,5,+00150,1,99,9","07,5,+00300,1,99,9","08,5,+02100,1,99,9","08,99,1,99,9,99,9,99999,9,99,9,99,9",,"10020,1,99999,9","61,1",,"0149,1","MET103METAR LPGR 031200Z 13018G29KT 5000 -RA FEW005 BKN010 OVC070 17/16 Q1002 RERA RMK WIND RWY09 12023G34KT;",
"08515599999","2010-12-03T13:00:00","4","39.092169","-28.029847","26.21","GRACIOSA, PO","FM-15","LPGR ","V020","130,1,N,0093,1","00300,1,C,N","003500,1,N,1","+0170,1","+0160,1","99999,9","02,5,+00150,1,99,9","07,5,+00300,1,99,9","08,5,+02100,1,99,9","08,99,1,99,9,99,9,99999,9,99,9,99,9",,"10010,1,99999,9","61,1",,"0144,1","MET098METAR LPGR 031300Z 13018G28KT 3500 -RA FEW005 BKN010 OVC070 17/16 Q1001 RMK WIND RWY09 12019G29KT;",
"08515599999","2010-12-03T16:00:00","4","39.092169","-28.029847","26.21","GRACIOSA, PO","FM-15","LPGR ","V020","110,1,N,0062,1","00300,1,C,N","005000,1,N,1","+0170,1","+0160,1","99999,9","07,5,+00300,1,99,9","08,5,+02100,1,99,9",,"08,99,1,99,9,99,9,99999,9,99,9,99,9","999,M,+9999,9","09980,1,99999,9","61,1",,,"MET085METAR LPGR 031600Z 11012KT 5000 -RA BKN010 OVC070 17/16 Q0998 RMK WIND RWY09 11010KT;","Q01 -00102ATMX  "
"08515599999","2010-12-03T17:00:00","4","39.092169","-28.029847","26.21","GRACIOSA, PO","FM-15","LPGR ","V020","100,1,N,0067,1","00300,1,C,N","002500,1,N,1","+0170,1","+0170,1","99999,9","04,5,+00090,1,99,9","07,5,+00300,1,99,9","08,5,+02100,1,99,9","08,99,1,99,9,99,9,99999,9,99,9,99,9",,"09970,1,99999,9","51,1",,,"MET092METAR LPGR 031700Z 10013KT 2500 -DZ SCT003 BKN010 OVC070 17/17 Q0997 RMK WIND RWY09 12010KT;",
"08515599999","2010-12-04T09:00:00","4","39.092169","-28.029847","26.21","GRACIOSA, PO","FM-15","LPGR ","V020","220,1,N,0021,1","02400,1,C,N","011265,1,N,1","+0150,1","+0140,1","99999,9","02,5,+00300,1,99,9","07,5,+02400,1,99,9",,"07,99,1,99,9,99,9,99999,9,99,9,99,9",,"09851,1,99999,9",,,,"MET081METAR LPGR 040900Z 22004KT 9999 FEW010 BKN080 15/14 Q0985 RMK WIND RWY09 30002KT;",
"08515599999","2010-12-04T10:00:00","4","39.092169","-28.029847","26.21","GRACIOSA, PO","FM-15","LPGR ","V020","220,1,N,0015,1","00300,1,C,N","011265,1,N,1","+0170,1","+0160,1","99999,9","02,5,+00180,1,99,9","04,5,+00300,1,99,9","07,5,+02400,1,99,9","07,99,1,99,9,99,9,99999,9,99,9,99,9",,"09841,1,99999,9",,,,"MET088METAR LPGR 041000Z 22003KT 9999 FEW006 SCT010 BKN080 17/16 Q0984 RMK WIND RWY09 30002KT;",
"08515599999","2010-12-04T11:00:00","4","39.092169","-28.029847","26.21","GRACIOSA, PO","FM-15","LPGR ","V020","030,1,N,0010,1","00300,1,C,N","002500,1,N,1","+0170,1","+0160,1","99999,9","02,5,+00150,1,99,9","04,5,+00300,1,99,9","08,5,+02400,1,99,9","08,99,1,99,9,99,9,99999,9,99,9,99,9",,"09851,1,99999,9","63,1",,,"MET091METAR LPGR 041100Z 03002KT 2500 RA FEW005 SCT010 OVC080 17/16 Q0985 RMK WIND RWY09 02002KT;",
"08515599999","2010-12-04T12:00:00","4","39.092169","-28.029847","26.21","GRACIOSA, PO","FM-15","LPGR ","V020","110,1,N,0041,1","00420,1,C,N","009000,1,N,1","+0160,1","+0150,1","99999,9","07,5,+00420,1,99,9","08,5,+02400,1,99,9",,"08,99,1,99,9,99,9,99999,9,99,9,99,9","999,M,+9999,9","09851,1,99999,9","61,1",,,"MET085METAR LPGR 041200Z 11008KT 9000 -RA BKN014 OVC080 16/15 Q0985 RMK WIND RWY09 11007KT;","Q01 -00072ATMX  "
"08515599999","2010-12-04T13:00:00","4","39.092169","-28.029847","26.21","GRACIOSA, PO","FM-15","LPGR ","V020","050,1,N,0031,1","00300,1,C,N","008000,1,N,1","+0170,1","+0160,1","99999,9","02,5,+00180,1,99,9","04,5,+00300,1,99,9","08,5,+02400,1,99,9","08,99,1,99,9,99,9,99999,9,99,9,99,9",,"09841,1,99999,9","61,1",,,"MET092METAR LPGR 041300Z 05006KT 8000 -RA FEW006 SCT010 OVC080 17/16 Q0984 RMK WIND RWY09 05010KT;",
"08515599999","2010-12-04T15:00:00","4","39.092169","-28.029847","26.21","GRACIOSA, PO","FM-15","LPGR ","V020","050,1,N,0108,1","00300,1,C,N","008000,1,N,1","+0160,1","+0150,1","99999,9","02,5,+00180,1,99,9","07,5,+00300,1,99,9","08,5,+02400,1,99,9","08,99,1,99,9,99,9,99999,9,99,9,99,9",,"09831,1,99999,9",,,"0165,1","MET102METAR LPGR 041500Z 05021G32KT 010V090 8000 FEW006 BKN010 OVC080 16/15 Q0983 RMK WIND RWY09 04022G32KT;",
"08515599999","2010-12-04T16:00:00","4","39.092169","-28.029847","26.21","GRACIOSA, PO","FM-15","LPGR ","V020","050,1,N,0129,1","00300,1,C,N","005000,1,N,1","+0150,1","+0140,1","99999,9","07,5,+00300,1,99,9","08,5,+02400,1,99,9",,"08,99,1,99,9,99,9,99999,9,99,9,99,9",,"09831,1,99999,9","80,1",,"0221,1","MET101METAR LPGR 041600Z 05025G43KT 010V090 5000 -SHRA BKN010 OVC080 15/14 Q0983 RMK WIND RWY09 04030G40KT;",
"08515599999","2010-12-04T17:00:00","4","39.092169","-28.029847","26.21","GRACIOSA, PO","FM-15","LPGR ","V020","050,1,N,0129,1","00300,1,C,N","005000,1,N,1","+0150,1","+0130,1","99999,9","07,5,+00300,1,99,9","08,5,+02400,1,99,9",,"08,99,1,99,9,99,9,99999,9,99,9,99,9",,"09841,1,99999,9","61,1",,"0206,1","MET099METAR LPGR 041700Z 05025G40KT 010V090 5000 -RA BKN010 OVC080 15/13 Q0984 RMK WIND RWY09 04030G41KT;",
"08515599999","2010-12-05T09:00:00","4","39.092169","-28.029847","26.21","GRACIOSA, PO","FM-15","LPGR ","V020","320,1,N,0062,1","22000,1,9,N","011265,1,N,1","+0130,1","+0060,1","99999,9","02,5,+00480,1,99,9",,,"02,99,1,99,9,99,9,99999,9,99,9,99,9",,"09892,1,99999,9",,,,"MET074METAR LPGR 050900Z 32012KT 9999 FEW016 13/06 Q0989 RMK WIND RWY09 31013KT;",
"08515599999","2010-12-05T10:00:00","4","39.092169","-28.029847","26.21","GRACIOSA, PO","FM-15","LPGR ","V020","320,1,N,0057,1","22000,1,9,N","011265,1,N,1","+0140,1","+0070,1","99999,9","02,5,+00480,1,99,9",,,"02,99,1,99,9,99,9,99999,9,99,9,99,9",,"09919,1,99999,9",,,,"MET074METAR LPGR 051000Z 32011KT 9999 FEW016 14/07 Q0992 RMK WIND RWY09 31014KT;",
"08515599999","2010-12-05T11:00:00","4","39.092169","-28.029847","26.21","GRACIOSA, PO","FM-15","LPGR ","V020","300,1,N,0067,1","22000,1,9,N","011265,1,N,1","+0140,1","+0070,1","99999,9","02,5,+00540,1,99,9",,,"02,99,1,99,9,99,9,99999,9,99,9,99,9",,"09919,1,99999,9",,,,"MET074METAR LPGR 051100Z 30013KT 9999 FEW018 14/07 Q0992 RMK WIND RWY09 29013KT;",
"08515599999","2010-12-05T12:00:00","4","39.092169","-28.029847","26.21","GRACIOSA, PO","FM-15","LPGR ","V020","300,1,N,0067,1","22000,1,9,N","011265,1,N,1","+0150,1","+0080,1","99999,9","04,5,+00540,1,99,9",,,"04,99,1,99,9,99,9,99999,9,99,9,99,9",,"09929,1,99999,9",,,,"MET074METAR LPGR 051200Z 30013KT 9999 SCT018 15/08 Q0993 RMK WIND RWY09 29013KT;",
"08515599999","2010-12-05T13:00:00","4","39.092169","-28.029847","26.21","GRACIOSA, PO","FM-15","LPGR ","V020","290,1,N,0062,1","22000,1,9,N","011265,1,N,1","+0140,1","+0080,1","99999,9","02,5,+00540,1,99,9",,,"02,99,1,99,9,99,9,99999,9,99,9,99,9",,"09919,1,99999,9",,,,"MET074METAR LPGR 051300Z 29012KT 9999 FEW018 14/08 Q0992 RMK WIND RWY09 28014KT;",
"08515599999","2010-12-05T14:00:00","4","39.092169","-28.029847","26.21","GRACIOSA, PO","FM-15","LPGR ","V020","290,1,N,0062,1","22000,1,9,N","011265,1,N,1","+0150,1","+0080,1","99999,9","02,5,+00540,1,99,9",,,"02,99,1,99,9,99,9,99999,9,99,9,99,9",,"09919,1,99999,9",,,,"MET074METAR LPGR 051400Z 29012KT 9999 FEW018 15/08 Q0992 RMK WIND RWY09 28018KT;",
"08515599999","2010-12-05T15:00:00","4","39.092169","-28.029847","26.21","GRACIOSA, PO","FM-15","LPGR ","V020","290,1,N,0082,1","22000,1,9,N","011265,1,N,1","+0160,1","+0080,1","99999,9","02,5,+00600,1,99,9",,,"02,99,1,99,9,99,9,99999,9,99,9,99,9",,"09909,1,99999,9",,,,"MET074METAR LPGR 051500Z 29016KT 9999 FEW020 16/08 Q0991 RMK WIND RWY09 28017KT;",
"08515599999","2010-12-05T16:00:00","4","39.092169","-28.029847","26.21","GRACIOSA, PO","FM-15","LPGR ","V020","250,1,N,0082,1","22000,1,9,N","011265,1,N,1","+0150,1","+0080,1","99999,9","02,5,+00600,1,99,9",,,"02,99,1,99,9,99,9,99999,9,99,9,99,9",,"09909,1,99999,9",,,,"MET074METAR LPGR 051600Z 25016KT 9999 FEW020 15/08 Q0991 RMK WIND RWY09 25017KT;",
"08515599999","2010-12-05T17:00:00","4","39.092169","-28.029847","26.21","GRACIOSA, PO","FM-15","LPGR ","V020","270,1,N,0077,1","22000,1,9,N","011265,1,N,1","+0150,1","+0080,1","99999,9","02,5,+00600,1,99,9",,,"02,99,1,99,9,99,9,99999,9,99,9,99,9",,"09909,1,99999,9",,,,"MET074METAR LPGR 051700Z 27015KT 9999 FEW020 15/08 Q0991 RMK WIND RWY09 27017KT;",
"08515599999","2010-12-05T18:00:00","4","39.092169","-28.029847","26.21","GRACIOSA, PO","FM-15","LPGR ","V020","270,1,N,0072,1","99999,9,C,N","011265,1,N,1","+0140,1","+0070,1","99999,9","04,5,+00540,1,99,9","04,5,+00600,1,02,5",,"04,99,1,99,9,99,9,99999,9,99,9,99,9",,"09909,1,99999,9","16,1",,,"MET089METAR LPGR 051800Z 27014KT 9999 VCSH SCT018 SCT020TCU 14/07 Q0991 RMK WIND RWY09 27017KT;","P01 006003SCOCIG"
"08515599999","2010-12-06T09:00:00","4","39.092169","-28.029847","26.21","GRACIOSA, PO","FM-15","LPGR ","V020","030,1,N,0051,1","22000,1,9,N","011265,1,N,1","+0140,1","+0090,1","99999,9","02,5,+00480,1,99,9",,,"02,99,1,99,9,99,9,99999,9,99,9,99,9",,"09929,1,99999,9",,,,"MET074METAR LPGR 060900Z 03010KT 9999 FEW016 14/09 Q0993 RMK WIND RWY09 02008KT;",
"08515599999","2010-12-06T10:00:00","4","39.092169","-28.029847","26.21","GRACIOSA, PO","FM-15","LPGR ","V020","030,1,N,0046,1","22000,1,9,N","011265,1,N,1","+0150,1","+0100,1","99999,9","02,5,+00540,1,99,9",,,"02,99,1,99,9,99,9,99999,9,99,9,99,9",,"09939,1,99999,9",,,,"MET074METAR LPGR 061000Z 03009KT 9999 FEW018 15/10 Q0994 RMK WIND RWY09 02010KT;",
"08515599999","2010-12-06T11:00:00","4","39.092169","-28.029847","26.21","GRACIOSA, PO","FM-15","LPGR ","V020","010,1,N,0057,1","22000,1,9,N","011265,1,N,1","+0160,1","+0110,1","99999,9","02,5,+00540,1,99,9",,,"02,99,1,99,9,99,9,99999,9,99,9,99,9",,"09949,1,99999,9",,,,"MET074METAR LPGR 061100Z 01011KT 9999 FEW018 16/11 Q0995 RMK WIND RWY09 35012KT;",
"08515599999","2010-12-06T12:00:00","4","39.092169","-28.029847","26.21","GRACIOSA, PO","FM-15","LPGR ","V020","360,1,N,0062,1","00540,1,C,N","011265,1,N,1","+0160,1","+0110,1","99999,9","07,5,+00540,1,99,9",,,"07,99,1,99,9,99,9,99999,9,99,9,99,9",,"09949,1,99999,9",,,,"MET074METAR LPGR 061200Z 36012KT 9999 BKN018 16/11 Q0995 RMK WIND RWY09 35012KT;",
"08515599999","2010-12-06T15:00:00","4","39.092169","-28.029847","26.21","GRACIOSA, PO","FM-15","LPGR ","V020","040,1,N,0103,1","00480,1,C,N","005000,1,N,1","+0150,1","+0140,1","99999,9","07,5,+00480,1,99,9",,,"07,99,1,99,9,99,9,99999,9,99,9,99,9",,"09949,1,99999,9","80,1",,"0195,1","MET094METAR LPGR 061500Z 04020G38KT 360V090 5000 -SHRA BKN016 15/14 Q0995 RMK WIND RWY09 03020G38KT;",
"08515599999","2010-12-06T17:00:00","4","39.092169","-28.029847","26.21","GRACIOSA, PO","FM-15","LPGR ","V020","030,1,N,0113,1","00420,1,C,N","007000,1,N,1","+0140,1","+0130,1","99999,9","07,5,+00420,1,99,9","07,5,+00750,1,99,9",,"07,99,1,99,9,99,9,99999,9,99,9,99,9",,"09970,1,99999,9","80,1",,"0185,1","MET101METAR LPGR 061700Z 03022G36KT 350V070 7000 -SHRA BKN014 BKN025 14/13 Q0997 RMK WIND RWY09 04026G36KT;",
"08515599999","2010-12-06T18:00:00","4","39.092169","-28.029847","26.21","GRACIOSA, PO","FM-15","LPGR ","V020","040,1,N,0103,1","00420,1,C,N","011265,1,N,1","+0150,1","+0120,1","99999,9","07,5,+00420,1,99,9","07,5,+00750,1,99,9",,"07,99,1,99,9,99,9,99999,9,99,9,99,9",,"09980,1,99999,9",,,"0175,1","MET095METAR LPGR 061800Z 04020G34KT 360V080 9999 BKN014 BKN025 15/12 Q0998 RMK WIND RWY09 03025G35KT;",
"08515599999","2010-12-07T09:00:00","4","39.092169","-28.029847","26.21","GRACIOSA, PO","FM-15","LPGR ","V020","040,1,N,0087,1","22000,1,9,N","011265,1,N,1","+0140,1","+0090,1","99999,9","04,5,+00450,1,99,9",,,"04,99,1,99,9,99,9,99999,9,99,9,99,9",,"10102,1,99999,9",,,"0139,1","MET088METAR LPGR 070900Z 04017G27KT 360V070 9999 SCT015 14/09 Q1010 RMK WIND RWY09 03022G32KT;",
"08515599999","2010-12-07T10:00:00","4","39.092169","-28.029847","26.21","GRACIOSA, PO","FM-15","LPGR ","V020","040,1,N,0087,1","99999,9,C,N","011265,1,N,1","+0130,1","+0090,1","99999,9","02,5,+00450,1,99,9","02,5,+00510,1,02,5","04,5,+01050,1,99,9","04,99,1,99,9,99,9,99999,9,99,9,99,9",,"10108,1,99999,9",,,,"MET099METAR LPGR 071000Z 04017KT 350V080 9999 FEW015 FEW017TCU SCT035 13/09 Q1011 RMK WIND RWY09 04021KT;","P01 010503SCOCIG"
"08515599999","2010-12-07T11:00:00","4","39.092169","-28.029847","26.21","GRACIOSA, PO","FM-15","LPGR ","V020","030,1,N,0103,1","99999,9,C,N","011265,1,N,1","+0130,1","+0090,1","99999,9","02,5,+00390,1,99,9","04,5,+01050,1,99,9",,"04,99,1,99,9,99,9,99999,9,99,9,99,9",,"10119,1,99999,9",,,"0159,1","MET092METAR LPGR 071100Z 03020G31KT 350V050 9999 FEW013 SCT035 13/09 Q1012 RMK WIND RWY09 02020KT;","P01 010503SCOCIG"
"08515599999","2010-12-07T12:00:00","4","39.092169","-28.029847","26.21","GRACIOSA, PO","FM-15","LPGR ","V020","040,1,N,0103,1","00510,5,C,N","011265,1,N,1","+0130,1","+0090,1","99999,9","04,5,+00450,1,99,9","02,5,+00510,1,99,9",,,,"10119,1,99999,9",,,"0154,1","MET092METAR LPGR 071200Z 04020G30KT 350V080 9999 SCT015 FEW017 13/09 Q1012 RMK WIND RWY09 03024KT;","Q01+000022SCOTCV"
"08515599999","2010-12-07T13:00:00","4","39.092169","-28.029847","26.21","GRACIOSA, PO","FM-15","LPGR ","V020","020,1,N,0113,1","99999,9,C,N","011265,1,N,1","+0140,1","+0080,1","99999,9","04,5,+00480,1,99,9","04,5,+00540,1,02,5",,"04,99,1,99,9,99,9,99999,9,99,9,99,9",,"10119,1,99999,9",,,"0185,1","MET098METAR LPGR 071300Z 02022G36KT 350V050 9999 SCT016 SCT018TCU 14/08 Q1012 RMK WIND RWY09 02026G38KT;","P01 005403SCOCIG"
"08515599999","2010-12-07T14:00:00","4","39.092169","-28.029847","26.21","GRACIOSA, PO","FM-15","LPGR ","V020","020,1,N,0103,1","99999,9,C,N","011265,1,N,1","+0140,1","+0080,1","99999,9","04,5,+00450,1,99,9","04,5,+00510,1,02,5",,"04,99,1,99,9,99,9,99999,9,99,9,99,9",,"10119,1,99999,9",,,"0170,1","MET098METAR LPGR 071400Z 02020G33KT 350V050 9999 SCT015 SCT017TCU 14/08 Q1012 RMK WIND RWY09 01022G35KT;","P01 005103SCOCIG"
"08515599999","2010-12-07T15:00:00","4","39.092169","-28.029847","26.21","GRACIOSA, PO","FM-15","LPGR ","V020","020,1,N,0113,1","99999,9,C,N","011265,1,N,1","+0140,1","+0080,1","99999,9","02,5,+00480,1,99,9","04,5,+00540,1,02,5",,"04,99,1,99,9,99,9,99999,9,99,9,99,9",,"10119,1,99999,9",,,"0165,1","MET098METAR LPGR 071500Z 02022G32KT 350V050 9999 FEW016 SCT018TCU 14/08 Q1012 RMK WIND RWY09 03023G35KT;","P01 005403SCOCIG"
"08515599999","2010-12-07T16:00:00","4","39.092169","-28.029847","26.21","GRACIOSA, PO","FM-15","LPGR ","V020","020,1,N,0103,1","00540,5,C,N","011265,1,N,1","+0140,1","+0080,1","99999,9","04,5,+00480,1,99,9","02,5,+00540,1,02,5",,,,"10119,1,99999,9",,,"0154,1","MET098METAR LPGR 071600Z 02020G30KT 350V050 9999 SCT016 FEW018TCU 14/08 Q1012 RMK WIND RWY09 02021G35KT;","Q01+000022SCOTCV"
"08515599999","2010-12-07T17:00:00","4","39.092169","-28.029847","26.21","GRACIOSA, PO","FM-15","LPGR ","V020","020,1,N,0139,1","99999,9,C,N","011265,1,N,1","+0140,1","+0070,1","99999,9","02,5,+00480,1,99,9","04,5,+00540,1,02,5",,"04,99,1,99,9,99,9,99999,9,99,9,99,9",,"10129,1,99999,9",,,"0206,1","MET106METAR LPGR 071700Z 02027G40KT 350V050 9999 FEW016 SCT018TCU 14/07 Q1013 RMK WIND RWY09 02026G36KT EST WND;","P01 005403SCOCIG"
"08515599999","2010-12-07T18:00:00","4","39.092169","-28.029847","26.21","GRACIOSA, PO","FM-15","LPGR ","V020","020,1,N,0129,1","99999,9,C,N","011265,1,N,1","+0120,1","+0080,1","99999,9","02,5,+00480,1,99,9","04,5,+00540,1,09,5",,"04,99,1,99,9,99,9,99999,9,99,9,99,9",,"10139,1,99999,9",,,"0180,1","MET105METAR LPGR 071800Z 02025G35KT 350V050 9999 FEW016 SCT018CB 12/08 Q1014 RMK WIND RWY09 02020G30KT EST WND;","P01 005403SCOCIG"
"08515599999","2010-12-08T09:00:00","4","39.092169","-28.029847","26.21","GRACIOSA, PO","FM-15","LPGR ","V020","050,1,N,0103,1","22000,1,9,N","011265,1,N,1","+0140,1","+0070,1","99999,9","02,5,+00480,1,99,9","02,5,+00540,1,09,5",,"02,99,1,99,9,99,9,99999,9,99,9,99,9",,"10230,1,99999,9",,,,"MET083METAR LPGR 080900Z 05020KT 9999 FEW016 FEW018CB 14/07 Q1023 RMK WIND RWY09 04019KT;",
"08515599999","2010-12-08T10:00:00","4","39.092169","-28.029847","26.21","GRACIOSA, PO","FM-15","LPGR ","V020","050,1,N,0108,1","00540,5,C,N","011265,1,N,1","+0140,1","+0080,1","99999,9","04,5,+00480,1,99,9","02,5,+00540,1,02,5",,,,"10240,1,99999,9",,,,"MET092METAR LPGR 081000Z 05021KT 9999 SCT016 FEW018TCU 14/08 Q1024 RMK WIND RWY09 06022KT EST WND;","Q01+000022SCOTCV"
"08515599999","2010-12-08T11:00:00","4","39.092169","-28.029847","26.21","GRACIOSA, PO","FM-15","LPGR ","V020","050,1,N,0103,1","22000,1,9,N","011265,1,N,1","+0140,1","+0070,1","99999,9","02,5,+00480,1,99,9","02,5,+00540,1,02,5",,"02,99,1,99,9,99,9,99999,9,99,9,99,9",,"10240,1,99999,9",,,,"MET092METAR LPGR 081100Z 05020KT 9999 FEW016 FEW018TCU 14/07 Q1024 RMK WIND RWY09 05022KT EST WND;",
"08515599999","2010-12-09T10:00:00","4","39.092169","-28.029847","26.21","GRACIOSA, PO","FM-15","LPGR ","V020","050,1,N,0123,1","22000,1,9,N","011265,1,N,1","+0140,1","+0080,1","99999,9","04,5,+00540,1,99,9",,,"04,99,1,99,9,99,9,99999,9,99,9,99,9",,"10251,1,99999,9",,,,"MET082METAR LPGR 091000Z 05024KT 9999 SCT018 14/08 Q1025 RMK WIND RWY09 05020KT EST WND;",
"08515599999","2010-12-09T11:00:00","4","39.092169","-28.029847","26.21","GRACIOSA, PO","FM-15","LPGR ","V020","040,1,N,0108,1","22000,1,9,N","011265,1,N,1","+0130,1","+0070,1","99999,9","02,5,+00540,1,99,9",,,"02,99,1,99,9,99,9,99999,9,99,9,99,9",,"10261,1,99999,9",,,,"MET082METAR LPGR 091100Z 04021KT 9999 FEW018 13/07 Q1026 RMK WIND RWY09 03019KT EST WND;",
"08515599999","2010-12-09T12:00:00","4","39.092169","-28.029847","26.21","GRACIOSA, PO","FM-15","LPGR ","V020","050,1,N,0118,1","22000,1,9,N","011265,1,N,1","+0140,1","+0080,1","99999,9","02,5,+00540,1,99,9",,,"02,99,1,99,9,99,9,99999,9,99,9,99,9",,"10251,1,99999,9",,,,"MET082METAR LPGR 091200Z 05023KT 9999 FEW018 14/08 Q1025 RMK WIND RWY09 04024KT EST WND;",
"08515599999","2010-12-09T13:00:00","4","39.092169","-28.029847","26.21","GRACIOSA, PO","FM-15","LPGR ","V020","030,1,N,0108,1","22000,1,9,N","011265,1,N,1","+0140,1","+0070,1","99999,9","04,5,+00540,1,99,9",,,"04,99,1,99,9,99,9,99999,9,99,9,99,9",,"10251,1,99999,9","16,1",,"0165,1","MET093METAR LPGR 091300Z 03021G32KT 9999 VCSH SCT018 14/07 Q1025 RMK WIND RWY09 05024G34KT EST WND;",
"08515599999","2010-12-09T14:00:00","4","39.092169","-28.029847","26.21","GRACIOSA, PO","FM-15","LPGR ","V020","050,1,N,0103,1","00540,5,C,N","011265,1,N,1","+0150,1","+0080,1","99999,9","04,5,+00480,1,99,9","02,5,+00540,1,09,5",,,,"10230,1,99999,9",,,"0185,1","MET097METAR LPGR 091400Z 05020G36KT 010V080 9999 SCT016 FEW018CB 15/08 Q1023 RMK WIND RWY09 06024G34KT;","Q01+000022SCOTCV"
"08515599999","2010-12-09T15:00:00","4","39.092169","-28.029847","26.21","GRACIOSA, PO","FM-15","LPGR ","V020","050,1,N,0098,1","01200,1,C,N","011265,1,N,1","+0130,1","+0080,1","99999,9","02,5,+00480,1,99,9","02,5,+00540,1,02,5","07,5,+01200,1,99,9","07,99,1,99,9,99,9,99999,9,99,9,99,9",,"10230,1,99999,9",,,"0165,1","MET105METAR LPGR 091500Z 05019G32KT 010V080 9999 FEW016 FEW018TCU BKN040 13/08 Q1023 RMK WIND RWY09 05019G29KT;",
"08515599999","2010-12-10T10:00:00","4","39.092169","-28.029847","26.21","GRACIOSA, PO","FM-15","LPGR ","V020","020,1,N,0103,1","02700,1,C,N","011265,1,N,1","+0140,1","+0080,1","99999,9","04,5,+00480,1,99,9","07,5,+02700,1,99,9",,"07,99,1,99,9,99,9,99999,9,99,9,99,9",,"10139,1,99999,9",,,,"MET089METAR LPGR 101000Z 02020KT 9999 SCT016 BKN090 14/08 Q1014 RMK WIND RWY09 02022KT EST WND;",
"08515599999","2010-12-10T11:00:00","4","39.092169","-28.029847","26.21","GRACIOSA, PO","FM-15","LPGR ","V020","030,1,N,0103,1","00900,1,C,N","011265,1,N,1","+0140,1","+0090,1","99999,9","04,5,+00480,1,99,9","07,5,+00900,1,99,9",,"07,99,1,99,9,99,9,99999,9,99,9,99,9",,"10139,1,99999,9",,,"0154,1","MET092METAR LPGR 101100Z 03020G30KT 9999 SCT016 BKN030 14/09 Q1014 RMK WIND RWY09 03024KT EST WND;",
"08515599999","2010-12-10T12:00:00","4","39.092169","-28.029847","26.21","GRACIOSA, PO","FM-15","LPGR ","V020","030,1,N,0118,1","00900,1,C,N","011265,1,N,1","+0150,1","+0090,1","99999,9","04,5,+00480,1,99,9","07,5,+00900,1,99,9",,"07,99,1,99,9,99,9,99999,9,99,9,99,9",,"10129,1,99999,9",,,,"MET089METAR LPGR 101200Z 03023KT 9999 SCT016 BKN030 15/09 Q1013 RMK WIND RWY09 02022KT EST WND;",
"08515599999","2010-12-10T13:00:00","4","39.092169","-28.029847","26.21","GRACIOSA, PO","FM-15","LPGR ","V020","020,1,N,0113,1","01050,1,C,N","011265,1,N,1","+0150,1","+0090,1","99999,9","04,5,+00480,1,99,9","07,5,+01050,1,99,9",,"07,99,1,99,9,99,9,99999,9,99,9,99,9",,"10119,1,99999,9",,,"0165,1","MET087METAR LPGR 101300Z 02022G32KT 9999 SCT016 BKN035 15/09 Q1012 RMK WIND RWY09 02023G33KT;",
"08515599999","2010-12-10T14:00:00","4","39.092169","-28.029847","26.21","GRACIOSA, PO","FM-15","LPGR ","V020","020,1,N,0098,1","01050,1,C,N","011265,1,N,1","+0140,1","+0090,1","99999,9","04,5,+00480,1,99,9","07,5,+01050,1,99,9",,"07,99,1,99,9,99,9,99999,9,99,9,99,9",,"10108,1,99999,9",,,"0154,1","MET095METAR LPGR 101400Z 02019G30KT 350V050 9999 SCT016 BKN035 14/09 Q1011 RMK WIND RWY09 02019G29KT;",
"08515599999","2010-12-12T09:00:00","4","39.092169","-28.029847","26.21","GRACIOSA, PO","FM-15","LPGR ","V020","340,1,N,0077,1","22000,1,9,N","011265,1,N,1","+0150,1","+0110,1","99999,9","02,5,+00450,1,99,9",,,"02,99,1,99,9,99,9,99999,9,99,9,99,9",,"10081,1,99999,9",,,,"MET082METAR LPGR 120900Z 34015KT 9999 FEW015 15/11 Q1008 RMK WIND RWY09 33018KT EST WND;",
"08515599999","2010-12-12T10:00:00","4","39.092169","-28.029847","26.21","GRACIOSA, PO","FM-15","LPGR ","V020","330,1,N,0077,1","22000,1,9,N","011265,1,N,1","+0150,1","+0100,1","99999,9","02,5,+00450,1,99,9",,,"02,99,1,99,9,99,9,99999,9,99,9,99,9",,"10091,1,99999,9",,,,"MET082METAR LPGR 121000Z 33015KT 9999 FEW015 15/10 Q1009 RMK WIND RWY09 31017KT EST WND;",
"08515599999","2010-12-12T11:00:00","4","39.092169","-28.029847","26.21","GRACIOSA, PO","FM-15","LPGR ","V020","330,1,N,0057,1","01050,1,C,N","011265,1,N,1","+0150,1","+0100,1","99999,9","02,5,+00450,1,99,9","07,5,+01050,1,99,9",,"07,99,1,99,9,99,9,99999,9,99,9,99,9",,"10091,1,99999,9",,,,"MET081METAR LPGR 121100Z 33011KT 9999 FEW015 BKN035 15/10 Q1009 RMK WIND RWY09 31014KT;",
"08515599999","2010-12-12T12:00:00","4","39.092169","-28.029847","26.21","GRACIOSA, PO","FM-15","LPGR ","V020","320,1,N,0067,1","22000,1,9,N","011265,1,N,1","+0160,1","+0070,1","99999,9","02,5,+00510,1,99,9",,,"02,99,1,99,9,99,9,99999,9,99,9,99,9",,"10102,1,99999,9",,,,"MET074METAR LPGR 121200Z 32013KT 9999 FEW017 16/07 Q1010 RMK WIND RWY09 32015KT;",
"08515599999","2010-12-14T09:00:00","4","39.092169","-28.029847","26.21","GRACIOSA, PO","FM-15","LPGR ","V020","200,1,N,0021,1","01200,1,C,N","011265,1,N,1","+0100,1","+0090,1","99999,9","02,5,+00420,1,99,9","07,5,+01200,1,99,9",,"07,99,1,99,9,99,9,99999,9,99,9,99,9",,"10071,1,99999,9",,,,"MET089METAR LPGR 140900Z 20004KT 9999 FEW014 BKN040 10/09 Q1007 RMK WIND RWY09 19001KT EST WND;",
"08515599999","2010-12-14T10:00:00","4","39.092169","-28.029847","26.21","GRACIOSA, PO","FM-15","LPGR ","V020","200,1,N,0026,1","01200,1,C,N","011265,1,N,1","+0110,1","+0090,1","99999,9","02,5,+00420,1,99,9","04,5,+01200,1,99,9","07,5,+02400,1,99,9","07,99,1,99,9,99,9,99999,9,99,9,99,9",,"10071,1,99999,9",,,,"MET096METAR LPGR 141000Z 20005KT 9999 FEW014 SCT040 BKN080 11/09 Q1007 RMK WIND RWY09 19001KT EST WND;",
"08515599999","2010-12-14T11:00:00","4","39.092169","-28.029847","26.21","GRACIOSA, PO","FM-15","LPGR ","V020","200,1,N,0026,1","01200,1,C,N","011265,1,N,1","+0120,1","+0090,1","99999,9","02,5,+00420,1,99,9","04,5,+01200,1,99,9","07,5,+02400,1,99,9","07,99,1,99,9,99,9,99999,9,99,9,99,9",,"10071,1,99999,9",,,,"MET096METAR LPGR 141100Z 20005KT 9999 FEW014 SCT040 BKN080 12/09 Q1007 RMK WIND RWY09 19002KT EST WND;",
"08515599999","2010-12-14T12:00:00","4","39.092169","-28.029847","26.21","GRACIOSA, PO","FM-15","LPGR ","V020","120,1,N,0041,1","02400,1,C,N","011265,1,N,1","+0140,1","+0090,1","99999,9","02,5,+00480,1,99,9","07,5,+02400,1,99,9",,"07,99,1,99,9,99,9,99999,9,99,9,99,9",,"10081,1,99999,9","61,1",,,"MET093METAR LPGR 141200Z 12008KT 9999 -RA FEW016 BKN080 14/09 Q1008 RMK WIND RWY09 12006KT EST WND;",
"08515599999","2010-12-14T13:00:00","4","39.092169","-28.029847","26.21","GRACIOSA, PO","FM-15","LPGR ","V020","090,1,N,0026,1","02400,1,C,N","011265,1,N,1","+0130,1","+0100,1","99999,9","02,5,+00480,1,99,9","08,5,+02400,1,99,9",,"08,99,1,99,9,99,9,99999,9,99,9,99,9","999,M,+9999,9","10081,1,99999,9","61,1",,,"MET093METAR LPGR 141300Z 09005KT 9999 -RA FEW016 OVC080 13/10 Q1008 RMK WIND RWY09 10005KT EST WND;","Q01 +00052ATMX  "
"08515599999","2010-12-14T14:00:00","4","39.092169","-28.029847","26.21","GRACIOSA, PO","FM-15","LPGR ","V020","080,1,N,0036,1","00900,1,C,N","009000,1,N,1","+0130,1","+0110,1","99999,9","02,5,+00480,1,99,9","04,5,+00900,1,99,9","08,5,+02400,1,99,9","08,99,1,99,9,99,9,99999,9,99,9,99,9",,"10071,1,99999,9","61,1",,,"MET092METAR LPGR 141400Z 08007KT 9000 -RA FEW016 SCT030 OVC080 13/11 Q1007 RMK WIND RWY09 09008KT;",
"08515599999","2010-12-14T15:00:00","4","39.092169","-28.029847","26.21","GRACIOSA, PO","FM-15","LPGR ","V020","110,1,N,0062,1","02400,1,C,N","009000,1,N,1","+0130,1","+0110,1","99999,9","04,5,+00390,1,99,9","08,5,+02400,1,99,9",,"08,99,1,99,9,99,9,99999,9,99,9,99,9","999,M,+9999,9","10061,1,99999,9","61,1",,,"MET085METAR LPGR 141500Z 11012KT 9000 -RA SCT013 OVC080 13/11 Q1006 RMK WIND RWY09 11010KT;","Q01 -00102ATMX  "
"08515599999","2010-12-15T08:00:00","4","39.092169","-28.029847","26.21","GRACIOSA, PO","FM-15","LPGR ","V020","130,1,N,0041,1","00900,1,C,N","011265,1,N,1","+0160,1","+0140,1","99999,9","02,5,+00390,1,99,9","04,5,+00900,1,99,9","07,5,+02400,1,99,9","07,99,1,99,9,99,9,99999,9,99,9,99,9",,"10041,1,99999,9","61,1",,,"MET100METAR LPGR 150800Z 13008KT 9999 -RA FEW013 SCT030 BKN080 16/14 Q1004 RMK WIND RWY09 13007KT EST WND;",
"08515599999","2010-12-15T09:00:00","4","39.092169","-28.029847","26.21","GRACIOSA, PO","FM-15","LPGR ","V020","120,1,N,0062,1","02400,1,C,N","011265,1,N,1","+0160,1","+0140,1","99999,9","04,5,+00360,1,99,9","08,5,+02400,1,99,9",,"08,99,1,99,9,99,9,99999,9,99,9,99,9",,"10051,1,99999,9","61,1",,,"MET093METAR LPGR 150900Z 12012KT 9999 -RA SCT012 OVC080 16/14 Q1005 RMK WIND RWY09 12010KT EST WND;",
"08515599999","2010-12-15T11:00:00","4","39.092169","-28.029847","26.21","GRACIOSA, PO","FM-15","LPGR ","V020","090,1,N,0067,1","00300,1,C,N","005000,1,N,1","+0150,1","+0140,1","99999,9","02,5,+00180,1,99,9","07,5,+00300,1,99,9","08,5,+02100,1,99,9","08,99,1,99,9,99,9,99999,9,99,9,99,9",,"10051,1,99999,9","63,1",,,"MET091METAR LPGR 151100Z 09013KT 5000 RA FEW006 BKN010 OVC070 15/14 Q1005 RMK WIND RWY09 09015KT;",
"08515599999","2010-12-15T12:00:00","4","39.092169","-28.029847","26.21","GRACIOSA, PO","FM-15","LPGR ","V020","080,1,N,0051,1","00180,1,C,N","007000,1,N,1","+0140,1","+0140,1","99999,9","02,5,+00090,1,99,9","04,5,+00180,1,99,9","07,5,+00300,1,99,9","07,99,1,99,9,99,9,99999,9,99,9,99,9",,"10041,1,99999,9","61,1",,,"MET092METAR LPGR 151200Z 08010KT 7000 -RA FEW003 SCT006 BKN010 14/14 Q1004 RMK WIND RWY09 08015KT;",
"08515599999","2010-12-15T13:00:00","4","39.092169","-28.029847","26.21","GRACIOSA, PO","FM-15","LPGR ","V020","080,1,N,0057,1","00300,1,C,N","009000,1,N,1","+0150,1","+0140,1","99999,9","02,5,+00180,1,99,9","04,5,+00300,1,99,9","08,5,+02400,1,99,9","08,99,1,99,9,99,9,99999,9,99,9,99,9",,"10031,1,99999,9","61,1",,,"MET092METAR LPGR 151300Z 08011KT 9000 -RA FEW006 SCT010 OVC080 15/14 Q1003 RMK WIND RWY09 07013KT;",
"08515599999","2010-12-15T14:00:00","4","39.092169","-28.029847","26.21","GRACIOSA, PO","FM-15","LPGR ","V020","130,1,N,0087,1","00420,1,C,N","008000,1,N,1","+0150,1","+0140,1","99999,9","02,5,+00300,1,99,9","04,5,+00420,1,99,9","07,5,+00750,1,99,9","07,99,1,99,9,99,9,99999,9,99,9,99,9",,"10020,1,99999,9","61,1",,,"MET092METAR LPGR 151400Z 13017KT 8000 -RA FEW010 SCT014 BKN025 15/14 Q1002 RMK WIND RWY09 12015KT;",
"08515599999","2010-12-16T12:00:00","4","39.092169","-28.029847","26.21","GRACIOSA, PO","FM-15","LPGR ","V020","090,1,N,0154,1","00420,1,C,N","011265,1,N,1","+0170,1","+0140,1","99999,9","07,5,+00420,1,99,9","07,5,+00750,1,99,9",,"07,99,1,99,9,99,9,99999,9,99,9,99,9",,"10102,1,99999,9",,,"0221,1","MET087METAR LPGR 161200Z 09030G43KT 9999 BKN014 BKN025 17/14 Q1010 RMK WIND RWY09 09034G44KT;",
"08515599999","2010-12-16T13:00:00","4","39.092169","-28.029847","26.21","GRACIOSA, PO","FM-15","LPGR ","V020","090,1,N,0154,1","00420,1,C,N","011265,1,N,1","+0170,1","+0140,1","99999,9","07,5,+00420,1,99,9","07,5,+00750,1,99,9",,"07,99,1,99,9,99,9,99999,9,99,9,99,9",,"10102,1,99999,9",,,"0221,1","MET087METAR LPGR 161300Z 09030G43KT 9999 BKN014 BKN025 17/14 Q1010 RMK WIND RWY09 09035G45KT;",
"08515599999","2010-12-16T14:00:00","4","39.092169","-28.029847","26.21","GRACIOSA, PO","FM-15","LPGR ","V020","080,1,N,0144,1","00420,1,C,N","006000,1,N,1","+0170,1","+0140,1","99999,9","07,5,+00420,1,99,9","07,5,+00750,1,99,9",,"07,99,1,99,9,99,9,99999,9,99,9,99,9",,"10102,1,99999,9",,,"0206,1","MET087METAR LPGR 161400Z 08028G40KT 6000 BKN014 BKN025 17/14 Q1010 RMK WIND RWY09 09032G42KT;",
"08515599999","2010-12-16T16:00:00","4","39.092169","-28.029847","26.21","GRACIOSA, PO","FM-15","LPGR ","V020","090,1,N,0149,1","00360,1,C,N","005000,1,N,1","+0160,1","+0150,1","99999,9","07,5,+00360,1,99,9","07,5,+00750,1,99,9",,"07,99,1,99,9,99,9,99999,9,99,9,99,9",,"10102,1,99999,9","10,1",,"0216,1","MET090METAR LPGR 161600Z 09029G42KT 5000 BR BKN012 BKN025 16/15 Q1010 RMK WIND RWY09 09033G43KT;",
"08515599999","2010-12-16T17:00:00","4","39.092169","-28.029847","26.21","GRACIOSA, PO","FM-15","LPGR ","V020","090,1,N,0139,1","00390,1,C,N","006000,1,N,1","+0170,1","+0140,1","99999,9","07,5,+00390,1,99,9","07,5,+00750,1,99,9",,"07,99,1,99,9,99,9,99999,9,99,9,99,9",,"10108,1,99999,9",,,"0190,1","MET087METAR LPGR 161700Z 09027G37KT 6000 BKN013 BKN025 17/14 Q1011 RMK WIND RWY09 09032G44KT;",
"08515599999","2010-12-17T12:00:00","4","39.092169","-28.029847","26.21","GRACIOSA, PO","FM-15","LPGR ","V020","090,1,N,0098,1","00480,1,C,N","011265,1,N,1","+0150,1","+0100,1","99999,9","07,5,+00480,1,99,9","07,5,+00900,1,99,9",,"07,99,1,99,9,99,9,99999,9,99,9,99,9",,"10139,1,99999,9",,,"0159,1","MET084METAR LPGR 171200Z 09019G31KT 9999 BKN016 BKN030 15/10 Q1014 RMK WIND RWY09 09026KT;",
"08515599999","2010-12-17T13:00:00","4","39.092169","-28.029847","26.21","GRACIOSA, PO","FM-15","LPGR ","V020","080,1,N,0072,1","00900,1,C,N","011265,1,N,1","+0160,1","+0090,1","99999,9","04,5,+00480,1,99,9","07,5,+00900,1,99,9",,"07,99,1,99,9,99,9,99999,9,99,9,99,9",,"10129,1,99999,9",,,"0123,1","MET084METAR LPGR 171300Z 08014G24KT 9999 SCT016 BKN030 16/09 Q1013 RMK WIND RWY09 08023KT;",
"08515599999","2010-12-17T14:00:00","4","39.092169","-28.029847","26.21","GRACIOSA, PO","FM-15","LPGR ","V020","070,1,N,0093,1","00900,1,C,N","011265,1,N,1","+0160,1","+0100,1","99999,9","02,5,+00480,1,99,9","07,5,+00900,1,99,9",,"07,99,1,99,9,99,9,99999,9,99,9,99,9",,"10129,1,99999,9",,,,"MET081METAR LPGR 171400Z 07018KT 9999 FEW016 BKN030 16/10 Q1013 RMK WIND RWY09 07020KT;",
"08515599999","2010-12-18T14:00:00","4","39.092169","-28.029847","26.21","GRACIOSA, PO","FM-15","LPGR ","V020","050,1,N,0021,1","22000,1,9,N","011265,1,N,1","+0140,1","+0090,1","99999,9","02,5,+00540,1,99,9",,,"02,99,1,99,9,99,9,99999,9,99,9,99,9",,"10091,1,99999,9",,,,"MET074METAR LPGR 181400Z 05004KT 9999 FEW018 14/09 Q1009 RMK WIND RWY09 08005KT;",
"08515599999","2010-12-18T15:00:00","4","39.092169","-28.029847","26.21","GRACIOSA, PO","FM-15","LPGR ","V020","060,1,N,0021,1","22000,1,9,N","011265,1,N,1","+0150,1","+0080,1","99999,9","02,5,+00540,1,99,9",,,"02,99,1,99,9,99,9,99999,9,99,9,99,9",,"10081,1,99999,9",,,,"MET074METAR LPGR 181500Z 06004KT 9999 FEW018 15/08 Q1008 RMK WIND RWY09 09003KT;",
"08515599999","2010-12-18T16:00:00","4","39.092169","-28.029847","26.21","GRACIOSA, PO","FM-15","LPGR ","V020","150,1,N,0010,1","22000,1,9,N","011265,1,N,1","+0150,1","+0090,1","99999,9","02,5,+00540,1,99,9",,,"02,99,1,99,9,99,9,99999,9,99,9,99,9",,"10081,1,99999,9",,,,"MET074METAR LPGR 181600Z 15002KT 9999 FEW018 15/09 Q1008 RMK WIND RWY09 22002KT;",
"08515599999","2010-12-19T10:00:00","4","39.092169","-28.029847","26.21","GRACIOSA, PO","FM-15","LPGR ","V020","170,1,N,0021,1","22000,1,9,N","011265,1,N,1","+0100,1","+0080,1","99999,9","02,5,+00480,1,99,9",,,"02,99,1,99,9,99,9,99999,9,99,9,99,9",,"10041,1,99999,9",,,,"MET074METAR LPGR 191000Z 17004KT 9999 FEW016 10/08 Q1004 RMK WIND RWY09 18002KT;",
"08515599999","2010-12-19T11:00:00","4","39.092169","-28.029847","26.21","GRACIOSA, PO","FM-15","LPGR ","V020","150,1,N,0021,1","01050,1,C,N","011265,1,N,1","+0130,1","+0100,1","99999,9","02,5,+00480,1,99,9","07,5,+01050,1,99,9",,"07,99,1,99,9,99,9,99999,9,99,9,99,9",,"10041,1,99999,9",,,,"MET081METAR LPGR 191100Z 15004KT 9999 FEW016 BKN035 13/10 Q1004 RMK WIND RWY09 15003KT;",
"08515599999","2010-12-19T12:00:00","4","39.092169","-28.029847","26.21","GRACIOSA, PO","FM-15","LPGR ","V020","130,1,N,0031,1","99999,9,C,N","011265,1,N,1","+0140,1","+0090,1","99999,9","02,5,+00540,1,99,9","04,5,+01200,1,99,9",,"04,99,1,99,9,99,9,99999,9,99,9,99,9",,"10041,1,99999,9",,,,"MET081METAR LPGR 191200Z 13006KT 9999 FEW018 SCT040 14/09 Q1004 RMK WIND RWY09 13006KT;","P01 012003SCOCIG"
"08515599999","2010-12-19T13:00:00","4","39.092169","-28.029847","26.21","GRACIOSA, PO","FM-15","LPGR ","V020","120,1,N,0041,1","01200,1,C,N","011265,1,N,1","+0150,1","+0080,1","99999,9","02,5,+00540,1,99,9","07,5,+01200,1,99,9",,"07,99,1,99,9,99,9,99999,9,99,9,99,9",,"10041,1,99999,9",,,,"MET081METAR LPGR 191300Z 12008KT 9999 FEW018 BKN040 15/08 Q1004 RMK WIND RWY09 12008KT;",
"08515599999","2010-12-20T09:00:00","4","39.092169","-28.029847","26.21","GRACIOSA, PO","FM-15","LPGR ","V020","130,1,N,0021,1","22000,1,9,N","011265,1,N,1","+0110,1","+0100,1","99999,9","02,5,+00360,1,99,9",,,"02,99,1,99,9,99,9,99999,9,99,9,99,9",,"10000,1,99999,9",,,,"MET082METAR LPGR 200900Z 13004KT 9999 FEW012 11/10 Q1000 RMK WIND RWY09 13002KT EST WND;",
"08515599999","2010-12-20T10:00:00","4","39.092169","-28.029847","26.21","GRACIOSA, PO","FM-15","LPGR ","V020","140,1,N,0026,1","22000,1,9,N","011265,1,N,1","+0110,1","+0100,1","99999,9","02,5,+00360,1,99,9",,,"02,99,1,99,9,99,9,99999,9,99,9,99,9",,"10000,1,99999,9",,,,"MET074METAR LPGR 201000Z 14005KT 9999 FEW012 11/10 Q1000 RMK WIND RWY09 18002KT;",
"08515599999","2010-12-20T11:00:00","4","39.092169","-28.029847","26.21","GRACIOSA, PO","FM-15","LPGR ","V020","140,1,N,0021,1","22000,1,9,N","011265,1,N,1","+0140,1","+0120,1","99999,9","02,5,+00420,1,99,9",,,"02,99,1,99,9,99,9,99999,9,99,9,99,9",,"10000,1,99999,9",,,,"MET074METAR LPGR 201100Z 14004KT 9999 FEW014 14/12 Q1000 RMK WIND RWY09 18002KT;",
"08515599999","2010-12-20T12:00:00","4","39.092169","-28.029847","26.21","GRACIOSA, PO","FM-15","LPGR ","V020","190,1,N,0036,1","01200,1,C,N","011265,1,N,1","+0150,1","+0120,1","99999,9","02,5,+00450,1,99,9","07,5,+01200,1,99,9",,"07,99,1,99,9,99,9,99999,9,99,9,99,9",,"10000,1,99999,9",,,,"MET081METAR LPGR 201200Z 19007KT 9999 FEW015 BKN040 15/12 Q1000 RMK WIND RWY09 18006KT;",
"08515599999","2010-12-21T09:00:00","4","39.092169","-28.029847","26.21","GRACIOSA, PO","FM-15","LPGR ","V020","300,1,N,0103,1","00420,1,C,N","011265,1,N,1","+0140,1","+0110,1","99999,9","07,5,+00420,1,99,9",,,"07,99,1,99,9,99,9,99999,9,99,9,99,9",,"09970,1,99999,9",,,"0154,1","MET088METAR LPGR 210900Z 30020G30KT 9999 BKN014 14/11 Q0997 RMK WIND RWY09 30024G35KT EST WND;",
"08515599999","2010-12-21T10:00:00","4","39.092169","-28.029847","26.21","GRACIOSA, PO","FM-15","LPGR ","V020","330,1,N,0108,1","22000,1,9,N","011265,1,N,1","+0140,1","+0110,1","99999,9","04,5,+00450,1,99,9",,,"04,99,1,99,9,99,9,99999,9,99,9,99,9",,"09980,1,99999,9",,,"0159,1","MET085METAR LPGR 211000Z 33021G31KT 9999 SCT015 14/11 Q0998 RMK WIND RWY09 31025KT EST WND;",
"08515599999","2010-12-21T11:00:00","4","39.092169","-28.029847","26.21","GRACIOSA, PO","FM-15","LPGR ","V020","350,1,N,0082,1","99999,9,C,N","011265,1,N,1","+0140,1","+0110,1","99999,9","04,5,+00450,1,99,9","04,5,+00900,1,99,9",,"04,99,1,99,9,99,9,99999,9,99,9,99,9",,"10000,1,99999,9","80,1",,"0134,1","MET101METAR LPGR 211100Z 35016G26KT 9999 -SHRA SCT015 SCT030 14/11 Q1000 RMK WIND RWY09 34018G28KT EST WND;","P01 009003SCOCIG"
"08515599999","2010-12-21T12:00:00","4","39.092169","-28.029847","26.21","GRACIOSA, PO","FM-15","LPGR ","V020","350,1,N,0093,1","22000,1,9,N","011265,1,N,1","+0150,1","+0110,1","99999,9","04,5,+00450,1,99,9",,,"04,99,1,99,9,99,9,99999,9,99,9,99,9",,"10010,1,99999,9",,,,"MET082METAR LPGR 211200Z 35018KT 9999 SCT015 15/11 Q1001 RMK WIND RWY09 33022KT EST WND;",
"08515599999","2010-12-21T14:00:00","4","39.092169","-28.029847","26.21","GRACIOSA, PO","FM-15","LPGR ","V020","350,1,N,0118,1","22000,1,9,N","011265,1,N,1","+0150,1","+0110,1","99999,9","04,5,+00420,1,99,9",,,"04,99,1,99,9,99,9,99999,9,99,9,99,9",,"10020,1,99999,9",,,,"MET093METAR LPGR 211400Z 35023KT 320V020 9999 SCT014 15/11 Q1002 RMK WIND RWY09 35020G30KT 320V020;",
"08515599999","2010-12-21T15:00:00","4","39.092169","-28.029847","26.21","GRACIOSA, PO","FM-15","LPGR ","V020","010,1,N,0118,1","22000,1,9,N","011265,1,N,1","+0150,1","+0110,1","99999,9","04,5,+00420,1,99,9",,,"04,99,1,99,9,99,9,99999,9,99,9,99,9",,"10031,1,99999,9",,,"0170,1","MET077METAR LPGR 211500Z 01023G33KT 9999 SCT014 15/11 Q1003 RMK WIND RWY09 35027KT;",
"08515599999","2010-12-22T09:00:00","4","39.092169","-28.029847","26.21","GRACIOSA, PO","FM-15","LPGR ","V020","160,1,N,0021,1","99999,9,C,N","011265,1,N,1","+0090,1","+0080,1","99999,9","02,5,+00420,1,99,9","04,5,+01050,1,99,9",,"04,99,1,99,9,99,9,99999,9,99,9,99,9",,"10139,1,99999,9",,,,"MET081METAR LPGR 220900Z 16004KT 9999 FEW014 SCT035 09/08 Q1014 RMK WIND RWY09 22002KT;","P01 010503SCOCIG"
"08515599999","2010-12-22T10:00:00","4","39.092169","-28.029847","26.21","GRACIOSA, PO","FM-15","LPGR ","V020","160,1,N,0010,1","02700,1,C,N","011265,1,N,1","+0090,1","+0060,1","99999,9","02,5,+00480,1,99,9","07,5,+02700,1,99,9",,"07,99,1,99,9,99,9,99999,9,99,9,99,9",,"10139,1,99999,9",,,,"MET081METAR LPGR 221000Z 16002KT 9999 FEW016 BKN090 09/06 Q1014 RMK WIND RWY09 22001KT;",
"08515599999","2010-12-22T11:00:00","4","39.092169","-28.029847","26.21","GRACIOSA, PO","FM-15","LPGR ","V020","160,1,N,0021,1","02700,1,C,N","011265,1,N,1","+0110,1","+0070,1","99999,9","02,5,+00480,1,99,9","07,5,+02700,1,99,9",,"07,99,1,99,9,99,9,99999,9,99,9,99,9",,"10149,1,99999,9",,,,"MET081METAR LPGR 221100Z 16004KT 9999 FEW016 BKN090 11/07 Q1015 RMK WIND RWY09 22001KT;",
"08515599999","2010-12-22T12:00:00","4","39.092169","-28.029847","26.21","GRACIOSA, PO","FM-15","LPGR ","V020","160,1,N,0021,1","02700,1,C,N","011265,1,N,1","+0120,1","+0080,1","99999,9","02,5,+00480,1,99,9","07,5,+02700,1,99,9",,"07,99,1,99,9,99,9,99999,9,99,9,99,9",,"10149,1,99999,9",,,,"MET081METAR LPGR 221200Z 16004KT 9999 FEW016 BKN090 12/08 Q1015 RMK WIND RWY09 22002KT;",
"08515599999","2010-12-22T14:00:00","4","39.092169","-28.029847","26.21","GRACIOSA, PO","FM-15","LPGR ","V020","150,1,N,0010,1","02700,1,C,N","011265,1,N,1","+0140,1","+0060,1","99999,9","02,5,+00540,1,99,9","07,5,+02700,1,99,9",,"07,99,1,99,9,99,9,99999,9,99,9,99,9",,"10129,1,99999,9",,,,"MET081METAR LPGR 221400Z 15002KT 9999 FEW018 BKN090 14/06 Q1013 RMK WIND RWY09 15005KT;",
"08515599999","2010-12-22T15:00:00","4","39.092169","-28.029847","26.21","GRACIOSA, PO","FM-15","LPGR ","V020","140,1,N,0021,1","02700,1,C,N","011265,1,N,1","+0140,1","+0070,1","99999,9","02,5,+00540,1,99,9","07,5,+02700,1,99,9",,"07,99,1,99,9,99,9,99999,9,99,9,99,9",,"10129,1,99999,9",,,,"MET081METAR LPGR 221500Z 14004KT 9999 FEW018 BKN090 14/07 Q1013 RMK WIND RWY09 14005KT;",
"08515599999","2010-12-23T11:00:00","4","39.092169","-28.029847","26.21","GRACIOSA, PO","FM-15","LPGR ","V020","200,1,N,0139,1","00900,1,C,N","011265,1,N,1","+0170,1","+0150,1","99999,9","02,5,+00420,1,99,9","04,5,+00900,1,99,9","07,5,+02400,1,99,9","07,99,1,99,9,99,9,99999,9,99,9,99,9",,"09990,1,99999,9",,,,"MET096METAR LPGR 231100Z 20027KT 9999 FEW014 SCT030 BKN080 17/15 Q0999 RMK WIND RWY09 19028KT EST WND;",
"08515599999","2010-12-23T12:00:00","4","39.092169","-28.029847","26.21","GRACIOSA, PO","FM-15","LPGR ","V020","210,1,N,0113,1","00420,1,C,N","008000,1,N,1","+0180,1","+0150,1","99999,9","07,5,+00420,1,99,9",,,"07,99,1,99,9,99,9,99999,9,99,9,99,9",,"09990,1,99999,9","80,1",,"0180,1","MET102METAR LPGR 231200Z 21022G35KT 170V230 8000 -SHRA BKN014 18/15 Q0999 RMK WIND RWY09 21023G34KT 160V240;",
"08515599999","2010-12-23T13:00:00","4","39.092169","-28.029847","26.21","GRACIOSA, PO","FM-15","LPGR ","V020","220,1,N,0134,1","00420,1,C,N","005000,1,N,1","+0180,1","+0160,1","99999,9","02,5,+00300,1,99,9","04,5,+00420,1,99,9","07,5,+00480,1,99,9","07,99,1,99,9,99,9,99999,9,99,9,99,9",,"09990,1,99999,9","82,1",,"0190,1","MET108METAR LPGR 231300Z 22026G37KT 5000 +SHRA FEW010 SCT014 BKN016 18/16 Q0999 RMK WIND RWY09 23029G41KT 190V260;",
"08515599999","2010-12-23T14:00:00","4","39.092169","-28.029847","26.21","GRACIOSA, PO","FM-15","LPGR ","V020","230,1,N,0108,1","99999,9,C,N","009000,1,N,1","+0180,1","+0160,1","99999,9","02,5,+00360,1,99,9","04,5,+00420,1,99,9",,"04,99,1,99,9,99,9,99999,9,99,9,99,9",,"09990,1,99999,9",,,"0159,1","MET095METAR LPGR 231400Z 23021G31KT 9000 FEW012 SCT014 18/16 Q0999 RMK WIND RWY09 23018G28KT 200V260;","P01 004203SCOCIG"
"08515599999","2010-12-24T09:00:00","4","39.092169","-28.029847","26.21","GRACIOSA, PO","FM-15","LPGR ","V020","260,1,N,0077,1","22000,1,9,N","009000,1,N,1","+0170,1","+0160,1","99999,9","02,5,+00300,1,99,9",,,"02,99,1,99,9,99,9,99999,9,99,9,99,9",,"10051,1,99999,9",,,,"MET082METAR LPGR 240900Z 26015KT 9000 FEW010 17/16 Q1005 RMK WIND RWY09 26018KT EST WND;",
"08515599999","2010-12-24T10:00:00","4","39.092169","-28.029847","26.21","GRACIOSA, PO","FM-15","LPGR ","V020","260,1,N,0082,1","22000,1,9,N","009000,1,N,1","+0170,1","+0160,1","99999,9","02,5,+00300,1,99,9",,,"02,99,1,99,9,99,9,99999,9,99,9,99,9",,"10061,1,99999,9",,,,"MET082METAR LPGR 241000Z 26016KT 9000 FEW010 17/16 Q1006 RMK WIND RWY09 26014KT EST WND;",
"08515599999","2010-12-24T11:00:00","4","39.092169","-28.029847","26.21","GRACIOSA, PO","FM-15","LPGR ","V020","260,1,N,0082,1","22000,1,9,N","009000,1,N,1","+0170,1","+0150,1","99999,9","02,5,+00300,1,99,9",,,"02,99,1,99,9,99,9,99999,9,99,9,99,9",,"10071,1,99999,9",,,,"MET082METAR LPGR 241100Z 26016KT 9000 FEW010 17/15 Q1007 RMK WIND RWY09 26015KT EST WND;",
"08515599999","2010-12-24T12:00:00","4","39.092169","-28.029847","26.21","GRACIOSA, PO","FM-15","LPGR ","V020","260,1,N,0087,1","22000,1,9,N","009000,1,N,1","+0180,1","+0150,1","99999,9","02,5,+00300,1,99,9",,,"02,99,1,99,9,99,9,99999,9,99,9,99,9",,"10081,1,99999,9",,,,"MET082METAR LPGR 241200Z 26017KT 9000 FEW010 18/15 Q1008 RMK WIND RWY09 25017KT EST WND;",
"08515599999","2010-12-26T09:00:00","4","39.092169","-28.029847","26.21","GRACIOSA, PO","FM-15","LPGR ","V020","220,1,N,0072,1","99999,9,C,N","011265,1,N,1","+0170,1","+0150,1","99999,9","02,5,+00360,1,99,9","04,5,+00900,1,99,9",,"04,99,1,99,9,99,9,99999,9,99,9,99,9",,"10020,1,99999,9",,,,"MET089METAR LPGR 260900Z 22014KT 9999 FEW012 SCT030 17/15 Q1002 RMK WIND RWY09 23015KT EST WND;","P01 009003SCOCIG"
"08515599999","2010-12-26T10:00:00","4","39.092169","-28.029847","26.21","GRACIOSA, PO","FM-15","LPGR ","V020","230,1,N,0118,1","01050,1,C,N","011265,1,N,1","+0170,1","+0150,1","99999,9","02,5,+00390,1,99,9","07,5,+01050,1,99,9",,"07,99,1,99,9,99,9,99999,9,99,9,99,9",,"10020,1,99999,9",,,,"MET089METAR LPGR 261000Z 23023KT 9999 FEW013 BKN035 17/15 Q1002 RMK WIND RWY09 24021KT EST WND;",
"08515599999","2010-12-26T11:00:00","4","39.092169","-28.029847","26.21","GRACIOSA, PO","FM-15","LPGR ","V020","230,1,N,0103,1","22000,1,9,N","011265,1,N,1","+0170,1","+0150,1","99999,9","02,5,+00420,1,99,9",,,"02,99,1,99,9,99,9,99999,9,99,9,99,9",,"10010,1,99999,9",,,"0154,1","MET080METAR LPGR 261100Z 23020G30KT 9999 FEW014 17/15 Q1001 RMK WIND RWY09 22019G29KT;",
"08515599999","2010-12-26T12:00:00","4","39.092169","-28.029847","26.21","GRACIOSA, PO","FM-15","LPGR ","V020","220,1,N,0087,1","99999,9,C,N","011265,1,N,1","+0180,1","+0150,1","99999,9","04,5,+00420,1,99,9","02,5,+00480,1,09,5","04,5,+06300,1,99,9","04,99,1,99,9,99,9,99999,9,99,9,99,9",,"10000,1,99999,9","16,1",,,"MET098METAR LPGR 261200Z 22017KT 9999 VCSH SCT014 FEW016CB SCT210 18/15 Q1000 RMK WIND RWY09 22017G27KT;","P01 004803SCOCIG"
"08515599999","2010-12-27T12:00:00","4","39.092169","-28.029847","26.21","GRACIOSA, PO","FM-15","LPGR ","V020","260,1,N,0103,1","00540,1,C,N","011265,1,N,1","+0160,1","+0110,1","99999,9","02,5,+00420,1,99,9","04,5,+00540,1,09,5","07,5,+06300,1,99,9","07,99,1,99,9,99,9,99999,9,99,9,99,9",,"10031,1,99999,9","16,1",,,"MET095METAR LPGR 271200Z 26020KT 9999 VCSH FEW014 SCT018CB BKN210 16/11 Q1003 RMK WIND RWY09 26021KT;",
"08515599999","2010-12-27T13:00:00","4","39.092169","-28.029847","26.21","GRACIOSA, PO","FM-15","LPGR ","V020","240,1,N,0087,1","06300,1,C,N","011265,1,N,1","+0150,1","+0110,1","99999,9","02,5,+00480,1,99,9","02,5,+00600,1,09,5","07,5,+06300,1,99,9","07,99,1,99,9,99,9,99999,9,99,9,99,9",,"10031,1,99999,9","16,1",,,"MET095METAR LPGR 271300Z 24017KT 9999 VCSH FEW016 FEW020CB BKN210 15/11 Q1003 RMK WIND RWY09 24016KT;",
"08515599999","2010-12-28T15:00:00","4","39.092169","-28.029847","26.21","GRACIOSA, PO","FM-15","LPGR ","V020","350,1,N,0093,1","99999,9,C,N","011265,1,N,1","+0150,1","+0120,1","99999,9","04,5,+00450,1,99,9","04,5,+00600,1,02,5",,"04,99,1,99,9,99,9,99999,9,99,9,99,9",,"10031,1,99999,9","16,1",,,"MET092METAR LPGR 281500Z 35018KT 9999 VCSH SCT015 SCT020TCU 15/12 Q1003 RMK WIND RWY09 34021G33KT;","P01 006003SCOCIG"
"08515599999","2010-12-29T08:00:00","4","39.092169","-28.029847","26.21","GRACIOSA, PO","FM-15","LPGR ","V020","360,1,N,0046,1","22000,1,9,N","011265,1,N,1","+0140,1","+0100,1","99999,9","02,5,+00480,1,99,9",,,"02,99,1,99,9,99,9,99999,9,99,9,99,9",,"10102,1,99999,9",,,,"MET082METAR LPGR 290800Z 36009KT 9999 FEW016 14/10 Q1010 RMK WIND RWY09 35008KT EST WND;",
"08515599999","2010-12-29T09:00:00","4","39.092169","-28.029847","26.21","GRACIOSA, PO","FM-15","LPGR ","V020","010,1,N,0036,1","22000,1,9,N","011265,1,N,1","+0140,1","+0100,1","99999,9","02,5,+00480,1,99,9",,,"02,99,1,99,9,99,9,99999,9,99,9,99,9",,"10102,1,99999,9",,,,"MET074METAR LPGR 290900Z 01007KT 9999 FEW016 14/10 Q1010 RMK WIND RWY09 36006KT;",
"08515599999","2010-12-29T10:00:00","4","39.092169","-28.029847","26.21","GRACIOSA, PO","FM-15","LPGR ","V020","360,1,N,0036,1","22000,1,9,N","011265,1,N,1","+0140,1","+0100,1","99999,9","02,5,+00480,1,99,9",,,"02,99,1,99,9,99,9,99999,9,99,9,99,9",,"10102,1,99999,9",,,,"MET074METAR LPGR 291000Z 36007KT 9999 FEW016 14/10 Q1010 RMK WIND RWY09 01006KT;",
"08515599999","2010-12-29T11:00:00","4","39.092169","-28.029847","26.21","GRACIOSA, PO","FM-15","LPGR ","V020","020,1,N,0026,1","22000,1,9,N","011265,1,N,1","+0140,1","+0110,1","99999,9","02,5,+00480,1,99,9",,,"02,99,1,99,9,99,9,99999,9,99,9,99,9",,"10102,1,99999,9",,,,"MET082METAR LPGR 291100Z 02005KT 9999 FEW016 14/11 Q1010 RMK WIND RWY09 02004KT EST WND;",
"08515599999","2010-12-29T12:00:00","4","39.092169","-28.029847","26.21","GRACIOSA, PO","FM-15","LPGR ","V020","020,1,N,0026,1","22000,1,9,N","011265,1,N,1","+0150,1","+0110,1","99999,9","02,5,+00480,1,99,9",,,"02,99,1,99,9,99,9,99999,9,99,9,99,9",,"10102,1,99999,9",,,,"MET082METAR LPGR 291200Z 02005KT 9999 FEW016 15/11 Q1010 RMK WIND RWY09 01004KT EST WND;",
"08515599999","2010-12-29T14:00:00","4","39.092169","-28.029847","26.21","GRACIOSA, PO","FM-15","LPGR ","V020","350,1,N,0036,1","22000,1,9,N","011265,1,N,1","+0160,1","+0110,1","99999,9","02,5,+00540,1,99,9",,,"02,99,1,99,9,99,9,99999,9,99,9,99,9",,"10091,1,99999,9",,,,"MET074METAR LPGR 291400Z 35007KT 9999 FEW018 16/11 Q1009 RMK WIND RWY09 33008KT;",
"08515599999","2010-12-29T15:00:00","4","39.092169","-28.029847","26.21","GRACIOSA, PO","FM-15","LPGR ","V020","360,1,N,0021,1","06300,1,C,N","011265,1,N,1","+0150,1","+0110,1","99999,9","02,5,+00480,1,99,9","07,5,+06300,1,99,9",,"07,99,1,99,9,99,9,99999,9,99,9,99,9",,"10091,1,99999,9",,,,"MET081METAR LPGR 291500Z 36004KT 9999 FEW016 BKN210 15/11 Q1009 RMK WIND RWY09 33005KT;",
"08515599999","2010-12-30T11:00:00","4","39.092169","-28.029847","26.21","GRACIOSA, PO","FM-15","LPGR ","V020","190,1,N,0031,1","00900,1,C,N","011265,1,N,1","+0160,1","+0130,1","99999,9","02,5,+00450,1,99,9","07,5,+00900,1,99,9",,"07,99,1,99,9,99,9,99999,9,99,9,99,9",,"10071,1,99999,9",,,,"MET089METAR LPGR 301100Z 19006KT 9999 FEW015 BKN030 16/13 Q1007 RMK WIND RWY09 19005KT EST WND;",
"08515599999","2010-12-30T12:00:00","4","39.092169","-28.029847","26.21","GRACIOSA, PO","FM-15","LPGR ","V020","190,1,N,0051,1","00420,1,C,N","011265,1,N,1","+0160,1","+0150,1","99999,9","02,5,+00360,1,99,9","04,5,+00420,1,99,9","07,5,+01050,1,99,9","07,99,1,99,9,99,9,99999,9,99,9,99,9",,"10081,1,99999,9",,,,"MET096METAR LPGR 301200Z 19010KT 9999 FEW012 SCT014 BKN035 16/15 Q1008 RMK WIND RWY09 17006KT EST WND;",
"08515599999","2010-12-30T13:00:00","4","39.092169","-28.029847","26.21","GRACIOSA, PO","FM-15","LPGR ","V020","200,1,N,0026,1","00420,1,C,N","009000,1,N,1","+0160,1","+0140,1","99999,9","02,5,+00360,1,99,9","04,5,+00420,1,99,9","07,5,+01050,1,99,9","07,99,1,99,9,99,9,99999,9,99,9,99,9",,"10081,1,99999,9","80,1",,,"MET102METAR LPGR 301300Z 20005KT 9000 -SHRA FEW012 SCT014 BKN035 16/14 Q1008 RMK WIND RWY09 19001KT EST WND;",
"08515599999","2010-12-30T15:00:00","4","39.092169","-28.029847","26.21","GRACIOSA, PO","FM-15","LPGR ","V020","240,1,N,0041,1","99999,9,C,N","011265,1,N,1","+0170,1","+0160,1","99999,9","02,5,+00240,1,99,9","04,5,+00300,1,99,9",,"04,99,1,99,9,99,9,99999,9,99,9,99,9",,"10071,1,99999,9",,,,"MET081METAR LPGR 301500Z 24008KT 9999 FEW008 SCT010 17/16 Q1007 RMK WIND RWY09 24009KT;","P01 003003SCOCIG"
"08515599999","2010-12-31T09:00:00","4","39.092169","-28.029847","26.21","GRACIOSA, PO","FM-15","LPGR ","V020","190,1,N,0026,1","22000,1,9,N","011265,1,N,1","+0130,1","+0110,1","99999,9","02,5,+00450,1,99,9",,,"02,99,1,99,9,99,9,99999,9,99,9,99,9",,"10108,1,99999,9",,,,"MET082METAR LPGR 310900Z 19005KT 9999 FEW015 13/11 Q1011 RMK WIND RWY09 18004KT EST WND;",
"08515599999","2010-12-31T10:00:00","4","39.092169","-28.029847","26.21","GRACIOSA, PO","FM-15","LPGR ","V020","190,1,N,0026,1","22000,1,9,N","011265,1,N,1","+0130,1","+0110,1","99999,9","02,5,+00450,1,99,9",,,"02,99,1,99,9,99,9,99999,9,99,9,99,9",,"10119,1,99999,9",,,,"MET082METAR LPGR 311000Z 19005KT 9999 FEW015 13/11 Q1012 RMK WIND RWY09 18003KT EST WND;",
"08515599999","2010-12-31T11:00:00","4","39.092169","-28.029847","26.21","GRACIOSA, PO","FM-15","LPGR ","V020","190,1,N,0026,1","99999,9,C,N","011265,1,N,1","+0160,1","+0130,1","99999,9","02,5,+00450,1,99,9","04,5,+06300,1,99,9",,"04,99,1,99,9,99,9,99999,9,99,9,99,9",,"10129,1,99999,9",,,,"MET089METAR LPGR 311100Z 19005KT 9999 FEW015 SCT210 16/13 Q1013 RMK WIND RWY09 18002KT EST WND;","P01 063003SCOCIG"
"08515599999","2010-12-31T12:00:00","4","39.092169","-28.029847","26.21","GRACIOSA, PO","FM-15","LPGR ","V020","130,1,N,0021,1","06300,1,C,N","011265,1,N,1","+0170,1","+0140,1","99999,9","02,5,+00510,1,99,9","07,5,+06300,1,99,9",,"07,99,1,99,9,99,9,99999,9,99,9,99,9",,"10129,1,99999,9",,,,"MET089METAR LPGR 311200Z 13004KT 9999 FEW017 BKN210 17/14 Q1013 RMK WIND RWY09 16002KT EST WND;",
"08515599999","2010-12-31T13:00:00","4","39.092169","-28.029847","26.21","GRACIOSA, PO","FM-15","LPGR ","V020","180,1,N,0031,1","06300,1,C,N","011265,1,N,1","+0190,1","+0140,1","99999,9","02,5,+00540,1,99,9","07,5,+06300,1,99,9",,"07,99,1,99,9,99,9,99999,9,99,9,99,9",,"10129,1,99999,9",,,,"MET081METAR LPGR 311300Z 18006KT 9999 FEW018 BKN210 19/14 Q1013 RMK WIND RWY09 18006KT;",
"08515599999","2010-12-31T14:00:00","4","39.092169","-28.029847","26.21","GRACIOSA, PO","FM-15","LPGR ","V020","210,1,N,0041,1","06300,1,C,N","011265,1,N,1","+0190,1","+0130,1","99999,9","02,5,+00540,1,99,9","07,5,+06300,1,99,9",,"07,99,1,99,9,99,9,99999,9,99,9,99,9",,"10119,1,99999,9",,,,"MET089METAR LPGR 311400Z 21008KT 9999 FEW018 BKN210 19/13 Q1012 RMK WIND RWY09 18009KT EST WND;",
