"STATION","DATE","SOURCE","LATITUDE","LONGITUDE","ELEVATION","NAME","REPORT_TYPE","CALL_SIGN","QUALITY_CONTROL","WND","CIG","VIS","TMP","DEW","SLP","AA1","AY1","AY2","GA1","GA2","GA3","GA4","GF1","GJ1","IA1","IA2","KA1","MA1","MD1","MW1","OC1","OD1","REM","EQD"
"08544099999","2010-01-01T06:00:00","4","40.9166666","-8.6333333","22.0","OVAR MACEDA, PO","FM-12","99999","V020","260,1,N,0070,1","00360,1,9,N","010000,1,N,1","+0122,1","+0081,1","10057,1","12,0020,9,1",,,"02,1,+00120,1,07,1","05,1,+00360,1,08,1","02,1,+00540,1,09,1",,"07,99,1,07,1,09,1,00150,1,00,1,00,1","0156,9",,,"999,N,+0078,1","99999,9,10037,1","2,1,016,1,+999,9","00,1","0200,5",,"SYN140AAXX  01061 08544 11260 72607 10122 20081 30037 40057 52016 60022 700// 87900 333 20078 50054 55026 82704 85812 82918 91020 91120 555 60022;",
"08544099999","2010-01-01T09:00:00","4","40.9166666","-8.6333333","22.0","OVAR MACEDA, PO","FM-12","99999","V020","300,1,N,0060,1","00360,1,9,N","010000,1,N,1","+0122,1","+0081,1","10082,1",,"8,1,03,1","2,1,03,1","05,1,+00360,1,08,1","02,1,+00540,1,09,1","03,1,+00900,1,06,1",,"07,99,1,07,1,09,1,00250,1,00,1,00,1",,,,,"99999,9,10061,1","2,1,024,1,+999,9","25,1","0210,5",,"SYN106AAXX  01091 08544 41360 73006 10122 20081 30061 40082 52024 72582 87900 333 85812 82918 83630 91021 91121;",
"08544099999","2010-01-01T12:00:00","4","40.9166666","-8.6333333","22.0","OVAR MACEDA, PO","FM-12","99999","V020","340,1,N,0050,1","00540,1,9,N","007000,1,N,1","+0132,1","+0071,1","10125,1","06,0010,9,1","8,1,06,1","2,1,06,1","04,1,+00450,1,08,1","01,1,+00540,1,09,1","03,1,+06000,1,00,1",,"06,99,1,05,1,09,1,00450,1,00,1,01,1",,,,,"99999,9,10104,1","2,1,043,1,+999,9","10,1",,"4,99,0120,9,999","SYN122AAXX  01121 08544 11457 63405 10132 20071 30104 40125 52043 60011 71082 85901 333 84815 81918 83070 91112 555 50064 69957;",
"08544099999","2010-01-01T15:00:00","4","40.9166666","-8.6333333","22.0","OVAR MACEDA, PO","FM-12","99999","V020","350,1,N,0030,1","22000,1,9,N","010000,1,N,1","+0132,1","+0076,1","10134,1",,,,"04,1,+00450,1,08,1",,,,"05,99,1,04,1,08,1,00450,1,00,1,01,1",,,,,"99999,9,10113,1","2,1,009,1,+999,9",,,"4,99,0100,9,999","SYN092AAXX  01151 08544 42460 53503 10132 20076 30113 40134 52009 84801 333 84815 91110 555 60007;",
"08544099999","2010-01-01T18:00:00","4","40.9166666","-8.6333333","22.0","OVAR MACEDA, PO","FM-12","99999","V020","999,9,C,0000,1","22000,1,9,N","010000,1,N,1","+0102,1","+0083,1","10153,1","12,0010,9,1",,,"04,1,+00450,1,08,1",,,,"04,99,1,04,1,02,1,00450,1,00,1,00,1",,,,"120,M,+0136,1","99999,9,10132,1","2,1,019,1,+999,9",,,,"SYN098AAXX  01181 08544 12460 40000 10102 20083 30132 40153 52019 60012 84200 333 10136 84815 555 60007;",
"08544099999","2010-01-02T06:00:00","4","40.9166666","-8.6333333","22.0","OVAR MACEDA, PO","FM-12","99999","V020","170,1,N,0040,1","06000,1,9,N","010000,1,N,1","+0100,1","+0081,1","10164,1","12,0000,9,1",,,"02,1,+00450,1,08,1","05,1,+06000,1,02,1",,,"06,99,1,02,1,02,1,00450,1,00,1,05,1","0288,9",,,"999,N,+0068,1","99999,9,10144,1","8,1,002,1,+999,9","00,1",,,"SYN122AAXX  02061 08544 11460 61704 10100 20081 30144 40164 58002 69922 700// 82205 333 20068 50214 55048 82815 85270 555 69922;","Q01  00002PRCP12"
"08544099999","2010-01-02T09:00:00","4","40.9166666","-8.6333333","22.0","OVAR MACEDA, PO","FM-12","99999","V020","170,1,N,0050,1","02100,1,9,N","010000,1,N,1","+0114,1","+0080,1","10167,1",,,,"03,1,+00600,1,08,1","05,1,+02100,1,04,1",,,"08,99,1,03,1,02,1,00800,1,07,1,05,1",,,,,"99999,9,10146,1","3,1,003,1,+999,9",,,,"SYN088AAXX  02091 08544 42560 81705 10114 20080 30146 40167 53003 83275 333 83820 85457 85270;",
"08544099999","2010-01-02T12:00:00","4","40.9166666","-8.6333333","22.0","OVAR MACEDA, PO","FM-12","99999","V020","170,1,N,0070,1","02400,1,9,N","010000,1,N,1","+0188,1","+0082,1","10164,1",,,,"03,1,+00750,1,08,1","05,1,+02400,1,03,1","05,1,+06000,1,00,1",,"07,99,1,03,1,02,1,00800,1,07,1,01,1",,,,,"99999,9,10143,1","8,1,003,1,+999,9",,"0110,5",,"SYN116AAXX  02121 08544 32560 71707 10188 20082 30143 40164 58003 83271 333 83825 85358 85070 91011 91111 555 59924 60007;",
"08544099999","2010-01-02T15:00:00","4","40.9166666","-8.6333333","22.0","OVAR MACEDA, PO","FM-12","99999","V020","180,1,N,0070,1","02400,1,9,N","010000,1,N,1","+0140,1","+0093,1","10148,1",,,,"04,1,+00600,1,08,1","07,1,+02400,1,03,1",,,"08,99,1,04,1,02,1,00800,1,07,1,99,9",,,,,"99999,9,10128,1","7,1,015,1,+999,9",,"0100,5",,"SYN094AAXX  02151 08544 42560 81807 10140 20093 30128 40148 57015 8427/ 333 84820 87358 91010 91113;",
"08544099999","2010-01-02T18:00:00","4","40.9166666","-8.6333333","22.0","OVAR MACEDA, PO","FM-12","99999","V020","180,1,N,0080,1","00750,1,9,N","010000,1,N,1","+0134,1","+0094,1","10142,1","12,0000,9,1","6,1,06,1","2,1,06,1","02,1,+00450,1,08,1","05,1,+00750,1,08,1","06,1,+02100,1,03,1",,"08,99,1,05,1,08,1,00450,1,07,1,99,9",,,,"120,M,+0142,1","99999,9,10121,1","6,1,007,1,+999,9","02,1","0110,5","4,99,0120,9,999","SYN128AAXX  02181 08544 11460 81808 10134 20094 30121 40142 56007 69902 70262 8587/ 333 10142 82815 85825 86357 91011 91112 555 69907;","Q01  00002PRCP12"
"08544099999","2010-01-03T06:00:00","4","40.9166666","-8.6333333","22.0","OVAR MACEDA, PO","FM-12","99999","V020","180,1,N,0080,1","00450,1,9,N","006000,1,N,1","+0132,1","+0122,1","10093,1","12,0140,9,1","6,1,06,1",,"02,1,+00240,1,07,1","05,1,+00450,1,08,1","08,1,+01800,1,03,1",,"08,99,1,05,1,02,1,00250,1,07,1,99,9","0012,9",,,"999,N,+0124,1","99999,9,10073,1","7,1,019,1,+999,9","61,1","0130,5",,"SYN134AAXX  03061 08544 11356 81808 10132 20122 30073 40093 57019 60142 7616/ 8527/ 333 20124 50294 55002 82708 85815 88356 91013 555 60142;",
"08544099999","2010-01-03T09:00:00","4","40.9166666","-8.6333333","22.0","OVAR MACEDA, PO","FM-12","99999","V020","170,1,N,0020,1","00540,1,9,N","006000,1,N,1","+0134,1","+0131,1","10120,1",,"6,1,03,1","2,1,03,1","03,1,+00180,1,07,1","05,1,+00540,1,08,1","07,1,+02100,1,03,1",,"08,99,1,05,1,02,1,00150,1,07,1,99,9",,,,,"99999,9,10099,1","2,1,026,1,+999,9","21,1",,"4,99,0160,9,999","SYN106AAXX  03091 08544 41256 81702 10134 20131 30099 40120 52026 72162 8527/ 333 83706 85818 87357 91116 96010;",
"08544099999","2010-01-03T12:00:00","4","40.9166666","-8.6333333","22.0","OVAR MACEDA, PO","FM-12","99999","V020","180,1,N,0020,1","00450,1,9,N","008000,1,N,1","+0138,1","+0131,1","10134,1","06,0079,9,1","6,1,06,1","2,1,06,1","02,1,+00240,1,07,1","05,1,+00450,1,08,1","05,1,+06000,1,00,1",,"06,99,1,05,1,02,1,00250,1,00,1,02,1",,,,,"99999,9,10114,1","0,1,015,1,+999,9","10,1",,,"SYN116AAXX  03121 08544 11358 61802 10138 20131 30114 40134 50015 60081 71062 85202 333 82708 85815 85070 555 50214 60007;",
"08544099999","2010-01-03T15:00:00","4","40.9166666","-8.6333333","22.0","OVAR MACEDA, PO","FM-12","99999","V020","200,1,N,0030,1","22000,1,C,N","010000,1,N,1","+0150,1","+0119,1","10117,1",,,,"03,1,+00450,1,08,1",,,,"08,99,1,03,1,02,1,00450,1,00,1,04,1",,,,,"99999,9,10097,1","7,1,017,1,+999,9",,,,"SYN082AAXX  03151 08544 42460 82003 10150 20119 30097 40117 57017 83204 333 83815 88070;",
"08544099999","2010-01-03T18:00:00","4","40.9166666","-8.6333333","22.0","OVAR MACEDA, PO","FM-12","99999","V020","999,9,C,0000,1","06000,1,9,N","002000,1,N,1","+0130,1","+0123,1","10127,1","12,0079,9,1","2,1,06,1","2,1,06,1","02,1,+00450,1,08,1","08,1,+06000,1,02,1",,,"08,99,1,03,1,08,1,00450,1,00,1,06,1",,,,"120,M,+0150,1","99999,9,10106,1","0,1,009,1,+999,9","10,1",,,"SYN110AAXX  03181 08544 11420 80000 10130 20123 30106 40127 50009 60082 71022 83806 333 10150 82815 88270 555 60007;",
"08544099999","2010-01-04T06:00:00","4","40.9166666","-8.6333333","22.0","OVAR MACEDA, PO","FM-12","99999","V020","010,1,N,0010,1","02400,1,9,N","008000,1,N,1","+0108,1","+0093,1","10033,1","12,9999,9,9","6,1,06,1",,"03,1,+00450,1,08,1","07,1,+02400,1,04,1",,,"08,99,1,04,1,08,1,00450,1,07,1,99,9","0012,9",,,"999,N,+0070,1","99999,9,10012,1","7,1,020,1,+999,9","61,1",,,"SYN122AAXX  04061 08544 11458 80101 10108 20093 30012 40033 57020 69912 7616/ 8487/ 333 20070 50044 55002 83815 87458 555 69912;","Q01  00002PRCP12Q02  00002PRCP12"
"08544099999","2010-01-04T09:00:00","4","40.9166666","-8.6333333","22.0","OVAR MACEDA, PO","FM-12","99999","V020","999,9,C,0000,1","00900,1,9,N","010000,1,N,1","+0118,1","+0104,1","10016,1",,"8,1,03,1","6,1,03,1","02,1,+00450,1,08,1","05,1,+00900,1,06,1",,,"08,99,1,05,1,08,1,00450,1,03,1,06,1",,,,,"99999,9,09996,1","7,1,016,1,+999,9","02,1",,,"SYN094AAXX  04091 08544 41460 80000 10118 20104 39996 40016 57016 70286 85836 333 82815 85630 85358;",
"08544099999","2010-01-04T12:00:00","4","40.9166666","-8.6333333","22.0","OVAR MACEDA, PO","FM-12","99999","V020","150,1,N,0030,1","02400,1,9,N","008000,1,N,1","+0138,1","+0110,1","10013,1","06,0041,9,1","8,1,06,1","6,1,06,1","02,1,+00450,1,08,1","04,1,+00900,1,06,1","08,1,+02400,1,04,1",,"08,99,1,04,1,08,1,00450,1,02,1,99,9",,,,,"99999,9,09993,1","7,1,003,1,+999,9","61,1",,,"SYN116AAXX  04121 08544 11458 81503 10138 20110 39993 40013 57003 60041 76186 8482/ 333 82815 84630 88458 555 50044 60037;",
"08544099999","2010-01-04T15:00:00","4","40.9166666","-8.6333333","22.0","OVAR MACEDA, PO","FM-12","99999","V020","080,1,N,0020,1","03600,1,C,N","010000,1,N,1","+0128,1","+0107,1","09988,1",,"6,1,03,1","2,1,03,1","02,1,+00450,1,08,1","04,1,+00900,1,06,1",,,"07,99,1,04,1,08,1,00450,1,07,1,00,1",,,,,"99999,9,09968,1","7,1,025,1,+999,9","60,1",,,"SYN094AAXX  04151 08544 41460 70802 10128 20107 39968 49988 57025 76062 84870 333 82815 84630 87458;",
"08544099999","2010-01-04T18:00:00","4","40.9166666","-8.6333333","22.0","OVAR MACEDA, PO","FM-12","99999","V020","060,1,N,0030,1","00750,1,9,N","010000,1,N,1","+0122,1","+0096,1","09986,1","12,0061,9,1","8,1,06,1","6,1,06,1","02,1,+00360,1,08,1","05,1,+00750,1,06,1",,,"07,99,1,05,1,08,1,00450,1,07,1,01,1",,,,"120,M,+0144,1","99999,9,09966,1","5,1,002,1,+999,9","03,1",,,"SYN110AAXX  04181 08544 11460 70603 10122 20096 39966 49986 55002 60062 70386 85871 333 10144 82812 85625 555 69917;",
"08544099999","2010-01-05T06:00:00","4","40.9166666","-8.6333333","22.0","OVAR MACEDA, PO","FM-12","99999","V020","080,1,N,0010,1","22000,1,9,N","010000,1,N,1","+0076,1","+0064,1","10028,1",,,,"03,1,+06600,1,00,1",,,,"03,99,1,00,1,00,1,99999,9,00,1,01,1","0060,9",,,"999,N,+0076,1","99999,9,10007,1","1,1,004,1,+999,9","00,1",,,"SYN110AAXX  05061 08544 31960 30801 10076 20064 30007 40028 51004 700// 80001 333 20076 50134 55010 83072 555 60002;",
"08544099999","2010-01-05T09:00:00","4","40.9166666","-8.6333333","22.0","OVAR MACEDA, PO","FM-12","99999","V020","180,1,N,0010,1","22000,1,9,N","008000,1,N,1","+0062,1","+0058,1","10045,1",,"0,1,03,1","0,1,03,1","02,1,+00600,1,08,1",,,,"04,99,1,02,1,02,1,00800,1,03,1,01,1",,,,,"99999,9,10024,1","3,1,017,1,+999,9","10,1",,,"SYN088AAXX  05091 08544 41558 41801 10062 20058 30024 40045 53017 71000 82231 333 82820 84072;",
"08544099999","2010-01-05T12:00:00","4","40.9166666","-8.6333333","22.0","OVAR MACEDA, PO","FM-12","99999","V020","360,1,N,0060,1","09000,1,C,N","010000,1,N,1","+0118,1","+0072,1","10058,1",,,,"02,1,+00600,1,08,1","03,1,+02100,1,03,1",,,"05,99,1,02,1,02,1,00800,1,06,1,01,1",,,,,"99999,9,10038,1","0,1,014,1,+999,9",,,,"SYN098AAXX  05121 08544 32560 53606 10118 20072 30038 40058 50014 82261 333 82820 83357 555 50024 60007;",
"08544099999","2010-01-05T15:00:00","4","40.9166666","-8.6333333","22.0","OVAR MACEDA, PO","FM-12","99999","V020","350,1,N,0060,1","02400,1,9,N","010000,1,N,1","+0112,1","+0061,1","10061,1",,,,"03,1,+00600,1,08,1","03,1,+02400,1,03,1",,,"06,99,1,03,1,08,1,00800,1,03,1,01,1",,,,,"99999,9,10040,1","3,1,002,1,+999,9",,"0110,5",,"SYN094AAXX  05151 08544 42560 63506 10112 20061 30040 40061 53002 83831 333 83820 83358 91011 91111;",
"08544099999","2010-01-05T18:00:00","4","40.9166666","-8.6333333","22.0","OVAR MACEDA, PO","FM-12","99999","V020","010,1,N,0050,1","22000,1,9,N","010000,1,N,1","+0086,1","+0035,1","10073,1",,,,"03,1,+00600,1,08,1",,,,"03,99,1,03,1,02,1,00800,1,00,1,00,1",,,,"120,M,+0126,1","99999,9,10052,1","2,1,012,1,+999,9",,,"4,99,0130,9,999","SYN098AAXX  05181 08544 32560 30105 10086 20035 30052 40073 52012 83200 333 10126 83820 91113 555 60007;",
"08544099999","2010-01-06T06:00:00","4","40.9166666","-8.6333333","22.0","OVAR MACEDA, PO","FM-12","99999","V020","999,9,C,0000,1","22000,1,9,N","010000,1,N,1","+0002,1","-0003,1","10085,1",,,,"02,1,+00750,1,06,1",,,,"03,99,1,02,1,05,1,00800,1,03,1,00,1","0276,9",,,"999,N,+0002,1","99999,9,10063,1","8,1,001,1,+999,9","00,1",,,"SYN110AAXX  06061 08544 31560 30000 10002 21003 30063 40085 58001 700// 82530 333 20002 50194 55046 82625 555 60002;",
"08544099999","2010-01-06T09:00:00","4","40.9166666","-8.6333333","22.0","OVAR MACEDA, PO","FM-12","99999","V020","200,1,N,0020,1","22000,1,9,N","010000,1,N,1","+0000,1","-0010,1","10085,1",,,,"02,1,+00750,1,06,1",,,,"03,99,1,02,1,05,1,00800,1,03,1,00,1",,,,,"99999,9,10063,1","0,1,000,1,+999,9",,,,"SYN076AAXX  06091 08544 42560 32002 10000 21010 30063 40085 50000 82530 333 82625;",
"08544099999","2010-01-06T12:00:00","4","40.9166666","-8.6333333","22.0","OVAR MACEDA, PO","FM-12","99999","V020","020,1,N,0020,1","22000,1,9,N","010000,1,N,1","+0102,1","-0015,1","10072,1",,,,"01,1,+00900,1,06,1","03,1,+08400,1,03,1",,,"04,99,1,01,1,05,1,00800,1,03,1,01,1",,,,,"99999,9,10051,1","7,1,013,1,+999,9",,,,"SYN098AAXX  06121 08544 32560 40202 10102 21015 30051 40072 57013 81531 333 81630 83378 555 50004 60007;",
"08544099999","2010-01-06T15:00:00","4","40.9166666","-8.6333333","22.0","OVAR MACEDA, PO","FM-12","99999","V020","020,1,N,0010,1","03600,1,C,N","010000,1,N,1","+0096,1","+0028,1","10050,1",,,,"03,1,+00900,1,06,1",,,,"06,99,1,03,1,05,1,00800,1,03,1,01,1",,,,,"99999,9,10030,1","7,1,021,1,+999,9",,,,"SYN082AAXX  06151 08544 42560 60201 10096 20028 30030 40050 57021 83531 333 83630 85378;",
"08544099999","2010-01-06T18:00:00","4","40.9166666","-8.6333333","22.0","OVAR MACEDA, PO","FM-12","99999","V020","999,9,C,0000,1","02400,1,9,N","010000,1,N,1","+0078,1","+0049,1","10044,1",,,,"03,1,+00900,1,06,1","05,1,+02400,1,03,1",,,"06,99,1,03,1,05,1,00800,1,03,1,01,1",,,,"120,M,+0104,1","99999,9,10024,1","5,1,006,1,+999,9",,,,"SYN098AAXX  06181 08544 32560 60000 10078 20049 30024 40044 55006 83531 333 10104 83630 85358 555 60007;",
"08544099999","2010-01-07T06:00:00","4","40.9166666","-8.6333333","22.0","OVAR MACEDA, PO","FM-12","99999","V020","020,1,N,0010,1","22000,1,9,N","010000,1,N,1","+0042,1","+0019,1","10026,1",,,,"02,1,+00900,1,06,1",,,,"02,99,1,02,1,05,1,00800,1,00,1,00,1","0342,9",,,"999,N,+0032,1","99999,9,10005,1","7,1,019,1,+999,9","00,1",,,"SYN110AAXX  07061 08544 31560 20201 10042 20019 30005 40026 57019 700// 82500 333 20032 50174 55057 82630 555 60002;",
"08544099999","2010-01-07T09:00:00","4","40.9166666","-8.6333333","22.0","OVAR MACEDA, PO","FM-12","99999","V020","020,1,N,0020,1","22000,1,9,N","010000,1,N,1","+0032,1","+0018,1","10050,1",,,,"02,1,+00600,1,08,1",,,,"04,99,1,02,1,02,1,00800,1,03,1,00,1",,,,,"99999,9,10029,1","2,1,024,1,+999,9",,,,"SYN082AAXX  07091 08544 42560 40202 10032 20018 30029 40050 52024 82230 333 82820 83356;",
"08544099999","2010-01-07T12:00:00","4","40.9166666","-8.6333333","22.0","OVAR MACEDA, PO","FM-12","99999","V020","360,1,N,0050,1","22000,1,9,N","010000,1,N,1","+0088,1","+0002,1","10061,1",,,,"02,1,+00600,1,08,1",,,,"02,99,1,02,1,02,1,00800,1,00,1,04,1",,,,,"99999,9,10040,1","1,1,011,1,+999,9",,,,"SYN092AAXX  07121 08544 32560 23605 10088 20002 30040 40061 51011 82204 333 82820 555 50004 60007;",
"08544099999","2010-01-07T15:00:00","4","40.9166666","-8.6333333","22.0","OVAR MACEDA, PO","FM-12","99999","V020","020,1,N,0090,1","22000,1,9,N","010000,1,N,1","+0102,1","-0008,1","10054,1",,,,"03,1,+00600,1,08,1",,,,"03,99,1,03,1,02,1,00800,1,00,1,00,1",,,,,"99999,9,10033,1","5,1,007,1,+999,9",,,,"SYN076AAXX  07151 08544 42560 30209 10102 21008 30033 40054 55007 83200 333 83820;",
"08544099999","2010-01-07T18:00:00","4","40.9166666","-8.6333333","22.0","OVAR MACEDA, PO","FM-12","99999","V020","020,1,N,0090,1","22000,1,9,N","010000,1,N,1","+0074,1","-0018,1","10077,1",,,,"02,1,+00450,1,08,1",,,,"02,99,1,02,1,02,1,00450,1,00,1,00,1",,,,"120,M,+0104,1","99999,9,10056,1","2,1,024,1,+999,9",,,,"SYN092AAXX  07181 08544 32460 20209 10074 21018 30056 40077 52024 82200 333 10104 82815 555 60007;",
"08544099999","2010-01-08T06:00:00","4","40.9166666","-8.6333333","22.0","OVAR MACEDA, PO","FM-12","99999","V020","360,1,N,0030,1","22000,1,9,N","010000,1,N,1","+0024,1","-0035,1","10159,1",,,,"01,1,+00600,1,00,1",,,,"01,99,1,00,1,00,1,99999,9,00,1,01,1","0492,9",,,"999,N,-0006,1","99999,9,10138,1","2,1,016,1,+999,9","00,1",,,"SYN111AAXX  08061 08544 31960 13603 10024 21035 30138 40159 52016 700// 80001 333 21006 50484 55082 810200 555 60002;",
"08544099999","2010-01-08T09:00:00","4","40.9166666","-8.6333333","22.0","OVAR MACEDA, PO","FM-12","99999","V020","020,1,N,0030,1","22000,1,9,N","010000,1,N,1","+0022,1","-0023,1","10176,1",,,,"01,1,+00450,1,02,1",,,,"01,99,1,01,1,02,1,00450,1,00,1,01,1",,,,,"99999,9,10155,1","2,1,017,1,+999,9",,,,"SYN082AAXX  08091 08544 42460 10203 10022 21023 30155 40176 52017 81201 333 81215 81070;",
"08544099999","2010-01-08T12:00:00","4","40.9166666","-8.6333333","22.0","OVAR MACEDA, PO","FM-12","99999","V020","340,1,N,0040,1","22000,1,9,N","010000,1,N,1","+0068,1","-0009,1","10185,1",,,,"01,1,+00540,1,08,1",,,,"02,99,1,01,1,02,1,00450,1,04,1,00,1",,,,,"99999,9,10164,1","1,1,009,1,+999,9",,,,"SYN092AAXX  08121 08544 32460 23404 10068 21009 30164 40185 51009 81240 333 81818 555 50004 60007;",
"08544099999","2010-01-08T15:00:00","4","40.9166666","-8.6333333","22.0","OVAR MACEDA, PO","FM-12","99999","V020","010,1,N,0060,1","22000,1,9,N","010000,1,N,1","+0088,1","-0024,1","10171,1",,,,"02,1,+00600,1,08,1",,,,"02,99,1,02,1,02,1,00800,1,00,1,00,1",,,,,"99999,9,10150,1","6,1,014,1,+999,9",,,,"SYN076AAXX  08151 08544 42560 20106 10088 21024 30150 40171 56014 82200 333 82820;",
"08544099999","2010-01-08T18:00:00","4","40.9166666","-8.6333333","22.0","OVAR MACEDA, PO","FM-12","99999","V020","360,1,N,0020,1","22000,1,9,N","010000,1,N,1","+0062,1","+0001,1","10182,1",,,,"02,1,+00540,1,08,1",,,,"02,99,1,02,1,02,1,00450,1,00,1,00,1",,,,"120,M,+0090,1","99999,9,10161,1","3,1,011,1,+999,9",,,,"SYN092AAXX  08181 08544 32460 23602 10062 20001 30161 40182 53011 82200 333 10090 82818 555 60007;",
"08544099999","2010-01-09T06:00:00","4","40.9166666","-8.6333333","22.0","OVAR MACEDA, PO","FM-12","99999","V020","999,9,C,0000,1","22000,1,9,N","010000,1,N,1","-0016,1","-0039,1","10204,1",,,,"00,1,+99999,9,99,9",,,,"00,99,1,00,1,00,1,99999,9,00,1,00,1","0510,9",,,"999,N,-0016,1","99999,9,10182,1","4,1,000,1,+999,9","00,1",,,"SYN098AAXX  09061 08544 31960 00000 11016 21039 30182 40204 54000 700// 333 21016 50234 55085 555 60002;",
"08544099999","2010-01-09T09:00:00","4","40.9166666","-8.6333333","22.0","OVAR MACEDA, PO","FM-12","99999","V020","999,9,C,0000,1","22000,1,9,N","010000,1,N,1","-0012,1","-0041,1","10209,1",,,,"01,1,+00450,1,08,1",,,,"02,99,1,02,1,08,1,00450,1,00,1,00,1",,,,,"99999,9,10188,1","3,1,006,1,+999,9",,,,"SYN076AAXX  09091 08544 42460 20000 11012 21041 30188 40209 53006 82800 333 81815;",
"08544099999","2010-01-09T12:00:00","4","40.9166666","-8.6333333","22.0","OVAR MACEDA, PO","FM-12","99999","V020","350,1,N,0030,1","22000,1,9,N","010000,1,N,1","+0074,1","-0007,1","10213,1",,,,"01,1,+00540,1,08,1",,,,"02,99,1,01,1,08,1,00450,1,00,1,04,1",,,,,"99999,9,10192,1","0,1,004,1,+999,9",,,,"SYN092AAXX  09121 08544 32460 23503 10074 21007 30192 40213 50004 81804 333 81818 555 50004 60007;",
"08544099999","2010-01-09T15:00:00","4","40.9166666","-8.6333333","22.0","OVAR MACEDA, PO","FM-12","99999","V020","350,1,N,0030,1","22000,1,9,N","010000,1,N,1","+0086,1","+0004,1","10192,1",,,,"01,1,+00540,1,08,1",,,,"03,99,1,01,1,08,1,00450,1,00,1,04,1",,,,,"99999,9,10171,1","7,1,021,1,+999,9",,,,"SYN076AAXX  09151 08544 42460 33503 10086 20004 30171 40192 57021 81804 333 81818;",
"08544099999","2010-01-09T18:00:00","4","40.9166666","-8.6333333","22.0","OVAR MACEDA, PO","FM-12","99999","V020","999,9,C,0000,1","22000,1,9,N","010000,1,N,1","+0046,1","+0008,1","10194,1",,,,"02,1,+02100,1,03,1","03,1,+06000,1,00,1",,,"04,99,1,02,1,00,1,02250,1,03,1,01,1",,,,"120,M,+0088,1","99999,9,10173,1","3,1,002,1,+999,9",,,,"SYN098AAXX  09181 08544 32860 40000 10046 20008 30173 40194 53002 82031 333 10088 82357 83070 555 60007;",
"08544099999","2010-01-10T06:00:00","4","40.9166666","-8.6333333","22.0","OVAR MACEDA, PO","FM-12","99999","V020","999,9,C,0000,1","02100,1,9,N","010000,1,N,1","+0048,1","-0011,1","10128,1",,,,"03,1,+00900,1,06,1","07,1,+02100,1,03,1",,,"08,99,1,03,1,05,1,00800,1,07,1,99,9","0336,9",,,"999,N,+0000,1","99999,9,10107,1","7,1,015,1,+999,9","00,1",,,"SYN116AAXX  10061 08544 31560 80000 10048 21011 30107 40128 57015 700// 8357/ 333 20000 50154 55056 83630 87357 555 60002;",
"08544099999","2010-01-10T09:00:00","4","40.9166666","-8.6333333","22.0","OVAR MACEDA, PO","FM-12","99999","V020","120,1,N,0030,1","03600,1,C,N","007000,1,N,1","+0046,1","+0026,1","10117,1",,"6,1,03,1","2,1,03,1","01,1,+00450,1,08,1","03,1,+00900,1,06,1",,,"08,99,1,03,1,08,1,00450,1,07,1,99,9",,,,,"99999,9,10096,1","7,1,011,1,+999,9","61,1",,,"SYN094AAXX  10091 08544 41457 81203 10046 20026 30096 40117 57011 76162 8387/ 333 81815 83630 87457;",
"08544099999","2010-01-10T12:00:00","4","40.9166666","-8.6333333","22.0","OVAR MACEDA, PO","FM-12","99999","V020","010,1,N,0020,1","00750,1,9,N","006000,1,N,1","+0048,1","+0030,1","10091,1","03,0010,9,1","6,1,06,1","2,1,06,1","05,1,+00750,1,06,1","08,1,+02100,1,04,1",,,"08,99,1,05,1,05,1,00800,1,08,1,99,9",,,,,"99999,9,10070,1","7,1,026,1,+999,9","61,1",,,"SYN110AAXX  10121 08544 11556 80102 10048 20030 30070 40091 57026 60017 76162 8558/ 333 85625 88457 555 50014 69997;",
"08544099999","2010-01-10T15:00:00","4","40.9166666","-8.6333333","22.0","OVAR MACEDA, PO","FM-12","99999","V020","150,1,N,0030,1","00750,1,9,N","007000,1,N,1","+0076,1","+0033,1","10061,1",,"2,1,03,1","2,1,03,1","01,1,+00450,1,08,1","07,1,+00750,1,06,1",,,"07,99,1,07,1,08,1,00450,1,07,1,99,9",,,,,"99999,9,10040,1","7,1,030,1,+999,9","10,1",,,"SYN098AAXX  10151 08544 41457 71503 10076 20033 30040 40061 57030 71022 8787/ 333 81815 87625 555 60007;",
"08544099999","2010-01-10T18:00:00","4","40.9166666","-8.6333333","22.0","OVAR MACEDA, PO","FM-12","99999","V020","010,1,N,0020,1","00750,1,9,N","007000,1,N,1","+0070,1","+0040,1","10060,1","12,0010,9,1","6,1,06,1","2,1,06,1","02,1,+00450,1,08,1","07,1,+00750,1,06,1","07,1,+02100,1,04,1",,"08,99,1,07,1,08,1,00450,1,07,1,99,9",,,,"120,M,+0082,1","99999,9,10039,1","5,1,001,1,+999,9","60,1",,,"SYN122AAXX  10181 08544 11457 80102 10070 20040 30039 40060 55001 60012 76062 8787/ 333 10082 82815 87625 87457 96010 555 69917;",
"08544099999","2010-01-11T06:00:00","4","40.9166666","-8.6333333","22.0","OVAR MACEDA, PO","FM-12","99999","V020","999,9,C,0000,1","00810,1,9,N","010000,1,N,1","+0046,1","+0023,1","10126,1","12,0041,9,1",,,"02,1,+00360,1,08,1","05,1,+00810,1,06,1",,,"07,99,1,05,1,08,1,00450,1,07,1,01,1","0000,9",,,"999,N,+0046,1","99999,9,10105,1","2,1,020,1,+999,9","00,1",,,"SYN122AAXX  11061 08544 11460 70000 10046 20023 30105 40126 52020 60042 700// 85871 333 20046 50114 55000 82812 85627 555 60042;",
"08544099999","2010-01-11T09:00:00","4","40.9166666","-8.6333333","22.0","OVAR MACEDA, PO","FM-12","99999","V020","999,9,C,0000,1","00900,1,C,N","010000,1,N,1","+0042,1","+0038,1","10164,1",,,,"02,1,+00360,1,08,1",,,,"07,99,1,06,1,08,1,00450,1,03,1,01,1",,,,,"99999,9,10142,1","2,1,037,1,+999,9",,,,"SYN082AAXX  11091 08544 42460 70000 10042 20038 30142 40164 52037 86831 333 82812 86627;",
"08544099999","2010-01-11T12:00:00","4","40.9166666","-8.6333333","22.0","OVAR MACEDA, PO","FM-12","99999","V020","200,1,N,0010,1","07200,1,9,N","010000,1,N,1","+0102,1","+0098,1","10175,1",,,,"01,1,+00450,1,08,1","04,1,+07200,1,00,1",,,"05,99,1,01,1,08,1,00450,1,03,1,04,1",,,,,"99999,9,10154,1","2,1,012,1,+999,9",,,,"SYN098AAXX  11121 08544 32460 52001 10102 20098 30154 40175 52012 81834 333 81815 84074 555 50054 60007;",
"08544099999","2010-01-11T15:00:00","4","40.9166666","-8.6333333","22.0","OVAR MACEDA, PO","FM-12","99999","V020","180,1,N,0040,1","00900,1,9,N","010000,1,N,1","+0110,1","+0049,1","10170,1",,,,"01,1,+00540,1,08,1",,,,"07,99,1,05,1,08,1,00450,1,00,1,01,1",,,,,"99999,9,10149,1","8,1,005,1,+999,9",,,,"SYN082AAXX  11151 08544 42460 71804 10110 20049 30149 40170 58005 85801 333 81818 85630;",
"08544099999","2010-01-11T18:00:00","4","40.9166666","-8.6333333","22.0","OVAR MACEDA, PO","FM-12","99999","V020","180,1,N,0020,1","22000,1,9,N","010000,1,N,1","+0102,1","+0058,1","10179,1",,,,"04,1,+00750,1,06,1",,,,"04,99,1,04,1,05,1,00800,1,00,1,00,1",,,,"120,M,+0120,1","99999,9,10158,1","1,1,009,1,+999,9",,,,"SYN092AAXX  11181 08544 32560 41802 10102 20058 30158 40179 51009 84500 333 10120 84625 555 60007;",
"08544099999","2010-01-12T06:00:00","4","40.9166666","-8.6333333","22.0","OVAR MACEDA, PO","FM-12","99999","V020","180,1,N,0100,1","00360,1,9,N","003000,1,N,1","+0124,1","+0114,1","10080,1","12,0071,9,1","6,1,06,1",,"04,1,+00210,1,07,1","06,1,+00360,1,08,1","07,1,+02400,1,04,1",,"08,99,1,07,1,02,1,00250,1,07,1,99,9","0216,9",,,"999,N,+0096,1","99999,9,10060,1","7,1,024,1,+999,9","60,1",,,"SYN134AAXX  12061 08544 11330 81810 10124 20114 30060 40080 57024 60072 7606/ 8727/ 333 20096 50204 55036 84707 86812 87458 96010 555 60072;",
"08544099999","2010-01-12T09:00:00","4","40.9166666","-8.6333333","22.0","OVAR MACEDA, PO","FM-12","99999","V020","300,1,N,0090,1","00210,1,9,N","003000,1,N,1","+0126,1","+0112,1","10072,1",,"6,1,03,1","6,1,03,1","05,1,+00210,1,07,1","05,1,+00360,1,08,1","08,1,+02400,1,04,1",,"08,99,1,07,1,02,1,00250,1,02,1,99,9",,,,,"99999,9,10052,1","5,1,008,1,+999,9","61,1",,,"SYN100AAXX  12091 08544 41330 83009 10126 20112 30052 40072 55008 76166 8722/ 333 85707 85812 88458 96010;",
"08544099999","2010-01-12T12:00:00","4","40.9166666","-8.6333333","22.0","OVAR MACEDA, PO","FM-12","99999","V020","220,1,N,0060,1","00360,1,9,N","004000,1,N,1","+0118,1","+0114,1","10087,1","06,0279,9,1","6,1,06,1","5,1,06,1","04,1,+00210,1,07,1","05,1,+00360,1,08,1","08,1,+02400,1,04,1",,"08,99,1,07,1,02,1,00250,1,02,1,99,9",,,,,"99999,9,10066,1","2,1,014,1,+999,9","58,1",,,"SYN116AAXX  12121 08544 11340 82206 10118 20114 30066 40087 52014 60281 75865 8722/ 333 84707 85812 88458 555 50354 60077;",
"08544099999","2010-01-12T15:00:00","4","40.9166666","-8.6333333","22.0","OVAR MACEDA, PO","FM-12","99999","V020","300,1,N,0060,1","00450,1,9,N","006000,1,N,1","+0130,1","+0105,1","10092,1",,"6,1,03,1","5,1,03,1","02,1,+00360,1,08,1","05,1,+00450,1,06,1",,,"08,99,1,07,1,08,1,00450,1,07,1,99,9",,,,,"99999,9,10072,1","0,1,006,1,+999,9","10,1",,,"SYN094AAXX  12151 08544 41456 83006 10130 20105 30072 40092 50006 71065 8787/ 333 82812 85615 86458;",
"08544099999","2010-01-12T18:00:00","4","40.9166666","-8.6333333","22.0","OVAR MACEDA, PO","FM-12","99999","V020","300,1,N,0040,1","00480,1,9,N","007000,1,N,1","+0132,1","+0084,1","10106,1","12,0279,9,1","6,1,06,1","5,1,06,1","03,1,+00360,1,08,1","05,1,+00480,1,06,1","05,1,+02400,1,04,1",,"07,99,1,06,1,08,1,00450,1,07,1,00,1",,,,"120,M,+0134,1","99999,9,10086,1","2,1,014,1,+999,9","10,1",,,"SYN116AAXX  12181 08544 11457 73004 10132 20084 30086 40106 52014 60282 71065 86870 333 10134 83812 85616 85458 555 60007;",
"08544099999","2010-01-13T06:00:00","4","40.9166666","-8.6333333","22.0","OVAR MACEDA, PO","FM-12","99999","V020","360,1,N,0040,1","00360,1,9,N","006000,1,N,1","+0100,1","+0098,1","10117,1","12,0041,9,1",,,"02,1,+00150,1,07,1","04,1,+00360,1,08,1","06,1,+00480,1,06,1",,"08,99,1,08,1,08,1,00150,1,99,9,99,9","0030,9",,,"999,N,+0094,1","99999,9,10096,1","2,1,010,1,+999,9","10,1",,,"SYN128AAXX  13061 08544 11256 83604 10100 20098 30096 40117 52010 60042 710// 888// 333 20094 50354 55005 82705 84812 86616 555 60042;",
"08544099999","2010-01-13T09:00:00","4","40.9166666","-8.6333333","22.0","OVAR MACEDA, PO","FM-12","99999","V020","180,1,N,0050,1","00360,1,9,N","006000,1,N,1","+0100,1","+0098,1","10117,1","12,0041,9,1",,,"02,1,+00150,1,07,1","04,1,+00360,1,08,1",,,"08,99,1,08,1,08,1,00150,1,99,9,99,9","0030,9",,,"999,N,+0094,1","99999,9,10096,1","2,1,010,1,+999,9","10,1",,,"SYN118AAXX  13091 08544 11256 81805 10100 20098 30096 40117 52010 60042 710// 888// 333 20094 50354 55005 82705 84812 86616;",
"08544099999","2010-01-13T12:00:00","4","40.9166666","-8.6333333","22.0","OVAR MACEDA, PO","FM-12","99999","V020","180,1,N,0050,1","00150,1,9,N","005000,1,N,1","+0134,1","+0127,1","10087,1","06,0051,9,1","8,1,06,1","6,1,06,1","05,1,+00150,1,07,1","04,1,+00450,1,08,1","07,1,+01800,1,04,1",,"08,99,1,06,1,02,1,00150,1,02,1,99,9",,,,,"99999,9,10066,1","8,1,020,1,+999,9","61,1",,,"SYN116AAXX  13121 08544 11250 81805 10134 20127 30066 40087 58020 60051 76186 8622/ 333 85705 84815 87456 555 50104 60037;",
"08544099999","2010-01-13T15:00:00","4","40.9166666","-8.6333333","22.0","OVAR MACEDA, PO","FM-12","99999","V020","190,1,N,0060,1","00450,1,9,N","003000,1,N,1","+0128,1","+0124,1","10041,1",,"6,1,03,1","2,1,03,1","03,1,+00150,1,07,1","05,1,+00450,1,08,1",,,"08,99,1,06,1,02,1,00150,1,02,1,99,9",,,,,"99999,9,10020,1","7,1,046,1,+999,9","63,1",,,"SYN094AAXX  13151 08544 41230 81906 10128 20124 30020 40041 57046 76362 8622/ 333 83705 85815 88456;",
"08544099999","2010-01-13T18:00:00","4","40.9166666","-8.6333333","22.0","OVAR MACEDA, PO","FM-12","99999","V020","190,1,N,0110,1","00450,1,9,N","005000,1,N,1","+0150,1","+0143,1","09990,1","12,0239,9,1","6,1,06,1","5,1,06,1","03,1,+00150,1,07,1","04,1,+00450,1,08,1","06,1,+01800,1,04,1",,"07,99,1,05,1,02,1,00150,1,02,1,00,1",,,,"120,M,+0150,1","99999,9,09970,1","7,1,050,1,+999,9","10,1",,,"SYN116AAXX  13181 08544 11250 71911 10150 20143 39970 49990 57050 60242 71065 85220 333 10150 83705 84815 86456 555 60107;",
"08544099999","2010-01-14T06:00:00","4","40.9166666","-8.6333333","22.0","OVAR MACEDA, PO","FM-12","99999","V020","300,1,N,0090,1","00900,1,9,N","008000,1,N,1","+0112,1","+0086,1","10092,1","12,0020,9,1",,,"03,1,+00450,1,08,1","01,1,+00540,1,09,1","04,1,+00900,1,06,1",,"06,99,1,06,1,09,1,00450,1,00,1,01,1","0000,9",,,"999,N,+0106,1","99999,9,10071,1","2,1,035,1,+999,9","10,1",,,"SYN128AAXX  14061 08544 11458 63009 10112 20086 30071 40092 52035 60022 710// 86901 333 20106 50224 55000 83815 81918 84630 555 60022;",
"08544099999","2010-01-14T09:00:00","4","40.9166666","-8.6333333","22.0","OVAR MACEDA, PO","FM-12","99999","V020","300,1,N,0040,1","00450,1,9,N","006000,1,N,1","+0106,1","+0087,1","10116,1",,"8,1,03,1","2,1,03,1","05,1,+00450,1,08,1","05,1,+00900,1,06,1",,,"07,99,1,06,1,08,1,00450,1,00,1,01,1",,,,,"99999,9,10095,1","2,1,024,1,+999,9","80,1",,,"SYN094AAXX  14091 08544 41456 73004 10106 20087 30095 40116 52024 78082 86801 333 85815 85630 84070;",
"08544099999","2010-01-14T12:00:00","4","40.9166666","-8.6333333","22.0","OVAR MACEDA, PO","FM-12","99999","V020","340,1,N,0040,1","00540,1,9,N","007000,1,N,1","+0096,1","+0077,1","10154,1","06,0079,9,1","8,1,06,1","2,1,06,1","04,1,+00450,1,08,1","01,1,+00540,1,09,1","05,1,+00660,1,08,1",,"07,99,1,07,1,09,1,00450,1,00,1,00,1",,,,,"99999,9,10133,1","2,1,038,1,+999,9","80,1",,,"SYN116AAXX  14121 08544 11457 73404 10096 20077 30133 40154 52038 60081 78082 87900 333 84815 81918 85822 555 50284 60067;",
"08544099999","2010-01-14T15:00:00","4","40.9166666","-8.6333333","22.0","OVAR MACEDA, PO","FM-12","99999","V020","310,1,N,0020,1","22000,1,9,N","010000,1,N,1","+0136,1","+0100,1","10158,1",,"8,1,03,1","2,1,03,1","03,1,+00540,1,08,1",,,,"05,99,1,04,1,02,1,00450,1,00,1,01,1",,,,,"99999,9,10137,1","3,1,004,1,+999,9","01,1",,,"SYN082AAXX  14151 08544 41460 53102 10136 20100 30137 40158 53004 70182 84201 333 83818;",
"08544099999","2010-01-14T18:00:00","4","40.9166666","-8.6333333","22.0","OVAR MACEDA, PO","FM-12","99999","V020","999,9,C,0000,1","06600,1,9,N","005000,1,N,1","+0110,1","+0095,1","10190,1","12,0079,9,1","8,1,06,1","2,1,06,1","02,1,+00450,1,08,1","04,1,+06600,1,00,1",,,"05,99,1,02,1,02,1,00450,1,00,1,04,1",,,,"120,M,+0138,1","99999,9,10169,1","2,1,032,1,+999,9","10,1",,,"SYN110AAXX  14181 08544 11450 50000 10110 20095 30169 40190 52032 60082 71082 82204 333 10138 82815 84072 555 60007;",
"08544099999","2010-01-15T06:00:00","4","40.9166666","-8.6333333","22.0","OVAR MACEDA, PO","FM-12","99999","V020","999,9,C,0000,1","00750,1,9,N","010000,1,N,1","+0090,1","+0074,1","10211,1","12,0003,9,1",,,"02,1,+00360,1,08,1","07,1,+00750,1,08,1",,,"08,99,1,08,1,08,1,00450,1,99,9,99,9","0168,9",,,"999,N,+0060,1","99999,9,10190,1","4,1,000,1,+999,9","00,1",,,"SYN122AAXX  15061 08544 11460 80000 10090 20074 30190 40211 54000 69932 700// 888// 333 20060 50094 55028 82812 87825 555 69932;",
"08544099999","2010-01-15T09:00:00","4","40.9166666","-8.6333333","22.0","OVAR MACEDA, PO","FM-12","99999","V020","170,1,N,0050,1","00600,1,9,N","008000,1,N,1","+0112,1","+0074,1","10209,1",,"6,1,03,1","2,1,03,1","01,1,+00360,1,08,1","05,1,+00600,1,08,1",,,"08,99,1,05,1,08,1,00450,1,07,1,99,9",,,,,"99999,9,10188,1","8,1,002,1,+999,9","60,1",,,"SYN094AAXX  15091 08544 41458 81705 10112 20074 30188 40209 58002 76062 8587/ 333 81812 85820 85357;",
"08544099999","2010-01-15T12:00:00","4","40.9166666","-8.6333333","22.0","OVAR MACEDA, PO","FM-12","99999","V020","170,1,N,0050,1","02100,1,9,N","008000,1,N,1","+0126,1","+0089,1","10209,1","06,0010,9,1","6,1,06,1","2,1,06,1","01,1,+00450,1,08,1","03,1,+00900,1,06,1","08,1,+02100,1,04,1",,"08,99,1,03,1,08,1,00450,1,07,1,99,9",,,,,"99999,9,10188,1","0,1,000,1,+999,9","21,1",,,"SYN122AAXX  15121 08544 11458 81705 10126 20089 30188 40209 50000 60011 72162 8387/ 333 81815 83630 88457 96010 555 50024 60017;",
"08544099999","2010-01-15T15:00:00","4","40.9166666","-8.6333333","22.0","OVAR MACEDA, PO","FM-12","99999","V020","180,1,N,0070,1","03600,1,C,N","007000,1,N,1","+0124,1","+0099,1","10194,1",,"6,1,03,1","2,1,03,1","01,1,+00450,1,08,1","03,1,+00750,1,06,1",,,"08,99,1,03,1,08,1,00450,1,07,1,99,9",,,,,"99999,9,10174,1","7,1,014,1,+999,9","61,1",,,"SYN094AAXX  15151 08544 41457 81807 10124 20099 30174 40194 57014 76162 8387/ 333 81815 83625 87457;",
"08544099999","2010-01-15T18:00:00","4","40.9166666","-8.6333333","22.0","OVAR MACEDA, PO","FM-12","99999","V020","180,1,N,0060,1","00600,1,9,N","008000,1,N,1","+0116,1","+0105,1","10192,1","12,0030,9,1","6,1,06,1","5,1,06,1","01,1,+00240,1,07,1","05,1,+00600,1,06,1","08,1,+02100,1,04,1",,"08,99,1,05,1,02,1,00250,1,07,1,99,9",,,,"120,M,+0126,1","99999,9,10172,1","8,1,002,1,+999,9","21,1",,,"SYN122AAXX  15181 08544 11358 81806 10116 20105 30172 40192 58002 60032 72165 8527/ 333 10126 81708 85620 88457 96010 555 60027;",
"08544099999","2010-01-16T06:00:00","4","40.9166666","-8.6333333","22.0","OVAR MACEDA, PO","FM-12","99999","V020","180,1,N,0080,1","00240,1,9,N","003000,1,N,1","+0138,1","+0134,1","10168,1","12,0030,9,1","6,1,06,1",,"03,1,+00150,1,07,1","07,1,+00240,1,07,1",,,"08,99,1,08,1,07,1,00150,1,99,9,99,9","0000,9",,,"999,N,+0116,1","99999,9,10147,1","7,1,015,1,+999,9","61,1",,,"SYN128AAXX  16061 08544 11230 81808 10138 20134 30147 40168 57015 60032 7616/ 887// 333 20116 50154 55000 83705 87708 96010 555 60032;",
"08544099999","2010-01-16T09:00:00","4","40.9166666","-8.6333333","22.0","OVAR MACEDA, PO","FM-12","99999","V020","180,1,N,0060,1","00120,1,9,N","001500,1,N,1","+0142,1","+0139,1","10176,1",,"6,1,03,1","5,1,03,1","05,1,+00120,1,07,1","07,1,+00180,1,07,1",,,"08,99,1,08,1,07,1,00150,1,99,9,99,9",,,,,"99999,9,10156,1","2,1,009,1,+999,9","58,1",,,"SYN094AAXX  16091 08544 41215 81806 10142 20139 30156 40176 52009 75865 887// 333 85704 87706 96010;",
"08544099999","2010-01-16T12:00:00","4","40.9166666","-8.6333333","22.0","OVAR MACEDA, PO","FM-12","99999","V020","260,1,N,0070,1","00180,1,9,N","001500,1,N,1","+0142,1","+0139,1","10200,1","06,0180,9,1","6,1,06,1","5,1,06,1","02,1,+00090,1,08,1","05,1,+00180,1,07,1","05,1,+00360,1,08,1",,"08,99,1,07,1,02,1,00075,1,02,1,99,9",,,,,"99999,9,10180,1","2,1,024,1,+999,9","58,1",,,"SYN122AAXX  16121 08544 11115 82607 10142 20139 30180 40200 52024 60181 75865 8722/ 333 82803 85706 85812 96010 555 50234 60137;",
"08544099999","2010-01-16T15:00:00","4","40.9166666","-8.6333333","22.0","OVAR MACEDA, PO","FM-12","99999","V020","270,1,N,0020,1","00180,1,9,N","003000,1,N,1","+0138,1","+0131,1","10200,1",,"6,1,03,1","5,1,03,1","05,1,+00180,1,07,1","05,1,+00360,1,08,1","08,1,+02100,1,04,1",,"08,99,1,07,1,02,1,00150,1,02,1,99,9",,,,,"99999,9,10180,1","5,1,000,1,+999,9","61,1",,,"SYN100AAXX  16151 08544 41230 82702 10138 20131 30180 40200 55000 76165 8722/ 333 85706 85812 88457 96010;",
"08544099999","2010-01-16T18:00:00","4","40.9166666","-8.6333333","22.0","OVAR MACEDA, PO","FM-12","99999","V020","160,1,N,0020,1","00360,1,9,N","005000,1,N,1","+0130,1","+0123,1","10209,1","12,0279,9,1","6,1,06,1","5,1,06,1","03,1,+00240,1,07,1","05,1,+00360,1,08,1","06,1,+02100,1,04,1",,"08,99,1,07,1,02,1,00250,1,07,1,99,9",,,,"120,M,+0150,1","99999,9,10188,1","0,1,008,1,+999,9","21,1",,,"SYN122AAXX  16181 08544 11350 81602 10130 20123 30188 40209 50008 60282 72165 8727/ 333 10150 83708 85812 86457 96010 555 60027;",
"08544099999","2010-01-17T06:00:00","4","40.9166666","-8.6333333","22.0","OVAR MACEDA, PO","FM-12","99999","V020","999,9,C,0000,1","00360,1,9,N","006000,1,N,1","+0110,1","+0103,1","10216,1","12,0020,9,1",,,"02,1,+00240,1,07,1","05,1,+00360,1,08,1","05,1,+00750,1,06,1",,"08,99,1,08,1,08,1,00250,1,99,9,99,9","0000,9",,,"999,N,+0108,1","99999,9,10196,1","8,1,001,1,+999,9","10,1",,,"SYN128AAXX  17061 08544 11356 80000 10110 20103 30196 40216 58001 60022 710// 888// 333 20108 50024 55000 82708 85812 85625 555 60022;",
"08544099999","2010-01-17T09:00:00","4","40.9166666","-8.6333333","22.0","OVAR MACEDA, PO","FM-12","99999","V020","999,9,C,0000,1","00180,1,9,N","002000,1,N,1","+0112,1","+0108,1","10218,1",,"5,1,03,1","2,1,03,1","05,1,+00180,1,07,1","06,1,+00360,1,08,1",,,"08,99,1,08,1,02,1,00150,1,99,9,99,9",,,,,"99999,9,10198,1","3,1,002,1,+999,9","50,1",,,"SYN094AAXX  17091 08544 41220 80000 10112 20108 30198 40218 53002 75052 882// 333 85706 86812 96010;",
"08544099999","2010-01-17T12:00:00","4","40.9166666","-8.6333333","22.0","OVAR MACEDA, PO","FM-12","99999","V020","999,9,C,0000,1","00240,1,9,N","003000,1,N,1","+0134,1","+0127,1","10230,1","06,0005,9,1","5,1,06,1","2,1,06,1","03,1,+00180,1,07,1","05,1,+00240,1,07,1","05,1,+00540,1,08,1",,"08,99,1,08,1,02,1,00150,1,99,9,99,9",,,,,"99999,9,10209,1","2,1,011,1,+999,9","10,1",,,"SYN116AAXX  17121 08544 11230 80000 10134 20127 30209 40230 52011 69941 71052 882// 333 83706 85708 85818 555 50124 69917;",
"08544099999","2010-01-17T15:00:00","4","40.9166666","-8.6333333","22.0","OVAR MACEDA, PO","FM-12","99999","V020","180,1,N,0040,1","00900,1,C,N","008000,1,N,1","+0158,1","+0142,1","10206,1",,"2,1,03,1","2,1,03,1","03,1,+00360,1,08,1",,,,"07,99,1,06,1,08,1,00450,1,07,1,00,1",,,,,"99999,9,10186,1","7,1,023,1,+999,9","10,1",,,"SYN088AAXX  17151 08544 41458 71804 10158 20142 30186 40206 57023 71022 86870 333 83812 85820;",
"08544099999","2010-01-17T18:00:00","4","40.9166666","-8.6333333","22.0","OVAR MACEDA, PO","FM-12","99999","V020","999,9,C,0000,1","00600,1,9,N","010000,1,N,1","+0152,1","+0145,1","10198,1","12,0005,9,1",,,"03,1,+00360,1,08,1","04,1,+00600,1,08,1",,,"07,99,1,05,1,08,1,00450,1,03,1,00,1",,,,"120,M,+0160,1","99999,9,10178,1","7,1,008,1,+999,9",,,,"SYN104AAXX  17181 08544 12460 70000 10152 20145 30178 40198 57008 69942 85830 333 10160 83812 84820 555 60007;",
"08544099999","2010-01-18T06:00:00","4","40.9166666","-8.6333333","22.0","OVAR MACEDA, PO","FM-12","99999","V020","999,9,C,0000,1","02100,1,9,N","010000,1,N,1","+0124,1","+0106,1","10154,1",,,,"04,1,+00900,1,06,1","07,1,+02100,1,03,1",,,"08,99,1,04,1,05,1,00800,1,07,1,99,9","0018,9",,,"999,N,+0104,1","99999,9,10133,1","7,1,034,1,+999,9","00,1",,,"SYN116AAXX  18061 08544 31560 80000 10124 20106 30133 40154 57034 700// 8457/ 333 20104 50034 55003 84630 87357 555 60002;",
"08544099999","2010-01-18T09:00:00","4","40.9166666","-8.6333333","22.0","OVAR MACEDA, PO","FM-12","99999","V020","150,1,N,0020,1","00900,1,9,N","005000,1,N,1","+0128,1","+0118,1","10155,1",,"6,1,03,1","2,1,03,1","05,1,+00900,1,06,1","08,1,+02100,1,04,1",,,"08,99,1,05,1,05,1,00800,1,07,1,99,9",,,,,"99999,9,10134,1","3,1,001,1,+999,9","61,1",,,"SYN094AAXX  18091 08544 41550 81502 10128 20118 30134 40155 53001 76162 8557/ 333 85630 88457 96010;",
"08544099999","2010-01-18T12:00:00","4","40.9166666","-8.6333333","22.0","OVAR MACEDA, PO","FM-12","99999","V020","180,1,N,0050,1","00600,1,9,N","007000,1,N,1","+0142,1","+0128,1","10161,1","06,0030,9,1","6,1,06,1","5,1,06,1","03,1,+00450,1,08,1","05,1,+00600,1,06,1",,,"08,99,1,07,1,08,1,00450,1,07,1,99,9",,,,,"99999,9,10141,1","0,1,007,1,+999,9","20,1",,,"SYN110AAXX  18121 08544 11457 81805 10142 20128 30141 40161 50007 60031 72065 8787/ 333 83815 85620 555 50034 69917;",
"08544099999","2010-01-18T15:00:00","4","40.9166666","-8.6333333","22.0","OVAR MACEDA, PO","FM-12","99999","V020","180,1,N,0060,1","00450,1,9,N","003000,1,N,1","+0146,1","+0135,1","10150,1",,"5,1,03,1","2,1,03,1","02,1,+00150,1,07,1","03,1,+00450,1,08,1",,,"08,99,1,08,1,08,1,00150,1,99,9,99,9",,,,,"99999,9,10130,1","7,1,011,1,+999,9","50,1",,,"SYN094AAXX  18151 08544 41230 81806 10146 20135 30130 40150 57011 75052 888// 333 82705 83815 85620;",
"08544099999","2010-01-18T18:00:00","4","40.9166666","-8.6333333","22.0","OVAR MACEDA, PO","FM-12","99999","V020","220,1,N,0050,1","00450,1,9,N","004000,1,N,1","+0142,1","+0138,1","10165,1","12,0030,9,1","5,1,06,1","2,1,06,1","02,1,+00150,1,07,1","03,1,+00450,1,08,1","05,1,+00600,1,06,1",,"08,99,1,07,1,08,1,00150,1,03,1,99,9",,,,"120,M,+0152,1","99999,9,10145,1","2,1,015,1,+999,9","50,1",,,"SYN116AAXX  18181 08544 11240 82205 10142 20138 30145 40165 52015 60032 75052 8783/ 333 10152 82705 83815 85620 555 69947;",
"08544099999","2010-01-19T06:00:00","4","40.9166666","-8.6333333","22.0","OVAR MACEDA, PO","FM-12","99999","V020","220,1,N,0050,1","00450,1,9,N","007000,1,N,1","+0136,1","+0129,1","10164,1","12,0030,9,1",,,"03,1,+00180,1,07,1","06,1,+00450,1,08,1",,,"08,99,1,08,1,02,1,00150,1,99,9,99,9","0000,9",,,"999,N,+0134,1","99999,9,10143,1","7,1,002,1,+999,9","10,1",,,"SYN122AAXX  19061 08544 11257 82205 10136 20129 30143 40164 57002 60032 710// 882// 333 20134 50064 55000 83706 86815 555 60032;",
"08544099999","2010-01-19T09:00:00","4","40.9166666","-8.6333333","22.0","OVAR MACEDA, PO","FM-12","99999","V020","210,1,N,0050,1","00360,1,9,N","006000,1,N,1","+0134,1","+0131,1","10179,1",,"6,1,03,1","5,1,03,1","02,1,+00180,1,07,1","03,1,+00360,1,08,1",,,"07,99,1,07,1,08,1,00150,1,00,1,00,1",,,,,"99999,9,10158,1","2,1,015,1,+999,9","21,1",,,"SYN094AAXX  19091 08544 41256 72105 10134 20131 30158 40179 52015 72165 87800 333 82706 83812 86615;",
"08544099999","2010-01-19T12:00:00","4","40.9166666","-8.6333333","22.0","OVAR MACEDA, PO","FM-12","99999","V020","230,1,N,0030,1","00750,1,9,N","010000,1,N,1","+0148,1","+0124,1","10200,1","06,0000,2,1","6,1,06,1","5,1,06,1","03,1,+00540,1,08,1","03,1,+00750,1,06,1",,,"07,99,1,05,1,08,1,00450,1,07,1,00,1",,,,,"99999,9,10180,1","2,1,022,1,+999,9","02,1",,,"SYN110AAXX  19121 08544 11460 72303 10148 20124 30180 40200 52022 69921 70265 85870 333 83818 83625 555 50044 69907;",
"08544099999","2010-01-19T15:00:00","4","40.9166666","-8.6333333","22.0","OVAR MACEDA, PO","FM-12","99999","V020","240,1,N,0030,1","22000,1,9,N","010000,1,N,1","+0154,1","+0101,1","10193,1",,"8,1,03,1","1,1,03,1","01,1,+00600,1,08,1",,,,"02,99,1,02,1,08,1,00800,1,00,1,00,1",,,,,"99999,9,10172,1","6,1,008,1,+999,9","01,1",,,"SYN082AAXX  19150 08544 41560 22403 10154 20101 30172 40193 56008 70181 82800 333 81820;",
"08544099999","2010-01-19T18:00:00","4","40.9166666","-8.6333333","22.0","OVAR MACEDA, PO","FM-12","99999","V020","200,1,N,0020,1","00900,1,9,N","010000,1,N,1","+0128,1","+0103,1","10197,1","12,0000,2,1","8,1,06,1","1,1,06,1","02,1,+00480,1,08,1","05,1,+00900,1,06,1",,,"07,99,1,05,1,08,1,00450,1,07,1,00,1",,,,"120,M,+0156,1","99999,9,10176,1","0,1,004,1,+999,9","03,1",,,"SYN110AAXX  19181 08544 11460 72002 10128 20103 30176 40197 50004 69922 70381 85870 333 10156 82816 85630 555 60007;",
"08544099999","2010-01-20T06:00:00","4","40.9166666","-8.6333333","22.0","OVAR MACEDA, PO","FM-12","99999","V020","999,9,C,0000,1","00900,1,9,N","010000,1,N,1","+0110,1","+0095,1","10216,1","12,0041,9,1",,,"03,1,+00450,1,08,1","04,1,+00900,1,06,1",,,"06,99,1,06,1,08,1,00450,1,00,1,00,1","0282,9",,,"999,N,+0110,1","99999,9,10195,1","3,1,010,1,+999,9","00,1",,,"SYN122AAXX  20061 08544 11460 60000 10110 20095 30195 40216 53010 60042 700// 86800 333 20110 50154 55047 83815 84630 555 60042;",
"08544099999","2010-01-20T09:00:00","4","40.9166666","-8.6333333","22.0","OVAR MACEDA, PO","FM-12","99999","V020","180,1,N,0020,1","03600,1,9,N","008000,1,N,1","+0080,1","+0072,1","10232,1",,"2,1,03,1","2,1,03,1","04,1,+00540,1,08,1",,,,"07,99,1,04,1,02,1,00450,1,04,1,04,1",,,,,"99999,9,10211,1","2,1,016,1,+999,9","10,1",,,"SYN082AAXX  20091 08544 41458 71802 10080 20072 30211 40232 52016 71022 84244 333 84818;",
"08544099999","2010-01-20T12:00:00","4","40.9166666","-8.6333333","22.0","OVAR MACEDA, PO","FM-12","99999","V020","260,1,N,0020,1","06000,1,9,N","008000,1,N,1","+0144,1","+0093,1","10241,1",,"2,1,06,1","2,1,06,1","04,1,+00540,1,08,1","03,1,+06000,1,00,1",,,"06,99,1,05,1,08,1,00450,1,00,1,01,1",,,,,"99999,9,10220,1","0,1,009,1,+999,9","10,1",,,"SYN104AAXX  20121 08544 32458 62602 10144 20093 30220 40241 50009 71022 85801 333 84818 83070 555 50044 60007;",
"08544099999","2010-01-20T15:00:00","4","40.9166666","-8.6333333","22.0","OVAR MACEDA, PO","FM-12","99999","V020","240,1,N,0020,1","22000,1,9,N","010000,1,N,1","+0148,1","+0090,1","10233,1",,,,"02,1,+00540,1,08,1",,,,"06,99,1,04,1,08,1,00450,1,00,1,04,1",,,,,"99999,9,10212,1","6,1,008,1,+999,9",,,,"SYN082AAXX  20151 08544 42460 62402 10148 20090 30212 40233 56008 84804 333 82818 83640;",
"08544099999","2010-01-20T18:00:00","4","40.9166666","-8.6333333","22.0","OVAR MACEDA, PO","FM-12","99999","V020","999,9,C,0000,1","22000,1,9,N","006000,1,N,1","+0120,1","+0098,1","10235,1",,"2,1,06,1","1,1,06,1","01,1,+00360,1,08,1","03,1,+06000,1,00,1",,,"04,99,1,03,1,08,1,00450,1,00,1,01,1",,,,"120,M,+0154,1","99999,9,10214,1","0,1,002,1,+999,9","10,1",,,"SYN104AAXX  20181 08544 31456 40000 10120 20098 30214 40235 50002 71021 83801 333 10154 81812 83070 555 60007;",
"08544099999","2010-01-21T06:00:00","4","40.9166666","-8.6333333","22.0","OVAR MACEDA, PO","FM-12","99999","V020","999,9,C,0000,1","02400,1,9,N","010000,1,N,1","+0070,1","+0062,1","10220,1",,,,"01,1,+00900,1,06,1","05,1,+02400,1,03,1","05,1,+06000,1,00,1",,"07,99,1,01,1,05,1,00800,1,03,1,01,1","0390,9",,,"999,N,+0064,1","99999,9,10199,1","7,1,006,1,+999,9","00,1",,,"SYN122AAXX  21061 08544 31560 70000 10070 20062 30199 40220 57006 700// 81531 333 20064 50104 55065 81630 85358 85070 555 60002;",
"08544099999","2010-01-21T09:00:00","4","40.9166666","-8.6333333","22.0","OVAR MACEDA, PO","FM-12","99999","V020","190,1,N,0010,1","03600,1,C,N","010000,1,N,1","+0074,1","+0062,1","10224,1",,,,"01,1,+00900,1,06,1","03,1,+02400,1,03,1",,,"07,99,1,01,1,05,1,00800,1,03,1,02,1",,,,,"99999,9,10203,1","2,1,004,1,+999,9",,,,"SYN088AAXX  21091 08544 42560 71901 10074 20062 30203 40224 52004 81532 333 81630 83358 87070;",
"08544099999","2010-01-21T12:00:00","4","40.9166666","-8.6333333","22.0","OVAR MACEDA, PO","FM-12","99999","V020","190,1,N,0060,1","01800,1,9,N","010000,1,N,1","+0134,1","+0082,1","10229,1",,,,"04,1,+00600,1,08,1","05,1,+01800,1,03,1","05,1,+06000,1,00,1",,"07,99,1,06,1,02,1,00800,1,03,1,02,1",,,,,"99999,9,10209,1","0,1,006,1,+999,9",,,,"SYN104AAXX  21121 08544 32560 71906 10134 20082 30209 40229 50006 86232 333 84820 85356 85070 555 50004 60007;",
"08544099999","2010-01-21T15:00:00","4","40.9166666","-8.6333333","22.0","OVAR MACEDA, PO","FM-12","99999","V020","190,1,N,0050,1","00600,1,9,N","010000,1,N,1","+0148,1","+0082,1","10207,1",,,,"02,1,+00450,1,08,1","04,1,+00600,1,06,1",,,"07,99,1,06,1,08,1,00450,1,03,1,00,1",,,,,"99999,9,10187,1","7,1,022,1,+999,9",,,,"SYN088AAXX  21151 08544 42460 71905 10148 20082 30187 40207 57022 86830 333 82815 84620 87357;",
"08544099999","2010-01-21T18:00:00","4","40.9166666","-8.6333333","22.0","OVAR MACEDA, PO","FM-12","99999","V020","180,1,N,0050,1","00600,1,9,N","004000,1,N,1","+0122,1","+0111,1","10215,1","12,9999,9,9","5,1,06,1","2,1,06,1","03,1,+00120,1,07,1","05,1,+00600,1,08,1","07,1,+01800,1,03,1",,"08,99,1,07,1,02,1,00150,1,03,1,00,1",,,,"120,M,+0150,1","99999,9,10194,1","2,1,007,1,+999,9","50,1",,,"SYN116AAXX  21181 08544 11240 81805 10122 20111 30194 40215 52007 69922 75052 87230 333 10150 83704 85820 87356 555 69927;","Q01  00002PRCP12Q02  00002PRCP12"
"08544099999","2010-01-22T06:00:00","4","40.9166666","-8.6333333","22.0","OVAR MACEDA, PO","FM-12","99999","V020","160,1,N,0040,1","00750,1,9,N","010000,1,N,1","+0132,1","+0107,1","10194,1","12,0010,9,1",,,"03,1,+00450,1,08,1","05,1,+00750,1,06,1",,,"07,99,1,07,1,08,1,00450,1,00,1,00,1","0000,9",,,"999,N,+0114,1","99999,9,10173,1","7,1,024,1,+999,9","00,1",,,"SYN122AAXX  22061 08544 11460 71604 10132 20107 30173 40194 57024 60012 700// 87800 333 20114 50144 55000 83815 85625 555 60012;",
"08544099999","2010-01-22T09:00:00","4","40.9166666","-8.6333333","22.0","OVAR MACEDA, PO","FM-12","99999","V020","180,1,N,0050,1","00750,1,9,N","010000,1,N,1","+0132,1","+0107,1","10193,1",,,,"02,1,+00450,1,08,1","05,1,+00750,1,06,1",,,"07,99,1,06,1,08,1,00450,1,03,1,00,1",,,,,"99999,9,10173,1","7,1,001,1,+999,9",,,,"SYN088AAXX  22091 08544 42460 71805 10132 20107 30173 40193 56000 86830 333 82815 85625 85356;","Q01+000062APCTEN"
"08544099999","2010-01-22T12:00:00","4","40.9166666","-8.6333333","22.0","OVAR MACEDA, PO","FM-12","99999","V020","180,1,N,0060,1","00750,1,9,N","010000,1,N,1","+0150,1","+0108,1","10191,1","06,0000,9,1",,,"02,1,+00450,1,08,1","04,1,+00750,1,06,1",,,"08,99,1,05,1,08,1,00450,1,07,1,99,9",,,,,"99999,9,10171,1","8,1,002,1,+999,9",,,,"SYN094AAXX  22121 08544 32460 81806 10150 20108 30171 40191 58002 60001 8587/ 333 82815 84625 87457;","Q01  00002PRCP06"
"08544099999","2010-01-22T15:00:00","4","40.9166666","-8.6333333","22.0","OVAR MACEDA, PO","FM-12","99999","V020","170,1,N,0050,1","00900,1,9,N","010000,1,N,1","+0152,1","+0114,1","10171,1",,,,"03,1,+00540,1,08,1","03,1,+00900,1,06,1",,,"08,99,1,05,1,08,1,00450,1,07,1,99,9",,,,,"99999,9,10151,1","7,1,020,1,+999,9",,,,"SYN088AAXX  22151 08544 42460 81705 10152 20114 30151 40171 57020 8587/ 333 83818 83630 86457;",
"08544099999","2010-01-22T18:00:00","4","40.9166666","-8.6333333","22.0","OVAR MACEDA, PO","FM-12","99999","V020","999,9,C,0000,1","00900,1,9,N","010000,1,N,1","+0140,1","+0115,1","10169,1",,,,"03,1,+00540,1,08,1","03,1,+00900,1,06,1","06,1,+02100,1,04,1",,"08,99,1,05,1,08,1,00450,1,07,1,99,9",,,,"120,M,+0158,1","99999,9,10149,1","6,1,002,1,+999,9",,,,"SYN104AAXX  22181 08544 32460 80000 10140 20115 30149 40169 56002 8587/ 333 10158 83818 83630 86457 555 60007;",
"08544099999","2010-01-23T06:00:00","4","40.9166666","-8.6333333","22.0","OVAR MACEDA, PO","FM-12","99999","V020","010,1,N,0020,1","02400,1,9,N","010000,1,N,1","+0110,1","+0099,1","10128,1","12,0010,9,1",,,"01,1,+00540,1,08,1","03,1,+00900,1,06,1","05,1,+02400,1,04,1",,"07,99,1,03,1,08,1,00450,1,07,1,00,1","0000,9",,,"999,N,+0106,1","99999,9,10108,1","6,1,005,1,+999,9","00,1",,,"SYN128AAXX  23061 08544 11460 70102 10110 20099 30108 40128 56005 60012 700// 83870 333 20106 50164 55000 81818 83630 85458 555 60012;",
"08544099999","2010-01-23T09:00:00","4","40.9166666","-8.6333333","22.0","OVAR MACEDA, PO","FM-12","99999","V020","999,9,C,0000,1","00900,1,9,N","005000,1,N,1","+0104,1","+0097,1","10137,1",,"8,1,03,1","2,1,03,1","01,1,+00540,1,08,1",,,,"07,99,1,05,1,08,1,00450,1,07,1,00,1",,,,,"99999,9,10116,1","3,1,008,1,+999,9","25,1",,,"SYN088AAXX  23091 08544 41450 70000 10104 20097 30116 40137 53008 72582 85870 333 81818 85630;",
"08544099999","2010-01-23T12:00:00","4","40.9166666","-8.6333333","22.0","OVAR MACEDA, PO","FM-12","99999","V020","999,9,C,0000,1","00900,1,9,N","010000,1,N,1","+0134,1","+0120,1","10149,1","06,0003,9,1","8,1,06,1","2,1,06,1","05,1,+00900,1,06,1","03,1,+02400,1,03,1",,,"06,99,1,05,1,06,1,00800,1,07,1,00,1",,,,,"99999,9,10128,1","0,1,012,1,+999,9","01,1",,,"SYN110AAXX  23121 08544 11560 60000 10134 20120 30128 40149 50012 69931 70182 85670 333 85630 83358 555 50014 60007;",
"08544099999","2010-01-23T15:00:00","4","40.9166666","-8.6333333","22.0","OVAR MACEDA, PO","FM-12","99999","V020","999,9,C,0000,1","09000,1,C,N","010000,1,N,1","+0158,1","+0117,1","10142,1",,,,"02,1,+00600,1,08,1",,,,"05,99,1,02,1,02,1,00450,1,07,1,04,1",,,,,"99999,9,10121,1","5,1,007,1,+999,9",,,,"SYN082AAXX  23151 08544 42460 50000 10158 20117 30121 40142 55007 82274 333 82820 84358;",
"08544099999","2010-01-23T18:00:00","4","40.9166666","-8.6333333","22.0","OVAR MACEDA, PO","FM-12","99999","V020","360,1,N,0030,1","02400,1,9,N","010000,1,N,1","+0130,1","+0126,1","10161,1","12,0003,9,1","2,1,06,1","2,1,06,1","03,1,+00600,1,08,1","07,1,+02400,1,03,1",,,"07,99,1,03,1,02,1,00450,1,07,1,01,1",,,,"120,M,+0160,1","99999,9,10140,1","2,1,020,1,+999,9","10,1",,,"SYN110AAXX  23181 08544 11460 73603 10130 20126 30140 40161 52020 69932 71022 83271 333 10160 83820 87358 555 60007;",
"08544099999","2010-01-24T06:00:00","4","40.9166666","-8.6333333","22.0","OVAR MACEDA, PO","FM-12","99999","V020","350,1,N,0030,1","02400,1,9,N","010000,1,N,1","+0106,1","+0091,1","10208,1","12,0020,9,1",,,"02,1,+00600,1,08,1","05,1,+02400,1,03,1",,,"05,99,1,02,1,02,1,00800,1,07,1,99,9","0072,9",,,"999,N,+0100,1","99999,9,10188,1","2,1,011,1,+999,9","00,1",,,"SYN122AAXX  24061 08544 11560 53503 10106 20091 30188 40208 52011 60022 700// 8227/ 333 20100 50064 55012 82820 85358 555 60022;",
"08544099999","2010-01-24T09:00:00","4","40.9166666","-8.6333333","22.0","OVAR MACEDA, PO","FM-12","99999","V020","360,1,N,0020,1","22000,1,9,N","010000,1,N,1","+0092,1","+0080,1","10227,1",,,,"01,1,+00540,1,08,1",,,,"02,99,1,01,1,02,1,00450,1,04,1,00,1",,,,,"99999,9,10206,1","2,1,018,1,+999,9",,,,"SYN076AAXX  24091 08544 42460 23602 10092 20080 30206 40227 52018 81240 333 81818;",
"08544099999","2010-01-24T12:00:00","4","40.9166666","-8.6333333","22.0","OVAR MACEDA, PO","FM-12","99999","V020","010,1,N,0050,1","22000,1,9,N","010000,1,N,1","+0136,1","+0100,1","10240,1",,,,"01,1,+00540,1,08,1",,,,"02,99,1,01,1,02,1,00450,1,03,1,00,1",,,,,"99999,9,10219,1","0,1,013,1,+999,9",,,,"SYN092AAXX  24121 08544 32460 20105 10136 20100 30219 40240 50013 81230 333 81818 555 50024 60007;",
"08544099999","2010-01-24T15:00:00","4","40.9166666","-8.6333333","22.0","OVAR MACEDA, PO","FM-12","99999","V020","330,1,N,0050,1","22000,1,C,N","010000,1,N,1","+0146,1","+0092,1","10230,1",,,,"02,1,+00600,1,08,1",,,,"05,99,1,02,1,02,1,00800,1,00,1,04,1",,,,,"99999,9,10210,1","5,1,009,1,+999,9",,,,"SYN082AAXX  24151 08544 42560 53305 10146 20092 30210 40230 55009 82204 333 82820 85070;",
"08544099999","2010-01-24T18:00:00","4","40.9166666","-8.6333333","22.0","OVAR MACEDA, PO","FM-12","99999","V020","020,1,N,0020,1","22000,1,9,N","010000,1,N,1","+0120,1","+0090,1","10237,1",,,,"01,1,+00600,1,08,1","04,1,+06000,1,00,1",,,"04,99,1,01,1,02,1,00800,1,00,1,01,1",,,,"120,M,+0150,1","99999,9,10216,1","3,1,006,1,+999,9",,,,"SYN098AAXX  24181 08544 32560 40202 10120 20090 30216 40237 53006 81201 333 10150 81820 84070 555 60007;",
"08544099999","2010-01-25T06:00:00","4","40.9166666","-8.6333333","22.0","OVAR MACEDA, PO","FM-12","99999","V020","999,9,C,0000,1","22000,1,9,N","010000,1,N,1","+0036,1","+0032,1","10245,1",,,,"02,1,+06000,1,00,1",,,,"02,99,1,00,1,00,1,99999,9,00,1,04,1","0522,9",,,"999,N,+0024,1","99999,9,10224,1","4,1,000,1,+999,9","00,1",,,"SYN110AAXX  25061 08544 31960 20000 10036 20032 30224 40245 54000 700// 80004 333 20024 50184 55087 82070 555 60007;",
"08544099999","2010-01-25T09:00:00","4","40.9166666","-8.6333333","22.0","OVAR MACEDA, PO","FM-12","99999","V020","999,9,C,0000,1","22000,1,9,N","010000,1,N,1","+0048,1","+0044,1","10259,1",,,,"02,1,+02400,1,03,1",,,,"02,99,1,02,1,00,1,02250,1,03,1,00,1",,,,,"99999,9,10238,1","2,1,014,1,+999,9",,,,"SYN076AAXX  25091 08544 42860 20000 10048 20044 30238 40259 52014 82030 333 82358;",
"08544099999","2010-01-25T12:00:00","4","40.9166666","-8.6333333","22.0","OVAR MACEDA, PO","FM-12","99999","V020","030,1,N,0030,1","02100,1,9,N","010000,1,N,1","+0088,1","+0037,1","10265,1",,,,"01,1,+01200,1,06,1","06,1,+02100,1,03,1",,,"06,99,1,01,1,05,1,01250,1,07,1,00,1",,,,,"99999,9,10244,1","1,1,006,1,+999,9",,,,"SYN098AAXX  25121 08544 32660 60303 10088 20037 30244 40265 51006 81570 333 81640 86357 555 50004 60007;",
"08544099999","2010-01-25T15:00:00","4","40.9166666","-8.6333333","22.0","OVAR MACEDA, PO","FM-12","99999","V020","040,1,N,0050,1","22000,1,9,N","010000,1,N,1","+0120,1","+0011,1","10233,1",,,,"01,1,+01500,1,03,1",,,,"01,99,1,01,1,00,1,99999,9,03,1,00,1",,,,,"99999,9,10212,1","7,1,032,1,+999,9",,,,"SYN076AAXX  25150 08544 42960 10405 10120 20011 30212 40233 57032 81030 333 81350;",
"08544099999","2010-01-25T18:00:00","4","40.9166666","-8.6333333","22.0","OVAR MACEDA, PO","FM-12","99999","V020","360,1,N,0030,1","22000,1,9,N","010000,1,N,1","+0102,1","+0019,1","10226,1",,,,"00,1,+99999,9,99,9",,,,"00,99,1,00,1,00,1,99999,9,00,1,00,1",,,,"120,M,+0128,1","99999,9,10205,1","7,1,007,1,+999,9",,,,"SYN080AAXX  25181 08544 32960 03603 10102 20019 30205 40226 57007 333 10128 555 60007;",
"08544099999","2010-01-26T06:00:00","4","40.9166666","-8.6333333","22.0","OVAR MACEDA, PO","FM-12","99999","V020","360,1,N,0060,1","22000,1,9,N","010000,1,N,1","+0058,1","+0001,1","10201,1",,,,"00,1,+99999,9,99,9",,,,"00,99,1,00,1,00,1,99999,9,00,1,00,1","0312,9",,,"999,N,+0026,1","99999,9,10180,1","7,1,006,1,+999,9","00,1",,,"SYN098AAXX  26061 08544 31960 03606 10058 20001 30180 40201 57006 700// 333 20026 50234 55052 555 60002;",
"08544099999","2010-01-26T09:00:00","4","40.9166666","-8.6333333","22.0","OVAR MACEDA, PO","FM-12","99999","V020","030,1,N,0030,1","03600,1,9,N","010000,1,N,1","+0068,1","-0003,1","10218,1",,,,"01,1,+00450,1,08,1",,,,"06,99,1,03,1,08,1,00450,1,03,1,04,1",,,,,"99999,9,10197,1","0,1,017,1,+999,9",,,,"SYN082AAXX  26091 08544 42460 60303 10068 21003 30197 40218 50017 83834 333 81815 83635;",
"08544099999","2010-01-26T12:00:00","4","40.9166666","-8.6333333","22.0","OVAR MACEDA, PO","FM-12","99999","V020","030,1,N,0080,1","22000,1,9,N","010000,1,N,1","+0114,1","+0008,1","10223,1",,,,"01,1,+00540,1,08,1",,,,"02,99,1,01,1,02,1,00450,1,00,1,01,1",,,,,"99999,9,10202,1","2,1,005,1,+999,9",,,,"SYN092AAXX  26121 08544 32460 20308 10114 20008 30202 40223 52005 81201 333 81818 555 50004 60007;",
"08544099999","2010-01-26T15:00:00","4","40.9166666","-8.6333333","22.0","OVAR MACEDA, PO","FM-12","99999","V020","030,1,N,0050,1","22000,1,9,N","010000,1,N,1","+0138,1","+0014,1","10215,1",,,,"01,1,+06000,1,00,1",,,,"01,99,1,00,1,00,1,99999,9,00,1,01,1",,,,,"99999,9,10195,1","7,1,007,1,+999,9",,,,"SYN076AAXX  26151 08544 42960 10305 10138 20014 30195 40215 57007 80001 333 81070;",
"08544099999","2010-01-26T18:00:00","4","40.9166666","-8.6333333","22.0","OVAR MACEDA, PO","FM-12","99999","V020","050,1,N,0050,1","22000,1,9,N","010000,1,N,1","+0126,1","-0017,1","10226,1",,,,"01,1,+06000,1,00,1",,,,"01,99,1,00,1,00,1,99999,9,00,1,01,1",,,,"120,M,+0144,1","99999,9,10206,1","3,1,011,1,+999,9",,,,"SYN092AAXX  26181 08544 32960 10505 10126 21017 30206 40226 53011 80001 333 10144 81070 555 60007;",
"08544099999","2010-01-27T06:00:00","4","40.9166666","-8.6333333","22.0","OVAR MACEDA, PO","FM-12","99999","V020","010,1,N,0020,1","22000,1,9,N","010000,1,N,1","+0036,1","-0009,1","10211,1",,,,"00,1,+99999,9,99,9",,,,"00,99,1,00,1,00,1,99999,9,00,1,00,1","0498,9",,,"999,N,+0030,1","99999,9,10190,1","7,1,008,1,+999,9","00,1",,,"SYN098AAXX  27061 08544 31960 00102 10036 21009 30190 40211 57008 700// 333 20030 50624 55083 555 60002;",
"08544099999","2010-01-27T09:00:00","4","40.9166666","-8.6333333","22.0","OVAR MACEDA, PO","FM-12","99999","V020","030,1,N,0050,1","22000,1,9,N","010000,1,N,1","+0066,1","-0011,1","10214,1",,,,"00,1,+99999,9,99,9",,,,"00,99,1,00,1,00,1,99999,9,00,1,00,1",,,,,"99999,9,10193,1","0,1,003,1,+999,9",,,,"SYN060AAXX  27091 08544 42960 00305 10066 21011 30193 40214 50003;",
"08544099999","2010-01-27T12:00:00","4","40.9166666","-8.6333333","22.0","OVAR MACEDA, PO","FM-12","99999","V020","050,1,N,0080,1","22000,1,9,N","010000,1,N,1","+0094,1","-0009,1","10229,1",,,,"01,1,+00540,1,08,1",,,,"01,99,1,01,1,01,1,00450,1,00,1,00,1",,,,,"99999,9,10208,1","0,1,015,1,+999,9",,,,"SYN092AAXX  27121 08544 32460 10508 10094 21009 30208 40229 50015 81100 333 81818 555 50004 60007;",
"08544099999","2010-01-27T15:00:00","4","40.9166666","-8.6333333","22.0","OVAR MACEDA, PO","FM-12","99999","V020","060,1,N,0030,1","22000,1,9,N","010000,1,N,1","+0126,1","+0020,1","10200,1",,,,"02,1,+00450,1,08,1",,,,"02,99,1,02,1,02,1,00450,1,00,1,00,1",,,,,"99999,9,10179,1","7,1,029,1,+999,9",,,,"SYN076AAXX  27151 08544 42460 20603 10126 20020 30179 40200 57029 82200 333 82815;",
"08544099999","2010-01-27T18:00:00","4","40.9166666","-8.6333333","22.0","OVAR MACEDA, PO","FM-12","99999","V020","999,9,C,0000,1","22000,1,9,N","010000,1,N,1","+0090,1","+0049,1","10199,1",,,,"02,1,+00450,1,08,1",,,,"02,99,1,02,1,02,1,00450,1,00,1,00,1",,,,"120,M,+0130,1","99999,9,10179,1","5,1,000,1,+999,9",,,,"SYN092AAXX  27181 08544 32460 20000 10090 20049 30179 40199 55000 82200 333 10130 82815 555 60007;",
"08544099999","2010-01-28T06:00:00","4","40.9166666","-8.6333333","22.0","OVAR MACEDA, PO","FM-12","99999","V020","999,9,C,0000,1","22000,1,9,N","010000,1,N,1","+0008,1","-0013,1","10235,1",,,,"01,1,+00600,1,06,1",,,,"01,99,1,01,1,05,1,00800,1,00,1,00,1","0510,9",,,"999,N,+0005,1","99999,9,10213,1","4,1,000,1,+999,9","00,1",,,"SYN110AAXX  28061 08544 31560 10000 10008 21013 30213 40235 54000 700// 81500 333 20005 50464 55085 81620 555 60002;",
"08544099999","2010-01-28T09:00:00","4","40.9166666","-8.6333333","22.0","OVAR MACEDA, PO","FM-12","99999","V020","999,9,C,0000,1","22000,1,9,N","010000,1,N,1","+0000,1","-0016,1","10241,1",,,,"01,1,+06000,1,00,1",,,,"01,99,1,00,1,00,1,99999,9,00,1,01,1",,,,,"99999,9,10219,1","3,1,006,1,+999,9",,,,"SYN076AAXX  28091 08544 42960 10000 10000 21016 30219 40241 53006 80001 333 81070;",
"08544099999","2010-01-28T12:00:00","4","40.9166666","-8.6333333","22.0","OVAR MACEDA, PO","FM-12","99999","V020","999,9,C,0000,1","22000,1,9,N","010000,1,N,1","+0114,2","+0035,1","10235,1",,,,"01,1,+06000,1,00,1",,,,"01,99,1,00,1,00,1,99999,9,00,1,01,1",,,,,"99999,9,10214,1","8,1,005,1,+999,9",,,,"SYN092AAXX  28121 08544 32960 10000 10114 20035 30214 40235 58005 80001 333 81070 555 50004 60007;",
"08544099999","2010-01-28T15:00:00","4","40.9166666","-8.6333333","22.0","OVAR MACEDA, PO","FM-12","99999","V020","999,9,C,0000,1","22000,1,9,N","010000,1,N,1","+0110,1","+0017,1","10205,1",,,,"01,1,+06000,1,00,1",,,,"01,99,1,00,1,00,1,99999,9,00,1,01,1",,,,,"99999,9,10185,1","7,1,029,1,+999,9",,,,"SYN076AAXX  28151 08544 42960 10000 10110 20017 30185 40205 57029 80001 333 81070;",
"08544099999","2010-01-28T18:00:00","4","40.9166666","-8.6333333","22.0","OVAR MACEDA, PO","FM-12","99999","V020","999,9,C,0000,1","22000,1,9,N","010000,1,N,1","+0092,1","+0047,1","10198,1",,,,"01,1,+06000,1,00,1",,,,"01,99,1,00,1,00,1,99999,9,00,1,01,1",,,,"120,M,+0125,1","99999,9,10177,1","6,1,008,1,+999,9",,,,"SYN092AAXX  28181 08544 32960 10000 10092 20047 30177 40198 56008 80001 333 10125 81070 555 60007;",
"08544099999","2010-01-28T21:00:00","4","40.9166666","-8.6333333","22.0","OVAR MACEDA, PO","FM-12","99999","V020","999,9,C,0000,1","22000,1,9,N","010000,1,N,1","+0034,1","+0015,1","10196,1",,,,"01,1,+06000,1,00,1",,,,"01,99,1,00,1,00,1,99999,9,00,1,01,1",,,,,"99999,9,10175,1","8,1,002,1,+999,9",,,,"SYN076AAXX  28211 08544 42960 10000 10034 20015 30175 40196 58002 80001 333 81070;",
"08544099999","2010-01-29T06:00:00","4","40.9166666","-8.6333333","22.0","OVAR MACEDA, PO","FM-12","99999","V020","999,9,C,0000,1","22000,1,9,N","005000,1,N,1","+0016,1","+0016,1","10160,1",,,,"03,1,+01200,1,06,1",,,,"03,99,1,03,1,05,1,01250,1,00,1,00,1","0558,9",,,"999,N,+0004,1","99999,9,10139,1","7,1,032,1,+999,9","10,1",,,"SYN110AAXX  29061 08544 31650 30000 10016 20016 30139 40160 57032 710// 83500 333 20004 50164 55093 83640 555 60002;",
"08544099999","2010-01-29T09:00:00","4","40.9166666","-8.6333333","22.0","OVAR MACEDA, PO","FM-12","99999","V020","999,9,C,0000,1","01200,1,C,N","008000,1,N,1","+0054,1","+0041,1","10157,1",,"2,1,03,1","2,1,03,1","03,1,+00600,1,08,1",,,,"07,99,1,07,1,08,1,00800,1,00,1,00,1",,,,,"99999,9,10136,1","8,1,003,1,+999,9","10,1",,,"SYN088AAXX  29091 08544 41558 70000 10054 20041 30136 40157 58003 71022 87800 333 83820 87635;",
"08544099999","2010-01-29T12:00:00","4","40.9166666","-8.6333333","22.0","OVAR MACEDA, PO","FM-12","99999","V020","360,1,N,0010,1","01200,1,9,N","006000,1,N,1","+0108,1","+0086,1","10153,1","06,0000,9,1","8,1,06,1","2,1,06,1","02,1,+00540,1,08,1","06,1,+01200,1,06,1",,,"07,99,1,06,1,08,1,00450,1,03,1,00,1",,,,,"99999,9,10132,1","8,1,004,1,+999,9","10,1",,,"SYN110AAXX  29121 08544 11456 73601 10108 20086 30132 40153 58004 69911 71082 86830 333 82818 86640 555 59914 69917;","Q01  00002PRCP06"
"08544099999","2010-01-29T15:00:00","4","40.9166666","-8.6333333","22.0","OVAR MACEDA, PO","FM-12","99999","V020","340,1,N,0060,1","00900,1,C,N","008000,1,N,1","+0118,1","+0092,1","10128,1",,"8,1,03,1","2,1,03,1","04,1,+00540,1,08,1",,,,"07,99,1,07,1,08,1,00450,1,00,1,00,1",,,,,"99999,9,10108,1","7,1,024,1,+999,9","25,1",,,"SYN088AAXX  29151 08544 41458 73406 10118 20092 30108 40128 57024 72582 87800 333 84818 85635;",
"08544099999","2010-01-29T18:00:00","4","40.9166666","-8.6333333","22.0","OVAR MACEDA, PO","FM-12","99999","V020","360,1,N,0030,1","00540,1,9,N","010000,1,N,1","+0108,1","+0085,1","10122,1","12,0008,9,1","8,1,06,1","2,1,06,1","05,1,+00540,1,08,1",,,,"07,99,1,05,1,08,1,00450,1,00,1,00,1",,,,"120,M,+0134,1","99999,9,10102,1","7,1,006,1,+999,9","02,1",,,"SYN104AAXX  29181 08544 11460 73603 10108 20085 30102 40122 57006 69972 70282 85800 333 10134 85818 555 69967;",
"08544099999","2010-01-30T06:00:00","4","40.9166666","-8.6333333","22.0","OVAR MACEDA, PO","FM-12","99999","V020","999,9,C,0000,1","01050,1,9,N","007000,1,N,1","+0052,1","+0048,1","10136,1",,,,"02,1,+00480,1,08,1","07,1,+01050,1,06,1",,,"07,99,1,07,1,08,1,00450,1,00,1,00,1","0084,9",,,"999,N,+0052,1","99999,9,10115,1","8,1,001,1,+999,9","10,1",,,"SYN116AAXX  30061 08544 31457 70000 10052 20048 30115 40136 58001 710// 87800 333 20052 50124 55014 82816 87635 555 60002;",
"08544099999","2010-01-30T09:00:00","4","40.9166666","-8.6333333","22.0","OVAR MACEDA, PO","FM-12","99999","V020","999,9,C,0000,1","00900,1,9,N","006000,1,N,1","+0054,1","+0050,1","10144,1",,"2,1,03,1","2,1,03,1","03,1,+00540,1,08,1",,,,"07,99,1,07,1,08,1,00450,1,00,1,00,1",,,,,"99999,9,10123,1","3,1,008,1,+999,9","10,1",,,"SYN088AAXX  30091 08544 41456 70000 10054 20050 30123 40144 53008 71022 87800 333 83818 86630;",
"08544099999","2010-01-30T12:00:00","4","40.9166666","-8.6333333","22.0","OVAR MACEDA, PO","FM-12","99999","V020","999,9,C,0000,1","01200,1,9,N","010000,1,N,1","+0114,1","+0076,1","10144,1",,,,"03,1,+00540,1,08,1","07,1,+01200,1,06,1",,,"07,99,1,07,1,08,1,00450,1,00,1,00,1",,,,,"99999,9,10124,1","0,1,001,1,+999,9",,,,"SYN098AAXX  30121 08544 32460 70000 10114 20076 30124 40144 50001 87800 333 83818 87640 555 59964 60007;",
"08544099999","2010-01-30T15:00:00","4","40.9166666","-8.6333333","22.0","OVAR MACEDA, PO","FM-12","99999","V020","040,1,N,0020,1","00900,1,9,N","010000,1,N,1","+0116,1","+0078,1","10130,1",,,,"04,1,+00480,1,08,1",,,,"07,99,1,07,1,08,1,00450,1,00,1,00,1",,,,,"99999,9,10109,1","7,1,015,1,+999,9",,,,"SYN082AAXX  30151 08544 42460 70402 10116 20078 30109 40130 57015 87800 333 84816 86630;",
"08544099999","2010-01-30T18:00:00","4","40.9166666","-8.6333333","22.0","OVAR MACEDA, PO","FM-12","99999","V020","999,9,C,0000,1","00900,1,9,N","010000,1,N,1","+0108,1","+0089,1","10129,1","12,0000,9,1","8,1,06,1","2,1,06,1","03,1,+00480,1,08,1","06,1,+00900,1,06,1",,,"06,99,1,06,1,08,1,00450,1,00,1,00,1",,,,"120,M,+0122,1","99999,9,10108,1","6,1,001,1,+999,9","02,1",,,"SYN110AAXX  30181 08544 11460 60000 10108 20089 30108 40129 56001 69912 70282 86800 333 10122 83816 86630 555 69917;","Q01  00002PRCP12"
"08544099999","2010-01-31T06:00:00","4","40.9166666","-8.6333333","22.0","OVAR MACEDA, PO","FM-12","99999","V020","020,1,N,0010,1","00450,1,9,N","004000,1,N,1","+0082,1","+0078,1","10113,1","12,0020,9,1",,,"05,1,+00450,1,08,1","04,1,+00900,1,06,1",,,"07,99,1,07,1,08,1,00450,1,00,1,00,1","0096,9",,,"999,N,+0072,1","99999,9,10092,1","7,1,005,1,+999,9","10,1",,,"SYN122AAXX  31061 08544 11440 70201 10082 20078 30092 40113 57005 60022 710// 87800 333 20072 50194 55016 85815 84630 555 60022;",
"08544099999","2010-01-31T09:00:00","4","40.9166666","-8.6333333","22.0","OVAR MACEDA, PO","FM-12","99999","V020","999,9,C,0000,1","00900,1,9,N","004000,1,N,1","+0084,1","+0080,1","10123,1",,"8,1,03,1","2,1,03,1","03,1,+00450,1,08,1","06,1,+00900,1,06,1",,,"07,99,1,07,1,08,1,00450,1,00,1,00,1",,,,,"99999,9,10102,1","3,1,010,1,+999,9","25,1",,,"SYN094AAXX  31091 08544 41440 70000 10084 20080 30102 40123 53010 72582 87800 333 83815 86630 96010;",
"08544099999","2010-01-31T12:00:00","4","40.9166666","-8.6333333","22.0","OVAR MACEDA, PO","FM-12","99999","V020","999,9,C,0000,1","00750,1,9,N","007000,1,N,1","+0114,1","+0088,1","10135,1","06,0010,9,1","8,1,06,1","2,1,06,1","03,1,+00450,1,08,1","06,1,+00750,1,06,1",,,"07,99,1,07,1,08,1,00450,1,00,1,00,1",,,,,"99999,9,10115,1","2,1,013,1,+999,9","10,1",,,"SYN110AAXX  31121 08544 11457 70000 10114 20088 30115 40135 52013 60011 71082 87800 333 83815 86625 555 50034 60007;",
"08544099999","2010-01-31T15:00:00","4","40.9166666","-8.6333333","22.0","OVAR MACEDA, PO","FM-12","99999","V020","300,1,N,0020,1","00900,1,9,N","010000,1,N,1","+0130,1","+0094,1","10125,1",,,,"03,1,+00450,1,08,1",,,,"05,99,1,05,1,08,1,00450,1,00,1,00,1",,,,,"99999,9,10104,1","7,1,011,1,+999,9",,,,"SYN082AAXX  31151 08544 42460 53002 10130 20094 30104 40125 57011 85800 333 83815 83630;",
"08544099999","2010-01-31T18:00:00","4","40.9166666","-8.6333333","22.0","OVAR MACEDA, PO","FM-12","99999","V020","340,1,N,0020,1","00900,1,9,N","010000,1,N,1","+0118,1","+0104,1","10133,1","12,0010,9,1","8,1,06,1","2,1,06,1","03,1,+00450,1,08,1","03,1,+00900,1,06,1",,,"05,99,1,05,1,08,1,00450,1,00,1,00,1",,,,"120,M,+0132,1","99999,9,10112,1","2,1,008,1,+999,9","25,1",,,"SYN110AAXX  31181 08544 11460 53402 10118 20104 30112 40133 52008 60012 72582 85800 333 10132 83815 83630 555 69907;",
"08544099999","2010-02-01T06:00:00","4","40.9166666","-8.6333333","22.0","OVAR MACEDA, PO","FM-12","99999","V020","999,9,C,0000,1","22000,1,9,N","006000,1,N,1","+0012,1","+0007,1","10179,1",,,,"00,1,+99999,9,99,9",,,,"00,99,1,00,1,00,1,99999,9,00,1,00,1","0168,9",,,"999,N,+0010,1","99999,9,10157,1","2,1,010,1,+999,9","10,1",,,"SYN098AAXX  01061 08544 31956 00000 10012 20007 30157 40179 52010 710// 333 20010 50084 55028 555 60002;",
"08544099999","2010-02-01T09:00:00","4","40.9166666","-8.6333333","22.0","OVAR MACEDA, PO","FM-12","99999","V020","999,9,C,0000,1","22000,1,9,N","010000,1,N,1","+0044,1","+0026,1","10201,1",,,,"00,1,+99999,9,99,9",,,,"00,99,1,00,1,00,1,99999,9,00,1,00,1",,,,,"99999,9,10180,1","2,1,023,1,+999,9",,,,"SYN060AAXX  01091 08544 42960 00000 10044 20026 30180 40201 52023;",
"08544099999","2010-02-01T12:00:00","4","40.9166666","-8.6333333","22.0","OVAR MACEDA, PO","FM-12","99999","V020","999,9,V,0010,1","22000,1,9,N","010000,1,N,1","+0126,1","+0050,1","10213,1",,,,"00,1,+99999,9,99,9",,,,"00,99,1,00,1,00,1,99999,9,00,1,00,1",,,,,"99999,9,10193,1","2,1,013,1,+999,9",,,,"SYN076AAXX  01121 08544 32960 09901 10126 20050 30193 40213 52013 555 59904 60007;",
"08544099999","2010-02-01T15:00:00","4","40.9166666","-8.6333333","22.0","OVAR MACEDA, PO","FM-12","99999","V020","320,1,N,0030,1","22000,1,9,N","010000,1,N,1","+0126,1","+0030,1","10203,1",,,,"00,1,+99999,9,99,9",,,,"00,99,1,00,1,00,1,99999,9,00,1,00,1",,,,,"99999,9,10182,1","5,1,011,1,+999,9",,,,"SYN060AAXX  01151 08544 42960 03203 10126 20030 30182 40203 55011;",
"08544099999","2010-02-01T18:00:00","4","40.9166666","-8.6333333","22.0","OVAR MACEDA, PO","FM-12","99999","V020","999,9,C,0000,1","22000,1,9,N","010000,1,N,1","+0108,1","+0060,1","10215,1",,,,"02,1,+09000,1,00,1",,,,"02,99,1,00,1,00,1,99999,9,00,1,01,1",,,,"120,M,+0134,1","99999,9,10194,1","2,1,012,1,+999,9",,,,"SYN092AAXX  01181 08544 32960 20000 10108 20060 30194 40215 52012 80001 333 10134 82080 555 60007;",
"08544099999","2010-02-02T06:00:00","4","40.9166666","-8.6333333","22.0","OVAR MACEDA, PO","FM-12","99999","V020","999,9,C,0000,1","22000,1,9,N","010000,1,N,1","+0014,1","+0009,1","10220,1",,,,"01,1,+07500,1,00,1",,,,"01,99,1,00,1,00,1,99999,9,00,1,01,1","0552,9",,,"999,N,+0006,1","99999,9,10198,1","8,1,003,1,+999,9","00,1",,,"SYN110AAXX  02061 08544 31960 10000 10014 20009 30198 40220 58003 700// 80001 333 20006 50174 55092 81075 555 60002;",
"08544099999","2010-02-02T09:00:00","4","40.9166666","-8.6333333","22.0","OVAR MACEDA, PO","FM-12","99999","V020","999,9,C,0000,1","22000,1,9,N","010000,1,N,1","+0022,1","+0008,1","10222,1",,,,"01,1,+07500,1,00,1",,,,"01,99,1,00,1,00,1,99999,9,00,1,01,1",,,,,"99999,9,10201,1","3,1,003,1,+999,9",,,,"SYN076AAXX  02091 08544 42960 10000 10022 20008 30201 40222 53003 80001 333 81075;",
"08544099999","2010-02-02T12:00:00","4","40.9166666","-8.6333333","22.0","OVAR MACEDA, PO","FM-12","99999","V020","999,9,V,0010,1","22000,1,9,N","010000,1,N,1","+0138,1","+0051,1","10223,1",,,,"00,1,+99999,9,99,9",,,,"00,99,1,00,1,00,1,99999,9,00,1,00,1",,,,,"99999,9,10202,1","0,1,001,1,+999,9",,,,"SYN076AAXX  02121 08544 32960 09901 10138 20051 30202 40223 50001 555 50004 60007;",
"08544099999","2010-02-02T15:00:00","4","40.9166666","-8.6333333","22.0","OVAR MACEDA, PO","FM-12","99999","V020","330,1,N,0030,1","22000,1,9,N","010000,1,N,1","+0144,1","+0059,1","10198,1",,,,"01,1,+06000,1,00,1",,,,"01,99,1,00,1,00,1,99999,9,00,1,01,1",,,,,"99999,9,10177,1","7,1,025,1,+999,9",,,,"SYN076AAXX  02151 08544 42960 13303 10144 20059 30177 40198 57025 80001 333 81070;",
"08544099999","2010-02-02T18:00:00","4","40.9166666","-8.6333333","22.0","OVAR MACEDA, PO","FM-12","99999","V020","999,9,C,0000,1","22000,1,9,N","010000,1,N,1","+0122,1","+0080,1","10192,1",,,,"01,1,+06000,1,00,1",,,,"01,99,1,00,1,00,1,99999,9,00,1,01,1",,,,"120,M,+0152,1","99999,9,10171,1","8,1,006,1,+999,9",,,,"SYN092AAXX  02181 08544 32960 10000 10122 20080 30171 40192 58006 80001 333 10152 81070 555 60007;",
"08544099999","2010-02-03T06:00:00","4","40.9166666","-8.6333333","22.0","OVAR MACEDA, PO","FM-12","99999","V020","999,9,C,0000,1","22000,1,9,N","010000,1,N,1","+0022,1","+0008,1","10174,1",,,,"03,1,+01050,1,06,1",,,,"05,99,1,03,1,05,1,00800,1,00,1,01,1","0552,9",,,"999,N,+0014,1","99999,9,10153,1","7,1,021,1,+999,9","00,1",,,"SYN110AAXX  03061 08544 31560 50000 10022 20008 30153 40174 57021 700// 83501 333 20014 50164 55092 83635 555 60002;",
"08544099999","2010-02-03T09:00:00","4","40.9166666","-8.6333333","22.0","OVAR MACEDA, PO","FM-12","99999","V020","999,9,C,0000,1","03600,1,C,N","010000,1,N,1","+0012,1","-0006,1","10173,1",,,,"04,1,+01050,1,06,1",,,,"06,99,1,04,1,05,1,00800,1,03,1,04,1",,,,,"99999,9,10152,1","5,1,001,1,+999,9",,,,"SYN082AAXX  03091 08544 42560 60000 10012 21006 30152 40173 55001 84534 333 84635 84070;",
"08544099999","2010-02-03T12:00:00","4","40.9166666","-8.6333333","22.0","OVAR MACEDA, PO","FM-12","99999","V020","999,9,V,0010,1","02100,1,9,N","010000,1,N,1","+0152,1","+0080,1","10158,1",,,,"02,1,+01200,1,06,1","04,1,+02100,1,03,1",,,"05,99,1,02,1,05,1,01250,1,03,1,01,1",,,,,"99999,9,10138,1","7,1,024,1,+999,9",,,,"SYN098AAXX  03121 08544 32660 59901 10152 20080 30138 40158 57024 82531 333 82640 84357 555 50004 60007;",
"08544099999","2010-02-03T15:00:00","4","40.9166666","-8.6333333","22.0","OVAR MACEDA, PO","FM-12","99999","V020","999,9,C,0000,1","02100,1,9,N","010000,1,N,1","+0156,1","+0083,1","10130,1",,,,"06,1,+02100,1,03,1",,,,"07,99,1,06,1,00,1,02250,1,03,1,01,1",,,,,"99999,9,10109,1","7,1,029,1,+999,9",,,,"SYN082AAXX  03151 08544 42860 70000 10156 20083 30109 40130 57029 86031 333 86357 83070;",
"08544099999","2010-02-03T18:00:00","4","40.9166666","-8.6333333","22.0","OVAR MACEDA, PO","FM-12","99999","V020","999,9,C,0000,1","03600,1,C,N","008000,1,N,1","+0134,1","+0074,1","10122,1",,"2,1,06,1","2,1,06,1","01,1,+01050,1,06,1",,,,"07,99,1,01,1,05,1,00800,1,03,1,01,1",,,,"120,M,+0176,1","99999,9,10101,1","7,1,008,1,+999,9","10,1",,,"SYN094AAXX  03181 08544 31558 70000 10134 20074 30101 40122 57008 71022 81531 333 10176 81635 86356;",
"08544099999","2010-02-04T06:00:00","4","40.9166666","-8.6333333","22.0","OVAR MACEDA, PO","FM-12","99999","V020","140,1,N,0030,1","00450,1,9,N","008000,1,N,1","+0120,1","+0102,1","10084,1","12,9999,9,9","6,1,06,1",,"02,1,+00210,1,07,1","05,1,+00450,1,08,1","08,1,+01800,1,04,1",,"08,99,1,05,1,02,1,00250,1,07,1,99,9","0246,9",,,"999,N,+0104,1","99999,9,10064,1","7,1,025,1,+999,9","60,1",,,"SYN128AAXX  04061 08544 11358 81403 10120 20102 30064 40084 57025 69902 7606/ 8527/ 333 20104 50234 55041 82707 85815 88456 555 69902;","Q01  00002PRCP12Q02  00002PRCP12"
"08544099999","2010-02-04T09:00:00","4","40.9166666","-8.6333333","22.0","OVAR MACEDA, PO","FM-12","99999","V020","180,1,N,0050,1","00660,1,9,N","008000,1,N,1","+0122,1","+0108,1","10090,1",,"6,1,03,1","2,1,03,1","04,1,+00210,1,07,1","05,1,+00660,1,08,1",,,"08,99,1,06,1,02,1,00250,1,07,1,99,9",,,,,"99999,9,10069,1","3,1,005,1,+999,9","10,1",,,"SYN094AAXX  04091 08544 41358 81805 10122 20108 30069 40090 53005 71062 8627/ 333 84707 85822 88456;",
"08544099999","2010-02-04T12:00:00","4","40.9166666","-8.6333333","22.0","OVAR MACEDA, PO","FM-12","99999","V020","170,1,N,0070,1","00450,1,9,N","004000,1,N,1","+0130,1","+0120,1","10090,1","06,0005,9,1","8,1,06,1","2,1,06,1","03,1,+00210,1,07,1","03,1,+00450,1,08,1","08,1,+00600,1,06,1",,"08,99,1,08,1,08,1,00250,1,99,9,99,9",,,,,"99999,9,10069,1","0,1,000,1,+999,9","80,1",,,"SYN122AAXX  04121 08544 11340 81707 10130 20120 30069 40090 50000 69941 78082 888// 333 83707 83815 88620 96010 555 59944 69947;",
"08544099999","2010-02-04T15:00:00","4","40.9166666","-8.6333333","22.0","OVAR MACEDA, PO","FM-12","99999","V020","190,1,N,0080,1","00240,1,9,N","005000,1,N,1","+0146,1","+0129,1","10076,1",,"6,1,03,1","2,1,03,1","03,1,+00120,1,07,1","05,1,+00240,1,07,1","07,1,+02400,1,04,1",,"08,99,1,07,1,08,1,00150,1,07,1,99,9",,,,,"99999,9,10056,1","7,1,013,1,+999,9","10,1",,,"SYN100AAXX  04151 08544 41250 81908 10146 20129 30056 40076 57013 71062 8787/ 333 83704 85708 87458 96010;",
"08544099999","2010-02-04T18:00:00","4","40.9166666","-8.6333333","22.0","OVAR MACEDA, PO","FM-12","99999","V020","240,1,N,0070,1","00240,1,9,N","004000,1,N,1","+0126,1","+0116,1","10091,1","12,0099,9,1","6,1,06,1","2,1,06,1","03,1,+00120,1,07,1","05,1,+00240,1,07,1","07,1,+00600,1,06,1",,"08,99,1,07,1,05,1,00150,1,07,1,99,9",,,,"120,M,+0146,1","99999,9,10071,1","2,1,015,1,+999,9","63,1",,,"SYN122AAXX  04181 08544 11240 82407 10126 20116 30071 40091 52015 60102 76362 8757/ 333 10146 83704 85708 87620 96010 555 60067;",
"08544099999","2010-02-05T06:00:00","4","40.9166666","-8.6333333","22.0","OVAR MACEDA, PO","FM-12","99999","V020","240,1,N,0080,1","22000,1,9,N","010000,1,N,1","+0118,1","+0084,1","10160,1","12,0020,9,1",,,"01,1,+00210,1,07,1","03,1,+00450,1,06,1",,,"04,99,1,03,1,02,1,00250,1,07,1,00,1","0000,9",,,"999,N,+0114,1","99999,9,10139,1","2,1,012,1,+999,9","00,1",,,"SYN122AAXX  05061 08544 11360 42408 10118 20084 30139 40160 52012 60022 700// 83270 333 20114 50244 55000 81707 83615 555 60022;",
"08544099999","2010-02-05T09:00:00","4","40.9166666","-8.6333333","22.0","OVAR MACEDA, PO","FM-12","99999","V020","240,1,N,0030,1","22000,1,9,N","010000,1,N,1","+0126,1","+0097,1","10183,1",,,,"02,1,+00450,1,08,1",,,,"04,99,1,03,1,08,1,00450,1,03,1,00,1",,,,,"99999,9,10162,1","2,1,023,1,+999,9",,,,"SYN082AAXX  05091 08544 42460 42403 10126 20097 30162 40183 52023 83830 333 82815 83625;",
"08544099999","2010-02-05T12:00:00","4","40.9166666","-8.6333333","22.0","OVAR MACEDA, PO","FM-12","99999","V020","240,1,N,0040,1","22000,1,9,N","010000,1,N,1","+0146,1","+0100,1","10205,1","06,0000,9,1","8,1,06,1","1,1,06,1","03,1,+00450,1,08,1",,,,"05,99,1,04,1,08,1,00450,1,00,1,04,1",,,,,"99999,9,10185,1","2,1,023,1,+999,9","01,1",,,"SYN104AAXX  05121 08544 11460 52404 10146 20100 30185 40205 52023 69911 70181 84804 333 83815 555 50124 69917;","Q01  00002PRCP06"
"08544099999","2010-02-05T15:00:00","4","40.9166666","-8.6333333","22.0","OVAR MACEDA, PO","FM-12","99999","V020","270,1,N,0040,1","22000,1,9,N","010000,1,N,1","+0146,1","+0100,1","10207,1",,,,"02,1,+00450,1,08,1",,,,"04,99,1,04,1,08,1,00450,1,00,1,00,1",,,,,"99999,9,10186,1","3,1,001,1,+999,9",,,,"SYN082AAXX  05151 08544 42460 42704 10146 20100 30186 40207 53001 84800 333 82815 84635;",
"08544099999","2010-02-05T18:00:00","4","40.9166666","-8.6333333","22.0","OVAR MACEDA, PO","FM-12","99999","V020","240,1,N,0020,1","22000,1,9,N","010000,1,N,1","+0130,1","+0101,1","10221,1","12,0000,9,1","1,1,06,1","1,1,06,1","01,1,+00450,1,08,1","03,1,+00900,1,06,1",,,"03,99,1,03,1,08,1,00450,1,00,1,00,1",,,,"120,M,+0152,1","99999,9,10200,1","2,1,014,1,+999,9","10,1",,,"SYN110AAXX  05181 08544 11460 32402 10130 20101 30200 40221 52014 69912 71011 83800 333 10152 81815 83630 555 60007;","Q01  00002PRCP12"
"08544099999","2010-02-06T06:00:00","4","40.9166666","-8.6333333","22.0","OVAR MACEDA, PO","FM-12","99999","V020","999,9,C,0000,1","00900,1,9,N","006000,1,N,1","+0106,1","+0102,1","10236,1",,,,"03,1,+00450,1,08,1","03,1,+00900,1,06,1",,,"05,99,1,05,1,08,1,00450,1,00,1,00,1","0312,9",,,"999,N,+0094,1","99999,9,10215,1",,"10,1",,,"SYN116AAXX  06061 08544 31456 50000 10106 20102 30215 40236 5//// 710// 85800 333 20094 50214 55052 83815 83630 555 60002;",
"08544099999","2010-02-06T09:00:00","4","40.9166666","-8.6333333","22.0","OVAR MACEDA, PO","FM-12","99999","V020","180,1,N,0020,1","00240,1,9,N","003000,1,N,1","+0114,1","+0107,1","10246,1",,"5,1,03,1","2,1,03,1","05,1,+00240,1,07,1","07,1,+00450,1,06,1",,,"08,99,1,08,1,02,1,00250,1,99,9,99,9",,,,,"99999,9,10225,1","2,1,010,1,+999,9","51,1",,,"SYN094AAXX  06091 08544 41330 81802 10114 20107 30225 40246 52010 75152 882// 333 85708 87615 96010;",
"08544099999","2010-02-06T12:00:00","4","40.9166666","-8.6333333","22.0","OVAR MACEDA, PO","FM-12","99999","V020","190,1,N,0050,1","00360,1,9,N","010000,1,N,1","+0142,1","+0118,1","10249,1",,"5,1,06,1","2,1,06,1","02,1,+00240,1,07,1","03,1,+00360,1,08,1","06,1,+00600,1,06,1",,"07,99,1,07,1,08,1,00250,1,00,1,00,1",,,,,"99999,9,10228,1","3,1,003,1,+999,9","02,1",,,"SYN116AAXX  06121 08544 31360 71905 10142 20118 30228 40249 53003 69001 70252 87800 333 82708 83812 86620 555 50004 69907;",
"08544099999","2010-02-06T15:00:00","4","40.9166666","-8.6333333","22.0","OVAR MACEDA, PO","FM-12","99999","V020","210,1,N,0050,1","00900,1,C,N","010000,1,N,1","+0154,1","+0127,1","10230,1",,,,"03,1,+00360,1,08,1",,,,"06,99,1,06,1,08,1,00450,1,00,1,00,1",,,,,"99999,9,10210,1","7,1,018,1,+999,9",,,,"SYN082AAXX  06151 08544 42460 62105 10154 20127 30210 40230 57018 86800 333 83812 86625;",
"08544099999","2010-02-06T18:00:00","4","40.9166666","-8.6333333","22.0","OVAR MACEDA, PO","FM-12","99999","V020","290,1,N,0020,1","06000,1,9,N","007000,1,N,1","+0132,1","+0115,1","10217,1",,"2,1,06,1","2,1,06,1","04,1,+00750,1,06,1","05,1,+06000,1,00,1",,,"06,99,1,04,1,02,1,00800,1,00,1,01,1",,,,"120,M,+0154,1","99999,9,10196,1","7,1,014,1,+999,9","10,1",,,"SYN104AAXX  06181 08544 31557 62902 10132 20115 30196 40217 57014 71022 84201 333 10154 84625 85070 555 60007;",
"08544099999","2010-02-07T06:00:00","4","40.9166666","-8.6333333","22.0","OVAR MACEDA, PO","FM-12","99999","V020","999,9,C,0000,1","00600,1,9,N","006000,1,N,1","+0078,1","+0074,1","10161,1",,,,"05,1,+00600,1,06,1","05,1,+06000,1,00,1",,,"08,99,1,05,1,02,1,00800,1,00,1,01,1","0300,9",,,"999,N,+0074,1","99999,9,10140,1","7,1,056,2,+999,9","10,1",,,"SYN116AAXX  07061 08544 31556 80000 10078 20074 30140 40161 57056 710// 85201 333 20074 50094 55050 85620 85070 555 60002;","Q01+000562APC3  "
"08544099999","2010-02-07T09:00:00","4","40.9166666","-8.6333333","22.0","OVAR MACEDA, PO","FM-12","99999","V020","999,9,C,0000,1","01800,1,C,N","007000,1,N,1","+0084,1","+0072,1","10161,1",,"2,1,03,1","2,1,03,1","04,1,+00600,1,08,1","03,1,+01800,1,03,1",,,"07,99,1,04,1,02,1,00800,1,03,1,01,1",,,,,"99999,9,10140,1","4,1,000,1,+999,9","10,1",,,"SYN094AAXX  07090 08544 41557 70000 10084 20072 30140 40161 56000 71022 84231 333 84820 83356 85070;","Q01+000062APCTEN"
"08544099999","2010-02-07T12:00:00","4","40.9166666","-8.6333333","22.0","OVAR MACEDA, PO","FM-12","99999","V020","180,1,N,0060,1","02400,1,9,N","009000,1,N,1","+0138,1","+0083,1","10129,1",,"2,1,06,1","2,1,06,1","03,1,+00750,1,08,1","04,1,+02400,1,03,1",,,"07,99,1,03,1,02,1,00800,1,07,1,04,1",,,,,"99999,9,10109,1","7,1,031,1,+999,9","10,1",,,"SYN104AAXX  07121 08544 31559 71806 10138 20083 30109 40129 57031 71022 83274 333 83825 84358 555 50004 60007;",
"08544099999","2010-02-07T15:00:00","4","40.9166666","-8.6333333","22.0","OVAR MACEDA, PO","FM-12","99999","V020","180,1,N,0060,1","03600,1,C,N","008000,1,N,1","+0142,1","+0091,1","10111,1",,"8,1,03,1","2,1,03,1","04,1,+00600,1,08,1",,,,"08,99,1,04,1,02,1,00800,1,07,1,02,1",,,,,"99999,9,10091,1","7,1,018,1,+999,9","80,1",,,"SYN088AAXX  07151 08544 41558 81806 10142 20091 30091 40111 57018 78082 84272 333 84820 85358;",
"08544099999","2010-02-07T18:00:00","4","40.9166666","-8.6333333","22.0","OVAR MACEDA, PO","FM-12","99999","V020","180,1,N,0040,1","02100,1,9,N","010000,1,N,1","+0136,1","+0096,1","10089,1","12,0000,2,1","8,1,06,1","6,1,06,1","04,1,+00600,1,08,1","07,1,+02100,1,03,1",,,"08,99,1,04,1,02,1,00800,1,07,1,99,9",,,,"120,M,+0148,1","99999,9,10069,1","7,1,022,1,+999,9","21,1",,,"SYN110AAXX  07181 08544 11560 81804 10136 20096 30069 40089 57022 69902 72186 8427/ 333 10148 84820 87357 555 69907;",
"08544099999","2010-02-08T06:00:00","4","40.9166666","-8.6333333","22.0","OVAR MACEDA, PO","FM-12","99999","V020","999,9,C,0000,1","00450,1,9,N","005000,1,N,1","+0122,1","+0111,1","10047,1","12,0089,9,1",,,"03,1,+00180,1,07,1","07,1,+00450,1,08,1",,,"08,99,1,08,1,02,1,00150,1,99,9,99,9","0030,9",,,"999,N,+0118,1","99999,9,10026,1","7,1,008,1,+999,9","10,1",,,"SYN122AAXX  08061 08544 11250 80000 10122 20111 30026 40047 57008 60092 710// 882// 333 20118 50184 55005 83706 87815 555 60092;",
"08544099999","2010-02-08T09:00:00","4","40.9166666","-8.6333333","22.0","OVAR MACEDA, PO","FM-12","99999","V020","999,9,C,0000,1","00210,1,C,N","003000,1,N,1","+0102,1","+0095,1","10054,1",,"2,1,03,1","2,1,03,1","02,1,+00240,1,07,1",,,,"07,99,1,05,1,02,1,00250,1,00,1,04,1",,,,,"99999,9,10034,1","2,1,008,1,+999,9","10,1",,,"SYN088AAXX  08091 08544 41330 70000 10102 20095 30034 40054 52008 71022 85204 333 82708 84818;",
"08544099999","2010-02-08T12:00:00","4","40.9166666","-8.6333333","22.0","OVAR MACEDA, PO","FM-12","99999","V020","270,1,N,0030,1","00660,1,9,N","010000,1,N,1","+0142,1","+0114,1","10051,1",,,,"02,1,+00540,1,08,1","04,1,+00660,1,06,1",,,"06,99,1,05,1,08,1,00450,1,03,1,01,1",,,,,"99999,9,10031,1","0,1,003,1,+999,9",,,,"SYN098AAXX  08121 08544 32460 62703 10142 20114 30031 40051 50003 85831 333 82818 84622 555 50094 60007;",
"08544099999","2010-02-08T15:00:00","4","40.9166666","-8.6333333","22.0","OVAR MACEDA, PO","FM-12","99999","V020","250,1,N,0030,1","00660,1,9,N","010000,1,N,1","+0138,1","+0117,1","10037,1",,,,"02,1,+00540,1,09,1","05,1,+00660,1,06,1","04,1,+01800,1,03,1",,"07,99,1,06,1,09,1,00450,1,03,1,01,1",,,,,"99999,9,10017,1","7,1,014,1,+999,9",,,,"SYN098AAXX  08150 08544 42460 72503 10138 20117 30017 40037 57014 86931 333 82918 85622 84356 555 60007;",
"08544099999","2010-02-08T18:00:00","4","40.9166666","-8.6333333","22.0","OVAR MACEDA, PO","FM-12","99999","V020","999,9,V,0010,1","00660,1,9,N","007000,1,N,1","+0114,1","+0100,1","10028,1",,"2,1,06,1","2,1,06,1","02,1,+00540,1,09,1","05,1,+00660,1,06,1","04,1,+01800,1,03,1",,"07,99,1,06,1,09,1,00450,1,03,1,00,1",,,,"120,M,+0146,1","99999,9,10007,1","7,1,010,1,+999,9","10,1",,,"SYN110AAXX  08181 08544 31457 79901 10114 20100 30007 40028 57010 71022 86930 333 10146 82918 85622 84356 555 60007;",
"08544099999","2010-02-09T06:00:00","4","40.9166666","-8.6333333","22.0","OVAR MACEDA, PO","FM-12","99999","V020","999,9,C,0000,1","00450,1,9,N","003000,1,N,1","+0066,1","+0062,1","10033,1","12,0003,9,1",,,"02,1,+00180,1,07,1","03,1,+00450,1,08,1",,,"05,99,1,05,1,02,1,00150,1,00,1,00,1","0306,9",,,"999,N,+0056,1","99999,9,10012,1","2,1,005,1,+999,9","10,1",,,"SYN122AAXX  09061 08544 11230 50000 10066 20062 30012 40033 52005 69932 710// 85200 333 20056 50084 55051 82706 83815 555 69932;",
"08544099999","2010-02-09T09:00:00","4","40.9166666","-8.6333333","22.0","OVAR MACEDA, PO","FM-12","99999","V020","180,1,N,0020,1","00120,1,C,N","005000,1,N,1","+0088,1","+0080,1","10075,1",,"8,1,03,1","2,1,03,1","02,1,+00180,1,07,1","01,1,+00450,1,09,1",,,"07,99,1,07,1,09,1,00150,1,00,1,00,1",,,,,"99999,9,10055,1","2,1,043,1,+999,9","10,1",,,"SYN094AAXX  09091 08544 41250 71802 10088 20080 30055 40075 52043 71082 87900 333 82706 81915 85820;",
"08544099999","2010-02-09T12:00:00","4","40.9166666","-8.6333333","22.0","OVAR MACEDA, PO","FM-12","99999","V020","999,9,C,0000,1","00600,1,9,N","008000,1,N,1","+0128,1","+0114,1","10085,1","06,0010,9,1","8,1,06,1","2,1,06,1","03,1,+00450,1,08,1","05,1,+00600,1,08,1",,,"06,99,1,06,1,08,1,00450,1,00,1,00,1",,,,,"99999,9,10064,1","2,1,009,1,+999,9","25,1",,,"SYN116AAXX  09121 08544 11458 60000 10128 20114 30064 40085 52009 69991 72582 86800 333 83815 85820 96010 555 50014 69977;",
"08544099999","2010-02-09T15:00:00","4","40.9166666","-8.6333333","22.0","OVAR MACEDA, PO","FM-12","99999","V020","330,1,N,0040,1","22000,1,9,N","010000,1,N,1","+0142,1","+0111,1","10079,1",,,,"03,1,+00450,1,08,1",,,,"03,99,1,03,1,02,1,00450,1,00,1,01,1",,,,,"99999,9,10059,1","7,1,005,1,+999,9",,,,"SYN076AAXX  09151 08544 42460 33304 10142 20111 30059 40079 57005 83201 333 83815;",
"08544099999","2010-02-09T18:00:00","4","40.9166666","-8.6333333","22.0","OVAR MACEDA, PO","FM-12","99999","V020","350,1,N,0060,1","06000,1,9,N","010000,1,N,1","+0126,1","+0081,1","10087,1","12,0010,9,1",,,"02,1,+00450,1,08,1","06,1,+06000,1,00,1",,,"06,99,1,02,1,02,1,00450,1,00,1,04,1",,,,"120,M,+0146,1","99999,9,10067,1","2,1,008,1,+999,9",,,,"SYN104AAXX  09181 08544 12460 63506 10126 20081 30067 40087 52008 69992 82204 333 10146 82815 86070 555 60007;",
"08544099999","2010-02-10T06:00:00","4","40.9166666","-8.6333333","22.0","OVAR MACEDA, PO","FM-12","99999","V020","999,9,C,0000,1","00900,1,9,N","007000,1,N,1","+0084,1","+0076,1","10084,1","12,0005,9,1","6,1,06,1",,"03,1,+00360,1,08,1","05,1,+00900,1,06,1","08,1,+02400,1,04,1",,"08,99,1,06,1,08,1,00450,1,07,1,99,9","0342,9",,,"999,N,+0066,1","99999,9,10063,1","8,1,002,1,+999,9","61,1",,,"SYN134AAXX  10061 08544 11457 80000 10084 20076 30063 40084 58002 69952 7616/ 8687/ 333 20066 50124 55057 83812 85630 88458 96010 555 69952;",
"08544099999","2010-02-10T09:00:00","4","40.9166666","-8.6333333","22.0","OVAR MACEDA, PO","FM-12","99999","V020","999,9,C,0000,1","00900,1,9,N","005000,1,N,1","+0090,1","+0082,1","10077,1",,"6,1,03,1","6,1,03,1","02,1,+00360,1,08,1","05,1,+00900,1,06,1",,,"08,99,1,05,1,08,1,00450,1,07,1,99,9",,,,,"99999,9,10056,1","7,1,007,1,+999,9","61,1",,,"SYN094AAXX  10091 08544 41450 80000 10090 20082 30056 40077 57007 76166 8587/ 333 82812 85630 88458;",
"08544099999","2010-02-10T12:00:00","4","40.9166666","-8.6333333","22.0","OVAR MACEDA, PO","FM-12","99999","V020","110,1,N,0020,1","00900,1,9,N","007000,1,N,1","+0112,1","+0082,1","10074,1","06,0061,9,1","6,1,06,1","2,1,06,1","02,1,+00360,1,08,1","05,1,+00900,1,06,1","08,1,+02400,1,04,1",,"08,99,1,05,1,08,1,00450,1,07,1,99,9",,,,,"99999,9,10053,1","0,1,003,1,+999,9","61,1",,,"SYN116AAXX  10120 08544 11457 81102 10112 20082 30053 40074 50003 60061 76162 8587/ 333 82812 85630 88458 555 50074 69977;",
"08544099999","2010-02-10T15:00:00","4","40.9166666","-8.6333333","22.0","OVAR MACEDA, PO","FM-12","99999","V020","050,1,N,0040,1","00240,1,9,N","002500,1,N,1","+0098,1","+0087,1","10056,1",,"6,1,03,1","5,1,03,1","05,1,+00240,1,07,1","05,1,+00900,1,06,1",,,"08,99,1,07,1,05,1,00250,1,07,1,99,9",,,,,"99999,9,10035,1","3,1,018,1,+999,9","58,1",,,"SYN094AAXX  10150 08544 41325 80504 10098 20087 30035 40056 53018 75865 8757/ 333 85708 85630 88458;",
"08544099999","2010-02-10T18:00:00","4","40.9166666","-8.6333333","22.0","OVAR MACEDA, PO","FM-12","99999","V020","050,1,N,0060,1","00240,1,9,N","002000,1,N,1","+0082,1","+0070,1","10060,1","12,0099,9,1","6,1,06,1","5,1,06,1","05,1,+00240,1,07,1","05,1,+00900,1,06,1","08,1,+02400,1,04,1",,"08,99,1,07,1,05,1,00250,1,07,1,99,9",,,,"120,M,+0112,1","99999,9,10040,1","3,1,005,1,+999,9","51,1",,,"SYN116AAXX  10181 08544 11320 80506 10082 20070 30040 40060 53005 60102 75165 8757/ 333 10112 85708 85630 88458 555 60027;",
"08544099999","2010-02-11T06:00:00","4","40.9166666","-8.6333333","22.0","OVAR MACEDA, PO","FM-12","99999","V020","999,9,C,0000,1","22000,1,9,N","010000,1,N,1","+0024,1","+0015,1","10109,1","12,0020,9,1",,,"03,1,+00750,1,08,1",,,,"03,99,1,03,1,02,1,00800,1,00,1,00,1","0000,9",,,"999,N,+0016,1","99999,9,10088,1","2,1,048,1,+999,9","10,1",,,"SYN116AAXX  11061 08544 11560 30000 10024 20015 30088 40109 52048 60022 710// 83200 333 20016 50034 55000 83825 555 60022;",
"08544099999","2010-02-11T09:00:00","4","40.9166666","-8.6333333","22.0","OVAR MACEDA, PO","FM-12","99999","V020","999,9,C,0000,1","03600,1,9,N","010000,1,N,1","+0038,1","+0024,1","10144,1",,,,"01,1,+00360,1,08,1",,,,"06,99,1,04,1,08,1,00450,1,03,1,02,1",,,,,"99999,9,10123,1","2,1,035,1,+999,9",,,,"SYN082AAXX  11090 08544 42460 60000 10038 20024 30123 40144 52035 84832 333 81812 83625;",
"08544099999","2010-02-11T12:00:00","4","40.9166666","-8.6333333","22.0","OVAR MACEDA, PO","FM-12","99999","V020","020,1,N,0030,1","22000,1,9,N","010000,1,N,1","+0102,1","+0030,1","10138,1",,,,"01,1,+00450,1,08,1",,,,"03,99,1,01,1,02,1,00450,1,00,1,01,1",,,,,"99999,9,10118,1","1,1,015,1,+999,9",,,,"SYN092AAXX  11121 08544 32460 30203 10102 20030 30118 40138 51015 81201 333 81815 555 50064 60007;",
"08544099999","2010-02-11T15:00:00","4","40.9166666","-8.6333333","22.0","OVAR MACEDA, PO","FM-12","99999","V020","350,1,N,0030,1","22000,1,9,N","010000,1,N,1","+0120,1","+0012,1","10124,1",,,,"01,1,+00600,1,08,1",,,,"04,99,1,01,1,02,1,00800,1,00,1,04,1",,,,,"99999,9,10103,1","7,1,015,1,+999,9",,,,"SYN082AAXX  11151 08544 42560 43503 10120 20012 30103 40124 57015 81204 333 81820 84070;",
"08544099999","2010-02-11T18:00:00","4","40.9166666","-8.6333333","22.0","OVAR MACEDA, PO","FM-12","99999","V020","360,1,N,0030,1","06000,1,9,N","010000,1,N,1","+0084,1","+0038,1","10133,1",,,,"05,1,+06000,1,00,1",,,,"05,99,1,00,1,00,1,99999,9,00,1,04,1",,,,"120,M,+0122,1","99999,9,10112,1","2,1,009,1,+999,9",,,,"SYN092AAXX  11181 08544 32960 53603 10084 20038 30112 40133 52009 80004 333 10122 85070 555 60007;",
"08544099999","2010-02-12T06:00:00","4","40.9166666","-8.6333333","22.0","OVAR MACEDA, PO","FM-12","99999","V020","050,1,N,0010,1","22000,1,9,N","010000,1,N,1","+0044,1","-0048,1","10121,1",,,,"04,1,+06000,1,00,1",,,,"04,99,1,00,1,00,1,99999,9,00,1,02,1","0510,9",,,"999,N,+0018,1","99999,9,10100,1","8,1,003,1,+999,9",,,,"SYN104AAXX  12061 08544 31960 40501 10044 21048 30100 40121 58003 80002 333 20018 50254 55085 84070 555 60002;",
"08544099999","2010-02-12T09:00:00","4","40.9166666","-8.6333333","22.0","OVAR MACEDA, PO","FM-12","99999","V020","100,1,N,0050,1","99999,9,9,N","010000,1,N,1","+0052,1","-0050,1","10126,1",,,,"01,1,+03600,1,03,1",,,,"06,99,1,01,1,00,1,99999,9,03,1,02,1",,,,,"99999,9,10105,1","3,1,005,1,+999,9",,,,"SYN082AAXX  12091 08544 42960 61005 10052 21050 30105 40126 53005 81032 333 81362 85070;",
"08544099999","2010-02-12T12:00:00","4","40.9166666","-8.6333333","22.0","OVAR MACEDA, PO","FM-12","99999","V020","090,1,N,0030,1","03600,1,C,N","010000,1,N,1","+0086,1","-0020,1","10122,1",,,,"01,1,+01050,1,06,1","03,1,+03000,1,03,1",,,"06,99,1,01,1,05,1,01250,1,03,1,02,1",,,,,"99999,9,10101,1","8,1,004,1,+999,9",,,,"SYN098AAXX  12121 08544 32660 60903 10086 21020 30101 40122 58004 81532 333 81635 83360 555 50004 60007;",
"08544099999","2010-02-12T15:00:00","4","40.9166666","-8.6333333","22.0","OVAR MACEDA, PO","FM-12","99999","V020","080,1,N,0030,1","03600,1,C,N","010000,1,N,1","+0092,1","-0011,1","10104,1",,,,"01,1,+01200,1,06,1",,,,"06,99,1,01,1,05,1,01250,1,03,1,02,1",,,,,"99999,9,10083,1","7,1,018,1,+999,9",,,,"SYN082AAXX  12151 08544 42660 60803 10092 21011 30083 40104 57018 81532 333 81640 83360;",
"08544099999","2010-02-12T18:00:00","4","40.9166666","-8.6333333","22.0","OVAR MACEDA, PO","FM-12","99999","V020","070,1,N,0020,1","22000,1,9,N","010000,1,N,1","+0082,1","-0007,1","10102,1",,,,"02,1,+03000,1,03,1","03,1,+06000,1,00,1",,,"04,99,1,02,1,00,1,99999,9,03,1,02,1",,,,"120,M,+0106,1","99999,9,10082,1","5,1,011,1,+999,9",,,,"SYN098AAXX  12181 08544 32960 40702 10082 21007 30082 40102 55011 82032 333 10106 82360 83070 555 60007;",
"08544099999","2010-02-13T06:00:00","4","40.9166666","-8.6333333","22.0","OVAR MACEDA, PO","FM-12","99999","V020","999,9,C,0000,1","22000,1,9,N","010000,1,N,1","+0010,1","-0033,1","10111,1",,,,"00,1,+99999,9,99,9",,,,"00,99,1,00,1,00,1,99999,9,00,1,00,1","0132,9",,,"999,N,+0004,1","99999,9,10089,1","4,1,000,1,+999,9","10,1",,,"SYN098AAXX  13061 08544 31960 00000 10010 21033 30089 40111 54000 710// 333 20004 50314 55022 555 60002;",
"08544099999","2010-02-13T09:00:00","4","40.9166666","-8.6333333","22.0","OVAR MACEDA, PO","FM-12","99999","V020","360,1,N,0020,1","22000,1,9,N","010000,1,N,1","+0010,1","-0027,1","10120,1",,,,"00,1,+99999,9,99,9",,,,"00,99,1,00,1,00,1,99999,9,00,1,00,1",,,,,"99999,9,10099,1","3,1,010,1,+999,9",,,,"SYN060AAXX  13091 08544 42960 03602 10010 21027 30099 40120 53010;",
"08544099999","2010-02-13T12:00:00","4","40.9166666","-8.6333333","22.0","OVAR MACEDA, PO","FM-12","99999","V020","020,1,N,0020,1","22000,1,9,N","010000,1,N,1","+0086,1","-0026,1","10114,1",,,,"00,1,+99999,9,99,9",,,,"00,99,1,00,1,00,1,99999,9,00,1,00,1",,,,,"99999,9,10093,1","7,1,006,1,+999,9",,,,"SYN076AAXX  13121 08544 32960 00202 10086 21026 30093 40114 57006 555 50004 60007;",
"08544099999","2010-02-13T15:00:00","4","40.9166666","-8.6333333","22.0","OVAR MACEDA, PO","FM-12","99999","V020","020,1,N,0050,1","22000,1,9,N","010000,1,N,1","+0104,1","-0032,1","10103,1",,,,"02,1,+00750,1,08,1",,,,"02,99,1,02,1,02,1,00800,1,00,1,00,1",,,,,"99999,9,10083,1","7,1,010,1,+999,9",,,,"SYN076AAXX  13151 08544 42560 20205 10104 21032 30083 40103 57010 82200 333 82825;",
"08544099999","2010-02-13T18:00:00","4","40.9166666","-8.6333333","22.0","OVAR MACEDA, PO","FM-12","99999","V020","030,1,N,0040,1","22000,1,9,N","010000,1,N,1","+0088,1","-0017,1","10109,1",,,,"02,1,+00750,1,08,1",,,,"02,99,1,02,1,02,1,00800,1,00,1,00,1",,,,"120,M,+0104,1","99999,9,10088,1","3,1,005,1,+999,9",,,,"SYN092AAXX  13181 08544 32560 20304 10088 21017 30088 40109 53005 82200 333 10104 82825 555 60007;",
"08544099999","2010-02-14T06:00:00","4","40.9166666","-8.6333333","22.0","OVAR MACEDA, PO","FM-12","99999","V020","999,9,V,0010,1","08100,1,9,N","010000,1,N,1","+0042,1","-0043,1","10096,1",,,,"05,1,+08100,1,00,1",,,,"05,99,1,00,1,00,1,99999,9,00,1,01,1","0576,9",,,"999,N,-0012,1","99999,9,10075,1","7,1,004,1,+999,9","00,1",,,"SYN110AAXX  14061 08544 31960 59901 10042 21043 30075 40096 57004 700// 80001 333 21012 50344 55096 85077 555 60002;",
"08544099999","2010-02-14T09:00:00","4","40.9166666","-8.6333333","22.0","OVAR MACEDA, PO","FM-12","99999","V020","999,9,V,0010,1","02100,1,9,N","010000,1,N,1","+0018,1","-0024,1","10094,1",,,,"04,1,+00900,1,06,1","04,1,+02100,1,04,1",,,"08,99,1,04,1,05,1,00800,1,07,1,07,1",,,,,"99999,9,10072,1","8,1,003,1,+999,9",,,,"SYN088AAXX  14091 08544 42560 89901 10018 21024 30072 40094 58003 84577 333 84630 84457 88277;",
"08544099999","2010-02-14T12:00:00","4","40.9166666","-8.6333333","22.0","OVAR MACEDA, PO","FM-12","99999","V020","040,1,N,0030,1","02700,1,9,N","010000,1,N,1","+0100,1","-0031,1","10091,1",,,,"02,1,+01200,1,06,1","04,1,+02700,1,03,1","05,1,+06600,1,00,1",,"07,99,1,02,1,05,1,01250,1,07,1,02,1",,,,,"99999,9,10070,1","8,1,002,1,+999,9",,,,"SYN104AAXX  14121 08544 32660 70403 10100 21031 30070 40091 58002 82572 333 82640 84359 85072 555 50004 60007;",
"08544099999","2010-02-14T15:00:00","4","40.9166666","-8.6333333","22.0","OVAR MACEDA, PO","FM-12","99999","V020","030,1,N,0040,1","02400,1,9,N","010000,1,N,1","+0094,1","-0014,1","10052,1",,,,"02,1,+00750,1,08,1","05,1,+02400,1,03,1",,,"08,99,1,02,1,02,1,00800,1,07,1,01,1",,,,,"99999,9,10031,1","7,1,038,1,+999,9",,,,"SYN088AAXX  14151 08544 42560 80304 10094 21014 30031 40052 57038 82271 333 82825 85358 86070;",
"08544099999","2010-02-14T18:00:00","4","40.9166666","-8.6333333","22.0","OVAR MACEDA, PO","FM-12","99999","V020","080,1,N,0030,1","02400,1,9,N","010000,1,N,1","+0076,1","-0003,1","10028,1",,,,"03,1,+00900,1,08,1","05,1,+02400,1,03,1","05,1,+06000,1,00,1",,"08,99,1,03,1,02,1,00800,1,07,1,02,1",,,,"120,M,+0112,1","99999,9,10007,1","7,1,024,1,+999,9",,,,"SYN104AAXX  14181 08544 32560 80803 10076 21003 30007 40028 57024 83272 333 10112 83830 85358 85070 555 60007;",
"08544099999","2010-02-15T06:00:00","4","40.9166666","-8.6333333","22.0","OVAR MACEDA, PO","FM-12","99999","V020","070,1,N,0050,1","02100,1,9,N","010000,1,N,1","+0060,1","+0005,1","09941,1","12,0000,9,1",,,"03,1,+00900,1,08,1","07,1,+02100,1,03,1",,,"08,99,1,03,1,02,1,00800,1,07,1,99,9","0084,9",,,"999,N,+0054,1","99999,9,09920,1","7,1,028,1,+999,9","00,1",,,"SYN122AAXX  15061 08544 11560 80705 10060 20005 39920 49941 57028 69922 700// 8327/ 333 20054 50394 55014 83830 87357 555 69922;","Q01  00002PRCP12"
"08544099999","2010-02-15T09:00:00","4","40.9166666","-8.6333333","22.0","OVAR MACEDA, PO","FM-12","99999","V020","090,1,N,0030,1","03600,1,C,N","008000,1,N,1","+0074,1","+0031,1","09927,1",,"6,1,03,1","2,1,03,1","03,1,+00750,1,08,1",,,,"07,99,1,03,1,02,1,00800,1,07,1,99,9",,,,,"99999,9,09906,1","7,1,014,1,+999,9","60,1",,,"SYN088AAXX  15091 08544 41558 70903 10074 20031 39906 49927 57014 76062 8327/ 333 83825 87357;",
"08544099999","2010-02-15T12:00:00","4","40.9166666","-8.6333333","22.0","OVAR MACEDA, PO","FM-12","99999","V020","100,1,N,0020,1","00600,1,9,N","008000,1,N,1","+0086,1","+0040,1","09925,1","06,0008,9,1","6,1,06,1","2,1,06,1","05,1,+00600,1,08,1","07,1,+02100,1,03,1",,,"07,99,1,05,1,02,1,00800,1,07,1,00,1",,,,,"99999,9,09904,1","6,1,002,1,+999,9","60,1",,,"SYN110AAXX  15121 08544 11558 71002 10086 20040 39904 49925 56002 69981 76062 85270 333 85820 87357 555 50014 69977;",
"08544099999","2010-02-15T15:00:00","4","40.9166666","-8.6333333","22.0","OVAR MACEDA, PO","FM-12","99999","V020","070,1,N,0030,1","03600,1,C,N","010000,1,N,1","+0102,1","+0041,1","09908,1",,"6,1,03,1","2,1,03,1","04,1,+00900,1,06,1",,,,"08,99,1,04,1,02,1,00800,1,07,1,99,9",,,,,"99999,9,09888,1","7,1,012,1,+999,9","21,1",,,"SYN088AAXX  15151 08544 41560 80703 10102 20041 39888 49908 57012 72162 8427/ 333 84630 87358;",
"08544099999","2010-02-15T18:00:00","4","40.9166666","-8.6333333","22.0","OVAR MACEDA, PO","FM-12","99999","V020","090,1,N,0020,1","02400,1,9,N","010000,1,N,1","+0094,1","+0041,1","09905,1","12,0010,9,1","6,1,06,1","2,1,06,1","04,1,+01200,1,06,1","07,1,+02400,1,03,1",,,"07,99,1,04,1,05,1,01250,1,07,1,00,1",,,,"120,M,+0106,1","99999,9,09885,1","6,1,003,1,+999,9","01,1",,,"SYN110AAXX  15181 08544 11660 70902 10094 20041 39885 49905 56003 60012 70162 84570 333 10106 84640 87358 555 69917;",
"08544099999","2010-02-16T06:00:00","4","40.9166666","-8.6333333","22.0","OVAR MACEDA, PO","FM-12","99999","V020","070,1,N,0040,1","01050,1,9,N","010000,1,N,1","+0080,1","+0038,1","09874,1",,,,"05,1,+01050,1,06,1","07,1,+02400,1,03,1",,,"08,99,1,05,1,05,1,01250,1,07,1,99,9","0012,9",,,"999,N,+0080,1","99999,9,09854,1","7,1,014,1,+999,9","00,1",,,"SYN116AAXX  16061 08544 31660 80704 10080 20038 39854 49874 57014 700// 8557/ 333 20080 50304 55002 85635 87358 555 60002;",
"08544099999","2010-02-16T09:00:00","4","40.9166666","-8.6333333","22.0","OVAR MACEDA, PO","FM-12","99999","V020","060,1,N,0030,1","01050,1,9,N","010000,1,N,1","+0078,1","+0045,1","09875,1",,"6,1,03,1","2,1,03,1","05,1,+01050,1,06,1",,,,"08,99,1,05,1,05,1,01250,1,07,1,99,9",,,,,"99999,9,09855,1","3,1,001,1,+999,9","02,1",,,"SYN088AAXX  16090 08544 41660 80603 10078 20045 39855 49875 53001 70262 8557/ 333 85635 87358;",
"08544099999","2010-02-16T12:00:00","4","40.9166666","-8.6333333","22.0","OVAR MACEDA, PO","FM-12","99999","V020","999,9,C,0000,1","02400,1,9,N","010000,1,N,1","+0116,1","+0062,1","09878,1","06,0003,9,1","6,1,06,1","2,1,06,1","03,1,+01050,1,06,1","07,1,+02400,1,03,1",,,"08,99,1,03,1,05,1,01250,1,07,1,99,9",,,,,"99999,9,09858,1","8,1,003,1,+999,9","03,1",,,"SYN110AAXX  16121 08544 11660 80000 10116 20062 39858 49878 58003 69931 70362 8357/ 333 83635 87358 555 59964 60007;",
"08544099999","2010-02-16T15:00:00","4","40.9166666","-8.6333333","22.0","OVAR MACEDA, PO","FM-12","99999","V020","270,1,N,0020,1","03600,1,C,N","010000,1,N,1","+0122,1","+0073,1","09866,1",,,,"03,1,+01050,1,06,1",,,,"08,99,1,03,1,05,1,01250,1,07,1,99,9",,,,,"99999,9,09846,1","7,1,012,1,+999,9",,,,"SYN082AAXX  16151 08544 42660 82702 10122 20073 39846 49866 57012 8357/ 333 83635 87358;",
"08544099999","2010-02-16T18:00:00","4","40.9166666","-8.6333333","22.0","OVAR MACEDA, PO","FM-12","99999","V020","360,1,N,0030,1","02100,1,9,N","010000,1,N,1","+0118,1","+0073,1","09865,1","12,0003,9,1",,,"03,1,+01050,1,06,1","08,1,+02100,1,03,1",,,"08,99,1,03,1,05,1,01250,1,07,1,99,9",,,,"120,M,+0128,1","99999,9,09845,1","5,1,001,1,+999,9",,,,"SYN104AAXX  16181 08544 12660 83603 10118 20073 39845 49865 55001 69932 8357/ 333 10128 83635 88357 555 60007;",
"08544099999","2010-02-17T06:00:00","4","40.9166666","-8.6333333","22.0","OVAR MACEDA, PO","FM-12","99999","V020","999,9,C,0000,1","00360,1,9,N","003000,1,N,1","+0094,1","+0090,1","09886,1","12,0051,9,1","6,1,06,1","5,1,06,1","04,1,+00180,1,07,1","07,1,+00360,1,08,1",,,"08,99,1,08,1,02,1,00150,1,99,9,99,9","0000,9",,,"999,N,+0094,1","99999,9,09866,1","2,1,002,1,+999,9","58,1",,,"SYN128AAXX  17061 08544 11230 80000 10094 20090 39866 49886 52002 60052 75865 882// 333 20094 50184 55000 84706 87812 96010 555 60052;",
"08544099999","2010-02-17T09:00:00","4","40.9166666","-8.6333333","22.0","OVAR MACEDA, PO","FM-12","99999","V020","350,1,N,0030,1","00450,1,9,N","003000,1,N,1","+0100,1","+0089,1","09910,1",,"6,1,03,1","5,1,03,1","01,1,+00180,1,07,1","03,1,+00240,1,07,1","07,1,+00450,1,08,1",,"08,99,1,08,1,02,1,00150,1,99,9,99,9",,,,,"99999,9,09890,1","2,1,024,1,+999,9","61,1",,,"SYN100AAXX  17091 08544 41230 83503 10100 20089 39890 49910 52024 76165 882// 333 81706 83708 87815 96010;",
"08544099999","2010-02-17T12:00:00","4","40.9166666","-8.6333333","22.0","OVAR MACEDA, PO","FM-12","99999","V020","360,1,N,0080,1","00900,1,9,N","010000,1,N,1","+0108,1","+0074,1","09949,1","06,0020,9,1","6,1,06,1","5,1,06,1","04,1,+00450,1,08,1","04,1,+00900,1,06,1",,,"06,99,1,06,1,08,1,00450,1,00,1,00,1",,,,,"99999,9,09929,1","2,1,039,1,+999,9","01,1",,,"SYN110AAXX  17121 08544 11460 63608 10108 20074 39929 49949 52039 60021 70165 86800 333 84815 84630 555 50074 69917;",
"08544099999","2010-02-17T15:00:00","4","40.9166666","-8.6333333","22.0","OVAR MACEDA, PO","FM-12","99999","V020","350,1,N,0040,1","22000,1,9,N","010000,1,N,1","+0124,1","+0058,1","09969,1",,,,"04,1,+00600,1,08,1",,,,"04,99,1,04,1,02,1,00800,1,00,1,00,1",,,,,"99999,9,09949,1","2,1,020,1,+999,9",,,,"SYN086AAXX  17151 08544 42560 43504 10124 20058 39949 49969 52020 84200 333 84820 555 60007;",
"08544099999","2010-02-17T18:00:00","4","40.9166666","-8.6333333","22.0","OVAR MACEDA, PO","FM-12","99999","V020","320,1,N,0020,1","00660,1,9,N","010000,1,N,1","+0100,1","+0069,1","09993,1","12,0020,9,1","2,1,06,1","5,1,06,1","04,1,+00450,1,08,1","04,1,+00660,1,08,1",,,"06,99,1,06,1,08,1,00450,1,00,1,00,1",,,,"120,M,+0126,1","99999,9,09973,1","2,1,024,1,+999,9","03,1",,,"SYN110AAXX  17181 08544 11460 63202 10100 20069 39973 49993 52024 60022 70325 86800 333 10126 84815 84822 555 69927;",
"08544099999","2010-02-18T06:00:00","4","40.9166666","-8.6333333","22.0","OVAR MACEDA, PO","FM-12","99999","V020","999,9,C,0000,1","00900,1,9,N","007000,1,N,1","+0074,1","+0066,1","10002,1","12,0041,9,1","8,1,06,1",,"04,1,+00450,1,08,1","06,1,+00900,1,06,1",,,"08,99,1,08,1,08,1,00450,1,99,9,99,9","0252,9",,,"999,N,+0070,1","99999,9,09982,1","8,1,002,1,+999,9","80,1",,,"SYN122AAXX  18061 08544 11457 80000 10074 20066 39982 40002 58002 60042 7808/ 888// 333 20070 50164 55042 84815 86630 555 60042;",
"08544099999","2010-02-18T09:00:00","4","40.9166666","-8.6333333","22.0","OVAR MACEDA, PO","FM-12","99999","V020","999,9,C,0000,1","00900,1,9,N","007000,1,N,1","+0072,1","+0064,1","10008,1",,"8,1,03,1","2,1,03,1","02,1,+00450,1,08,1",,,,"06,99,1,05,1,08,1,00450,1,03,1,00,1",,,,,"99999,9,09987,1","3,1,005,1,+999,9","10,1",,,"SYN088AAXX  18091 08544 41457 60000 10072 20064 39987 40008 53005 71082 85830 333 82815 84630;",
"08544099999","2010-02-18T12:00:00","4","40.9166666","-8.6333333","22.0","OVAR MACEDA, PO","FM-12","99999","V020","020,1,N,0030,1","00750,1,C,N","010000,1,N,1","+0110,1","+0068,1","09992,1","06,0010,9,1","8,1,06,1","2,1,06,1","02,1,+00450,1,08,1","03,1,+00750,1,06,1","07,1,+08100,1,02,1",,"07,99,1,03,1,08,1,00450,1,07,1,06,1",,,,,"99999,9,09971,1","5,1,016,1,+999,9","02,1",,,"SYN116AAXX  18121 08544 11460 70203 10110 20068 39971 49992 55016 60011 70282 83876 333 82815 83625 87277 555 50054 60007;",
"08544099999","2010-02-18T15:00:00","4","40.9166666","-8.6333333","22.0","OVAR MACEDA, PO","FM-12","99999","V020","350,1,N,0050,1","03600,1,C,N","010000,1,N,1","+0126,1","+0073,1","09977,1",,,,"03,1,+00450,1,08,1","03,1,+00750,1,06,1",,,"07,99,1,04,1,08,1,00450,1,07,1,06,1",,,,,"99999,9,09957,1","8,1,014,1,+999,9",,,,"SYN088AAXX  18150 08544 42460 73505 10126 20073 39957 49977 58014 84876 333 83815 83625 87277;",
"08544099999","2010-02-18T18:00:00","4","40.9166666","-8.6333333","22.0","OVAR MACEDA, PO","FM-12","99999","V020","350,1,N,0070,1","00750,1,C,N","010000,1,N,1","+0108,1","+0068,1","09973,1","12,0010,9,1",,,"02,1,+00450,1,08,1","03,1,+00750,1,06,1","05,1,+08100,1,02,1",,"05,99,1,03,1,08,1,00450,1,03,1,08,1",,,,"120,M,+0132,1","99999,9,09952,1","7,1,005,1,+999,9",,,,"SYN110AAXX  18181 08544 12460 53507 10108 20068 39952 49973 57005 60012 83838 333 10132 82815 83625 85277 555 60007;",
"08544099999","2010-02-19T06:00:00","4","40.9166666","-8.6333333","22.0","OVAR MACEDA, PO","FM-12","99999","V020","999,9,C,0000,1","22000,1,9,N","010000,1,N,1","+0040,1","+0027,1","10024,1",,,,"01,1,+00360,1,08,1","03,1,+00600,1,06,1",,,"03,99,1,03,1,08,1,00450,1,00,1,00,1","0354,9",,,"999,N,+0038,1","99999,9,10003,1","2,1,010,1,+999,9","00,1",,,"SYN116AAXX  19061 08544 31460 30000 10040 20027 30003 40024 52010 700// 83800 333 20038 50254 55059 81812 83620 555 60002;",
"08544099999","2010-02-19T09:00:00","4","40.9166666","-8.6333333","22.0","OVAR MACEDA, PO","FM-12","99999","V020","010,1,N,0020,1","22000,1,9,N","010000,1,N,1","+0040,1","+0027,1","10066,1",,,,"01,1,+00030,1,08,1",,,,"03,99,1,03,1,09,1,00450,1,00,1,00,1",,,,,"99999,9,10045,1","2,1,042,1,+999,9",,,,"SYN082AAXX  19091 08544 42460 30102 10040 20027 30045 40066 52042 83900 333 81801 82915;",
"08544099999","2010-02-19T12:00:00","4","40.9166666","-8.6333333","22.0","OVAR MACEDA, PO","FM-12","99999","V020","350,1,N,0050,1","22000,1,9,N","010000,1,N,1","+0114,1","+0036,1","10085,1",,,,"03,1,+00450,1,08,1","01,1,+00600,1,09,1",,,"04,99,1,04,1,09,1,00450,1,00,1,00,1",,,,,"99999,9,10065,1","2,1,020,1,+999,9",,,,"SYN098AAXX  19121 08544 32460 43505 10114 20036 30065 40085 52020 84900 333 83815 81920 555 50004 60007;",
"08544099999","2010-02-19T15:00:00","4","40.9166666","-8.6333333","22.0","OVAR MACEDA, PO","FM-12","99999","V020","330,1,N,0050,1","22000,1,9,N","010000,1,N,1","+0122,1","+0055,1","10091,1",,,,"03,1,+00450,1,08,1",,,,"04,99,1,04,1,09,1,00450,1,00,1,00,1",,,,,"99999,9,10070,1","2,1,005,1,+999,9",,,,"SYN082AAXX  19151 08544 42460 43305 10122 20055 30070 40091 52005 84900 333 83815 81920;",
"08544099999","2010-02-19T18:00:00","4","40.9166666","-8.6333333","22.0","OVAR MACEDA, PO","FM-12","99999","V020","320,1,N,0020,1","00600,1,9,N","010000,1,N,1","+0108,1","+0052,1","10101,1",,,,"04,1,+00450,1,08,1","01,1,+00600,1,09,1",,,"06,99,1,05,1,09,1,00450,1,03,1,00,1",,,,"120,M,+0124,1","99999,9,10080,1","2,1,010,1,+999,9",,,,"SYN098AAXX  19181 08544 32460 63202 10108 20052 30080 40101 52010 85930 333 10124 84815 81920 555 60007;",
"08544099999","2010-02-20T06:00:00","4","40.9166666","-8.6333333","22.0","OVAR MACEDA, PO","FM-12","99999","V020","140,1,N,0030,1","00750,1,9,N","010000,1,N,1","+0050,1","+0037,1","10115,1","12,0051,9,1",,,"02,1,+00360,1,08,1","04,1,+00750,1,06,1",,,"05,99,1,05,1,08,1,00450,1,00,1,00,1","0576,9",,,"999,N,+0048,1","99999,9,10094,1","2,1,014,1,+999,9","00,1",,,"SYN122AAXX  20061 08544 11460 51403 10050 20037 30094 40115 52014 60052 700// 85800 333 20048 50024 55096 82812 84625 555 60052;",
"08544099999","2010-02-20T09:00:00","4","40.9166666","-8.6333333","22.0","OVAR MACEDA, PO","FM-12","99999","V020","180,1,N,0030,1","00900,1,C,N","010000,1,N,1","+0072,1","+0043,1","10120,1",,,,"02,1,+00360,1,08,1",,,,"05,99,1,05,1,08,1,00450,1,03,1,00,1",,,,,"99999,9,10099,1","0,1,005,1,+999,9",,,,"SYN082AAXX  20091 08544 42460 51803 10072 20043 30099 40120 50005 85830 333 82812 84625;",
"08544099999","2010-02-20T12:00:00","4","40.9166666","-8.6333333","22.0","OVAR MACEDA, PO","FM-12","99999","V020","170,1,N,0050,1","00900,1,C,N","010000,1,N,1","+0110,1","+0054,1","10112,1",,,,"03,1,+00540,1,08,1",,,,"06,99,1,05,1,08,1,00450,1,04,1,00,1",,,,,"99999,9,10091,1","8,1,008,1,+999,9",,,,"SYN092AAXX  20121 08544 32460 61705 10110 20054 30091 40112 58008 85840 333 83818 555 59954 60007;",
"08544099999","2010-02-20T15:00:00","4","40.9166666","-8.6333333","22.0","OVAR MACEDA, PO","FM-12","99999","V020","180,1,N,0050,1","07500,1,9,N","010000,1,N,1","+0138,1","+0037,1","10080,1",,,,"03,1,+00750,1,08,1","03,1,+07500,1,00,1",,,"06,99,1,04,1,08,1,00800,1,00,1,04,1",,,,,"99999,9,10060,1","7,1,031,1,+999,9",,,,"SYN092AAXX  20151 08544 42560 61805 10138 20037 30060 40080 57031 84804 333 83825 83075 555 60007;",
"08544099999","2010-02-20T18:00:00","4","40.9166666","-8.6333333","22.0","OVAR MACEDA, PO","FM-12","99999","V020","160,1,N,0030,1","06000,1,C,N","010000,1,N,1","+0120,1","+0043,1","10055,1",,,,"02,1,+00750,1,08,1","03,1,+02400,1,03,1","07,1,+06000,1,00,1",,"07,99,1,02,1,02,1,00800,1,07,1,04,1",,,,"120,M,+0144,1","99999,9,10035,1","7,1,025,1,+999,9",,,,"SYN104AAXX  20181 08544 32560 71603 10120 20043 30035 40055 57025 82274 333 10144 82825 83358 87070 555 60007;",
"08544099999","2010-02-21T06:00:00","4","40.9166666","-8.6333333","22.0","OVAR MACEDA, PO","FM-12","99999","V020","180,1,N,0080,1","00900,1,C,N","010000,1,N,1","+0110,1","+0084,1","09927,1","12,0061,9,1",,,"02,1,+00450,1,08,1","03,1,+00900,1,06,1","05,1,+02100,1,03,1",,"07,99,1,02,1,08,1,00450,1,07,1,00,1","0426,9",,,"999,N,+0096,1","99999,9,09907,1","7,1,011,1,+999,9","00,1",,,"SYN128AAXX  21061 08544 11460 71808 10110 20084 39907 49927 57011 60062 700// 82870 333 20096 50354 55071 82815 83630 85357 555 60062;",
"08544099999","2010-02-21T09:00:00","4","40.9166666","-8.6333333","22.0","OVAR MACEDA, PO","FM-12","99999","V020","190,1,N,0060,1","00480,1,9,N","007000,1,N,1","+0136,1","+0119,1","09937,1",,"9,1,03,1","8,1,03,1","02,1,+00240,1,07,1","05,1,+00480,1,08,1","01,1,+00540,1,09,1",,"08,99,1,06,1,09,1,00250,1,07,1,99,9",,,,,"99999,9,09917,1","3,1,010,1,+999,9","80,1",,,"SYN100AAXX  21090 08544 41357 81906 10136 20119 39917 49937 53010 78098 8697/ 333 82708 85816 81918 96010;",
"08544099999","2010-02-21T12:00:00","4","40.9166666","-8.6333333","22.0","OVAR MACEDA, PO","FM-12","99999","V020","190,1,N,0080,1","00450,1,9,N","008000,1,N,1","+0154,1","+0116,1","09954,1","06,0010,9,1","9,1,06,1","8,1,06,1","05,1,+00450,1,08,1","03,1,+06000,1,00,1",,,"06,99,1,06,1,08,1,00450,1,00,1,01,1",,,,,"99999,9,09934,1","2,1,017,1,+999,9","10,1",,,"SYN110AAXX  21121 08544 11458 61908 10154 20116 39934 49954 52017 60011 71098 86801 333 85815 83070 555 50074 69907;",
"08544099999","2010-02-21T15:00:00","4","40.9166666","-8.6333333","22.0","OVAR MACEDA, PO","FM-12","99999","V020","200,1,N,0080,1","06000,1,9,N","010000,1,N,1","+0158,1","+0117,1","09951,1",,,,"04,1,+00450,1,08,1","05,1,+06000,1,00,1",,,"06,99,1,04,1,02,1,00450,1,00,1,04,1",,,,,"99999,9,09931,1","7,1,003,1,+999,9",,,,"SYN092AAXX  21151 08544 42460 62008 10158 20117 39931 49951 57003 84204 333 84815 85070 555 60007;",
"08544099999","2010-02-21T18:00:00","4","40.9166666","-8.6333333","22.0","OVAR MACEDA, PO","FM-12","99999","V020","200,1,N,0080,1","02400,1,9,N","007000,1,N,1","+0142,1","+0111,1","09954,1","12,0010,9,1","2,1,06,1","2,1,06,1","03,1,+00450,1,08,1","07,1,+02400,1,03,1",,,"08,99,1,04,1,08,1,00450,1,07,1,99,9",,,,"120,M,+0168,1","99999,9,09934,1","1,1,003,1,+999,9","10,1",,,"SYN110AAXX  21181 08544 11457 82008 10142 20111 39934 49954 51003 60012 71022 8487/ 333 10168 83815 87358 555 60007;",
"08544099999","2010-02-22T06:00:00","4","40.9166666","-8.6333333","22.0","OVAR MACEDA, PO","FM-12","99999","V020","190,1,N,0080,1","22000,1,9,N","010000,1,N,1","+0136,1","+0112,1","09934,1","12,0079,9,1",,,"03,1,+00450,1,08,1",,,,"04,99,1,03,1,02,1,00450,1,00,1,01,1","0288,9",,,"999,N,+0114,1","99999,9,09914,1","6,1,015,1,+999,9","00,1",,,"SYN116AAXX  22061 08544 11460 41908 10136 20112 39914 49934 56015 60082 700// 83201 333 20114 50224 55048 83815 555 60082;",
"08544099999","2010-02-22T09:00:00","4","40.9166666","-8.6333333","22.0","OVAR MACEDA, PO","FM-12","99999","V020","200,1,N,0070,1","00450,1,9,N","002000,1,N,1","+0132,1","+0118,1","09944,1",,"8,1,03,1","1,1,03,1","02,1,+00240,1,07,1","05,1,+00450,1,08,1","03,1,+00600,1,09,1",,"08,99,1,06,1,09,1,00250,1,07,1,99,9",,,,,"99999,9,09924,1","2,1,010,1,+999,9","81,1",,,"SYN100AAXX  22090 08544 41320 82007 10132 20118 39924 49944 52010 78181 8697/ 333 82708 85815 83920 87358;",
"08544099999","2010-02-22T12:00:00","4","40.9166666","-8.6333333","22.0","OVAR MACEDA, PO","FM-12","99999","V020","210,1,N,0100,1","01050,1,9,N","007000,1,N,1","+0142,1","+0111,1","09964,1","06,0051,9,1","9,1,06,1","8,1,06,1","03,1,+00450,1,08,1","01,1,+00600,1,09,1","03,1,+01050,1,06,1","05,1,+02400,1,07,1","07,99,1,06,1,09,1,00250,1,07,1,00,1",,,,,"99999,9,09944,1","2,1,020,1,+999,9","95,1",,,"SYN134AAXX  22121 08544 11357 72110 10142 20111 39944 49964 52020 60051 79598 86970 333 83815 81920 83635 85758 555 50134 60037 96681 90330;",
"08544099999","2010-02-22T15:00:00","4","40.9166666","-8.6333333","22.0","OVAR MACEDA, PO","FM-12","99999","V020","220,1,N,0080,1","00600,1,9,N","006000,1,N,1","+0152,1","+0118,1","09964,1",,"9,1,03,1","8,1,03,1","03,1,+00450,1,08,1","02,1,+00600,1,09,1",,,"07,99,1,06,1,09,1,00450,1,03,1,00,1",,,,,"99999,9,09944,1","4,1,000,1,+999,9","80,1",,,"SYN094AAXX  22151 08544 41456 72208 10152 20118 39944 49964 56000 78098 86930 333 83815 82920 85622;","Q01+000062APCTEN"
"08544099999","2010-02-22T18:00:00","4","40.9166666","-8.6333333","22.0","OVAR MACEDA, PO","FM-12","99999","V020","210,1,N,0060,1","00600,1,9,N","007000,1,N,1","+0124,1","+0106,1","09974,1","12,0109,9,1","9,1,06,1","8,1,06,1","03,1,+00450,1,08,1","02,1,+00600,1,09,1","04,1,+00660,1,06,1",,"07,99,1,06,1,09,1,00450,1,03,1,00,1",,,,"120,M,+0160,1","99999,9,09954,1","1,1,010,1,+999,9","10,1",,,"SYN128AAXX  22181 08544 11457 72106 10124 20106 39954 49974 51010 60112 71098 86930 333 10160 83815 82920 84622 555 60037 96617 90308;",
"08544099999","2010-02-23T06:00:00","4","40.9166666","-8.6333333","22.0","OVAR MACEDA, PO","FM-12","99999","V020","220,1,N,0080,1","00600,1,9,N","007000,1,N,1","+0134,1","+0113,1","10006,1","12,0020,9,1",,,"03,1,+00450,1,08,1","02,1,+00600,1,09,1","04,1,+00660,1,06,1",,"07,99,1,07,1,09,1,00450,1,00,1,00,1","0030,9",,,"999,N,+0102,1","99999,9,09986,1","2,1,012,1,+999,9","10,1",,,"SYN128AAXX  23061 08544 11457 72208 10134 20113 39986 40006 52012 60022 710// 87900 333 20102 50194 55005 83815 82920 84622 555 60022;",
"08544099999","2010-02-23T09:00:00","4","40.9166666","-8.6333333","22.0","OVAR MACEDA, PO","FM-12","99999","V020","220,1,N,0080,1","00600,1,9,N","006000,1,N,1","+0138,1","+0117,1","10018,1",,"9,1,03,1","8,1,03,1","03,1,+00450,1,08,1","02,1,+00600,1,09,1",,,"08,99,1,07,1,09,1,00450,1,07,1,99,9",,,,,"99999,9,09998,1","3,1,012,1,+999,9","25,1",,,"SYN094AAXX  23091 08544 41456 82208 10138 20117 39998 40018 53012 72598 8797/ 333 83815 82920 85622;",
"08544099999","2010-02-23T12:00:00","4","40.9166666","-8.6333333","22.0","OVAR MACEDA, PO","FM-12","99999","V020","220,1,N,0070,1","00360,1,9,N","004000,1,N,1","+0148,1","+0114,1","10033,1","06,0020,9,1","9,1,06,1","8,1,06,1","03,1,+00270,1,07,1","03,1,+00360,1,08,1","02,1,+00450,1,09,1","05,1,+00600,1,06,1","07,99,1,06,1,09,1,00250,1,07,1,00,1",,,,,"99999,9,10013,1","2,1,015,1,+999,9","29,1",,,"SYN128AAXX  23121 08544 11340 72207 10148 20114 30013 40033 52015 60021 72998 86970 333 83709 83812 82915 85620 96010 555 50104 69927;",
"08544099999","2010-02-23T15:00:00","4","40.9166666","-8.6333333","22.0","OVAR MACEDA, PO","FM-12","99999","V020","220,1,N,0070,1","03600,1,9,N","010000,1,N,1","+0152,1","+0095,1","10036,1",,,,"01,1,+00270,1,07,1","03,1,+00360,1,08,1",,,"05,99,1,04,1,09,1,00250,1,07,1,00,1",,,,,"99999,9,10016,1","3,1,003,1,+999,9",,,,"SYN088AAXX  23151 08544 42360 52207 10152 20095 30016 40036 53003 84970 333 81709 83812 82915;",
"08544099999","2010-02-23T18:00:00","4","40.9166666","-8.6333333","22.0","OVAR MACEDA, PO","FM-12","99999","V020","210,1,N,0090,1","03600,1,9,N","004000,1,N,1","+0146,1","+0111,1","10027,1","12,0020,9,1","2,1,06,1","2,1,06,1","03,1,+00360,1,08,1","04,1,+00600,1,06,1",,,"05,99,1,04,1,08,1,00450,1,07,1,00,1",,,,"120,M,+0154,1","99999,9,10007,1","8,1,009,1,+999,9","10,1","0140,5",,"SYN116AAXX  23181 08544 11440 52109 10146 20111 30007 40027 58009 60022 71022 84870 333 10154 83812 84620 91014 555 60007;",
"08544099999","2010-02-24T06:00:00","4","40.9166666","-8.6333333","22.0","OVAR MACEDA, PO","FM-12","99999","V020","220,1,N,0030,1","00600,1,9,N","008000,1,N,1","+0122,1","+0093,1","10110,1","12,0010,9,1",,,"04,1,+00450,1,08,1","05,1,+00600,1,06,1","05,1,+01800,1,04,1",,"07,99,1,05,1,08,1,00450,1,07,1,01,1","0192,9",,,"999,N,+0120,1","99999,9,10089,1","2,1,008,1,+999,9","10,1","0080,5","4,99,0160,9,999","SYN140AAXX  24061 08544 11458 72203 10122 20093 30089 40110 52008 60012 710// 85871 333 20120 50354 55032 84815 85620 85456 91008 91116 555 60012;",
"08544099999","2010-02-24T09:00:00","4","40.9166666","-8.6333333","22.0","OVAR MACEDA, PO","FM-12","99999","V020","190,1,N,0050,1","00900,1,C,N","006000,1,N,1","+0116,1","+0098,1","10118,1",,"2,1,03,1","2,1,03,1","04,1,+00450,1,08,1",,,,"08,99,1,08,1,08,1,00450,1,99,9,99,9",,,,,"99999,9,10098,1","3,1,009,1,+999,9","10,1",,,"SYN088AAXX  24091 08544 41456 81905 10116 20098 30098 40118 53009 71022 888// 333 84815 88620;",
"08544099999","2010-02-24T12:00:00","4","40.9166666","-8.6333333","22.0","OVAR MACEDA, PO","FM-12","99999","V020","200,1,N,0080,1","00450,1,9,N","006000,1,N,1","+0134,1","+0120,1","10116,1","06,0010,9,1","8,1,06,1","6,1,06,1","01,1,+00240,1,07,1","05,1,+00450,1,08,1","07,1,+00600,1,06,1",,"08,99,1,08,1,08,1,00250,1,99,9,99,9",,,,,"99999,9,10096,1","5,1,002,1,+999,9","10,1","0150,5",,"SYN128AAXX  24121 08544 11356 82008 10134 20120 30096 40116 55002 60011 71086 888// 333 81708 85815 87620 91015 91115 555 50024 60017;",
"08544099999","2010-02-24T15:00:00","4","40.9166666","-8.6333333","22.0","OVAR MACEDA, PO","FM-12","99999","V020","220,1,N,0110,1","00450,1,9,N","006000,1,N,1","+0150,1","+0133,1","10106,1",,"8,1,03,1","2,1,03,1","02,1,+00240,1,07,1","05,1,+00450,1,08,1","06,1,+00600,1,06,1",,"08,99,1,08,1,08,1,00250,1,99,9,99,9",,,,,"99999,9,10085,1","6,1,011,1,+999,9","25,1","0180,5",,"SYN106AAXX  24151 08544 41356 82211 10150 20133 30085 40106 56011 72582 888// 333 82708 85815 86620 91018 91121;",
"08544099999","2010-02-24T18:00:00","4","40.9166666","-8.6333333","22.0","OVAR MACEDA, PO","FM-12","99999","V020","210,1,N,0100,1","00450,1,9,N","004000,1,N,1","+0150,1","+0133,1","10095,1","12,0020,9,1","8,1,06,1","2,1,06,1","03,1,+00240,1,07,1","05,1,+00450,1,08,1","06,1,+00600,1,06,1",,"08,99,1,08,1,08,1,00250,1,99,9,99,9",,,,"120,M,+0160,1","99999,9,10074,1","7,1,011,1,+999,9","25,1","0170,5","4,99,0210,9,999","SYN128AAXX  24181 08544 11340 82110 10150 20133 30074 40095 57011 60022 72582 888// 333 10160 83708 85815 86620 91017 91121 555 69927;",
"08544099999","2010-02-25T06:00:00","4","40.9166666","-8.6333333","22.0","OVAR MACEDA, PO","FM-12","99999","V020","210,1,N,0090,1","00180,1,9,N","003000,1,N,1","+0150,1","+0140,1","10006,1","12,0140,9,1","6,1,06,1",,"05,1,+00180,1,07,1","06,1,+00360,1,08,1","07,1,+02100,1,04,1",,"08,99,1,07,1,02,1,00150,1,07,1,99,9","0012,9",,,"999,N,+0128,1","99999,9,09986,1","7,1,008,1,+999,9","60,1","0160,5","4,99,0170,9,999","SYN146AAXX  25061 08544 11230 82109 10150 20140 39986 40006 57008 60142 7606/ 8727/ 333 20128 50234 55002 85706 86812 87457 91016 91117 96010 555 60142;",
"08544099999","2010-02-25T09:00:00","4","40.9166666","-8.6333333","22.0","OVAR MACEDA, PO","FM-12","99999","V020","210,1,N,0060,1","00600,1,9,N","005000,1,N,1","+0142,1","+0122,1","10014,1",,"6,1,03,1","2,1,03,1","03,1,+00360,1,08,1","05,1,+00600,1,06,1","05,1,+02100,1,04,1",,"07,99,1,06,1,08,1,00450,1,07,1,00,1",,,,,"99999,9,09993,1","3,1,007,1,+999,9","10,1","0100,5",,"SYN106AAXX  25091 08544 41450 72106 10142 20122 39993 40014 53007 71062 86870 333 83812 85620 85457 91010 91119;",
"08544099999","2010-02-25T12:00:00","4","40.9166666","-8.6333333","22.0","OVAR MACEDA, PO","FM-12","99999","V020","230,1,N,0060,1","02400,1,9,N","006000,1,N,1","+0146,1","+0126,1","10025,1","06,0041,9,1","8,1,06,1","6,1,06,1","03,1,+00540,1,08,1","01,1,+00600,1,09,1","03,1,+02400,1,03,1",,"07,99,1,04,1,09,1,00450,1,07,1,04,1",,,,,"99999,9,10005,1","2,1,012,1,+999,9","10,1","0100,5","4,99,0180,9,999","SYN146AAXX  25121 08544 11456 72306 10146 20126 30005 40025 52012 60041 71086 84974 333 83818 81920 83358 91010 91118 555 50194 60027 90216 96681 90314;",
"08544099999","2010-02-25T15:00:00","4","40.9166666","-8.6333333","22.0","OVAR MACEDA, PO","FM-12","99999","V020","250,1,N,0070,1","22000,1,9,N","008000,1,N,1","+0154,1","+0101,1","10040,1",,"1,1,03,1","1,1,03,1","02,1,+00540,1,08,1",,,,"04,99,1,02,1,02,1,00450,1,03,1,01,1",,,,,"99999,9,10020,1","2,1,015,1,+999,9","10,1","0140,5",,"SYN094AAXX  25151 08544 41458 42507 10154 20101 30020 40040 52015 71011 82231 333 82818 91014 91116;",
"08544099999","2010-02-25T18:00:00","4","40.9166666","-8.6333333","22.0","OVAR MACEDA, PO","FM-12","99999","V020","260,1,N,0060,1","22000,1,9,N","010000,1,N,1","+0140,1","+0089,1","10054,1","12,0041,9,1","8,1,06,1","1,1,06,1","04,1,+00540,1,08,1",,,,"05,99,1,04,1,02,1,00450,1,00,1,01,1",,,,"120,M,+0162,1","99999,9,10034,1","2,1,014,1,+999,9","02,1","0100,5","4,99,0150,9,999","SYN116AAXX  25181 08544 11460 52606 10140 20089 30034 40054 52014 60042 70281 84201 333 10162 84818 91010 91115 555 69917;",
"08544099999","2010-02-26T06:00:00","4","40.9166666","-8.6333333","22.0","OVAR MACEDA, PO","FM-12","99999","V020","190,1,N,0020,1","22000,1,9,N","010000,1,N,1","+0060,1","+0056,1","10112,1","12,0003,9,1",,,"02,1,+00450,1,08,1",,,,"03,99,1,02,1,02,1,00450,1,00,1,01,1","0312,9",,,"999,N,+0060,1","99999,9,10091,1","2,1,009,1,+999,9","00,1",,,"SYN116AAXX  26061 08544 11460 31902 10060 20056 30091 40112 52009 69932 700// 82201 333 20060 50334 55052 82815 555 69932;",
"08544099999","2010-02-26T09:00:00","4","40.9166666","-8.6333333","22.0","OVAR MACEDA, PO","FM-12","99999","V020","180,1,N,0030,1","22000,1,C,N","010000,1,N,1","+0096,1","+0089,1","10125,1",,"8,1,03,1","1,1,03,1","02,1,+00540,1,08,1",,,,"06,99,1,03,1,08,1,00450,1,00,1,04,1",,,,,"99999,9,10104,1","2,1,013,1,+999,9","02,1",,,"SYN088AAXX  26091 08544 41460 61803 10096 20089 30104 40125 52013 70281 83804 333 82818 84072;",
"08544099999","2010-02-26T12:00:00","4","40.9166666","-8.6333333","22.0","OVAR MACEDA, PO","FM-12","99999","V020","210,1,N,0040,1","06000,1,9,N","010000,1,N,1","+0144,1","+0090,1","10120,1","06,0005,9,1","8,1,06,1","1,1,06,1","03,1,+00450,1,08,1","06,1,+06000,1,00,1",,,"06,99,1,03,1,02,1,00450,1,03,1,01,1",,,,,"99999,9,10099,1","8,1,005,1,+999,9","02,1","0070,5","4,99,0080,9,999","SYN122AAXX  26121 08544 11460 62104 10144 20090 30099 40120 58005 69961 70281 83231 333 83815 86070 91007 91108 555 50014 60007;",
"08544099999","2010-02-26T15:00:00","4","40.9166666","-8.6333333","22.0","OVAR MACEDA, PO","FM-12","99999","V020","220,1,N,0060,1","06000,1,9,N","010000,1,N,1","+0160,1","+0070,1","10101,1",,,,"03,1,+00540,1,08,1","07,1,+06000,1,00,1",,,"07,99,1,03,1,02,1,00450,1,03,1,02,1",,,,,"99999,9,10081,1","7,1,018,1,+999,9",,"0080,5","4,99,0100,9,999","SYN104AAXX  26151 08544 42460 72206 10160 20070 30081 40101 57018 83232 333 83818 87070 91008 91110 555 60007;",
"08544099999","2010-02-26T18:00:00","4","40.9166666","-8.6333333","22.0","OVAR MACEDA, PO","FM-12","99999","V020","210,1,N,0020,1","02700,1,9,N","010000,1,N,1","+0136,1","+0093,1","10085,1","12,0005,9,1",,,"02,1,+00540,1,08,1","05,1,+02700,1,03,1","07,1,+06000,1,02,1",,"08,99,1,02,1,02,1,00450,1,03,1,06,1",,,,"120,M,+0162,1","99999,9,10065,1","7,1,016,1,+999,9",,,"4,99,0100,9,999","SYN116AAXX  26181 08544 12460 82102 10136 20093 30065 40085 57016 69962 82236 333 10162 82818 85359 87270 91110 555 60007;",
"08544099999","2010-02-27T06:00:00","4","40.9166666","-8.6333333","22.0","OVAR MACEDA, PO","FM-12","99999","V020","170,1,N,0040,1","00600,1,9,N","006000,1,N,1","+0134,1","+0124,1","09917,1","12,0140,9,1","6,1,06,1",,"02,1,+00450,1,08,1","04,1,+00600,1,06,1","07,1,+02100,1,04,1",,"08,99,1,05,1,08,1,00450,1,07,1,99,9","0384,9",,,"999,N,+0106,1","99999,9,09897,1","7,1,035,1,+999,9","61,1",,,"SYN128AAXX  27061 08544 11456 81704 10134 20124 39897 49917 57035 60142 7616/ 8587/ 333 20106 50204 55064 82815 84620 87457 555 60142;",
"08544099999","2010-02-27T09:00:00","4","40.9166666","-8.6333333","22.0","OVAR MACEDA, PO","FM-12","99999","V020","180,1,N,0120,1","06000,1,9,N","010000,1,N,1","+0150,1","+0140,1","09877,1",,"6,1,03,1","2,1,03,1","03,1,+00360,1,08,1","03,1,+00600,1,06,1","08,1,+06000,1,04,1",,"08,99,1,04,1,08,1,00450,1,07,1,99,9",,,,,"99999,9,09857,1","7,1,040,1,+999,9","21,1","0200,5",,"SYN106AAXX  27091 08544 41460 81812 10150 20140 39857 49877 57040 72162 8487/ 333 83812 83620 88470 91020 91120;",
"08544099999","2010-02-27T12:00:00","4","40.9166666","-8.6333333","22.0","OVAR MACEDA, PO","FM-12","99999","V020","180,1,N,0100,1","00600,1,9,N","005000,1,N,1","+0164,1","+0138,1","09826,1","06,0099,9,1","6,1,06,1","2,1,06,1","03,1,+00360,1,08,1","05,1,+00600,1,06,1","07,1,+02100,1,04,1",,"08,99,1,07,1,08,1,00450,1,07,1,99,9",,,,,"99999,9,09807,1","7,1,050,1,+999,9","61,1","0160,5","4,99,0200,9,999","SYN134AAXX  27121 08544 11450 81810 10164 20138 39807 49826 57050 60101 76162 8787/ 333 83812 85620 87457 91016 91120 96010 555 50234 60017;",
"08544099999","2010-02-27T15:00:00","4","40.9166666","-8.6333333","22.0","OVAR MACEDA, PO","FM-12","99999","V020","200,1,N,0130,1","00360,1,9,N","004000,1,N,1","+0176,1","+0144,1","09773,1",,"6,1,03,1","2,1,03,1","05,1,+00360,1,08,1","05,1,+00600,1,06,1","07,1,+02100,1,04,1",,"08,99,1,07,1,08,1,00450,1,07,1,99,9",,,,,"99999,9,09754,1","7,1,053,1,+999,9","60,1","0230,5","4,99,0240,9,999","SYN122AAXX  27151 08544 41440 82013 10176 20144 39754 49773 57053 76062 8787/ 333 85812 85620 87457 91023 91124 96010 555 60017;",
"08544099999","2010-02-27T18:00:00","4","40.9166666","-8.6333333","22.0","OVAR MACEDA, PO","FM-12","99999","V020","290,1,N,0080,1","00360,1,9,N","004000,1,N,1","+0110,1","+0092,1","99999,9","12,0109,9,1","6,1,06,1","2,1,06,1","03,1,+00240,1,07,1","05,1,+00360,1,08,1","08,1,+02100,1,04,1",,"08,99,1,07,1,08,1,00250,1,02,1,99,9",,,,"120,M,+0176,1",,"2,1,033,1,+999,9","61,1","0190,5","4,99,0300,9,999","SYN134AAXX  27181 08544 11340 82908 10110 20092 39887 49907 52033 60112 76162 8782/ 333 10176 83708 85812 88457 91019 91130 96010 555 60017;","Q01+098873APOSP "
"08544099999","2010-02-28T06:00:00","4","40.9166666","-8.6333333","22.0","OVAR MACEDA, PO","FM-12","99999","V020","160,1,N,0020,1","00450,1,9,N","006000,1,N,1","+0084,1","+0076,1","10067,1","12,0041,9,1",,,"02,1,+00240,1,07,1","06,1,+00450,1,08,1",,,"07,99,1,07,1,02,1,00250,1,00,1,00,1","0000,9",,,"999,N,+0080,1","99999,9,10046,1","2,1,999,9,+999,9","10,1",,,"SYN122AAXX  28061 08544 11356 71602 10084 20076 30046 40067 52/// 60042 710// 87200 333 20080 50314 55000 82708 86815 555 60042;",
"08544099999","2010-02-28T09:00:00","4","40.9166666","-8.6333333","22.0","OVAR MACEDA, PO","FM-12","99999","V020","180,1,N,0040,1","00420,1,C,N","006000,1,N,1","+0100,1","+0073,1","10064,1",,"8,1,03,1","2,1,03,1","03,1,+00450,1,08,1","01,1,+00540,1,09,1",,,"07,99,1,06,1,09,1,00450,1,00,1,01,1",,,,,"99999,9,10043,1","5,1,003,1,+999,9","80,1",,,"SYN094AAXX  28091 08544 41456 71804 10100 20073 30043 40064 55003 78082 86901 333 83815 81918 84625;",
"08544099999","2010-02-28T12:00:00","4","40.9166666","-8.6333333","22.0","OVAR MACEDA, PO","FM-12","99999","V020","180,1,N,0050,1","00360,1,9,N","005000,1,N,1","+0102,1","+0087,1","10064,1","06,0041,9,1","8,1,06,1","2,1,06,1","02,1,+00240,1,07,1","04,1,+00360,1,08,1","02,1,+00450,1,09,1","08,1,+00600,1,06,1","08,99,1,08,1,09,1,00250,1,99,9,99,9",,,,,"99999,9,10044,1","8,1,001,1,+999,9","80,1","0100,5","4,99,0130,9,999","SYN140AAXX  28121 08544 11350 81805 10102 20087 30044 40064 58001 60041 78082 889// 333 82708 84812 82915 88620 91010 91113 96010 555 50094 60047;",
"08544099999","2010-02-28T15:00:00","4","40.9166666","-8.6333333","22.0","OVAR MACEDA, PO","FM-12","99999","V020","090,1,N,0020,1","00360,1,9,N","004000,1,N,1","+0090,1","+0082,1","10049,1",,"9,1,03,1","8,1,03,1","02,1,+00240,1,07,1","04,1,+00360,1,08,1","08,1,+00600,1,06,1",,"08,99,1,08,1,08,1,00250,1,99,9,99,9",,,,,"99999,9,10028,1","7,1,016,1,+999,9","60,1",,"4,99,0100,9,999","SYN106AAXX  28151 08544 41340 80902 10090 20082 30028 40049 57016 76098 888// 333 82708 84812 88620 91110 96010;",
"08544099999","2010-02-28T18:00:00","4","40.9166666","-8.6333333","22.0","OVAR MACEDA, PO","FM-12","99999","V020","150,1,N,0040,1","00360,1,9,N","003000,1,N,1","+0094,1","+0090,1","10039,1","12,0310,9,1","9,1,06,1","8,1,06,1","04,1,+00240,1,07,1","08,1,+00360,1,06,1",,,"08,99,1,08,1,05,1,00250,1,99,9,99,9",,,,"120,M,+0114,1","99999,9,10018,1","7,1,010,1,+999,9","61,1",,,"SYN116AAXX  28181 08544 11330 81504 10094 20090 30018 40039 57010 60312 76198 885// 333 10114 84708 88612 96010 555 60137;",
"08544099999","2010-03-01T06:00:00","4","40.9166666","-8.6333333","22.0","OVAR MACEDA, PO","FM-12","99999","V020","180,1,N,0040,1","00540,1,9,N","010000,1,N,1","+0088,1","+0076,1","10122,1","12,0071,9,1",,,"04,1,+00450,1,08,1","04,1,+00540,1,06,1",,,"06,99,1,06,1,08,1,00450,1,00,1,00,1","0036,9",,,"999,N,+0082,1","99999,9,10101,1","2,1,010,1,+999,9","00,1",,,"SYN122AAXX  01061 08544 11460 61804 10088 20076 30101 40122 52010 60072 700// 86800 333 20082 50104 55006 84815 84618 555 60072;",
"08544099999","2010-03-01T09:00:00","4","40.9166666","-8.6333333","22.0","OVAR MACEDA, PO","FM-12","99999","V020","160,1,N,0050,1","00420,1,C,N","010000,1,N,1","+0104,1","+0085,1","10138,1",,"8,1,03,1","2,1,03,1","01,1,+00420,1,09,1",,,,"06,99,1,06,1,03,1,00450,1,00,1,00,1",,,,,"99999,9,10117,1","2,1,016,1,+999,9","80,1",,,"SYN088AAXX  01091 08544 42460 61605 10104 20085 30117 40138 52016 78082 86300 333 81914 84815;",
"08544099999","2010-03-01T12:00:00","4","40.9166666","-8.6333333","22.0","OVAR MACEDA, PO","FM-12","99999","V020","220,1,N,0060,1","22000,1,9,N","010000,1,N,1","+0142,1","+0095,1","10166,1","06,0000,2,1","8,1,06,1","2,1,06,1","04,1,+00450,1,08,1",,,,"05,99,1,04,1,08,1,00450,1,00,1,01,1",,,,,"99999,9,10146,1","3,1,029,1,+999,9","02,1","0100,5",,"SYN116AAXX  01121 08544 11460 52206 10142 20095 30146 40166 53029 69901 70282 84801 333 84815 91010 91110 555 50354 60007;",
"08544099999","2010-03-01T15:00:00","4","40.9166666","-8.6333333","22.0","OVAR MACEDA, PO","FM-12","99999","V020","220,1,N,0050,1","06000,1,9,N","010000,1,N,1","+0148,1","+0086,1","10164,1",,,,"03,1,+00540,1,08,1","04,1,+06000,1,00,1",,,"06,99,1,03,1,08,1,00450,1,00,1,01,1",,,,,"99999,9,10143,1","8,1,003,1,+999,9",,,,"SYN088AAXX  01151 08544 42460 62205 10148 20086 30143 40164 58003 83801 333 83818 84070 91113;",
"08544099999","2010-03-01T18:00:00","4","40.9166666","-8.6333333","22.0","OVAR MACEDA, PO","FM-12","99999","V020","210,1,N,0020,1","06000,1,9,N","010000,1,N,1","+0142,1","+0083,1","10165,1","12,0000,2,1",,,"01,1,+00540,1,08,1","06,1,+06000,1,00,1",,,"07,99,1,01,1,08,1,00450,1,00,1,01,1",,,,"120,M,+0156,1","99999,9,10144,1","1,1,001,1,+999,9",,,,"SYN104AAXX  01181 08544 12460 72102 10142 20083 30144 40165 51001 69902 81801 333 10156 81818 86070 555 60007;",
"08544099999","2010-03-02T06:00:00","4","40.9166666","-8.6333333","22.0","OVAR MACEDA, PO","FM-12","99999","V020","999,9,C,0000,1","06000,1,9,N","010000,1,N,1","+0052,1","+0048,1","10085,1",,,,"02,1,+02400,1,03,1","06,1,+06000,1,00,1",,,"06,99,1,02,1,00,1,02250,1,03,1,01,1","0534,9",,,"999,N,+0052,1","99999,9,10064,1","7,1,036,1,+999,9","00,1",,,"SYN116AAXX  02061 08544 31860 60000 10052 20048 30064 40085 57036 700// 82031 333 20052 50214 55089 82358 86070 555 60002;",
"08544099999","2010-03-02T09:00:00","4","40.9166666","-8.6333333","22.0","OVAR MACEDA, PO","FM-12","99999","V020","090,1,N,0020,1","03600,1,C,N","010000,1,N,1","+0082,1","+0058,1","10079,1",,,,"01,1,+00900,1,06,1",,,,"07,99,1,01,1,05,1,00800,1,03,1,01,1",,,,,"99999,9,10058,1","7,1,006,1,+999,9",,,,"SYN082AAXX  02091 08544 42560 70902 10082 20058 30058 40079 57006 81531 333 81630 87070;",
"08544099999","2010-03-02T12:00:00","4","40.9166666","-8.6333333","22.0","OVAR MACEDA, PO","FM-12","99999","V020","130,1,N,0040,1","06000,1,9,N","010000,1,N,1","+0182,1","+0070,1","10055,1",,,,"01,1,+00450,1,08,1","03,1,+02400,1,03,1","05,1,+06000,1,00,1",,"06,99,1,01,1,02,1,00450,1,03,1,01,1",,,,,"99999,9,10035,1","7,1,023,1,+999,9",,,,"SYN104AAXX  02120 08544 32460 61304 10182 20070 30035 40055 57023 81231 333 81815 83358 85070 555 50004 60007;",
"08544099999","2010-03-02T15:00:00","4","40.9166666","-8.6333333","22.0","OVAR MACEDA, PO","FM-12","99999","V020","160,1,N,0050,1","06000,1,9,N","010000,1,N,1","+0192,1","+0062,1","10031,1",,,,"01,1,+00540,1,08,1","03,1,+01800,1,03,1","06,1,+06000,1,00,1",,"07,99,1,01,1,02,1,00450,1,03,1,01,1",,,,,"99999,9,10011,1","7,1,024,1,+999,9",,"0150,5",,"SYN100AAXX  02151 08544 42460 71605 10192 20062 30011 40031 57024 81231 333 81818 83356 86070 91015 91115;",
"08544099999","2010-03-02T18:00:00","4","40.9166666","-8.6333333","22.0","OVAR MACEDA, PO","FM-12","99999","V020","060,1,N,0060,1","00600,1,9,N","007000,1,N,1","+0134,1","+0082,1","10027,1","12,0005,9,1","6,1,06,1","2,1,06,1","05,1,+00600,1,08,1","03,1,+01800,1,03,1","06,1,+06000,1,00,1",,"07,99,1,05,1,02,1,00450,1,07,1,02,1",,,,"120,M,+0194,1","99999,9,10006,1","3,1,005,1,+999,9","60,1","0120,5",,"SYN128AAXX  02181 08544 11457 70606 10134 20082 30006 40027 53005 69962 76062 85272 333 10194 85820 83356 86070 91012 91112 555 69967;",
"08544099999","2010-03-03T06:00:00","4","40.9166666","-8.6333333","22.0","OVAR MACEDA, PO","FM-12","99999","V020","130,1,N,0020,1","01800,1,9,N","010000,1,N,1","+0112,1","+0082,1","10023,1","12,0041,9,1",,,"03,1,+00900,1,08,1","06,1,+01800,1,03,1",,,"07,99,1,03,1,02,1,00800,1,03,1,00,1","0150,9",,,"999,N,+0100,1","99999,9,10003,1","7,1,003,1,+999,9","10,1",,,"SYN122AAXX  03061 08544 11560 71302 10112 20082 30003 40023 57003 60042 710// 83230 333 20100 50374 55025 83830 86356 555 60042;",
"08544099999","2010-03-03T09:00:00","4","40.9166666","-8.6333333","22.0","OVAR MACEDA, PO","FM-12","99999","V020","140,1,N,0030,1","01800,1,C,N","010000,1,N,1","+0132,1","+0084,1","10040,1",,,,"03,1,+00900,1,08,1","03,1,+01800,1,03,1",,,"06,99,1,03,1,02,1,00800,1,03,1,01,1",,,,,"99999,9,10019,1","2,1,016,1,+999,9",,,,"SYN088AAXX  03091 08544 42560 61403 10132 20084 30019 40040 52016 83231 333 83830 83356 83070;",
"08544099999","2010-03-03T12:00:00","4","40.9166666","-8.6333333","22.0","OVAR MACEDA, PO","FM-12","99999","V020","160,1,N,0050,1","02400,1,9,N","010000,1,N,1","+0174,1","+0080,1","10049,1",,,,"03,1,+00600,1,08,1","03,1,+02400,1,03,1","05,1,+06000,1,00,1",,"06,99,1,03,1,02,1,00800,1,07,1,04,1",,,,,"99999,9,10029,1","2,1,010,1,+999,9",,"0100,5",,"SYN116AAXX  03121 08544 32560 61605 10174 20080 30029 40049 52010 83274 333 83820 83358 85070 91010 91110 555 50044 60007;",
"08544099999","2010-03-03T15:00:00","4","40.9166666","-8.6333333","22.0","OVAR MACEDA, PO","FM-12","99999","V020","010,1,N,0040,1","01200,1,C,N","010000,1,N,1","+0158,1","+0094,1","10049,1",,,,"03,1,+00600,1,08,1",,,,"07,99,1,06,1,08,1,00800,1,03,1,01,1",,,,,"99999,9,10029,1","5,1,000,1,+999,9",,,,"SYN082AAXX  03151 08544 42560 70104 10158 20094 30029 40049 55000 86831 333 83820 84630;",
"08544099999","2010-03-03T18:00:00","4","40.9166666","-8.6333333","22.0","OVAR MACEDA, PO","FM-12","99999","V020","010,1,N,0050,1","01200,1,C,N","010000,1,N,1","+0148,1","+0094,1","10064,1",,,,"02,1,+00600,1,08,1","03,1,+01200,1,06,1",,,"07,99,1,04,1,08,1,00800,1,03,1,04,1",,,,"120,M,+0182,1","99999,9,10044,1","2,1,015,1,+999,9",,,,"SYN098AAXX  03181 08544 32560 70105 10148 20094 30044 40064 52015 84834 333 10182 82820 83640 555 60007;",
"08544099999","2010-03-04T06:00:00","4","40.9166666","-8.6333333","22.0","OVAR MACEDA, PO","FM-12","99999","V020","180,1,N,0020,1","00450,1,9,N","007000,1,N,1","+0084,1","+0076,1","10135,1",,,,"03,1,+00180,1,07,1","05,1,+00450,1,08,1",,,"07,99,1,07,1,02,1,00150,1,00,1,00,1","0354,9",,,"999,N,+0050,1","99999,9,10115,1","2,1,031,1,+999,9","10,1",,,"SYN116AAXX  04061 08544 31257 71802 10084 20076 30115 40135 52031 710// 87200 333 20050 50304 55059 83706 85815 555 60002;",
"08544099999","2010-03-04T09:00:00","4","40.9166666","-8.6333333","22.0","OVAR MACEDA, PO","FM-12","99999","V020","170,1,N,0020,1","22000,1,C,N","008000,1,N,1","+0110,1","+0103,1","10150,1",,"2,1,03,1","2,1,03,1","01,1,+00600,1,08,1",,,,"05,99,1,02,1,08,1,00800,1,00,1,04,1",,,,,"99999,9,10129,1","2,1,014,1,+999,9","10,1",,,"SYN088AAXX  04091 08544 42558 51702 10110 20103 30129 40150 52014 71022 82804 333 81820 84070;",
"08544099999","2010-03-04T12:00:00","4","40.9166666","-8.6333333","22.0","OVAR MACEDA, PO","FM-12","99999","V020","230,1,N,0030,1","00900,1,9,N","010000,1,N,1","+0154,1","+0097,1","10161,1",,,,"03,1,+00600,1,08,1","04,1,+00900,1,06,1",,,"06,99,1,05,1,08,1,00800,1,00,1,01,1",,,,,"99999,9,10141,1","2,1,012,1,+999,9",,,,"SYN098AAXX  04121 08544 32560 62303 10154 20097 30141 40161 52012 85801 333 83820 84630 555 50004 60007;",
"08544099999","2010-03-04T15:00:00","4","40.9166666","-8.6333333","22.0","OVAR MACEDA, PO","FM-12","99999","V020","260,1,N,0030,1","22000,1,C,N","010000,1,N,1","+0150,1","+0108,1","10149,1",,,,"03,1,+00540,1,08,1",,,,"07,99,1,04,1,08,1,00450,1,00,1,04,1",,,,,"99999,9,10128,1","8,1,013,1,+999,9",,,,"SYN082AAXX  04151 08544 42460 72603 10150 20108 30128 40149 58013 84804 333 83818 87070;",
"08544099999","2010-03-04T18:00:00","4","40.9166666","-8.6333333","22.0","OVAR MACEDA, PO","FM-12","99999","V020","260,1,N,0010,1","06000,1,9,N","010000,1,N,1","+0138,1","+0117,1","10148,1",,,,"01,1,+00450,1,08,1","03,1,+03000,1,03,1","07,1,+06000,1,02,1",,"07,99,1,01,1,02,1,00450,1,03,1,06,1",,,,"120,M,+0158,1","99999,9,10128,1","5,1,000,1,+999,9",,,,"SYN104AAXX  04181 08544 32460 72601 10138 20117 30128 40148 55000 81236 333 10158 81815 83360 87270 555 60007;",
"08544099999","2010-03-05T06:00:00","4","40.9166666","-8.6333333","22.0","OVAR MACEDA, PO","FM-12","99999","V020","999,9,C,0000,1","02400,1,9,N","010000,1,N,1","+0102,1","+0095,1","10112,1",,,,"03,1,+01200,1,06,1","07,1,+02400,1,03,1",,,"08,99,1,03,1,05,1,01250,1,07,1,99,9","0294,9",,,"999,N,+0098,1","99999,9,10092,1","7,1,012,1,+999,9","00,1",,,"SYN116AAXX  05061 08544 31660 80000 10102 20095 30092 40112 57012 700// 8357/ 333 20098 50114 55049 83640 87358 555 60002;",
"08544099999","2010-03-05T09:00:00","4","40.9166666","-8.6333333","22.0","OVAR MACEDA, PO","FM-12","99999","V020","060,1,N,0020,1","02100,1,9,N","004000,1,N,1","+0108,1","+0101,1","10115,1",,"6,1,03,1","2,1,03,1","01,1,+00600,1,08,1","03,1,+00900,1,06,1","08,1,+02100,1,04,1",,"08,99,1,03,1,08,1,00800,1,07,1,99,9",,,,,"99999,9,10094,1","0,1,002,1,+999,9","61,1",,,"SYN100AAXX  05091 08544 41540 80602 10108 20101 30094 40115 50002 76162 8387/ 333 81820 83630 88457 96010;",
"08544099999","2010-03-05T12:00:00","4","40.9166666","-8.6333333","22.0","OVAR MACEDA, PO","FM-12","99999","V020","070,1,N,0040,1","00900,1,9,N","005000,1,N,1","+0110,1","+0092,1","10110,1","06,0041,9,1","6,1,06,1","2,1,06,1","02,1,+00600,1,08,1","05,1,+00900,1,06,1","08,1,+02100,1,04,1",,"08,99,1,06,1,08,1,00450,1,02,1,99,9",,,,,"99999,9,10089,1","8,1,005,1,+999,9","61,1",,,"SYN122AAXX  05121 08544 11450 80704 10110 20092 30089 40110 58005 60041 76162 8682/ 333 82820 85630 88457 96010 555 50044 60027;",
"08544099999","2010-03-05T15:00:00","4","40.9166666","-8.6333333","22.0","OVAR MACEDA, PO","FM-12","99999","V020","070,1,N,0040,1","00900,1,9,N","004000,1,N,1","+0098,1","+0079,1","10093,1",,"6,1,03,1","6,1,03,1","03,1,+00600,1,08,1","05,1,+00900,1,06,1","08,1,+02100,1,04,1",,"08,99,1,06,1,08,1,00450,1,02,1,99,9",,,,,"99999,9,10072,1","7,1,017,1,+999,9","61,1",,,"SYN100AAXX  05151 08544 41440 80704 10098 20079 30072 40093 57017 76166 8682/ 333 83820 85630 88457 96010;",
"08544099999","2010-03-05T18:00:00","4","40.9166666","-8.6333333","22.0","OVAR MACEDA, PO","FM-12","99999","V020","080,1,N,0040,1","00900,1,9,N","005000,1,N,1","+0094,1","+0071,1","10080,1","12,0099,9,1","6,1,06,1","6,1,06,1","02,1,+00600,1,08,1","05,1,+00900,1,06,1","08,1,+02100,1,04,1",,"08,99,1,06,1,08,1,00450,1,02,1,99,9",,,,"120,M,+0116,1","99999,9,10060,1","7,1,012,1,+999,9","61,1",,"4,99,0090,9,999","SYN128AAXX  05181 08544 11450 80804 10094 20071 30060 40080 57012 60102 76166 8682/ 333 10116 82820 85630 88457 91109 96010 555 60027;",
"08544099999","2010-03-06T06:00:00","4","40.9166666","-8.6333333","22.0","OVAR MACEDA, PO","FM-12","99999","V020","080,1,N,0020,1","00900,1,9,N","010000,1,N,1","+0096,1","+0073,1","10050,1","12,0030,9,1",,,"02,1,+00600,1,08,1","06,1,+00900,1,06,1",,,"07,99,1,07,1,08,1,00450,1,00,1,00,1","0000,9",,,"999,N,+0094,1","99999,9,10029,1","7,1,012,1,+999,9","00,1",,,"SYN122AAXX  06061 08544 11460 70802 10096 20073 30029 40050 57012 60032 700// 87800 333 20094 50164 55000 82820 86630 555 60032;",
"08544099999","2010-03-06T09:00:00","4","40.9166666","-8.6333333","22.0","OVAR MACEDA, PO","FM-12","99999","V020","070,1,N,0030,1","00900,1,9,N","010000,1,N,1","+0114,1","+0068,1","10060,1",,"8,1,03,1","2,1,03,1","06,1,+00900,1,06,1",,,,"06,99,1,06,1,05,1,00800,1,00,1,00,1",,,,,"99999,9,10039,1","2,1,010,1,+999,9","02,1",,,"SYN082AAXX  06091 08544 41560 60703 10114 20068 30039 40060 52010 70282 86500 333 86630;",
"08544099999","2010-03-06T12:00:00","4","40.9166666","-8.6333333","22.0","OVAR MACEDA, PO","FM-12","99999","V020","100,1,N,0030,1","03600,1,9,N","010000,1,N,1","+0156,1","+0083,1","10061,1","06,0000,9,1","8,1,06,1","2,1,06,1","01,1,+00750,1,08,1","03,1,+01050,1,06,1",,,"07,99,1,03,1,08,1,00800,1,07,1,01,1",,,,,"99999,9,10041,1","3,1,002,1,+999,9","02,1",,,"SYN110AAXX  06121 08544 11560 71003 10156 20083 30041 40061 53002 69911 70282 83871 333 81825 83635 555 50094 60007;","Q01  00002PRCP06"
"08544099999","2010-03-06T15:00:00","4","40.9166666","-8.6333333","22.0","OVAR MACEDA, PO","FM-12","99999","V020","090,1,N,0020,1","03600,1,C,N","010000,1,N,1","+0162,1","+0078,1","10058,1",,,,"01,1,+00750,1,08,1","03,1,+01200,1,06,1",,,"08,99,1,01,1,08,1,00800,1,07,1,99,9",,,,,"99999,9,10038,1","5,1,003,1,+999,9",,,,"SYN088AAXX  06151 08544 42560 80902 10162 20078 30038 40058 55003 8187/ 333 81825 83640 86359;",
"08544099999","2010-03-06T18:00:00","4","40.9166666","-8.6333333","22.0","OVAR MACEDA, PO","FM-12","99999","V020","060,1,N,0020,1","02400,1,9,N","009000,1,N,1","+0138,1","+0106,1","10075,1","12,0005,9,1","6,1,06,1","2,1,06,1","03,1,+00750,1,08,1","07,1,+02400,1,03,1",,,"07,99,1,03,1,02,1,00800,1,07,1,00,1",,,,"120,M,+0174,1","99999,9,10055,1","2,1,017,1,+999,9","60,1",,,"SYN110AAXX  06181 08544 11559 70602 10138 20106 30055 40075 52017 69942 76062 83270 333 10174 83825 87358 555 69937;",
"08544099999","2010-03-07T06:00:00","4","40.9166666","-8.6333333","22.0","OVAR MACEDA, PO","FM-12","99999","V020","999,9,C,0000,1","02100,1,9,N","010000,1,N,1","+0110,1","+0103,1","10093,1","12,0000,2,1",,,"03,1,+00360,1,08,1","04,1,+00600,1,06,1","07,1,+02100,1,03,1",,"08,99,1,04,1,08,1,00800,1,07,1,99,9","0150,9",,,"999,N,+0110,1","99999,9,10073,1","1,1,005,1,+999,9","00,1",,,"SYN128AAXX  07061 08544 11560 80000 10110 20103 30073 40093 51005 69912 700// 8487/ 333 20110 50204 55025 83812 84620 87357 555 69912;",
"08544099999","2010-03-07T09:00:00","4","40.9166666","-8.6333333","22.0","OVAR MACEDA, PO","FM-12","99999","V020","160,1,N,0010,1","00450,1,9,N","005000,1,N,1","+0110,1","+0103,1","10110,1",,"6,1,03,1","5,1,03,1","04,1,+00240,1,07,1","05,1,+00450,1,08,1","07,1,+02100,1,03,1",,"08,99,1,05,1,02,1,00250,1,07,1,99,9",,,,,"99999,9,10089,1","2,1,016,1,+999,9","58,1",,,"SYN100AAXX  07091 08544 41350 81601 10110 20103 30089 40110 52016 75865 8527/ 333 84708 85815 87357 96010;",
"08544099999","2010-03-07T12:00:00","4","40.9166666","-8.6333333","22.0","OVAR MACEDA, PO","FM-12","99999","V020","180,1,N,0030,1","00240,1,9,N","008000,1,N,1","+0118,1","+0111,1","10105,1","06,0008,9,1","6,1,06,1","2,1,06,1","02,1,+00150,1,07,1","03,1,+00240,1,07,1","05,1,+00450,1,08,1",,"08,99,1,06,1,02,1,00250,1,07,1,99,9",,,,,"99999,9,10084,1","8,1,005,1,+999,9","10,1",,,"SYN116AAXX  07121 08544 11358 81803 10118 20111 30084 40105 58005 69971 71062 8627/ 333 82705 83708 85815 555 50014 69957;",
"08544099999","2010-03-07T15:00:00","4","40.9166666","-8.6333333","22.0","OVAR MACEDA, PO","FM-12","99999","V020","230,1,N,0030,1","00900,1,9,N","010000,1,N,1","+0148,1","+0128,1","10099,1",,"6,1,03,1","2,1,03,1","03,1,+00540,1,08,1","04,1,+00900,1,06,1","05,1,+02100,1,03,1",,"07,99,1,05,1,08,1,00450,1,07,1,00,1",,,,,"99999,9,10078,1","6,1,006,1,+999,9","01,1",,,"SYN104AAXX  07151 08544 41460 72303 10148 20128 30078 40099 56006 70162 85870 333 83818 84630 85357 555 69917;",
"08544099999","2010-03-07T18:00:00","4","40.9166666","-8.6333333","22.0","OVAR MACEDA, PO","FM-12","99999","V020","310,1,N,0030,1","00900,1,9,N","010000,1,N,1","+0140,1","+0122,1","10095,1","12,0008,9,1","6,1,06,1","2,1,06,1","03,1,+00450,1,08,1","01,1,+00600,1,09,1","05,1,+00900,1,06,1",,"06,99,1,06,1,03,1,00450,1,00,1,00,1",,,,"120,M,+0152,1","99999,9,10075,1","5,1,002,1,+999,9","02,1",,,"SYN116AAXX  07181 08544 11460 63103 10140 20122 30075 40095 55002 69982 70262 86300 333 10152 83815 81920 85630 555 60007;",
"08544099999","2010-03-08T06:00:00","4","40.9166666","-8.6333333","22.0","OVAR MACEDA, PO","FM-12","99999","V020","999,9,C,0000,1","00450,1,9,N","005000,1,N,1","+0090,1","+0082,1","10097,1","12,0000,9,1",,,"02,1,+00240,1,07,1","03,1,+00450,1,08,1","06,1,+00960,1,06,1",,"07,99,1,07,1,08,1,00250,1,99,9,99,9","0024,9",,,"999,N,+0084,1","99999,9,10076,1","8,1,002,1,+999,9","10,1",,,"SYN128AAXX  08061 08544 11350 70000 10090 20082 30076 40097 58002 69902 710// 878// 333 20084 50054 55004 82708 83815 86632 555 69902;","Q01  00002PRCP12"
"08544099999","2010-03-08T09:00:00","4","40.9166666","-8.6333333","22.0","OVAR MACEDA, PO","FM-12","99999","V020","100,1,N,0020,1","00900,1,9,N","010000,1,N,1","+0090,1","+0062,1","10100,1",,,,"03,1,+00450,1,08,1",,,,"08,99,1,08,1,08,1,00450,1,99,9,99,9",,,,,"99999,9,10080,1","0,1,004,1,+999,9",,,,"SYN082AAXX  08091 08544 42460 81002 10090 20062 30080 40100 50004 888// 333 83815 87630;",
"08544099999","2010-03-08T12:00:00","4","40.9166666","-8.6333333","22.0","OVAR MACEDA, PO","FM-12","99999","V020","120,1,N,0020,1","00900,1,9,N","010000,1,N,1","+0108,1","+0061,1","10097,1",,,,"02,1,+00450,1,08,1","07,1,+00900,1,06,1",,,"08,99,1,08,1,08,1,00450,1,99,9,99,9",,,,,"99999,9,10077,1","8,1,003,1,+999,9",,,,"SYN098AAXX  08121 08544 32460 81202 10108 20061 30077 40097 58003 888// 333 82815 87630 555 59914 60007;",
"08544099999","2010-03-08T15:00:00","4","40.9166666","-8.6333333","22.0","OVAR MACEDA, PO","FM-12","99999","V020","160,1,N,0020,1","00900,1,9,N","010000,1,N,1","+0124,1","+0066,1","10061,1",,,,"01,1,+00450,1,08,1","06,1,+00900,1,06,1","07,1,+06000,1,00,1",,"08,99,1,06,1,08,1,00450,1,03,1,04,1",,,,,"99999,9,10041,1","7,1,036,1,+999,9",,,,"SYN098AAXX  08151 08544 42460 81602 10124 20066 30041 40061 57036 86834 333 81815 86630 87070 555 60007;",
"08544099999","2010-03-08T18:00:00","4","40.9166666","-8.6333333","22.0","OVAR MACEDA, PO","FM-12","99999","V020","060,1,N,0020,1","00900,1,9,N","010000,1,N,1","+0106,1","+0035,1","10046,1",,,,"05,1,+00900,1,06,1","07,1,+02100,1,03,1",,,"08,99,1,05,1,05,1,00800,1,07,1,99,9",,,,"120,M,+0126,1","99999,9,10025,1","5,1,016,1,+999,9",,,,"SYN098AAXX  08181 08544 32560 80602 10106 20035 30025 40046 55016 8557/ 333 10126 85630 87357 555 60007;",
"08544099999","2010-03-09T06:00:00","4","40.9166666","-8.6333333","22.0","OVAR MACEDA, PO","FM-12","99999","V020","020,1,N,0030,1","22000,1,9,N","010000,1,N,1","+0006,1","-0020,1","10117,1","12,0000,9,1",,,"00,1,+99999,9,99,9",,,,"00,99,1,00,1,00,1,99999,9,00,1,00,1","0000,9",,,"999,N,+0002,1","99999,9,10096,1","2,1,015,1,+999,9","00,1",,,"SYN104AAXX  09061 08544 11960 00203 10006 21020 30096 40117 52015 69902 700// 333 20002 50304 55000 555 69902;","Q01  00002PRCP12"
"08544099999","2010-03-09T09:00:00","4","40.9166666","-8.6333333","22.0","OVAR MACEDA, PO","FM-12","99999","V020","050,1,N,0030,1","22000,1,9,N","010000,1,N,1","+0066,1","-0005,1","10148,1",,,,"00,1,+99999,9,99,9",,,,"00,99,1,00,1,00,1,99999,9,00,1,00,1",,,,,"99999,9,10127,1","2,1,031,1,+999,9",,,,"SYN060AAXX  09091 08544 42960 00503 10066 21005 30127 40148 52031;",
"08544099999","2010-03-09T12:00:00","4","40.9166666","-8.6333333","22.0","OVAR MACEDA, PO","FM-12","99999","V020","030,1,N,0020,1","22000,1,9,N","010000,1,N,1","+0118,1","+0003,1","10153,1",,,,"02,1,+08400,1,00,1",,,,"02,99,1,00,1,00,1,99999,9,00,1,04,1",,,,,"99999,9,10132,1","0,1,005,1,+999,9",,,,"SYN092AAXX  09121 08544 32960 20302 10118 20003 30132 40153 50005 80004 333 82078 555 50004 60007;",
"08544099999","2010-03-09T15:00:00","4","40.9166666","-8.6333333","22.0","OVAR MACEDA, PO","FM-12","99999","V020","350,1,N,0060,1","22000,1,9,N","010000,1,N,1","+0124,1","+0033,1","10154,1",,,,"02,1,+08400,1,00,1",,,,"02,99,1,00,1,00,1,99999,9,00,1,01,1",,,,,"99999,9,10134,1","3,1,002,1,+999,9",,"0110,5",,"SYN088AAXX  09151 08544 42960 23506 10124 20033 30134 40154 53002 80001 333 82078 91011 91111;",
"08544099999","2010-03-09T18:00:00","4","40.9166666","-8.6333333","22.0","OVAR MACEDA, PO","FM-12","99999","V020","360,1,N,0050,1","22000,1,9,N","010000,1,N,1","+0104,1","+0033,1","10158,1",,,,"02,1,+08400,1,00,1",,,,"02,99,1,00,1,00,1,99999,9,00,1,04,1",,,,"120,M,+0136,1","99999,9,10137,1","3,1,003,1,+999,9",,,"4,99,0110,9,999","SYN098AAXX  09181 08544 32960 23605 10104 20033 30137 40158 53003 80004 333 10136 82078 91111 555 60007;",
"08544099999","2010-03-10T06:00:00","4","40.9166666","-8.6333333","22.0","OVAR MACEDA, PO","FM-12","99999","V020","999,9,C,0000,1","22000,1,9,N","008000,1,N,1","+0006,1","+0001,1","10156,1",,,,"03,1,+07200,1,00,1",,,,"03,99,1,00,1,00,1,99999,9,00,1,01,1","0594,9",,,"999,N,+0000,1","99999,9,10135,1","8,1,003,1,+999,9","10,1",,,"SYN110AAXX  10061 08544 31958 30000 10006 20001 30135 40156 58003 710// 80001 333 20000 50344 55099 83074 555 60002;",
"08544099999","2010-03-10T09:00:00","4","40.9166666","-8.6333333","22.0","OVAR MACEDA, PO","FM-12","99999","V020","210,1,N,0010,1","22000,1,9,N","010000,1,N,1","+0050,1","+0028,1","10165,1",,,,"01,1,+02100,1,03,1",,,,"03,99,1,01,1,00,1,02250,1,03,1,01,1",,,,,"99999,9,10144,1","3,1,009,1,+999,9",,,,"SYN082AAXX  10091 08544 42860 32101 10050 20028 30144 40165 53009 81031 333 81357 83074;",
"08544099999","2010-03-10T12:00:00","4","40.9166666","-8.6333333","22.0","OVAR MACEDA, PO","FM-12","99999","V020","300,1,N,0030,1","22000,1,9,N","010000,1,N,1","+0128,1","+0017,1","10160,1",,,,"02,1,+02100,1,03,1","04,1,+07200,1,00,1",,,"04,99,1,02,1,00,1,02250,1,08,1,01,1",,,,,"99999,9,10140,1","7,1,004,1,+999,9",,,,"SYN098AAXX  10121 08544 32860 43003 10128 20017 30140 40160 57004 82081 333 82357 84074 555 50004 60007;",
"08544099999","2010-03-10T15:00:00","4","40.9166666","-8.6333333","22.0","OVAR MACEDA, PO","FM-12","99999","V020","330,1,N,0050,1","22000,1,C,N","010000,1,N,1","+0126,1","+0009,1","10147,1",,,,"03,1,+02100,1,03,1",,,,"06,99,1,03,1,00,1,02250,1,03,1,01,1",,,,,"99999,9,10126,1","7,1,014,1,+999,9",,,,"SYN082AAXX  10151 08544 42860 63305 10126 20009 30126 40147 57014 83031 333 83357 85074;",
"08544099999","2010-03-10T18:00:00","4","40.9166666","-8.6333333","22.0","OVAR MACEDA, PO","FM-12","99999","V020","360,1,N,0040,1","07200,1,9,N","010000,1,N,1","+0112,1","+0038,1","10138,1",,,,"03,1,+02100,1,03,1","05,1,+07200,1,00,1",,,"05,99,1,03,1,00,1,02250,1,08,1,01,1",,,,"120,M,+0142,1","99999,9,10117,1","6,1,009,1,+999,9",,,,"SYN098AAXX  10181 08544 32860 53604 10112 20038 30117 40138 56009 83081 333 10142 83357 85074 555 60007;",
"08544099999","2010-03-11T06:00:00","4","40.9166666","-8.6333333","22.0","OVAR MACEDA, PO","FM-12","99999","V020","190,1,N,0010,1","22000,1,9,N","010000,1,N,1","+0000,1","-0016,1","10132,1",,,,"00,1,+99999,9,99,9",,,,"00,99,1,00,1,00,1,99999,9,00,1,00,1","0570,9",,,"999,N,-0006,1","99999,9,10110,1","7,1,012,1,+999,9","00,1",,,"SYN098AAXX  11061 08544 31960 01901 10000 21016 30110 40132 57012 700// 333 21006 50254 55095 555 60002;",
"08544099999","2010-03-11T09:00:00","4","40.9166666","-8.6333333","22.0","OVAR MACEDA, PO","FM-12","99999","V020","080,1,N,0040,1","22000,1,9,N","010000,1,N,1","+0078,1","-0001,1","10140,1",,,,"01,1,+06600,1,00,1",,,,"01,99,1,00,1,00,1,99999,9,00,1,01,1",,,,,"99999,9,10119,1","3,1,009,1,+999,9",,,,"SYN076AAXX  11091 08544 42960 10804 10078 21001 30119 40140 53009 80001 333 81072;",
"08544099999","2010-03-11T12:00:00","4","40.9166666","-8.6333333","22.0","OVAR MACEDA, PO","FM-12","99999","V020","050,1,N,0020,1","22000,1,9,N","010000,1,N,1","+0138,1","+0015,1","10139,1",,,,"01,1,+00600,1,08,1",,,,"01,99,1,01,1,01,1,00800,1,00,1,01,1",,,,,"99999,9,10119,1","0,1,000,1,+999,9",,,,"SYN092AAXX  11121 08544 32560 10502 10138 20015 30119 40139 50000 81101 333 81820 555 50004 60007;",
"08544099999","2010-03-11T15:00:00","4","40.9166666","-8.6333333","22.0","OVAR MACEDA, PO","FM-12","99999","V020","050,1,N,0020,1","22000,1,9,N","010000,1,N,1","+0156,1","+0019,1","10125,1",,,,"01,1,+00750,1,08,1",,,,"02,99,1,01,1,01,1,00800,1,03,1,04,1",,,,,"99999,9,10105,1","7,1,014,1,+999,9",,,,"SYN076AAXX  11151 08544 42560 20502 10156 20019 30105 40125 57014 81134 333 81825;",
"08544099999","2010-03-11T18:00:00","4","40.9166666","-8.6333333","22.0","OVAR MACEDA, PO","FM-12","99999","V020","360,1,N,0060,1","06600,1,9,N","010000,1,N,1","+0132,1","+0049,1","10129,1",,,,"05,1,+06600,1,00,1",,,,"05,99,1,00,1,00,1,99999,9,00,1,01,1",,,,"120,M,+0158,1","99999,9,10109,1","3,1,004,1,+999,9",,,,"SYN092AAXX  11181 08544 32960 53606 10132 20049 30109 40129 53004 80001 333 10158 85072 555 60007;",
"08544099999","2010-03-12T06:00:00","4","40.9166666","-8.6333333","22.0","OVAR MACEDA, PO","FM-12","99999","V020","020,1,N,0010,1","22000,1,9,N","010000,1,N,1","+0026,1","-0009,1","10182,1",,,,"01,1,+06000,1,00,1",,,,"01,99,1,00,1,00,1,99999,9,00,1,01,1","0600,9",,,"999,N,+0026,1","99999,9,10160,1","2,1,014,1,+999,9","00,1",,,"SYN110AAXX  12061 08544 31960 10201 10026 21009 30160 40182 52014 700// 80001 333 20026 50444 55100 81070 555 60002;",
"08544099999","2010-03-12T09:00:00","4","40.9166666","-8.6333333","22.0","OVAR MACEDA, PO","FM-12","99999","V020","030,1,N,0010,1","22000,1,9,N","010000,1,N,1","+0058,1","+0012,1","10210,1",,,,"01,1,+06000,1,00,1",,,,"01,99,1,00,1,00,1,99999,9,00,1,01,1",,,,,"99999,9,10189,1","2,1,029,1,+999,9",,,,"SYN076AAXX  12091 08544 42960 10301 10058 20012 30189 40210 52029 80001 333 81070;",
"08544099999","2010-03-12T12:00:00","4","40.9166666","-8.6333333","22.0","OVAR MACEDA, PO","FM-12","99999","V020","020,1,N,0050,1","22000,1,9,N","010000,1,N,1","+0132,1","+0005,1","10204,1",,,,"01,1,+00600,1,08,1",,,,"01,99,1,01,1,02,1,00800,1,00,1,01,1",,,,,"99999,9,10183,1","0,1,006,1,+999,9",,,,"SYN092AAXX  12121 08544 32560 10205 10132 20005 30183 40204 50006 81201 333 81820 555 50004 60007;",
"08544099999","2010-03-12T15:00:00","4","40.9166666","-8.6333333","22.0","OVAR MACEDA, PO","FM-12","99999","V020","350,1,N,0080,1","22000,1,9,N","010000,1,N,1","+0124,1","+0022,1","10210,1",,,,"02,1,+00600,1,08,1",,,,"03,99,1,02,1,02,1,00800,1,00,1,01,1",,,,,"99999,9,10190,1","2,1,007,1,+999,9",,"0150,5",,"SYN088AAXX  12151 08544 42560 33508 10124 20022 30190 40210 52007 82201 333 82820 91015 91115;",
"08544099999","2010-03-12T18:00:00","4","40.9166666","-8.6333333","22.0","OVAR MACEDA, PO","FM-12","99999","V020","360,1,N,0050,1","22000,1,9,N","010000,1,N,1","+0118,1","+0030,1","10215,1",,,,"00,1,+99999,9,99,9",,,,"00,99,1,00,1,00,1,99999,9,00,1,00,1",,,,"120,M,+0134,1","99999,9,10194,1","3,1,004,1,+999,9",,"0110,5",,"SYN092AAXX  12181 08544 32960 03605 10118 20030 30194 40215 53004 333 10134 91011 91111 555 60007;",
"08544099999","2010-03-13T06:00:00","4","40.9166666","-8.6333333","22.0","OVAR MACEDA, PO","FM-12","99999","V020","999,9,C,0000,1","22000,1,9,N","010000,1,N,1","+0010,1","+0000,1","10244,1",,,,"00,1,+99999,9,99,9",,,,"00,99,1,00,1,00,1,99999,9,00,1,00,1","0630,9",,,"999,N,+0006,1","99999,9,10222,1","2,1,028,1,+999,9","00,1",,,"SYN098AAXX  13061 08544 31960 00000 10010 20000 30222 40244 52028 700// 333 20006 50324 55105 555 60002;",
"08544099999","2010-03-13T09:00:00","4","40.9166666","-8.6333333","22.0","OVAR MACEDA, PO","FM-12","99999","V020","020,1,N,0020,1","22000,1,9,N","010000,1,N,1","+0058,1","+0032,1","10273,1",,,,"00,1,+99999,9,99,9",,,,"00,99,1,00,1,00,1,99999,9,00,1,00,1",,,,,"99999,9,10252,1","2,1,030,1,+999,9",,,,"SYN060AAXX  13091 08544 42960 00202 10058 20032 30252 40273 52030;",
"08544099999","2010-03-13T12:00:00","4","40.9166666","-8.6333333","22.0","OVAR MACEDA, PO","FM-12","99999","V020","020,1,N,0030,1","22000,1,9,N","010000,1,N,1","+0130,1","+0013,1","10279,1",,,,"01,1,+00450,1,08,1",,,,"01,99,1,01,1,01,1,00450,1,00,1,00,1",,,,,"99999,9,10258,1","0,1,006,1,+999,9",,,,"SYN092AAXX  13121 08544 32460 10203 10130 20013 30258 40279 50006 81100 333 81815 555 50004 60007;",
"08544099999","2010-03-13T15:00:00","4","40.9166666","-8.6333333","22.0","OVAR MACEDA, PO","FM-12","99999","V020","350,1,N,0070,1","22000,1,9,N","010000,1,N,1","+0138,1","+0056,1","10269,1",,,,"01,1,+00450,1,08,1",,,,"01,99,1,01,1,01,1,00450,1,00,1,00,1",,,,,"99999,9,10249,1","7,1,009,1,+999,9",,"0120,5","4,99,0130,9,999","SYN098AAXX  13151 08544 42460 13507 10138 20056 30249 40269 57009 81100 333 81815 91012 91113 555 60007;",
"08544099999","2010-03-13T18:00:00","4","40.9166666","-8.6333333","22.0","OVAR MACEDA, PO","FM-12","99999","V020","360,1,N,0080,1","22000,1,9,N","010000,1,N,1","+0122,1","+0072,1","10258,1",,,,"01,1,+00450,1,08,1",,,,"01,99,1,01,1,01,1,00450,1,00,1,00,1",,,,"120,M,+0138,1","99999,9,10238,1","7,1,011,1,+999,9",,"0120,5","4,99,0140,9,999","SYN104AAXX  13181 08544 32460 13608 10122 20072 30238 40258 57011 81100 333 10138 81815 91012 91114 555 60007;",
"08544099999","2010-03-14T06:00:00","4","40.9166666","-8.6333333","22.0","OVAR MACEDA, PO","FM-12","99999","V020","050,1,N,0020,1","22000,1,9,N","010000,1,N,1","+0050,1","+0013,1","10280,1",,,,"00,1,+99999,9,99,9",,,,"00,99,1,00,1,00,1,99999,9,00,1,00,1","0612,9",,,"999,N,+0028,1","99999,9,10259,1","1,1,001,1,+999,9","00,1",,,"SYN098AAXX  14061 08544 31960 00502 10050 20013 30259 40280 51001 700// 333 20028 50374 55102 555 60002;",
"08544099999","2010-03-14T09:00:00","4","40.9166666","-8.6333333","22.0","OVAR MACEDA, PO","FM-12","99999","V020","050,1,N,0040,1","22000,1,9,N","010000,1,N,1","+0086,1","+0014,1","10296,1",,,,"01,1,+06600,1,00,1",,,,"01,99,1,00,1,00,1,99999,9,00,1,04,1",,,,,"99999,9,10275,1","3,1,016,1,+999,9",,,,"SYN076AAXX  14091 08544 42960 10504 10086 20014 30275 40296 53016 80004 333 81072;",
"08544099999","2010-03-14T12:00:00","4","40.9166666","-8.6333333","22.0","OVAR MACEDA, PO","FM-12","99999","V020","140,1,N,0040,1","22000,1,9,N","010000,1,N,1","+0146,1","+0064,1","10282,1",,,,"01,1,+06600,1,00,1",,,,"01,99,1,00,1,00,1,99999,9,00,1,01,1",,,,,"99999,9,10261,1","7,1,014,1,+999,9",,,,"SYN092AAXX  14121 08544 32960 11404 10146 20064 30261 40282 57014 80001 333 81072 555 50004 60007;",
"08544099999","2010-03-14T15:00:00","4","40.9166666","-8.6333333","22.0","OVAR MACEDA, PO","FM-12","99999","V020","020,1,N,0050,1","22000,1,9,N","010000,1,N,1","+0160,1","+0030,1","10261,1",,,,"01,1,+06600,1,00,1",,,,"01,99,1,00,1,00,1,99999,9,00,1,01,1",,,,,"99999,9,10241,1","7,1,020,1,+999,9",,"0200,5",,"SYN098AAXX  14151 08544 42960 10205 10160 20030 30241 40261 57020 80001 333 81072 91020 91120 555 60007;",
"08544099999","2010-03-14T18:00:00","4","40.9166666","-8.6333333","22.0","OVAR MACEDA, PO","FM-12","99999","V020","360,1,N,0060,1","22000,1,9,N","010000,1,N,1","+0118,1","+0049,1","10265,1",,,,"00,1,+99999,9,99,9",,,,"00,99,1,00,1,00,1,99999,9,00,1,00,1",,,,"120,M,+0166,1","99999,9,10244,1","2,1,003,1,+999,9",,"0100,5","4,99,0120,9,999","SYN092AAXX  14181 08544 32960 03606 10118 20049 30244 40265 52003 333 10166 91010 91112 555 60007;",
"08544099999","2010-03-15T06:00:00","4","40.9166666","-8.6333333","22.0","OVAR MACEDA, PO","FM-12","99999","V020","210,1,N,0010,1","22000,1,9,N","010000,1,N,1","+0008,1","-0002,1","10252,1",,,,"02,1,+07800,1,00,1",,,,"02,99,1,00,1,00,1,99999,9,00,1,01,1","0636,9",,,"999,N,+0008,1","99999,9,10231,1","7,1,003,1,+999,9","00,1",,,"SYN110AAXX  15061 08544 31960 22101 10008 21002 30231 40252 57003 700// 80001 333 20008 50384 55106 82076 555 60002;",
"08544099999","2010-03-15T09:00:00","4","40.9166666","-8.6333333","22.0","OVAR MACEDA, PO","FM-12","99999","V020","999,9,C,0000,1","07800,1,9,N","010000,1,N,1","+0094,1","+0044,1","10250,1",,,,"05,1,+07800,1,00,1",,,,"05,99,1,00,1,00,1,99999,9,00,1,01,1",,,,,"99999,9,10229,1","8,1,002,1,+999,9",,,,"SYN076AAXX  15091 08544 42960 50000 10094 20044 30229 40250 58002 80001 333 85076;",
"08544099999","2010-03-15T12:00:00","4","40.9166666","-8.6333333","22.0","OVAR MACEDA, PO","FM-12","99999","V020","310,1,N,0030,1","07200,1,9,N","010000,1,N,1","+0148,1","+0044,1","10253,1",,,,"05,1,+07200,1,00,1",,,,"05,99,1,00,1,00,1,99999,9,00,1,01,1",,,,,"99999,9,10233,1","0,1,004,1,+999,9",,,,"SYN092AAXX  15121 08544 32560 53103 10148 20044 30233 40253 50004 80001 333 85074 555 50004 60007;","Q01+008002SCOLCB"
"08544099999","2010-03-15T15:00:00","4","40.9166666","-8.6333333","22.0","OVAR MACEDA, PO","FM-12","99999","V020","340,1,N,0040,1","06600,1,9,N","010000,1,N,1","+0166,1","-0009,1","10232,1",,,,"06,1,+06600,1,00,1",,,,"06,99,1,00,1,00,1,99999,9,00,1,02,1",,,,,"99999,9,10211,1","7,1,022,1,+999,9",,,,"SYN076AAXX  15151 08544 42960 63404 10166 21009 30211 40232 57022 80002 333 86072;",
"08544099999","2010-03-15T18:00:00","4","40.9166666","-8.6333333","22.0","OVAR MACEDA, PO","FM-12","99999","V020","010,1,N,0040,1","06600,1,9,N","010000,1,N,1","+0150,1","+0003,1","10215,1",,,,"06,1,+06600,1,00,1",,,,"06,99,1,00,1,00,1,99999,9,00,1,01,1",,,,"120,M,+0170,1","99999,9,10194,1","7,1,017,1,+999,9",,,,"SYN092AAXX  15181 08544 32960 60104 10150 20003 30194 40215 57017 80001 333 10170 86072 555 60007;",
"08544099999","2010-03-16T06:00:00","4","40.9166666","-8.6333333","22.0","OVAR MACEDA, PO","FM-12","99999","V020","999,9,C,0000,1","22000,1,9,N","010000,1,N,1","+0022,1","+0008,1","10206,1",,,,"01,1,+01200,1,06,1",,,,"03,99,1,01,1,05,1,01250,1,00,1,01,1","0600,9",,,"999,N,+0022,1","99999,9,10184,1","7,1,008,1,+999,9","00,1",,,"SYN110AAXX  16061 08544 31660 30000 10022 20008 30184 40206 57008 700// 81501 333 20022 50354 55100 81640 555 60002;",
"08544099999","2010-03-16T09:00:00","4","40.9166666","-8.6333333","22.0","OVAR MACEDA, PO","FM-12","99999","V020","999,9,C,0000,1","99999,9,9,N","010000,1,N,1","+0074,1","+0035,1","10208,1",,,,"04,1,+02700,1,03,1",,,,"07,99,1,04,1,00,1,99999,9,07,1,01,1",,,,,"99999,9,10187,1","3,1,003,1,+999,9",,,,"SYN082AAXX  16091 08544 42960 70000 10074 20035 30187 40208 53003 84071 333 84359 83074;",
"08544099999","2010-03-16T12:00:00","4","40.9166666","-8.6333333","22.0","OVAR MACEDA, PO","FM-12","99999","V020","330,1,N,0020,1","00900,1,9,N","010000,1,N,1","+0150,1","+0088,1","10219,1",,,,"05,1,+00900,1,06,1","05,1,+01800,1,04,1","05,1,+07200,1,00,1",,"07,99,1,05,1,05,1,99999,9,07,1,01,1",,,,,"99999,9,10198,1","2,1,009,1,+999,9",,,,"SYN104AAXX  16121 08544 32960 73302 10150 20088 30198 40219 52009 85571 333 85630 85456 85074 555 50004 60007;",
"08544099999","2010-03-16T15:00:00","4","40.9166666","-8.6333333","22.0","OVAR MACEDA, PO","FM-12","99999","V020","340,1,N,0020,1","02100,1,9,N","010000,1,N,1","+0150,1","+0080,1","10216,1",,,,"04,1,+00900,1,06,1","05,1,+02100,1,03,1",,,"07,99,1,04,1,05,1,00800,1,07,1,01,1",,,,,"99999,9,10195,1","8,1,003,1,+999,9",,,,"SYN088AAXX  16151 08544 42560 73402 10150 20080 30195 40216 58003 84571 333 84630 85357 85074;",
"08544099999","2010-03-16T18:00:00","4","40.9166666","-8.6333333","22.0","OVAR MACEDA, PO","FM-12","99999","V020","230,1,N,0020,1","02100,1,9,N","010000,1,N,1","+0168,1","+0036,1","10210,1",,,,"02,1,+00810,1,06,1","04,1,+02100,1,03,1",,,"05,99,1,02,1,05,1,00800,1,07,1,01,1",,,,"120,M,+0168,1","99999,9,10190,1","5,1,005,1,+999,9",,,,"SYN098AAXX  16181 08544 32560 52302 10168 20036 30190 40210 55005 82571 333 10168 82627 84357 555 60007;",
"08544099999","2010-03-17T06:00:00","4","40.9166666","-8.6333333","22.0","OVAR MACEDA, PO","FM-12","99999","V020","070,1,N,0010,1","22000,1,9,N","010000,1,N,1","+0039,1","+0023,1","10224,1",,,,"03,1,+07200,1,00,1",,,,"03,99,1,00,1,00,1,99999,9,00,1,01,1","0132,9",,,"999,N,+0032,1","99999,9,10203,1","8,1,003,1,+999,9","00,1",,,"SYN110AAXX  17061 08544 31960 30701 10039 20023 30203 40224 58003 700// 80001 333 20032 50204 55022 83074 555 60002;",
"08544099999","2010-03-17T09:00:00","4","40.9166666","-8.6333333","22.0","OVAR MACEDA, PO","FM-12","99999","V020","999,9,C,0000,1","99999,9,9,N","010000,1,N,1","+0092,1","+0068,1","10229,1",,,,"02,1,+02700,1,03,1",,,,"05,99,1,02,1,00,1,99999,9,03,1,01,1",,,,,"99999,9,10208,1","0,1,005,1,+999,9",,,,"SYN082AAXX  17091 08544 42960 50000 10092 20068 30208 40229 50005 82031 333 82359 85074;",
"08544099999","2010-03-17T12:00:00","4","40.9166666","-8.6333333","22.0","OVAR MACEDA, PO","FM-12","99999","V020","220,1,N,0050,1","07200,1,9,N","010000,1,N,1","+0192,1","+0034,1","10222,1",,,,"02,1,+02700,1,03,1","06,1,+07200,1,00,1",,,"06,99,1,02,1,00,1,99999,9,03,1,01,1",,,,,"99999,9,10202,1","7,1,006,1,+999,9",,,,"SYN098AAXX  17121 08544 32960 62205 10192 20034 30202 40222 57006 82031 333 82359 86074 555 50004 60007;",
"08544099999","2010-03-17T15:00:00","4","40.9166666","-8.6333333","22.0","OVAR MACEDA, PO","FM-12","99999","V020","250,1,N,0030,1","07200,1,9,N","010000,1,N,1","+0178,1","+0079,1","10211,1",,"2,1,03,1","2,1,03,1","02,1,+02700,1,03,1","07,1,+07200,1,00,1",,,"07,99,1,02,1,00,1,99999,9,03,1,06,1",,,,,"99999,9,10191,1","7,1,011,1,+999,9","10,1",,,"SYN094AAXX  17151 08544 41960 72503 10178 20079 30191 40211 57011 71022 82036 333 82359 87074 91112;",
"08544099999","2010-03-17T18:00:00","4","40.9166666","-8.6333333","22.0","OVAR MACEDA, PO","FM-12","99999","V020","150,1,N,0010,1","07200,1,9,N","010000,1,N,1","+0156,1","+0091,1","10209,1",,"2,1,06,1","2,1,06,1","02,1,+02700,1,03,1","07,1,+07200,1,00,1",,,"07,99,1,02,1,00,1,99999,9,03,1,06,1",,,,"120,M,+0204,1","99999,9,10188,1","6,1,003,1,+999,9","10,1",,,"SYN104AAXX  17181 08544 31960 71501 10156 20091 30188 40209 56003 71022 82036 333 10204 82359 87074 555 60007;",
"08544099999","2010-03-18T06:00:00","4","40.9166666","-8.6333333","22.0","OVAR MACEDA, PO","FM-12","99999","V020","999,9,C,0000,1","02100,1,9,N","007000,1,N,1","+0126,1","+0116,1","10185,1","12,0010,9,1","6,1,06,1",,"03,1,+00660,1,08,1","07,1,+02100,1,04,1",,,"08,99,1,03,1,02,1,00800,1,07,1,99,9","0414,9",,,"999,N,+0110,1","99999,9,10164,1","7,1,016,1,+999,9","60,1",,,"SYN122AAXX  18061 08544 11557 80000 10126 20116 30164 40185 57016 60012 7606/ 8327/ 333 20110 50344 55069 83822 87457 555 60012;",
"08544099999","2010-03-18T09:00:00","4","40.9166666","-8.6333333","22.0","OVAR MACEDA, PO","FM-12","99999","V020","180,1,N,0050,1","03600,1,C,N","008000,1,N,1","+0160,1","+0100,1","10192,1",,"6,1,03,1","2,1,03,1","02,1,+00900,1,06,1",,,,"07,99,1,02,1,05,1,00800,1,07,1,00,1",,,,,"99999,9,10172,1","2,1,008,1,+999,9","10,1",,,"SYN088AAXX  18091 08544 41558 71805 10160 20100 30172 40192 52008 71062 82570 333 82630 86457;",
"08544099999","2010-03-18T12:00:00","4","40.9166666","-8.6333333","22.0","OVAR MACEDA, PO","FM-12","99999","V020","220,1,N,0060,1","22000,1,9,N","010000,1,N,1","+0188,1","+0124,1","10201,1",,,,"03,1,+00750,1,08,1",,,,"04,99,1,03,1,02,1,00800,1,03,1,04,1",,,,,"99999,9,10180,1","1,1,008,1,+999,9",,,,"SYN092AAXX  18121 08544 32560 42206 10188 20124 30180 40201 51008 83234 333 83825 555 50014 60007;",
"08544099999","2010-03-18T15:00:00","4","40.9166666","-8.6333333","22.0","OVAR MACEDA, PO","FM-12","99999","V020","220,1,N,0070,1","03600,1,C,N","010000,1,N,1","+0184,1","+0120,1","10197,1",,,,"03,1,+01050,1,06,1",,,,"07,99,1,03,1,05,1,01250,1,03,1,00,1",,,,,"99999,9,10177,1","8,1,003,1,+999,9",,,,"SYN082AAXX  18151 08544 42660 72207 10184 20120 30177 40197 58003 83530 333 83635 86357;",
"08544099999","2010-03-18T18:00:00","4","40.9166666","-8.6333333","22.0","OVAR MACEDA, PO","FM-12","99999","V020","190,1,N,0030,1","02100,1,9,N","007000,1,N,1","+0156,1","+0139,1","10201,1","12,0003,9,1","6,1,06,1","2,1,06,1","01,1,+00450,1,08,1","04,1,+00900,1,06,1","08,1,+02100,1,04,1",,"08,99,1,04,1,08,1,00450,1,07,1,99,9",,,,"120,M,+0194,1","99999,9,10181,1","1,1,004,1,+999,9","61,1",,,"SYN116AAXX  18181 08544 11457 81903 10156 20139 30181 40201 51004 69932 76162 8487/ 333 10194 81815 84630 88457 555 69937;",
"08544099999","2010-03-19T06:00:00","4","40.9166666","-8.6333333","22.0","OVAR MACEDA, PO","FM-12","99999","V020","180,1,N,0070,1","00900,1,9,N","008000,1,N,1","+0134,1","+0117,1","10174,1","12,0071,9,1","6,1,06,1",,"03,1,+00450,1,08,1","05,1,+00900,1,06,1","08,1,+02100,1,04,1",,"08,99,1,06,1,08,1,00450,1,07,1,99,9","0156,9",,,"999,N,+0134,1","99999,9,10153,1","7,1,009,1,+999,9","61,1","0120,5","4,99,0130,9,999","SYN140AAXX  19061 08544 11458 81807 10134 20117 30153 40174 57009 60072 7616/ 8687/ 333 20134 50344 55026 83815 85630 88457 91012 91113 555 60072;",
"08544099999","2010-03-19T09:00:00","4","40.9166666","-8.6333333","22.0","OVAR MACEDA, PO","FM-12","99999","V020","170,1,N,0050,1","00900,1,9,N","006000,1,N,1","+0134,1","+0127,1","10187,1",,"6,1,03,1","6,1,03,1","01,1,+00240,1,07,1","03,1,+00450,1,08,1","05,1,+00900,1,06,1",,"08,99,1,06,1,08,1,00250,1,07,1,99,9",,,,,"99999,9,10167,1","2,1,014,1,+999,9","61,1","0070,5","4,99,0120,9,999","SYN112AAXX  19091 08544 41356 81705 10134 20127 30167 40187 52014 76166 8687/ 333 81708 83815 85630 91007 91112 96010;",
"08544099999","2010-03-19T12:00:00","4","40.9166666","-8.6333333","22.0","OVAR MACEDA, PO","FM-12","99999","V020","170,1,N,0070,1","02100,1,C,N","010000,1,N,1","+0172,1","+0121,1","10169,1","06,0140,9,1","6,1,06,1","2,1,06,1","01,1,+00450,1,08,1","04,1,+00900,1,06,1","07,1,+02100,1,03,1",,"07,99,1,05,1,08,1,00450,1,07,1,00,1",,,,,"99999,9,10149,1","7,1,018,1,+999,9","02,1","0150,5",,"SYN128AAXX  19121 08544 11460 71707 10172 20121 30149 40169 57018 60141 70262 85870 333 81815 84630 87357 91015 91115 555 50224 69937;",
"08544099999","2010-03-19T15:00:00","4","40.9166666","-8.6333333","22.0","OVAR MACEDA, PO","FM-12","99999","V020","190,1,N,0050,1","00540,1,9,N","004000,1,N,1","+0162,1","+0152,1","10156,1",,"6,1,03,1","2,1,03,1","02,1,+00240,1,07,1","05,1,+00540,1,08,1","06,1,+02400,1,03,1",,"07,99,1,06,1,02,1,00250,1,03,1,00,1",,,,,"99999,9,10136,1","7,1,013,1,+999,9","61,1","0210,5",,"SYN106AAXX  19151 08544 41340 71905 10162 20152 30136 40156 57013 76162 86230 333 82708 85818 86358 91021 91121;",
"08544099999","2010-03-19T18:00:00","4","40.9166666","-8.6333333","22.0","OVAR MACEDA, PO","FM-12","99999","V020","200,1,N,0050,1","00540,1,9,N","005000,1,N,1","+0158,1","+0151,1","10152,1","12,0180,9,1","6,1,06,1","2,1,06,1","02,1,+00240,1,07,1","05,1,+00540,1,08,1","06,1,+02400,1,03,1",,"07,99,1,06,1,02,1,00250,1,03,1,00,1",,,,"120,M,+0196,1","99999,9,10132,1","8,1,004,1,+999,9","10,1","0200,5",,"SYN128AAXX  19181 08544 11350 72005 10158 20151 30132 40152 58004 60182 71062 86230 333 10196 82708 85818 86358 91020 91120 555 60027;",
"08544099999","2010-03-20T06:00:00","4","40.9166666","-8.6333333","22.0","OVAR MACEDA, PO","FM-12","99999","V020","210,1,N,0080,1","00450,1,9,N","007000,1,N,1","+0158,1","+0155,1","10141,1","12,0361,9,1","5,1,06,1",,"02,1,+00180,1,07,1","04,1,+00450,1,08,1","06,1,+00600,1,06,1",,"07,99,1,06,1,08,1,00450,1,00,1,00,1","0054,9",,,"999,N,+0156,1","99999,9,10121,1","7,1,011,1,+999,9","50,1",,,"SYN128AAXX  20061 08544 11457 72108 10158 20155 30121 40141 57011 60362 7505/ 86800 333 20156 50174 55009 82706 84815 86620 555 60362;",
"08544099999","2010-03-20T09:00:00","4","40.9166666","-8.6333333","22.0","OVAR MACEDA, PO","FM-12","99999","V020","210,1,N,0060,1","00600,1,9,N","007000,1,N,1","+0162,1","+0149,1","10161,1",,"5,1,03,1","2,1,03,1","04,1,+00450,1,08,1","06,1,+00600,1,06,1",,,"07,99,1,07,1,08,1,00450,1,00,1,00,1",,,,,"99999,9,10141,1","2,1,020,1,+999,9","10,1","0130,5",,"SYN100AAXX  20091 08544 41457 72106 10162 20149 30141 40161 52020 71052 87800 333 84815 86620 91013 91113;",
"08544099999","2010-03-20T12:00:00","4","40.9166666","-8.6333333","22.0","OVAR MACEDA, PO","FM-12","99999","V020","220,1,N,0050,1","00540,1,9,N","010000,1,N,1","+0166,1","+0153,1","10163,1","06,0000,2,1","5,1,06,1","2,1,06,1","05,1,+00540,1,08,1","07,1,+02100,1,03,1",,,"08,99,1,05,1,02,1,00450,1,07,1,99,9",,,,,"99999,9,10143,1","0,1,002,1,+999,9","02,1",,"4,99,0110,9,999","SYN116AAXX  20121 08544 11460 82205 10166 20153 30143 40163 50002 69911 70252 8527/ 333 85818 87357 91111 555 50404 69917;",
"08544099999","2010-03-20T15:00:00","4","40.9166666","-8.6333333","22.0","OVAR MACEDA, PO","FM-12","99999","V020","230,1,N,0060,1","00750,1,9,N","010000,1,N,1","+0172,1","+0146,1","10155,1",,,,"03,1,+00540,1,08,1","05,1,+00750,1,08,1","07,1,+02100,1,03,1",,"08,99,1,05,1,08,1,00450,1,07,1,99,9",,,,,"99999,9,10134,1","8,1,009,1,+999,9",,,,"SYN094AAXX  20151 08544 42460 82306 10172 20146 30134 40155 58009 8587/ 333 83818 85825 87357 91110;",
"08544099999","2010-03-20T18:00:00","4","40.9166666","-8.6333333","22.0","OVAR MACEDA, PO","FM-12","99999","V020","220,1,N,0030,1","02400,1,9,N","006000,1,N,1","+0150,1","+0140,1","10167,1","12,0051,9,1","8,1,06,1","2,1,06,1","03,1,+00540,1,08,1","05,1,+02400,1,03,1",,,"07,99,1,05,1,08,1,00450,1,07,1,00,1",,,,"120,M,+0182,1","99999,9,10146,1","2,1,012,1,+999,9","25,1",,"4,99,0110,9,999","SYN122AAXX  20181 08544 11456 72203 10150 20140 30146 40167 52012 60052 72582 85870 333 10182 83818 85358 91111 96010 555 60057;",
"08544099999","2010-03-21T06:00:00","4","40.9166666","-8.6333333","22.0","OVAR MACEDA, PO","FM-12","99999","V020","360,1,N,0040,1","00150,1,9,N","002000,1,N,1","+0138,1","+0135,1","10192,1",,,,"05,1,+00150,1,07,1","07,1,+00360,1,08,1",,,"08,99,1,08,1,02,1,00150,1,99,9,99,9","0060,9",,,"999,N,+0136,1","99999,9,10172,1","2,1,004,1,+999,9","10,1",,,"SYN116AAXX  21061 08544 31220 83604 10138 20135 30172 40192 52004 710// 882// 333 20136 50104 55010 85705 87812 555 60002;",
"08544099999","2010-03-21T09:00:00","4","40.9166666","-8.6333333","22.0","OVAR MACEDA, PO","FM-12","99999","V020","030,1,N,0020,1","00900,1,C,N","007000,1,N,1","+0138,1","+0135,1","10202,1",,"4,1,03,1","2,1,03,1","03,1,+00420,1,08,1",,,,"07,99,1,06,1,08,1,00450,1,00,1,01,1",,,,,"99999,9,10182,1","3,1,010,1,+999,9","10,1",,,"SYN088AAXX  21091 08544 41457 70302 10138 20135 30182 40202 53010 71042 86801 333 83814 85820;",
"08544099999","2010-03-21T12:00:00","4","40.9166666","-8.6333333","22.0","OVAR MACEDA, PO","FM-12","99999","V020","340,1,N,0030,1","00600,1,9,N","008000,1,N,1","+0148,1","+0135,1","10208,1",,"4,1,06,1","2,1,06,1","04,1,+00240,1,07,1","03,1,+00600,1,08,1",,,"05,99,1,05,1,02,1,00250,1,00,1,00,1",,,,,"99999,9,10187,1","3,1,006,1,+999,9","10,1",,,"SYN104AAXX  21121 08544 31358 53403 10148 20135 30187 40208 53006 71042 85200 333 84708 83820 555 50054 60007;",
"08544099999","2010-03-21T15:00:00","4","40.9166666","-8.6333333","22.0","OVAR MACEDA, PO","FM-12","99999","V020","330,1,N,0050,1","22000,1,9,N","010000,1,N,1","+0154,1","+0131,1","10197,1",,,,"03,1,+00300,1,07,1",,,,"04,99,1,04,1,02,1,00450,1,00,1,00,1",,,,,"99999,9,10176,1","7,1,011,1,+999,9",,,,"SYN082AAXX  21151 08544 42460 43305 10154 20131 30176 40197 57011 84200 333 83710 83822;",
"08544099999","2010-03-21T18:00:00","4","40.9166666","-8.6333333","22.0","OVAR MACEDA, PO","FM-12","99999","V020","360,1,N,0050,1","22000,1,9,N","010000,1,N,1","+0142,1","+0117,1","10202,1",,,,"04,1,+00300,1,07,1","03,1,+00660,1,08,1",,,"04,99,1,99,9,02,1,00450,1,00,1,00,1",,,,"120,M,+0164,1","99999,9,10182,1","3,1,006,1,+999,9",,,,"SYN098AAXX  21181 08544 32460 43605 10142 20117 30182 40202 53006 85200 333 10164 84710 83822 555 60007;","Q01+000052SCOTLC"
"08544099999","2010-03-22T06:00:00","4","40.9166666","-8.6333333","22.0","OVAR MACEDA, PO","FM-12","99999","V020","999,9,C,0000,1","00600,1,9,N","010000,1,N,1","+0096,1","+0088,1","10226,1",,,,"02,1,+00450,1,08,1","04,1,+00600,1,08,1",,,"05,99,1,05,1,08,1,00450,1,00,1,00,1","0396,9",,,"999,N,+0094,1","99999,9,10206,1","1,1,004,1,+999,9","00,1",,,"SYN116AAXX  22061 08544 31460 50000 10096 20088 30206 40226 51004 700// 85800 333 20094 50114 55066 82815 84820 555 60002;",
"08544099999","2010-03-22T09:00:00","4","40.9166666","-8.6333333","22.0","OVAR MACEDA, PO","FM-12","99999","V020","030,1,N,0010,1","00600,1,9,N","010000,1,N,1","+0096,1","+0088,1","10241,1",,,,"06,1,+00600,1,08,1",,,,"07,99,1,06,1,02,1,00800,1,00,1,01,1",,,,,"99999,9,10220,1","2,1,014,1,+999,9",,,,"SYN076AAXX  22091 08544 42560 70301 10096 20088 30220 40241 52014 86201 333 86820;",
"08544099999","2010-03-22T12:00:00","4","40.9166666","-8.6333333","22.0","OVAR MACEDA, PO","FM-12","99999","V020","330,1,N,0050,1","22000,1,9,N","010000,1,N,1","+0142,1","+0065,1","10236,1",,,,"02,1,+00600,1,08,1","04,1,+06600,1,00,1",,,"04,99,1,02,1,02,1,00800,1,00,1,01,1",,,,,"99999,9,10215,1","2,1,005,1,+999,9",,,,"SYN098AAXX  22121 08544 32560 43305 10142 20065 30215 40236 52005 82201 333 82820 84072 555 50004 60007;",
"08544099999","2010-03-22T15:00:00","4","40.9166666","-8.6333333","22.0","OVAR MACEDA, PO","FM-12","99999","V020","340,1,N,0050,1","22000,1,9,N","010000,1,N,1","+0150,1","+0080,1","10225,1",,,,"01,1,+00600,1,08,1",,,,"04,99,1,01,1,01,1,00800,1,00,1,01,1",,,,,"99999,9,10204,1","8,1,011,1,+999,9",,,,"SYN082AAXX  22151 08544 42560 43405 10150 20080 30204 40225 58011 81101 333 81820 84072;",
"08544099999","2010-03-22T18:00:00","4","40.9166666","-8.6333333","22.0","OVAR MACEDA, PO","FM-12","99999","V020","350,1,N,0050,1","06600,1,9,N","010000,1,N,1","+0132,1","+0083,1","10217,1",,,,"01,1,+00600,1,08,1","05,1,+06600,1,00,1",,,"05,99,1,01,1,01,1,00800,1,00,1,01,1",,,,"120,M,+0150,1","99999,9,10197,1","7,1,007,1,+999,9",,,,"SYN098AAXX  22181 08544 32560 53505 10132 20083 30197 40217 57007 81101 333 10150 81820 85072 555 60007;",
"08544099999","2010-03-23T06:00:00","4","40.9166666","-8.6333333","22.0","OVAR MACEDA, PO","FM-12","99999","V020","999,9,C,0000,1","00750,1,9,N","007000,1,N,1","+0086,1","+0078,1","10165,1",,,,"02,1,+00360,1,08,1","05,1,+00750,1,06,1",,,"06,99,1,06,1,08,1,00450,1,00,1,00,1","0462,9",,,"999,N,+0084,1","99999,9,10144,1","7,1,053,2,+999,9","10,1",,,"SYN116AAXX  23061 08544 31457 60000 10086 20078 30144 40165 57053 710// 86800 333 20084 50024 55077 82812 85625 555 60002;","Q01+000532APC3  "
"08544099999","2010-03-23T09:00:00","4","40.9166666","-8.6333333","22.0","OVAR MACEDA, PO","FM-12","99999","V020","999,9,C,0000,1","01800,1,C,N","010000,1,N,1","+0116,1","+0098,1","10150,1",,,,"04,1,+00600,1,08,1","03,1,+01800,1,03,1",,,"07,99,1,04,1,02,1,00800,1,99,9,01,1",,,,,"99999,9,10129,1","7,1,015,1,+999,9",,,,"SYN088AAXX  23091 08544 42560 70000 10116 20098 30129 40150 57015 84201 333 84820 83356 85070;","Q01+000002SCOMCG"
"08544099999","2010-03-23T12:00:00","4","40.9166666","-8.6333333","22.0","OVAR MACEDA, PO","FM-12","99999","V020","030,1,N,0010,1","06000,1,9,N","007000,1,N,1","+0156,1","+0115,1","10145,1",,"2,1,06,1","2,1,06,1","01,1,+00450,1,08,1","03,1,+00660,1,08,1","05,1,+06000,1,02,1",,"07,99,1,03,1,08,1,00800,1,03,1,08,1",,,,,"99999,9,10124,1","8,1,005,1,+999,9","10,1",,,"SYN110AAXX  23121 08544 31557 70301 10156 20115 30124 40145 58005 71022 83838 333 81815 83822 85270 555 50004 60007;",
"08544099999","2010-03-23T15:00:00","4","40.9166666","-8.6333333","22.0","OVAR MACEDA, PO","FM-12","99999","V020","350,1,N,0020,1","03600,1,C,N","010000,1,N,1","+0174,1","+0116,1","10111,1",,,,"03,1,+00750,1,08,1",,,,"06,99,1,03,1,02,1,00800,1,03,1,01,1",,,,,"99999,9,10091,1","7,1,033,1,+999,9",,,,"SYN082AAXX  23151 08544 42560 63502 10174 20116 30091 40111 57033 83231 333 83825 84358;",
"08544099999","2010-03-23T18:00:00","4","40.9166666","-8.6333333","22.0","OVAR MACEDA, PO","FM-12","99999","V020","230,1,N,0020,1","00750,1,9,N","007000,1,N,1","+0172,1","+0128,1","10087,1",,"2,1,06,1","2,1,06,1","05,1,+00750,1,06,1","06,1,+02400,1,04,1",,,"07,99,1,05,1,02,1,00800,1,07,1,01,1",,,,"120,M,+0186,1","99999,9,10067,1","7,1,024,1,+999,9","10,1",,,"SYN104AAXX  23181 08544 31557 72302 10172 20128 30067 40087 57024 71022 85271 333 10186 85625 86458 555 60007;",
"08544099999","2010-03-24T06:00:00","4","40.9166666","-8.6333333","22.0","OVAR MACEDA, PO","FM-12","99999","V020","180,1,N,0050,1","00600,1,9,N","005000,1,N,1","+0130,1","+0116,1","10053,1","12,0010,9,1","6,1,06,1",,"03,1,+00270,1,07,1","06,1,+00600,1,06,1","08,1,+02100,1,04,1",,"08,99,1,06,1,05,1,00250,1,02,1,99,9","0252,9",,,"999,N,+0130,1","99999,9,10033,1","7,1,015,1,+999,9","60,1",,,"SYN134AAXX  24061 08544 11350 81805 10130 20116 30033 40053 57015 60012 7606/ 8652/ 333 20130 50204 55042 83709 86620 88457 96010 555 60012;",
"08544099999","2010-03-24T09:00:00","4","40.9166666","-8.6333333","22.0","OVAR MACEDA, PO","FM-12","99999","V020","320,1,N,0040,1","00270,1,9,N","003000,1,N,1","+0120,1","+0113,1","10071,1",,"6,1,03,1","5,1,03,1","06,1,+00270,1,07,1","04,1,+00360,1,08,1","08,1,+00450,1,06,1",,"08,99,1,08,1,08,1,00250,1,99,9,99,9",,,,,"99999,9,10050,1","3,1,022,1,+999,9","50,1","0100,5","4,99,0120,9,999","SYN112AAXX  24091 08544 41330 83204 10120 20113 30050 40071 53022 75065 888// 333 86709 84812 88615 91010 91112 96010;",
"08544099999","2010-03-24T12:00:00","4","40.9166666","-8.6333333","22.0","OVAR MACEDA, PO","FM-12","99999","V020","300,1,N,0040,1","02100,1,9,N","010000,1,N,1","+0146,1","+0092,1","10074,1","06,0020,9,1","6,1,06,1","5,1,06,1","04,1,+00660,1,08,1","04,1,+02100,1,03,1",,,"05,99,1,04,1,02,1,00800,1,07,1,01,1",,,,,"99999,9,10054,1","8,1,025,1,+999,9","10,1",,,"SYN110AAXX  24121 08544 11560 53004 10146 20092 30054 40074 58025 60021 71065 84271 333 84822 84357 555 50034 69937;",
"08544099999","2010-03-24T15:00:00","4","40.9166666","-8.6333333","22.0","OVAR MACEDA, PO","FM-12","99999","V020","280,1,N,0050,1","03600,1,C,N","010000,1,N,1","+0150,1","+0084,1","10060,1",,,,"03,1,+00660,1,08,1",,,,"05,99,1,03,1,02,1,00800,1,03,1,01,1",,,,,"99999,9,10040,1","8,1,014,1,+999,9",,,,"SYN082AAXX  24151 08544 42560 52805 10150 20084 30040 40060 58014 83231 333 83822 83070;",
"08544099999","2010-03-24T18:00:00","4","40.9166666","-8.6333333","22.0","OVAR MACEDA, PO","FM-12","99999","V020","210,1,N,0050,1","00750,1,9,N","010000,1,N,1","+0138,1","+0091,1","10050,1","12,0020,9,1","6,1,06,1","5,1,06,1","03,1,+00540,1,08,1","05,1,+00750,1,06,1","05,1,+06000,1,00,1",,"07,99,1,05,1,08,1,00450,1,03,1,01,1",,,,"120,M,+0154,1","99999,9,10030,1","7,1,010,1,+999,9","02,1",,,"SYN116AAXX  24181 08544 11460 72105 10138 20091 30030 40050 57010 60022 70265 85831 333 10154 83818 85625 85070 555 60007;",
"08544099999","2010-03-25T06:00:00","4","40.9166666","-8.6333333","22.0","OVAR MACEDA, PO","FM-12","99999","V020","250,1,N,0070,1","00660,1,9,N","010000,1,N,1","+0112,1","+0061,1","10031,1","12,0140,9,1",,,"03,1,+00480,1,08,1","05,1,+00660,1,06,1",,,"06,99,1,06,1,08,1,00450,1,00,1,00,1","0360,9",,,"999,N,+0080,1","99999,9,10010,1","7,1,020,1,+999,9","10,1",,,"SYN122AAXX  25061 08544 11460 62507 10112 20061 30010 40031 57020 60142 710// 86800 333 20080 50254 55060 83816 85622 555 60142;",
"08544099999","2010-03-25T09:00:00","4","40.9166666","-8.6333333","22.0","OVAR MACEDA, PO","FM-12","99999","V020","230,1,N,0050,1","00660,1,9,N","010000,1,N,1","+0122,1","+0073,1","10055,1",,"8,1,03,1","2,1,03,1","02,1,+00540,1,09,1","05,1,+00660,1,06,1",,,"07,99,1,06,1,09,1,00450,1,03,1,00,1",,,,,"99999,9,10035,1","2,1,025,1,+999,9","02,1","0140,5",,"SYN100AAXX  25091 08544 41460 72305 10122 20073 30035 40055 52025 70282 86930 333 82918 85622 91014 91114;",
"08544099999","2010-03-25T12:00:00","4","40.9166666","-8.6333333","22.0","OVAR MACEDA, PO","FM-12","99999","V020","230,1,N,0060,1","00540,1,C,N","010000,1,N,1","+0128,1","+0075,1","10069,1","06,0020,9,1","8,1,06,1","2,1,06,1","03,1,+00480,1,08,1","02,1,+00540,1,09,1",,,"06,99,1,04,1,09,1,00450,1,03,1,03,1",,,,,"99999,9,10049,1","2,1,014,1,+999,9","25,1","0110,5","4,99,0140,9,999","SYN122AAXX  25121 08544 11460 62306 10128 20075 30049 40069 52014 60021 72582 84933 333 83816 82918 91011 91114 555 50154 69987;",
"08544099999","2010-03-25T15:00:00","4","40.9166666","-8.6333333","22.0","OVAR MACEDA, PO","FM-12","99999","V020","240,1,N,0050,1","00600,1,9,N","010000,1,N,1","+0112,1","+0074,1","10070,1",,"9,1,03,1","8,1,03,1","03,1,+00480,1,08,1","02,1,+00600,1,09,1","03,1,+01050,1,06,1","05,1,+02400,1,03,1","08,99,1,05,1,09,1,00450,1,03,1,03,1",,,,,"99999,9,10050,1","0,1,001,1,+999,9","25,1","0090,5",,"SYN112AAXX  25151 08544 41460 82405 10112 20074 30050 40070 50001 72598 85933 333 83816 82920 83635 85358 91009 91120;",
"08544099999","2010-03-25T18:00:00","4","40.9166666","-8.6333333","22.0","OVAR MACEDA, PO","FM-12","99999","V020","280,1,N,0060,1","00480,1,9,N","006000,1,N,1","+0118,1","+0064,1","10087,1","12,0051,9,1","9,1,06,1","8,1,06,1","01,1,+00240,1,07,1","06,1,+00480,1,08,1","03,1,+00600,1,09,1",,"08,99,1,08,1,09,1,00250,1,99,9,99,9",,,,"120,M,+0132,1","99999,9,10067,1","2,1,017,1,+999,9","80,1","0130,5","4,99,0150,9,999","SYN128AAXX  25181 08544 11356 82806 10118 20064 30067 40087 52017 60052 78098 889// 333 10132 81708 86816 83920 91013 91115 555 69917;",
"08544099999","2010-03-26T06:00:00","4","40.9166666","-8.6333333","22.0","OVAR MACEDA, PO","FM-12","99999","V020","200,1,N,0030,1","00900,1,9,N","010000,1,N,1","+0088,1","+0072,1","10154,1","12,0041,9,1",,,"04,1,+00450,1,08,1","03,1,+00900,1,06,1",,,"05,99,1,05,1,08,1,00450,1,00,1,00,1","0192,9",,,"999,N,+0084,1","99999,9,10133,1","2,1,010,1,+999,9","00,1",,,"SYN122AAXX  26061 08544 11460 52003 10088 20072 30133 40154 52010 60042 700// 85800 333 20084 50344 55032 84815 83630 555 60042;",
"08544099999","2010-03-26T09:00:00","4","40.9166666","-8.6333333","22.0","OVAR MACEDA, PO","FM-12","99999","V020","200,1,N,0050,1","00900,1,9,N","010000,1,N,1","+0112,1","+0086,1","10172,1",,,,"03,1,+00450,1,08,1","01,1,+00600,1,09,1","03,1,+00900,1,06,1",,"05,99,1,05,1,09,1,00450,1,00,1,00,1",,,,,"99999,9,10152,1","2,1,019,1,+999,9",,"0080,5",,"SYN100AAXX  26091 08544 42460 52005 10112 20086 30152 40172 52019 85900 333 83815 81920 83630 91008 91111;",
"08544099999","2010-03-26T12:00:00","4","40.9166666","-8.6333333","22.0","OVAR MACEDA, PO","FM-12","99999","V020","230,1,N,0070,1","00540,1,9,N","007000,1,N,1","+0146,1","+0092,1","10184,1","06,9999,9,9","8,1,06,1","2,1,06,1","05,1,+00540,1,08,1","01,1,+00600,1,09,1","03,1,+00900,1,06,1",,"07,99,1,07,1,09,1,00450,1,00,1,00,1",,,,,"99999,9,10164,1","2,1,012,1,+999,9","80,1","0130,5","4,99,0140,9,999","SYN128AAXX  26121 08544 11457 72307 10146 20092 30164 40184 52012 69921 78082 87900 333 85818 81920 83630 91013 91114 555 50084 69927;","Q01  00002PRCP06Q02  00002PRCP06"
"08544099999","2010-03-26T15:00:00","4","40.9166666","-8.6333333","22.0","OVAR MACEDA, PO","FM-12","99999","V020","250,1,N,0060,1","00540,1,9,N","007000,1,N,1","+0136,1","+0104,1","10195,1",,"8,1,03,1","2,1,03,1","05,1,+00540,1,08,1","01,1,+00600,1,09,1","03,1,+00900,1,06,1",,"07,99,1,07,1,09,1,00450,1,00,1,00,1",,,,,"99999,9,10174,1","2,1,010,1,+999,9","80,1","0150,5",,"SYN106AAXX  26151 08544 41457 72506 10136 20104 30174 40195 52010 78082 87900 333 85818 81920 83630 91015 91115;",
"08544099999","2010-03-26T18:00:00","4","40.9166666","-8.6333333","22.0","OVAR MACEDA, PO","FM-12","99999","V020","280,1,N,0030,1","00660,1,9,N","010000,1,N,1","+0124,1","+0106,1","10207,1","12,0041,9,1","8,1,06,1","2,1,06,1","04,1,+00600,1,08,1","02,1,+00660,1,09,1",,,"07,99,1,06,1,09,1,00800,1,00,1,04,1",,,,"120,M,+0152,1","99999,9,10186,1","2,1,012,1,+999,9","25,1",,"4,99,0110,9,999","SYN116AAXX  26181 08544 11560 72803 10124 20106 30186 40207 52012 60042 72582 86904 333 10152 84820 82922 91111 555 60037;",
"08544099999","2010-03-27T06:00:00","4","40.9166666","-8.6333333","22.0","OVAR MACEDA, PO","FM-12","99999","V020","200,1,N,0020,1","22000,1,9,N","008000,1,N,1","+0088,1","+0076,1","10253,1",,,,"03,1,+00480,1,08,1",,,,"04,99,1,04,1,08,1,00450,1,00,1,00,1","0468,9",,,"999,N,+0078,1","99999,9,10232,1","2,1,012,1,+999,9","10,1",,,"SYN110AAXX  27061 08544 31458 42002 10088 20076 30232 40253 52012 710// 84800 333 20078 50374 55078 83816 555 60002;",
"08544099999","2010-03-27T09:00:00","4","40.9166666","-8.6333333","22.0","OVAR MACEDA, PO","FM-12","99999","V020","160,1,N,0020,1","22000,1,C,N","010000,1,N,1","+0128,1","+0091,1","10266,1",,,,"02,1,+00600,1,08,1",,,,"05,99,1,02,1,02,1,00800,1,00,1,04,1",,,,,"99999,9,10245,1","2,1,013,1,+999,9",,,,"SYN082AAXX  27091 08544 42560 51602 10128 20091 30245 40266 52013 82204 333 82820 85072;",
"08544099999","2010-03-27T12:00:00","4","40.9166666","-8.6333333","22.0","OVAR MACEDA, PO","FM-12","99999","V020","290,1,N,0040,1","03000,1,9,N","010000,1,N,1","+0152,1","+0090,1","10270,1",,,,"03,1,+00600,1,08,1","03,1,+03000,1,03,1","05,1,+06600,1,00,1",,"05,99,1,03,1,02,1,00800,1,03,1,01,1",,,,,"99999,9,10249,1","0,1,004,1,+999,9",,,,"SYN104AAXX  27121 08544 32560 52904 10152 20090 30249 40270 50004 83231 333 83820 83360 85072 555 50044 60007;",
"08544099999","2010-03-27T15:00:00","4","40.9166666","-8.6333333","22.0","OVAR MACEDA, PO","FM-12","99999","V020","280,1,N,0030,1","03000,1,9,N","010000,1,N,1","+0148,1","+0098,1","10267,1",,,,"03,1,+00600,1,08,1","05,1,+03000,1,04,1",,,"08,99,1,03,1,02,1,00800,1,07,1,07,1",,,,,"99999,9,10246,1","8,1,003,1,+999,9",,,,"SYN088AAXX  27151 08544 42560 82803 10148 20098 30246 40267 58003 83277 333 83820 85460 88272;",
"08544099999","2010-03-27T18:00:00","4","40.9166666","-8.6333333","22.0","OVAR MACEDA, PO","FM-12","99999","V020","350,1,N,0030,1","03000,1,9,N","010000,1,N,1","+0142,1","+0091,1","10260,1",,,,"02,1,+00600,1,08,1","05,1,+03000,1,04,1","06,1,+06600,1,02,1",,"07,99,1,02,1,02,1,00800,1,07,1,08,1",,,,"120,M,+0158,1","99999,9,10239,1","7,1,007,1,+999,9",,,,"SYN104AAXX  27181 08544 32560 73503 10142 20091 30239 40260 57007 82278 333 10158 82820 85460 86272 555 60007;",
"08544099999","2010-03-28T06:00:00","4","40.9166666","-8.6333333","22.0","OVAR MACEDA, PO","FM-12","99999","V020","999,9,C,0000,1","02400,1,9,N","008000,1,N,1","+0058,1","+0050,1","10203,1",,,,"03,1,+00540,1,08,1","03,1,+02400,1,03,1","05,1,+07200,1,00,1",,"05,99,1,03,1,02,1,00450,1,03,1,01,1","0408,9",,,"999,N,+0054,1","99999,9,10182,1","7,1,015,1,+999,9","10,1",,,"SYN122AAXX  28061 08544 32458 50000 10058 20050 30182 40203 57015 710// 83231 333 20054 50184 55068 83818 83358 85074 555 60002;",
"08544099999","2010-03-28T09:00:00","4","40.9166666","-8.6333333","22.0","OVAR MACEDA, PO","FM-12","99999","V020","999,9,C,0000,1","02400,1,9,N","008000,1,N,1","+0104,1","+0093,1","10198,1",,"2,1,03,1","2,1,03,1","02,1,+00900,1,08,1","03,1,+02400,1,03,1",,,"07,99,1,02,1,01,1,00450,1,03,1,08,1",,,,,"99999,9,10177,1","7,1,004,1,+999,9","10,1",,,"SYN094AAXX  28091 08544 41458 70000 10104 20093 30177 40198 57004 71022 82138 333 82830 83358 87074;",
"08544099999","2010-03-28T12:00:00","4","40.9166666","-8.6333333","22.0","OVAR MACEDA, PO","FM-12","99999","V020","270,1,N,0030,1","22000,1,9,N","010000,1,N,1","+0158,1","+0085,1","10184,1",,,,"02,1,+02400,1,03,1","03,1,+07200,1,00,1",,,"04,99,1,02,1,00,1,02250,1,03,1,01,1",,,,,"99999,9,10164,1","7,1,013,1,+999,9",,,,"SYN098AAXX  28121 08544 32860 42703 10158 20085 30164 40184 57013 82031 333 82358 83074 555 50004 60007;",
"08544099999","2010-03-28T15:00:00","4","40.9166666","-8.6333333","22.0","OVAR MACEDA, PO","FM-12","99999","V020","270,1,N,0050,1","22000,1,9,N","010000,1,N,1","+0158,1","+0109,1","10162,1",,,,"01,1,+00660,1,08,1",,,,"01,99,1,01,1,02,1,00450,1,03,1,00,1",,,,,"99999,9,10142,1","7,1,022,1,+999,9",,,,"SYN082AAXX  28151 08544 42460 12705 10158 20109 30142 40162 57022 81230 333 81822 91109;",
"08544099999","2010-03-28T18:00:00","4","40.9166666","-8.6333333","22.0","OVAR MACEDA, PO","FM-12","99999","V020","230,1,N,0020,1","22000,1,9,N","010000,1,N,1","+0154,1","+0101,1","10151,1",,,,"01,1,+00660,1,08,1","03,1,+06600,1,00,1",,,"03,99,1,01,1,03,1,00450,1,02,1,04,1",,,,"120,M,+0174,1","99999,9,10131,1","7,1,011,1,+999,9",,,,"SYN098AAXX  28181 08544 32460 32302 10154 20101 30131 40151 57011 81324 333 10174 81822 83072 555 60007;",
"08544099999","2010-03-29T06:00:00","4","40.9166666","-8.6333333","22.0","OVAR MACEDA, PO","FM-12","99999","V020","180,1,N,0060,1","00540,1,9,N","007000,1,N,1","+0124,1","+0106,1","10077,1","12,0003,9,1","6,1,06,1",,"03,1,+00210,1,07,1","05,1,+00540,1,08,1","07,1,+02100,1,04,1",,"08,99,1,06,1,02,1,00250,1,07,1,99,9","0528,9",,,"999,N,+0122,1","99999,9,10057,1","7,1,027,1,+999,9","60,1","0090,5","4,99,0100,9,999","SYN146AAXX  29061 08544 11357 81806 10124 20106 30057 40077 57027 69932 7606/ 8627/ 333 20122 50234 55088 83707 85818 87457 91009 91110 96610 555 69932;",
"08544099999","2010-03-29T09:00:00","4","40.9166666","-8.6333333","22.0","OVAR MACEDA, PO","FM-12","99999","V020","190,1,N,0040,1","00450,1,9,N","010000,1,N,1","+0130,1","+0120,1","10076,1",,"8,1,03,1","6,1,03,1","02,1,+00240,1,07,1","06,1,+00450,1,08,1","01,1,+00600,1,09,1",,"07,99,1,07,1,03,1,00250,1,00,1,00,1",,,,,"99999,9,10055,1","5,1,002,1,+999,9","01,1",,,"SYN100AAXX  29091 08544 41360 71904 10130 20120 30055 40076 55002 70186 87300 333 82708 86815 81920 91111;",
"08544099999","2010-03-29T12:00:00","4","40.9166666","-8.6333333","22.0","OVAR MACEDA, PO","FM-12","99999","V020","220,1,N,0090,1","00450,1,9,N","010000,1,N,1","+0166,1","+0129,1","10067,1","06,0051,9,1","8,1,06,1","6,1,06,1","01,1,+00240,1,07,1","06,1,+00450,1,08,1","01,1,+00600,1,09,1",,"07,99,1,07,1,03,1,00250,1,00,1,00,1",,,,,"99999,9,10047,1","8,1,008,1,+999,9","03,1","0140,5","4,99,0150,9,999","SYN128AAXX  29121 08544 11360 72209 10166 20129 30047 40067 58008 60051 70386 87300 333 81708 86815 81920 91014 91115 555 50064 60007;",
"08544099999","2010-03-29T15:00:00","4","40.9166666","-8.6333333","22.0","OVAR MACEDA, PO","FM-12","99999","V020","250,1,N,0070,1","00900,1,C,N","007000,1,N,1","+0142,1","+0125,1","10064,1",,"8,1,03,1","2,1,03,1","01,1,+00240,1,07,1","04,1,+00450,1,08,1","05,1,+00900,1,06,1",,"07,99,1,06,1,08,1,00250,1,03,1,00,1",,,,,"99999,9,10044,1","5,1,003,1,+999,9","25,1","0140,5","4,99,0190,9,999","SYN118AAXX  29151 08544 41357 72507 10142 20125 30044 40064 55003 72582 86830 333 81708 84815 85630 91014 91119 96015 96010;",
"08544099999","2010-03-29T18:00:00","4","40.9166666","-8.6333333","22.0","OVAR MACEDA, PO","FM-12","99999","V020","280,1,N,0060,1","22000,1,9,N","010000,1,N,1","+0134,1","+0078,1","10082,1","12,0079,9,1","8,1,06,1","1,1,06,1","04,1,+00450,1,08,1",,,,"04,99,1,04,1,02,1,00450,1,00,1,00,1",,,,"120,M,+0172,1","99999,9,10062,1","2,1,018,1,+999,9","25,1","0110,5","4,99,0160,9,999","SYN122AAXX  29181 08544 11460 42806 10134 20078 30062 40082 52018 60082 72581 84200 333 10172 84815 91011 91116 96010 555 60017;",
"08544099999","2010-03-30T06:00:00","4","40.9166666","-8.6333333","22.0","OVAR MACEDA, PO","FM-12","99999","V020","320,1,N,0060,1","00450,1,9,N","010000,1,N,1","+0120,1","+0070,1","10156,1","12,0030,9,1","8,1,06,1",,"05,1,+00450,1,08,1","01,1,+00540,1,09,1","04,1,+00900,1,06,1",,"07,99,1,07,1,03,1,00450,1,00,1,00,1","0270,9",,,"999,N,+0094,1","99999,9,10135,1","2,1,012,1,+999,9","25,1","0110,5","4,99,0130,9,999","SYN140AAXX  30061 08544 11460 73206 10120 20070 30135 40156 52012 60032 7258/ 87300 333 20094 50424 55045 85815 81918 84630 91011 91113 555 60032;",
"08544099999","2010-03-30T09:00:00","4","40.9166666","-8.6333333","22.0","OVAR MACEDA, PO","FM-12","99999","V020","340,1,N,0050,1","00450,1,9,N","007000,1,N,1","+0124,1","+0057,1","10177,1",,"8,1,03,1","2,1,03,1","01,1,+00240,1,07,1","06,1,+00450,1,06,1",,,"07,99,1,07,1,08,1,00250,1,00,1,00,1",,,,,"99999,9,10156,1","2,1,021,1,+999,9","25,1","0110,5","4,99,0150,9,999","SYN106AAXX  30091 08544 41357 73405 10124 20057 30156 40177 52021 72582 87800 333 81708 86615 91011 91115 96010;",
"08544099999","2010-03-30T12:00:00","4","40.9166666","-8.6333333","22.0","OVAR MACEDA, PO","FM-12","99999","V020","320,1,N,0060,1","07800,1,9,N","010000,1,N,1","+0144,1","+0081,1","10196,1","06,0005,9,1","8,1,06,1","1,1,06,1","03,1,+00450,1,08,1","03,1,+07800,1,00,1",,,"05,99,1,04,1,08,1,00450,1,00,1,04,1",,,,,"99999,9,10176,1","2,1,020,1,+999,9","03,1","0100,5",,"SYN122AAXX  30121 08544 11460 53206 10144 20081 30176 40196 52020 69941 70381 84804 333 83815 83076 91010 91110 555 50064 60007;",
"08544099999","2010-03-30T15:00:00","4","40.9166666","-8.6333333","22.0","OVAR MACEDA, PO","FM-12","99999","V020","330,1,N,0050,1","00750,1,9,N","010000,1,N,1","+0132,1","+0080,1","10201,1",,"8,1,03,1","2,1,03,1","04,1,+00450,1,08,1","04,1,+00750,1,06,1",,,"06,99,1,05,1,08,1,00450,1,00,1,01,1",,,,,"99999,9,10180,1","0,1,004,1,+999,9","25,1","0080,5",,"SYN100AAXX  30151 08544 41460 63305 10132 20080 30180 40201 50004 72582 85801 333 84815 84625 91008 91112;",
"08544099999","2010-03-30T18:00:00","4","40.9166666","-8.6333333","22.0","OVAR MACEDA, PO","FM-12","99999","V020","330,1,N,0030,1","00900,1,9,N","010000,1,N,1","+0128,1","+0079,1","10202,1","12,0005,9,1","8,1,06,1","1,1,06,1","04,1,+00600,1,08,1","04,1,+00900,1,06,1",,,"06,99,1,06,1,08,1,00800,1,00,1,00,1",,,,"120,M,+0146,1","99999,9,10181,1","3,1,001,1,+999,9","03,1",,"4,99,0100,9,999","SYN116AAXX  30181 08544 11560 63303 10128 20079 30181 40202 53001 69952 70381 86800 333 10146 84820 84630 91110 555 60007;",
"08544099999","2010-03-31T06:00:00","4","40.9166666","-8.6333333","22.0","OVAR MACEDA, PO","FM-12","99999","V020","250,1,N,0020,1","00450,1,9,N","010000,1,N,1","+0118,1","+0072,1","10192,1",,"2,1,06,1",,"02,1,+00210,1,07,1","04,1,+00450,1,08,1",,,"06,99,1,06,1,08,1,00250,1,00,1,00,1","0378,9",,,"999,N,+0108,1","99999,9,10171,1","7,1,008,1,+999,9","03,1",,,"SYN116AAXX  31061 08544 31360 62502 10118 20072 30171 40192 57008 7032/ 86800 333 20108 50384 55063 82707 84815 555 60002;",
"08544099999","2010-03-31T09:00:00","4","40.9166666","-8.6333333","22.0","OVAR MACEDA, PO","FM-12","99999","V020","270,1,N,0040,1","00900,1,C,N","010000,1,N,1","+0130,1","+0064,1","10194,1",,,,"04,1,+00450,1,08,1",,,,"06,99,1,05,1,08,1,00450,1,00,1,01,1",,,,,"99999,9,10173,1","0,1,002,1,+999,9",,,,"SYN082AAXX  31091 08544 42460 62704 10130 20064 30173 40194 50002 85801 333 84815 84520;",
"08544099999","2010-03-31T12:00:00","4","40.9166666","-8.6333333","22.0","OVAR MACEDA, PO","FM-12","99999","V020","240,1,N,0060,1","00750,1,9,N","010000,1,N,1","+0144,1","+0068,1","10194,1",,,,"04,1,+00450,1,08,1","05,1,+00750,1,06,1",,,"07,99,1,06,1,08,1,00450,1,03,1,00,1",,,,,"99999,9,10173,1","0,1,000,1,+999,9",,,,"SYN098AAXX  31120 08544 32460 72406 10144 20068 30173 40194 50000 86830 333 84815 85625 555 59914 60007;",
"08544099999","2010-03-31T15:00:00","4","40.9166666","-8.6333333","22.0","OVAR MACEDA, PO","FM-12","99999","V020","280,1,N,0040,1","00600,1,9,N","006000,1,N,1","+0120,1","+0105,1","10184,1",,"6,1,03,1","5,1,03,1","04,1,+00240,1,07,1","06,1,+00600,1,08,1",,,"07,99,1,06,1,02,1,00250,1,03,1,00,1",,,,,"99999,9,10164,1","6,1,009,1,+999,9","50,1","0110,5",,"SYN100AAXX  31151 08544 41356 72804 10120 20105 30164 40184 56009 75065 86230 333 84708 86820 91011 91111;",
"08544099999","2010-03-31T18:00:00","4","40.9166666","-8.6333333","22.0","OVAR MACEDA, PO","FM-12","99999","V020","340,1,N,0050,1","00420,1,9,N","010000,1,N,1","+0120,1","+0074,1","10182,1","12,0030,9,1","6,1,06,1","5,1,06,1",,,,,"07,99,1,06,1,02,1,00450,1,03,1,00,1",,,,"120,M,+0144,1","99999,9,10162,1","3,1,002,1,+999,9","02,1","0100,5",,"SYN110AAXX  31181 08544 11460 73405 10120 20074 30162 40182 53002 60032 70265 86230 333 10144 91010 91110 555 60017;",
"08544099999","2010-04-01T06:00:00","4","40.9166666","-8.6333333","22.0","OVAR MACEDA, PO","FM-12","99999","V020","999,9,C,0000,1","99999,9,9,N","005000,1,N,1","+0058,1","+0054,1","10204,1","12,0020,9,1",,,"03,1,+00450,1,08,1","03,1,+00900,1,06,1",,,"05,99,1,04,1,08,1,00450,1,00,1,00,1","0126,9",,,"999,N,+0058,1","99999,9,10183,1","2,1,021,1,+999,9","10,1",,,"SYN122AAXX  01061 08544 11450 50000 10058 20054 30183 40204 52021 60022 710// 84800 333 20058 50254 55021 83815 83630 555 60022;",
"08544099999","2010-04-01T09:00:00","4","40.9166666","-8.6333333","22.0","OVAR MACEDA, PO","FM-12","99999","V020","170,1,N,0010,1","22000,1,9,N","010000,1,N,1","+0102,1","+0075,1","10222,1",,,,"02,1,+00450,1,08,1",,,,"03,99,1,03,1,08,1,00450,1,00,1,00,1",,,,,"99999,9,10201,1","2,1,019,1,+999,9",,,,"SYN076AAXX  01091 08544 42460 31701 10102 20075 30201 40222 52019 83800 333 82815;",
"08544099999","2010-04-01T12:00:00","4","40.9166666","-8.6333333","22.0","OVAR MACEDA, PO","FM-12","99999","V020","300,1,N,0020,1","22000,1,9,N","010000,1,N,1","+0120,1","+0057,1","10230,1","06,0000,9,1",,,"04,1,+00600,1,08,1",,,,"04,99,1,04,1,08,1,00800,1,00,1,00,1",,,,,"99999,9,10209,1","2,1,008,1,+999,9",,,,"SYN098AAXX  01121 08544 12560 43002 10120 20057 30209 40230 52008 69921 84800 333 84820 555 50054 60007;","Q01  00002PRCP06"
"08544099999","2010-04-01T15:00:00","4","40.9166666","-8.6333333","22.0","OVAR MACEDA, PO","FM-12","99999","V020","310,1,N,0020,1","22000,1,9,N","010000,1,N,1","+0134,1","+0069,1","10220,1",,,,"03,1,+00600,1,08,1",,,,"03,99,1,03,1,02,1,00800,1,00,1,00,1",,,,,"99999,9,10200,1","7,1,009,1,+999,9",,,,"SYN086AAXX  01151 08544 42560 33102 10134 20069 30200 40220 57009 83200 333 83820 555 60007;",
"08544099999","2010-04-01T18:00:00","4","40.9166666","-8.6333333","22.0","OVAR MACEDA, PO","FM-12","99999","V020","320,1,N,0020,1","06600,1,9,N","010000,1,N,1","+0126,1","+0059,1","10223,1","12,0000,9,1",,,"03,1,+00600,1,08,1","07,1,+06600,1,00,1",,,"07,99,1,03,1,02,1,00800,1,00,1,04,1",,,,"120,M,+0142,1","99999,9,10202,1","3,1,002,1,+999,9",,,,"SYN104AAXX  01181 08544 12560 73202 10126 20059 30202 40223 53002 69922 83204 333 10142 83820 87072 555 60007;","Q01  00002PRCP12"
"08544099999","2010-04-02T06:00:00","4","40.9166666","-8.6333333","22.0","OVAR MACEDA, PO","FM-12","99999","V020","180,1,N,0030,1","00750,1,9,N","010000,1,N,1","+0086,1","+0053,1","10202,1",,,,"03,1,+00540,1,08,1","06,1,+00750,1,08,1",,,"07,99,1,07,1,08,1,00450,1,00,1,00,1","0600,9",,,"999,N,+0056,1","99999,9,10181,1","7,1,018,1,+999,9","00,1",,,"SYN116AAXX  02061 08544 31460 71803 10086 20053 30181 40202 57018 700// 87800 333 20056 50224 55100 83818 86825 555 60002;",
"08544099999","2010-04-02T09:00:00","4","40.9166666","-8.6333333","22.0","OVAR MACEDA, PO","FM-12","99999","V020","170,1,N,0040,1","00750,1,9,N","007000,1,N,1","+0102,1","+0071,1","10208,1",,"8,1,03,1","2,1,03,1","04,1,+00540,1,08,1","05,1,+00750,1,06,1",,,"07,99,1,07,1,08,1,00450,1,00,1,00,1",,,,,"99999,9,10187,1","3,1,006,1,+999,9","80,1",,,"SYN094AAXX  02091 08544 41457 71704 10102 20071 30187 40208 53006 78082 87800 333 84818 85625 96010;",
"08544099999","2010-04-02T12:00:00","4","40.9166666","-8.6333333","22.0","OVAR MACEDA, PO","FM-12","99999","V020","180,1,N,0060,1","00750,1,9,N","010000,1,N,1","+0140,1","+0097,1","10207,1","06,0000,2,1","8,1,06,1","2,1,06,1","03,1,+00450,1,08,1","06,1,+00750,1,06,1",,,"07,99,1,06,1,08,1,00450,1,00,1,01,1",,,,,"99999,9,10187,1","0,1,000,1,+999,9","03,1",,,"SYN110AAXX  02121 08544 11460 71806 10140 20097 30187 40207 50000 69911 70382 86801 333 83815 86625 555 59914 69917;",
"08544099999","2010-04-02T15:00:00","4","40.9166666","-8.6333333","22.0","OVAR MACEDA, PO","FM-12","99999","V020","240,1,N,0060,1","00750,1,9,N","010000,1,N,1","+0152,1","+0102,1","10197,1",,"8,1,03,1","2,1,03,1","04,1,+00450,1,08,1","08,1,+00750,1,06,1",,,"08,99,1,08,1,08,1,00450,1,99,9,99,9",,,,,"99999,9,10176,1","7,1,011,1,+999,9","03,1","0100,5",,"SYN100AAXX  02151 08544 41460 82406 10152 20102 30176 40197 57011 70382 888// 333 84815 88625 91010 91112;",
"08544099999","2010-04-02T18:00:00","4","40.9166666","-8.6333333","22.0","OVAR MACEDA, PO","FM-12","99999","V020","240,1,N,0030,1","00750,1,9,N","010000,1,N,1","+0138,1","+0098,1","10187,1","12,0000,2,1","8,1,06,1","2,1,06,1","04,1,+00450,1,08,1","06,1,+00750,1,06,1",,,"07,99,1,06,1,08,1,00450,1,03,1,00,1",,,,"120,M,+0166,1","99999,9,10167,1","7,1,009,1,+999,9","02,1",,"4,99,0100,9,999","SYN116AAXX  02181 08544 11460 72403 10138 20098 30167 40187 57009 69922 70282 86830 333 10166 84815 86625 91110 555 69917;",
"08544099999","2010-04-03T06:00:00","4","40.9166666","-8.6333333","22.0","OVAR MACEDA, PO","FM-12","99999","V020","300,1,N,0040,1","00540,1,9,N","010000,1,N,1","+0122,1","+0085,1","10156,1","12,0020,9,1",,,"04,1,+00360,1,08,1","04,1,+00540,1,06,1","06,1,+02400,1,04,1",,"07,99,1,05,1,08,1,00450,1,07,1,00,1","0162,9",,,"999,N,+0110,1","99999,9,10135,1","7,1,010,1,+999,9","00,1",,,"SYN128AAXX  03061 08544 11460 73004 10122 20085 30135 40156 57010 60022 700// 85870 333 20110 50274 55027 84812 84618 86458 555 60022;",
"08544099999","2010-04-03T09:00:00","4","40.9166666","-8.6333333","22.0","OVAR MACEDA, PO","FM-12","99999","V020","350,1,N,0040,1","00900,1,C,N","007000,1,N,1","+0118,1","+0080,1","10168,1",,"8,1,03,1","2,1,03,1","04,1,+00360,1,08,1",,,,"06,99,1,06,1,08,1,00450,1,00,1,00,1",,,,,"99999,9,10147,1","1,1,012,1,+999,9","80,1",,,"SYN088AAXX  03091 08544 41457 63504 10118 20080 30147 40168 51012 78082 86800 333 84812 86625;",
"08544099999","2010-04-03T12:00:00","4","40.9166666","-8.6333333","22.0","OVAR MACEDA, PO","FM-12","99999","V020","340,1,N,0060,1","22000,1,9,N","010000,1,N,1","+0136,1","+0068,1","10179,1","06,0020,9,1","8,1,06,1","1,1,06,1","03,1,+00540,1,08,1",,,,"04,99,1,04,1,08,1,00450,1,00,1,00,1",,,,,"99999,9,10158,1","2,1,011,1,+999,9","01,1","0100,5","4,99,0120,9,999","SYN116AAXX  03121 08544 11460 43406 10136 20068 30158 40179 52011 60021 70181 84800 333 83818 91010 91112 555 50044 69957;",
"08544099999","2010-04-03T15:00:00","4","40.9166666","-8.6333333","22.0","OVAR MACEDA, PO","FM-12","99999","V020","330,1,N,0040,1","22000,1,9,N","010000,1,N,1","+0138,1","+0065,1","10180,1",,,,"04,1,+00600,1,08,1",,,,"04,99,1,04,1,02,1,00800,1,00,1,00,1",,,,,"99999,9,10160,1","0,1,002,1,+999,9",,,,"SYN082AAXX  03151 08544 42560 43304 10138 20065 30160 40180 50002 84200 333 84820 91112;",
"08544099999","2010-04-03T18:00:00","4","40.9166666","-8.6333333","22.0","OVAR MACEDA, PO","FM-12","99999","V020","340,1,N,0060,1","00600,1,9,N","010000,1,N,1","+0120,1","+0066,1","10191,1","12,0020,9,1",,,"03,1,+00450,1,08,1","03,1,+00600,1,09,1",,,"06,99,1,06,1,09,1,00450,1,00,1,00,1",,,,"120,M,+0146,1","99999,9,10170,1","2,1,010,1,+999,9",,"0100,5","4,99,0110,9,999","SYN116AAXX  03181 08544 12460 63406 10120 20066 30170 40191 52010 60022 86900 333 10146 83815 83920 91010 91111 555 60007;",
"08544099999","2010-04-04T06:00:00","4","40.9166666","-8.6333333","22.0","OVAR MACEDA, PO","FM-12","99999","V020","999,9,C,0000,1","22000,1,9,N","010000,1,N,1","+0032,1","+0027,1","10255,1","12,0008,9,1",,,"01,1,+06000,1,00,1",,,,"01,99,1,00,1,00,1,99999,9,00,1,01,1","0360,9",,,"999,N,+0032,1","99999,9,10234,1","2,1,016,1,+999,9","00,1",,,"SYN116AAXX  04061 08544 11960 10000 10032 20027 30234 40255 52016 69972 700// 80001 333 20032 50264 55060 81070 555 69972;",
"08544099999","2010-04-04T09:00:00","4","40.9166666","-8.6333333","22.0","OVAR MACEDA, PO","FM-12","99999","V020","040,1,N,0030,1","22000,1,9,N","010000,1,N,1","+0100,1","+0060,1","10274,1",,,,"00,1,+99999,9,99,9",,,,"00,99,1,00,1,00,1,99999,9,00,1,00,1",,,,,"99999,9,10253,1","2,1,019,1,+999,9",,,,"SYN060AAXX  04091 08544 42960 00403 10100 20060 30253 40274 52019;",
"08544099999","2010-04-04T12:00:00","4","40.9166666","-8.6333333","22.0","OVAR MACEDA, PO","FM-12","99999","V020","340,1,N,0050,1","22000,1,9,N","010000,1,N,1","+0138,1","+0056,1","10276,1",,,,"02,1,+00540,1,08,1",,,,"02,99,1,02,1,02,1,00450,1,00,1,00,1",,,,,"99999,9,10255,1","0,1,002,1,+999,9",,"0080,5","4,99,0100,9,999","SYN104AAXX  04121 08544 32460 23405 10138 20056 30255 40276 50002 82200 333 82818 91008 91110 555 59974 60007;",
"08544099999","2010-04-04T15:00:00","4","40.9166666","-8.6333333","22.0","OVAR MACEDA, PO","FM-12","99999","V020","350,1,N,0080,1","22000,1,9,N","010000,1,N,1","+0140,1","+0063,1","10268,1",,,,"02,1,+00660,1,08,1",,,,"03,99,1,02,1,02,1,00800,1,00,1,01,1",,,,,"99999,9,10247,1","8,1,008,1,+999,9",,"0110,5",,"SYN088AAXX  04151 08544 42560 33508 10140 20063 30247 40268 58008 82201 333 82822 91011 91111;",
"08544099999","2010-04-04T18:00:00","4","40.9166666","-8.6333333","22.0","OVAR MACEDA, PO","FM-12","99999","V020","360,1,N,0080,1","22000,1,9,N","010000,1,N,1","+0132,1","+0057,1","10264,1",,,,"01,1,+07800,1,00,1",,,,"01,99,1,00,1,00,1,99999,9,00,1,01,1",,,,"120,M,+0146,1","99999,9,10243,1","6,1,004,1,+999,9",,,"4,99,0130,9,999","SYN098AAXX  04181 08544 32960 13608 10132 20057 30243 40264 56004 80001 333 10146 81076 91113 555 60007;",
"08544099999","2010-04-05T06:00:00","4","40.9166666","-8.6333333","22.0","OVAR MACEDA, PO","FM-12","99999","V020","999,9,C,0000,1","22000,1,9,N","010000,1,N,1","+0028,1","+0023,1","10237,1",,,,"03,1,+07200,1,00,1",,,,"03,99,1,00,1,00,1,99999,9,00,1,01,1","0696,9",,,"999,N,+0028,1","99999,9,10216,1","7,1,013,1,+999,9",,,,"SYN104AAXX  05061 08544 32960 30000 10028 20023 30216 40237 57013 80001 333 20028 50344 55116 83074 555 60002;",
"08544099999","2010-04-05T09:00:00","4","40.9166666","-8.6333333","22.0","OVAR MACEDA, PO","FM-12","99999","V020","999,9,C,0000,1","08400,1,9,N","010000,1,N,1","+0114,1","+0072,1","10236,1",,,,"06,1,+08400,1,00,1",,,,"06,99,1,00,1,00,1,99999,9,00,1,04,1",,,,,"99999,9,10215,1","6,1,001,1,+999,9",,,,"SYN076AAXX  05091 08544 42960 60000 10114 20072 30215 40236 56001 80004 333 86078;",
"08544099999","2010-04-05T12:00:00","4","40.9166666","-8.6333333","22.0","OVAR MACEDA, PO","FM-12","99999","V020","290,1,N,0030,1","08400,1,9,N","010000,1,N,1","+0178,1","+0084,1","10227,1",,,,"05,1,+08400,1,00,1",,,,"05,99,1,00,1,00,1,99999,9,00,1,01,1",,,,,"99999,9,10207,1","8,1,008,1,+999,9",,,,"SYN092AAXX  05121 08544 32960 52903 10178 20084 30207 40227 58008 80001 333 85078 555 50004 60007;",
"08544099999","2010-04-05T15:00:00","4","40.9166666","-8.6333333","22.0","OVAR MACEDA, PO","FM-12","99999","V020","340,1,N,0050,1","22000,1,9,N","010000,1,N,1","+0174,1","+0100,1","10193,1",,,,"00,1,+99999,9,99,9",,,,"00,99,1,00,1,00,1,99999,9,00,1,00,1",,,,,"99999,9,10173,1","7,1,034,1,+999,9",,,,"SYN060AAXX  05151 08544 42960 03405 10174 20100 30173 40193 57034;",
"08544099999","2010-04-05T18:00:00","4","40.9166666","-8.6333333","22.0","OVAR MACEDA, PO","FM-12","99999","V020","360,1,N,0070,1","22000,1,9,N","010000,1,N,1","+0158,1","+0101,1","10184,1",,,,"00,1,+99999,9,99,9",,,,"00,99,1,00,1,00,1,99999,9,00,1,00,1",,,,"120,M,+0184,1","99999,9,10163,1","6,1,010,1,+999,9",,,,"SYN080AAXX  05181 08544 32960 03607 10158 20101 30163 40184 56010 333 10184 555 60007;",
"08544099999","2010-04-06T06:00:00","4","40.9166666","-8.6333333","22.0","OVAR MACEDA, PO","FM-12","99999","V020","999,9,C,0000,1","22000,1,9,N","010000,1,N,1","+0050,1","+0041,1","10163,1",,,,"04,1,+07200,1,00,1",,,,"04,99,1,00,1,00,1,99999,9,00,1,01,1","0714,9",,,"999,N,+0044,1","99999,9,10142,1","7,1,021,1,+999,9","00,1",,,"SYN110AAXX  06061 08544 31960 40000 10050 20041 30142 40163 57021 700// 80001 333 20044 50324 55119 84074 555 60002;",
"08544099999","2010-04-06T09:00:00","4","40.9166666","-8.6333333","22.0","OVAR MACEDA, PO","FM-12","99999","V020","240,1,N,0010,1","07200,1,9,N","010000,1,N,1","+0128,1","+0079,1","10166,1",,,,"06,1,+07200,1,00,1",,,,"06,99,1,00,1,00,1,99999,9,00,1,01,1",,,,,"99999,9,10146,1","1,1,004,1,+999,9",,,,"SYN076AAXX  06091 08544 42960 62401 10128 20079 30146 40166 51004 80001 333 86074;",
"08544099999","2010-04-06T12:00:00","4","40.9166666","-8.6333333","22.0","OVAR MACEDA, PO","FM-12","99999","V020","280,1,N,0030,1","07200,1,9,N","010000,1,N,1","+0168,1","+0128,1","10171,1",,,,"01,1,+00750,1,08,1","05,1,+07200,1,00,1",,,"06,99,1,01,1,02,1,00800,1,03,1,01,1",,,,,"99999,9,10151,1","2,1,005,1,+999,9",,,,"SYN098AAXX  06121 08544 32560 62803 10168 20128 30151 40171 52005 81231 333 81825 85074 555 50004 60007;",
"08544099999","2010-04-06T15:00:00","4","40.9166666","-8.6333333","22.0","OVAR MACEDA, PO","FM-12","99999","V020","310,1,N,0040,1","03600,1,C,N","010000,1,N,1","+0162,1","+0090,1","10167,1",,,,"02,1,+00750,1,08,1",,,,"07,99,1,01,1,02,1,00800,1,03,1,01,1",,,,,"99999,9,10147,1","7,1,004,1,+999,9",,,,"SYN082AAXX  06151 08544 42560 73104 10162 20090 30147 40167 57004 81231 333 82825 86074;",
"08544099999","2010-04-06T18:00:00","4","40.9166666","-8.6333333","22.0","OVAR MACEDA, PO","FM-12","99999","V020","300,1,N,0040,1","01800,1,C,N","010000,1,N,1","+0142,1","+0114,1","10168,1",,,,"03,1,+00750,1,08,1","03,1,+01800,1,03,1","07,1,+07200,1,00,1",,"07,99,1,03,1,02,1,00800,1,03,1,01,1",,,,"120,M,+0170,1","99999,9,10147,1","6,1,001,1,+999,9",,,,"SYN104AAXX  06181 08544 32560 73004 10142 20114 30147 40168 56000 83231 333 10170 83825 83356 87074 555 60007;","Q01+000002APC3  "
"08544099999","2010-04-07T06:00:00","4","40.9166666","-8.6333333","22.0","OVAR MACEDA, PO","FM-12","99999","V020","350,1,N,0030,1","22000,1,9,N","004000,1,N,1","+0092,1","+0088,1","10205,1","12,0030,9,1",,,"01,1,+00300,1,07,1","03,1,+00540,1,08,1",,,"04,99,1,04,1,02,1,00450,1,00,1,00,1","0372,9",,,"999,N,+0090,1","99999,9,10185,1","2,1,038,1,+999,9","10,1",,,"SYN122AAXX  07061 08544 11440 43503 10092 20088 30185 40205 52038 60032 710// 84200 333 20090 50214 55062 81710 83818 555 60032;",
"08544099999","2010-04-07T09:00:00","4","40.9166666","-8.6333333","22.0","OVAR MACEDA, PO","FM-12","99999","V020","010,1,N,0050,1","22000,1,9,N","010000,1,N,1","+0122,1","+0093,1","10219,1",,,,"01,1,+00540,1,08,1",,,,"01,99,1,01,1,01,1,00450,1,00,1,00,1",,,,,"99999,9,10198,1","2,1,013,1,+999,9",,,,"SYN076AAXX  07091 08544 42460 10105 10122 20093 30198 40219 52013 81100 333 81818;",
"08544099999","2010-04-07T12:00:00","4","40.9166666","-8.6333333","22.0","OVAR MACEDA, PO","FM-12","99999","V020","360,1,N,0070,1","22000,1,9,N","010000,1,N,1","+0154,1","+0084,1","10217,1",,,,"01,1,+00540,1,08,1",,,,"01,99,1,01,1,01,1,00450,1,00,1,00,1",,,,,"99999,9,10197,1","6,1,001,1,+999,9",,"0100,5","4,99,0110,9,999","SYN104AAXX  07121 08544 32460 13607 10154 20084 30197 40217 56001 81100 333 81818 91010 91111 555 50034 60007;",
"08544099999","2010-04-07T15:00:00","4","40.9166666","-8.6333333","22.0","OVAR MACEDA, PO","FM-12","99999","V020","010,1,N,0100,1","22000,1,9,N","010000,1,N,1","+0164,1","+0104,1","10208,1",,,,"00,1,+99999,9,99,9",,,,"00,99,1,00,1,00,1,99999,9,00,1,00,1",,,,,"99999,9,10187,1","7,1,010,1,+999,9",,"0160,5",,"SYN076AAXX  07151 08544 42960 00110 10164 20104 30187 40208 57010 333 91016 91116;",
"08544099999","2010-04-07T18:00:00","4","40.9166666","-8.6333333","22.0","OVAR MACEDA, PO","FM-12","99999","V020","360,1,N,0060,1","22000,1,9,N","010000,1,N,1","+0158,1","+0105,1","10202,1",,,,"01,1,+07500,1,00,1",,,,"01,99,1,00,1,00,1,99999,9,00,1,01,1",,,,"120,M,+0168,1","99999,9,10181,1","7,1,006,1,+999,9",,"0110,5","4,99,0160,9,999","SYN104AAXX  07181 08544 32960 13606 10158 20105 30181 40202 57006 80001 333 10168 81075 91011 91116 555 60007;",
"08544099999","2010-04-08T06:00:00","4","40.9166666","-8.6333333","22.0","OVAR MACEDA, PO","FM-12","99999","V020","080,1,N,0020,1","22000,1,9,N","010000,1,N,1","+0130,1","+0041,1","10222,1",,,,"01,1,+07500,1,00,1",,,,"01,99,1,00,1,00,1,99999,9,00,1,01,1","0702,9",,,"999,N,+0090,1","99999,9,10201,1","3,1,002,1,+999,9","00,1",,,"SYN110AAXX  08061 08544 31960 10802 10130 20041 30201 40222 53002 700// 80001 333 20090 50374 55117 81075 555 60002;",
"08544099999","2010-04-08T09:00:00","4","40.9166666","-8.6333333","22.0","OVAR MACEDA, PO","FM-12","99999","V020","100,1,N,0030,1","22000,1,9,N","010000,1,N,1","+0164,1","+0046,1","10230,1",,,,"01,1,+07500,1,00,1",,,,"01,99,1,00,1,00,1,99999,9,00,1,01,1",,,,,"99999,9,10210,1","1,1,009,1,+999,9",,,,"SYN076AAXX  08091 08544 42960 11003 10164 20046 30210 40230 51009 80001 333 81075;",
"08544099999","2010-04-08T12:00:00","4","40.9166666","-8.6333333","22.0","OVAR MACEDA, PO","FM-12","99999","V020","270,1,N,0030,1","22000,1,9,N","010000,1,N,1","+0204,1","+0068,1","10229,1",,,,"01,1,+07500,1,00,1",,,,"01,99,1,00,1,00,1,99999,9,00,1,01,1",,,,,"99999,9,10209,1","7,1,002,1,+999,9",,,,"SYN092AAXX  08121 08544 32960 12703 10204 20068 30209 40229 57002 80001 333 81075 555 50004 60007;",
"08544099999","2010-04-08T15:00:00","4","40.9166666","-8.6333333","22.0","OVAR MACEDA, PO","FM-12","99999","V020","340,1,N,0040,1","22000,1,9,N","010000,1,N,1","+0200,1","+0103,1","10213,1",,,,"01,1,+07500,1,00,1",,,,"01,99,1,00,1,00,1,99999,9,00,1,01,1",,,,,"99999,9,10193,1","7,1,016,1,+999,9",,,,"SYN076AAXX  08151 08544 42960 13404 10200 20103 30193 40213 57016 80001 333 81075;",
"08544099999","2010-04-08T18:00:00","4","40.9166666","-8.6333333","22.0","OVAR MACEDA, PO","FM-12","99999","V020","010,1,N,0080,1","22000,1,9,N","010000,1,N,1","+0180,1","+0082,1","10205,1",,,,"01,1,+07500,1,00,1",,,,"01,99,1,00,1,00,1,99999,9,00,1,01,1",,,,"120,M,+0214,1","99999,9,10185,1","6,1,008,1,+999,9",,"0120,5",,"SYN104AAXX  08181 08544 32960 10108 10180 20082 30185 40205 56008 80001 333 10214 81075 91012 91112 555 60007;",
"08544099999","2010-04-09T06:00:00","4","40.9166666","-8.6333333","22.0","OVAR MACEDA, PO","FM-12","99999","V020","999,9,C,0000,1","22000,1,9,N","010000,1,N,1","+0068,1","+0043,1","10204,1",,,,"01,1,+07200,1,00,1",,,,"01,99,1,00,1,00,1,99999,9,00,1,01,1","0702,9",,,"999,N,+0056,1","99999,9,10183,1","7,1,004,1,+999,9","00,1",,,"SYN110AAXX  09061 08544 31960 10000 10068 20043 30183 40204 57004 700// 80001 333 20056 50554 55117 81074 555 60002;",
"08544099999","2010-04-09T09:00:00","4","40.9166666","-8.6333333","22.0","OVAR MACEDA, PO","FM-12","99999","V020","999,9,C,0000,1","22000,1,9,N","010000,1,N,1","+0166,1","+0064,1","10209,1",,,,"01,1,+07200,1,00,1",,,,"01,99,1,00,1,00,1,99999,9,00,1,01,1",,,,,"99999,9,10189,1","0,1,006,1,+999,9",,,,"SYN076AAXX  09091 08544 42960 10000 10166 20064 30189 40209 50006 80001 333 81074;",
"08544099999","2010-04-09T12:00:00","4","40.9166666","-8.6333333","22.0","OVAR MACEDA, PO","FM-12","99999","V020","290,1,N,0040,1","22000,1,9,N","010000,1,N,1","+0202,1","+0075,1","10208,1",,,,"01,1,+07200,1,00,1",,,,"01,99,1,00,1,00,1,99999,9,00,1,01,1",,,,,"99999,9,10188,1","0,1,001,1,+999,9",,,,"SYN092AAXX  09121 08544 32960 12904 10202 20075 30188 40208 50001 80001 333 81074 555 50004 60007;",
"08544099999","2010-04-09T15:00:00","4","40.9166666","-8.6333333","22.0","OVAR MACEDA, PO","FM-12","99999","V020","330,1,N,0040,1","22000,1,9,N","010000,1,N,1","+0222,1","+0038,1","10196,1",,,,"01,1,+07200,1,00,1",,,,"01,99,1,00,1,00,1,99999,9,00,1,01,1",,,,,"99999,9,10176,1","7,1,012,1,+999,9",,,,"SYN076AAXX  09151 08544 42960 13304 10222 20038 30176 40196 57012 80001 333 81074;",
"08544099999","2010-04-09T18:00:00","4","40.9166666","-8.6333333","22.0","OVAR MACEDA, PO","FM-12","99999","V020","360,1,N,0080,1","22000,1,9,N","010000,1,N,1","+0174,1","+0100,1","10192,1",,,,"00,1,+99999,9,99,9",,,,"00,99,1,00,1,00,1,99999,9,00,1,00,1",,,,"120,M,+0222,1","99999,9,10171,1","6,1,005,1,+999,9",,,,"SYN080AAXX  09181 08544 32960 03608 10174 20100 30171 40192 56005 333 10222 555 60007;",
"08544099999","2010-04-10T06:00:00","4","40.9166666","-8.6333333","22.0","OVAR MACEDA, PO","FM-12","99999","V020","999,9,C,0000,1","22000,1,9,N","010000,1,N,1","+0068,1","+0056,1","10196,1",,,,"00,1,+99999,9,99,9",,,,"00,99,1,00,1,00,1,99999,9,00,1,00,1","0720,9",,,"999,N,+0066,1","99999,9,10175,1","2,1,004,1,+999,9","00,1",,,"SYN098AAXX  10061 08544 31960 00000 10068 20056 30175 40196 52004 700// 333 20066 50584 55120 555 60002;",
"08544099999","2010-04-10T09:00:00","4","40.9166666","-8.6333333","22.0","OVAR MACEDA, PO","FM-12","99999","V020","999,9,C,0000,1","22000,1,9,N","010000,1,N,1","+0178,1","+0101,1","10198,1",,,,"00,1,+99999,9,99,9",,,,"00,99,1,00,1,00,1,99999,9,00,1,00,1",,,,,"99999,9,10178,1","1,1,003,1,+999,9",,,,"SYN060AAXX  10091 08544 42960 00000 10178 20101 30178 40198 51003;",
"08544099999","2010-04-10T12:00:00","4","40.9166666","-8.6333333","22.0","OVAR MACEDA, PO","FM-12","99999","V020","320,1,N,0040,1","22000,1,9,N","010000,1,N,1","+0224,1","+0063,1","10185,1",,,,"01,1,+00600,1,08,1",,,,"01,99,1,01,1,01,1,00800,1,00,1,00,1",,,,,"99999,9,10165,1","7,1,013,1,+999,9",,,,"SYN092AAXX  10121 08544 32560 13204 10224 20063 30165 40185 57013 81100 333 81820 555 50004 60007;",
"08544099999","2010-04-10T15:00:00","4","40.9166666","-8.6333333","22.0","OVAR MACEDA, PO","FM-12","99999","V020","330,1,N,0060,1","22000,1,9,N","010000,1,N,1","+0210,1","+0116,1","10159,1",,,,"01,1,+00600,1,08,1",,,,"01,99,1,01,1,01,1,00800,1,00,1,00,1",,,,,"99999,9,10139,1","7,1,026,1,+999,9",,"0100,5",,"SYN088AAXX  10151 08544 42560 13306 10210 20116 30139 40159 57026 81100 333 81820 91010 91110;",
"08544099999","2010-04-10T18:00:00","4","40.9166666","-8.6333333","22.0","OVAR MACEDA, PO","FM-12","99999","V020","360,1,N,0060,1","22000,1,9,N","010000,1,N,1","+0202,1","+0089,1","10141,1",,,,"00,1,+99999,9,99,9",,,,"00,99,1,00,1,00,1,99999,9,00,1,00,1",,,,"120,M,+0228,1","99999,9,10121,1","7,1,018,1,+999,9",,"0090,5","4,99,0110,9,999","SYN092AAXX  10181 08544 32960 03606 10202 20089 30121 40141 57018 333 10228 91009 91111 555 60007;",
"08544099999","2010-04-11T06:00:00","4","40.9166666","-8.6333333","22.0","OVAR MACEDA, PO","FM-12","99999","V020","190,1,N,0010,1","22000,1,9,N","010000,1,N,1","+0090,1","+0049,1","10120,1",,,,"00,1,+99999,9,99,9",,,,"00,99,1,00,1,00,1,99999,9,00,1,00,1","0720,9",,,"999,N,+0080,1","99999,9,10099,1","7,1,010,1,+999,9","00,1",,,"SYN098AAXX  11061 08544 31960 01901 10090 20049 30099 40120 57010 700// 333 20080 50604 55120 555 60002;",
"08544099999","2010-04-11T09:00:00","4","40.9166666","-8.6333333","22.0","OVAR MACEDA, PO","FM-12","99999","V020","310,1,N,0010,1","22000,1,9,N","010000,1,N,1","+0172,1","+0086,1","10117,1",,,,"00,1,+99999,9,99,9",,,,"00,99,1,00,1,00,1,99999,9,00,1,00,1",,,,,"99999,9,10097,1","0,1,002,1,+999,9",,,,"SYN088AAXX  11091 08544 42960 03101 10172 20086 30097 40117 50002 555 30080 40/// 50004 60007;",
"08544099999","2010-04-11T12:00:00","4","40.9166666","-8.6333333","22.0","OVAR MACEDA, PO","FM-12","99999","V020","290,1,N,0040,1","22000,1,9,N","010000,1,N,1","+0218,1","+0102,1","10101,1",,,,"00,1,+99999,9,99,9",,,,"00,99,1,00,1,00,1,99999,9,00,1,00,1",,,,,"99999,9,10081,1","7,1,016,1,+999,9",,,,"SYN076AAXX  11121 08544 32960 02904 10218 20102 30081 40101 57016 555 50004 60007;",
"08544099999","2010-04-11T15:00:00","4","40.9166666","-8.6333333","22.0","OVAR MACEDA, PO","FM-12","99999","V020","350,1,N,0060,1","22000,1,9,N","010000,1,N,1","+0210,1","+0100,1","10087,1",,,,"00,1,+99999,9,99,9",,,,"00,99,1,00,1,00,1,99999,9,00,1,00,1",,,,,"99999,9,10067,1","7,1,014,1,+999,9",,"0100,5",,"SYN076AAXX  11151 08544 42960 03506 10210 20100 30067 40087 57014 333 91010 92010;",
"08544099999","2010-04-11T18:00:00","4","40.9166666","-8.6333333","22.0","OVAR MACEDA, PO","FM-12","99999","V020","340,1,N,0040,1","22000,1,9,N","010000,1,N,1","+0188,1","+0117,1","10073,1",,,,"00,1,+99999,9,99,9",,,,"00,99,1,00,1,00,1,99999,9,00,1,00,1",,,,"120,M,+0226,1","99999,9,10053,1","7,1,014,1,+999,9",,"0100,5",,"SYN092AAXX  11181 08544 32960 03404 10188 20117 30053 40073 57014 333 10226 91010 91110 555 60007;",
"08544099999","2010-04-12T06:00:00","4","40.9166666","-8.6333333","22.0","OVAR MACEDA, PO","FM-12","99999","V020","999,9,C,0000,1","22000,1,9,N","008000,1,N,1","+0078,1","+0066,1","10044,1","24,0033,9,1",,,"02,1,+00450,1,08,1",,,,"04,99,1,02,1,02,1,00450,1,00,1,01,1","0726,9",,,,"99999,9,10023,1","7,1,030,1,+999,9","10,1",,,"SYN110AAXX  12061 08544 31458 40000 10078 20066 30023 40044 57030 710// 82201 333 70034 50414 55121 82815 555 60002;",
"08544099999","2010-04-12T09:00:00","4","40.9166666","-8.6333333","22.0","OVAR MACEDA, PO","FM-12","99999","V020","300,1,N,0020,1","22000,1,9,N","010000,1,N,1","+0166,1","+0069,1","10044,1",,,,"03,1,+01800,1,03,1",,,,"03,99,1,03,1,00,1,01750,1,02,1,01,1",,,,,"99999,9,10024,1","3,1,001,1,+999,9",,,,"SYN076AAXX  12091 08544 42760 33002 10166 20069 30024 40044 53001 83021 333 83356;",
"08544099999","2010-04-12T12:00:00","4","40.9166666","-8.6333333","22.0","OVAR MACEDA, PO","FM-12","99999","V020","270,1,N,0040,1","22000,1,9,N","010000,1,N,1","+0202,1","+0046,1","10050,1",,,,"03,1,+01800,1,03,1","03,1,+06600,1,00,1",,,"04,99,1,03,1,00,1,01750,1,08,1,02,1",,,,,"99999,9,10030,1","2,1,006,1,+999,9",,,,"SYN098AAXX  12121 08544 32760 42704 10202 20046 30030 40050 52006 83082 333 83356 83072 555 50004 60007;",
"08544099999","2010-04-12T15:00:00","4","40.9166666","-8.6333333","22.0","OVAR MACEDA, PO","FM-12","99999","V020","070,1,N,0040,1","22000,1,9,N","010000,1,N,1","+0212,1","+0051,1","10046,1",,,,"03,1,+01800,1,03,1",,,,"04,99,1,03,1,00,1,01750,1,08,1,02,1",,,,,"99999,9,10026,1","7,1,004,1,+999,9",,,,"SYN082AAXX  12151 08544 42760 40704 10212 20051 30026 40046 57004 83082 333 83356 83072;",
"08544099999","2010-04-12T18:00:00","4","40.9166666","-8.6333333","22.0","OVAR MACEDA, PO","FM-12","99999","V020","080,1,N,0030,1","22000,1,9,N","010000,1,N,1","+0214,1","+0074,1","10043,1",,,,"01,1,+01200,1,06,1","03,1,+01800,1,03,1",,,"04,99,1,01,1,05,1,01250,1,08,1,02,1",,,,"120,M,+0224,1","99999,9,10023,1","8,1,003,1,+999,9",,,,"SYN098AAXX  12181 08544 32660 40803 10214 20074 30023 40043 58003 81582 333 10224 81640 83356 555 60007;",
"08544099999","2010-04-13T06:00:00","4","40.9166666","-8.6333333","22.0","OVAR MACEDA, PO","FM-12","99999","V020","999,9,9,9999,9","22000,1,9,N","010000,1,N,1","+0100,1","+0023,1","10072,1",,,,"01,1,+02100,1,03,1",,,,"01,99,1,01,1,00,1,02250,1,03,1,01,1","0570,9",,,"999,N,+0100,1","99999,9,10051,1","2,1,003,1,+999,9","00,1",,,"SYN104AAXX  13061 08544 31860 10100 20023 30051 40072 52003 700// 81031 333 20100 50754 55095 81357 555 60002;",
"08544099999","2010-04-13T09:00:00","4","40.9166666","-8.6333333","22.0","OVAR MACEDA, PO","FM-12","99999","V020","050,1,N,0020,1","09000,1,C,N","010000,1,N,1","+0142,1","+0037,1","10073,1",,,,"04,1,+05100,1,03,1",,,,"07,99,1,04,1,00,1,02250,1,07,1,04,1",,,,,"99999,9,10052,1","3,1,001,1,+999,9",,,,"SYN082AAXX  13091 08544 42860 70502 10142 20037 30052 40073 53001 84074 333 84367 87070;",
"08544099999","2010-04-13T12:00:00","4","40.9166666","-8.6333333","22.0","OVAR MACEDA, PO","FM-12","99999","V020","300,1,N,0030,1","06000,1,9,N","010000,1,N,1","+0178,1","+0062,1","10069,1",,,,"02,1,+02100,1,03,1","05,1,+06000,1,00,1",,,"05,99,1,02,1,00,1,02250,1,07,1,01,1",,,,,"99999,9,10049,1","7,1,004,1,+999,9",,,,"SYN098AAXX  13121 08544 32860 53003 10178 20062 30049 40069 57004 82071 333 82357 85070 555 50004 60007;",
"08544099999","2010-04-13T15:00:00","4","40.9166666","-8.6333333","22.0","OVAR MACEDA, PO","FM-12","99999","V020","330,1,N,0050,1","03600,1,C,N","010000,1,N,1","+0194,1","+0070,1","10054,1",,,,"04,1,+00750,1,08,1",,,,"06,99,1,04,1,02,1,00800,1,03,1,01,1",,,,,"99999,9,10034,1","7,1,015,1,+999,9",,,,"SYN082AAXX  13151 08544 42560 63305 10194 20070 30034 40054 57015 84231 333 84825 85070;",
"08544099999","2010-04-13T18:00:00","4","40.9166666","-8.6333333","22.0","OVAR MACEDA, PO","FM-12","99999","V020","340,1,N,0020,1","02100,1,9,N","010000,1,N,1","+0174,1","+0104,1","10047,1",,,,"04,1,+00750,1,06,1","07,1,+02100,1,04,1","08,1,+06000,1,02,1",,"08,99,1,04,1,02,1,00800,1,07,1,07,1",,,,"120,M,+0200,1","99999,9,10027,1","7,1,007,1,+999,9",,,,"SYN104AAXX  13181 08544 32560 83402 10174 20104 30027 40047 57007 84277 333 10200 84625 87457 88270 555 60007;",
"08544099999","2010-04-14T06:00:00","4","40.9166666","-8.6333333","22.0","OVAR MACEDA, PO","FM-12","99999","V020","060,1,N,0020,1","02400,1,9,N","010000,1,N,1","+0120,1","+0062,1","10050,1","12,0000,9,1",,,"04,1,+00660,1,06,1","06,1,+02400,1,04,1","05,1,+07200,1,00,1",,"07,99,1,04,1,02,1,00800,1,07,1,01,1","0516,9",,,"999,N,+0120,1","99999,9,10030,1","8,1,003,1,+999,9","00,1",,,"SYN128AAXX  14061 08544 11560 70602 10120 20062 30030 40050 58003 69922 700// 84271 333 20120 50634 55086 84622 86458 85074 555 69922;","Q01  00002PRCP12"
"08544099999","2010-04-14T09:00:00","4","40.9166666","-8.6333333","22.0","OVAR MACEDA, PO","FM-12","99999","V020","110,1,N,0010,1","00750,1,9,N","010000,1,N,1","+0158,1","+0094,1","10049,1",,"8,1,03,1","2,1,03,1","05,1,+00750,1,08,1",,,,"07,99,1,05,1,02,1,00800,1,07,1,01,1",,,,,"99999,9,10029,1","0,1,000,1,+999,9","25,1",,,"SYN088AAXX  14091 08544 41560 71101 10158 20094 30029 40049 50000 72582 85271 333 85825 84458;",
"08544099999","2010-04-14T12:00:00","4","40.9166666","-8.6333333","22.0","OVAR MACEDA, PO","FM-12","99999","V020","310,1,N,0040,1","02400,1,9,N","010000,1,N,1","+0192,1","+0098,1","10042,1","06,0000,2,1","8,1,06,1","2,1,06,1","04,1,+00750,1,08,1","03,1,+02400,1,04,1",,,"06,99,1,04,1,02,1,00800,1,03,1,01,1",,,,,"99999,9,10022,1","6,1,007,1,+999,9","03,1",,,"SYN110AAXX  14121 08544 11560 63104 10192 20098 30022 40042 56007 69921 70382 84231 333 84825 83458 555 59924 60007;",
"08544099999","2010-04-14T15:00:00","4","40.9166666","-8.6333333","22.0","OVAR MACEDA, PO","FM-12","99999","V020","060,1,N,0020,1","00750,1,9,N","010000,1,N,1","+0178,1","+0109,1","10034,1",,"8,1,03,1","2,1,03,1","05,1,+00750,1,08,1","04,1,+01200,1,06,1",,,"08,99,1,06,1,08,1,00800,1,03,1,01,1",,,,,"99999,9,10015,1","7,1,007,1,+999,9","25,1",,,"SYN098AAXX  14151 08544 41560 80602 10178 20109 30015 40034 57007 72582 86831 333 85825 84640 555 69917;",
"08544099999","2010-04-14T18:00:00","4","40.9166666","-8.6333333","22.0","OVAR MACEDA, PO","FM-12","99999","V020","110,1,N,0040,1","01200,1,9,N","010000,1,N,1","+0184,1","+0108,1","10023,1","12,0003,9,1","8,1,06,1","2,1,06,1","02,1,+00600,1,08,1","04,1,+01200,1,06,1","05,1,+02400,1,04,1",,"07,99,1,05,1,08,1,00450,1,07,1,01,1",,,,"120,M,+0210,1","99999,9,10004,1","7,1,011,1,+999,9","25,1",,,"SYN116AAXX  14181 08544 11460 71104 10184 20108 30004 40023 57011 69932 72582 85871 333 10210 82820 84640 85458 555 69907;",
"08544099999","2010-04-15T06:00:00","4","40.9166666","-8.6333333","22.0","OVAR MACEDA, PO","FM-12","99999","V020","080,1,N,0020,1","00900,1,9,N","010000,1,N,1","+0144,1","+0120,1","09982,1","12,0041,9,1",,,"03,1,+00540,1,08,1","04,1,+00900,1,06,1","06,1,+02100,1,04,1",,"08,99,1,05,1,08,1,00450,1,07,1,99,9","0150,9",,,"999,N,+0136,1","99999,9,09962,1","7,1,021,1,+999,9","00,1",,,"SYN128AAXX  15061 08544 11460 80802 10144 20120 39962 49982 57021 60042 700// 8587/ 333 20136 50364 55025 83818 84630 86457 555 60042;",
"08544099999","2010-04-15T09:00:00","4","40.9166666","-8.6333333","22.0","OVAR MACEDA, PO","FM-12","99999","V020","170,1,N,0030,1","00900,1,9,N","010000,1,N,1","+0178,1","+0125,1","10003,1",,,,"04,1,+00540,1,08,1","05,1,+00900,1,06,1",,,"07,99,1,06,1,08,1,00450,1,03,1,00,1",,,,,"99999,9,09983,1","2,1,021,1,+999,9",,"0120,5",,"SYN094AAXX  15091 08544 42460 71703 10178 20125 39983 40003 52021 86830 333 84818 85630 91012 91112;",
"08544099999","2010-04-15T12:00:00","4","40.9166666","-8.6333333","22.0","OVAR MACEDA, PO","FM-12","99999","V020","190,1,N,0090,1","00660,1,9,N","010000,1,N,1","+0204,1","+0117,1","10021,1",,,,"04,1,+00540,1,08,1","01,1,+00660,1,09,1","05,1,+00900,1,06,1",,"07,99,1,06,1,09,1,00450,1,03,1,00,1",,,,,"99999,9,10001,1","2,1,018,1,+999,9",,"0150,5","4,99,0170,9,999","SYN116AAXX  15121 08544 32460 71909 10204 20117 30001 40021 52018 86930 333 84818 81922 85630 91015 91117 555 50044 60007;",
"08544099999","2010-04-15T15:00:00","4","40.9166666","-8.6333333","22.0","OVAR MACEDA, PO","FM-12","99999","V020","240,1,N,0030,1","00660,1,9,N","010000,1,N,1","+0184,1","+0113,1","10021,1",,"8,1,03,1","2,1,03,1","04,1,+00540,1,08,1","01,1,+00660,1,09,1","05,1,+00900,1,06,1",,"07,99,1,06,1,09,1,00450,1,03,1,00,1",,,,,"99999,9,10001,1","4,1,000,1,+999,9","25,1","0130,5",,"SYN106AAXX  15151 08544 41460 72403 10184 20113 30001 40021 51000 72582 86930 333 84818 81922 85630 91013 91113;","Q01+000012APCTEN"
"08544099999","2010-04-15T18:00:00","4","40.9166666","-8.6333333","22.0","OVAR MACEDA, PO","FM-12","99999","V020","270,1,N,0040,1","00660,1,9,N","010000,1,N,1","+0172,1","+0139,1","10034,1","12,0041,9,1","8,1,06,1","2,1,06,1","04,1,+00540,1,08,1","03,1,+00660,1,09,1","05,1,+00900,1,06,1",,"07,99,1,06,1,09,1,00450,1,03,1,00,1",,,,"120,M,+0210,1","99999,9,10014,1","3,1,013,1,+999,9","03,1",,,"SYN116AAXX  15181 08544 31460 72704 10172 20139 30014 40034 53013 60042 70382 86930 333 10210 84818 83922 85630 555 60007;",
"08544099999","2010-04-16T06:00:00","4","40.9166666","-8.6333333","22.0","OVAR MACEDA, PO","FM-12","99999","V020","110,1,N,0030,1","00900,1,9,N","010000,1,N,1","+0142,1","+0103,1","10039,1","12,0089,9,1",,,"02,1,+00450,1,08,1","04,1,+00900,1,06,1","04,1,+06000,1,00,1",,"06,99,1,06,1,08,1,00450,1,00,1,01,1","0474,9",,,"999,N,+0124,1","99999,9,10019,1","2,1,005,1,+999,9","00,1",,,"SYN128AAXX  16061 08544 11460 61103 10142 20103 30019 40039 52005 60092 700// 86801 333 20124 50574 55079 82815 84630 84070 555 60092;",
"08544099999","2010-04-16T09:00:00","4","40.9166666","-8.6333333","22.0","OVAR MACEDA, PO","FM-12","99999","V020","160,1,N,0060,1","02100,1,9,N","010000,1,N,1","+0184,1","+0109,1","10052,1",,,,"01,1,+00480,1,08,1","05,1,+02100,1,03,1",,,"06,99,1,01,1,02,1,00450,1,03,1,01,1",,,,,"99999,9,10032,1","2,1,013,1,+999,9",,"0100,5",,"SYN094AAXX  16091 08544 42460 61606 10184 20109 30032 40052 52013 81231 333 81816 85357 91010 91110;",
"08544099999","2010-04-16T12:00:00","4","40.9166666","-8.6333333","22.0","OVAR MACEDA, PO","FM-12","99999","V020","170,1,N,0090,1","06000,1,9,N","010000,1,N,1","+0210,1","+0100,1","10055,1",,,,"03,1,+00600,1,08,1","03,1,+01200,1,06,1","05,1,+06000,1,00,1",,"06,99,1,04,1,08,1,00800,1,03,1,01,1",,,,,"99999,9,10035,1","0,1,003,1,+999,9",,"0130,5","4,99,0160,9,999","SYN116AAXX  16121 08544 32560 61709 10210 20100 30035 40055 50003 84831 333 83820 83640 85070 91013 91116 555 50094 60007;",
"08544099999","2010-04-16T15:00:00","4","40.9166666","-8.6333333","22.0","OVAR MACEDA, PO","FM-12","99999","V020","190,1,N,0080,1","06000,1,9,N","010000,1,N,1","+0226,1","+0091,1","10045,1",,,,"04,1,+00600,1,08,1","05,1,+06000,1,00,1",,,"06,99,1,05,1,08,1,00800,1,00,1,01,1",,,,,"99999,9,10025,1","7,1,010,1,+999,9",,"0130,5",,"SYN094AAXX  16151 08544 42560 61908 10226 20091 30025 40045 57010 85801 333 84820 85070 91013 91115;",
"08544099999","2010-04-16T18:00:00","4","40.9166666","-8.6333333","22.0","OVAR MACEDA, PO","FM-12","99999","V020","160,1,N,0030,1","01200,1,9,N","007000,1,N,1","+0148,1","+0127,1","10069,1","12,0005,9,1","8,1,06,1","2,1,06,1","02,1,+00450,1,08,1","01,1,+00600,1,09,1","05,1,+01200,1,06,1","06,1,+02100,1,03,1","08,99,1,06,1,09,1,00450,1,07,1,99,9",,,,"120,M,+0228,1","99999,9,10046,1","2,1,023,1,+999,9","80,1",,"4,99,0180,9,999","SYN128AAXX  16181 08544 11457 81603 10148 20127 30046 40069 52023 69962 78082 8697/ 333 10228 82815 81920 85640 86357 91118 555 69967;",
"08544099999","2010-04-17T06:00:00","4","40.9166666","-8.6333333","22.0","OVAR MACEDA, PO","FM-12","99999","V020","999,9,C,0000,1","02100,1,9,N","010000,1,N,1","+0128,1","+0114,1","10091,1","12,0020,9,1",,,"01,1,+00450,1,08,1","07,1,+02100,1,03,1",,,"08,99,1,02,1,08,1,00450,1,07,1,99,9","0384,9",,,"999,N,+0116,1","99999,9,10071,1","4,1,000,1,+999,9","00,1",,,"SYN122AAXX  17061 08544 11460 80000 10128 20114 30071 40091 54000 60022 700// 8287/ 333 20116 50454 55064 81815 87357 555 60022;",
"08544099999","2010-04-17T09:00:00","4","40.9166666","-8.6333333","22.0","OVAR MACEDA, PO","FM-12","99999","V020","999,9,C,0000,1","03600,1,C,N","010000,1,N,1","+0150,1","+0133,1","10101,1",,,,"03,1,+01050,1,06,1",,,,"06,99,1,03,1,05,1,00800,1,07,1,00,1",,,,,"99999,9,10080,1","2,1,009,1,+999,9",,,,"SYN082AAXX  17091 08544 42560 60000 10150 20133 30080 40101 52009 83570 333 83635 85457;",
"08544099999","2010-04-17T12:00:00","4","40.9166666","-8.6333333","22.0","OVAR MACEDA, PO","FM-12","99999","V020","230,1,N,0030,1","01050,1,9,N","010000,1,N,1","+0190,1","+0104,1","10100,1",,,,"03,1,+00600,1,08,1","03,1,+01050,1,06,1",,,"05,99,1,05,1,08,1,00800,1,00,1,00,1",,,,,"99999,9,10080,1","0,1,000,1,+999,9",,,,"SYN098AAXX  17121 08544 32560 52303 10190 20104 30080 40100 50000 85800 333 83820 83635 555 50034 60007;",
"08544099999","2010-04-17T15:00:00","4","40.9166666","-8.6333333","22.0","OVAR MACEDA, PO","FM-12","99999","V020","260,1,N,0050,1","99999,9,9,N","010000,1,N,1","+0180,1","+0123,1","10092,1",,,,"01,1,+00600,1,09,1","04,1,+00600,1,08,1",,,"07,99,1,04,1,09,1,00800,1,00,1,00,1",,,,,"99999,9,10072,1","5,1,008,1,+999,9",,,,"SYN088AAXX  17151 08544 42560 72605 10180 20123 30072 40092 55008 84900 333 84820 81920 85630;",
"08544099999","2010-04-17T18:00:00","4","40.9166666","-8.6333333","22.0","OVAR MACEDA, PO","FM-12","99999","V020","999,9,C,0000,1","99999,9,9,N","010000,1,N,1","+0160,1","+0126,1","10086,1","12,0020,9,1","9,1,06,1","8,1,06,1","03,1,+00600,1,08,1","04,1,+00900,1,06,1",,,"06,99,1,03,1,08,1,00800,1,00,1,00,1",,,,"120,M,+0204,1","99999,9,10066,1","8,1,006,1,+999,9","01,1",,,"SYN110AAXX  17181 08544 11560 60000 10160 20126 30066 40086 58006 60022 70198 83800 333 10204 83820 84630 555 60027;",
"08544099999","2010-04-18T06:00:00","4","40.9166666","-8.6333333","22.0","OVAR MACEDA, PO","FM-12","99999","V020","999,9,C,0000,1","00900,1,9,N","010000,1,N,1","+0116,1","+0105,1","10089,1","12,0010,9,1",,,"06,1,+00900,1,06,1",,,,"06,99,1,06,1,05,1,00800,1,00,1,00,1","0306,9",,,"999,N,+0104,1","99999,9,10069,1","8,1,002,1,+999,9","00,1",,,"SYN116AAXX  18061 08544 11560 60000 10116 20105 30069 40089 58002 60012 700// 86500 333 20104 50194 55051 86630 555 60012;",
"08544099999","2010-04-18T09:00:00","4","40.9166666","-8.6333333","22.0","OVAR MACEDA, PO","FM-12","99999","V020","170,1,N,0020,1","00900,1,9,N","010000,1,N,1","+0158,1","+0124,1","10099,1",,"8,1,03,1","2,1,03,1","02,1,+00600,1,08,1",,,,"07,99,1,07,1,08,1,00450,1,00,1,00,1",,,,,"99999,9,10079,1","2,1,010,1,+999,9","25,1",,,"SYN088AAXX  18091 08544 41460 71702 10158 20124 30079 40099 52010 72582 87800 333 82820 86630;",
"08544099999","2010-04-18T12:00:00","4","40.9166666","-8.6333333","22.0","OVAR MACEDA, PO","FM-12","99999","V020","190,1,N,0040,1","00900,1,9,N","010000,1,N,1","+0190,1","+0120,1","10103,1","06,0000,2,1","8,1,06,1","2,1,06,1","03,1,+00540,1,08,1","01,1,+00600,1,09,1","05,1,+00900,1,06,1",,"06,99,1,06,1,09,1,00450,1,00,1,00,1",,,,,"99999,9,10083,1","0,1,004,1,+999,9","02,1",,,"SYN116AAXX  18121 08544 11460 61904 10190 20120 30083 40103 50004 69911 70282 86900 333 83818 81920 85630 555 50034 60007;",
"08544099999","2010-04-18T15:00:00","4","40.9166666","-8.6333333","22.0","OVAR MACEDA, PO","FM-12","99999","V020","320,1,N,0040,1","22000,1,9,N","010000,1,N,1","+0184,1","+0128,1","10108,1",,,,"02,1,+00450,1,08,1","01,1,+00540,1,09,1",,,"05,99,1,03,1,03,1,00450,1,00,1,01,1",,,,,"99999,9,10088,1","3,1,005,1,+999,9",,,,"SYN088AAXX  18151 08544 42460 53204 10184 20128 30088 40108 53005 83301 333 82815 81918 83630;",
"08544099999","2010-04-18T18:00:00","4","40.9166666","-8.6333333","22.0","OVAR MACEDA, PO","FM-12","99999","V020","360,1,N,0030,1","22000,1,9,N","010000,1,N,1","+0182,1","+0125,1","10115,1","12,0000,2,1",,,"02,1,+00450,1,08,1","01,1,+00540,1,09,1",,,"03,99,1,03,1,03,1,00450,1,00,1,01,1",,,,"120,M,+0196,1","99999,9,10095,1","2,1,007,1,+999,9",,,,"SYN104AAXX  18181 08544 12460 33603 10182 20125 30095 40115 52007 69912 83301 333 10196 82815 81918 555 60007;",
"08544099999","2010-04-19T06:00:00","4","40.9166666","-8.6333333","22.0","OVAR MACEDA, PO","FM-12","99999","V020","999,9,C,0000,1","22000,1,9,N","005000,1,N,1","+0100,1","+0100,1","10153,1",,,,"01,1,+00900,1,06,1",,,,"01,99,1,01,1,05,1,00800,1,00,1,00,1","0438,9",,,"999,N,+0098,1","99999,9,10132,1","2,1,007,1,+999,9","10,1",,,"SYN110AAXX  19061 08544 31550 10000 10100 20100 30132 40153 52007 710// 81500 333 20098 50224 55073 81630 555 60002;",
"08544099999","2010-04-19T09:00:00","4","40.9166666","-8.6333333","22.0","OVAR MACEDA, PO","FM-12","99999","V020","170,1,N,0030,1","22000,1,9,N","010000,1,N,1","+0176,1","+0129,1","10167,1",,,,"03,1,+00900,1,05,1",,,,"03,99,1,03,1,05,1,00800,1,00,1,01,1",,,,,"99999,9,10146,1","2,1,015,1,+999,9",,,,"SYN082AAXX  19091 08544 42560 31703 10176 20129 30146 40167 52015 83501 333 83530 81072;",
"08544099999","2010-04-19T12:00:00","4","40.9166666","-8.6333333","22.0","OVAR MACEDA, PO","FM-12","99999","V020","300,1,N,0040,1","06600,1,9,N","010000,1,N,1","+0192,1","+0129,1","10169,1",,,,"02,1,+00750,1,08,1","05,1,+06600,1,00,1",,,"05,99,1,02,1,02,1,00800,1,00,1,04,1",,,,,"99999,9,10149,1","0,1,003,1,+999,9",,,,"SYN098AAXX  19121 08544 32560 53004 10192 20129 30149 40169 50003 82204 333 82825 85072 555 50004 60007;",
"08544099999","2010-04-19T15:00:00","4","40.9166666","-8.6333333","22.0","OVAR MACEDA, PO","FM-12","99999","V020","310,1,N,0020,1","22000,1,9,N","010000,1,N,1","+0196,1","+0130,1","10165,1",,,,"03,1,+00900,1,08,1",,,,"05,99,1,03,1,02,1,00800,1,00,1,01,1",,,,,"99999,9,10145,1","8,1,004,1,+999,9",,,,"SYN082AAXX  19151 08544 42560 53102 10196 20130 30145 40165 58004 83201 333 83830 83635;",
"08544099999","2010-04-19T18:00:00","4","40.9166666","-8.6333333","22.0","OVAR MACEDA, PO","FM-12","99999","V020","340,1,N,0020,1","22000,1,9,N","010000,1,N,1","+0188,1","+0131,1","10156,1",,,,"03,1,+00900,1,08,1","03,1,+06600,1,00,1",,,"04,99,1,03,1,02,1,00800,1,00,1,01,1",,,,"120,M,+0204,1","99999,9,10136,1","6,1,009,1,+999,9",,,,"SYN098AAXX  19181 08544 32560 43402 10188 20131 30136 40156 56009 83201 333 10204 83830 83072 555 60007;",
"08544099999","2010-04-20T06:00:00","4","40.9166666","-8.6333333","22.0","OVAR MACEDA, PO","FM-12","99999","V020","999,9,C,0000,1","07200,1,9,N","010000,1,N,1","+0122,1","+0111,1","10146,1",,,,"02,1,+00960,1,06,1","03,1,+01800,1,04,1","05,1,+07200,1,00,1",,"06,99,1,02,1,05,1,00800,1,07,1,01,1","0636,9",,,"999,N,+0114,1","99999,9,10126,1","7,1,004,1,+999,9","00,1",,,"SYN122AAXX  20061 08544 31560 60000 10122 20111 30126 40146 57004 700// 82571 333 20114 50234 55106 82632 83456 85074 555 60002;",
"08544099999","2010-04-20T09:00:00","4","40.9166666","-8.6333333","22.0","OVAR MACEDA, PO","FM-12","99999","V020","290,1,N,0040,1","03600,1,C,N","010000,1,N,1","+0174,1","+0134,1","10155,1",,,,"01,1,+00450,1,08,1",,,,"07,99,1,02,1,08,1,00450,1,03,1,01,1",,,,,"99999,9,10135,1","2,1,009,1,+999,9",,,,"SYN082AAXX  20091 08544 42460 72904 10174 20134 30135 40155 52009 82831 333 81815 86359;",
"08544099999","2010-04-20T12:00:00","4","40.9166666","-8.6333333","22.0","OVAR MACEDA, PO","FM-12","99999","V020","320,1,N,0020,1","05700,1,9,N","010000,1,N,1","+0200,1","+0142,1","10151,1",,,,"02,1,+00540,1,08,1","05,1,+05700,1,03,1","06,1,+07500,1,00,1",,"07,99,1,03,1,08,1,00450,1,03,1,01,1",,,,,"99999,9,10131,1","8,1,004,1,+999,9",,,,"SYN104AAXX  20121 08544 32460 73202 10200 20142 30131 40151 58004 83831 333 82818 85369 86075 555 50004 60007;",
"08544099999","2010-04-20T15:00:00","4","40.9166666","-8.6333333","22.0","OVAR MACEDA, PO","FM-12","99999","V020","330,1,N,0040,1","03600,1,C,N","010000,1,N,1","+0228,1","+0138,1","10135,1",,,,"03,1,+00540,1,08,1",,,,"07,99,1,03,1,02,1,00450,1,03,1,01,1",,,,,"99999,9,10116,1","7,1,015,1,+999,9",,,,"SYN082AAXX  20151 08544 42460 73304 10228 20138 30116 40135 57015 83231 333 83818 87070;",
"08544099999","2010-04-20T18:00:00","4","40.9166666","-8.6333333","22.0","OVAR MACEDA, PO","FM-12","99999","V020","360,1,N,0040,1","02400,1,9,N","010000,1,N,1","+0214,1","+0117,1","10126,1",,,,"01,1,+00600,1,08,1","06,1,+02400,1,03,1",,,"07,99,1,01,1,02,1,00800,1,03,1,01,1",,,,"120,M,+0232,1","99999,9,10106,1","7,1,010,1,+999,9",,,,"SYN098AAXX  20181 08544 32560 73604 10214 20117 30106 40126 57010 81231 333 10232 81820 86358 555 60007;",
"08544099999","2010-04-21T06:00:00","4","40.9166666","-8.6333333","22.0","OVAR MACEDA, PO","FM-12","99999","V020","180,1,N,0020,1","02400,1,9,N","006000,1,N,1","+0152,1","+0145,1","10108,1","12,0079,9,1",,,"02,1,+00540,1,08,1","07,1,+02400,1,03,1",,,"08,99,1,03,1,08,1,00450,1,07,1,99,9","0234,9",,,"999,N,+0148,1","99999,9,10087,1","7,1,008,1,+999,9","10,1",,,"SYN122AAXX  21061 08544 11456 81802 10152 20145 30087 40108 57008 60082 710// 8387/ 333 20148 50294 55039 82818 87358 555 60082;",
"08544099999","2010-04-21T09:00:00","4","40.9166666","-8.6333333","22.0","OVAR MACEDA, PO","FM-12","99999","V020","999,9,C,0000,1","01050,1,9,N","010000,1,N,1","+0168,1","+0152,1","10114,1",,"6,1,03,1","2,1,03,1","01,1,+00540,1,08,1","05,1,+01050,1,06,1",,,"08,99,1,05,1,08,1,00450,1,07,1,99,9",,,,,"99999,9,10094,1","2,1,007,1,+999,9","02,1",,,"SYN094AAXX  21091 08544 41460 80000 10168 20152 30094 40114 52007 70262 8587/ 333 81818 85635 87458;",
"08544099999","2010-04-21T12:00:00","4","40.9166666","-8.6333333","22.0","OVAR MACEDA, PO","FM-12","99999","V020","170,1,N,0040,1","01050,1,9,N","010000,1,N,1","+0208,1","+0140,1","10111,1","06,0000,9,1","6,1,06,1","2,1,06,1","02,1,+00750,1,08,1","04,1,+01050,1,06,1",,,"06,99,1,05,1,08,1,00800,1,03,1,04,1",,,,,"99999,9,10091,1","8,1,003,1,+999,9","03,1",,,"SYN110AAXX  21121 08544 11560 61704 10208 20140 30091 40111 58003 69911 70362 85834 333 82825 84635 555 50084 60007;","Q01  00002PRCP06"
"08544099999","2010-04-21T15:00:00","4","40.9166666","-8.6333333","22.0","OVAR MACEDA, PO","FM-12","99999","V020","270,1,N,0020,1","00840,1,C,N","010000,1,N,1","+0202,1","+0144,1","10098,1",,,,"03,1,+00750,1,08,1","02,1,+00840,1,09,1",,,"05,99,1,04,1,09,1,00800,1,03,1,00,1",,,,,"99999,9,10078,1","7,1,013,1,+999,9",,,,"SYN088AAXX  21151 08544 42560 52702 10202 20144 30078 40098 57013 84930 333 83825 82928 83635;",
"08544099999","2010-04-21T18:00:00","4","40.9166666","-8.6333333","22.0","OVAR MACEDA, PO","FM-12","99999","V020","340,1,N,0030,1","09000,1,9,N","010000,1,N,1","+0198,1","+0136,1","10093,1",,,,"03,1,+00750,1,08,1","03,1,+00840,1,09,1",,,"05,99,1,04,1,09,1,00800,1,00,1,02,1",,,,"120,M,+0216,1","99999,9,10073,1","6,1,005,1,+999,9",,,,"SYN098AAXX  21181 08544 32560 53403 10198 20136 30073 40093 56005 84902 333 10216 83825 83928 555 60007;",
"08544099999","2010-04-22T06:00:00","4","40.9166666","-8.6333333","22.0","OVAR MACEDA, PO","FM-12","99999","V020","999,9,C,0000,1","03600,1,9,N","007000,1,N,1","+0120,1","+0113,1","10092,1","12,0020,9,1",,,"03,1,+00900,1,08,1","04,1,+01050,1,06,1",,,"06,99,1,04,1,08,1,00800,1,07,1,01,1","0450,9",,,"999,N,+0120,1","99999,9,10071,1","7,1,003,1,+999,9","10,1",,,"SYN122AAXX  22061 08544 11557 60000 10120 20113 30071 40092 57003 60022 710// 84871 333 20120 50244 55075 83830 84635 555 60022;",
"08544099999","2010-04-22T09:00:00","4","40.9166666","-8.6333333","22.0","OVAR MACEDA, PO","FM-12","99999","V020","020,1,N,0020,1","00900,1,C,N","010000,1,N,1","+0160,1","+0133,1","10102,1",,,,"03,1,+00660,1,08,1",,,,"06,99,1,05,1,08,1,00450,1,03,1,01,1",,,,,"99999,9,10082,1","2,1,011,1,+999,9",,,,"SYN082AAXX  22091 08544 42460 60202 10160 20133 30082 40102 52011 85831 333 83822 85635;",
"08544099999","2010-04-22T12:00:00","4","40.9166666","-8.6333333","22.0","OVAR MACEDA, PO","FM-12","99999","V020","340,1,N,0050,1","00660,1,C,N","010000,1,N,1","+0194,1","+0132,1","10105,1",,,,"02,1,+00600,1,09,1","03,1,+00660,1,08,1",,,"05,99,1,04,1,09,1,00450,1,03,1,00,1",,,,,"99999,9,10085,1","0,1,003,1,+999,9",,,,"SYN098AAXX  22121 08544 32460 53405 10194 20132 30085 40105 50003 84930 333 82920 83822 555 50024 60007;",
"08544099999","2010-04-22T15:00:00","4","40.9166666","-8.6333333","22.0","OVAR MACEDA, PO","FM-12","99999","V020","320,1,N,0050,1","22000,1,9,N","010000,1,N,1","+0194,1","+0139,1","10101,1",,,,"02,1,+00600,1,09,1",,,,"04,99,1,04,1,09,1,00450,1,03,1,00,1",,,,,"99999,9,10081,1","6,1,004,1,+999,9",,,,"SYN082AAXX  22151 08544 42460 43205 10194 20139 30081 40101 56004 84930 333 82920 83822;",
"08544099999","2010-04-22T18:00:00","4","40.9166666","-8.6333333","22.0","OVAR MACEDA, PO","FM-12","99999","V020","350,1,N,0060,1","01050,1,9,N","010000,1,N,1","+0174,1","+0141,1","10109,1",,,,"03,1,+00660,1,08,1","03,1,+01050,1,06,1",,,"06,99,1,05,1,08,1,00450,1,03,1,00,1",,,,"120,M,+0198,1","99999,9,10089,1","2,1,006,1,+999,9",,,,"SYN098AAXX  22181 08544 32460 63506 10174 20141 30089 40109 52006 85830 333 10198 83822 83635 555 60007;",
"08544099999","2010-04-23T06:00:00","4","40.9166666","-8.6333333","22.0","OVAR MACEDA, PO","FM-12","99999","V020","360,1,N,0020,1","00600,1,9,N","007000,1,N,1","+0150,1","+0126,1","10125,1",,,,"03,1,+00360,1,08,1","06,1,+00600,1,06,1",,,"07,99,1,07,1,02,1,00450,1,00,1,00,1","0546,9",,,"999,N,+0148,1","99999,9,10105,1","2,1,016,1,+999,9","10,1",,,"SYN116AAXX  23061 08544 31457 73602 10150 20126 30105 40125 52016 710// 87200 333 20148 50264 55091 83812 86620 555 60002;",
"08544099999","2010-04-23T09:00:00","4","40.9166666","-8.6333333","22.0","OVAR MACEDA, PO","FM-12","99999","V020","340,1,N,0030,1","00900,1,C,N","010000,1,N,1","+0156,1","+0140,1","10142,1",,"8,1,03,1","2,1,03,1","04,1,+00450,1,08,1",,,,"08,99,1,08,1,08,1,00450,1,99,9,99,9",,,,,"99999,9,10122,1","2,1,017,1,+999,9","25,1",,,"SYN088AAXX  23091 08544 41460 83403 10156 20140 30122 40142 52017 72582 888// 333 84815 86622;",
"08544099999","2010-04-23T12:00:00","4","40.9166666","-8.6333333","22.0","OVAR MACEDA, PO","FM-12","99999","V020","340,1,N,0030,1","00840,1,9,N","010000,1,N,1","+0170,1","+0123,1","10149,1","06,0000,2,1","8,1,06,1","2,1,06,1","04,1,+00450,1,08,1","06,1,+00840,1,06,1",,,"08,99,1,08,1,08,1,00450,1,99,9,99,9",,,,,"99999,9,10129,1","0,1,007,1,+999,9","02,1",,,"SYN110AAXX  23121 08544 11460 83403 10170 20123 30129 40149 50007 69911 70282 888// 333 84815 86628 555 59914 60007;",
"08544099999","2010-04-23T15:00:00","4","40.9166666","-8.6333333","22.0","OVAR MACEDA, PO","FM-12","99999","V020","330,1,N,0040,1","01200,1,C,N","010000,1,N,1","+0180,1","+0130,1","10150,1",,,,"02,1,+00015,1,08,1",,,,"06,99,1,06,1,08,1,00800,1,00,1,00,1",,,,,"99999,9,10129,1","4,1,000,1,+999,9",,,,"SYN082AAXX  23151 08544 42560 63304 10180 20130 30129 40150 54000 86800 333 82800 85630;",
"08544099999","2010-04-23T18:00:00","4","40.9166666","-8.6333333","22.0","OVAR MACEDA, PO","FM-12","99999","V020","350,1,N,0030,1","06000,1,9,N","010000,1,N,1","+0178,1","+0120,1","10149,1","12,0000,2,1",,,"02,1,+00600,1,08,1","04,1,+06000,1,00,1",,,"05,99,1,02,1,02,1,00800,1,00,1,04,1",,,,"120,M,+0186,1","99999,9,10129,1","0,1,000,1,+999,9",,,,"SYN104AAXX  23181 08544 12560 53503 10178 20120 30129 40149 50000 69912 82204 333 10186 82820 84070 555 60007;",
"08544099999","2010-04-24T06:00:00","4","40.9166666","-8.6333333","22.0","OVAR MACEDA, PO","FM-12","99999","V020","999,9,C,0000,1","22000,1,9,N","008000,1,N,1","+0092,1","+0088,1","10165,1",,,,"02,1,+00900,1,06,1",,,,"03,99,1,99,9,99,9,00800,1,99,9,99,9","0222,9",,,"999,N,+0086,1","99999,9,10145,1","4,1,000,1,+999,9","10,1",,,"SYN104AAXX  24061 08544 31558 30000 10092 20088 30145 40165 54000 710// 333 20086 50214 55037 82630 555 60002;",
"08544099999","2010-04-24T09:00:00","4","40.9166666","-8.6333333","22.0","OVAR MACEDA, PO","FM-12","99999","V020","180,1,N,0030,1","22000,1,9,N","010000,1,N,1","+0164,1","+0108,1","10183,1","24,4070,9,5",,,"01,1,+01200,1,06,1",,,,"04,99,1,01,1,05,1,01250,1,00,1,01,1",,,,,"99999,9,10162,1","2,1,017,1,+999,9",,,,"SYN082AAXX  24091 08544 42660 41803 10164 20108 30162 40183 52017 81501 333 81640 74070;",
"08544099999","2010-04-24T12:00:00","4","40.9166666","-8.6333333","22.0","OVAR MACEDA, PO","FM-12","99999","V020","250,1,N,0050,1","06000,1,9,N","010000,1,N,1","+0190,1","+0131,1","10188,1",,,,"02,1,+00750,1,08,1","05,1,+06000,1,00,1",,,"06,99,1,02,1,08,1,00800,1,00,1,04,1",,,,,"99999,9,10166,1","2,1,004,1,+999,9",,,"4,99,0080,9,999","SYN104AAXX  24121 08544 32560 62505 10190 20131 30166 40188 52004 82804 333 82825 85070 91108 555 50004 60007;",
"08544099999","2010-04-24T15:00:00","4","40.9166666","-8.6333333","22.0","OVAR MACEDA, PO","FM-12","99999","V020","250,1,N,0040,1","22000,1,C,N","010000,1,N,1","+0196,1","+0130,1","10184,1",,,,"02,1,+00750,1,08,1",,,,"05,99,1,02,1,08,1,00800,1,00,1,01,1",,,,,"99999,9,10164,1","8,1,002,1,+999,9",,,,"SYN082AAXX  24151 08544 42560 52504 10196 20130 30164 40184 58002 82801 333 82825 85070;",
"08544099999","2010-04-24T18:00:00","4","40.9166666","-8.6333333","22.0","OVAR MACEDA, PO","FM-12","99999","V020","280,1,N,0030,1","22000,1,9,N","010000,1,N,1","+0186,1","+0153,1","10194,1",,,,"02,1,+00750,1,08,1","04,1,+06000,1,00,1",,,"04,99,1,02,1,02,1,00800,1,00,1,01,1",,,,"120,M,+0202,1","99999,9,10174,1","2,1,010,1,+999,9",,,,"SYN098AAXX  24181 08544 32560 42803 10186 20153 30174 40194 52010 82201 333 10202 82825 84070 555 60007;",
"08544099999","2010-04-25T06:00:00","4","40.9166666","-8.6333333","22.0","OVAR MACEDA, PO","FM-12","99999","V020","999,9,C,0000,1","22000,1,9,N","010000,1,N,1","+0138,1","+0124,1","10221,1",,,,"01,1,+00600,1,08,1",,,,"01,99,1,01,1,02,1,00450,1,00,1,00,1","0702,9",,,"999,N,+0128,1","99999,9,10200,1","2,1,003,1,+999,9","00,1",,,"SYN110AAXX  25061 08544 31460 10000 10138 20124 30200 40221 52003 700// 81200 333 20128 50274 55117 81820 555 60002;",
"08544099999","2010-04-25T09:00:00","4","40.9166666","-8.6333333","22.0","OVAR MACEDA, PO","FM-12","99999","V020","020,1,N,0040,1","22000,1,9,N","010000,1,N,1","+0188,1","+0132,1","10229,1",,,,"01,1,+00600,1,08,1",,,,"01,99,1,01,1,02,1,00450,1,00,1,00,1",,,,,"99999,9,10209,1","0,1,009,1,+999,9",,,,"SYN076AAXX  25091 08544 42460 10204 10188 20132 30209 40229 50009 81200 333 81820;",
"08544099999","2010-04-25T12:00:00","4","40.9166666","-8.6333333","22.0","OVAR MACEDA, PO","FM-12","99999","V020","340,1,N,0070,1","22000,1,9,N","010000,1,N,1","+0198,1","+0143,1","10227,1",,,,"02,1,+00600,1,08,1","03,1,+06000,1,00,1",,,"04,99,1,02,1,02,1,00450,1,00,1,01,1",,,,,"99999,9,10206,1","0,1,003,1,+999,9",,,,"SYN098AAXX  25121 08544 32460 43407 10198 20143 30206 40227 50003 82201 333 82820 83070 555 50004 60007;",
"08544099999","2010-04-25T15:00:00","4","40.9166666","-8.6333333","22.0","OVAR MACEDA, PO","FM-12","99999","V020","360,1,N,0080,1","22000,1,9,N","010000,1,N,1","+0200,1","+0145,1","10224,1",,,,"02,1,+00600,1,08,1","03,1,+06000,1,00,1",,,"04,99,1,02,1,02,1,00450,1,00,1,01,1",,,,,"99999,9,10204,1","6,1,002,1,+999,9",,"0130,5",,"SYN094AAXX  25151 08544 42460 43608 10200 20145 30204 40224 56002 82201 333 82820 83070 91013 91113;",
"08544099999","2010-04-25T18:00:00","4","40.9166666","-8.6333333","22.0","OVAR MACEDA, PO","FM-12","99999","V020","360,1,N,0060,1","22000,1,9,N","010000,1,N,1","+0182,1","+0149,1","10225,1",,,,"02,1,+06000,1,00,1",,,,"99,99,9,00,1,00,1,99999,9,00,1,01,1",,,,"120,M,+0206,1","99999,9,10204,1","0,1,001,1,+999,9",,"0130,5",,"SYN104AAXX  25181 08544 32960 13606 10182 20149 30204 40225 50001 80001 333 10206 82070 91013 91113 555 60007;","Q01+000012SCOTCV"
"08544099999","2010-04-26T06:00:00","4","40.9166666","-8.6333333","22.0","OVAR MACEDA, PO","FM-12","99999","V020","170,1,N,0010,1","22000,1,9,N","000500,1,N,1","+0138,1","+0131,1","10231,1",,"4,1,06,1",,"00,1,+99999,9,99,9",,,,"00,99,1,00,1,00,1,99999,9,00,1,00,1","0762,9",,,"999,N,+0108,1","99999,9,10210,1","2,1,006,1,+999,9","44,1",,,"SYN098AAXX  26061 08544 31905 01701 10138 20131 30210 40231 52006 7444/ 333 20108 50294 55127 555 60002;",
"08544099999","2010-04-26T09:00:00","4","40.9166666","-8.6333333","22.0","OVAR MACEDA, PO","FM-12","99999","V020","060,1,N,0020,1","22000,1,9,N","006000,1,N,1","+0156,1","+0150,1","10241,1",,"1,1,03,1","1,1,03,1","01,1,+00240,1,07,1",,,,"04,99,1,03,1,02,1,00250,1,00,1,04,1",,,,,"99999,9,10221,1","0,1,011,1,+999,9","10,1",,,"SYN088AAXX  26091 08544 41356 40602 10156 20150 30221 40241 50011 71011 83204 333 81708 83812;",
"08544099999","2010-04-26T12:00:00","4","40.9166666","-8.6333333","22.0","OVAR MACEDA, PO","FM-12","99999","V020","320,1,N,0020,1","22000,1,9,N","010000,1,N,1","+0198,1","+0154,1","10234,1",,"4,1,06,1","1,1,06,1","02,1,+06000,1,00,1",,,,"02,99,1,00,1,00,1,99999,9,00,1,01,1",,,,,"99999,9,10213,1","6,1,008,1,+999,9","02,1",,,"SYN098AAXX  26121 08544 31960 23202 10198 20154 30213 40234 56008 70241 80001 333 82070 555 50004 60007;",
"08544099999","2010-04-26T15:00:00","4","40.9166666","-8.6333333","22.0","OVAR MACEDA, PO","FM-12","99999","V020","360,1,N,0030,1","22000,1,9,N","010000,1,N,1","+0222,1","+0156,1","10224,1",,,,"01,1,+00600,1,08,1",,,,"02,99,1,01,1,02,1,00800,1,00,1,01,1",,,,,"99999,9,10204,1","7,1,009,1,+999,9",,,,"SYN076AAXX  26151 08544 42560 23603 10222 20156 30204 40224 57009 81201 333 81820;",
"08544099999","2010-04-26T18:00:00","4","40.9166666","-8.6333333","22.0","OVAR MACEDA, PO","FM-12","99999","V020","360,1,N,0050,1","22000,1,9,N","010000,1,N,1","+0202,1","+0157,1","10226,1",,,,"02,1,+07500,1,00,1",,,,"02,99,1,00,1,00,1,99999,9,00,1,01,1",,,,"120,M,+0224,1","99999,9,10206,1","3,1,002,1,+999,9",,,,"SYN092AAXX  26181 08544 32960 23605 10202 20157 30206 40226 53002 80001 333 10224 82075 555 60007;",
"08544099999","2010-04-27T06:00:00","4","40.9166666","-8.6333333","22.0","OVAR MACEDA, PO","FM-12","99999","V020","999,9,C,0000,1","07500,1,9,N","007000,1,N,1","+0116,1","+0112,1","10210,1","12,0000,9,1",,,"05,1,+07500,1,00,1",,,,"05,99,1,00,1,00,1,99999,9,00,1,02,1","0600,9",,,"999,N,+0112,1","99999,9,10190,1","7,1,005,1,+999,9","10,1",,,"SYN116AAXX  27061 08544 31957 50000 10116 20112 30190 40210 57005 60002 710// 80002 333 20112 50234 55100 85075 555 60002;","Q01  00002PRCP12"
"08544099999","2010-04-27T09:00:00","4","40.9166666","-8.6333333","22.0","OVAR MACEDA, PO","FM-12","99999","V020","999,9,C,0000,1","07500,1,9,N","010000,1,N,1","+0194,1","+0146,1","10211,1",,,,"05,1,+07500,1,00,1",,,,"05,99,1,00,1,00,1,99999,9,00,1,02,1",,,,,"99999,9,10191,1","1,1,001,1,+999,9",,,,"SYN076AAXX  27091 08544 42960 50000 10194 20146 30191 40211 51001 80002 333 85075;",
"08544099999","2010-04-27T12:00:00","4","40.9166666","-8.6333333","22.0","OVAR MACEDA, PO","FM-12","99999","V020","350,1,N,0020,1","07500,1,9,N","010000,1,N,1","+0234,1","+0149,1","10211,1",,,,"06,1,+07500,1,00,1",,,,"06,99,1,00,1,00,1,99999,9,00,1,02,1",,,,,"99999,9,10191,1","0,1,000,1,+999,9",,,,"SYN092AAXX  27121 08544 32960 63502 10234 20149 30191 40211 50000 80002 333 86075 555 50004 60007;",
"08544099999","2010-04-27T15:00:00","4","40.9166666","-8.6333333","22.0","OVAR MACEDA, PO","FM-12","99999","V020","360,1,N,0040,1","07500,1,9,N","010000,1,N,1","+0250,1","+0126,1","10203,1",,,,"06,1,+07500,1,00,1",,,,"06,99,1,00,1,00,1,99999,9,00,1,02,1",,,,,"99999,9,10184,1","7,1,007,1,+999,9",,,,"SYN076AAXX  27151 08544 42960 63604 10250 20126 30184 40203 57007 80002 333 86075;",
"08544099999","2010-04-27T18:00:00","4","40.9166666","-8.6333333","22.0","OVAR MACEDA, PO","FM-12","99999","V020","360,1,N,0050,1","07500,1,9,N","010000,1,N,1","+0257,1","+0103,1","10192,1",,,,"05,1,+07500,1,00,1",,,,"05,99,1,00,1,00,1,99999,9,00,1,02,1",,,,"120,M,+0266,1","99999,9,10172,1","7,1,012,1,+999,9",,,,"SYN092AAXX  27181 08544 32960 53605 10257 20103 30172 40192 57012 80002 333 10266 85075 555 60007;",
"08544099999","2010-04-28T06:00:00","4","40.9166666","-8.6333333","22.0","OVAR MACEDA, PO","FM-12","99999","V020","999,9,C,0000,1","22000,1,9,N","010000,1,N,1","+0136,1","+0119,1","10178,1",,,,"03,1,+06000,1,00,1",,,,"03,99,1,00,1,00,1,99999,9,00,1,02,1","0630,9",,,"999,N,+0134,1","99999,9,10157,1","7,1,012,1,+999,9","00,1",,,"SYN110AAXX  28061 08544 31960 30000 10136 20119 30157 40178 57012 700// 80002 333 20134 50464 55105 83070 555 60007;",
"08544099999","2010-04-28T09:00:00","4","40.9166666","-8.6333333","22.0","OVAR MACEDA, PO","FM-12","99999","V020","020,1,N,0020,1","22000,1,9,N","010000,1,N,1","+0214,1","+0154,1","10175,1",,,,"04,1,+06000,1,00,1",,,,"04,99,1,00,1,00,1,99999,9,00,1,01,1",,,,,"99999,9,10155,1","8,1,002,1,+999,9",,,,"SYN076AAXX  28091 08544 42960 40202 10214 20154 30155 40175 58002 80001 333 84070;",
"08544099999","2010-04-28T12:00:00","4","40.9166666","-8.6333333","22.0","OVAR MACEDA, PO","FM-12","99999","V020","330,1,N,0040,1","06000,1,9,N","010000,1,N,1","+0244,1","+0150,1","10171,1",,,,"01,1,+00750,1,08,1","06,1,+06000,1,00,1",,,"06,99,1,01,1,02,1,00800,1,00,1,04,1",,,,,"99999,9,10151,1","8,1,004,1,+999,9",,,,"SYN098AAXX  28121 08544 32560 63304 10244 20150 30151 40171 58004 81204 333 81825 86070 555 50004 60007;",
"08544099999","2010-04-28T15:00:00","4","40.9166666","-8.6333333","22.0","OVAR MACEDA, PO","FM-12","99999","V020","350,1,N,0090,1","22000,1,C,N","010000,1,N,1","+0220,1","+0151,1","10154,1",,,,"02,1,+00750,1,08,1",,,,"07,99,1,02,1,02,1,00800,1,00,1,04,1",,,,,"99999,9,10135,1","7,1,016,1,+999,9",,,,"SYN082AAXX  28151 08544 42560 73509 10220 20151 30135 40154 57016 82204 333 82825 87070;",
"08544099999","2010-04-28T18:00:00","4","40.9166666","-8.6333333","22.0","OVAR MACEDA, PO","FM-12","99999","V020","020,1,N,0020,1","00750,1,9,N","010000,1,N,1","+0226,1","+0157,1","10136,1",,,,"02,1,+00450,1,08,1","03,1,+00750,1,06,1","07,1,+06000,1,00,1",,"07,99,1,05,1,08,1,00450,1,03,1,01,1",,,,"120,M,+0270,1","99999,9,10116,1","7,1,019,1,+999,9",,,,"SYN104AAXX  28181 08544 32460 70202 10226 20157 30116 40136 57019 85831 333 10270 82815 83625 87070 555 60007;",
"08544099999","2010-04-29T06:00:00","4","40.9166666","-8.6333333","22.0","OVAR MACEDA, PO","FM-12","99999","V020","020,1,N,0050,1","00750,1,9,N","008000,1,N,1","+0162,1","+0146,1","10170,1",,,,"03,1,+00450,1,08,1","05,1,+00750,1,06,1",,,"07,99,1,07,1,02,1,00450,1,00,1,00,1","0546,9",,,"999,N,+0150,1","99999,9,10149,1","2,1,033,1,+999,9","10,1",,,"SYN116AAXX  29061 08544 31458 70205 10162 20146 30149 40170 52033 710// 87200 333 20150 50494 55091 83815 85625 555 60002;",
"08544099999","2010-04-29T09:00:00","4","40.9166666","-8.6333333","22.0","OVAR MACEDA, PO","FM-12","99999","V020","360,1,N,0040,1","00900,1,C,N","010000,1,N,1","+0164,1","+0141,1","10189,1",,,,"03,1,+00360,1,08,1",,,,"07,99,1,07,1,08,1,00450,1,00,1,00,1",,,,,"99999,9,10169,1","2,1,020,1,+999,9",,,,"SYN082AAXX  29091 08544 42460 73604 10164 20141 30169 40189 52020 87800 333 83812 85620;",
"08544099999","2010-04-29T12:00:00","4","40.9166666","-8.6333333","22.0","OVAR MACEDA, PO","FM-12","99999","V020","340,1,N,0050,1","22000,1,9,N","010000,1,N,1","+0196,1","+0144,1","10187,1",,,,"03,1,+00600,1,08,1",,,,"04,99,1,03,1,08,1,00800,1,03,1,01,1",,,,,"99999,9,10167,1","8,1,002,1,+999,9",,,,"SYN092AAXX  29121 08544 32560 43405 10196 20144 30167 40187 58002 83831 333 83820 555 50004 60007;",
"08544099999","2010-04-29T15:00:00","4","40.9166666","-8.6333333","22.0","OVAR MACEDA, PO","FM-12","99999","V020","350,1,N,0060,1","22000,1,9,N","010000,1,N,1","+0190,1","+0138,1","10184,1",,,,"03,1,+00660,1,08,1",,,,"04,99,1,03,1,08,1,00800,1,00,1,01,1",,,,,"99999,9,10164,1","8,1,003,1,+999,9",,"0100,5",,"SYN088AAXX  29151 08544 42560 43506 10190 20138 30164 40184 58003 83801 333 83822 91010 91111;",
"08544099999","2010-04-29T18:00:00","4","40.9166666","-8.6333333","22.0","OVAR MACEDA, PO","FM-12","99999","V020","360,1,N,0050,1","22000,1,9,N","010000,1,N,1","+0178,1","+0124,1","10179,1",,,,"03,1,+00660,1,08,1",,,,"03,99,1,03,1,02,1,00800,1,00,1,00,1",,,,"120,M,+0202,1","99999,9,10159,1","7,1,005,1,+999,9",,"0090,5","4,99,0110,9,999","SYN104AAXX  29181 08544 32560 33605 10178 20124 30159 40179 57005 83200 333 10202 83822 91009 91111 555 60007;",
"08544099999","2010-04-30T06:00:00","4","40.9166666","-8.6333333","22.0","OVAR MACEDA, PO","FM-12","99999","V020","999,9,C,0000,1","03600,1,9,N","007000,1,N,1","+0112,1","+0101,1","10157,1",,,,"02,1,+00450,1,08,1","04,1,+00600,1,06,1",,,"06,99,1,04,1,08,1,00450,1,03,1,01,1","0588,9",,,"999,N,+0098,1","99999,9,10136,1","7,1,005,1,+999,9","10,1",,,"SYN116AAXX  30061 08544 31457 60000 10112 20101 30136 40157 57005 710// 84831 333 20098 50304 55098 82815 84620 555 60002;",
"08544099999","2010-04-30T09:00:00","4","40.9166666","-8.6333333","22.0","OVAR MACEDA, PO","FM-12","99999","V020","350,1,N,0030,1","03600,1,C,N","007000,1,N,1","+0158,1","+0117,1","10157,1",,"2,1,03,1","2,1,03,1","01,1,+00450,1,08,1","03,1,+00600,1,06,1",,,"07,99,1,03,1,08,1,00450,1,03,1,01,1",,,,,"99999,9,10137,1","0,1,001,1,+999,9","10,1",,,"SYN094AAXX  30091 08544 41457 73503 10158 20117 30137 40157 50001 71022 83831 333 81815 83620 85457;",
"08544099999","2010-04-30T12:00:00","4","40.9166666","-8.6333333","22.0","OVAR MACEDA, PO","FM-12","99999","V020","350,1,N,0060,1","06000,1,9,N","010000,1,N,1","+0168,1","+0117,1","10155,1",,,,"03,1,+00450,1,08,1","07,1,+06000,1,00,1",,,"07,99,1,04,1,08,1,00450,1,00,1,02,1",,,,,"99999,9,10135,1","8,1,002,1,+999,9",,,,"SYN098AAXX  30121 08544 32460 73506 10168 20117 30135 40155 58002 84802 333 83815 87070 555 50004 60007;",
"08544099999","2010-04-30T15:00:00","4","40.9166666","-8.6333333","22.0","OVAR MACEDA, PO","FM-12","99999","V020","340,1,N,0060,1","06000,1,9,N","010000,1,N,1","+0178,1","+0113,1","10152,1",,,,"03,1,+00480,1,08,1","06,1,+06000,1,00,1",,,"06,99,1,03,1,02,1,00450,1,03,1,02,1",,,,,"99999,9,10132,1","5,1,003,1,+999,9",,"0110,5",,"SYN094AAXX  30151 08544 42460 63406 10178 20113 30132 40152 55003 83232 333 83816 86070 91011 91111;",
"08544099999","2010-04-30T18:00:00","4","40.9166666","-8.6333333","22.0","OVAR MACEDA, PO","FM-12","99999","V020","360,1,N,0050,1","02400,1,9,N","010000,1,N,1","+0158,1","+0105,1","10151,1",,,,"02,1,+00480,1,08,1","06,1,+02400,1,03,1",,,"07,99,1,02,1,02,1,00450,1,03,1,01,1",,,,"120,M,+0186,1","99999,9,10131,1","8,1,001,1,+999,9",,,"4,99,0110,9,999","SYN104AAXX  30181 08544 32460 73605 10158 20105 30131 40151 58001 82231 333 10186 82816 86358 91111 555 60007;",
"08544099999","2010-05-01T06:00:00","4","40.9166666","-8.6333333","22.0","OVAR MACEDA, PO","FM-12","99999","V020","180,1,N,0020,1","01050,1,9,N","010000,1,N,1","+0130,1","+0109,1","10146,1",,,,"03,1,+00450,1,08,1","07,1,+01050,1,06,1",,,"08,99,1,08,1,08,1,00450,1,99,9,99,9","0264,9",,,"999,N,+0112,1","99999,9,10125,1","7,1,003,1,+999,9","00,1",,,"SYN116AAXX  01061 08544 31460 81802 10130 20109 30125 40146 57003 700// 888// 333 20112 50274 55044 83815 87635 555 60002;",
"08544099999","2010-05-01T09:00:00","4","40.9166666","-8.6333333","22.0","OVAR MACEDA, PO","FM-12","99999","V020","999,9,C,0000,1","00900,1,9,N","010000,1,N,1","+0156,1","+0122,1","10156,1",,,,"01,1,+00450,1,08,1",,,,"07,99,1,07,1,08,1,00450,1,00,1,00,1",,,,,"99999,9,10135,1","2,1,010,1,+999,9",,,,"SYN082AAXX  01091 08544 42460 70000 10156 20122 30135 40156 52010 87800 333 81815 87630;",
"08544099999","2010-05-01T12:00:00","4","40.9166666","-8.6333333","22.0","OVAR MACEDA, PO","FM-12","99999","V020","350,1,N,0040,1","00900,1,9,N","010000,1,N,1","+0176,1","+0133,1","10159,1",,,,"03,1,+00450,1,08,1","04,1,+00900,1,06,1",,,"05,99,1,05,1,08,1,00450,1,00,1,04,1",,,,,"99999,9,10139,1","0,1,004,1,+999,9",,,,"SYN098AAXX  01121 08544 32460 53504 10176 20133 30139 40159 50004 85804 333 83815 84630 555 50004 60007;",
"08544099999","2010-05-01T15:00:00","4","40.9166666","-8.6333333","22.0","OVAR MACEDA, PO","FM-12","99999","V020","350,1,N,0070,1","22000,1,9,N","010000,1,N,1","+0182,1","+0132,1","10156,1",,,,"02,1,+00450,1,08,1","03,1,+06600,1,00,1",,,"04,99,1,02,1,02,1,00450,1,00,1,01,1",,,,,"99999,9,10136,1","7,1,002,1,+999,9",,,,"SYN088AAXX  01151 08544 42460 43507 10182 20132 30136 40156 57002 82201 333 82815 83072 91111;",
"08544099999","2010-05-01T18:00:00","4","40.9166666","-8.6333333","22.0","OVAR MACEDA, PO","FM-12","99999","V020","360,1,N,0060,1","06600,1,9,N","010000,1,N,1","+0174,1","+0127,1","10156,1",,,,"04,1,+00450,1,08,1","03,1,+06600,1,00,1",,,"05,99,1,04,1,02,1,00450,1,00,1,01,1",,,,"120,M,+0186,1","99999,9,10136,1","4,1,000,1,+999,9",,,"4,99,0110,9,999","SYN104AAXX  01181 08544 32460 53606 10174 20127 30136 40156 54000 84201 333 10186 84815 83072 91111 555 60007;",
"08544099999","2010-05-02T06:00:00","4","40.9166666","-8.6333333","22.0","OVAR MACEDA, PO","FM-12","99999","V020","999,9,C,0000,1","01050,1,9,N","008000,1,N,1","+0092,1","+0086,1","10165,1",,,,"02,1,+00600,1,08,1","05,1,+01050,1,06,1",,,"05,99,1,05,1,08,1,00800,1,00,1,01,1","0390,9",,,"999,N,+0094,1","99999,9,10144,1","7,1,002,1,+999,9","10,1",,,"SYN116AAXX  02061 08544 31558 50000 10092 20086 30144 40165 57002 710// 85801 333 20094 50284 55065 82820 85635 555 60002;",
"08544099999","2010-05-02T09:00:00","4","40.9166666","-8.6333333","22.0","OVAR MACEDA, PO","FM-12","99999","V020","360,1,N,0050,1","22000,1,9,N","010000,1,N,1","+0150,1","+0096,1","10168,1",,,,"01,1,+00450,1,08,1",,,,"03,99,1,01,1,01,1,00450,1,00,1,04,1",,,,,"99999,9,10148,1","0,1,004,1,+999,9",,,,"SYN082AAXX  02091 08544 42460 33605 10150 20096 30148 40168 50004 81104 333 81815 83075;",
"08544099999","2010-05-02T12:00:00","4","40.9166666","-8.6333333","22.0","OVAR MACEDA, PO","FM-12","99999","V020","360,1,N,0100,1","07500,1,9,N","010000,1,N,1","+0172,1","+0098,1","10172,1",,,,"03,1,+00450,1,08,1","03,1,+07500,1,00,1",,,"05,99,1,03,1,02,1,00450,1,00,1,01,1",,,,,"99999,9,10152,1","1,1,004,1,+999,9",,"0150,5",,"SYN110AAXX  02121 08544 32460 53610 10172 20098 30152 40172 51004 83201 333 83815 83075 91015 91115 555 50004 60007;",
"08544099999","2010-05-02T15:00:00","4","40.9166666","-8.6333333","22.0","OVAR MACEDA, PO","FM-12","99999","V020","360,1,N,0110,1","22000,1,9,N","010000,1,N,1","+0178,1","+0093,1","10163,1",,,,"01,1,+00450,1,08,1","03,1,+07500,1,00,1",,,"03,99,1,01,1,01,1,00450,1,00,1,01,1",,,,,"99999,9,10143,1","7,1,009,1,+999,9",,"0160,5",,"SYN094AAXX  02151 08544 42460 33611 10178 20093 30143 40163 57009 81101 333 81815 83075 91016 91117;",
"08544099999","2010-05-02T18:00:00","4","40.9166666","-8.6333333","22.0","OVAR MACEDA, PO","FM-12","99999","V020","360,1,N,0110,1","22000,1,9,N","010000,1,N,1","+0160,1","+0096,1","10155,1",,,,"01,1,+00450,1,08,1","03,1,+07500,1,00,1",,,"03,99,1,01,1,01,1,00450,1,00,1,04,1",,,,"120,M,+0182,1","99999,9,10135,1","7,1,008,1,+999,9",,"0170,5","4,99,0200,9,999","SYN110AAXX  02181 08544 32460 33611 10160 20096 30135 40155 57008 81104 333 10182 81815 83075 91017 91120 555 60007;",
"08544099999","2010-05-03T06:00:00","4","40.9166666","-8.6333333","22.0","OVAR MACEDA, PO","FM-12","99999","V020","050,1,N,0030,1","22000,1,9,N","010000,1,N,1","+0102,1","+0058,1","10183,1",,,,"01,1,+00450,1,08,1",,,,"01,99,1,01,1,01,1,00450,1,00,1,00,1","0726,9",,,"999,N,+0098,1","99999,9,10162,1","1,1,002,1,+999,9","00,1",,,"SYN110AAXX  03061 08544 31460 10503 10102 20058 30162 40183 51002 700// 81100 333 20098 50644 55121 81815 555 60002;",
"08544099999","2010-05-03T09:00:00","4","40.9166666","-8.6333333","22.0","OVAR MACEDA, PO","FM-12","99999","V020","010,1,N,0090,1","22000,1,9,N","010000,1,N,1","+0142,1","+0061,1","10190,1",,,,"02,1,+00450,1,08,1",,,,"02,99,1,02,1,02,1,00450,1,00,1,00,1",,,,,"99999,9,10169,1","0,1,007,1,+999,9",,"0120,5",,"SYN088AAXX  03091 08544 42460 20109 10142 20061 30169 40190 50007 82200 333 82815 91012 91112;",
"08544099999","2010-05-03T12:00:00","4","40.9166666","-8.6333333","22.0","OVAR MACEDA, PO","FM-12","99999","V020","350,1,N,0080,1","22000,1,9,N","010000,1,N,1","+0178,1","+0056,1","10184,1",,,,"03,1,+00450,1,08,1",,,,"03,99,1,03,1,02,1,00450,1,00,1,00,1",,,,,"99999,9,10163,1","0,1,006,1,+999,9",,"0130,5",,"SYN104AAXX  03121 08544 32460 33508 10178 20056 30163 40184 50006 83200 333 83815 91013 91113 555 50004 60007;",
"08544099999","2010-05-03T15:00:00","4","40.9166666","-8.6333333","22.0","OVAR MACEDA, PO","FM-12","99999","V020","360,1,N,0210,1","22000,1,9,N","010000,1,N,1","+0172,1","+0076,1","10177,1",,,,"04,1,+00450,1,08,1",,,,"04,99,1,04,1,02,1,00450,1,00,1,00,1",,,,,"99999,9,10156,1","7,1,007,1,+999,9",,"9999,9",,"SYN088AAXX  03151 08544 42460 43621 10172 20076 30156 40177 57007 84200 333 84815 91020 91120;","Q01  02002WGOSPD"
"08544099999","2010-05-03T18:00:00","4","40.9166666","-8.6333333","22.0","OVAR MACEDA, PO","FM-12","99999","V020","360,1,N,0110,1","22000,1,9,N","010000,1,N,1","+0158,1","+0076,1","10181,1",,,,"02,1,+00450,1,08,1",,,,"02,99,1,02,1,02,1,00450,1,00,1,00,1",,,,"120,M,+0188,1","99999,9,10160,1","3,1,005,1,+999,9",,"0210,5",,"SYN104AAXX  03181 08544 32460 23611 10158 20076 30160 40181 53005 82200 333 10188 82815 91021 91121 555 60007;",
"08544099999","2010-05-04T06:00:00","4","40.9166666","-8.6333333","22.0","OVAR MACEDA, PO","FM-12","99999","V020","999,9,C,0000,1","22000,1,9,N","010000,1,N,1","+0062,1","+0027,1","10204,1",,,,"00,1,+99999,9,99,9",,,,"00,99,1,00,1,00,1,99999,9,00,1,00,1","0078,9",,,"999,N,+0060,1","99999,9,10183,1","2,1,023,1,+999,9",,,,"SYN092AAXX  04061 08544 31960 00000 10062 20027 30183 40204 52023 333 20060 50784 55013 555 60002;",
"08544099999","2010-05-04T09:00:00","4","40.9166666","-8.6333333","22.0","OVAR MACEDA, PO","FM-12","99999","V020","030,1,N,0070,1","22000,1,9,N","010000,1,N,1","+0124,1","+0028,1","10204,1",,,,"01,1,+00540,1,08,1",,,,"01,99,1,01,1,01,1,00450,1,00,1,00,1",,,,,"99999,9,10184,1","0,1,001,1,+999,9",,"0110,5",,"SYN088AAXX  04091 08544 42460 10307 10124 20028 30184 40204 50001 81100 333 81818 91011 91111;",
"08544099999","2010-05-04T12:00:00","4","40.9166666","-8.6333333","22.0","OVAR MACEDA, PO","FM-12","99999","V020","020,1,N,0060,1","22000,1,9,N","010000,1,N,1","+0174,1","+0023,1","10189,1",,,,"02,1,+00600,1,08,1",,,,"02,99,1,02,1,02,1,00800,1,00,1,00,1",,,,,"99999,9,10169,1","7,1,015,1,+999,9",,,"4,99,0120,9,999","SYN098AAXX  04121 08544 32560 20206 10174 20023 30169 40189 57015 82200 333 82820 91112 555 50004 60007;",
"08544099999","2010-05-04T15:00:00","4","40.9166666","-8.6333333","22.0","OVAR MACEDA, PO","FM-12","99999","V020","350,1,N,0100,1","22000,1,9,N","010000,1,N,1","+0170,1","+0065,1","10176,1",,,,"02,1,+00600,1,08,1",,,,"02,99,1,02,1,02,1,00800,1,00,1,00,1",,,,,"99999,9,10156,1","6,1,013,1,+999,9",,"0150,5",,"SYN088AAXX  04151 08544 42560 23510 10170 20065 30156 40176 56013 82200 333 82820 91015 91118;",
"08544099999","2010-05-04T18:00:00","4","40.9166666","-8.6333333","22.0","OVAR MACEDA, PO","FM-12","99999","V020","360,1,N,0090,1","22000,1,9,N","010000,1,N,1","+0174,1","+0035,1","10168,1",,,,"00,1,+99999,9,99,9",,,,"00,99,1,00,1,00,1,99999,9,00,1,00,1",,,,"120,M,+0184,1","99999,9,10148,1","7,1,008,1,+999,9",,,"4,99,0150,9,999","SYN086AAXX  04181 08544 32960 03609 10174 20035 30148 40168 57008 333 10184 91115 555 60007;",
"08544099999","2010-05-05T06:00:00","4","40.9166666","-8.6333333","22.0","OVAR MACEDA, PO","FM-12","99999","V020","999,9,C,0000,1","22000,1,9,N","010000,1,N,1","+0046,1","+0008,1","10176,1",,,,"00,1,+99999,9,99,9",,,,"00,99,1,00,1,00,1,99999,9,00,1,00,1","0774,9",,,"999,N,+0044,1","99999,9,10155,1","4,1,000,1,+999,9","00,1",,,"SYN098AAXX  05061 08544 31960 00000 10046 20008 30155 40176 54000 700// 333 20044 50804 55129 555 60002;",
"08544099999","2010-05-05T09:00:00","4","40.9166666","-8.6333333","22.0","OVAR MACEDA, PO","FM-12","99999","V020","100,1,N,0010,1","22000,1,9,N","010000,1,N,1","+0132,1","+0023,1","10173,1",,,,"00,1,+99999,9,99,9",,,,"00,99,1,00,1,00,1,99999,9,00,1,00,1",,,,,"99999,9,10152,1","8,1,003,1,+999,9",,,,"SYN060AAXX  05091 08544 42960 01001 10132 20023 30152 40173 58003;",
"08544099999","2010-05-05T12:00:00","4","40.9166666","-8.6333333","22.0","OVAR MACEDA, PO","FM-12","99999","V020","340,1,N,0050,1","22000,1,9,N","010000,1,N,1","+0152,1","+0030,1","10164,1",,,,"00,1,+99999,9,99,9",,,,"00,99,1,00,1,00,1,99999,9,00,1,00,1",,,,,"99999,9,10144,1","8,1,008,1,+999,9",,"0090,5",,"SYN092AAXX  05121 08544 32960 03405 10152 20030 30144 40164 58008 333 91009 91109 555 50004 60007;",
"08544099999","2010-05-05T15:00:00","4","40.9166666","-8.6333333","22.0","OVAR MACEDA, PO","FM-12","99999","V020","340,1,N,0060,1","22000,1,9,N","010000,1,N,1","+0170,1","+0074,1","10150,1",,,,"00,1,+99999,9,99,9",,,,"00,99,1,00,1,00,1,99999,9,00,1,00,1",,,,,"99999,9,10130,1","7,1,014,1,+999,9",,"0100,5",,"SYN076AAXX  05151 08544 42960 03406 10170 20074 30130 40150 57014 333 91010 91111;",
"08544099999","2010-05-05T18:00:00","4","40.9166666","-8.6333333","22.0","OVAR MACEDA, PO","FM-12","99999","V020","350,1,N,0050,1","22000,1,9,N","010000,1,N,1","+0166,1","+0091,1","10129,1",,,,"00,1,+99999,9,99,9",,,,"00,99,1,00,1,00,1,99999,9,00,1,00,1",,,,"120,M,+0174,1","99999,9,10109,1","7,1,021,1,+999,9",,"0090,5","4,99,0120,9,999","SYN092AAXX  05181 08544 32960 03505 10166 20091 30109 40129 57021 333 10174 91009 91112 555 60007;",
"08544099999","2010-05-06T06:00:00","4","40.9166666","-8.6333333","22.0","OVAR MACEDA, PO","FM-12","99999","V020","999,9,C,0000,1","22000,1,9,N","010000,1,N,1","+0056,1","+0048,1","10108,1",,,,"03,1,+07200,1,00,1",,,,"03,99,1,00,1,00,1,99999,9,00,1,01,1","0780,9",,,"999,N,+0052,1","99999,9,10087,1","7,1,008,1,+999,9",,,,"SYN104AAXX  06061 08544 31960 30000 10056 20048 30087 40108 57008 80001 333 20052 50424 55130 83074 555 60002;",
"08544099999","2010-05-06T09:00:00","4","40.9166666","-8.6333333","22.0","OVAR MACEDA, PO","FM-12","99999","V020","999,9,C,0000,1","22000,1,9,N","010000,1,N,1","+0154,1","+0058,1","10106,1",,,,"04,1,+07500,1,00,1",,,,"04,99,1,00,1,00,1,99999,9,00,1,04,1",,,,,"99999,9,10085,1","8,1,002,1,+999,9",,,,"SYN076AAXX  06091 08544 42960 40000 10154 20058 30085 40106 58002 80004 333 84075;",
"08544099999","2010-05-06T12:00:00","4","40.9166666","-8.6333333","22.0","OVAR MACEDA, PO","FM-12","99999","V020","320,1,N,0040,1","22000,1,9,N","010000,1,N,1","+0180,1","+0069,1","10103,1",,,,"02,1,+00600,1,08,1",,,,"04,99,1,02,1,02,1,00800,1,00,1,01,1",,,,,"99999,9,10083,1","6,1,002,1,+999,9",,,,"SYN082AAXX  06121 08544 32560 43204 10180 20069 30083 40103 56002 82201 333 82820 84075;",
"08544099999","2010-05-06T15:00:00","4","40.9166666","-8.6333333","22.0","OVAR MACEDA, PO","FM-12","99999","V020","350,1,N,0070,1","22000,1,9,N","010000,1,N,1","+0176,1","+0082,1","10091,1",,,,"01,1,+00600,1,08,1",,,,"02,99,1,01,1,02,1,00800,1,00,1,01,1",,,,,"99999,9,10071,1","7,1,012,1,+999,9",,,,"SYN076AAXX  06151 08544 42560 23507 10176 20082 30071 40091 57012 81201 333 81820;",
"08544099999","2010-05-06T18:00:00","4","40.9166666","-8.6333333","22.0","OVAR MACEDA, PO","FM-12","99999","V020","360,1,N,0070,1","22000,1,9,N","010000,1,N,1","+0172,1","+0090,1","10086,1",,,,"00,1,+99999,9,99,9",,,,"00,99,1,00,1,00,1,99999,9,00,1,00,1",,,,"120,M,+0184,1","99999,9,10066,1","7,1,005,1,+999,9",,,"4,99,0120,9,999","SYN086AAXX  06181 08544 32960 03607 10172 20090 30066 40086 57005 333 10184 91112 555 60007;",
"08544099999","2010-05-07T06:00:00","4","40.9166666","-8.6333333","22.0","OVAR MACEDA, PO","FM-12","99999","V020","999,9,C,0000,1","02400,1,9,N","006000,1,N,1","+0098,1","+0091,1","10079,1",,,,"03,1,+00450,1,08,1","05,1,+02400,1,03,1","07,1,+06000,1,00,1",,"07,99,1,03,1,02,1,00450,1,03,1,06,1","0750,9",,,"999,N,+0090,1","99999,9,10059,1","7,1,005,1,+999,9","10,1",,,"SYN122AAXX  07061 08544 31456 70000 10098 20091 30059 40079 57005 710// 83236 333 20090 50394 55125 83815 85358 87070 555 60002;",
"08544099999","2010-05-07T09:00:00","4","40.9166666","-8.6333333","22.0","OVAR MACEDA, PO","FM-12","99999","V020","140,1,N,0010,1","00360,1,9,N","002000,1,N,1","+0120,1","+0113,1","10080,1",,"6,1,03,1","5,1,03,1","04,1,+00240,1,07,1","08,1,+00360,1,06,1",,,"08,99,1,08,1,05,1,00250,1,99,9,99,9",,,,,"99999,9,10060,1","3,1,001,1,+999,9","58,1",,,"SYN094AAXX  07091 08544 41320 81401 10120 20113 30060 40080 53001 75865 885// 333 84708 88612 96010;",
"08544099999","2010-05-07T12:00:00","4","40.9166666","-8.6333333","22.0","OVAR MACEDA, PO","FM-12","99999","V020","270,1,N,0020,1","00390,1,9,N","008000,1,N,1","+0148,1","+0135,1","10079,1","06,0020,9,1","6,1,06,1","5,1,06,1","01,1,+00120,1,07,1","05,1,+00390,1,08,1","07,1,+02100,1,03,1",,"08,99,1,05,1,02,1,00450,1,07,1,99,9",,,,,"99999,9,10059,1","8,1,001,1,+999,9","10,1",,,"SYN116AAXX  07121 08544 11458 82702 10148 20135 30059 40079 58001 60021 71065 8527/ 333 81704 85813 87357 555 50024 69967;",
"08544099999","2010-05-07T15:00:00","4","40.9166666","-8.6333333","22.0","OVAR MACEDA, PO","FM-12","99999","V020","330,1,N,0050,1","00600,1,9,N","010000,1,N,1","+0156,1","+0126,1","10080,1",,"8,1,03,1","2,1,03,1","04,1,+00450,1,08,1","04,1,+00600,1,06,1",,,"06,99,1,05,1,08,1,00450,1,07,1,00,1",,,,,"99999,9,10060,1","1,1,001,1,+999,9","01,1",,,"SYN094AAXX  07151 08544 41460 63305 10156 20126 30060 40080 51001 70182 85870 333 84815 84620 85457;",
"08544099999","2010-05-07T18:00:00","4","40.9166666","-8.6333333","22.0","OVAR MACEDA, PO","FM-12","99999","V020","320,1,N,0030,1","00750,1,9,N","010000,1,N,1","+0154,1","+0109,1","10078,1",,"8,1,06,1","2,1,06,1","04,1,+00510,1,08,1","05,1,+00750,1,06,1",,,"06,99,1,05,1,08,1,00450,1,03,1,00,1",,,,,"99999,9,10058,1","5,1,002,1,+999,9","02,1",,,"SYN104AAXX  07181 08544 31460 63203 10154 20109 30058 40078 55002 70282 85830 333 1//// 84817 85625 555 60007;",
"08544099999","2010-05-08T06:00:00","4","40.9166666","-8.6333333","22.0","OVAR MACEDA, PO","FM-12","99999","V020","180,1,N,0040,1","00750,1,9,N","010000,1,N,1","+0118,1","+0104,1","10064,1",,,,"01,1,+00300,1,08,1","03,1,+00450,1,08,1","06,1,+00750,1,06,1",,"06,99,1,05,1,08,1,00450,1,03,1,00,1","0132,9",,,"999,N,+0092,1","99999,9,10044,1","7,1,005,1,+999,9","00,1",,,"SYN122AAXX  08061 08544 31460 61804 10118 20104 30044 40064 57005 700// 85830 333 20092 50134 55022 81810 83815 86625 555 60002;",
"08544099999","2010-05-08T09:00:00","4","40.9166666","-8.6333333","22.0","OVAR MACEDA, PO","FM-12","99999","V020","180,1,N,0030,1","00600,1,9,N","008000,1,N,1","+0130,1","+0113,1","10069,1",,"6,1,03,1","2,1,03,1","02,1,+00240,1,07,1","04,1,+00600,1,08,1",,,"08,99,1,08,1,08,1,00250,1,99,9,99,9",,,,,"99999,9,10049,1","2,1,005,1,+999,9","10,1",,,"SYN094AAXX  08091 08544 41358 81803 10130 20113 30049 40069 52005 71062 888// 333 82708 84820 87630;",
"08544099999","2010-05-08T12:00:00","4","40.9166666","-8.6333333","22.0","OVAR MACEDA, PO","FM-12","99999","V020","160,1,N,0050,1","00900,1,C,N","005000,1,N,1","+0136,1","+0126,1","10061,1","06,0010,9,1","6,1,06,1","5,1,06,1","01,1,+00240,1,02,1","04,1,+00600,1,08,1","05,1,+00900,1,06,1",,"08,99,1,07,1,08,1,00250,1,07,1,99,9",,,,,"99999,9,10040,1","8,1,009,1,+999,9","60,1",,,"SYN116AAXX  08121 08544 11350 81605 10136 20126 30040 40061 58009 60011 76065 8787/ 333 81208 84820 85630 555 50014 60017;",
"08544099999","2010-05-08T15:00:00","4","40.9166666","-8.6333333","22.0","OVAR MACEDA, PO","FM-12","99999","V020","160,1,N,0040,1","00600,1,9,N","004000,1,N,1","+0142,1","+0129,1","10038,1",,"6,1,03,1","2,1,03,1","04,1,+00240,1,07,1","05,1,+00600,1,08,1","07,1,+02400,1,04,1",,"08,99,1,07,1,02,1,00250,1,07,1,99,9",,,,,"99999,9,10018,1","7,1,022,1,+999,9","61,1",,,"SYN100AAXX  08151 08544 41340 81604 10142 20129 30018 40038 57022 76162 8727/ 333 84708 85820 87458 96010;",
"08544099999","2010-05-08T18:00:00","4","40.9166666","-8.6333333","22.0","OVAR MACEDA, PO","FM-12","99999","V020","180,1,N,0060,1","00900,1,9,N","010000,1,N,1","+0156,1","+0136,1","10017,1","12,0051,9,1","6,1,06,1","2,1,06,1","03,1,+00600,1,08,1","03,1,+00900,1,06,1","05,1,+02400,1,04,1",,"07,99,1,05,1,08,1,00800,1,07,1,00,1",,,,"120,M,+0156,1","99999,9,09997,1","7,1,021,1,+999,9","01,1","0100,5","4,99,0120,9,999","SYN128AAXX  08181 08544 11560 71806 10156 20136 39997 40017 57021 60052 70162 85870 333 10156 83820 83630 85458 91010 91112 555 60027;",
"08544099999","2010-05-09T06:00:00","4","40.9166666","-8.6333333","22.0","OVAR MACEDA, PO","FM-12","99999","V020","310,1,N,0030,1","00900,1,9,N","008000,1,N,1","+0130,1","+0105,1","10015,1","12,0051,9,1",,,"04,1,+00600,1,08,1","05,1,+00900,1,06,1",,,"07,99,1,07,1,08,1,00800,1,00,1,00,1","0000,9",,,"999,N,+0126,1","99999,9,09995,1","7,1,999,9,+999,9","10,1",,,"SYN122AAXX  09061 08544 11558 73103 10130 20105 39995 40015 57/// 60052 710// 87800 333 20126 50124 55000 84820 85630 555 60052;",
"08544099999","2010-05-09T09:00:00","4","40.9166666","-8.6333333","22.0","OVAR MACEDA, PO","FM-12","99999","V020","300,1,N,0040,1","03600,1,C,N","010000,1,N,1","+0146,1","+0092,1","10037,1",,,,"03,1,+00600,1,08,1",,,,"05,99,1,03,1,08,1,00800,1,03,1,04,1",,,,,"99999,9,10016,1","2,1,021,1,+999,9",,,,"SYN082AAXX  09091 08544 42560 53004 10146 20092 30016 40037 52021 83834 333 83820 83077;",
"08544099999","2010-05-09T12:00:00","4","40.9166666","-8.6333333","22.0","OVAR MACEDA, PO","FM-12","99999","V020","290,1,N,0050,1","22000,1,9,N","010000,1,N,1","+0162,1","+0095,1","10055,1",,,,"03,1,+00750,1,08,1",,,,"04,99,1,03,1,02,1,00800,1,00,1,01,1",,,,,"99999,9,10035,1","2,1,019,1,+999,9",,,"4,99,0090,9,999","SYN098AAXX  09121 08544 32560 42905 10162 20095 30035 40055 52019 83201 333 83825 91109 555 50004 60007;",
"08544099999","2010-05-09T15:00:00","4","40.9166666","-8.6333333","22.0","OVAR MACEDA, PO","FM-12","99999","V020","270,1,N,0040,1","22000,1,9,N","010000,1,N,1","+0166,1","+0047,1","10067,1",,,,"03,1,+00750,1,08,1",,,,"03,99,1,03,1,02,1,00800,1,00,1,00,1",,,,,"99999,9,10047,1","2,1,012,1,+999,9",,"0080,5",,"SYN088AAXX  09151 08544 42560 32704 10166 20047 30047 40067 52012 83200 333 83825 91008 91110;",
"08544099999","2010-05-09T18:00:00","4","40.9166666","-8.6333333","22.0","OVAR MACEDA, PO","FM-12","99999","V020","260,1,N,0040,1","22000,1,9,N","010000,1,N,1","+0160,1","+0092,1","10075,1",,,,"03,1,+00750,1,08,1",,,,"03,99,1,03,1,02,1,00800,1,00,1,00,1",,,,"120,M,+0174,1","99999,9,10054,1","2,1,007,1,+999,9",,,"4,99,0090,9,999","SYN098AAXX  09181 08544 32560 32604 10160 20092 30054 40075 52007 83200 333 10174 83825 91109 555 60007;",
"08544099999","2010-05-10T06:00:00","4","40.9166666","-8.6333333","22.0","OVAR MACEDA, PO","FM-12","99999","V020","180,1,N,0030,1","00600,1,9,N","010000,1,N,1","+0108,1","+0086,1","10078,1",,,,"04,1,+00450,1,08,1","04,1,+00600,1,06,1",,,"05,99,1,05,1,08,1,00450,1,00,1,00,1","0666,9",,,"999,N,+0100,1","99999,9,10058,1","4,1,000,1,+999,9","00,1",,,"SYN116AAXX  10061 08544 31460 51803 10108 20086 30058 40078 54000 700// 85800 333 20100 50444 55111 84815 84620 555 60002;",
"08544099999","2010-05-10T09:00:00","4","40.9166666","-8.6333333","22.0","OVAR MACEDA, PO","FM-12","99999","V020","180,1,N,0040,1","00900,1,C,N","008000,1,N,1","+0132,1","+0104,1","10084,1",,"8,1,03,1","2,1,03,1","04,1,+00450,1,08,1",,,,"06,99,1,05,1,08,1,00450,1,07,1,00,1",,,,,"99999,9,10064,1","2,1,006,1,+999,9","02,1",,,"SYN088AAXX  10091 08544 41458 61804 10132 20104 30064 40084 52006 70282 85870 333 84815 84620;",
"08544099999","2010-05-10T12:00:00","4","40.9166666","-8.6333333","22.0","OVAR MACEDA, PO","FM-12","99999","V020","240,1,N,0060,1","03600,1,9,N","010000,1,N,1","+0164,1","+0084,1","10086,1","06,0000,9,1","8,1,06,1","2,1,06,1","03,1,+00450,1,08,1","04,1,+00750,1,06,1",,,"06,99,1,04,1,08,1,00450,1,07,1,00,1",,,,,"99999,9,10066,1","2,1,002,1,+999,9","02,1","0100,5","4,99,0110,9,999","SYN122AAXX  10121 08544 11460 62406 10164 20084 30066 40086 52002 69901 70282 84870 333 83815 84625 91010 91111 555 59904 60007;","Q01  00002PRCP06"
"08544099999","2010-05-10T15:00:00","4","40.9166666","-8.6333333","22.0","OVAR MACEDA, PO","FM-12","99999","V020","250,1,N,0050,1","03600,1,9,N","010000,1,N,1","+0164,1","+0097,1","10087,1",,,,"03,1,+00450,1,08,1","03,1,+00750,1,06,1",,,"06,99,1,04,1,08,1,00450,1,07,1,00,1",,,,,"99999,9,10067,1","1,1,001,1,+999,9",,"0090,5",,"SYN094AAXX  10151 08544 42460 62505 10164 20097 30067 40087 51001 84870 333 83815 83625 91009 91112;",
"08544099999","2010-05-10T18:00:00","4","40.9166666","-8.6333333","22.0","OVAR MACEDA, PO","FM-12","99999","V020","280,1,N,0030,1","03600,1,9,N","010000,1,N,1","+0142,1","+0114,1","10090,1","12,0000,9,1",,,"03,1,+00450,1,08,1","03,1,+00750,1,06,1",,,"06,99,1,04,1,08,1,00450,1,07,1,00,1",,,,"120,M,+0174,1","99999,9,10070,1","1,1,003,1,+999,9",,,"4,99,0090,9,999","SYN110AAXX  10181 08544 12460 62803 10142 20114 30070 40090 51003 69902 84870 333 10174 83815 83625 91109 555 60007;","Q01  00002PRCP12"
"08544099999","2010-05-11T06:00:00","4","40.9166666","-8.6333333","22.0","OVAR MACEDA, PO","FM-12","99999","V020","999,9,C,0000,1","00900,1,9,N","005000,1,N,1","+0106,1","+0102,1","10085,1","12,0010,9,1",,,"03,1,+00450,1,08,1","06,1,+00900,1,06,1",,,"06,99,1,06,1,08,1,00450,1,00,1,00,1","0180,9",,,"999,N,+0106,1","99999,9,10065,1","7,1,003,1,+999,9","10,1",,,"SYN122AAXX  11061 08544 11450 60000 10106 20102 30065 40085 57003 69992 710// 86800 333 20106 50294 55030 83815 86630 555 69992;",
"08544099999","2010-05-11T09:00:00","4","40.9166666","-8.6333333","22.0","OVAR MACEDA, PO","FM-12","99999","V020","190,1,N,0020,1","03600,1,C,N","010000,1,N,1","+0142,1","+0111,1","10088,1",,,,"04,1,+00450,1,08,1",,,,"07,99,1,04,1,02,1,00450,1,03,1,00,1",,,,,"99999,9,10068,1","1,1,003,1,+999,9",,,,"SYN082AAXX  11091 08544 42460 71902 10142 20111 30068 40088 51003 84230 333 84815 87357;",
"08544099999","2010-05-11T12:00:00","4","40.9166666","-8.6333333","22.0","OVAR MACEDA, PO","FM-12","99999","V020","270,1,N,0050,1","02100,1,9,N","010000,1,N,1","+0162,1","+0114,1","10090,1",,,,"03,1,+00450,1,08,1","04,1,+02100,1,03,1",,,"06,99,1,03,1,08,1,00450,1,03,1,01,1",,,,,"99999,9,10070,1","1,1,002,1,+999,9",,,"4,99,0080,9,999","SYN104AAXX  11121 08544 32460 62705 10162 20114 30070 40090 51002 83831 333 83815 84357 91108 555 59994 60007;",
"08544099999","2010-05-11T15:00:00","4","40.9166666","-8.6333333","22.0","OVAR MACEDA, PO","FM-12","99999","V020","350,1,N,0060,1","22000,1,9,N","010000,1,N,1","+0170,1","+0112,1","10087,1",,,,"03,1,+00450,1,08,1",,,,"04,99,1,03,1,02,1,00450,1,03,1,00,1",,,,,"99999,9,10067,1","8,1,003,1,+999,9",,"0100,5",,"SYN088AAXX  11151 08544 42460 43506 10170 20112 30067 40087 58003 83230 333 83815 91010 91110;",
"08544099999","2010-05-11T18:00:00","4","40.9166666","-8.6333333","22.0","OVAR MACEDA, PO","FM-12","99999","V020","350,1,N,0060,1","22000,1,9,N","010000,1,N,1","+0154,1","+0097,1","10092,1",,,,"02,1,+00450,1,08,1",,,,"03,99,1,02,1,02,1,00450,1,03,1,00,1",,,,"120,M,+0172,1","99999,9,10071,1","2,1,004,1,+999,9",,"0090,5","4,99,0110,9,999","SYN104AAXX  11181 08544 32460 33506 10154 20097 30071 40092 52004 82230 333 10172 82815 91009 91111 555 60007;",
"08544099999","2010-05-12T06:00:00","4","40.9166666","-8.6333333","22.0","OVAR MACEDA, PO","FM-12","99999","V020","350,1,N,0040,1","00900,1,C,N","010000,1,N,1","+0122,1","+0073,1","10108,1",,,,"03,1,+00480,1,08,1",,,,"05,99,1,05,1,08,1,00450,1,00,1,00,1","0534,9",,,"999,N,+0120,1","99999,9,10087,1","2,1,003,1,+999,9","00,1",,,"SYN110AAXX  12061 08544 31460 53504 10122 20073 30087 40108 52003 700// 85800 333 20120 50374 55089 83816 555 60002;",
"08544099999","2010-05-12T09:00:00","4","40.9166666","-8.6333333","22.0","OVAR MACEDA, PO","FM-12","99999","V020","330,1,N,0040,1","00900,1,C,N","010000,1,N,1","+0126,1","+0093,1","10119,1",,"8,1,03,1","2,1,03,1","04,1,+00480,1,08,1",,,,"06,99,1,05,1,08,1,00450,1,03,1,00,1",,,,,"99999,9,10098,1","2,1,011,1,+999,9","80,1",,,"SYN088AAXX  12091 08544 41460 63304 10126 20093 30098 40119 52011 78082 85830 333 84816 83357;",
"08544099999","2010-05-12T12:00:00","4","40.9166666","-8.6333333","22.0","OVAR MACEDA, PO","FM-12","99999","V020","330,1,N,0030,1","02100,1,9,N","010000,1,N,1","+0118,1","+0092,1","10128,1","06,0010,9,1","8,1,06,1","2,1,06,1","03,1,+00480,1,08,1","01,1,+00600,1,09,1","05,1,+02100,1,03,1",,"06,99,1,04,1,09,1,00450,1,03,1,00,1",,,,,"99999,9,10107,1","2,1,009,1,+999,9","25,1",,,"SYN116AAXX  12121 08544 11460 63303 10118 20092 30107 40128 52009 60011 72582 84930 333 83816 81920 85357 555 50014 60017;",
"08544099999","2010-05-12T15:00:00","4","40.9166666","-8.6333333","22.0","OVAR MACEDA, PO","FM-12","99999","V020","340,1,N,0060,1","06600,1,9,N","010000,1,N,1","+0152,1","+0087,1","10127,1",,,,"04,1,+00450,1,08,1","03,1,+06600,1,00,1",,,"05,99,1,04,1,02,1,00450,1,03,1,01,1",,,,,"99999,9,10106,1","6,1,001,1,+999,9",,"0100,5",,"SYN094AAXX  12151 08544 42460 53406 10152 20087 30106 40127 56001 84231 333 84815 83072 91010 91111;",
"08544099999","2010-05-12T18:00:00","4","40.9166666","-8.6333333","22.0","OVAR MACEDA, PO","FM-12","99999","V020","330,1,N,0050,1","02100,1,9,N","010000,1,N,1","+0142,1","+0087,1","10126,1","12,0010,9,1",,,"03,1,+00450,1,08,1","04,1,+02100,1,03,1",,,"06,99,1,03,1,02,1,00450,1,03,1,01,1",,,,"120,M,+0164,1","99999,9,10106,1","4,1,000,1,+999,9",,"0090,5","4,99,0100,9,999","SYN116AAXX  12181 08544 12460 63305 10142 20087 30106 40126 54000 60012 83231 333 10164 83815 84357 91009 91110 555 60007;",
"08544099999","2010-05-13T06:00:00","4","40.9166666","-8.6333333","22.0","OVAR MACEDA, PO","FM-12","99999","V020","999,9,C,0000,1","22000,1,9,N","008000,1,N,1","+0078,1","+0070,1","10128,1",,,,"03,1,+00450,1,08,1","01,1,+00540,1,09,1","03,1,+00900,1,06,1",,"05,99,1,04,1,09,1,00450,1,00,1,04,1","0486,9",,,"999,N,+0076,1","99999,9,10108,1","4,1,000,1,+999,9","10,1",,,"SYN122AAXX  13061 08544 31458 50000 10078 20070 30108 40128 54000 710// 84904 333 20076 50344 55081 83815 81918 83630 555 60002;",
"08544099999","2010-05-13T09:00:00","4","40.9166666","-8.6333333","22.0","OVAR MACEDA, PO","FM-12","99999","V020","350,1,N,0040,1","22000,1,9,N","010000,1,N,1","+0132,1","+0062,1","10139,1",,,,"02,1,+00450,1,08,1",,,,"03,99,1,03,1,08,1,00450,1,00,1,00,1",,,,,"99999,9,10119,1","2,1,011,1,+999,9",,,,"SYN076AAXX  13091 08544 42460 33504 10132 20062 30119 40139 52011 83800 333 82815;",
"08544099999","2010-05-13T12:00:00","4","40.9166666","-8.6333333","22.0","OVAR MACEDA, PO","FM-12","99999","V020","350,1,N,0060,1","22000,1,9,N","010000,1,N,1","+0166,1","+0069,1","10138,1",,,,"02,1,+00450,1,08,1",,,,"03,99,1,03,1,08,1,00450,1,00,1,00,1",,,,,"99999,9,10118,1","0,1,001,1,+999,9",,,,"SYN092AAXX  13121 08544 32460 33506 10166 20069 30118 40138 50001 83800 333 82815 555 50004 60007;",
"08544099999","2010-05-13T15:00:00","4","40.9166666","-8.6333333","22.0","OVAR MACEDA, PO","FM-12","99999","V020","360,1,N,0100,1","22000,1,9,N","010000,1,N,1","+0164,1","+0071,1","10139,1",,,,"03,1,+00450,1,08,1",,,,"04,99,1,04,1,08,1,00450,1,00,1,00,1",,,,,"99999,9,10119,1","0,1,001,1,+999,9",,"0190,5",,"SYN088AAXX  13151 08544 42460 43610 10164 20071 30119 40139 50001 84800 333 83815 91019 91119;",
"08544099999","2010-05-13T18:00:00","4","40.9166666","-8.6333333","22.0","OVAR MACEDA, PO","FM-12","99999","V020","360,1,N,0100,1","22000,1,9,N","010000,1,N,1","+0150,1","+0067,1","10146,1",,,,"02,1,+00450,1,08,1",,,,"02,99,1,02,1,02,1,00450,1,00,1,00,1",,,,"120,M,+0172,1","99999,9,10125,1","2,1,006,1,+999,9",,"0180,5",,"SYN104AAXX  13181 08544 32460 23610 10150 20067 30125 40146 52006 82200 333 10172 82815 91018 91118 555 60007;",
"08544099999","2010-05-14T06:00:00","4","40.9166666","-8.6333333","22.0","OVAR MACEDA, PO","FM-12","99999","V020","200,1,N,0020,1","00900,1,9,N","010000,1,N,1","+0058,1","+0045,1","10173,1",,,,"02,1,+00450,1,08,1","05,1,+00900,1,06,1",,,"06,99,1,06,1,08,1,00450,1,00,1,00,1","0738,9",,,"999,N,+0056,1","99999,9,10152,1","4,1,000,1,+999,9","03,1",,,"SYN116AAXX  14061 08544 31460 62002 10058 20045 30152 40173 54000 703// 86800 333 20056 50554 55123 82815 85630 555 60002;",
"08544099999","2010-05-14T09:00:00","4","40.9166666","-8.6333333","22.0","OVAR MACEDA, PO","FM-12","99999","V020","130,1,N,0020,1","00240,1,9,N","000800,1,N,1","+0104,1","+0081,1","10185,1",,"5,1,03,1","2,1,03,1","05,1,+00240,1,07,1","07,1,+00600,1,08,1",,,"08,99,1,08,1,02,1,00250,1,99,9,99,9",,,,,"99999,9,10165,1","2,1,013,1,+999,9","50,1",,,"SYN122AAXX  14090 08544 41308 81302 10104 20081 30165 40185 52013 75052 882// 333 85708 87820 96010 555 30056 41/// 59924 69927;",
"08544099999","2010-05-14T12:00:00","4","40.9166666","-8.6333333","22.0","OVAR MACEDA, PO","FM-12","99999","V020","310,1,N,0040,1","00900,1,9,N","008000,1,N,1","+0148,1","+0110,1","10187,1","06,0003,9,1","5,1,06,1","2,1,06,1","04,1,+00450,1,08,1","04,1,+00900,1,06,1",,,"07,99,1,07,1,08,1,00450,1,00,1,00,1",,,,,"99999,9,10167,1","0,1,002,1,+999,9","10,1",,,"SYN110AAXX  14121 08544 11458 73104 10148 20110 30167 40187 50002 69931 71052 87800 333 84815 84630 555 59934 69927;",
"08544099999","2010-05-14T15:00:00","4","40.9166666","-8.6333333","22.0","OVAR MACEDA, PO","FM-12","99999","V020","340,1,N,0060,1","00450,1,9,N","007000,1,N,1","+0148,1","+0124,1","10193,1",,"5,1,03,1","2,1,03,1","02,1,+00240,1,07,1","03,1,+00450,1,08,1","05,1,+00750,1,06,1",,"08,99,1,08,1,08,1,00250,1,99,9,99,9",,,,,"99999,9,10172,1","2,1,004,1,+999,9","10,1","0110,5",,"SYN116AAXX  14151 08544 41357 83406 10148 20124 30172 40193 52004 71052 888// 333 82708 83815 85625 91011 91111 555 69937;",
"08544099999","2010-05-14T18:00:00","4","40.9166666","-8.6333333","22.0","OVAR MACEDA, PO","FM-12","99999","V020","350,1,N,0060,1","00900,1,9,N","010000,1,N,1","+0150,1","+0108,1","10195,1","12,0010,9,1","5,1,06,1","2,1,06,1","03,1,+00450,1,08,1","05,1,+00900,1,06,1",,,"07,99,1,07,1,08,1,00450,1,00,1,00,1",,,,"120,M,+0156,1","99999,9,10174,1","2,1,002,1,+999,9","01,1","0110,5",,"SYN122AAXX  14181 08544 11460 73506 10150 20108 30174 40195 52002 60012 70152 87800 333 10156 83815 85630 91011 91111 555 60007;",
"08544099999","2010-05-15T06:00:00","4","40.9166666","-8.6333333","22.0","OVAR MACEDA, PO","FM-12","99999","V020","999,9,C,0000,1","22000,1,9,N","010000,1,N,1","+0092,1","+0080,1","10224,1",,,,"03,1,+00600,1,06,1",,,,"03,99,1,03,1,05,1,00800,1,00,1,00,1","0204,9",,,"999,N,+0092,1","99999,9,10203,1","1,1,005,1,+999,9","00,1",,,"SYN110AAXX  15061 08544 31560 30000 10092 20080 30203 40224 51005 700// 83500 333 20092 50274 55034 83620 555 60002;",
"08544099999","2010-05-15T09:00:00","4","40.9166666","-8.6333333","22.0","OVAR MACEDA, PO","FM-12","99999","V020","040,1,N,0070,1","22000,1,9,N","010000,1,N,1","+0150,1","+0057,1","10226,1",,,,"02,1,+00450,1,08,1",,,,"04,99,1,04,1,08,1,00450,1,00,1,00,1",,,,,"99999,9,10206,1","0,1,003,1,+999,9",,,,"SYN082AAXX  15091 08544 42460 40407 10150 20057 30206 40226 50003 84800 333 82815 83630;",
"08544099999","2010-05-15T12:00:00","4","40.9166666","-8.6333333","22.0","OVAR MACEDA, PO","FM-12","99999","V020","350,1,N,0070,1","22000,1,9,N","010000,1,N,1","+0166,1","+0090,1","10233,1",,,,"04,1,+00450,1,08,1",,,,"04,99,1,04,1,02,1,00450,1,03,1,00,1",,,,,"99999,9,10213,1","2,1,007,1,+999,9",,"0130,5",,"SYN104AAXX  15121 08544 32460 43507 10166 20090 30213 40233 52007 84230 333 84815 91013 91113 555 50004 60007;",
"08544099999","2010-05-15T15:00:00","4","40.9166666","-8.6333333","22.0","OVAR MACEDA, PO","FM-12","99999","V020","350,1,N,0080,1","99999,9,9,N","010000,1,N,1","+0160,1","+0100,1","10231,1",,,,"04,1,+00450,1,08,1",,,,"05,99,1,04,1,02,1,00450,1,00,1,00,1",,,,,"99999,9,10211,1","3,1,002,1,+999,9",,"0140,5",,"SYN088AAXX  15151 08544 42460 53508 10160 20100 30211 40231 53002 84200 333 84815 91014 91114;",
"08544099999","2010-05-15T18:00:00","4","40.9166666","-8.6333333","22.0","OVAR MACEDA, PO","FM-12","99999","V020","360,1,N,0090,1","22000,1,9,N","010000,1,N,1","+0158,1","+0085,1","10227,1",,,,"04,1,+00450,1,08,1",,,,"99,99,9,02,1,02,1,00450,1,00,1,00,1",,,,"120,M,+0170,1","99999,9,10207,1","0,1,004,1,+999,9",,"0150,5",,"SYN104AAXX  15181 08544 32460 23609 10158 20085 30207 40227 50004 82200 333 10170 84815 91015 91115 555 60007;","Q01+000022SCOTCV"
"08544099999","2010-05-16T06:00:00","4","40.9166666","-8.6333333","22.0","OVAR MACEDA, PO","FM-12","99999","V020","020,1,N,0010,1","22000,1,9,N","010000,1,N,1","+0064,1","+0056,1","10231,1",,,,"00,1,+99999,9,99,9",,,,"00,99,1,00,1,00,1,99999,9,00,1,00,1","0702,9",,,"999,N,+0062,1","99999,9,10210,1","2,1,003,1,+999,9","00,1",,,"SYN098AAXX  16061 08544 31960 00201 10064 20056 30210 40231 52003 700// 333 20062 50424 55117 555 60002;",
"08544099999","2010-05-16T09:00:00","4","40.9166666","-8.6333333","22.0","OVAR MACEDA, PO","FM-12","99999","V020","010,1,N,0050,1","22000,1,9,N","010000,1,N,1","+0148,1","+0077,1","10239,1",,,,"00,1,+99999,9,99,9",,,,"00,99,1,00,1,00,1,99999,9,00,1,00,1",,,,,"99999,9,10218,1","2,1,008,1,+999,9",,,,"SYN060AAXX  16091 08544 42960 00105 10148 20077 30218 40239 52008;",
"08544099999","2010-05-16T12:00:00","4","40.9166666","-8.6333333","22.0","OVAR MACEDA, PO","FM-12","99999","V020","340,1,N,0050,1","22000,1,9,N","010000,1,N,1","+0174,1","+0083,1","10244,1",,,,"01,1,+00540,1,08,1",,,,"01,99,1,01,1,01,1,00450,1,00,1,00,1",,,,,"99999,9,10224,1","2,1,006,1,+999,9",,,,"SYN092AAXX  16121 08544 32460 13405 10174 20083 30224 40244 52006 81100 333 81818 555 50004 60007;",
"08544099999","2010-05-16T15:00:00","4","40.9166666","-8.6333333","22.0","OVAR MACEDA, PO","FM-12","99999","V020","360,1,N,0100,1","22000,1,9,N","010000,1,N,1","+0174,1","+0083,1","10236,1",,,,"01,1,+00540,1,08,1",,,,"01,99,1,01,1,01,1,00450,1,00,1,00,1",,,,,"99999,9,10216,1","7,1,008,1,+999,9",,"0130,5",,"SYN088AAXX  16151 08544 42460 13610 10174 20083 30216 40236 57008 81100 333 81818 91013 91113;",
"08544099999","2010-05-17T06:00:00","4","40.9166666","-8.6333333","22.0","OVAR MACEDA, PO","FM-12","99999","V020","999,9,C,0000,1","22000,1,9,N","010000,1,N,1","+0074,1","+0070,1","10245,1",,,,"00,1,+99999,9,99,9",,,,"00,99,1,00,1,00,1,99999,9,00,1,00,1","0768,9",,,"999,N,+0074,1","99999,9,10224,1","4,1,000,1,+999,9","00,1",,,"SYN098AAXX  17061 08544 31960 00000 10074 20070 30224 40245 54000 700// 333 20074 50394 55128 555 60002;",
"08544099999","2010-05-17T09:00:00","4","40.9166666","-8.6333333","22.0","OVAR MACEDA, PO","FM-12","99999","V020","300,1,N,0010,1","22000,1,9,N","010000,1,N,1","+0170,1","+0119,1","10251,1",,,,"00,1,+99999,9,99,9",,,,"00,99,1,00,1,00,1,99999,9,00,1,00,1",,,,,"99999,9,10231,1","2,1,007,1,+999,9",,,,"SYN060AAXX  17091 08544 42960 03001 10170 20119 30231 40251 52007;",
"08544099999","2010-05-17T12:00:00","4","40.9166666","-8.6333333","22.0","OVAR MACEDA, PO","FM-12","99999","V020","320,1,N,0030,1","22000,1,9,N","010000,1,N,1","+0198,1","+0117,1","10249,1",,,,"00,1,+99999,9,99,9",,,,"00,99,1,00,1,00,1,99999,9,00,1,00,1",,,,,"99999,9,10229,1","5,1,002,1,+999,9",,,,"SYN076AAXX  17121 08544 32960 03203 10198 20117 30229 40249 55002 555 50004 60007;",
"08544099999","2010-05-17T15:00:00","4","40.9166666","-8.6333333","22.0","OVAR MACEDA, PO","FM-12","99999","V020","360,1,N,0070,1","22000,1,9,N","010000,1,N,1","+0200,1","+0119,1","10246,1",,,,"02,1,+00450,1,08,1",,,,"02,99,1,02,1,02,1,00450,1,00,1,00,1",,,,,"99999,9,10226,1","2,1,030,1,+999,9",,,,"SYN076AAXX  17151 08544 42460 23607 10200 20119 30226 40246 52030 82200 333 82815;",
"08544099999","2010-05-17T18:00:00","4","40.9166666","-8.6333333","22.0","OVAR MACEDA, PO","FM-12","99999","V020","020,1,N,0070,1","22000,1,9,N","010000,1,N,1","+0182,1","+0113,1","10244,1",,,,"00,1,+99999,9,99,9",,,,"00,99,1,00,1,00,1,99999,9,00,1,00,1",,,,"120,M,+0204,1","99999,9,10224,1","3,1,002,1,+999,9",,,,"SYN080AAXX  17181 08544 32960 00207 10182 20113 30224 40244 53002 333 10204 555 60007;",
"08544099999","2010-05-18T06:00:00","4","40.9166666","-8.6333333","22.0","OVAR MACEDA, PO","FM-12","99999","V020","050,1,N,0010,1","22000,1,9,N","010000,1,N,1","+0092,1","+0086,1","10248,1",,,,"01,1,+06000,1,00,1",,,,"01,99,1,00,1,00,1,99999,9,00,1,01,1","0798,9",,,"999,N,+0088,1","99999,9,10227,1","2,1,003,1,+999,9","00,1",,,"SYN110AAXX  18061 08544 31960 10501 10092 20086 30227 40248 52003 700// 80001 333 20088 50354 55133 81070 555 60002;",
"08544099999","2010-05-18T09:00:00","4","40.9166666","-8.6333333","22.0","OVAR MACEDA, PO","FM-12","99999","V020","280,1,N,0020,1","22000,1,9,N","010000,1,N,1","+0190,1","+0127,1","10255,1",,,,"00,1,+99999,9,99,9",,,,"00,99,1,00,1,00,1,99999,9,00,1,00,1",,,,,"99999,9,10235,1","2,1,008,1,+999,9",,,,"SYN060AAXX  18091 08544 42960 02802 10190 20127 30235 40255 52008;",
"08544099999","2010-05-18T12:00:00","4","40.9166666","-8.6333333","22.0","OVAR MACEDA, PO","FM-12","99999","V020","340,1,N,0040,1","22000,1,9,N","010000,1,N,1","+0234,1","+0122,1","10251,1",,,,"01,1,+09000,1,00,1",,,,"01,99,1,00,1,00,1,99999,9,00,1,01,1",,,,,"99999,9,10231,1","8,1,004,1,+999,9",,,,"SYN092AAXX  18121 08544 32960 13404 10234 20122 30231 40251 58004 80001 333 81080 555 50004 60007;",
"08544099999","2010-05-18T15:00:00","4","40.9166666","-8.6333333","22.0","OVAR MACEDA, PO","FM-12","99999","V020","360,1,N,0070,1","22000,1,9,N","010000,1,N,1","+0234,1","+0118,1","10245,1",,,,"03,1,+09000,1,00,1",,,,"03,99,1,01,1,02,1,00800,1,00,1,01,1",,,,,"99999,9,10226,1","7,1,005,1,+999,9",,"0100,5",,"SYN088AAXX  18151 08544 42560 33607 10234 20118 30226 40245 57005 81201 333 83080 91010 91111;",
"08544099999","2010-05-18T18:00:00","4","40.9166666","-8.6333333","22.0","OVAR MACEDA, PO","FM-12","99999","V020","360,1,N,0070,1","09000,1,9,N","010000,1,N,1","+0200,1","+0123,1","10240,1",,,,"05,1,+09000,1,00,1",,,,"05,99,1,00,1,00,1,99999,9,00,1,04,1",,,,"120,M,+0240,1","99999,9,10219,1","7,1,007,1,+999,9",,"0110,5","4,99,0120,9,999","SYN104AAXX  18181 08544 32960 53607 10200 20123 30219 40240 57007 80004 333 10240 85080 91011 91112 555 60007;",
"08544099999","2010-05-19T06:00:00","4","40.9166666","-8.6333333","22.0","OVAR MACEDA, PO","FM-12","99999","V020","999,9,C,0000,1","22000,1,9,N","007000,1,N,1","+0120,1","+0110,1","10227,1",,,,"03,1,+08400,1,00,1",,,,"03,99,1,00,1,00,1,99999,9,00,1,01,1","0816,9",,,"999,N,+0116,1","99999,9,10206,1","7,1,003,1,+999,9","10,1",,,"SYN110AAXX  19061 08544 31957 30000 10120 20110 30206 40227 57003 710// 80001 333 20116 50484 55136 83078 555 60002;",
"08544099999","2010-05-19T09:00:00","4","40.9166666","-8.6333333","22.0","OVAR MACEDA, PO","FM-12","99999","V020","280,1,N,0020,1","22000,1,9,N","010000,1,N,1","+0210,1","+0150,1","10230,1",,,,"03,1,+08400,1,00,1",,,,"03,99,1,00,1,00,1,99999,9,00,1,01,1",,,,,"99999,9,10209,1","2,1,004,1,+999,9",,,,"SYN076AAXX  19091 08544 42960 32802 10210 20150 30209 40230 52004 80001 333 83078;",
"08544099999","2010-05-19T12:00:00","4","40.9166666","-8.6333333","22.0","OVAR MACEDA, PO","FM-12","99999","V020","340,1,N,0040,1","22000,1,9,N","010000,1,N,1","+0258,1","+0137,1","10223,1",,,,"03,1,+08400,1,00,1",,,,"03,99,1,00,1,00,1,99999,9,00,1,01,1",,,,,"99999,9,10203,1","7,1,006,1,+999,9",,,,"SYN092AAXX  19121 08544 32960 33404 10258 20137 30203 40223 57006 80001 333 83078 555 50004 60007;",
"08544099999","2010-05-19T15:00:00","4","40.9166666","-8.6333333","22.0","OVAR MACEDA, PO","FM-12","99999","V020","350,1,N,0050,1","22000,1,9,N","010000,1,N,1","+0268,1","+0113,1","10211,1",,,,"01,1,+08400,1,08,1",,,,"01,99,1,01,1,01,1,00800,1,00,1,01,1",,,,,"99999,9,10191,1","7,1,012,1,+999,9",,,,"SYN076AAXX  19151 08544 42560 13505 10268 20113 30191 40211 57012 81101 333 81878;",
"08544099999","2010-05-19T18:00:00","4","40.9166666","-8.6333333","22.0","OVAR MACEDA, PO","FM-12","99999","V020","360,1,N,0070,1","22000,1,9,N","010000,1,N,1","+0252,1","+0095,1","10203,1",,,,"01,1,+08400,1,00,1",,,,"01,99,1,00,1,00,1,99999,9,00,1,01,1",,,,"120,M,+0278,1","99999,9,10184,1","7,1,007,1,+999,9",,"0100,5",,"SYN104AAXX  19181 08544 32960 13607 10252 20095 30184 40203 57007 80001 333 10278 81078 91010 91110 555 60007;",
"08544099999","2010-05-20T06:00:00","4","40.9166666","-8.6333333","22.0","OVAR MACEDA, PO","FM-12","99999","V020","020,1,N,0040,1","22000,1,9,N","010000,1,N,1","+0180,1","+0091,1","10209,1",,,,"00,1,+99999,9,99,9",,,,"00,99,1,00,1,00,1,99999,9,00,1,00,1","0798,9",,,"999,N,+0164,1","99999,9,10189,1","7,1,003,1,+999,9",,,,"SYN092AAXX  20061 08544 32960 00204 10180 20091 30189 40209 57003 333 20164 50754 55133 555 60002;",
"08544099999","2010-05-20T09:00:00","4","40.9166666","-8.6333333","22.0","OVAR MACEDA, PO","FM-12","99999","V020","070,1,N,0040,1","22000,1,9,N","010000,1,N,1","+0254,1","+0107,1","10207,1",,,,"00,1,+99999,9,99,9",,,,"00,99,1,00,1,00,1,99999,9,00,1,00,1",,,,,"99999,9,10187,1","8,1,002,1,+999,9",,,,"SYN060AAXX  20091 08544 42960 00704 10254 20107 30187 40207 58002;",
"08544099999","2010-05-20T12:00:00","4","40.9166666","-8.6333333","22.0","OVAR MACEDA, PO","FM-12","99999","V020","050,1,N,0030,1","22000,1,9,N","010000,1,N,1","+0308,1","+0089,1","10199,1",,,,"00,1,+99999,9,99,9",,,,"00,99,1,00,1,00,1,99999,9,00,1,00,1",,,,,"99999,9,10179,1","7,1,008,1,+999,9",,"0090,5",,"SYN092AAXX  20121 08544 32960 00503 10308 20089 30179 40199 57008 333 91009 91109 555 50004 60007;",
"08544099999","2010-05-20T15:00:00","4","40.9166666","-8.6333333","22.0","OVAR MACEDA, PO","FM-12","99999","V020","020,1,N,0030,1","22000,1,9,N","010000,1,N,1","+0318,1","+0091,1","10187,1",,,,"00,1,+99999,9,99,9",,,,"00,99,1,00,1,00,1,99999,9,00,1,00,1",,,,,"99999,9,10168,1","8,1,011,1,+999,9",,,,"SYN070AAXX  20151 08544 42960 00203 10318 20091 30168 40187 58011 333 91109;",
"08544099999","2010-05-20T18:00:00","4","40.9166666","-8.6333333","22.0","OVAR MACEDA, PO","FM-12","99999","V020","010,1,N,0080,1","22000,1,9,N","010000,1,N,1","+0254,1","+0123,1","10178,1",,,,"00,1,+99999,9,99,9",,,,"00,99,1,00,1,00,1,99999,9,00,1,00,1",,,,"120,M,+0318,1","99999,9,10158,1","7,1,010,1,+999,9",,,"4,99,0140,9,999","SYN086AAXX  20181 08544 32960 00108 10254 20123 30158 40178 57010 333 10318 91114 555 60007;",
"08544099999","2010-05-21T06:00:00","4","40.9166666","-8.6333333","22.0","OVAR MACEDA, PO","FM-12","99999","V020","070,1,N,0010,1","22000,1,9,N","010000,1,N,1","+0188,1","+0093,1","10173,1",,,,"00,1,+99999,9,99,9",,,,"00,99,1,00,1,00,1,99999,9,00,1,00,1","0822,9",,,"999,N,+0140,1","99999,9,10153,1","7,1,004,1,+999,9","00,1",,,"SYN098AAXX  21061 08544 31960 00701 10188 20093 30153 40173 57004 700// 333 20140 51044 55137 555 60002;",
"08544099999","2010-05-21T09:00:00","4","40.9166666","-8.6333333","22.0","OVAR MACEDA, PO","FM-12","99999","V020","090,1,N,0020,1","22000,1,9,N","010000,1,N,1","+0262,1","+0126,1","10175,1",,,,"00,1,+99999,9,99,9",,,,"00,99,1,00,1,00,1,99999,9,00,1,00,1",,,,,"99999,9,10155,1","0,1,002,1,+999,9",,,,"SYN060AAXX  21091 08544 42960 00902 10262 20126 30155 40175 50002;",
"08544099999","2010-05-21T12:00:00","4","40.9166666","-8.6333333","22.0","OVAR MACEDA, PO","FM-12","99999","V020","320,1,N,0040,1","22000,1,9,N","010000,1,N,1","+0300,1","+0124,1","10165,1",,,,"00,1,+99999,9,99,9",,,,"00,99,1,00,1,00,1,99999,9,00,1,00,1",,,,,"99999,9,10146,1","7,1,009,1,+999,9",,,,"SYN076AAXX  21121 08544 32960 03204 10300 20124 30146 40165 57009 555 50004 60007;",
"08544099999","2010-05-21T15:00:00","4","40.9166666","-8.6333333","22.0","OVAR MACEDA, PO","FM-12","99999","V020","330,1,N,0040,1","22000,1,9,N","010000,1,N,1","+0300,1","+0102,1","10150,1",,,,"00,1,+99999,9,99,9",,,,"00,99,1,00,1,00,1,99999,9,00,1,00,1",,,,,"99999,9,10130,1","7,1,016,1,+999,9",,,,"SYN060AAXX  21151 08544 42960 03304 10300 20102 30130 40150 57016;",
"08544099999","2010-05-21T18:00:00","4","40.9166666","-8.6333333","22.0","OVAR MACEDA, PO","FM-12","99999","V020","010,1,N,0080,1","22000,1,9,N","010000,1,N,1","+0268,1","+0095,1","10142,1",,,,"00,1,+99999,9,99,9",,,,"00,99,1,00,1,00,1,99999,9,00,1,00,1",,,,"120,M,+0308,1","99999,9,10123,1","7,1,007,1,+999,9",,"0100,5","4,99,0110,9,999","SYN092AAXX  21181 08544 32960 00108 10268 20095 30123 40142 57007 333 10308 91010 91111 555 60007;",
"08544099999","2010-05-22T06:00:00","4","40.9166666","-8.6333333","22.0","OVAR MACEDA, PO","FM-12","99999","V020","999,9,C,0000,1","22000,1,9,N","010000,1,N,1","+0130,1","+0115,1","10134,1",,,,"00,1,+99999,9,99,9",,,,"00,99,1,00,1,00,1,99999,9,00,1,00,1","0822,9",,,"999,N,+0130,1","99999,9,10114,1","7,1,006,1,+999,9","00,1",,,"SYN098AAXX  22061 08544 31960 00000 10130 20115 30114 40134 57006 700// 333 20130 50994 55137 555 60002;",
"08544099999","2010-05-22T09:00:00","4","40.9166666","-8.6333333","22.0","OVAR MACEDA, PO","FM-12","99999","V020","310,1,N,0010,1","22000,1,9,N","010000,1,N,1","+0262,1","+0142,1","10138,1",,,,"00,1,+99999,9,99,9",,,,"00,99,1,00,1,00,1,99999,9,00,1,00,1",,,,,"99999,9,10118,1","2,1,004,1,+999,9",,,,"SYN060AAXX  22091 08544 42960 03101 10262 20142 30118 40138 52004;",
"08544099999","2010-05-22T12:00:00","4","40.9166666","-8.6333333","22.0","OVAR MACEDA, PO","FM-12","99999","V020","240,1,N,0060,1","22000,1,9,N","010000,1,N,1","+0268,1","+9999,9","10142,1",,,,"02,1,+00900,1,08,1",,,,"02,99,1,02,1,02,1,00800,1,00,1,00,1",,,,,"99999,9,10122,1","0,1,004,1,+999,9",,,"4,99,0090,9,999","SYN092AAXX  22121 08544 32560 22406 10268 30122 40142 50004 82200 333 82830 91109 555 50004 60007;",
"08544099999","2010-05-22T15:00:00","4","40.9166666","-8.6333333","22.0","OVAR MACEDA, PO","FM-12","99999","V020","330,1,N,0030,1","22000,1,9,N","010000,1,N,1","+0246,1","+0130,1","10138,1",,,,"02,1,+00900,1,08,1",,,,"02,99,1,02,1,02,1,00800,1,00,1,00,1",,,,,"99999,9,10118,1","8,1,004,1,+999,9",,,,"SYN082AAXX  22151 08544 42560 23303 10246 20130 30118 40138 58004 82200 333 82830 91108;",
"08544099999","2010-05-22T18:00:00","4","40.9166666","-8.6333333","22.0","OVAR MACEDA, PO","FM-12","99999","V020","010,1,N,0050,1","22000,1,9,N","010000,1,N,1","+0244,1","+0110,1","10134,1",,,,"00,1,+99999,9,99,9",,,,"00,99,1,00,1,00,1,99999,9,00,1,00,1",,,,"120,M,+0274,1","99999,9,10114,1","7,1,004,1,+999,9",,"0080,5",,"SYN092AAXX  22181 08544 32960 00105 10244 20110 30114 40134 57004 333 10274 91008 91108 555 60007;",
"08544099999","2010-05-23T06:00:00","4","40.9166666","-8.6333333","22.0","OVAR MACEDA, PO","FM-12","99999","V020","999,9,C,0000,1","22000,1,9,N","010000,1,N,1","+0138,1","+0117,1","10128,1",,,,"01,1,+08400,1,00,1",,,,"01,99,1,00,1,00,1,99999,9,00,1,01,1","0822,9",,,"999,N,+0126,1","99999,9,10107,1","7,1,003,1,+999,9","00,1",,,"SYN110AAXX  23060 08544 31960 10000 10138 20117 30107 40128 57003 700// 80001 333 20126 50714 55137 81078 555 60002;",
"08544099999","2010-05-23T09:00:00","4","40.9166666","-8.6333333","22.0","OVAR MACEDA, PO","FM-12","99999","V020","200,1,N,0040,1","22000,1,9,N","010000,1,N,1","+0232,1","+0132,1","10130,1",,,,"00,1,+99999,9,99,9",,,,"00,99,1,00,1,00,1,99999,9,00,1,00,1",,,,,"99999,9,10111,1","1,1,004,1,+999,9",,,,"SYN060AAXX  23091 08544 42960 02004 10232 20132 30111 40130 51004;",
"08544099999","2010-05-23T12:00:00","4","40.9166666","-8.6333333","22.0","OVAR MACEDA, PO","FM-12","99999","V020","290,1,N,0050,1","22000,1,9,N","010000,1,N,1","+0238,1","+0135,1","10131,1",,,,"00,1,+99999,9,99,9",,,,"00,99,1,00,1,00,1,99999,9,00,1,00,1",,,,,"99999,9,10111,1","4,1,000,1,+999,9",,,"4,99,0080,9,999","SYN086AAXX  23121 08544 32960 02905 10238 20135 30111 40131 54000 333 91108 555 50004 60007;",
"08544099999","2010-05-23T15:00:00","4","40.9166666","-8.6333333","22.0","OVAR MACEDA, PO","FM-12","99999","V020","350,1,N,0050,1","22000,1,9,N","010000,1,N,1","+0238,1","+0139,1","10121,1",,,,"01,1,+00660,1,08,1",,,,"02,99,1,02,1,03,1,99999,9,00,1,01,1",,,,,"99999,9,10101,1","7,1,010,1,+999,9",,,,"SYN076AAXX  23151 08544 42960 23505 10238 20139 30101 40121 57010 82301 333 81822;",
"08544099999","2010-05-23T18:00:00","4","40.9166666","-8.6333333","22.0","OVAR MACEDA, PO","FM-12","99999","V020","290,1,N,0020,1","22000,1,9,N","010000,1,N,1","+0214,1","+0153,1","10130,1",,,,"01,1,+00660,1,08,1",,,,"02,99,1,02,1,03,1,00800,1,00,1,01,1",,,,"120,M,+0246,1","99999,9,10110,1","1,1,009,1,+999,9",,,,"SYN092AAXX  23181 08544 32560 22902 10214 20153 30110 40130 51009 82301 333 10246 81822 555 60007;",
"08544099999","2010-05-24T06:00:00","4","40.9166666","-8.6333333","22.0","OVAR MACEDA, PO","FM-12","99999","V020","170,1,N,0020,1","03600,1,9,N","010000,1,N,1","+0176,1","+0133,1","10135,1",,,,"03,1,+00660,1,08,1","03,1,+01050,1,06,1",,,"06,99,1,04,1,08,1,00800,1,03,1,01,1","0786,9",,,"999,N,+0174,1","99999,9,10115,1","6,1,001,1,+999,9","00,1",,,"SYN116AAXX  24061 08544 31560 61702 10176 20133 30115 40135 56001 700// 84831 333 20174 50514 55131 83822 83635 555 60002;",
"08544099999","2010-05-24T09:00:00","4","40.9166666","-8.6333333","22.0","OVAR MACEDA, PO","FM-12","99999","V020","180,1,N,0060,1","22000,1,9,N","010000,1,N,1","+0200,1","+0124,1","10135,1",,,,"02,1,+00600,1,08,1",,,,"03,99,1,02,1,08,1,00800,1,00,1,01,1",,,,,"99999,9,10115,1","0,1,000,1,+999,9",,,,"SYN076AAXX  24091 08544 42560 31806 10200 20124 30115 40135 50000 82801 333 82820;",
"08544099999","2010-05-24T12:00:00","4","40.9166666","-8.6333333","22.0","OVAR MACEDA, PO","FM-12","99999","V020","250,1,N,0050,1","22000,1,9,N","010000,1,N,1","+0222,1","+0135,1","10135,1",,,,"03,1,+00600,1,08,1",,,,"04,99,1,03,1,02,1,00800,1,00,1,01,1",,,,,"99999,9,10115,1","0,1,000,1,+999,9",,"0100,5","4,99,0110,9,999","SYN104AAXX  24121 08544 32560 42505 10222 20135 30115 40135 50000 83201 333 83820 91010 91111 555 50004 60007;",
"08544099999","2010-05-24T15:00:00","4","40.9166666","-8.6333333","22.0","OVAR MACEDA, PO","FM-12","99999","V020","240,1,N,0050,1","22000,1,9,N","010000,1,N,1","+0210,1","+0128,1","10126,1",,,,"02,1,+00600,1,08,1",,,,"03,99,1,02,1,02,1,00800,1,00,1,04,1",,,,,"99999,9,10107,1","7,1,008,1,+999,9",,"0080,5",,"SYN088AAXX  24151 08544 42560 32405 10210 20128 30107 40126 57008 82204 333 82820 91008 91111;",
"08544099999","2010-05-24T18:00:00","4","40.9166666","-8.6333333","22.0","OVAR MACEDA, PO","FM-12","99999","V020","240,1,N,0060,1","22000,1,9,N","010000,1,N,1","+0200,1","+0127,1","10118,1",,,,"01,1,+00600,1,08,1","03,1,+06000,1,00,1",,,"03,99,1,01,1,02,1,00800,1,00,1,04,1",,,,"120,M,+0230,1","99999,9,10098,1","7,1,009,1,+999,9",,"0090,5","4,99,0120,9,999","SYN110AAXX  24181 08544 32560 32406 10200 20127 30098 40118 57009 81204 333 10230 81820 83070 91009 91112 555 60007;",
"08544099999","2010-05-25T06:00:00","4","40.9166666","-8.6333333","22.0","OVAR MACEDA, PO","FM-12","99999","V020","180,1,N,0070,1","00540,1,9,N","003000,1,N,1","+0156,1","+0146,1","10110,1","12,0051,9,1","8,1,06,1",,"03,1,+00240,1,07,1","06,1,+00540,1,08,1","01,1,+00600,1,09,1",,"08,99,1,08,1,09,1,00250,1,99,9,99,9","0636,9",,,"999,N,+0154,1","99999,9,10090,1","7,1,009,1,+999,9","81,1","0110,5",,"SYN158AAXX  25061 08544 11330 81807 10156 20146 30090 40110 57009 60052 7818/ 889// 333 20154 50574 55106 83708 86818 81920 91011 91111 96010 555 60052 90269 96681;",
"08544099999","2010-05-25T09:00:00","4","40.9166666","-8.6333333","22.0","OVAR MACEDA, PO","FM-12","99999","V020","220,1,N,0080,1","00450,1,9,N","008000,1,N,1","+0182,1","+0150,1","10129,1",,"8,1,03,1","2,1,03,1","06,1,+00450,1,08,1",,,,"07,99,1,07,1,09,1,00450,1,00,1,00,1",,,,,"99999,9,10109,1","2,1,019,1,+999,9","10,1",,,"SYN088AAXX  25091 08544 41458 72208 10182 20150 30109 40129 52019 71082 87900 333 86815 81920;",
"08544099999","2010-05-25T12:00:00","4","40.9166666","-8.6333333","22.0","OVAR MACEDA, PO","FM-12","99999","V020","220,1,N,0090,1","00450,1,9,N","010000,1,N,1","+0194,1","+0153,1","10137,1",,"8,1,06,1","2,1,06,1","05,1,+00450,1,08,1","01,1,+00600,1,09,1",,,"07,99,1,05,1,09,1,00450,1,03,1,00,1",,,,,"99999,9,10117,1","3,1,008,1,+999,9","02,1","0160,5",,"SYN116AAXX  25121 08544 31460 72209 10194 20153 30117 40137 53008 70282 85930 333 85815 81920 91016 91116 555 50134 60007;",
"08544099999","2010-05-25T15:00:00","4","40.9166666","-8.6333333","22.0","OVAR MACEDA, PO","FM-12","99999","V020","240,1,N,0080,1","00450,1,9,N","010000,1,N,1","+0194,1","+0149,1","10143,1",,,,"03,1,+00360,1,08,1","05,1,+00450,1,06,1",,,"07,99,1,07,1,02,1,00450,1,03,1,00,1",,,,,"99999,9,10123,1","2,1,006,1,+999,9",,"0140,5",,"SYN094AAXX  25151 08544 42460 72408 10194 20149 30123 40143 52006 87230 333 83812 85615 91014 91114;",
"08544099999","2010-05-25T18:00:00","4","40.9166666","-8.6333333","22.0","OVAR MACEDA, PO","FM-12","99999","V020","240,1,N,0060,1","00450,1,9,N","010000,1,N,1","+0180,1","+0147,1","10147,1","12,0079,9,1",,,"03,1,+00360,1,08,1","05,1,+00450,1,06,1",,,"07,99,1,06,1,02,1,00450,1,03,1,00,1",,,,"120,M,+0202,1","99999,9,10127,1","0,1,004,1,+999,9",,"0120,5",,"SYN116AAXX  25181 08544 12460 72406 10180 20147 30127 40147 50004 60082 86230 333 10202 83812 85615 91012 91112 555 60007;",
"08544099999","2010-05-26T06:00:00","4","40.9166666","-8.6333333","22.0","OVAR MACEDA, PO","FM-12","99999","V020","170,1,N,0040,1","00450,1,9,N","007000,1,N,1","+0140,1","+0137,1","10132,1",,,,"02,1,+00360,1,08,1","04,1,+00450,1,06,1",,,"06,99,1,05,1,02,1,00450,1,03,1,00,1","0486,9",,,"999,N,+0142,1","99999,9,10111,1","7,1,016,1,+999,9","10,1",,,"SYN116AAXX  26061 08544 31457 61704 10140 20137 30111 40132 57016 710// 85230 333 20142 50274 55081 82812 84615 555 60002;",
"08544099999","2010-05-26T09:00:00","4","40.9166666","-8.6333333","22.0","OVAR MACEDA, PO","FM-12","99999","V020","200,1,N,0040,1","00900,1,C,N","010000,1,N,1","+0176,1","+0137,1","10151,1",,,,"04,1,+00360,1,08,1",,,,"07,99,1,06,1,08,1,00450,1,03,1,00,1",,,,,"99999,9,10131,1","2,1,020,1,+999,9",,,,"SYN082AAXX  26091 08544 42460 72004 10176 20137 30131 40151 52020 86830 333 84812 84620;",
"08544099999","2010-05-26T12:00:00","4","40.9166666","-8.6333333","22.0","OVAR MACEDA, PO","FM-12","99999","V020","230,1,N,0040,1","00600,1,9,N","010000,1,N,1","+0180,1","+0137,1","10156,1","06,9999,9,9","8,1,06,1","2,1,06,1","03,1,+00360,1,08,1","08,1,+00600,1,06,1",,,"08,99,1,08,1,08,1,00450,1,99,9,99,9",,,,,"99999,9,10136,1","3,1,005,1,+999,9","25,1","0080,5",,"SYN122AAXX  26121 08544 11460 82304 10180 20137 30136 40156 53005 69901 72582 888// 333 83812 88620 91008 91108 555 59904 69907;","Q01  00002PRCP06Q02  00002PRCP06"
"08544099999","2010-05-26T15:00:00","4","40.9166666","-8.6333333","22.0","OVAR MACEDA, PO","FM-12","99999","V020","270,1,N,0050,1","22000,1,9,N","010000,1,N,1","+0198,1","+0147,1","10151,1",,"8,1,03,1","1,1,03,1","03,1,+00450,1,08,1",,,,"04,99,1,03,1,08,1,00450,1,00,1,01,1",,,,,"99999,9,10131,1","7,1,005,1,+999,9","01,1","0080,5",,"SYN094AAXX  26151 08544 41460 42705 10198 20147 30131 40151 57005 70181 83801 333 83815 91008 91109;",
"08544099999","2010-05-26T18:00:00","4","40.9166666","-8.6333333","22.0","OVAR MACEDA, PO","FM-12","99999","V020","270,1,N,0030,1","00600,1,9,N","010000,1,N,1","+0184,1","+0138,1","10146,1","12,0000,2,1","8,1,06,1","1,1,06,1","02,1,+00450,1,08,1","05,1,+00600,1,06,1",,,"06,99,1,05,1,08,1,00450,1,00,1,01,1",,,,"120,M,+0206,1","99999,9,10126,1","7,1,005,1,+999,9","03,1",,,"SYN110AAXX  26181 08544 11460 62703 10184 20138 30126 40146 57005 69902 70381 85801 333 10206 82815 85620 555 60007;",
"08544099999","2010-05-27T06:00:00","4","40.9166666","-8.6333333","22.0","OVAR MACEDA, PO","FM-12","99999","V020","999,9,C,0000,1","00450,1,9,N","005000,1,N,1","+0156,1","+0143,1","10134,1",,,,"04,1,+00390,1,08,1","07,1,+00450,1,06,1",,,"08,99,1,08,1,08,1,00450,1,99,9,99,9","0354,9",,,"999,N,+0142,1","99999,9,10114,1","7,1,008,1,+999,9","00,1",,,"SYN116AAXX  27061 08544 31450 80000 10156 20143 30114 40134 57008 700// 888// 333 20142 50284 55059 84813 87615 555 60002;",
"08544099999","2010-05-27T09:00:00","4","40.9166666","-8.6333333","22.0","OVAR MACEDA, PO","FM-12","99999","V020","340,1,N,0020,1","00900,1,9,N","008000,1,N,1","+0176,1","+0140,1","10143,1",,"2,1,03,1","2,1,03,1","02,1,+00450,1,08,1","04,1,+00900,1,06,1",,,"08,99,1,05,1,08,1,00450,1,07,1,99,9",,,,,"99999,9,10123,1","2,1,009,1,+999,9","10,1",,,"SYN094AAXX  27091 08544 41458 83402 10176 20140 30123 40143 52009 71022 8587/ 333 82815 84630 87357;",
"08544099999","2010-05-27T12:00:00","4","40.9166666","-8.6333333","22.0","OVAR MACEDA, PO","FM-12","99999","V020","340,1,N,0060,1","03600,1,9,N","010000,1,N,1","+0192,1","+0144,1","10149,1",,,,"03,1,+00450,1,08,1",,,,"05,99,1,03,1,08,1,00450,1,03,1,04,1",,,,,"99999,9,10129,1","1,1,006,1,+999,9",,"0080,5",,"SYN104AAXX  27121 08544 32460 53406 10192 20144 30129 40149 51006 83834 333 83815 91008 91108 555 59904 60007;",
"08544099999","2010-05-27T15:00:00","4","40.9166666","-8.6333333","22.0","OVAR MACEDA, PO","FM-12","99999","V020","320,1,N,0040,1","06600,1,9,N","010000,1,N,1","+0188,1","+0139,1","10153,1",,,,"03,1,+00540,1,08,1","04,1,+06600,1,00,1",,,"05,99,1,03,1,02,1,00450,1,03,1,01,1",,,,,"99999,9,10133,1","2,1,004,1,+999,9",,,,"SYN088AAXX  27151 08544 42460 53204 10188 20139 30133 40153 52004 83231 333 83818 84072 91109;",
"08544099999","2010-05-27T18:00:00","4","40.9166666","-8.6333333","22.0","OVAR MACEDA, PO","FM-12","99999","V020","350,1,N,0050,1","06600,1,9,N","010000,1,N,1","+0186,1","+0136,1","10151,1",,,,"03,1,+00540,1,08,1","04,1,+06600,1,00,1",,,"05,99,1,03,1,02,1,00450,1,00,1,01,1",,,,"120,M,+0202,1","99999,9,10131,1","8,1,002,1,+999,9",,,,"SYN098AAXX  27181 08544 32460 53505 10186 20136 30131 40151 58002 83201 333 10202 83818 84072 555 60007;",
"08544099999","2010-05-28T06:00:00","4","40.9166666","-8.6333333","22.0","OVAR MACEDA, PO","FM-12","99999","V020","999,9,C,0000,1","00450,1,9,N","005000,1,N,1","+0128,1","+0121,1","10177,1",,,,"02,1,+00360,1,08,1","04,1,+00450,1,08,1",,,"05,99,1,05,1,08,1,00450,1,00,1,00,1","0372,9",,,"999,N,+0124,1","99999,9,10157,1","2,1,007,1,+999,9","10,1",,,"SYN116AAXX  28061 08544 31450 50000 10128 20121 30157 40177 52007 710// 85800 333 20124 50244 55062 82812 84815 555 60002;",
"08544099999","2010-05-28T09:00:00","4","40.9166666","-8.6333333","22.0","OVAR MACEDA, PO","FM-12","99999","V020","350,1,N,0050,1","22000,1,9,N","010000,1,N,1","+0178,1","+0132,1","10193,1",,,,"03,1,+00450,1,08,1",,,,"03,99,1,03,1,02,1,00450,1,00,1,00,1",,,,,"99999,9,10173,1","2,1,016,1,+999,9",,,,"SYN076AAXX  28091 08544 42460 33505 10178 20132 30173 40193 52016 83200 333 83815;",
"08544099999","2010-05-28T12:00:00","4","40.9166666","-8.6333333","22.0","OVAR MACEDA, PO","FM-12","99999","V020","350,1,N,0070,1","22000,1,9,N","010000,1,N,1","+0196,1","+0126,1","10200,1",,,,"02,1,+00600,1,08,1",,,,"03,99,1,03,1,02,1,00800,1,00,1,01,1",,,,,"99999,9,10180,1","2,1,007,1,+999,9",,"0100,5",,"SYN104AAXX  28121 08544 32560 33507 10196 20126 30180 40200 52007 83201 333 82820 91010 91110 555 50004 60007;",
"08544099999","2010-05-28T15:00:00","4","40.9166666","-8.6333333","22.0","OVAR MACEDA, PO","FM-12","99999","V020","350,1,N,0060,1","22000,1,9,N","010000,1,N,1","+0198,1","+0132,1","10204,1",,,,"02,1,+00600,1,08,1","03,1,+09000,1,00,1",,,"03,99,1,02,1,02,1,00800,1,00,1,01,1",,,,,"99999,9,10183,1","2,1,003,1,+999,9",,"0100,5",,"SYN094AAXX  28151 08544 42560 33506 10198 20132 30183 40204 52003 82201 333 82820 83080 91010 91110;",
"08544099999","2010-05-28T18:00:00","4","40.9166666","-8.6333333","22.0","OVAR MACEDA, PO","FM-12","99999","V020","340,1,N,0060,1","22000,1,9,N","010000,1,N,1","+0190,1","+0133,1","10213,1",,,,"03,1,+00450,1,08,1",,,,"04,99,1,03,1,02,1,00450,1,00,1,01,1",,,,"120,M,+0204,1","99999,9,10193,1","2,1,010,1,+999,9",,"0090,5","4,99,0100,9,999","SYN104AAXX  28181 08544 32460 43406 10190 20133 30193 40213 52010 83201 333 10204 83815 91009 91110 555 60007;",
"08544099999","2010-05-29T06:00:00","4","40.9166666","-8.6333333","22.0","OVAR MACEDA, PO","FM-12","99999","V020","999,9,C,0000,1","02100,1,9,N","007000,1,N,1","+0114,1","+0103,1","10236,1",,,,"03,1,+00450,1,06,1","03,1,+02100,1,03,1",,,"06,99,1,03,1,02,1,00450,1,07,1,01,1","0786,9",,,,"99999,9,10215,1","2,1,004,1,+999,9","10,1",,,"SYN110AAXX  29061 08544 31457 60000 10114 20103 30215 40236 52004 710// 83271 333 50334 55131 83615 83357 555 60002;",
"08544099999","2010-05-29T09:00:00","4","40.9166666","-8.6333333","22.0","OVAR MACEDA, PO","FM-12","99999","V020","200,1,N,0010,1","00450,1,9,N","010000,1,N,1","+0180,1","+0130,1","10249,1",,,,"08,1,+00450,1,06,1",,,,"08,99,1,08,1,05,1,00450,1,99,9,99,9",,,,,"99999,9,10229,1","2,1,014,1,+999,9",,,,"SYN076AAXX  29091 08544 42460 82001 10180 20130 30229 40249 52014 885// 333 88615;",
"08544099999","2010-05-29T12:00:00","4","40.9166666","-8.6333333","22.0","OVAR MACEDA, PO","FM-12","99999","V020","280,1,N,0030,1","22000,1,9,N","010000,1,N,1","+0204,1","+0143,1","10253,1",,,,"04,1,+00450,1,06,1",,,,"04,99,1,04,1,02,1,00450,1,00,1,00,1",,,,,"99999,9,10233,1","1,1,004,1,+999,9",,,,"SYN092AAXX  29121 08544 32460 42803 10204 20143 30233 40253 51004 84200 333 84615 555 50004 60007;",
"08544099999","2010-05-29T15:00:00","4","40.9166666","-8.6333333","22.0","OVAR MACEDA, PO","FM-12","99999","V020","300,1,N,0040,1","22000,1,9,N","010000,1,N,1","+0202,1","+0158,1","10254,1",,,,"03,1,+00600,1,08,1",,,,"03,99,1,03,1,02,1,00800,1,00,1,00,1",,,,,"99999,9,10234,1","3,1,001,1,+999,9",,,,"SYN076AAXX  29151 08544 42560 33004 10202 20158 30234 40254 53001 83200 333 83820;",
"08544099999","2010-05-29T18:00:00","4","40.9166666","-8.6333333","22.0","OVAR MACEDA, PO","FM-12","99999","V020","350,1,N,0070,1","22000,1,9,N","010000,1,N,1","+0192,1","+0156,1","10256,1",,,,"03,1,+00360,1,08,1",,,,"03,99,1,03,1,02,1,00450,1,00,1,00,1",,,,"120,M,+0212,1","99999,9,10236,1","3,1,002,1,+999,9",,"0090,5","4,99,0100,9,999","SYN104AAXX  29181 08544 32460 33507 10192 20156 30236 40256 53002 83200 333 10212 83812 91009 91110 555 60007;",
"08544099999","2010-05-30T06:00:00","4","40.9166666","-8.6333333","22.0","OVAR MACEDA, PO","FM-12","99999","V020","999,9,C,0000,1","22000,1,9,N","010000,1,N,1","+0126,1","+0119,1","10266,1",,,,"01,1,+00450,1,08,1",,,,"01,99,1,01,1,02,1,00450,1,00,1,00,1","0522,9",,,"999,N,+0126,1","99999,9,10245,1","4,1,000,1,+999,9","00,1",,,"SYN110AAXX  30061 08544 31460 10000 10126 20119 30245 40266 54000 700// 81200 333 20126 50184 55087 81815 555 60002;",
"08544099999","2010-05-30T09:00:00","4","40.9166666","-8.6333333","22.0","OVAR MACEDA, PO","FM-12","99999","V020","350,1,N,0050,1","22000,1,9,N","010000,1,N,1","+0196,1","+0144,1","10263,1",,,,"01,1,+07500,1,00,1",,,,"01,99,1,00,1,00,1,99999,9,00,1,01,1",,,,,"99999,9,10243,1","8,1,002,1,+999,9",,,,"SYN076AAXX  30091 08544 42960 13505 10196 20144 30243 40263 58002 80001 333 81075;",
"08544099999","2010-05-30T12:00:00","4","40.9166666","-8.6333333","22.0","OVAR MACEDA, PO","FM-12","99999","V020","350,1,N,0080,1","22000,1,9,N","010000,1,N,1","+0206,1","+0155,1","10262,1",,,,"01,1,+07500,1,00,1",,,,"01,99,1,00,1,00,1,99999,9,00,1,01,1",,,,,"99999,9,10242,1","5,1,001,1,+999,9",,"0120,5","4,99,0130,9,999","SYN104AAXX  30121 08544 32960 13508 10206 20155 30242 40262 55001 80001 333 81075 91012 91113 555 50004 60007;",
"08544099999","2010-05-30T15:00:00","4","40.9166666","-8.6333333","22.0","OVAR MACEDA, PO","FM-12","99999","V020","360,1,N,0080,1","22000,1,9,N","010000,1,N,1","+0218,1","+0165,1","10253,1",,,,"01,1,+00240,1,07,1",,,,"02,99,1,01,1,06,1,00250,1,00,1,01,1",,,,,"99999,9,10233,1","7,1,009,1,+999,9",,"0120,5",,"SYN088AAXX  30151 08544 42360 23608 10218 20165 30233 40253 57009 81601 333 81708 91012 91113;",
"08544099999","2010-05-30T18:00:00","4","40.9166666","-8.6333333","22.0","OVAR MACEDA, PO","FM-12","99999","V020","360,1,N,0080,1","00240,1,9,N","010000,1,N,1","+0196,1","+0167,1","10248,1",,,,"07,1,+00240,1,07,1",,,,"07,99,1,07,1,06,1,00250,1,00,1,00,1",,,,"120,M,+0218,1","99999,9,10228,1","7,1,005,1,+999,9",,"0130,5",,"SYN104AAXX  30181 08544 32360 73608 10196 20167 30228 40248 57005 87600 333 10218 87708 91013 91113 555 60007;",
"08544099999","2010-05-31T06:00:00","4","40.9166666","-8.6333333","22.0","OVAR MACEDA, PO","FM-12","99999","V020","999,9,C,0000,1","00060,1,9,N","000100,1,N,1","+0166,1","+0163,1","10229,1",,"4,1,06,1",,"08,1,+00060,1,07,1",,,,"08,99,1,08,1,06,1,00075,1,99,9,99,9","0654,9",,,"999,N,+0164,1","99999,9,10209,1","7,1,006,1,+999,9","46,1",,,"SYN122AAXX  31061 08544 31101 80000 10166 20163 30209 40229 57006 7464/ 886// 333 20164 50244 55109 88702 555 60002 90269 96646;",
"08544099999","2010-05-31T09:00:00","4","40.9166666","-8.6333333","22.0","OVAR MACEDA, PO","FM-12","99999","V020","340,1,N,0020,1","22000,1,9,N","006000,1,N,1","+0196,1","+0178,1","10221,1",,"4,1,03,1","1,1,03,1","03,1,+00180,1,07,1",,,,"04,99,1,03,1,06,1,00150,1,00,1,04,1",,,,,"99999,9,10201,1","8,1,007,1,+999,9","10,1",,,"SYN088AAXX  31091 08544 41256 43402 10196 20178 30201 40221 58007 71041 83604 333 83706 84075;",
"08544099999","2010-05-31T12:00:00","4","40.9166666","-8.6333333","22.0","OVAR MACEDA, PO","FM-12","99999","V020","340,1,N,0040,1","22000,1,9,N","010000,1,N,1","+0230,1","+0172,1","10216,1",,"4,1,06,1","1,1,06,1","01,1,+00180,1,07,1","04,1,+07500,1,00,1",,,"04,99,1,01,1,06,1,00150,1,00,1,01,1",,,,,"99999,9,10196,1","8,1,005,1,+999,9","02,1",,,"SYN104AAXX  31121 08544 31260 43404 10230 20172 30196 40216 58005 70241 81601 333 81706 84075 555 50004 60007;",
"08544099999","2010-05-31T15:00:00","4","40.9166666","-8.6333333","22.0","OVAR MACEDA, PO","FM-12","99999","V020","350,1,N,0060,1","22000,1,9,N","010000,1,N,1","+0220,1","+0173,1","10206,1",,,,"01,1,+00750,1,08,1","03,1,+07500,1,00,1",,,"03,99,1,01,1,02,1,00800,1,00,1,01,1",,,,,"99999,9,10186,1","7,1,012,1,+999,9",,,,"SYN088AAXX  31151 08544 42560 33506 10220 20173 30186 40206 57012 81201 333 81825 83075 91109;",
"08544099999","2010-05-31T18:00:00","4","40.9166666","-8.6333333","22.0","OVAR MACEDA, PO","FM-12","99999","V020","360,1,N,0060,1","07500,1,9,N","010000,1,N,1","+0202,1","+0173,1","10195,1",,,,"01,1,+00750,1,08,1","05,1,+07500,1,00,1",,,"05,99,1,01,1,02,1,00800,1,00,1,04,1",,,,"120,M,+0242,1","99999,9,10175,1","7,1,014,1,+999,9",,,"4,99,0110,9,999","SYN104AAXX  31181 08544 32560 53606 10202 20173 30175 40195 57014 81204 333 10242 81825 85075 91111 555 60007;",
"08544099999","2010-06-01T06:00:00","4","40.9166666","-8.6333333","22.0","OVAR MACEDA, PO","FM-12","99999","V020","999,9,C,0000,1","00090,1,9,N","000500,1,N,1","+0162,1","+0159,1","10175,1",,"4,1,06,1",,"08,1,+00090,1,07,1",,,,"08,99,1,08,1,06,1,00075,1,99,9,99,9","0570,9",,,"999,N,+0148,1","99999,9,10155,1","7,1,012,1,+999,9","46,1",,,"SYN110AAXX  01061 08544 31105 80000 10162 20159 30155 40175 57012 7464/ 886// 333 20148 50214 55095 88703 555 60002;",
"08544099999","2010-06-01T09:00:00","4","40.9166666","-8.6333333","22.0","OVAR MACEDA, PO","FM-12","99999","V020","230,1,N,0010,1","99999,9,9,N","010000,1,N,1","+0192,1","+0174,1","10174,1",,"4,1,03,1","2,1,03,1","04,1,+00120,1,07,1",,,,"05,99,1,04,1,06,1,00150,1,00,1,00,1",,,,,"99999,9,10154,1","0,1,001,1,+999,9","10,1",,,"SYN088AAXX  01091 08544 41260 52301 10192 20174 30154 40174 50001 71042 84600 333 84704 83070;",
"08544099999","2010-06-01T12:00:00","4","40.9166666","-8.6333333","22.0","OVAR MACEDA, PO","FM-12","99999","V020","350,1,N,0050,1","03600,1,C,N","010000,1,N,1","+0232,1","+0178,1","10172,1",,"4,1,06,1","2,1,06,1","02,1,+00450,1,08,1","03,1,+06000,1,00,1",,,"06,99,1,02,1,02,1,00450,1,03,1,01,1",,,,,"99999,9,10152,1","3,1,002,1,+999,9","02,1",,,"SYN104AAXX  01121 08544 31460 63505 10232 20178 30152 40172 53002 70242 82231 333 82815 83070 555 50004 60007;",
"08544099999","2010-06-01T15:00:00","4","40.9166666","-8.6333333","22.0","OVAR MACEDA, PO","FM-12","99999","V020","350,1,N,0080,1","03600,1,C,N","010000,1,N,1","+0240,1","+0163,1","10164,1",,,,"02,1,+00450,1,08,1",,,,"06,99,1,02,1,02,1,00450,1,03,1,01,1",,,,,"99999,9,10144,1","7,1,008,1,+999,9",,,,"SYN082AAXX  01151 08544 42460 63508 10240 20163 30144 40164 57008 82231 333 82815 83356;",
"08544099999","2010-06-01T18:00:00","4","40.9166666","-8.6333333","22.0","OVAR MACEDA, PO","FM-12","99999","V020","060,1,N,0080,1","06000,1,9,N","010000,1,N,1","+0202,1","+0157,1","10159,1",,,,"02,1,+00450,1,08,1","03,1,+01800,1,03,1","05,1,+06000,1,00,1",,"07,99,1,02,1,02,1,00450,1,03,1,01,1",,,,"120,M,+0242,1","99999,9,10139,1","7,1,005,1,+999,9",,"0150,5",,"SYN116AAXX  01181 08544 32460 70608 10202 20157 30139 40159 57005 82231 333 10242 82815 83356 85070 91015 91115 555 60007;",
"08544099999","2010-06-02T06:00:00","4","40.9166666","-8.6333333","22.0","OVAR MACEDA, PO","FM-12","99999","V020","360,1,N,0040,1","06000,1,9,N","008000,1,N,1","+0168,1","+0149,1","10137,1",,,,"03,1,+01200,1,06,1","05,1,+06000,1,00,1",,,"06,99,1,03,1,05,1,01250,1,03,1,01,1","0492,9",,,"999,N,+0164,1","99999,9,10116,1","7,1,023,1,+999,9","10,1",,,"SYN116AAXX  02061 08544 31658 63604 10168 20149 30116 40137 57023 710// 83531 333 20164 50334 55082 83640 85070 555 60002;",
"08544099999","2010-06-02T09:00:00","4","40.9166666","-8.6333333","22.0","OVAR MACEDA, PO","FM-12","99999","V020","330,1,N,0040,1","09000,1,C,N","010000,1,N,1","+0228,1","+0142,1","10130,1",,,,"04,1,+02100,1,03,1",,,,"06,99,1,04,1,00,1,02250,1,03,1,02,1",,,,,"99999,9,10111,1","5,1,005,1,+999,9",,,,"SYN082AAXX  02091 08544 42860 63304 10228 20142 30111 40130 55005 84032 333 84357 85070;",
"08544099999","2010-06-02T12:00:00","4","40.9166666","-8.6333333","22.0","OVAR MACEDA, PO","FM-12","99999","V020","360,1,N,0050,1","06000,1,9,N","010000,1,N,1","+0268,1","+0157,1","10121,1",,,,"01,1,+02400,1,03,1","05,1,+06000,1,00,1",,,"05,99,1,01,1,00,1,02250,1,03,1,02,1",,,,,"99999,9,10102,1","5,1,009,1,+999,9",,,,"SYN098AAXX  02121 08544 32860 53605 10268 20157 30102 40121 55009 81032 333 81358 85070 555 50004 60007;",
"08544099999","2010-06-02T15:00:00","4","40.9166666","-8.6333333","22.0","OVAR MACEDA, PO","FM-12","99999","V020","360,1,N,0070,1","22000,1,9,N","010000,1,N,1","+0268,1","+0150,1","10114,1",,,,"01,1,+00600,1,08,1","04,1,+06000,1,00,1",,,"04,99,1,01,1,02,1,00800,1,03,1,02,1",,,,,"99999,9,10094,1","7,1,008,1,+999,9",,"0110,5",,"SYN094AAXX  02151 08544 42560 43607 10268 20150 30094 40114 57008 81232 333 81820 84070 91011 91111;",
"08544099999","2010-06-02T18:00:00","4","40.9166666","-8.6333333","22.0","OVAR MACEDA, PO","FM-12","99999","V020","360,1,N,0080,1","22000,1,9,N","010000,1,N,1","+0264,1","+0148,1","10104,1",,,,"01,1,+00600,1,08,1","03,1,+06000,1,00,1",,,"04,99,1,01,1,02,1,00800,1,03,1,01,1",,,,"120,M,+0282,1","99999,9,10085,1","7,1,009,1,+999,9",,"0110,5","4,99,0120,9,999","SYN110AAXX  02181 08544 32560 43608 10264 20148 30085 40104 57009 81231 333 10282 81820 83070 91011 91112 555 60007;",
"08544099999","2010-06-03T06:00:00","4","40.9166666","-8.6333333","22.0","OVAR MACEDA, PO","FM-12","99999","V020","170,1,N,0030,1","00180,1,9,N","000900,1,N,1","+0168,1","+0165,1","10119,1",,"4,1,06,1",,"03,1,+00060,1,07,1","05,1,+00180,1,07,1",,,"06,99,1,06,1,06,1,00075,1,00,1,00,1","0684,9",,,"999,N,+0160,1","99999,9,10099,1","3,1,002,1,+999,9","46,1",,,"SYN128AAXX  03061 08544 31109 61703 10168 20165 30099 40119 53002 7464/ 86600 333 20160 50634 55114 83702 85706 555 60002 90269 96646;",
"08544099999","2010-06-03T09:00:00","4","40.9166666","-8.6333333","22.0","OVAR MACEDA, PO","FM-12","99999","V020","160,1,N,0040,1","00120,1,C,N","005000,1,N,1","+0192,1","+0167,1","10132,1",,"4,1,03,1","2,1,03,1","03,1,+00120,1,07,1",,,,"06,99,1,06,1,02,1,00150,1,00,1,00,1",,,,,"99999,9,10112,1","2,1,013,1,+999,9","10,1",,,"SYN088AAXX  03091 08544 41250 61604 10192 20167 30112 40132 52013 71042 86200 333 83704 85815;",
"08544099999","2010-06-03T12:00:00","4","40.9166666","-8.6333333","22.0","OVAR MACEDA, PO","FM-12","99999","V020","270,1,N,0060,1","22000,1,9,N","010000,1,N,1","+0232,1","+0161,1","10135,1",,"4,1,06,1","1,1,06,1","01,1,+06000,1,00,1",,,,"01,99,1,00,1,00,1,99999,9,00,1,01,1",,,,,"99999,9,10115,1","3,1,003,1,+999,9","03,1",,,"SYN098AAXX  03121 08544 31960 12706 10232 20161 30115 40135 53000 70341 80001 333 81070 555 50004 60007;","Q01+000002APC3  "
"08544099999","2010-06-03T15:00:00","4","40.9166666","-8.6333333","22.0","OVAR MACEDA, PO","FM-12","99999","V020","330,1,N,0050,1","22000,1,9,N","010000,1,N,1","+0224,1","+0172,1","10147,1",,,,"02,1,+06000,1,00,1",,,,"02,99,1,00,1,00,1,99999,9,00,1,01,1",,,,,"99999,9,10127,1","2,1,012,1,+999,9",,,,"SYN076AAXX  03151 08544 42960 23305 10224 20172 30127 40147 52012 80001 333 82070;",
"08544099999","2010-06-03T18:00:00","4","40.9166666","-8.6333333","22.0","OVAR MACEDA, PO","FM-12","99999","V020","340,1,N,0050,1","00450,1,9,N","008000,1,N,1","+0190,1","+0161,1","10152,1",,"1,1,06,1","1,1,06,1","02,1,+00120,1,07,1","05,1,+00450,1,08,1",,,"06,99,1,06,1,02,1,00150,1,00,1,00,1",,,,"120,M,+0234,1","99999,9,10132,1","8,1,005,1,+999,9","10,1",,,"SYN104AAXX  03181 08544 31258 63405 10190 20161 30132 40152 58005 71011 86200 333 10234 82704 85815 555 60007;",
"08544099999","2010-06-04T06:00:00","4","40.9166666","-8.6333333","22.0","OVAR MACEDA, PO","FM-12","99999","V020","020,1,N,0050,1","00450,1,9,N","010000,1,N,1","+0164,1","+0131,1","10184,1",,,,"02,1,+00180,1,07,1","06,1,+00450,1,08,1",,,"07,99,1,07,1,02,1,00150,1,00,1,00,1","0510,9",,,"999,N,+0162,1","99999,9,10164,1","2,1,032,1,+999,9","00,1",,,"SYN116AAXX  04061 08544 31260 70205 10164 20131 30164 40184 52032 700// 87200 333 20162 50254 55085 82706 86815 555 60002;",
"08544099999","2010-06-04T09:00:00","4","40.9166666","-8.6333333","22.0","OVAR MACEDA, PO","FM-12","99999","V020","340,1,N,0050,1","22000,1,9,N","010000,1,N,1","+0182,1","+0132,1","10191,1",,,,"03,1,+00450,1,08,1",,,,"04,99,1,03,1,02,1,00450,1,03,1,01,1",,,,,"99999,9,10171,1","1,1,007,1,+999,9",,,,"SYN082AAXX  04091 08544 42460 43405 10182 20132 30171 40191 51007 83231 333 83815 83070;",
"08544099999","2010-06-04T12:00:00","4","40.9166666","-8.6333333","22.0","OVAR MACEDA, PO","FM-12","99999","V020","340,1,N,0070,1","06000,1,9,N","010000,1,N,1","+0212,1","+0157,1","10189,1",,,,"02,1,+00450,1,08,1","03,1,+06000,1,00,1",,,"05,99,1,02,1,02,1,00450,1,03,1,01,1",,,,,"99999,9,10169,1","8,1,002,1,+999,9",,,,"SYN098AAXX  04121 08544 32460 53407 10212 20157 30169 40189 58002 82231 333 82815 83070 555 50004 60007;",
"08544099999","2010-06-04T15:00:00","4","40.9166666","-8.6333333","22.0","OVAR MACEDA, PO","FM-12","99999","V020","350,1,N,0070,1","06000,1,9,N","010000,1,N,1","+0206,1","+0156,1","10186,1",,,,"02,1,+00450,1,08,1","03,1,+06000,1,00,1",,,"05,99,1,02,1,02,1,00450,1,03,1,01,1",,,,,"99999,9,10166,1","8,1,003,1,+999,9",,"0120,5",,"SYN094AAXX  04151 08544 42460 53507 10206 20156 30166 40186 58003 82231 333 82815 83070 91012 91112;",
"08544099999","2010-06-04T18:00:00","4","40.9166666","-8.6333333","22.0","OVAR MACEDA, PO","FM-12","99999","V020","030,1,N,0070,1","06000,1,9,N","010000,1,N,1","+0186,1","+0160,1","10184,1",,,,"04,1,+00450,1,08,1","05,1,+06000,1,00,1",,,"07,99,1,04,1,02,1,00450,1,00,1,01,1",,,,"120,M,+0218,1","99999,9,10164,1","3,1,002,1,+999,9",,"0120,5",,"SYN110AAXX  04181 08544 32460 70307 10186 20160 30164 40184 53002 84201 333 10218 84815 85070 91012 91112 555 60002;",
"08544099999","2010-06-05T06:00:00","4","40.9166666","-8.6333333","22.0","OVAR MACEDA, PO","FM-12","99999","V020","320,1,N,0020,1","00150,1,9,N","002000,1,N,1","+0164,1","+0161,1","10186,1",,,,"04,1,+00090,1,07,1","05,1,+00150,1,07,1",,,"08,99,1,08,1,06,1,00075,1,99,9,99,9","0702,9",,,"999,N,+0158,1","99999,9,10166,1","2,1,002,1,+999,9","10,1",,,"SYN116AAXX  05061 08544 31120 83202 10164 20161 30166 40186 52002 710// 886// 333 20158 50314 55117 84703 85705 555 60002;",
"08544099999","2010-06-05T09:00:00","4","40.9166666","-8.6333333","22.0","OVAR MACEDA, PO","FM-12","99999","V020","330,1,N,0020,1","00060,1,C,N","001500,1,N,1","+0166,1","+0162,1","10193,1",,"5,1,03,1","2,1,03,1","04,1,+00090,1,07,1",,,,"08,99,1,08,1,07,1,00075,1,99,9,99,9",,,,,"99999,9,10172,1","3,1,006,1,+999,9","50,1",,,"SYN088AAXX  05091 08544 41115 83302 10166 20162 30172 40193 53006 75052 887// 333 84703 85705;",
"08544099999","2010-06-05T12:00:00","4","40.9166666","-8.6333333","22.0","OVAR MACEDA, PO","FM-12","99999","V020","330,1,N,0040,1","00660,1,9,N","008000,1,N,1","+0192,1","+0167,1","10192,1","06,0008,9,1","5,1,06,1","2,1,06,1","03,1,+00150,1,07,1","06,1,+00660,1,08,1",,,"07,99,1,07,1,02,1,00150,1,00,1,00,1",,,,,"99999,9,10172,1","5,1,000,1,+999,9","10,1",,,"SYN110AAXX  05121 08544 11258 73304 10192 20167 30172 40192 55000 69971 71052 87200 333 83705 86822 555 59974 69917;",
"08544099999","2010-06-05T15:00:00","4","40.9166666","-8.6333333","22.0","OVAR MACEDA, PO","FM-12","99999","V020","340,1,N,0060,1","00660,1,9,N","010000,1,N,1","+0196,1","+0154,1","10192,1",,,,"01,1,+00150,1,07,1","04,1,+00660,1,08,1",,,"05,99,1,05,1,08,1,00150,1,00,1,00,1",,,,,"99999,9,10172,1","0,1,000,1,+999,9",,"0100,5",,"SYN094AAXX  05151 08544 42260 53406 10196 20154 30172 40192 50000 85800 333 81705 84822 91010 91110;",
"08544099999","2010-06-05T18:00:00","4","40.9166666","-8.6333333","22.0","OVAR MACEDA, PO","FM-12","99999","V020","350,1,N,0050,1","00660,1,9,N","010000,1,N,1","+0182,1","+0146,1","10192,1","12,0008,9,1",,,"05,1,+00660,1,08,1","03,1,+06600,1,00,1",,,"05,99,1,05,1,02,1,00800,1,00,1,04,1",,,,"120,M,+0204,1","99999,9,10172,1","0,1,000,1,+999,9",,,"4,99,0100,9,999","SYN110AAXX  05181 08544 12560 53505 10182 20146 30172 40192 50000 69972 85204 333 10204 85822 83072 91110 555 60007;",
"08544099999","2010-06-06T06:00:00","4","40.9166666","-8.6333333","22.0","OVAR MACEDA, PO","FM-12","99999","V020","999,9,C,0000,1","22000,1,9,N","005000,1,N,1","+0144,1","+0137,1","10194,1",,,,"03,1,+00060,1,07,1",,,,"03,99,1,03,1,06,1,00075,1,00,1,00,1","0270,9",,,"999,N,+0144,1","99999,9,10174,1","4,1,000,1,+999,9","10,1",,,"SYN110AAXX  06061 08544 31150 30000 10144 20137 30174 40194 54000 710// 83600 333 20144 50214 55045 83702 555 60002;",
"08544099999","2010-06-06T09:00:00","4","40.9166666","-8.6333333","22.0","OVAR MACEDA, PO","FM-12","99999","V020","360,1,N,0060,1","22000,1,C,N","010000,1,N,1","+0178,1","+0139,1","10201,1",,,,"02,1,+00360,1,08,1",,,,"06,99,1,02,1,01,1,00450,1,00,1,04,1",,,,,"99999,9,10181,1","2,1,007,1,+999,9",,,,"SYN082AAXX  06091 08544 42460 63606 10178 20139 30181 40201 52007 82104 333 82812 85075;",
"08544099999","2010-06-06T12:00:00","4","40.9166666","-8.6333333","22.0","OVAR MACEDA, PO","FM-12","99999","V020","360,1,N,0070,1","02700,1,9,N","010000,1,N,1","+0184,1","+0135,1","10199,1",,,,"02,1,+00600,1,08,1","05,1,+02700,1,04,1","07,1,+07500,1,02,1",,"07,99,1,02,1,02,1,00800,1,07,1,08,1",,,,,"99999,9,10179,1","7,1,002,1,+999,9",,,"4,99,0120,9,999","SYN110AAXX  06121 08544 32560 73607 10184 20135 30179 40199 57002 82278 333 82820 85459 87275 91112 555 50004 60007;",
"08544099999","2010-06-06T15:00:00","4","40.9166666","-8.6333333","22.0","OVAR MACEDA, PO","FM-12","99999","V020","350,1,N,0080,1","22000,1,9,N","010000,1,N,1","+0200,1","+0138,1","10193,1",,,,"02,1,+00600,1,08,1","03,1,+07500,1,00,1",,,"04,99,1,02,1,02,1,00800,1,07,1,01,1",,,,,"99999,9,10173,1","7,1,006,1,+999,9",,"0120,5",,"SYN094AAXX  06151 08544 42560 43508 10200 20138 30173 40193 57006 82271 333 82820 83075 91012 91113;",
"08544099999","2010-06-06T18:00:00","4","40.9166666","-8.6333333","22.0","OVAR MACEDA, PO","FM-12","99999","V020","360,1,N,0070,1","22000,1,9,N","010000,1,N,1","+0184,1","+0144,1","10189,1",,,,"01,1,+00660,1,08,1",,,,"02,99,1,01,1,02,1,00800,1,00,1,01,1",,,,"120,M,+0202,1","99999,9,10169,1","7,1,004,1,+999,9",,"0110,5","4,99,0130,9,999","SYN104AAXX  06181 08544 32560 23607 10184 20144 30169 40189 57004 81201 333 10202 81822 91011 91113 555 60007;",
"08544099999","2010-06-07T06:00:00","4","40.9166666","-8.6333333","22.0","OVAR MACEDA, PO","FM-12","99999","V020","999,9,C,0000,1","22000,1,9,N","010000,1,N,1","+0160,1","+0144,1","10174,1",,,,"02,1,+00180,1,07,1","04,1,+00360,1,06,1",,,"05,99,1,04,1,02,1,00150,1,00,1,01,1","0744,9",,,"999,N,+0152,1","99999,9,10154,1","7,1,003,1,+999,9","00,1",,,"SYN116AAXX  07061 08544 31260 50000 10160 20144 30154 40174 57003 700// 84201 333 20152 50294 55124 82706 84612 555 60002;",
"08544099999","2010-06-07T09:00:00","4","40.9166666","-8.6333333","22.0","OVAR MACEDA, PO","FM-12","99999","V020","340,1,N,0040,1","00900,1,C,N","010000,1,N,1","+0176,1","+0143,1","10180,1",,,,"03,1,+00360,1,08,1",,,,"07,99,1,06,1,08,1,00450,1,00,1,01,1",,,,,"99999,9,10160,1","2,1,006,1,+999,9",,,,"SYN082AAXX  07091 08544 42460 73404 10176 20143 30160 40180 52006 86801 333 83812 85615;",
"08544099999","2010-06-07T12:00:00","4","40.9166666","-8.6333333","22.0","OVAR MACEDA, PO","FM-12","99999","V020","300,1,N,0040,1","22000,1,9,N","010000,1,N,1","+0204,1","+0139,1","10178,1",,,,"03,1,+00450,1,08,1","03,1,+07500,1,00,1",,,"04,99,1,03,1,08,1,00450,1,00,1,01,1",,,,,"99999,9,10158,1","7,1,002,1,+999,9",,,,"SYN098AAXX  07120 08544 32460 43004 10204 20139 30158 40178 57002 83801 333 83815 83075 555 50004 60007;",
"08544099999","2010-06-07T15:00:00","4","40.9166666","-8.6333333","22.0","OVAR MACEDA, PO","FM-12","99999","V020","290,1,N,0040,1","09000,1,C,N","010000,1,N,1","+0208,1","+0147,1","10165,1",,,,"01,1,+00450,1,08,1",,,,"05,99,1,01,1,02,1,00450,1,03,1,04,1",,,,,"99999,9,10145,1","7,1,013,1,+999,9",,,,"SYN082AAXX  07151 08544 42460 52904 10208 20147 30145 40165 57013 81234 333 81815 85075;",
"08544099999","2010-06-07T18:00:00","4","40.9166666","-8.6333333","22.0","OVAR MACEDA, PO","FM-12","99999","V020","260,1,N,0030,1","00900,1,9,N","010000,1,N,1","+0194,1","+0152,1","10154,1",,,,"02,1,+00450,1,08,1","05,1,+00900,1,06,1",,,"07,99,1,05,1,08,1,00450,1,03,1,01,1",,,,"120,M,+0218,1","99999,9,10134,1","7,1,011,1,+999,9",,,,"SYN098AAXX  07181 08544 32460 72603 10194 20152 30134 40154 57011 85831 333 10218 82815 85630 555 60007;",
"08544099999","2010-06-08T06:00:00","4","40.9166666","-8.6333333","22.0","OVAR MACEDA, PO","FM-12","99999","V020","290,1,N,0010,1","00450,1,9,N","004000,1,N,1","+0160,1","+0157,1","10120,1","12,0041,9,1","5,1,06,1",,"04,1,+00240,1,07,1","03,1,+00450,1,08,1","07,1,+00900,1,06,1",,"08,99,1,08,1,08,1,00250,1,99,9,99,9","0552,9",,,"999,N,+0152,1","99999,9,10100,1","7,1,010,1,+999,9","51,1",,,"SYN134AAXX  08061 08544 11340 82901 10160 20157 30100 40120 57010 60042 7515/ 888// 333 20152 50304 55092 84708 83815 87630 96010 555 60042;",
"08544099999","2010-06-08T09:00:00","4","40.9166666","-8.6333333","22.0","OVAR MACEDA, PO","FM-12","99999","V020","290,1,N,0020,1","03600,1,C,N","008000,1,N,1","+0160,1","+0144,1","10121,1",,"6,1,03,1","5,1,03,1","01,1,+00240,1,07,1","04,1,+00900,1,06,1",,,"08,99,1,02,1,02,1,00250,1,07,1,99,9",,,,,"99999,9,10101,1","3,1,001,1,+999,9","60,1",,,"SYN094AAXX  08091 08544 41358 82902 10160 20144 30101 40121 53001 76065 8227/ 333 81708 84630 87457;",
"08544099999","2010-06-08T12:00:00","4","40.9166666","-8.6333333","22.0","OVAR MACEDA, PO","FM-12","99999","V020","270,1,N,0030,1","00900,1,9,N","010000,1,N,1","+0166,1","+0147,1","10117,1","06,0020,9,1","6,1,06,1","5,1,06,1","03,1,+00450,1,08,1","05,1,+00900,1,06,1","07,1,+02100,1,04,1",,"08,99,1,05,1,08,1,00450,1,07,1,99,9",,,,,"99999,9,10097,1","7,1,004,1,+999,9","21,1",,,"SYN116AAXX  08121 08544 11460 82703 10166 20147 30097 40117 57004 60021 72165 8587/ 333 83815 85630 87457 555 50064 60027;",
"08544099999","2010-06-08T15:00:00","4","40.9166666","-8.6333333","22.0","OVAR MACEDA, PO","FM-12","99999","V020","220,1,N,0040,1","00900,1,9,N","010000,1,N,1","+0178,1","+0139,1","10103,1",,,,"02,1,+00450,1,08,1","05,1,+00900,1,06,1",,,"08,99,1,05,1,08,1,00450,1,07,1,99,9",,,,,"99999,9,10083,1","7,1,010,1,+999,9",,,,"SYN088AAXX  08151 08544 42460 82204 10178 20139 30083 40103 57010 8587/ 333 82815 85630 87457;",
"08544099999","2010-06-08T18:00:00","4","40.9166666","-8.6333333","22.0","OVAR MACEDA, PO","FM-12","99999","V020","220,1,N,0040,1","22000,1,9,N","010000,1,N,1","+0174,1","+0141,1","10080,1","12,0020,9,1",,,"02,1,+00450,1,08,1","05,1,+00900,1,06,1","07,1,+02100,1,04,1",,"99,99,9,05,1,08,1,00450,1,07,1,99,9",,,,"120,M,+0182,1","99999,9,10060,1","7,1,023,1,+999,9",,,,"SYN110AAXX  08181 08544 12460 42204 10174 20141 30060 40080 57023 60022 8587/ 333 10182 82815 85630 87457 555 60007;","Q01+000042SCOTCV"
"08544099999","2010-06-09T06:00:00","4","40.9166666","-8.6333333","22.0","OVAR MACEDA, PO","FM-12","99999","V020","180,1,N,0040,1","00450,1,9,N","006000,1,N,1","+0154,1","+0151,1","09982,1","12,0269,9,1","6,1,06,1",,"04,1,+00240,1,07,1","05,1,+00450,1,02,1","07,1,+02100,1,04,1",,"08,99,1,06,1,02,1,00250,1,07,1,99,9","0000,9",,,"999,N,+0148,1","99999,9,09962,1","7,1,999,9,+999,9","60,1",,,"SYN128AAXX  09061 08544 11356 81804 10154 20151 39962 49982 57/// 60272 7606/ 8627/ 333 20148 50134 55000 84708 85215 87457 555 60272;",
"08544099999","2010-06-09T09:00:00","4","40.9166666","-8.6333333","22.0","OVAR MACEDA, PO","FM-12","99999","V020","340,1,N,0060,1","00450,1,9,N","010000,1,N,1","+0162,1","+0142,1","09994,1",,"6,1,03,1","5,1,03,1","02,1,+00240,1,07,1","05,1,+00450,1,08,1","05,1,+00900,1,06,1",,"07,99,1,07,1,08,1,00250,1,00,1,00,1",,,,,"99999,9,09974,1","2,1,012,1,+999,9","01,1","0110,5",,"SYN106AAXX  09091 08544 41360 73406 10162 20142 39974 49994 52012 70165 87800 333 82708 85815 85630 91011 91111;",
"08544099999","2010-06-09T12:00:00","4","40.9166666","-8.6333333","22.0","OVAR MACEDA, PO","FM-12","99999","V020","340,1,N,0060,1","00450,1,9,N","010000,1,N,1","+0182,1","+0140,1","10008,1","06,0000,2,1","6,1,06,1","5,1,06,1","03,1,+00360,1,08,1","05,1,+00450,1,08,1",,,"07,99,1,07,1,08,1,00450,1,00,1,00,1",,,,,"99999,9,09989,1","2,1,015,1,+999,9","02,1","0100,5","4,99,0110,9,999","SYN122AAXX  09121 08544 11460 73406 10182 20140 39989 40008 52015 69921 70265 87800 333 83812 85815 91010 91111 555 50124 60007;",
"08544099999","2010-06-09T15:00:00","4","40.9166666","-8.6333333","22.0","OVAR MACEDA, PO","FM-12","99999","V020","330,1,N,0060,1","00450,1,9,N","010000,1,N,1","+0182,1","+0140,1","10006,1",,,,"03,1,+00360,1,08,1","05,1,+00450,1,06,1",,,"07,99,1,06,1,08,1,00450,1,03,1,00,1",,,,,"99999,9,09987,1","3,1,002,1,+999,9",,"0110,5",,"SYN094AAXX  09151 08544 42460 73306 10182 20140 39987 40006 53002 86830 333 83812 85615 91011 91111;",
"08544099999","2010-06-09T18:00:00","4","40.9166666","-8.6333333","22.0","OVAR MACEDA, PO","FM-12","99999","V020","330,1,N,0040,1","00600,1,9,N","010000,1,N,1","+0168,1","+0141,1","10015,1","12,0000,2,1",,,"01,1,+00450,1,09,1","03,1,+00540,1,08,1","05,1,+00600,1,06,1",,"07,99,1,06,1,08,1,00450,1,03,1,00,1",,,,"120,M,+0188,1","99999,9,09995,1","2,1,008,1,+999,9",,,,"SYN110AAXX  09181 08544 12460 73304 10168 20141 39995 40015 52008 69922 86830 333 10188 81915 83818 85620 555 60007;",
"08544099999","2010-06-10T06:00:00","4","40.9166666","-8.6333333","22.0","OVAR MACEDA, PO","FM-12","99999","V020","220,1,N,0020,1","00210,1,C,N","005000,1,N,1","+0148,1","+0141,1","10027,1","12,0030,9,1","8,1,06,1",,"02,1,+00240,1,07,1",,,,"07,99,1,05,1,09,1,00250,1,07,1,01,1","0216,9",,,"999,N,+0144,1","99999,9,10007,1","6,1,002,1,+999,9","80,1",,,"SYN134AAXX  10061 08544 11350 72202 10148 20141 30007 40027 56002 60032 7808/ 85971 333 20144 50204 55036 82708 91915 85618 96010 555 60032;",
"08544099999","2010-06-10T09:00:00","4","40.9166666","-8.6333333","22.0","OVAR MACEDA, PO","FM-12","99999","V020","290,1,N,0040,1","00450,1,9,N","007000,1,N,1","+0154,1","+0144,1","10046,1",,"8,1,03,1","2,1,03,1","02,1,+00240,1,07,1","01,1,+00420,1,09,1","04,1,+00450,1,06,1",,"07,99,1,05,1,09,1,00250,1,07,1,01,1",,,,,"99999,9,10026,1","2,1,019,1,+999,9","80,1",,,"SYN100AAXX  10091 08544 41357 72904 10154 20144 30026 40046 52019 78082 85971 333 82708 81914 84615 96010;",
"08544099999","2010-06-10T12:00:00","4","40.9166666","-8.6333333","22.0","OVAR MACEDA, PO","FM-12","99999","V020","300,1,N,0030,1","00600,1,C,N","010000,1,N,1","+0178,1","+0149,1","10059,1","06,0109,9,1","8,1,06,1","2,1,06,1","02,1,+00450,1,08,1","03,1,+00600,1,06,1",,,"05,99,1,03,1,08,1,00450,1,03,1,01,1",,,,,"99999,9,10039,1","2,1,013,1,+999,9","02,1",,,"SYN110AAXX  10121 08544 11460 53003 10178 20149 30039 40059 52013 60111 70282 83831 333 82815 83620 555 50144 69937;",
"08544099999","2010-06-10T15:00:00","4","40.9166666","-8.6333333","22.0","OVAR MACEDA, PO","FM-12","99999","V020","270,1,N,0040,1","03600,1,9,N","010000,1,N,1","+0182,1","+0140,1","10073,1",,,,"02,1,+00450,1,08,1","02,1,+00540,1,09,1",,,"06,99,1,04,1,03,1,00450,1,03,1,01,1",,,,,"99999,9,10053,1","2,1,014,1,+999,9",,,,"SYN088AAXX  10151 08544 42460 62704 10182 20140 30053 40073 52014 84331 333 82815 82918 83820;",
"08544099999","2010-06-10T18:00:00","4","40.9166666","-8.6333333","22.0","OVAR MACEDA, PO","FM-12","99999","V020","280,1,N,0020,1","00450,1,9,N","004000,1,N,1","+0176,1","+0139,1","10081,1","12,0109,9,1","8,1,06,1","2,1,06,1","03,1,+00360,1,08,1","02,1,+00450,1,09,1","05,1,+00600,1,06,1",,"07,99,1,05,1,09,1,00450,1,03,1,01,1",,,,"120,M,+0194,1","99999,9,10061,1","2,1,008,1,+999,9","80,1",,,"SYN122AAXX  10181 08544 11440 72802 10176 20139 30061 40081 52008 60112 78082 85931 333 10194 83812 82915 85620 96010 555 69907;",
"08544099999","2010-06-11T06:00:00","4","40.9166666","-8.6333333","22.0","OVAR MACEDA, PO","FM-12","99999","V020","150,1,N,0020,1","00240,1,9,N","005000,1,N,1","+0146,1","+0136,1","10116,1","12,0061,9,1","6,1,06,1","5,1,06,1","05,1,+00240,1,07,1","08,1,+00360,1,06,1",,,"08,99,1,08,1,06,1,00250,1,99,9,99,9","0366,9",,,"999,N,+0146,1","99999,9,10096,1","3,1,006,1,+999,9","58,1",,,"SYN128AAXX  11061 08544 11350 81502 10146 20136 30096 40116 53006 60062 75865 886// 333 20146 50174 55061 85708 88612 96010 555 60062;",
"08544099999","2010-06-11T09:00:00","4","40.9166666","-8.6333333","22.0","OVAR MACEDA, PO","FM-12","99999","V020","350,1,N,0030,1","00900,1,C,N","008000,1,N,1","+0176,1","+0157,1","10138,1",,"6,1,03,1","2,1,03,1","04,1,+00360,1,08,1",,,,"07,99,1,06,1,08,1,00450,1,07,1,00,1",,,,,"99999,9,10118,1","2,1,022,1,+999,9","10,1",,,"SYN088AAXX  11091 08544 41458 73503 10176 20157 30118 40138 52022 71062 86870 333 84812 85622;",
"08544099999","2010-06-11T12:00:00","4","40.9166666","-8.6333333","22.0","OVAR MACEDA, PO","FM-12","99999","V020","350,1,N,0060,1","02400,1,9,N","010000,1,N,1","+0190,1","+0152,1","10150,1","06,0010,9,1","6,1,06,1","2,1,06,1","03,1,+00450,1,08,1","04,1,+02400,1,03,1","06,1,+06000,1,00,1",,"06,99,1,03,1,02,1,00450,1,07,1,04,1",,,,,"99999,9,10130,1","2,1,012,1,+999,9","02,1",,"4,99,0110,9,999","SYN122AAXX  11121 08544 11460 63506 10190 20152 30130 40150 52012 69991 70262 83274 333 83815 84358 86070 91111 555 50064 60007;",
"08544099999","2010-06-11T15:00:00","4","40.9166666","-8.6333333","22.0","OVAR MACEDA, PO","FM-12","99999","V020","340,1,N,0070,1","02400,1,9,N","010000,1,N,1","+0194,1","+0149,1","10155,1",,,,"03,1,+00450,1,08,1","03,1,+02400,1,03,1","05,1,+06000,1,00,1",,"06,99,1,03,1,02,1,00450,1,03,1,01,1",,,,,"99999,9,10135,1","1,1,005,1,+999,9",,"0090,5",,"SYN100AAXX  11151 08544 42460 63407 10194 20149 30135 40155 51005 83231 333 83815 83358 85070 91009 91111;",
"08544099999","2010-06-11T18:00:00","4","40.9166666","-8.6333333","22.0","OVAR MACEDA, PO","FM-12","99999","V020","350,1,N,0070,1","06000,1,9,N","010000,1,N,1","+0186,1","+0143,1","10159,1","12,0010,9,1",,,"03,1,+00450,1,08,1","07,1,+06000,1,00,1",,,"07,99,1,03,1,02,1,00450,1,03,1,01,1",,,,"120,M,+0200,1","99999,9,10139,1","1,1,004,1,+999,9",,"0100,5","4,99,0110,9,999","SYN116AAXX  11181 08544 12460 73507 10186 20143 30139 40159 51004 69992 83231 333 10200 83815 87070 91010 91111 555 60007;",
"08544099999","2010-06-12T06:00:00","4","40.9166666","-8.6333333","22.0","OVAR MACEDA, PO","FM-12","99999","V020","010,1,N,0040,1","03600,1,C,N","005000,1,N,1","+0152,1","+0137,1","10163,1",,,,"01,1,+00540,1,08,1","04,1,+00900,1,06,1",,,"08,99,1,04,1,08,1,00450,1,07,1,99,9","0468,9",,,"999,N,+0152,1","99999,9,10142,1","2,1,002,1,+999,9","10,1",,,"SYN112AAXX  12061 08544 31450 80104 10152 20137 30142 40163 52002 710// 8487/ 333 20152 50244 55078 81818 84630 88457;",
"08544099999","2010-06-12T09:00:00","4","40.9166666","-8.6333333","22.0","OVAR MACEDA, PO","FM-12","99999","V020","350,1,N,0060,1","02700,1,9,N","010000,1,N,1","+0168,1","+0124,1","10164,1",,,,"01,1,+00540,1,08,1","03,1,+01050,1,06,1","07,1,+02700,1,03,1",,"08,99,1,03,1,08,1,00450,1,07,1,99,9",,,,,"99999,9,10144,1","2,1,002,1,+999,9",,"0090,5",,"SYN100AAXX  12091 08544 42460 83506 10168 20124 30144 40164 52002 8387/ 333 81818 83635 87359 91009 91109;",
"08544099999","2010-06-12T12:00:00","4","40.9166666","-8.6333333","22.0","OVAR MACEDA, PO","FM-12","99999","V020","350,1,N,0060,1","22000,1,9,N","010000,1,N,1","+0188,1","+0132,1","10162,1",,,,"02,1,+00540,1,08,1",,,,"04,99,1,02,1,08,1,00450,1,03,1,01,1",,,,,"99999,9,10142,1","8,1,002,1,+999,9",,"0100,5",,"SYN104AAXX  12121 08544 32460 43506 10188 20132 30142 40162 58002 82831 333 82818 91010 91110 555 50004 60007;",
"08544099999","2010-06-12T15:00:00","4","40.9166666","-8.6333333","22.0","OVAR MACEDA, PO","FM-12","99999","V020","350,1,N,0090,1","22000,1,9,N","010000,1,N,1","+0196,1","+0137,1","10156,1",,,,"02,1,+00540,1,08,1",,,,"02,99,1,02,1,02,1,00450,1,00,1,01,1",,,,,"99999,9,10136,1","7,1,006,1,+999,9",,"0130,5",,"SYN088AAXX  12151 08544 42460 23509 10196 20137 30136 40156 57006 82201 333 82818 91013 91113;",
"08544099999","2010-06-12T18:00:00","4","40.9166666","-8.6333333","22.0","OVAR MACEDA, PO","FM-12","99999","V020","010,1,N,0090,1","22000,1,9,N","010000,1,N,1","+0184,1","+0134,1","10145,1",,,,"01,1,+00450,1,08,1",,,,"03,99,1,02,1,08,1,00450,1,03,1,00,1",,,,"120,M,+0200,1","99999,9,10125,1","7,1,011,1,+999,9",,"0120,5","4,99,0160,9,999","SYN104AAXX  12181 08544 32460 30109 10184 20134 30125 40145 57011 82830 333 10200 81815 91012 91116 555 60007;",
"08544099999","2010-06-13T06:00:00","4","40.9166666","-8.6333333","22.0","OVAR MACEDA, PO","FM-12","99999","V020","340,1,N,0020,1","22000,1,9,N","010000,1,N,1","+0122,1","+0111,1","10166,1",,,,"03,1,+07500,1,00,1",,,,"03,99,1,00,1,00,1,99999,9,00,1,01,1","0534,9",,,"999,N,+0118,1","99999,9,10146,1","3,1,002,1,+999,9","00,1",,,"SYN110AAXX  13061 08544 31960 33402 10122 20111 30146 40166 53002 700// 80001 333 20118 50294 55089 83075 555 60002;",
"08544099999","2010-06-13T09:00:00","4","40.9166666","-8.6333333","22.0","OVAR MACEDA, PO","FM-12","99999","V020","010,1,N,0040,1","22000,1,9,N","010000,1,N,1","+0210,1","+0128,1","10170,1",,,,"03,1,+07500,1,00,1",,,,"03,99,1,00,1,00,1,99999,9,00,1,01,1",,,,,"99999,9,10150,1","3,1,004,1,+999,9",,,,"SYN076AAXX  13091 08544 42960 30104 10210 20128 30150 40170 53004 80001 333 83075;",
"08544099999","2010-06-13T12:00:00","4","40.9166666","-8.6333333","22.0","OVAR MACEDA, PO","FM-12","99999","V020","360,1,N,0090,1","22000,1,9,N","010000,1,N,1","+0210,1","+0144,1","10168,1",,,,"02,1,+00600,1,08,1","03,1,+07500,1,00,1",,,"04,99,1,02,1,02,1,00800,1,00,1,01,1",,,,,"99999,9,10148,1","7,1,002,1,+999,9",,,"4,99,0110,9,999","SYN104AAXX  13121 08544 32560 43609 10210 20144 30148 40168 57002 82201 333 82820 83075 91111 555 50004 60007;",
"08544099999","2010-06-13T15:00:00","4","40.9166666","-8.6333333","22.0","OVAR MACEDA, PO","FM-12","99999","V020","360,1,N,0100,1","07500,1,9,N","010000,1,N,1","+0204,1","+0143,1","10164,1",,,,"03,1,+00600,1,08,1","03,1,+07500,1,00,1",,,"05,99,1,03,1,02,1,00800,1,00,1,01,1",,,,,"99999,9,10144,1","6,1,004,1,+999,9",,"0150,5",,"SYN094AAXX  13151 08544 42560 53610 10204 20143 30144 40164 56004 83201 333 83820 83075 91015 91115;",
"08544099999","2010-06-13T18:00:00","4","40.9166666","-8.6333333","22.0","OVAR MACEDA, PO","FM-12","99999","V020","360,1,N,0070,1","07500,1,9,N","010000,1,N,1","+0190,1","+0141,1","10157,1",,,,"02,1,+00600,1,08,1","04,1,+07500,1,00,1",,,"05,99,1,02,1,02,1,00800,1,00,1,01,1",,,,"120,M,+0222,1","99999,9,10137,1","6,1,007,1,+999,9",,,"4,99,0150,9,999","SYN104AAXX  13181 08544 32560 53607 10190 20141 30137 40157 56007 82201 333 10222 82820 84075 91115 555 60007;",
"08544099999","2010-06-14T06:00:00","4","40.9166666","-8.6333333","22.0","OVAR MACEDA, PO","FM-12","99999","V020","999,9,C,0000,1","22000,1,9,N","006000,1,N,1","+0116,1","+0109,1","10152,1",,,,"04,1,+06000,1,00,1",,,,"04,99,1,00,1,00,1,99999,9,00,1,01,1","0810,9",,,"999,N,+0112,1","99999,9,10131,1","8,1,005,1,+999,9","10,1",,,"SYN110AAXX  14061 08544 31956 40000 10116 20109 30131 40152 58005 710// 80001 333 20112 50394 55135 84070 555 60002;",
"08544099999","2010-06-14T09:00:00","4","40.9166666","-8.6333333","22.0","OVAR MACEDA, PO","FM-12","99999","V020","360,1,N,0060,1","06000,1,9,N","010000,1,N,1","+0178,1","+0113,1","10153,1",,,,"01,1,+00240,1,07,1","05,1,+06000,1,00,1",,,"05,99,1,01,1,05,1,00250,1,00,1,01,1",,,,,"99999,9,10133,1","0,1,002,1,+999,9",,"0100,5",,"SYN094AAXX  14091 08544 42360 53606 10178 20113 30133 40153 50002 81501 333 81708 85070 91010 91110;",
"08544099999","2010-06-14T12:00:00","4","40.9166666","-8.6333333","22.0","OVAR MACEDA, PO","FM-12","99999","V020","360,1,N,0080,1","06600,1,9,N","010000,1,N,1","+0196,1","+0123,1","10152,1",,,,"02,1,+00600,1,08,1","07,1,+06600,1,00,1",,,"07,99,1,02,1,02,1,00800,1,00,1,01,1",,,,,"99999,9,10132,1","8,1,001,1,+999,9",,"0130,5",,"SYN110AAXX  14120 08544 32560 73608 10196 20123 30132 40152 58001 82201 333 82820 87072 91013 91113 555 50004 60007;",
"08544099999","2010-06-14T15:00:00","4","40.9166666","-8.6333333","22.0","OVAR MACEDA, PO","FM-12","99999","V020","360,1,N,0100,1","22000,1,9,N","010000,1,N,1","+0198,1","+0121,1","10135,1",,,,"01,1,+00600,1,08,1","04,1,+06600,1,00,1",,,"04,99,1,01,1,02,1,00800,1,00,1,01,1",,,,,"99999,9,10115,1","7,1,017,1,+999,9",,"0150,5",,"SYN094AAXX  14151 08544 42560 43610 10198 20121 30115 40135 57017 81201 333 81820 84072 91015 91015;",
"08544099999","2010-06-14T18:00:00","4","40.9166666","-8.6333333","22.0","OVAR MACEDA, PO","FM-12","99999","V020","360,1,N,0100,1","22000,1,9,N","010000,1,N,1","+0186,1","+0118,1","10130,1",,,,"01,1,+00600,1,08,1",,,,"01,99,1,01,1,02,1,00800,1,00,1,00,1",,,,"120,M,+0208,1","99999,9,10110,1","7,1,005,1,+999,9",,"0150,5","4,99,0170,9,999","SYN104AAXX  14181 08544 32560 13610 10186 20118 30110 40130 57005 81200 333 10208 81820 91015 91117 555 60007;",
"08544099999","2010-06-15T06:00:00","4","40.9166666","-8.6333333","22.0","OVAR MACEDA, PO","FM-12","99999","V020","010,1,N,0030,1","22000,1,9,N","010000,1,N,1","+0130,1","+0069,1","10173,1",,,,"00,1,+99999,9,99,9",,,,"00,99,1,00,1,00,1,99999,9,00,1,00,1","0816,9",,,"999,N,+0122,1","99999,9,10153,1","2,1,018,1,+999,9","00,1",,,"SYN098AAXX  15061 08544 31960 00103 10130 20069 30153 40173 52018 700// 333 20122 50664 55136 555 60002;",
"08544099999","2010-06-15T09:00:00","4","40.9166666","-8.6333333","22.0","OVAR MACEDA, PO","FM-12","99999","V020","350,1,N,0080,1","22000,1,9,N","010000,1,N,1","+0168,1","+0105,1","10176,1",,,,"02,1,+00450,1,08,1",,,,"02,99,1,02,1,02,1,00450,1,00,1,00,1",,,,,"99999,9,10156,1","1,1,003,1,+999,9",,"0120,5",,"SYN088AAXX  15091 08544 42460 23508 10168 20105 30156 40176 51003 82200 333 82815 91012 91112;",
"08544099999","2010-06-15T12:00:00","4","40.9166666","-8.6333333","22.0","OVAR MACEDA, PO","FM-12","99999","V020","350,1,N,0080,1","22000,1,9,N","010000,1,N,1","+0188,1","+0121,1","10171,1",,,,"03,1,+00600,1,08,1",,,,"03,99,1,03,1,02,1,00800,1,00,1,00,1",,,,,"99999,9,10151,1","8,1,005,1,+999,9",,"0130,5","4,99,0140,9,999","SYN104AAXX  15121 08544 32560 33508 10188 20121 30151 40171 58005 83200 333 83820 91013 91114 555 50004 60007;",
"08544099999","2010-06-15T15:00:00","4","40.9166666","-8.6333333","22.0","OVAR MACEDA, PO","FM-12","99999","V020","360,1,N,0100,1","22000,1,9,N","010000,1,N,1","+0190,1","+0123,1","10160,1",,,,"03,1,+00450,1,08,1",,,,"03,99,1,03,1,02,1,00450,1,00,1,00,1",,,,,"99999,9,10140,1","7,1,011,1,+999,9",,"0160,5",,"SYN088AAXX  15151 08544 42460 33610 10190 20123 30140 40160 57011 83200 333 83815 91016 91116;",
"08544099999","2010-06-15T18:00:00","4","40.9166666","-8.6333333","22.0","OVAR MACEDA, PO","FM-12","99999","V020","360,1,N,0100,1","22000,1,9,N","010000,1,N,1","+0182,1","+0128,1","10157,1",,,,"02,1,+00450,1,08,1",,,,"02,99,1,02,1,08,1,00450,1,00,1,00,1",,,,"120,M,+0200,1","99999,9,10137,1","2,1,003,1,+999,9",,"0190,5",,"SYN104AAXX  15181 08544 32460 23610 10182 20128 30137 40157 52003 82800 333 10200 82815 91019 91119 555 60007;",
"08544099999","2010-06-16T06:00:00","4","40.9166666","-8.6333333","22.0","OVAR MACEDA, PO","FM-12","99999","V020","360,1,N,0060,1","22000,1,9,N","010000,1,N,1","+0140,1","+0116,1","10177,1",,,,"02,1,+00750,1,06,1",,,,"02,99,1,02,1,05,1,00800,1,00,1,00,1","0768,9",,,"999,N,+0124,1","99999,9,10156,1","7,1,004,1,+999,9","00,1",,,"SYN110AAXX  16061 08544 31560 23606 10140 20116 30156 40177 57004 700// 82500 333 20124 50524 55128 82625 555 60002;",
"08544099999","2010-06-16T09:00:00","4","40.9166666","-8.6333333","22.0","OVAR MACEDA, PO","FM-12","99999","V020","360,1,N,0060,1","22000,1,9,N","010000,1,N,1","+0180,1","+0127,1","10182,1",,,,"03,1,+07500,1,00,1",,,,"03,99,1,00,1,00,1,99999,9,00,1,04,1",,,,,"99999,9,10162,1","2,1,006,1,+999,9",,,,"SYN076AAXX  16091 08544 42960 33606 10180 20127 30162 40182 52006 80004 333 83075;",
"08544099999","2010-06-16T12:00:00","4","40.9166666","-8.6333333","22.0","OVAR MACEDA, PO","FM-12","99999","V020","360,1,N,0100,1","22000,1,9,N","010000,1,N,1","+0186,1","+0126,1","10177,1",,,,"01,1,+00600,1,08,1",,,,"02,99,1,01,1,01,1,00800,1,00,1,01,1",,,,,"99999,9,10157,1","6,1,005,1,+999,9",,"0160,5",,"SYN104AAXX  16121 08544 32560 23610 10186 20126 30157 40177 56005 81101 333 81820 91016 91116 555 50004 60007;",
"08544099999","2010-06-16T15:00:00","4","40.9166666","-8.6333333","22.0","OVAR MACEDA, PO","FM-12","99999","V020","360,1,N,0070,1","22000,1,9,N","010000,1,N,1","+0198,1","+0132,1","10166,1",,,,"01,1,+00600,1,08,1","03,1,+07500,1,00,1",,,"03,99,1,01,1,02,1,00800,1,00,1,04,1",,,,,"99999,9,10146,1","7,1,011,1,+999,9",,"0120,5",,"SYN094AAXX  16151 08544 42560 33607 10198 20132 30146 40166 57011 81204 333 81820 83075 91012 91116;",
"08544099999","2010-06-16T18:00:00","4","40.9166666","-8.6333333","22.0","OVAR MACEDA, PO","FM-12","99999","V020","360,1,N,0090,1","22000,1,9,N","010000,1,N,1","+0188,1","+0131,1","10162,1",,,,"01,1,+00600,1,08,1","03,1,+07500,1,00,1",,,"03,99,1,01,1,02,1,99999,9,00,1,01,1",,,,"120,M,+0222,1","99999,9,10142,1","6,1,004,1,+999,9",,"0130,5","4,99,0150,9,999","SYN110AAXX  16181 08544 32960 33609 10188 20131 30142 40162 56004 81201 333 10222 81820 83075 91013 91115 555 60007;",
"08544099999","2010-06-17T06:00:00","4","40.9166666","-8.6333333","22.0","OVAR MACEDA, PO","FM-12","99999","V020","350,1,N,0040,1","22000,1,9,N","010000,1,N,1","+0116,1","+0070,1","10159,1",,,,"00,1,+99999,9,99,9",,,,"00,99,1,00,1,00,1,99999,9,00,1,00,1","0792,9",,,"999,N,+0100,1","99999,9,10138,1","8,1,004,1,+999,9","00,1",,,"SYN098AAXX  17061 08544 31960 03504 10116 20070 30138 40159 58004 700// 333 20100 50484 55132 555 60002;",
"08544099999","2010-06-17T09:00:00","4","40.9166666","-8.6333333","22.0","OVAR MACEDA, PO","FM-12","99999","V020","350,1,N,0050,1","22000,1,9,N","010000,1,N,1","+0172,1","+0090,1","10160,1",,,,"00,1,+99999,9,99,9",,,,"00,99,1,00,1,00,1,99999,9,00,1,00,1",,,,,"99999,9,10140,1","1,1,002,1,+999,9",,,,"SYN070AAXX  17091 08544 42960 03505 10172 20090 30140 40160 51002 333 91108;",
"08544099999","2010-06-17T12:00:00","4","40.9166666","-8.6333333","22.0","OVAR MACEDA, PO","FM-12","99999","V020","350,1,N,0070,1","22000,1,9,N","010000,1,N,1","+0188,1","+0105,1","10156,1",,,,"00,1,+99999,9,99,9",,,,"00,99,1,00,1,00,1,99999,9,00,1,00,1",,,,,"99999,9,10136,1","8,1,004,1,+999,9",,"0100,5",,"SYN092AAXX  17120 08544 32960 03507 10188 20105 30136 40156 58004 333 91010 91110 555 50004 60007;",
"08544099999","2010-06-17T15:00:00","4","40.9166666","-8.6333333","22.0","OVAR MACEDA, PO","FM-12","99999","V020","360,1,N,0090,1","22000,1,9,N","010000,1,N,1","+0198,1","+0113,1","10140,1",,,,"00,1,+99999,9,99,9",,,,"00,99,1,00,1,00,1,99999,9,00,1,00,1",,,,,"99999,9,10120,1","7,1,016,1,+999,9",,"0140,5",,"SYN076AAXX  17151 08544 42960 03609 10198 20113 30120 40140 57016 333 91014 91114;",
"08544099999","2010-06-17T18:00:00","4","40.9166666","-8.6333333","22.0","OVAR MACEDA, PO","FM-12","99999","V020","360,1,N,0080,1","22000,1,9,N","010000,1,N,1","+0196,1","+0114,1","10134,1",,,,"00,1,+99999,9,99,9",,,,"00,99,1,00,1,00,1,99999,9,00,1,00,1",,,,"120,M,+0208,1","99999,9,10114,1","7,1,006,1,+999,9",,,"4,99,0140,9,999","SYN086AAXX  17181 08544 32960 03608 10196 20114 30114 40134 57006 333 10208 91114 555 60007;",
"08544099999","2010-06-18T06:00:00","4","40.9166666","-8.6333333","22.0","OVAR MACEDA, PO","FM-12","99999","V020","999,9,C,0000,1","22000,1,9,N","005000,1,N,1","+0096,1","+0092,1","10148,1",,,,"03,1,+00900,1,06,1",,,,"03,99,1,03,1,05,1,00800,1,00,1,00,1","0846,9",,,"999,N,+0094,1","99999,9,10127,1","4,1,000,1,+999,9","10,1",,,"SYN110AAXX  18061 08544 31550 30000 10096 20092 30127 40148 54000 710// 83500 333 20094 50504 55141 83630 555 60002;",
"08544099999","2010-06-18T09:00:00","4","40.9166666","-8.6333333","22.0","OVAR MACEDA, PO","FM-12","99999","V020","200,1,N,0040,1","00150,1,9,N","006000,1,N,1","+0148,1","+0128,1","10158,1",,"2,1,03,1","2,1,03,1","05,1,+00150,1,07,1",,,,"06,99,1,06,1,06,1,00150,1,00,1,00,1",,,,,"99999,9,10138,1","3,1,011,1,+999,9","10,1",,,"SYN088AAXX  18091 08544 41256 62004 10148 20128 30138 40158 53011 71022 86600 333 85705 83630;",
"08544099999","2010-06-18T12:00:00","4","40.9166666","-8.6333333","22.0","OVAR MACEDA, PO","FM-12","99999","V020","280,1,N,0040,1","22000,1,9,N","008000,1,N,1","+0184,1","+0135,1","10163,1",,"1,1,06,1","1,1,06,1","03,1,+00750,1,08,1",,,,"03,99,1,03,1,02,1,00800,1,03,1,00,1",,,,,"99999,9,10143,1","2,1,005,1,+999,9","10,1",,,"SYN098AAXX  18121 08544 31558 32804 10184 20135 30143 40163 52005 71011 83230 333 83825 555 50004 60007;",
"08544099999","2010-06-18T15:00:00","4","40.9166666","-8.6333333","22.0","OVAR MACEDA, PO","FM-12","99999","V020","310,1,N,0040,1","22000,1,9,N","010000,1,N,1","+0192,1","+0129,1","10158,1",,,,"01,1,+00540,1,09,1",,,,"05,99,1,04,1,09,1,00450,1,00,1,01,1",,,,,"99999,9,10138,1","8,1,005,1,+999,9",,,,"SYN082AAXX  18151 08544 42460 53104 10192 20129 30138 40158 58005 84901 333 81918 83825;",
"08544099999","2010-06-18T18:00:00","4","40.9166666","-8.6333333","22.0","OVAR MACEDA, PO","FM-12","99999","V020","270,1,N,0040,1","06000,1,9,N","010000,1,N,1","+0180,1","+0141,1","10160,1",,,,"01,1,+00540,1,09,1","03,1,+00750,1,08,1","05,1,+06000,1,00,1",,"06,99,1,04,1,09,1,00450,1,00,1,01,1",,,,"120,M,+0194,1","99999,9,10140,1","1,1,002,1,+999,9",,,,"SYN104AAXX  18181 08544 32460 62704 10180 20141 30140 40160 51002 84901 333 10194 81918 83825 85070 555 60007;",
"08544099999","2010-06-19T06:00:00","4","40.9166666","-8.6333333","22.0","OVAR MACEDA, PO","FM-12","99999","V020","080,1,N,0020,1","00450,1,9,N","007000,1,N,1","+0152,1","+0135,1","10172,1",,,,"02,1,+00180,1,07,1","05,1,+00450,1,08,1",,,"07,99,1,07,1,02,1,00150,1,00,1,00,1","0552,9",,,"999,N,+0126,1","99999,9,10152,1","2,1,012,1,+999,9","10,1",,,"SYN116AAXX  19061 08544 31257 70802 10152 20135 30152 40172 52012 710// 87200 333 20126 50214 55092 82706 85815 555 60002;",
"08544099999","2010-06-19T09:00:00","4","40.9166666","-8.6333333","22.0","OVAR MACEDA, PO","FM-12","99999","V020","340,1,N,0030,1","00210,1,C,N","007000,1,N,1","+0164,1","+0141,1","10183,1",,"2,1,03,1","2,1,03,1","03,1,+00240,1,07,1",,,,"07,99,1,07,1,02,1,00250,1,00,1,00,1",,,,,"99999,9,10163,1","2,1,011,1,+999,9","10,1",,,"SYN088AAXX  19091 08544 41357 73403 10164 20141 30163 40183 52011 71022 87200 333 83708 85815;",
"08544099999","2010-06-19T12:00:00","4","40.9166666","-8.6333333","22.0","OVAR MACEDA, PO","FM-12","99999","V020","350,1,N,0050,1","22000,1,9,N","010000,1,N,1","+0200,1","+0135,1","10184,1",,,,"01,1,+00450,1,08,1",,,,"01,99,1,01,1,01,1,00450,1,00,1,00,1",,,,,"99999,9,10164,1","1,1,001,1,+999,9",,,,"SYN092AAXX  19121 08544 32460 13505 10200 20135 30164 40184 51001 81100 333 81815 555 50004 60007;",
"08544099999","2010-06-19T15:00:00","4","40.9166666","-8.6333333","22.0","OVAR MACEDA, PO","FM-12","99999","V020","360,1,N,0100,1","22000,1,9,N","010000,1,N,1","+0190,1","+0131,1","10173,1",,,,"01,1,+00450,1,08,1",,,,"01,99,1,01,1,01,1,00450,1,00,1,00,1",,,,,"99999,9,10153,1","7,1,011,1,+999,9",,"0150,5",,"SYN088AAXX  19151 08544 42460 13610 10190 20131 30153 40173 57011 81100 333 81815 91015 91116;",
"08544099999","2010-06-19T18:00:00","4","40.9166666","-8.6333333","22.0","OVAR MACEDA, PO","FM-12","99999","V020","360,1,N,0100,1","22000,1,9,N","010000,1,N,1","+0176,1","+0136,1","10165,1",,,,"00,1,+99999,9,99,9",,,,"00,99,1,00,1,00,1,99999,9,00,1,00,1",,,,"120,M,+0210,1","99999,9,10145,1","7,1,008,1,+999,9",,"0150,5","4,99,0170,9,999","SYN092AAXX  19181 08544 32960 03610 10176 20136 30145 40165 57008 333 10210 91015 91117 555 60007;",
"08544099999","2010-06-20T06:00:00","4","40.9166666","-8.6333333","22.0","OVAR MACEDA, PO","FM-12","99999","V020","999,9,C,0000,1","22000,1,9,N","010000,1,N,1","+0104,1","+0097,1","10160,1",,,,"00,1,+99999,9,99,9",,,,"00,99,1,00,1,00,1,99999,9,00,1,00,1","0570,9",,,"999,N,+0100,1","99999,9,10139,1","6,1,004,1,+999,9","00,1",,,"SYN098AAXX  20061 08544 31960 00000 10104 20097 30139 40160 56004 700// 333 20100 50334 55095 555 60002;",
"08544099999","2010-06-20T09:00:00","4","40.9166666","-8.6333333","22.0","OVAR MACEDA, PO","FM-12","99999","V020","010,1,N,0060,1","22000,1,9,N","010000,1,N,1","+0186,1","+0130,1","10159,1",,,,"00,1,+99999,9,99,9",,,,"00,99,1,00,1,00,1,99999,9,00,1,00,1",,,,,"99999,9,10139,1","0,1,000,1,+999,9",,"0080,5",,"SYN076AAXX  20091 08544 42960 00106 10186 20130 30139 40159 50000 333 91008 91110;",
"08544099999","2010-06-20T12:00:00","4","40.9166666","-8.6333333","22.0","OVAR MACEDA, PO","FM-12","99999","V020","360,1,N,0080,1","22000,1,9,N","010000,1,N,1","+0186,1","+0133,1","10162,1",,,,"02,1,+00900,1,08,1",,,,"02,99,1,02,1,02,1,99999,9,00,1,00,1",,,,,"99999,9,10141,1","0,1,002,1,+999,9",,"0120,5","4,99,0130,9,999","SYN104AAXX  20121 08544 32960 23608 10186 20133 30141 40162 50002 82200 333 82830 91012 91113 555 50004 60007;",
"08544099999","2010-06-20T15:00:00","4","40.9166666","-8.6333333","22.0","OVAR MACEDA, PO","FM-12","99999","V020","350,1,N,0070,1","22000,1,9,N","010000,1,N,1","+0204,1","+0124,1","10149,1",,,,"02,1,+00900,1,08,1",,,,"02,99,1,02,1,02,1,00800,1,00,1,00,1",,,,,"99999,9,10129,1","7,1,012,1,+999,9",,"0120,5",,"SYN088AAXX  20151 08544 42560 23507 10204 20124 30129 40149 57012 82200 333 82830 91012 91114;",
"08544099999","2010-06-20T18:00:00","4","40.9166666","-8.6333333","22.0","OVAR MACEDA, PO","FM-12","99999","V020","350,1,N,0070,1","22000,1,9,N","010000,1,N,1","+0192,1","+0129,1","10146,1",,,,"00,1,+99999,9,99,9",,,,"00,99,1,00,1,00,1,99999,9,00,1,00,1",,,,"120,M,+0204,1","99999,9,10126,1","5,1,003,1,+999,9",,"0110,5","4,99,0150,9,999","SYN092AAXX  20181 08544 32960 03507 10192 20129 30126 40146 55003 333 10204 91011 91115 555 60007;",
"08544099999","2010-06-21T06:00:00","4","40.9166666","-8.6333333","22.0","OVAR MACEDA, PO","FM-12","99999","V020","999,9,C,0000,1","22000,1,9,N","007000,1,N,1","+0108,1","+0104,1","10163,1",,,,"00,1,+99999,9,99,9",,,,"00,99,1,00,1,00,1,99999,9,00,1,00,1","0846,9",,,"999,N,+0106,1","99999,9,10143,1","3,1,002,1,+999,9","10,1",,,"SYN098AAXX  21061 08544 31957 00000 10108 20104 30143 40163 53002 710// 333 20106 50364 55141 555 60002;",
"08544099999","2010-06-21T09:00:00","4","40.9166666","-8.6333333","22.0","OVAR MACEDA, PO","FM-12","99999","V020","280,1,N,0030,1","22000,1,9,N","010000,1,N,1","+0202,1","+0114,1","10170,1",,,,"00,1,+99999,9,99,9",,,,"00,99,1,00,1,00,1,99999,9,00,1,00,1",,,,,"99999,9,10150,1","2,1,008,1,+999,9",,,,"SYN088AAXX  21091 08544 42960 02803 10202 20114 30150 40170 52008 555 30106 40/// 50004 60007;",
"08544099999","2010-06-21T12:00:00","4","40.9166666","-8.6333333","22.0","OVAR MACEDA, PO","FM-12","99999","V020","320,1,N,0040,1","22000,1,9,N","010000,1,N,1","+0218,1","+0088,1","10178,1",,,,"01,1,+09000,1,00,1",,,,"01,99,1,00,1,00,1,99999,9,00,1,01,1",,,,,"99999,9,10158,1","0,1,008,1,+999,9",,,,"SYN092AAXX  21121 08544 32960 13204 10218 20088 30158 40178 50008 80001 333 81080 555 50004 60007;",
"08544099999","2010-06-21T15:00:00","4","40.9166666","-8.6333333","22.0","OVAR MACEDA, PO","FM-12","99999","V020","350,1,N,0070,1","22000,1,9,N","010000,1,N,1","+0224,1","+0083,1","10173,1",,,,"01,1,+09000,1,00,1",,,,"01,99,1,00,1,00,1,99999,9,00,1,01,1",,,,,"99999,9,10153,1","7,1,005,1,+999,9",,"0100,5",,"SYN088AAXX  21151 08544 42960 13507 10224 20083 30153 40173 57005 80001 333 81080 91010 91111;",
"08544099999","2010-06-21T18:00:00","4","40.9166666","-8.6333333","22.0","OVAR MACEDA, PO","FM-12","99999","V020","010,1,N,0070,1","22000,1,9,N","010000,1,N,1","+0230,1","+0100,1","10170,1",,,,"00,1,+99999,9,99,9",,,,"00,99,1,00,1,00,1,99999,9,00,1,00,1",,,,"120,M,+0236,1","99999,9,10150,1","5,1,003,1,+999,9",,"0100,5","4,99,0120,9,999","SYN092AAXX  21181 08544 32960 00107 10230 20100 30150 40170 55003 333 10236 91010 91112 555 60007;",
"08544099999","2010-06-22T06:00:00","4","40.9166666","-8.6333333","22.0","OVAR MACEDA, PO","FM-12","99999","V020","210,1,N,0010,1","22000,1,9,N","010000,1,N,1","+0108,1","+0097,1","10181,1",,,,"01,1,+09000,1,00,1",,,,"01,99,1,00,1,00,1,99999,9,00,1,01,1","0852,9",,,"999,N,+0104,1","99999,9,10160,1","4,1,000,1,+999,9","00,1",,,"SYN110AAXX  22061 08544 31960 12101 10108 20097 30160 40181 54000 700// 80001 333 20104 50614 55142 81080 555 60002;",
"08544099999","2010-06-22T09:00:00","4","40.9166666","-8.6333333","22.0","OVAR MACEDA, PO","FM-12","99999","V020","170,1,N,0010,1","22000,1,9,N","010000,1,N,1","+0212,1","+0126,1","10181,1",,,,"01,1,+07500,1,00,1",,,,"01,99,1,00,1,00,1,99999,9,00,1,01,1",,,,,"99999,9,10161,1","3,1,001,1,+999,9",,,,"SYN076AAXX  22091 08544 42960 11701 10212 20126 30161 40181 53001 80001 333 81075;",
"08544099999","2010-06-22T12:00:00","4","40.9166666","-8.6333333","22.0","OVAR MACEDA, PO","FM-12","99999","V020","270,1,N,0040,1","22000,1,9,N","010000,1,N,1","+0202,1","+0158,1","10188,1",,,,"01,1,+00300,1,07,1",,,,"02,99,1,01,1,06,1,00450,1,00,1,01,1",,,,,"99999,9,10168,1","2,1,007,1,+999,9",,,,"SYN092AAXX  22121 08544 32460 22704 10202 20158 30168 40188 52007 81601 333 81710 555 50004 60007;",
"08544099999","2010-06-22T15:00:00","4","40.9166666","-8.6333333","22.0","OVAR MACEDA, PO","FM-12","99999","V020","330,1,N,0040,1","22000,1,9,N","010000,1,N,1","+0228,1","+0153,1","10182,1",,,,"01,1,+07500,1,00,1",,,,"01,99,1,00,1,00,1,99999,9,00,1,01,1",,,,,"99999,9,10162,1","6,1,003,1,+999,9",,,,"SYN076AAXX  22151 08544 42960 13304 10228 20153 30162 40182 56003 80001 333 81075;",
"08544099999","2010-06-22T18:00:00","4","40.9166666","-8.6333333","22.0","OVAR MACEDA, PO","FM-12","99999","V020","330,1,N,0030,1","22000,1,9,N","010000,1,N,1","+0202,1","+0150,1","10175,1",,,,,,,,"03,99,1,00,1,00,1,99999,9,00,1,04,1",,,,"120,M,+0242,1","99999,9,10155,1","5,1,007,1,+999,9",,,,"SYN092AAXX  22181 08544 32960 33303 10202 20150 30155 40175 55007 80004 333 10242 83075 555 60007;",
"08544099999","2010-06-23T06:00:00","4","40.9166666","-8.6333333","22.0","OVAR MACEDA, PO","FM-12","99999","V020","999,9,C,0000,1","00300,1,9,N","004000,1,N,1","+0150,1","+0137,1","10169,1",,,,"07,1,+00300,1,07,1",,,,"07,99,1,07,1,06,1,00450,1,00,1,00,1","0828,9",,,"999,N,+0134,1","99999,9,10148,1","6,1,004,1,+999,9","10,1",,,"SYN110AAXX  23061 08544 31440 70000 10150 20137 30148 40169 56004 710// 87600 333 20134 50344 55138 87710 555 60002;",
"08544099999","2010-06-23T09:00:00","4","40.9166666","-8.6333333","22.0","OVAR MACEDA, PO","FM-12","99999","V020","250,1,N,0040,1","00900,1,C,N","010000,1,N,1","+0172,1","+0139,1","10167,1",,,,"02,1,+00360,1,08,1",,,,"06,99,1,06,1,08,1,00450,1,00,1,00,1",,,,,"99999,9,10147,1","0,1,001,1,+999,9",,,,"SYN082AAXX  23091 08544 42460 62504 10172 20139 30147 40167 50001 86800 333 82812 86615;",
"08544099999","2010-06-23T12:00:00","4","40.9166666","-8.6333333","22.0","OVAR MACEDA, PO","FM-12","99999","V020","290,1,N,0050,1","00450,1,9,N","010000,1,N,1","+0192,1","+0147,1","10164,1",,,,"02,1,+00360,1,08,1","04,1,+00450,1,06,1",,,"05,99,1,05,1,08,1,00450,1,00,1,00,1",,,,,"99999,9,10144,1","6,1,002,1,+999,9",,,,"SYN098AAXX  23121 08544 32460 52905 10192 20147 30144 40164 56002 85800 333 82812 84615 555 50004 60007;",
"08544099999","2010-06-23T15:00:00","4","40.9166666","-8.6333333","22.0","OVAR MACEDA, PO","FM-12","99999","V020","290,1,N,0040,1","00210,1,C,N","008000,1,N,1","+0172,1","+0156,1","10159,1",,"2,1,03,1","2,1,03,1","02,1,+00240,1,07,1",,,,"06,99,1,06,1,06,1,00250,1,00,1,00,1",,,,,"99999,9,10139,1","2,1,005,1,+999,9","10,1",,,"SYN088AAXX  23151 08544 41358 62904 10172 20156 30139 40159 52005 71022 86600 333 82708 85620;",
"08544099999","2010-06-23T18:00:00","4","40.9166666","-8.6333333","22.0","OVAR MACEDA, PO","FM-12","99999","V020","270,1,N,0020,1","00300,1,9,N","007000,1,N,1","+0170,1","+0150,1","10149,1",,"2,1,06,1","2,1,06,1","03,1,+00240,1,07,1","05,1,+00300,1,06,1",,,"07,99,1,07,1,05,1,00250,1,00,1,00,1",,,,"120,M,+0196,1","99999,9,10129,1","7,1,010,1,+999,9","10,1",,,"SYN104AAXX  23181 08544 31357 72702 10170 20150 30129 40149 57010 71022 87500 333 10196 83708 85610 555 60007;",
"08544099999","2010-06-24T06:00:00","4","40.9166666","-8.6333333","22.0","OVAR MACEDA, PO","FM-12","99999","V020","210,1,N,0010,1","00360,1,9,N","007000,1,N,1","+0162,1","+0146,1","10138,1",,,,"03,1,+00180,1,07,1","07,1,+00360,1,08,1",,,"07,99,1,07,1,02,1,00250,1,00,1,00,1","0360,9",,,"999,N,+0156,1","99999,9,10118,1","7,1,011,1,+999,9","10,1",,,"SYN116AAXX  24061 08544 31357 72101 10162 20146 30118 40138 57011 710// 87200 333 20156 50054 55060 83706 87812 555 60002;",
"08544099999","2010-06-24T09:00:00","4","40.9166666","-8.6333333","22.0","OVAR MACEDA, PO","FM-12","99999","V020","190,1,N,0030,1","00240,1,9,N","004000,1,N,1","+0172,1","+0146,1","10144,1",,"2,1,03,1","2,1,03,1","07,1,+00240,1,08,1",,,,"08,99,1,08,1,06,1,00250,1,99,9,99,9",,,,,"99999,9,10124,1","2,1,006,1,+999,9","10,1",,,"SYN082AAXX  24091 08544 41340 81903 10172 20146 30124 40144 52006 71022 886// 333 87808;",
"08544099999","2010-06-24T12:00:00","4","40.9166666","-8.6333333","22.0","OVAR MACEDA, PO","FM-12","99999","V020","280,1,N,0040,1","22000,1,9,N","009000,1,N,1","+0196,1","+0151,1","10145,1",,"1,1,06,1","1,1,06,1","04,1,+09000,1,00,1",,,,"04,99,1,00,1,00,1,99999,9,00,1,04,1",,,,,"99999,9,10125,1","3,1,001,1,+999,9","10,1",,,"SYN098AAXX  24121 08544 31959 42804 10196 20151 30125 40145 53001 71011 80004 333 84080 555 50004 60007;",
"08544099999","2010-06-24T15:00:00","4","40.9166666","-8.6333333","22.0","OVAR MACEDA, PO","FM-12","99999","V020","310,1,N,0040,1","22000,1,9,N","010000,1,N,1","+0206,1","+0156,1","10144,1",,,,"04,1,+09000,1,00,1",,,,"04,99,1,99,9,99,9,99999,9,99,9,99,9",,,,,"99999,9,10124,1","8,1,001,1,+999,9",,,,"SYN070AAXX  24151 08544 42960 43104 10206 20156 30124 40144 58001 333 84080;",
"08544099999","2010-06-24T18:00:00","4","40.9166666","-8.6333333","22.0","OVAR MACEDA, PO","FM-12","99999","V020","310,1,N,0020,1","22000,1,9,N","010000,1,N,1","+0190,1","+0151,1","10140,1",,,,"02,1,+03000,1,03,1","04,1,+09000,1,00,1",,,"04,99,1,02,1,00,1,99999,9,03,1,01,1",,,,"120,M,+0212,1","99999,9,10120,1","8,1,004,1,+999,9",,,,"SYN098AAXX  24181 08544 32960 43102 10190 20151 30120 40140 58004 82031 333 10212 82360 84080 555 60007;",
"08544099999","2010-06-25T06:00:00","4","40.9166666","-8.6333333","22.0","OVAR MACEDA, PO","FM-12","99999","V020","999,9,C,0000,1","00240,1,9,N","003000,1,N,1","+0162,1","+0152,1","10138,1",,,,"08,1,+00240,1,07,1",,,,"08,99,1,08,1,06,1,00250,1,99,9,99,9","0540,9",,,"999,N,+0148,1","99999,9,10118,1","6,1,002,1,+999,9","10,1",,,"SYN110AAXX  25061 08544 31330 80000 10162 20152 30118 40138 56002 710// 886// 333 20148 50224 55090 88708 555 60002;",
"08544099999","2010-06-25T09:00:00","4","40.9166666","-8.6333333","22.0","OVAR MACEDA, PO","FM-12","99999","V020","250,1,N,0020,1","00240,1,9,N","003000,1,N,1","+0172,1","+0159,1","10146,1",,"2,1,03,1","2,1,03,1","08,1,+00240,1,07,1",,,,"08,99,1,08,1,06,1,00250,1,99,9,99,9",,,,,"99999,9,10126,1","3,1,008,1,+999,9","10,1",,,"SYN082AAXX  25091 08544 41330 82502 10172 20159 30126 40146 53008 71022 886// 333 88708;",
"08544099999","2010-06-25T12:00:00","4","40.9166666","-8.6333333","22.0","OVAR MACEDA, PO","FM-12","99999","V020","300,1,N,0030,1","00450,1,9,N","008000,1,N,1","+0186,1","+0154,1","10150,1",,"2,1,06,1","2,1,06,1","03,1,+00240,1,07,1","07,1,+00450,1,06,1",,,"08,99,1,08,1,02,1,00250,1,99,9,99,9",,,,,"99999,9,10129,1","0,1,003,1,+999,9","10,1",,,"SYN104AAXX  25121 08544 31358 83003 10186 20154 30129 40150 50003 71022 882// 333 83708 87615 555 50004 60007;",
"08544099999","2010-06-25T15:00:00","4","40.9166666","-8.6333333","22.0","OVAR MACEDA, PO","FM-12","99999","V020","320,1,N,0030,1","22000,1,9,N","010000,1,N,1","+0204,1","+0157,1","10137,1",,,,"01,1,+00090,1,07,1","01,1,+00750,1,09,1",,,"04,99,1,02,1,09,1,00250,1,00,1,03,1",,,,,"99999,9,10117,1","8,1,012,1,+999,9",,,,"SYN088AAXX  25151 08544 42360 43203 10204 20157 30117 40137 58012 82903 333 81703 81925 83070;",
"08544099999","2010-06-25T18:00:00","4","40.9166666","-8.6333333","22.0","OVAR MACEDA, PO","FM-12","99999","V020","350,1,N,0040,1","06000,1,9,N","010000,1,N,1","+0198,1","+0156,1","10133,1",,,,"01,1,+00360,1,08,1","04,1,+06000,1,00,1",,,"05,99,1,01,1,01,1,00450,1,03,1,03,1",,,,"120,M,+0212,1","99999,9,10113,1","7,1,004,1,+999,9",,,,"SYN098AAXX  25181 08544 32460 53504 10198 20156 30113 40133 57004 81133 333 10212 81812 84070 555 60007;",
"08544099999","2010-06-26T06:00:00","4","40.9166666","-8.6333333","22.0","OVAR MACEDA, PO","FM-12","99999","V020","350,1,N,0020,1","00180,1,9,N","003000,1,N,1","+0166,1","+0153,1","10144,1",,,,"08,1,+00180,1,07,1",,,,"08,99,1,08,1,06,1,00150,1,99,9,99,9","0480,9",,,"999,N,+0156,1","99999,9,10123,1","4,1,000,1,+999,9","10,1",,,"SYN110AAXX  26061 08544 31230 83502 10166 20153 30123 40144 54000 710// 886// 333 20156 50184 55080 88706 555 60002;",
"08544099999","2010-06-26T09:00:00","4","40.9166666","-8.6333333","22.0","OVAR MACEDA, PO","FM-12","99999","V020","320,1,N,0020,1","00120,1,9,N","003000,1,N,1","+0174,1","+0158,1","10148,1",,"2,1,03,1","2,1,03,1",,,,,"08,99,1,08,1,06,1,00150,1,99,9,99,9",,,,,"99999,9,10128,1","3,1,005,1,+999,9","10,1",,,"SYN072AAXX  26091 08544 41230 83202 10174 20158 30128 40148 53005 71022 886//;",
"08544099999","2010-06-26T12:00:00","4","40.9166666","-8.6333333","22.0","OVAR MACEDA, PO","FM-12","99999","V020","310,1,N,0020,1","00240,1,9,N","004000,1,N,1","+0184,1","+0159,1","10162,1",,"2,1,06,1","2,1,06,1","06,1,+00240,1,07,1","08,1,+00360,1,06,1",,,"08,99,1,08,1,05,1,00250,1,99,9,99,9",,,,,"99999,9,10142,1","2,1,014,1,+999,9","10,1",,,"SYN104AAXX  26121 08544 31340 83102 10184 20159 30142 40162 52014 71022 885// 333 86708 88612 555 50004 60007;",
"08544099999","2010-06-26T15:00:00","4","40.9166666","-8.6333333","22.0","OVAR MACEDA, PO","FM-12","99999","V020","350,1,N,0050,1","00240,1,9,N","004000,1,N,1","+0186,1","+0161,1","10143,1",,"2,1,03,1","2,1,03,1","06,1,+00240,1,07,1","08,1,+00360,1,06,1",,,"08,99,1,08,1,05,1,00250,1,99,9,99,9",,,,,"99999,9,10123,1","7,1,019,1,+999,9","10,1","0090,5",,"SYN100AAXX  26151 08544 41340 83505 10186 20161 30123 40143 57019 71022 885// 333 86708 88612 91009 91109;",
"08544099999","2010-06-26T18:00:00","4","40.9166666","-8.6333333","22.0","OVAR MACEDA, PO","FM-12","99999","V020","350,1,N,0040,1","22000,1,9,N","008000,1,N,1","+0196,1","+0164,1","10139,1",,"1,1,06,1","1,1,06,1","02,1,+00360,1,08,1","02,1,+00450,1,09,1",,,"04,99,1,03,1,09,1,00450,1,00,1,02,1",,,,"120,M,+0200,1","99999,9,10119,1","6,1,004,1,+999,9","10,1",,"4,99,0090,9,999","SYN110AAXX  26181 08544 31458 43504 10196 20164 30119 40139 56004 71011 83902 333 10200 82812 82915 91109 555 60007;",
"08544099999","2010-06-27T06:00:00","4","40.9166666","-8.6333333","22.0","OVAR MACEDA, PO","FM-12","99999","V020","190,1,N,0030,1","00150,1,9,N","002000,1,N,1","+0168,1","+0162,1","10149,1",,,,"08,1,+00150,1,07,1",,,,"08,99,1,08,1,06,1,00075,1,99,9,99,9","0258,9",,,"999,N,+0158,1","99999,9,10129,1","4,1,000,1,+999,9","10,1",,,"SYN110AAXX  27061 08544 31120 81903 10168 20162 30129 40149 54000 710// 886// 333 20158 50144 55043 88705 555 60002;",
"08544099999","2010-06-27T09:00:00","4","40.9166666","-8.6333333","22.0","OVAR MACEDA, PO","FM-12","99999","V020","180,1,N,0020,1","22000,1,9,N","005000,1,N,1","+0194,1","+0166,1","10158,1",,"1,1,03,1","1,1,03,1","03,1,+00300,1,07,1",,,,"03,99,1,03,1,06,1,00450,1,00,1,00,1",,,,,"99999,9,10138,1","2,1,009,1,+999,9","10,1",,,"SYN082AAXX  27091 08544 41450 31802 10194 20166 30138 40158 52009 71011 83600 333 83710;",
"08544099999","2010-06-27T12:00:00","4","40.9166666","-8.6333333","22.0","OVAR MACEDA, PO","FM-12","99999","V020","310,1,N,0030,1","00240,1,9,N","002000,1,N,1","+0190,1","+0165,1","10167,1",,"1,1,06,1","1,1,06,1","08,1,+00240,1,07,1",,,,"08,99,1,08,1,06,1,00450,1,99,9,99,9",,,,,"99999,9,10147,1","2,1,009,1,+999,9","10,1",,,"SYN098AAXX  27121 08544 31420 83103 10190 20165 30147 40167 52009 71011 886// 333 88708 555 50004 60007;",
"08544099999","2010-06-27T15:00:00","4","40.9166666","-8.6333333","22.0","OVAR MACEDA, PO","FM-12","99999","V020","340,1,N,0040,1","00420,1,C,N","004000,1,N,1","+0202,1","+0168,1","10164,1",,"1,1,03,1","1,1,03,1","03,1,+00300,1,07,1",,,,"05,99,1,05,1,02,1,00450,1,00,1,00,1",,,,,"99999,9,10144,1","8,1,003,1,+999,9","10,1",,,"SYN088AAXX  27151 08544 41440 53404 10202 20168 30144 40164 58003 71011 85200 333 83710 83820;",
"08544099999","2010-06-27T18:00:00","4","40.9166666","-8.6333333","22.0","OVAR MACEDA, PO","FM-12","99999","V020","340,1,N,0030,1","00240,1,9,N","001500,1,N,1","+0186,1","+0166,1","10161,1",,"1,1,06,1","1,1,06,1","06,1,+00240,1,07,1",,,,"06,99,1,06,1,06,1,00250,1,00,1,00,1",,,,"120,M,+0218,1","99999,9,10141,1","5,1,003,1,+999,9","10,1",,,"SYN098AAXX  27181 08544 31315 63403 10186 20166 30141 40161 55003 71011 86600 333 10218 86708 555 60007;",
"08544099999","2010-06-28T06:00:00","4","40.9166666","-8.6333333","22.0","OVAR MACEDA, PO","FM-12","99999","V020","180,1,N,0020,1","00120,1,9,N","000500,1,N,1","+0166,1","+0163,1","10184,1",,"4,1,06,1",,"08,1,+00120,1,07,1",,,,"08,99,1,08,1,06,1,00150,1,99,9,99,9","0516,9",,,"999,N,+0154,1","99999,9,10163,1","3,1,002,1,+999,9","44,1",,,"SYN122AAXX  28061 08544 31205 81802 10166 20163 30163 40184 53002 7444/ 886// 333 20154 50144 55086 88704 555 60002 90269 96644;",
"08544099999","2010-06-28T09:00:00","4","40.9166666","-8.6333333","22.0","OVAR MACEDA, PO","FM-12","99999","V020","190,1,N,0020,1","22000,1,9,N","005000,1,N,1","+0198,1","+0170,1","10186,1",,"4,1,03,1","2,1,03,1","03,1,+00180,1,07,1",,,,"03,99,1,03,1,06,1,00250,1,00,1,00,1",,,,,"99999,9,10166,1","0,1,003,1,+999,9","10,1",,,"SYN082AAXX  28091 08544 41350 31902 10198 20170 30166 40186 50003 71042 83600 333 83706;",
"08544099999","2010-06-28T12:00:00","4","40.9166666","-8.6333333","22.0","OVAR MACEDA, PO","FM-12","99999","V020","280,1,N,0040,1","22000,1,9,N","003000,1,N,1","+0210,1","+0173,1","10190,1",,"4,1,06,1","2,1,06,1","04,1,+00180,1,07,1",,,,"04,99,1,04,1,06,1,00250,1,00,1,00,1",,,,,"99999,9,10170,1","0,1,004,1,+999,9","10,1",,,"SYN098AAXX  28121 08544 31330 42804 10210 20173 30170 40190 50004 71042 84600 333 84706 555 50004 60007;",
"08544099999","2010-06-28T15:00:00","4","40.9166666","-8.6333333","22.0","OVAR MACEDA, PO","FM-12","99999","V020","300,1,N,0040,1","00210,1,C,N","007000,1,N,1","+0208,1","+0178,1","10184,1",,"1,1,03,1","1,1,03,1","02,1,+00180,1,07,1","01,1,+00360,1,09,1",,,"06,99,1,06,1,09,1,00250,1,00,1,00,1",,,,,"99999,9,10164,1","8,1,006,1,+999,9","10,1",,,"SYN094AAXX  28151 08544 41357 63004 10208 20178 30164 40184 58006 71011 86900 333 82706 81912 83816;",
"08544099999","2010-06-28T18:00:00","4","40.9166666","-8.6333333","22.0","OVAR MACEDA, PO","FM-12","99999","V020","330,1,N,0040,1","22000,1,9,N","007000,1,N,1","+0208,1","+0173,1","10179,1",,"1,1,06,1","1,1,06,1","02,1,+00180,1,07,1",,,,"04,99,1,04,1,02,1,00250,1,00,1,00,1",,,,"120,M,+0226,1","99999,9,10159,1","7,1,005,1,+999,9","10,1",,,"SYN098AAXX  28181 08544 31357 43304 10208 20173 30159 40179 57005 71011 84200 333 10226 82706 555 60007;",
"08544099999","2010-06-29T06:00:00","4","40.9166666","-8.6333333","22.0","OVAR MACEDA, PO","FM-12","99999","V020","999,9,C,0000,1","00060,1,9,N","000300,1,N,1","+0162,1","+0159,1","10189,1",,"4,1,06,1",,"08,1,+00060,1,07,1",,,,"08,99,1,06,1,08,1,00150,1,00,1,00,1","0642,9",,,"999,N,+0150,1","99999,9,10169,1","2,1,019,1,+999,9","44,1",,,"SYN122AAXX  29061 08544 31203 80000 10162 20159 30169 40189 52019 7444/ 86800 333 20150 50144 55107 88702 555 60002 90269 96644;",
"08544099999","2010-06-29T09:00:00","4","40.9166666","-8.6333333","22.0","OVAR MACEDA, PO","FM-12","99999","V020","200,1,N,0010,1","00090,1,9,N","002000,1,N,1","+0176,1","+0173,1","10198,1",,"4,1,03,1","2,1,03,1","02,1,+00030,1,07,1","07,1,+00090,1,07,1",,,"08,99,1,08,1,06,1,00025,1,99,9,99,9",,,,,"99999,9,10178,1","0,1,009,1,+999,9","28,1",,,"SYN094AAXX  29091 08544 41020 82001 10176 20173 30178 40198 50009 72842 886// 333 82701 87703 96010;",
"08544099999","2010-06-29T12:00:00","4","40.9166666","-8.6333333","22.0","OVAR MACEDA, PO","FM-12","99999","V020","300,1,N,0060,1","22000,1,9,N","008000,1,N,1","+0204,1","+0173,1","10199,1",,"4,1,06,1","1,1,06,1","03,1,+00090,1,07,1",,,,"03,99,1,03,1,06,1,00075,1,00,1,00,1",,,,,"99999,9,10179,1","3,1,001,1,+999,9","10,1",,,"SYN098AAXX  29121 08544 31158 33006 10204 20173 30179 40199 53001 71041 83600 333 83703 555 50004 60007;",
"08544099999","2010-06-29T15:00:00","4","40.9166666","-8.6333333","22.0","OVAR MACEDA, PO","FM-12","99999","V020","360,1,N,0050,1","22000,1,9,N","010000,1,N,1","+0232,1","+0164,1","10192,1",,,,"01,1,+00660,1,08,1",,,,"02,99,1,01,1,02,1,00800,1,00,1,04,1",,,,,"99999,9,10172,1","8,1,007,1,+999,9",,,,"SYN076AAXX  29151 08544 42560 23605 10232 20164 30172 40192 58007 81204 333 81822;",
"08544099999","2010-06-29T18:00:00","4","40.9166666","-8.6333333","22.0","OVAR MACEDA, PO","FM-12","99999","V020","350,1,N,0040,1","22000,1,9,N","010000,1,N,1","+0212,1","+0168,1","10186,1",,,,"01,1,+06000,1,00,1",,,,"01,99,1,00,1,00,1,99999,9,00,1,01,1",,,,"120,M,+0232,1","99999,9,10166,1","7,1,006,1,+999,9",,,,"SYN092AAXX  29181 08544 32960 13504 10212 20168 30166 40186 57006 80001 333 10232 81070 555 60007;",
"08544099999","2010-06-30T06:00:00","4","40.9166666","-8.6333333","22.0","OVAR MACEDA, PO","FM-12","99999","V020","160,1,N,0010,1","00060,1,9,N","000300,1,N,1","+0170,1","+0167,1","10179,1",,"4,1,06,1",,"08,1,+00060,1,07,1",,,,"08,99,1,08,1,06,1,00150,1,99,9,99,9","0600,9",,,"999,N,+0146,1","99999,9,10159,1","8,1,006,1,+999,9","46,1",,,"SYN122AAXX  30061 08544 31203 81601 10170 20167 30159 40179 58006 7464/ 886// 333 20146 50184 55100 88702 555 60002 90269 96646;",
"08544099999","2010-06-30T09:00:00","4","40.9166666","-8.6333333","22.0","OVAR MACEDA, PO","FM-12","99999","V020","999,9,C,0000,1","00150,1,9,N","000500,1,N,1","+0196,1","+0175,1","10180,1",,"4,1,03,1","2,1,03,1","05,1,+00150,1,07,1",,,,"05,99,1,05,1,06,1,00150,1,00,1,00,1",,,,,"99999,9,10160,1","8,1,001,1,+999,9","10,1",,,"SYN082AAXX  30091 08544 41205 50000 10196 20175 30160 40180 58001 71042 85600 333 85705;",
"08544099999","2010-06-30T12:00:00","4","40.9166666","-8.6333333","22.0","OVAR MACEDA, PO","FM-12","99999","V020","330,1,N,0030,1","22000,1,9,N","005000,1,N,1","+0200,1","+0166,1","10181,1",,"4,1,06,1","2,1,06,1","04,1,+00120,1,07,1",,,,"04,99,1,04,1,06,1,00150,1,00,1,00,1",,,,,"99999,9,10161,1","0,1,001,1,+999,9","10,1",,,"SYN098AAXX  30121 08544 31250 43303 10200 20166 30161 40181 50001 71042 84600 333 84704 555 50004 60007;",
"08544099999","2010-06-30T15:00:00","4","40.9166666","-8.6333333","22.0","OVAR MACEDA, PO","FM-12","99999","V020","340,1,N,0040,1","22000,1,9,N","010000,1,N,1","+0222,1","+0173,1","10184,1",,,,"02,1,+00360,1,08,1",,,,"02,99,1,02,1,02,1,00450,1,00,1,00,1",,,,,"99999,9,10164,1","0,1,002,1,+999,9",,,,"SYN076AAXX  30151 08544 42460 23404 10222 20173 30164 40184 50002 82200 333 82812;",
"08544099999","2010-06-30T18:00:00","4","40.9166666","-8.6333333","22.0","OVAR MACEDA, PO","FM-12","99999","V020","350,1,N,0040,1","22000,1,9,N","010000,1,N,1","+0210,1","+0169,1","10169,1",,,,"00,1,+99999,9,99,9",,,,"00,99,1,00,1,00,1,99999,9,00,1,00,1",,,,"120,M,+0240,1","99999,9,10149,1","7,1,015,1,+999,9",,,,"SYN080AAXX  30181 08544 32960 03504 10210 20169 30149 40169 57015 333 10240 555 60007;",
"08544099999","2010-07-01T06:00:00","4","40.9166666","-8.6333333","22.0","OVAR MACEDA, PO","FM-12","99999","V020","360,1,N,0020,1","00210,1,9,N","003000,1,N,1","+0162,1","+0159,1","10169,1",,,,"04,1,+00090,1,07,1","05,1,+00210,1,07,1",,,"07,99,1,07,1,06,1,00075,1,00,1,00,1","0636,9",,,"999,N,+0158,1","99999,9,10149,1","4,1,000,1,+999,9","10,1",,,"SYN116AAXX  01061 08544 31130 73602 10162 20159 30149 40169 54000 710// 87600 333 20158 50194 55106 84703 85707 555 60002;",
"08544099999","2010-07-01T09:00:00","4","40.9166666","-8.6333333","22.0","OVAR MACEDA, PO","FM-12","99999","V020","320,1,N,0020,1","00210,1,9,N","003000,1,N,1","+0170,1","+0157,1","10173,1",,"2,1,03,1","2,1,03,1","07,1,+00210,1,07,1",,,,"07,99,1,99,9,99,9,00250,1,99,9,99,9",,,,,"99999,9,10152,1","3,1,003,1,+999,9","10,1",,,"SYN076AAXX  01091 08544 41330 73202 10170 20157 30152 40173 53003 71022 333 87707;",
"08544099999","2010-07-01T12:00:00","4","40.9166666","-8.6333333","22.0","OVAR MACEDA, PO","FM-12","99999","V020","360,1,N,0040,1","00360,1,9,N","004000,1,N,1","+0178,1","+0156,1","10170,1",,"2,1,06,1","2,1,06,1","04,1,+00240,1,07,1","05,1,+00360,1,06,1",,,"08,99,1,08,1,05,1,00250,1,99,9,99,9",,,,,"99999,9,10150,1","8,1,002,1,+999,9","10,1",,,"SYN104AAXX  01121 08544 31340 83604 10178 20156 30150 40170 58002 71022 885// 333 84708 85612 555 50004 60007;",
"08544099999","2010-07-01T15:00:00","4","40.9166666","-8.6333333","22.0","OVAR MACEDA, PO","FM-12","99999","V020","340,1,N,0050,1","22000,1,9,N","010000,1,N,1","+0194,1","+0153,1","10163,1",,,,"04,1,+00450,1,08,1",,,,"04,99,1,04,1,02,1,00450,1,00,1,00,1",,,,,"99999,9,10143,1","6,1,007,1,+999,9",,,,"SYN076AAXX  01151 08544 42460 43405 10194 20153 30143 40163 56007 84200 333 84815;",
"08544099999","2010-07-01T18:00:00","4","40.9166666","-8.6333333","22.0","OVAR MACEDA, PO","FM-12","99999","V020","360,1,N,0050,1","00450,1,9,N","010000,1,N,1","+0198,1","+0166,1","10163,1",,,,"07,1,+00450,1,08,1",,,,"07,99,1,07,1,02,1,00450,1,00,1,00,1",,,,"120,M,+0210,1","99999,9,10143,1","4,1,000,1,+999,9",,,,"SYN092AAXX  01181 08544 32460 73605 10198 20166 30143 40163 53000 87200 333 10210 87815 555 60007;","Q01+000032APCTEN"
"08544099999","2010-07-02T06:00:00","4","40.9166666","-8.6333333","22.0","OVAR MACEDA, PO","FM-12","99999","V020","340,1,N,0020,1","00360,1,9,N","010000,1,N,1","+0170,1","+0147,1","10150,1",,,,"03,1,+00240,1,07,1","06,1,+00360,1,08,1",,,"08,99,1,08,1,02,1,00250,1,99,9,99,9","0150,9",,,"999,N,+0166,1","99999,9,10129,1","8,1,005,1,+999,9","00,1",,,"SYN116AAXX  02061 08544 31360 83402 10170 20147 30129 40150 58005 700// 882// 333 20166 50204 55025 83708 86812 555 60002;",
"08544099999","2010-07-02T09:00:00","4","40.9166666","-8.6333333","22.0","OVAR MACEDA, PO","FM-12","99999","V020","999,9,V,0010,1","03600,1,C,N","010000,1,N,1","+0190,1","+0155,1","10155,1",,,,"04,1,+00450,1,06,1",,,,"06,99,1,04,1,02,1,00450,1,07,1,04,1",,,,,"99999,9,10135,1","2,1,006,1,+999,9",,,,"SYN082AAXX  02091 08544 42460 69901 10190 20155 30135 40155 52006 84274 333 84615 86358;",
"08544099999","2010-07-02T12:00:00","4","40.9166666","-8.6333333","22.0","OVAR MACEDA, PO","FM-12","99999","V020","300,1,N,0040,1","02400,1,9,N","010000,1,N,1","+0212,1","+0159,1","10155,1",,,,"03,1,+00600,1,06,1","06,1,+02400,1,03,1",,,"06,99,1,03,1,02,1,00800,1,07,1,01,1",,,,,"99999,9,10135,1","0,1,000,1,+999,9",,,,"SYN098AAXX  02121 08544 32560 63004 10212 20159 30135 40155 50000 83271 333 83620 86358 555 50004 60007;",
"08544099999","2010-07-02T15:00:00","4","40.9166666","-8.6333333","22.0","OVAR MACEDA, PO","FM-12","99999","V020","330,1,N,0040,1","00600,1,9,N","010000,1,N,1","+0204,1","+0170,1","10156,1",,,,"05,1,+00600,1,06,1","08,1,+02400,1,04,1",,,"08,99,1,05,1,02,1,00800,1,01,1,99,9",,,,,"99999,9,10136,1","3,1,001,1,+999,9",,,,"SYN092AAXX  02151 08544 42560 83304 10204 20170 30136 40156 53001 8521/ 333 85620 88458 555 60007;",
"08544099999","2010-07-02T18:00:00","4","40.9166666","-8.6333333","22.0","OVAR MACEDA, PO","FM-12","99999","V020","340,1,N,0050,1","00270,1,9,N","008000,1,N,1","+0194,1","+0174,1","10145,1",,"2,1,06,1","2,1,06,1","06,1,+00270,1,07,1","08,1,+00450,1,06,1",,,"08,99,1,08,1,05,1,00250,1,99,9,99,9",,,,"120,M,+0214,1","99999,9,10125,1","7,1,011,1,+999,9","10,1",,,"SYN104AAXX  02181 08544 31358 83405 10194 20174 30125 40145 57011 71022 885// 333 10214 86709 88615 555 60007;",
"08544099999","2010-07-03T06:00:00","4","40.9166666","-8.6333333","22.0","OVAR MACEDA, PO","FM-12","99999","V020","280,1,N,0010,1","00150,1,9,N","000800,1,N,1","+0166,1","+0156,1","10155,1",,"4,1,06,1",,"08,1,+00150,1,07,1",,,,"08,99,1,08,1,06,1,00075,1,99,9,99,9","0168,9",,,"999,N,+0156,1","99999,9,10134,1","6,1,002,1,+999,9","44,1",,,"SYN122AAXX  03061 08544 31108 82801 10166 20156 30134 40155 56002 7444/ 886// 333 20156 50184 55028 88705 555 60002 90269 96644;",
"08544099999","2010-07-03T09:00:00","4","40.9166666","-8.6333333","22.0","OVAR MACEDA, PO","FM-12","99999","V020","290,1,N,0020,1","00360,1,9,N","003000,1,N,1","+0182,1","+0170,1","10164,1",,"4,1,03,1","2,1,03,1","03,1,+00240,1,07,1","07,1,+00360,1,08,1",,,"08,99,1,08,1,02,1,00250,1,99,9,99,9",,,,,"99999,9,10144,1","2,1,010,1,+999,9","28,1",,,"SYN094AAXX  03091 08544 41330 82902 10182 20170 30144 40164 52010 72842 882// 333 83708 87812 96010;",
"08544099999","2010-07-03T12:00:00","4","40.9166666","-8.6333333","22.0","OVAR MACEDA, PO","FM-12","99999","V020","350,1,N,0040,1","22000,1,9,N","010000,1,N,1","+0218,1","+0166,1","10163,1",,"4,1,06,1","1,1,06,1","00,1,+99999,9,99,9",,,,"00,99,1,00,1,00,1,99999,9,00,1,00,1",,,,,"99999,9,10143,1","8,1,001,1,+999,9","01,1",,,"SYN082AAXX  03121 08544 31960 03504 10218 20166 30143 40163 58001 70141 555 50004 60007;",
"08544099999","2010-07-03T15:00:00","4","40.9166666","-8.6333333","22.0","OVAR MACEDA, PO","FM-12","99999","V020","360,1,N,0080,1","22000,1,9,N","010000,1,N,1","+0216,1","+0156,1","10163,1",,,,"01,1,+00600,1,08,1",,,,"02,99,1,01,1,02,1,00800,1,00,1,04,1",,,,,"99999,9,10143,1","4,1,000,1,+999,9",,"0120,5",,"SYN088AAXX  03151 08544 42560 23608 10216 20156 30143 40163 54000 81204 333 81820 91012 91113;",
"08544099999","2010-07-03T18:00:00","4","40.9166666","-8.6333333","22.0","OVAR MACEDA, PO","FM-12","99999","V020","360,1,N,0060,1","22000,1,9,N","010000,1,N,1","+0204,1","+0156,1","10162,1",,,,"01,1,+00660,1,08,1",,,,"02,99,1,01,1,02,1,00800,1,00,1,01,1",,,,"120,M,+0232,1","99999,9,10142,1","8,1,001,1,+999,9",,"0090,5","4,99,0150,9,999","SYN104AAXX  03181 08544 32560 23606 10204 20156 30142 40162 58001 81201 333 10232 81822 91009 91115 555 60007;",
"08544099999","2010-07-04T06:00:00","4","40.9166666","-8.6333333","22.0","OVAR MACEDA, PO","FM-12","99999","V020","340,1,N,0010,1","22000,1,9,N","003000,1,N,1","+0158,1","+0148,1","10185,1",,,,"01,1,+07500,1,00,1",,,,"01,99,1,00,1,00,1,99999,9,00,1,01,1","0564,9",,,"999,N,+0154,1","99999,9,10165,1","3,1,003,1,+999,9","10,1",,,"SYN110AAXX  04061 08544 31930 13401 10158 20148 30165 40185 53003 710// 80001 333 20154 50264 55094 81075 555 60002;",
"08544099999","2010-07-04T09:00:00","4","40.9166666","-8.6333333","22.0","OVAR MACEDA, PO","FM-12","99999","V020","010,1,N,0020,1","22000,1,9,N","007000,1,N,1","+0236,1","+0179,1","10191,1",,"0,1,03,1","0,1,03,1","00,1,+99999,9,99,9",,,,"00,99,1,00,1,00,1,99999,9,00,1,00,1",,,,,"99999,9,10171,1","2,1,006,1,+999,9","10,1",,,"SYN094AAXX  04091 08544 41957 00102 10236 20179 30171 40191 52006 71000 555 30154 40/// 50004 60007;",
"08544099999","2010-07-04T12:00:00","4","40.9166666","-8.6333333","22.0","OVAR MACEDA, PO","FM-12","99999","V020","360,1,N,0070,1","22000,1,9,N","010000,1,N,1","+0250,1","+0168,1","10191,1",,,,"01,1,+00600,1,08,1",,,,"01,99,1,01,1,02,1,00800,1,00,1,00,1",,,,,"99999,9,10171,1","0,1,000,1,+999,9",,"0110,5",,"SYN104AAXX  04121 08544 32560 13607 10250 20168 30171 40191 50000 81200 333 81820 91011 91111 555 50004 60007;",
"08544099999","2010-07-04T15:00:00","4","40.9166666","-8.6333333","22.0","OVAR MACEDA, PO","FM-12","99999","V020","360,1,N,0070,1","22000,1,9,N","010000,1,N,1","+0230,1","+0162,1","10183,1",,,,"02,1,+00750,1,08,1",,,,"02,99,1,02,1,02,1,00800,1,00,1,00,1",,,,,"99999,9,10163,1","7,1,008,1,+999,9",,,,"SYN082AAXX  04151 08544 42560 23607 10230 20162 30163 40183 57008 82200 333 82825 91111;",
"08544099999","2010-07-04T18:00:00","4","40.9166666","-8.6333333","22.0","OVAR MACEDA, PO","FM-12","99999","V020","360,1,N,0060,1","22000,1,9,N","010000,1,N,1","+0206,1","+0158,1","10174,1",,,,"01,1,+00750,1,08,1",,,,"01,99,1,01,1,02,1,00800,1,00,1,00,1",,,,"120,M,+0258,1","99999,9,10154,1","5,1,009,1,+999,9",,"0080,5","4,99,0120,9,999","SYN104AAXX  04181 08544 32560 13606 10206 20158 30154 40174 55009 81200 333 10258 81825 91008 91112 555 60007;",
"08544099999","2010-07-05T06:00:00","4","40.9166666","-8.6333333","22.0","OVAR MACEDA, PO","FM-12","99999","V020","020,1,N,0010,1","22000,1,9,N","004000,1,N,1","+0154,1","+0141,1","10179,1",,,,"00,1,+99999,9,99,9",,,,"00,99,1,00,1,00,1,99999,9,00,1,00,1","0834,9",,,"999,N,+0152,1","99999,9,10158,1","3,1,003,1,+999,9","10,1",,,"SYN098AAXX  05061 08544 31940 00201 10154 20141 30158 40179 53003 710// 333 20152 50364 55139 555 60002;",
"08544099999","2010-07-05T09:00:00","4","40.9166666","-8.6333333","22.0","OVAR MACEDA, PO","FM-12","99999","V020","330,1,N,0020,1","22000,1,9,N","010000,1,N,1","+0246,1","+0183,1","10188,1",,,,"00,1,+99999,9,99,9",,,,"00,99,1,00,1,00,1,99999,9,00,1,00,1",,,,,"99999,9,10169,1","2,1,011,1,+999,9",,,,"SYN060AAXX  05091 08544 42960 03302 10246 20183 30169 40188 52011;",
"08544099999","2010-07-05T12:00:00","4","40.9166666","-8.6333333","22.0","OVAR MACEDA, PO","FM-12","99999","V020","360,1,N,0060,1","22000,1,9,N","010000,1,N,1","+0250,1","+0161,1","10194,1",,,,"00,1,+99999,9,99,9",,,,"00,99,1,00,1,00,1,99999,9,00,1,00,1",,,,,"99999,9,10174,1","3,1,005,1,+999,9",,,,"SYN076AAXX  05121 08544 32960 03606 10250 20161 30174 40194 53005 555 50004 60007;",
"08544099999","2010-07-05T15:00:00","4","40.9166666","-8.6333333","22.0","OVAR MACEDA, PO","FM-12","99999","V020","360,1,N,0070,1","22000,1,9,N","010000,1,N,1","+0266,1","+0166,1","10181,1",,,,"01,1,+00750,1,08,1",,,,"01,99,1,01,1,02,1,00800,1,00,1,00,1",,,,,"99999,9,10161,1","7,1,013,1,+999,9",,,,"SYN082AAXX  05151 08544 42560 13607 10266 20166 30161 40181 57013 81200 333 81825 91112;",
"08544099999","2010-07-05T18:00:00","4","40.9166666","-8.6333333","22.0","OVAR MACEDA, PO","FM-12","99999","V020","360,1,N,0060,1","22000,1,9,N","010000,1,N,1","+0230,1","+0157,1","10174,1",,,,"00,1,+99999,9,99,9",,,,"00,99,1,00,1,00,1,99999,9,00,1,00,1",,,,"120,M,+0266,1","99999,9,10154,1","7,1,010,1,+999,9",,,,"SYN080AAXX  05181 08544 32960 03606 10230 20157 30154 40174 57010 333 10266 555 60007;",
"08544099999","2010-07-06T06:00:00","4","40.9166666","-8.6333333","22.0","OVAR MACEDA, PO","FM-12","99999","V020","999,9,C,0000,1","22000,1,9,N","010000,1,N,1","+0158,1","+0142,1","10170,1",,,,"00,1,+99999,9,99,9",,,,"00,99,1,00,1,00,1,99999,9,00,1,00,1","0822,9",,,"999,N,+0154,1","99999,9,10150,1","6,1,002,1,+999,9","00,1",,,"SYN098AAXX  06061 08544 31960 00000 10158 20142 30150 40170 56002 700// 333 20154 50504 55137 555 60002;",
"08544099999","2010-07-06T09:00:00","4","40.9166666","-8.6333333","22.0","OVAR MACEDA, PO","FM-12","99999","V020","260,1,N,0010,1","22000,1,9,N","010000,1,N,1","+0232,1","+0171,1","10172,1",,,,"00,1,+99999,9,99,9",,,,"00,99,1,00,1,00,1,99999,9,00,1,00,1",,,,,"99999,9,10152,1","0,1,002,1,+999,9",,,,"SYN060AAXX  06091 08544 42960 02601 10232 20171 30152 40172 50002;",
"08544099999","2010-07-06T12:00:00","4","40.9166666","-8.6333333","22.0","OVAR MACEDA, PO","FM-12","99999","V020","340,1,N,0030,1","22000,1,9,N","010000,1,N,1","+0252,1","+0160,1","10172,1",,,,"00,1,+99999,9,99,9",,,,"00,99,1,00,1,00,1,99999,9,00,1,00,1",,,,,"99999,9,10152,1","5,1,000,1,+999,9",,,,"SYN076AAXX  06121 08544 32960 03403 10252 20160 30152 40172 55000 555 50004 60007;",
"08544099999","2010-07-06T15:00:00","4","40.9166666","-8.6333333","22.0","OVAR MACEDA, PO","FM-12","99999","V020","070,1,N,0060,1","22000,1,9,N","010000,1,N,1","+0272,1","+0166,1","10162,1",,,,"00,1,+99999,9,99,9",,,,"00,99,1,00,1,00,1,99999,9,00,1,00,1",,,,,"99999,9,10143,1","8,1,009,1,+999,9",,,,"SYN060AAXX  06151 08544 42960 00706 10272 20166 30143 40162 58009;",
"08544099999","2010-07-06T18:00:00","4","40.9166666","-8.6333333","22.0","OVAR MACEDA, PO","FM-12","99999","V020","350,1,N,0040,1","22000,1,9,N","010000,1,N,1","+0254,1","+0168,1","10152,1",,,,"00,1,+99999,9,99,9",,,,"00,99,1,00,1,00,1,99999,9,00,1,00,1",,,,"120,M,+0280,1","99999,9,10132,1","7,1,011,1,+999,9",,,,"SYN080AAXX  06181 08544 32960 03504 10254 20168 30132 40152 57011 333 10280 555 60007;",
"08544099999","2010-07-07T06:00:00","4","40.9166666","-8.6333333","22.0","OVAR MACEDA, PO","FM-12","99999","V020","360,1,N,0040,1","22000,1,9,N","010000,1,N,1","+0184,1","+0172,1","10144,1",,,,"04,1,+06600,1,00,1",,,,"04,99,1,00,1,00,1,99999,9,00,1,01,1","0822,9",,,"999,N,+0166,1","99999,9,10124,1","7,1,008,1,+999,9","00,1",,,"SYN110AAXX  07061 08544 31960 43604 10184 20172 30124 40144 57008 700// 80001 333 20166 50434 55137 84072 555 60002;",
"08544099999","2010-07-07T09:00:00","4","40.9166666","-8.6333333","22.0","OVAR MACEDA, PO","FM-12","99999","V020","160,1,N,0040,1","99999,9,9,N","010000,1,N,1","+0238,1","+0178,1","10147,1",,,,"01,1,+03000,1,03,1",,,,"06,99,1,01,1,00,1,99999,9,03,1,04,1",,,,,"99999,9,10127,1","0,1,003,1,+999,9",,,,"SYN082AAXX  07091 08544 42960 61604 10238 20178 30127 40147 50003 81034 333 81360 86070;",
"08544099999","2010-07-07T12:00:00","4","40.9166666","-8.6333333","22.0","OVAR MACEDA, PO","FM-12","99999","V020","320,1,N,0040,1","06000,1,9,N","010000,1,N,1","+0230,1","+0172,1","10146,1",,,,"02,1,+03000,1,03,1","05,1,+06000,1,00,1",,,"06,99,1,02,1,00,1,99999,9,03,1,02,1",,,,,"99999,9,10126,1","8,1,001,1,+999,9",,,"4,99,0150,9,999","SYN104AAXX  07121 08544 32960 63204 10230 20172 30126 40146 58001 82032 333 82360 85070 91115 555 50004 60007;",
"08544099999","2010-07-07T15:00:00","4","40.9166666","-8.6333333","22.0","OVAR MACEDA, PO","FM-12","99999","V020","330,1,N,0040,1","03600,1,C,N","010000,1,N,1","+0268,1","+0175,1","10128,1",,,,"01,1,+01200,1,06,1",,,,"07,99,1,01,1,05,1,01250,1,03,1,02,1",,,,,"99999,9,10108,1","7,1,018,1,+999,9",,,,"SYN082AAXX  07151 08544 42660 73304 10268 20175 30108 40128 57018 81532 333 81640 87070;",
"08544099999","2010-07-07T18:00:00","4","40.9166666","-8.6333333","22.0","OVAR MACEDA, PO","FM-12","99999","V020","360,1,N,0040,1","22000,1,9,N","010000,1,N,1","+0260,1","+0181,1","10127,1",,,,"03,1,+06000,1,00,1",,,,"03,99,1,00,1,00,1,99999,9,00,1,02,1",,,,"120,M,+0302,1","99999,9,10107,1","5,1,001,1,+999,9",,,,"SYN092AAXX  07181 08544 32960 33604 10260 20181 30107 40127 55001 80002 333 10302 83070 555 60007;",
"08544099999","2010-07-08T06:00:00","4","40.9166666","-8.6333333","22.0","OVAR MACEDA, PO","FM-12","99999","V020","170,1,N,0040,1","00150,1,9,N","005000,1,N,1","+0182,1","+0170,1","10130,1",,,,"08,1,+00150,1,07,1",,,,"08,99,1,08,1,06,1,00150,1,99,9,99,9","0546,9",,,"999,N,+0172,1","99999,9,10110,1","3,1,003,1,+999,9","10,1",,,"SYN110AAXX  08061 08544 31250 81704 10182 20170 30110 40130 53003 710// 886// 333 20172 50364 55091 88705 555 60002;",
"08544099999","2010-07-08T09:00:00","4","40.9166666","-8.6333333","22.0","OVAR MACEDA, PO","FM-12","99999","V020","210,1,N,0010,1","07500,1,9,N","010000,1,N,1","+0230,1","+0184,1","10132,1",,,,"05,1,+07500,1,00,1",,,,"05,99,1,00,1,00,1,99999,9,00,1,01,1",,,,,"99999,9,10112,1","3,1,002,1,+999,9",,,,"SYN076AAXX  08091 08544 42960 52101 10230 20184 30112 40132 53002 80001 333 85075;",
"08544099999","2010-07-08T12:00:00","4","40.9166666","-8.6333333","22.0","OVAR MACEDA, PO","FM-12","99999","V020","250,1,N,0040,1","00480,1,9,N","006000,1,N,1","+0210,1","+0189,1","10154,1",,"2,1,06,1","2,1,06,1","04,1,+00210,1,07,1","05,1,+00480,1,08,1","04,1,+06000,1,00,1",,"07,99,1,06,1,02,1,00250,1,00,1,01,1",,,,,"99999,9,10134,1","2,1,022,1,+999,9","10,1",,,"SYN110AAXX  08121 08544 31356 72504 10210 20189 30134 40154 52022 71022 86201 333 84707 85816 84070 555 50004 60007;",
"08544099999","2010-07-08T15:00:00","4","40.9166666","-8.6333333","22.0","OVAR MACEDA, PO","FM-12","99999","V020","340,1,N,0040,1","22000,1,C,N","010000,1,N,1","+0242,1","+0172,1","10151,1",,,,"04,1,+00480,1,08,1",,,,"05,99,1,04,1,02,1,00450,1,00,1,01,1",,,,,"99999,9,10132,1","1,1,002,1,+999,9",,,,"SYN082AAXX  08151 08544 41460 53404 10242 20172 30132 40151 51002 84201 333 84816 84070;",
"08544099999","2010-07-08T18:00:00","4","40.9166666","-8.6333333","22.0","OVAR MACEDA, PO","FM-12","99999","V020","260,1,N,0040,1","00480,1,9,N","005000,1,N,1","+0192,1","+0160,1","10165,1",,"1,1,06,1","1,1,06,1","03,1,+00180,1,07,1","05,1,+00480,1,08,1",,,"07,99,1,07,1,02,1,00150,1,00,1,00,1",,,,"120,M,+0244,1","99999,9,10145,1","2,1,013,1,+999,9","10,1",,,"SYN104AAXX  08181 08544 31250 72604 10192 20160 30145 40165 52013 71011 87200 333 10244 83706 85816 555 60007;",
"08544099999","2010-07-09T06:00:00","4","40.9166666","-8.6333333","22.0","OVAR MACEDA, PO","FM-12","99999","V020","200,1,N,0020,1","00450,1,9,N","004000,1,N,1","+0174,1","+0168,1","10196,1",,,,"03,1,+00180,1,07,1","06,1,+00450,1,08,1",,,"07,99,1,07,1,02,1,00150,1,00,1,00,1","0438,9",,,"999,N,+0168,1","99999,9,10176,1","2,1,031,1,+999,9","10,1",,,"SYN116AAXX  09061 08544 31240 72002 10174 20168 30176 40196 52031 710// 87200 333 20168 50194 55073 83706 86815 555 60002;",
"08544099999","2010-07-09T09:00:00","4","40.9166666","-8.6333333","22.0","OVAR MACEDA, PO","FM-12","99999","V020","350,1,N,0030,1","00180,1,9,N","002500,1,N,1","+0182,1","+0170,1","10209,1",,,,"05,1,+00180,1,07,1",,,,"08,99,1,08,1,05,1,00150,1,99,9,99,9",,,,,"99999,9,10189,1","2,1,013,1,+999,9",,,,"SYN082AAXX  09091 08544 42225 83503 10182 20170 30189 40209 52013 885// 333 85706 88612;",
"08544099999","2010-07-09T12:00:00","4","40.9166666","-8.6333333","22.0","OVAR MACEDA, PO","FM-12","99999","V020","350,1,N,0040,1","00390,1,9,N","008000,1,N,1","+0208,1","+0171,1","10216,1",,"2,1,06,1","2,1,06,1","03,1,+00270,1,07,1","08,1,+00390,1,06,1",,,"08,99,1,08,1,05,1,00250,1,99,9,99,9",,,,,"99999,9,10196,1","2,1,007,1,+999,9","10,1",,,"SYN104AAXX  09121 08544 31358 83504 10208 20171 30196 40216 52007 71022 885// 333 83709 88613 555 50004 60007;",
"08544099999","2010-07-09T15:00:00","4","40.9166666","-8.6333333","22.0","OVAR MACEDA, PO","FM-12","99999","V020","340,1,N,0050,1","22000,1,9,N","010000,1,N,1","+0214,1","+0168,1","10215,1",,,,"02,1,+00300,1,08,1","04,1,+00450,1,06,1",,,"04,99,1,04,1,08,1,00450,1,00,1,00,1",,,,,"99999,9,10195,1","5,1,001,1,+999,9",,"0080,5",,"SYN094AAXX  09151 08544 42460 43405 10214 20168 30195 40215 55001 84800 333 82810 84615 91008 91110;",
"08544099999","2010-07-09T18:00:00","4","40.9166666","-8.6333333","22.0","OVAR MACEDA, PO","FM-12","99999","V020","360,1,N,0060,1","22000,1,9,N","010000,1,N,1","+0196,1","+0160,1","10209,1",,,,"03,1,+00090,1,07,1",,,,"03,99,1,03,1,06,1,00075,1,00,1,00,1",,,,"120,M,+0224,1","99999,9,10189,1","7,1,006,1,+999,9",,"0100,5","4,99,0110,9,999","SYN104AAXX  09181 08544 32160 33606 10196 20160 30189 40209 57006 83600 333 10224 83703 91010 91111 555 60007;",
"08544099999","2010-07-10T06:00:00","4","40.9166666","-8.6333333","22.0","OVAR MACEDA, PO","FM-12","99999","V020","140,1,N,0010,1","00015,1,9,N","000100,1,N,1","+0152,1","+0149,1","10202,1",,"4,1,06,1",,"09,1,+99999,9,99,9",,,,"09,99,1,09,1,99,9,99999,9,99,9,99,9","0408,9",,,"999,N,+0144,1","99999,9,10182,1","7,1,006,1,+999,9","44,1",,,"SYN116AAXX  10061 08544 31/01 91401 10152 20149 30182 40202 57006 7444/ 333 20144 50324 55068 89/// 555 60002 90269 96644;",
"08544099999","2010-07-10T09:00:00","4","40.9166666","-8.6333333","22.0","OVAR MACEDA, PO","FM-12","99999","V020","310,1,N,0030,1","22000,1,9,N","005000,1,N,1","+0180,1","+0164,1","10208,1",,"4,1,03,1","1,1,03,1","01,1,+00090,1,07,1",,,,"04,99,1,04,1,06,1,00075,1,00,1,00,1",,,,,"99999,9,10188,1","2,1,006,1,+999,9","10,1",,,"SYN088AAXX  10091 08544 41150 43103 10180 20164 30188 40208 52006 71041 84600 333 81703 84706;",
"08544099999","2010-07-10T12:00:00","4","40.9166666","-8.6333333","22.0","OVAR MACEDA, PO","FM-12","99999","V020","340,1,N,0060,1","22000,1,9,N","010000,1,N,1","+0194,1","+0159,1","10208,1",,"4,1,06,1","1,1,06,1","02,1,+00060,1,07,1",,,,"02,99,1,02,1,06,1,00075,1,00,1,00,1",,,,,"99999,9,10188,1","0,1,000,1,+999,9","02,1",,,"SYN098AAXX  10121 08544 31160 23406 10194 20159 30188 40208 50000 70241 82600 333 82702 555 50004 60007;",
"08544099999","2010-07-10T15:00:00","4","40.9166666","-8.6333333","22.0","OVAR MACEDA, PO","FM-12","99999","V020","360,1,N,0060,1","22000,1,9,N","010000,1,N,1","+0190,1","+0158,1","10207,1",,,,"03,1,+00060,1,07,1",,,,"03,99,1,03,1,06,1,00075,1,00,1,00,1",,,,,"99999,9,10187,1","8,1,001,1,+999,9",,,,"SYN076AAXX  10151 08544 42160 33606 10190 20158 30187 40207 58001 83600 333 83702;",
"08544099999","2010-07-10T18:00:00","4","40.9166666","-8.6333333","22.0","OVAR MACEDA, PO","FM-12","99999","V020","010,1,N,0070,1","00030,1,9,N","005000,1,N,1","+0176,1","+0156,1","10200,1",,"1,1,06,1","1,1,06,1","01,1,+00030,1,07,1",,,,"05,99,1,05,1,06,1,00025,1,00,1,00,1",,,,"120,M,+0212,1","99999,9,10180,1","7,1,007,1,+999,9","10,1","0100,5","4,99,0110,9,999","SYN116AAXX  10181 08544 31050 50107 10176 20156 30180 40200 57007 71011 85600 333 10212 81701 75703 91010 91111 555 60007;",
"08544099999","2010-07-11T06:00:00","4","40.9166666","-8.6333333","22.0","OVAR MACEDA, PO","FM-12","99999","V020","030,1,N,0020,1","00015,1,9,N","000100,1,N,1","+0148,1","+0145,1","10195,1",,"4,1,06,1",,"09,1,+99999,9,99,9",,,,"09,99,1,09,1,99,9,99999,9,99,9,99,9","0516,9",,,"999,N,+0148,1","99999,9,10174,1","7,1,006,1,+999,9","47,1",,,"SYN116AAXX  11061 08544 31/01 90302 10148 20145 30174 40195 57006 7474/ 333 20148 50134 55086 89/// 555 60002 90269 96647;",
"08544099999","2010-07-11T09:00:00","4","40.9166666","-8.6333333","22.0","OVAR MACEDA, PO","FM-12","99999","V020","020,1,N,0020,1","22000,1,9,N","010000,1,N,1","+0190,1","+0165,1","10190,1",,,,"03,1,+00090,1,07,1",,,,"03,99,1,03,1,06,1,00075,1,00,1,00,1",,,,,"99999,9,10170,1","8,1,004,1,+999,9",,,,"SYN076AAXX  11091 08544 42160 30202 10190 20165 30170 40190 58004 83600 333 83703;",
"08544099999","2010-07-11T12:00:00","4","40.9166666","-8.6333333","22.0","OVAR MACEDA, PO","FM-12","99999","V020","340,1,N,0060,1","22000,1,9,N","010000,1,N,1","+0216,1","+0167,1","10191,1",,,,"02,1,+09000,1,00,1",,,,"02,99,1,00,1,00,1,99999,9,00,1,01,1",,,,,"99999,9,10172,1","3,1,002,1,+999,9",,"0080,5",,"SYN104AAXX  11121 08544 32960 23406 10216 20167 30172 40191 53002 80001 333 82080 91008 91108 555 50004 60007;",
"08544099999","2010-07-11T15:00:00","4","40.9166666","-8.6333333","22.0","OVAR MACEDA, PO","FM-12","99999","V020","350,1,N,0050,1","09000,1,9,N","010000,1,N,1","+0212,1","+0169,1","10184,1",,,,"02,1,+00150,1,07,1","05,1,+09000,1,02,1",,,"05,99,1,02,1,06,1,00800,1,00,1,06,1",,,,,"99999,9,10164,1","7,1,008,1,+999,9",,,,"SYN088AAXX  11151 08544 42560 53505 10212 20169 30164 40184 57008 82606 333 82705 85280 91108;",
"08544099999","2010-07-11T18:00:00","4","40.9166666","-8.6333333","22.0","OVAR MACEDA, PO","FM-12","99999","V020","360,1,N,0050,1","00090,1,9,N","008000,1,N,1","+0202,1","+0173,1","10185,1",,"2,1,06,1","2,1,06,1","05,1,+00090,1,07,1","05,1,+00360,1,06,1",,,"07,99,1,06,1,02,1,00075,1,00,1,01,1",,,,"120,M,+0232,1","99999,9,10165,1","0,1,001,1,+999,9","10,1",,"4,99,0100,9,999","SYN110AAXX  11181 08544 31158 73605 10202 20173 30165 40185 50001 71022 86201 333 10232 85703 85612 91110 555 60007;",
"08544099999","2010-07-12T06:00:00","4","40.9166666","-8.6333333","22.0","OVAR MACEDA, PO","FM-12","99999","V020","999,9,C,0000,1","22000,1,9,N","001200,1,N,1","+0148,1","+0145,1","10186,1",,,,"01,1,+00270,1,07,1","03,1,+00450,1,06,1",,,"05,99,1,04,1,02,1,00250,1,00,1,01,1","0540,9",,,"999,N,+0148,1","99999,9,10166,1","8,1,002,1,+999,9","10,1",,,"SYN116AAXX  12061 08544 31312 50000 10148 20145 30166 40186 58002 710// 84201 333 20148 50204 55090 81709 83615 555 60002;",
"08544099999","2010-07-12T09:00:00","4","40.9166666","-8.6333333","22.0","OVAR MACEDA, PO","FM-12","99999","V020","320,1,N,0030,1","22000,1,9,N","010000,1,N,1","+0192,1","+0150,1","10197,1",,"4,1,03,1","1,1,03,1","02,1,+00450,1,08,1",,,,"04,99,1,02,1,08,1,00450,1,00,1,01,1",,,,,"99999,9,10177,1","2,1,011,1,+999,9","01,1",,,"SYN088AAXX  12091 08544 41460 43203 10192 20150 30177 40197 52011 70141 82801 333 82815 83074;",
"08544099999","2010-07-12T12:00:00","4","40.9166666","-8.6333333","22.0","OVAR MACEDA, PO","FM-12","99999","V020","310,1,N,0040,1","22000,1,9,N","010000,1,N,1","+0220,1","+0135,1","10199,1",,"4,1,06,1","1,1,06,1","01,1,+00450,1,08,1","03,1,+07200,1,00,1",,,"03,99,1,01,1,08,1,00450,1,00,1,01,1",,,,,"99999,9,10179,1","3,1,002,1,+999,9","01,1",,,"SYN104AAXX  12121 08544 31460 33104 10220 20135 30179 40199 53002 70141 81801 333 81815 83074 555 50004 60007;",
"08544099999","2010-07-12T15:00:00","4","40.9166666","-8.6333333","22.0","OVAR MACEDA, PO","FM-12","99999","V020","300,1,N,0050,1","22000,1,9,N","010000,1,N,1","+0214,1","+0157,1","10193,1",,,,"01,1,+00450,1,08,1","03,1,+07200,1,00,1",,,"03,99,1,01,1,08,1,00450,1,00,1,01,1",,,,,"99999,9,10173,1","8,1,006,1,+999,9",,,,"SYN088AAXX  12151 08544 42460 33005 10214 20157 30173 40193 58006 81801 333 81815 83074 91109;",
"08544099999","2010-07-12T18:00:00","4","40.9166666","-8.6333333","22.0","OVAR MACEDA, PO","FM-12","99999","V020","320,1,N,0040,1","22000,1,9,N","010000,1,N,1","+0208,1","+0170,1","10186,1",,,,"02,1,+00450,1,08,1","02,1,+07200,1,00,1",,,"03,99,1,02,1,01,1,00450,1,00,1,01,1",,,,"120,M,+0228,1","99999,9,10166,1","7,1,007,1,+999,9",,,,"SYN098AAXX  12181 08544 32460 33204 10208 20170 30166 40186 57007 82101 333 10228 82815 82074 555 60007;",
"08544099999","2010-07-13T06:00:00","4","40.9166666","-8.6333333","22.0","OVAR MACEDA, PO","FM-12","99999","V020","999,9,C,0000,1","00150,1,9,N","003000,1,N,1","+0182,1","+0179,1","10156,1","12,0010,9,1",,,"02,1,+00090,1,07,1","05,1,+00150,1,07,1","05,1,+00450,1,08,1",,"08,99,1,08,1,02,1,00075,1,99,9,99,9","0690,9",,,"999,N,+0178,1","99999,9,10136,1","7,1,021,1,+999,9","10,1",,,"SYN128AAXX  13061 08544 11130 80000 10182 20179 30136 40156 57021 60012 710// 882// 333 20178 50294 55115 82703 85705 85815 555 60012;",
"08544099999","2010-07-13T09:00:00","4","40.9166666","-8.6333333","22.0","OVAR MACEDA, PO","FM-12","99999","V020","300,1,N,0020,1","00600,1,C,N","010000,1,N,1","+0202,1","+0181,1","10160,1",,,,"01,1,+00240,1,07,1","03,1,+00450,1,08,1",,,"06,99,1,06,1,08,1,00250,1,00,1,00,1",,,,,"99999,9,10140,1","2,1,004,1,+999,9",,,,"SYN088AAXX  13091 08544 42360 63002 10202 20181 30140 40160 52004 86800 333 81708 83815 86630;",
"08544099999","2010-07-13T12:00:00","4","40.9166666","-8.6333333","22.0","OVAR MACEDA, PO","FM-12","99999","V020","340,1,N,0050,1","22000,1,9,N","010000,1,N,1","+0212,1","+0169,1","10155,1",,,,"03,1,+00450,1,08,1",,,,"04,99,1,04,1,08,1,00450,1,00,1,00,1",,,,,"99999,9,10136,1","7,1,004,1,+999,9",,,,"SYN092AAXX  13121 08544 32460 43405 10212 20169 30136 40155 57004 84800 333 83815 555 50014 60007;",
"08544099999","2010-07-13T15:00:00","4","40.9166666","-8.6333333","22.0","OVAR MACEDA, PO","FM-12","99999","V020","340,1,N,0040,1","22000,1,9,N","010000,1,N,1","+0220,1","+0151,1","10154,1",,,,"02,1,+00450,1,08,1",,,,"02,99,1,02,1,08,1,00450,1,00,1,00,1",,,,,"99999,9,10135,1","8,1,001,1,+999,9",,,,"SYN076AAXX  13151 08544 42460 23404 10220 20151 30135 40154 58001 82800 333 82815;",
"08544099999","2010-07-13T18:00:00","4","40.9166666","-8.6333333","22.0","OVAR MACEDA, PO","FM-12","99999","V020","320,1,N,0030,1","22000,1,9,N","010000,1,N,1","+0218,1","+0158,1","10142,1",,,,"02,1,+00450,1,08,1",,,,"02,99,1,02,1,02,1,00450,1,00,1,00,1",,,,"120,M,+0222,1","99999,9,10122,1","7,1,013,1,+999,9",,,,"SYN092AAXX  13181 08544 32460 23203 10218 20158 30122 40142 57013 82200 333 10222 82815 555 60007;",
"08544099999","2010-07-14T06:00:00","4","40.9166666","-8.6333333","22.0","OVAR MACEDA, PO","FM-12","99999","V020","999,9,C,0000,1","00900,1,9,N","010000,1,N,1","+0166,1","+0160,1","10143,1","12,0051,9,1",,,"01,1,+00180,1,07,1","03,1,+00450,1,08,1","06,1,+00900,1,06,1",,"07,99,1,07,1,08,1,00150,1,00,1,00,1","0594,9",,,"999,N,+0162,1","99999,9,10123,1","7,1,003,1,+999,9","00,1",,,"SYN128AAXX  14061 08544 11260 70000 10166 20160 30123 40143 57003 60052 700// 87800 333 20162 50254 55099 81706 83815 86630 555 60052;",
"08544099999","2010-07-14T09:00:00","4","40.9166666","-8.6333333","22.0","OVAR MACEDA, PO","FM-12","99999","V020","260,1,N,0030,1","00900,1,9,N","010000,1,N,1","+0188,1","+0169,1","10159,1",,,,"03,1,+00450,1,08,1",,,,"07,99,1,07,1,08,1,00450,1,00,1,00,1",,,,,"99999,9,10139,1","2,1,016,1,+999,9",,,,"SYN082AAXX  14091 08544 42460 72603 10188 20169 30139 40159 52016 87800 333 83815 87630;",
"08544099999","2010-07-14T12:00:00","4","40.9166666","-8.6333333","22.0","OVAR MACEDA, PO","FM-12","99999","V020","310,1,N,0040,1","01200,1,9,N","010000,1,N,1","+0216,1","+0170,1","10172,1",,,,"02,1,+00360,1,08,1","04,1,+01200,1,06,1",,,"06,99,1,06,1,08,1,00450,1,03,1,00,1",,,,,"99999,9,10152,1","2,1,013,1,+999,9",,,,"SYN098AAXX  14121 08544 32460 63104 10216 20170 30152 40172 52013 86830 333 82812 84640 555 50054 60007;",
"08544099999","2010-07-14T15:00:00","4","40.9166666","-8.6333333","22.0","OVAR MACEDA, PO","FM-12","99999","V020","320,1,N,0050,1","22000,1,9,N","010000,1,N,1","+0220,1","+0150,1","10176,1",,,,"03,1,+00510,1,08,1",,,,"04,99,1,03,1,02,1,00450,1,03,1,01,1",,,,,"99999,9,10156,1","2,1,004,1,+999,9",,,,"SYN082AAXX  14151 08544 42460 43205 10220 20150 30156 40176 52004 83231 333 83817 83070;",
"08544099999","2010-07-14T18:00:00","4","40.9166666","-8.6333333","22.0","OVAR MACEDA, PO","FM-12","99999","V020","350,1,N,0050,1","22000,1,9,N","010000,1,N,1","+0206,1","+0141,1","10179,1",,,,"02,1,+00510,1,08,1","03,1,+06000,1,00,1",,,"04,99,1,02,1,02,1,00450,1,00,1,01,1",,,,"120,M,+0222,1","99999,9,10159,1","3,1,003,1,+999,9",,,,"SYN098AAXX  14181 08544 32460 43505 10206 20141 30159 40179 53003 82201 333 10222 82817 83070 555 60007;",
"08544099999","2010-07-15T06:00:00","4","40.9166666","-8.6333333","22.0","OVAR MACEDA, PO","FM-12","99999","V020","999,9,C,0000,1","22000,1,9,N","008000,1,N,1","+0114,1","+0099,1","10179,1",,,,"02,1,+00450,1,08,1",,,,"02,99,1,02,1,02,1,00450,1,00,1,00,1","0600,9",,,"999,N,+0112,1","99999,9,10159,1","7,1,011,1,+999,9","10,1",,,"SYN110AAXX  15061 08544 31458 20000 10114 20099 30159 40179 57011 710// 82200 333 20112 50034 55100 82815 555 60002;",
"08544099999","2010-07-15T09:00:00","4","40.9166666","-8.6333333","22.0","OVAR MACEDA, PO","FM-12","99999","V020","040,1,N,0030,1","22000,1,9,N","010000,1,N,1","+0196,1","+0126,1","10184,1",,,,"00,1,+99999,9,99,9",,,,"00,99,1,00,1,00,1,99999,9,00,1,00,1",,,,,"99999,9,10164,1","0,1,005,1,+999,9",,,,"SYN060AAXX  15091 08544 42960 00403 10196 20126 30164 40184 50005;",
"08544099999","2010-07-15T12:00:00","4","40.9166666","-8.6333333","22.0","OVAR MACEDA, PO","FM-12","99999","V020","320,1,N,0050,1","22000,1,9,N","010000,1,N,1","+0202,1","+0133,1","10186,1",,,,"00,1,+99999,9,99,9",,,,"00,99,1,00,1,00,1,99999,9,00,1,00,1",,,,,"99999,9,10166,1","3,1,002,1,+999,9",,,"4,99,0100,9,999","SYN086AAXX  15121 08544 32960 03205 10202 20133 30166 40186 53002 333 91110 555 50004 60007;",
"08544099999","2010-07-15T15:00:00","4","40.9166666","-8.6333333","22.0","OVAR MACEDA, PO","FM-12","99999","V020","340,1,N,0050,1","22000,1,9,N","010000,1,N,1","+0212,1","+0141,1","10185,1",,,,"00,1,+99999,9,99,9",,,,"00,99,1,00,1,00,1,99999,9,00,1,00,1",,,,,"99999,9,10165,1","8,1,001,1,+999,9",,,,"SYN070AAXX  15151 08544 42960 03405 10212 20141 30165 40185 58001 333 91110;",
"08544099999","2010-07-15T18:00:00","4","40.9166666","-8.6333333","22.0","OVAR MACEDA, PO","FM-12","99999","V020","350,1,N,0040,1","22000,1,9,N","010000,1,N,1","+0204,1","+0146,1","10184,1",,,,"00,1,+99999,9,99,9",,,,"00,99,1,00,1,00,1,99999,9,00,1,00,1",,,,"120,M,+0218,1","99999,9,10164,1","5,1,001,1,+999,9",,,"4,99,0100,9,999","SYN086AAXX  15181 08544 32960 03504 10204 20146 30164 40184 55001 333 10218 91110 555 60007;",
"08544099999","2010-07-16T06:00:00","4","40.9166666","-8.6333333","22.0","OVAR MACEDA, PO","FM-12","99999","V020","999,9,C,0000,1","00450,1,9,N","010000,1,N,1","+0180,1","+0164,1","10191,1",,,,"02,1,+00180,1,07,1","04,1,+00450,1,08,1","07,1,+00900,1,06,1",,"08,99,1,08,1,08,1,00250,1,99,9,99,9","0804,9",,,"999,N,+0152,1","99999,9,10171,1","7,1,002,1,+999,9","00,1",,,"SYN122AAXX  16061 08544 31360 80000 10180 20164 30171 40191 57002 700// 888// 333 20152 50354 55134 82706 84815 87630 555 60002;",
"08544099999","2010-07-16T09:00:00","4","40.9166666","-8.6333333","22.0","OVAR MACEDA, PO","FM-12","99999","V020","999,9,V,0010,1","00600,1,C,N","008000,1,N,1","+0202,1","+0178,1","10202,1",,"5,1,03,1","2,1,03,1","02,1,+00090,1,07,1",,,,"07,99,1,07,1,08,1,00075,1,00,1,00,1",,,,,"99999,9,10182,1","2,1,011,1,+999,9","10,1",,,"SYN088AAXX  16091 08544 41158 79901 10202 20178 30182 40202 52011 71052 87800 333 82703 84705;",
"08544099999","2010-07-16T12:00:00","4","40.9166666","-8.6333333","22.0","OVAR MACEDA, PO","FM-12","99999","V020","300,1,N,0040,1","00450,1,9,N","010000,1,N,1","+0216,1","+0180,1","10208,1","06,0000,9,1","5,1,06,1","2,1,06,1","03,1,+00180,1,07,1","04,1,+00450,1,08,1",,,"07,99,1,07,1,08,1,00150,1,00,1,00,1",,,,,"99999,9,10187,1","1,1,005,1,+999,9","02,1",,,"SYN110AAXX  16121 08544 11260 73004 10216 20180 30187 40208 51005 69911 70252 87800 333 83706 84815 555 59914 60007;","Q01  00002PRCP06"
"08544099999","2010-07-16T15:00:00","4","40.9166666","-8.6333333","22.0","OVAR MACEDA, PO","FM-12","99999","V020","360,1,N,0080,1","22000,1,9,N","010000,1,N,1","+0222,1","+0126,1","10207,1",,,,"03,1,+00600,1,08,1","02,1,+09000,1,00,1",,,"03,99,1,03,1,02,1,00800,1,00,1,04,1",,,,,"99999,9,10187,1","0,1,000,1,+999,9",,,,"SYN088AAXX  16151 08544 42560 33608 10222 20126 30187 40207 50000 83204 333 83820 82080 91113;",
"08544099999","2010-07-16T18:00:00","4","40.9166666","-8.6333333","22.0","OVAR MACEDA, PO","FM-12","99999","V020","350,1,N,0070,1","22000,1,9,N","010000,1,N,1","+0200,1","+0130,1","10205,1","12,0000,9,1",,,"03,1,+09000,1,00,1",,,,"03,99,1,00,1,00,1,99999,9,00,1,01,1",,,,"120,M,+0222,1","99999,9,10185,1","7,1,002,1,+999,9",,,"4,99,0130,9,999","SYN104AAXX  16181 08544 12960 33507 10200 20130 30185 40205 57002 69912 80001 333 10222 83080 91113 555 60007;","Q01  00002PRCP12"
"08544099999","2010-07-17T06:00:00","4","40.9166666","-8.6333333","22.0","OVAR MACEDA, PO","FM-12","99999","V020","020,1,N,0020,1","22000,1,9,N","005000,1,N,1","+0128,1","+0114,1","10208,1",,,,"03,1,+07500,1,00,1",,,,"03,99,1,00,1,00,1,99999,9,00,1,01,1","0564,9",,,"999,N,+0118,1","99999,9,10188,1","4,1,000,1,+999,9","10,1",,,"SYN110AAXX  17061 08544 31950 30202 10128 20114 30188 40208 54000 710// 80001 333 20118 50344 55094 83075 555 60002;",
"08544099999","2010-07-17T09:00:00","4","40.9166666","-8.6333333","22.0","OVAR MACEDA, PO","FM-12","99999","V020","350,1,N,0030,1","22000,1,9,N","010000,1,N,1","+0194,1","+0142,1","10210,1",,,,"00,1,+99999,9,99,9",,,,"00,99,1,00,1,00,1,99999,9,00,1,00,1",,,,,"99999,9,10190,1","0,1,002,1,+999,9",,,,"SYN060AAXX  17091 08544 42960 03503 10194 20142 30190 40210 50002;",
"08544099999","2010-07-17T12:00:00","4","40.9166666","-8.6333333","22.0","OVAR MACEDA, PO","FM-12","99999","V020","340,1,N,0060,1","22000,1,9,N","010000,1,N,1","+0216,1","+0131,1","10211,1",,,,"00,1,+99999,9,99,9",,,,"00,99,1,00,1,00,1,99999,9,00,1,00,1",,,,,"99999,9,10191,1","3,1,001,1,+999,9",,,"4,99,0100,9,999","SYN086AAXX  17121 08544 32960 03406 10216 20131 30191 40211 53001 333 91110 555 50004 60007;",
"08544099999","2010-07-17T15:00:00","4","40.9166666","-8.6333333","22.0","OVAR MACEDA, PO","FM-12","99999","V020","360,1,N,0090,1","22000,1,9,N","010000,1,N,1","+0220,1","+0147,1","10201,1",,,,"00,1,+99999,9,99,9",,,,"00,99,1,00,1,00,1,99999,9,00,1,00,1",,,,,"99999,9,10181,1","7,1,010,1,+999,9",,"0140,5",,"SYN076AAXX  17151 08544 42960 03609 10220 20147 30181 40201 57010 333 91014 91114;",
"08544099999","2010-07-17T18:00:00","4","40.9166666","-8.6333333","22.0","OVAR MACEDA, PO","FM-12","99999","V020","360,1,N,0080,1","22000,1,9,N","010000,1,N,1","+0202,1","+0150,1","10187,1",,,,"00,1,+99999,9,99,9",,,,"00,99,1,00,1,00,1,99999,9,00,1,00,1",,,,"120,M,+0236,1","99999,9,10167,1","7,1,014,1,+999,9",,,"4,99,0150,9,999","SYN086AAXX  17181 08544 32960 03608 10202 20150 30167 40187 57014 333 10236 91115 555 60007;",
"08544099999","2010-07-18T06:00:00","4","40.9166666","-8.6333333","22.0","OVAR MACEDA, PO","FM-12","99999","V020","999,9,C,0000,1","22000,1,9,N","004000,1,N,1","+0132,1","+0125,1","10182,1",,,,"00,1,+99999,9,99,9",,,,"00,99,1,00,1,00,1,99999,9,00,1,00,1","0816,9",,,"999,N,+0132,1","99999,9,10161,1","8,1,003,1,+999,9","10,1",,,"SYN098AAXX  18061 08544 31940 00000 10132 20125 30161 40182 58003 710// 333 20132 50374 55136 555 60002;",
"08544099999","2010-07-18T09:00:00","4","40.9166666","-8.6333333","22.0","OVAR MACEDA, PO","FM-12","99999","V020","260,1,N,0020,1","22000,1,9,N","010000,1,N,1","+0204,1","+0164,1","10191,1",,,,"02,1,+00240,1,07,1",,,,"02,99,1,02,1,06,1,00250,1,00,1,00,1",,,,,"99999,9,10171,1","3,1,010,1,+999,9",,,,"SYN076AAXX  18091 08544 42360 22602 10204 20164 30171 40191 53010 82600 333 82708;",
"08544099999","2010-07-18T12:00:00","4","40.9166666","-8.6333333","22.0","OVAR MACEDA, PO","FM-12","99999","V020","290,1,N,0050,1","22000,1,9,N","010000,1,N,1","+0242,1","+0169,1","10193,1",,,,"00,1,+99999,9,99,9",,,,"00,99,1,00,1,00,1,99999,9,00,1,00,1",,,,,"99999,9,10174,1","3,1,003,1,+999,9",,,,"SYN076AAXX  18121 08544 32960 02905 10242 20169 30174 40193 53003 555 50004 60007;",
"08544099999","2010-07-18T18:00:00","4","40.9166666","-8.6333333","22.0","OVAR MACEDA, PO","FM-12","99999","V020","310,1,N,0030,1","22000,1,9,N","010000,1,N,1","+0230,1","+0164,1","10184,1",,,,"02,1,+06000,1,00,1",,,,"02,99,1,00,1,00,1,99999,9,00,1,01,1",,,,"120,M,+0252,1","99999,9,10164,1","7,1,007,1,+999,9",,,,"SYN092AAXX  18181 08544 32960 23103 10230 20164 30164 40184 57007 80001 333 10252 82070 555 60007;",
"08544099999","2010-07-19T06:00:00","4","40.9166666","-8.6333333","22.0","OVAR MACEDA, PO","FM-12","99999","V020","200,1,N,0030,1","00300,1,9,N","007000,1,N,1","+0170,1","+0147,1","10189,1",,,,"04,1,+00120,1,07,1","06,1,+00300,1,08,1",,,"07,99,1,07,1,02,1,00150,1,00,1,00,1","0804,9",,,"999,N,+0150,1","99999,9,10169,1","2,1,001,1,+999,9","10,1",,,"SYN116AAXX  19061 08544 31257 72003 10170 20147 30169 40189 52001 710// 87200 333 20150 50274 55134 84704 86810 555 60002;",
"08544099999","2010-07-19T09:00:00","4","40.9166666","-8.6333333","22.0","OVAR MACEDA, PO","FM-12","99999","V020","320,1,N,0030,1","00210,1,C,N","007000,1,N,1","+0182,1","+0153,1","10200,1",,"2,1,03,1","2,1,03,1","01,1,+00240,1,07,1",,,,"07,99,1,07,1,02,1,00250,1,00,1,00,1",,,,,"99999,9,10180,1","2,1,011,1,+999,9","10,1",,,"SYN088AAXX  19091 08544 41357 73203 10182 20153 30180 40200 52011 71022 87200 333 81708 87815;",
"08544099999","2010-07-19T12:00:00","4","40.9166666","-8.6333333","22.0","OVAR MACEDA, PO","FM-12","99999","V020","310,1,N,0040,1","22000,1,9,N","010000,1,N,1","+0200,1","+0154,1","10198,1",,,,"02,1,+00270,1,07,1",,,,"02,99,1,02,1,06,1,00250,1,00,1,00,1",,,,,"99999,9,10178,1","6,1,002,1,+999,9",,,,"SYN092AAXX  19121 08544 32360 23104 10200 20154 30178 40198 56002 82600 333 82709 555 50004 60007;",
"08544099999","2010-07-19T15:00:00","4","40.9166666","-8.6333333","22.0","OVAR MACEDA, PO","FM-12","99999","V020","350,1,N,0060,1","22000,1,9,N","010000,1,N,1","+0218,1","+0165,1","10191,1",,,,"01,1,+00240,1,07,1",,,,"01,99,1,01,1,06,1,00250,1,00,1,00,1",,,,,"99999,9,10171,1","7,1,007,1,+999,9",,"0090,5",,"SYN088AAXX  19151 08544 42360 13506 10218 20165 30171 40191 57007 81600 333 81708 91009 91111;",
"08544099999","2010-07-19T18:00:00","4","40.9166666","-8.6333333","22.0","OVAR MACEDA, PO","FM-12","99999","V020","350,1,N,0060,1","22000,1,9,N","010000,1,N,1","+0200,1","+0158,1","10185,1",,,,"01,1,+00240,1,07,1",,,,"02,99,1,01,1,06,1,00250,1,00,1,01,1",,,,"120,M,+0222,1","99999,9,10165,1","7,1,006,1,+999,9",,"0100,5","4,99,0120,9,999","SYN104AAXX  19181 08544 32360 23506 10200 20158 30165 40185 57006 81601 333 10222 81708 91010 91112 555 60007;",
"08544099999","2010-07-20T06:00:00","4","40.9166666","-8.6333333","22.0","OVAR MACEDA, PO","FM-12","99999","V020","010,1,N,0030,1","22000,1,9,N","008000,1,N,1","+0150,1","+0140,1","10176,1",,,,"03,1,+00180,1,07,1",,,,"03,99,1,03,1,06,1,00150,1,00,1,00,1","0618,9",,,"999,N,+0148,1","99999,9,10156,1","7,1,005,1,+999,9","10,1",,,"SYN110AAXX  20061 08544 31258 30103 10150 20140 30156 40176 57005 710// 83600 333 20148 50244 55103 83706 555 60002;",
"08544099999","2010-07-20T09:00:00","4","40.9166666","-8.6333333","22.0","OVAR MACEDA, PO","FM-12","99999","V020","090,1,N,0050,1","22000,1,9,N","010000,1,N,1","+0202,1","+0141,1","10173,1",,,,"03,1,+00360,1,08,1",,,,"04,99,1,03,1,02,1,00450,1,03,1,00,1",,,,,"99999,9,10153,1","7,1,003,1,+999,9",,,,"SYN076AAXX  20091 08544 42460 40905 10202 20141 30153 40173 57003 83230 333 83812;",
"08544099999","2010-07-20T12:00:00","4","40.9166666","-8.6333333","22.0","OVAR MACEDA, PO","FM-12","99999","V020","350,1,N,0050,1","22000,1,9,N","010000,1,N,1","+0222,1","+0149,1","10171,1",,,,"02,1,+00360,1,08,1",,,,"03,99,1,02,1,02,1,00450,1,03,1,01,1",,,,,"99999,9,10151,1","0,1,002,1,+999,9",,,,"SYN092AAXX  20121 08544 32460 33505 10222 20149 30151 40171 50002 82231 333 82812 555 50004 60007;",
"08544099999","2010-07-20T15:00:00","4","40.9166666","-8.6333333","22.0","OVAR MACEDA, PO","FM-12","99999","V020","340,1,N,0060,1","22000,1,9,N","010000,1,N,1","+0222,1","+0186,1","10164,1",,,,"02,1,+00450,1,08,1",,,,"04,99,1,02,1,02,1,00450,1,03,1,01,1",,,,,"99999,9,10144,1","6,1,007,1,+999,9",,,,"SYN082AAXX  20151 08544 42460 43406 10222 20186 30144 40164 56007 82231 333 82815 83070;",
"08544099999","2010-07-20T18:00:00","4","40.9166666","-8.6333333","22.0","OVAR MACEDA, PO","FM-12","99999","V020","350,1,N,0030,1","00660,1,9,N","010000,1,N,1","+0188,1","+0171,1","10151,1",,,,"04,1,+00360,1,08,1","05,1,+00660,1,06,1",,,"07,99,1,06,1,08,1,00450,1,00,1,01,1",,,,"120,M,+0228,1","99999,9,10131,1","7,1,013,1,+999,9",,,,"SYN098AAXX  20181 08544 32460 73503 10188 20171 30131 40151 57013 86801 333 10228 84812 85622 555 60007;",
"08544099999","2010-07-21T06:00:00","4","40.9166666","-8.6333333","22.0","OVAR MACEDA, PO","FM-12","99999","V020","350,1,N,0040,1","00090,1,9,N","000300,1,N,1","+0160,1","+0154,1","10129,1","12,0000,9,1",,,"08,1,+00090,1,07,1",,,,"08,99,1,08,1,07,1,00075,1,99,9,99,9","0498,9",,,"999,N,+0156,1","99999,9,10109,1","7,1,022,1,+999,9","44,1",,,"SYN128AAXX  21061 08544 11103 83504 10160 20154 30109 40129 57022 69922 745// 887// 333 20156 50234 55083 88703 555 69922 90269 96645;","Q01+000452PRSWM1Q02  00002PRCP12"
"08544099999","2010-07-21T09:00:00","4","40.9166666","-8.6333333","22.0","OVAR MACEDA, PO","FM-12","99999","V020","360,1,N,0060,1","22000,1,9,N","010000,1,N,1","+0186,1","+0151,1","10138,1",,"4,1,03,1","2,1,03,1","02,1,+00150,1,07,1","04,1,+00450,1,08,1",,,"05,99,1,04,1,02,1,00150,1,00,1,01,1",,,,,"99999,9,10118,1","2,1,009,1,+999,9","02,1","0110,5",,"SYN100AAXX  21091 08544 41260 53606 10186 20151 30118 40138 52009 70242 84201 333 82705 84815 91011 91111;",
"08544099999","2010-07-21T12:00:00","4","40.9166666","-8.6333333","22.0","OVAR MACEDA, PO","FM-12","99999","V020","360,1,N,0090,1","06000,1,9,N","010000,1,N,1","+0210,1","+0143,1","10139,1",,"4,1,06,1","2,1,06,1","02,1,+00450,1,08,1","04,1,+06000,1,00,1",,,"05,99,1,02,1,02,1,00450,1,03,1,04,1",,,,,"99999,9,10119,1","3,1,001,1,+999,9","02,1",,"4,99,0130,9,999","SYN115AAXX  21121 08544 31460 53609 10210 20143 30119 40139 53001 70242 82234 333 82815 84070 9113 91113 555 59924 60007;",
"08544099999","2010-07-21T15:00:00","4","40.9166666","-8.6333333","22.0","OVAR MACEDA, PO","FM-12","99999","V020","350,1,N,0090,1","22000,1,9,N","010000,1,N,1","+0202,1","+0141,1","10135,1",,,,"01,1,+00450,1,08,1","04,1,+06000,1,00,1",,,"04,99,1,01,1,01,1,00450,1,00,1,01,1",,,,,"99999,9,10118,1","5,1,001,1,+999,9",,"0140,5",,"SYN094AAXX  21151 08544 42460 43509 10202 20141 30118 40135 55001 81101 333 81815 84070 91014 91114;",
"08544099999","2010-07-22T06:00:00","4","40.9166666","-8.6333333","22.0","OVAR MACEDA, PO","FM-12","99999","V020","999,9,C,0000,1","22000,1,9,N","005000,1,N,1","+0112,1","+0107,1","10148,1",,,,"01,1,+00090,1,07,1",,,,"02,99,1,01,1,06,1,00150,1,00,1,01,1","0642,9",,,"999,N,+0114,1","99999,9,10127,1","2,1,002,1,+999,9","10,1",,,"SYN116AAXX  22061 08544 12250 20000 10112 20107 30127 40148 52002 710// 81601 333 20114 50354 50354 55107 81703 555 60002;",
"08544099999","2010-07-22T09:00:00","4","40.9166666","-8.6333333","22.0","OVAR MACEDA, PO","FM-12","99999","V020","360,1,N,0060,1","22000,1,9,N","010000,1,N,1","+0188,1","+0125,1","10158,1",,,,"01,1,+07500,1,00,1",,,,"01,99,1,00,1,00,1,99999,9,00,1,01,1",,,,,"99999,9,10138,1","2,1,011,1,+999,9",,"0090,5",,"SYN088AAXX  22091 08544 42960 13606 10188 20125 30138 40158 52011 80001 333 81075 91009 91109;",
"08544099999","2010-07-22T12:00:00","4","40.9166666","-8.6333333","22.0","OVAR MACEDA, PO","FM-12","99999","V020","360,1,N,0090,1","22000,1,9,N","010000,1,N,1","+0204,1","+0136,1","10162,1",,,,"01,1,+00540,1,08,1","03,1,+07500,1,00,1",,,"03,99,1,01,1,01,1,00450,1,00,1,04,1",,,,,"99999,9,10142,1","1,1,004,1,+999,9",,"0140,5","4,99,0160,9,999","SYN110AAXX  22121 08544 32460 33609 10204 20136 30142 40162 51004 81104 333 81818 83075 91014 91116 555 50004 60007;",
"08544099999","2010-07-22T15:00:00","4","40.9166666","-8.6333333","22.0","OVAR MACEDA, PO","FM-12","99999","V020","350,1,N,0100,1","22000,1,9,N","010000,1,N,1","+0200,1","+0138,1","10160,1",,,,"03,1,+07500,1,00,1",,,,"03,99,1,00,1,00,1,99999,9,00,1,01,1",,,,,"99999,9,10140,1","5,1,002,1,+999,9",,"0160,5",,"SYN088AAXX  22151 08544 42960 33510 10200 20138 30140 40160 55002 80001 333 83075 91016 91119;",
"08544099999","2010-07-22T18:00:00","4","40.9166666","-8.6333333","22.0","OVAR MACEDA, PO","FM-12","99999","V020","360,1,N,0090,1","22000,1,9,N","010000,1,N,1","+0188,1","+0131,1","10159,1",,,,"04,1,+07500,1,00,1",,,,"04,99,1,00,1,00,1,99999,9,00,1,01,1",,,,"120,M,+0208,1","99999,9,10138,1","8,1,002,1,+999,9",,"0140,5","4,99,0180,9,999","SYN104AAXX  22181 08544 32960 43609 10188 20131 30138 40159 58002 80001 333 10208 84075 91014 91118 555 60007;",
"08544099999","2010-07-23T06:00:00","4","40.9166666","-8.6333333","22.0","OVAR MACEDA, PO","FM-12","99999","V020","020,1,N,0020,1","22000,1,9,N","010000,1,N,1","+0130,1","+0112,1","10189,1",,,,"00,1,+99999,9,99,9",,,,"00,99,1,00,1,00,1,99999,9,00,1,00,1","0798,9",,,"999,N,+0124,1","99999,9,10168,1","2,1,007,1,+999,9","00,1",,,"SYN098AAXX  23061 08544 31960 00202 10130 20112 30168 40189 52007 700// 333 20124 50444 55133 555 60002;",
"08544099999","2010-07-23T09:00:00","4","40.9166666","-8.6333333","22.0","OVAR MACEDA, PO","FM-12","99999","V020","340,1,N,0040,1","22000,1,9,N","010000,1,N,1","+0196,1","+0130,1","10199,1",,,,"00,1,+99999,9,99,9",,,,"00,99,1,00,1,00,1,99999,9,00,1,00,1",,,,,"99999,9,10179,1","1,1,009,1,+999,9",,,,"SYN060AAXX  23091 08544 42960 03404 10196 20130 30179 40199 51009;",
"08544099999","2010-07-23T12:00:00","4","40.9166666","-8.6333333","22.0","OVAR MACEDA, PO","FM-12","99999","V020","360,1,N,0070,1","22000,1,9,N","010000,1,N,1","+0222,1","+0127,1","10204,1",,,,"00,1,+99999,9,99,9",,,,"00,99,1,00,1,00,1,99999,9,00,1,00,1",,,,,"99999,9,10184,1","2,1,005,1,+999,9",,,,"SYN076AAXX  23121 08544 32960 03607 10222 20127 30184 40204 52005 555 50004 60007;",
"08544099999","2010-07-23T15:00:00","4","40.9166666","-8.6333333","22.0","OVAR MACEDA, PO","FM-12","99999","V020","360,1,N,0090,1","22000,1,9,N","010000,1,N,1","+0220,1","+0128,1","10203,1",,,,"01,1,+07500,1,00,1",,,,"01,99,1,00,1,00,1,99999,9,00,1,01,1",,,,,"99999,9,10183,1","8,1,001,1,+999,9",,"0150,5",,"SYN088AAXX  23151 08544 42960 13609 10220 20128 30183 40203 58001 80001 333 81075 91015 91115;",
"08544099999","2010-07-23T18:00:00","4","40.9166666","-8.6333333","22.0","OVAR MACEDA, PO","FM-12","99999","V020","360,1,N,0090,1","22000,1,9,N","010000,1,N,1","+0194,1","+0134,1","10198,1",,,,"00,1,+99999,9,99,9",,,,"00,99,1,00,1,00,1,99999,9,00,1,00,1",,,,"120,M,+0236,1","99999,9,10177,1","7,1,005,1,+999,9",,,"4,99,0150,9,999","SYN086AAXX  23181 08544 32960 03609 10194 20134 30177 40198 57005 333 10236 91115 555 60007;",
"08544099999","2010-07-24T06:00:00","4","40.9166666","-8.6333333","22.0","OVAR MACEDA, PO","FM-12","99999","V020","999,9,C,0000,1","22000,1,9,N","010000,1,N,1","+0114,1","+0110,1","10207,1",,,,"05,1,+06000,1,00,1",,,,"99,99,9,00,1,00,1,99999,9,00,1,99,9","0810,9",,,"999,N,+0114,1","99999,9,10186,1","7,1,002,1,+999,9","00,1",,,"SYN110AAXX  24061 08544 31960 00000 10114 20110 30186 40207 57002 700// 80001 333 20114 50464 55135 85070 555 60002;","Q01+000002SCOTCV"
"08544099999","2010-07-24T09:00:00","4","40.9166666","-8.6333333","22.0","OVAR MACEDA, PO","FM-12","99999","V020","350,1,N,0020,1","22000,1,9,N","010000,1,N,1","+0208,1","+0154,1","10212,1",,,,"01,1,+03000,1,03,1",,,,"02,99,1,01,1,00,1,99999,9,03,1,01,1",,,,,"99999,9,10192,1","2,1,006,1,+999,9",,,,"SYN076AAXX  24091 08544 42960 23502 10208 20154 30192 40212 52006 81031 333 81360;",
"08544099999","2010-07-24T12:00:00","4","40.9166666","-8.6333333","22.0","OVAR MACEDA, PO","FM-12","99999","V020","360,1,N,0030,1","22000,1,9,N","010000,1,N,1","+0264,1","+0137,1","10205,1",,,,"01,1,+00900,1,08,1",,,,"02,99,1,01,1,02,1,00800,1,00,1,01,1",,,,,"99999,9,10186,1","7,1,006,1,+999,9",,,,"SYN092AAXX  24121 08544 32560 23603 10264 20137 30186 40205 57006 81201 333 81830 555 50004 60007;",
"08544099999","2010-07-24T15:00:00","4","40.9166666","-8.6333333","22.0","OVAR MACEDA, PO","FM-12","99999","V020","360,1,N,0070,1","22000,1,9,N","010000,1,N,1","+0244,1","+0142,1","10198,1",,,,"00,1,+99999,9,99,9",,,,"00,99,1,00,1,00,1,99999,9,00,1,00,1",,,,,"99999,9,10178,1","7,1,008,1,+999,9",,"0110,5",,"SYN076AAXX  24151 08544 42960 03607 10244 20142 30178 40198 57008 333 91011 91112;",
"08544099999","2010-07-24T18:00:00","4","40.9166666","-8.6333333","22.0","OVAR MACEDA, PO","FM-12","99999","V020","360,1,N,0060,1","22000,1,9,N","010000,1,N,1","+0208,1","+0143,1","10191,1",,,,"01,1,+07500,1,00,1",,,,"01,99,1,00,1,00,1,99999,9,00,1,01,1",,,,"120,M,+0272,1","99999,9,10171,1","6,1,007,1,+999,9",,"0090,5","4,99,0120,9,999","SYN104AAXX  24181 08544 32960 13606 10208 20143 30171 40191 56007 80001 333 10272 81075 91009 91112 555 60007;",
"08544099999","2010-07-25T06:00:00","4","40.9166666","-8.6333333","22.0","OVAR MACEDA, PO","FM-12","99999","V020","999,9,C,0000,1","22000,1,9,N","010000,1,N,1","+0128,1","+0121,1","10170,1",,,,"00,1,+99999,9,99,9",,,,"00,99,1,00,1,00,1,99999,9,00,1,00,1","0762,9",,,"999,N,+0126,1","99999,9,10149,1","7,1,009,1,+999,9","00,1",,,"SYN098AAXX  25061 08544 31960 00000 10128 20121 30149 40170 57009 700// 333 20126 50414 55127 555 60002;",
"08544099999","2010-07-25T09:00:00","4","40.9166666","-8.6333333","22.0","OVAR MACEDA, PO","FM-12","99999","V020","999,9,C,0000,1","22000,1,9,N","010000,1,N,1","+0236,1","+0165,1","10173,1",,,,"00,1,+99999,9,99,9",,,,"00,99,1,00,1,00,1,99999,9,00,1,00,1",,,,,"99999,9,10153,1","1,1,004,1,+999,9",,,,"SYN060AAXX  25091 08544 42960 00000 10236 20165 30153 40173 51004;",
"08544099999","2010-07-25T12:00:00","4","40.9166666","-8.6333333","22.0","OVAR MACEDA, PO","FM-12","99999","V020","350,1,N,0040,1","22000,1,9,N","010000,1,N,1","+0268,1","+0126,1","10166,1",,,,"00,1,+99999,9,99,9",,,,"00,99,1,00,1,00,1,99999,9,00,1,00,1",,,,,"99999,9,10147,1","7,1,006,1,+999,9",,,,"SYN076AAXX  25121 08544 32960 03504 10268 20126 30147 40166 57006 555 50004 60007;",
"08544099999","2010-07-25T15:00:00","4","40.9166666","-8.6333333","22.0","OVAR MACEDA, PO","FM-12","99999","V020","360,1,N,0060,1","22000,1,9,N","010000,1,N,1","+0278,1","+0127,1","10155,1",,,,"00,1,+99999,9,99,9",,,,"00,99,1,00,1,00,1,99999,9,00,1,00,1",,,,,"99999,9,10136,1","7,1,011,1,+999,9",,"0100,5",,"SYN076AAXX  25151 08544 42960 03606 10278 20127 30136 40155 57011 333 91010 91111;",
"08544099999","2010-07-25T18:00:00","4","40.9166666","-8.6333333","22.0","OVAR MACEDA, PO","FM-12","99999","V020","010,1,N,0060,1","22000,1,9,N","010000,1,N,1","+0254,1","+0154,1","10142,1",,,,"00,1,+99999,9,99,9",,,,"00,99,1,00,1,00,1,99999,9,00,1,00,1",,,,"120,M,+0294,1","99999,9,10122,1","7,1,014,1,+999,9",,,"4,99,0130,9,999","SYN086AAXX  25181 08544 32960 00106 10254 20154 30122 40142 57014 333 10294 91113 555 60007;",
"08544099999","2010-07-26T06:00:00","4","40.9166666","-8.6333333","22.0","OVAR MACEDA, PO","FM-12","99999","V020","050,1,N,0010,1","22000,1,9,N","010000,1,N,1","+0250,1","+0083,1","10130,1",,,,"00,1,+99999,9,99,9",,,,"00,99,1,00,1,00,1,99999,9,00,1,00,1","0798,9",,,"999,N,+0170,1","99999,9,10111,1","7,1,011,1,+999,9",,,,"SYN092AAXX  26061 08544 32960 00501 10250 20083 30111 40130 57011 333 20170 50674 55133 555 60002;",
"08544099999","2010-07-26T09:00:00","4","40.9166666","-8.6333333","22.0","OVAR MACEDA, PO","FM-12","99999","V020","080,1,N,0030,1","22000,1,9,N","010000,1,N,1","+0294,1","+0116,1","10137,1",,,,"00,1,+99999,9,99,9",,,,"00,99,1,00,1,00,1,99999,9,00,1,00,1",,,,,"99999,9,10117,1","0,1,006,1,+999,9",,"0080,5",,"SYN076AAXX  26091 08544 42960 00803 10294 20116 30117 40137 50006 333 91008 91112;",
"08544099999","2010-07-26T12:00:00","4","40.9166666","-8.6333333","22.0","OVAR MACEDA, PO","FM-12","99999","V020","040,1,N,0050,1","22000,1,9,N","010000,1,N,1","+0340,1","+0126,1","10136,1",,,,"00,1,+99999,9,99,9",,,,"00,99,1,00,1,00,1,99999,9,00,1,00,1",,,,,"99999,9,10117,1","0,1,000,1,+999,9",,"0090,5",,"SYN092AAXX  26121 08544 32960 00405 10340 20126 30117 40136 50000 333 91009 91109 555 50004 60007;",
"08544099999","2010-07-26T15:00:00","4","40.9166666","-8.6333333","22.0","OVAR MACEDA, PO","FM-12","99999","V020","360,1,N,0060,1","22000,1,9,N","010000,1,N,1","+0290,1","+0148,1","10126,1",,,,"00,1,+99999,9,99,9",,,,"00,99,1,00,1,00,1,99999,9,00,1,00,1",,,,,"99999,9,10106,1","7,1,011,1,+999,9",,,,"SYN070AAXX  26151 08544 42960 03606 10290 20148 30106 40126 57011 333 91110;",
"08544099999","2010-07-26T18:00:00","4","40.9166666","-8.6333333","22.0","OVAR MACEDA, PO","FM-12","99999","V020","010,1,N,0070,1","22000,1,9,N","010000,1,N,1","+0264,1","+0148,1","10113,1",,,,"00,1,+99999,9,99,9",,,,"00,99,1,00,1,00,1,99999,9,00,1,00,1",,,,"120,M,+0364,1","99999,9,10093,1","7,1,013,1,+999,9",,,"4,99,0130,9,999","SYN086AAXX  26181 08544 32960 00107 10264 20148 30093 40113 57013 333 10364 91113 555 60007;",
"08544099999","2010-07-27T06:00:00","4","40.9166666","-8.6333333","22.0","OVAR MACEDA, PO","FM-12","99999","V020","999,9,C,0000,1","22000,1,9,N","002000,1,N,1","+0250,1","+0127,1","10121,1",,,,"00,1,+99999,9,99,9",,,,"00,99,1,00,1,00,1,99999,9,00,1,00,1","0738,9",,,"999,N,+0172,1","99999,9,10102,1","4,1,000,1,+999,9","04,1",,,"SYN098AAXX  27061 08544 31920 00000 10250 20127 30102 40121 54000 704// 333 20172 51074 55123 555 60002;",
"08544099999","2010-07-27T09:00:00","4","40.9166666","-8.6333333","22.0","OVAR MACEDA, PO","FM-12","99999","V020","060,1,N,0020,1","22000,1,9,N","003000,1,N,1","+0300,1","+0149,1","10129,1",,"0,1,03,1","0,1,03,1","00,1,+99999,9,99,9",,,,"00,99,1,00,1,00,1,99999,9,00,1,00,1",,,,,"99999,9,10109,1","3,1,007,1,+999,9","04,1",,,"SYN066AAXX  27091 08544 41930 00602 10300 20149 30109 40129 53007 70400;",
"08544099999","2010-07-27T12:00:00","4","40.9166666","-8.6333333","22.0","OVAR MACEDA, PO","FM-12","99999","V020","310,1,N,0040,1","22000,1,9,N","004000,1,N,1","+0356,1","+0150,1","10130,1",,"0,1,06,1","0,1,06,1","00,1,+99999,9,99,9",,,,"00,99,1,00,1,00,1,99999,9,00,1,00,1",,,,,"99999,9,10111,1","2,1,002,1,+999,9","04,1",,,"SYN082AAXX  27121 08544 31940 03104 10356 20150 30111 40130 52002 70400 555 50004 60007;",
"08544099999","2010-07-27T15:00:00","4","40.9166666","-8.6333333","22.0","OVAR MACEDA, PO","FM-12","99999","V020","010,1,N,0060,1","22000,1,9,N","008000,1,N,1","+0314,1","+0144,1","10131,1",,"0,1,03,1","0,1,03,1","00,1,+99999,9,99,9",,,,"00,99,1,00,1,00,1,99999,9,00,1,00,1",,,,,"99999,9,10112,1","3,1,001,1,+999,9","04,1",,,"SYN066AAXX  27151 08544 41958 00106 10314 20144 30112 40131 53001 70400;",
"08544099999","2010-07-27T18:00:00","4","40.9166666","-8.6333333","22.0","OVAR MACEDA, PO","FM-12","99999","V020","010,1,N,0050,1","22000,1,9,N","008000,1,N,1","+0300,1","+0136,1","10128,1",,"0,1,06,1","0,1,06,1","00,1,+99999,9,99,9",,,,"00,99,1,00,1,00,1,99999,9,00,1,00,1",,,,"120,M,+0374,1","99999,9,10109,1","7,1,003,1,+999,9","04,1",,"4,99,0090,9,999","SYN092AAXX  27181 08544 31958 00105 10300 20136 30109 40128 57003 70400 333 10374 91109 555 60007;",
"08544099999","2010-07-28T06:00:00","4","40.9166666","-8.6333333","22.0","OVAR MACEDA, PO","FM-12","99999","V020","200,1,N,0010,1","22000,1,9,N","002000,1,N,1","+0166,1","+0147,1","10149,1",,,,"00,1,+99999,9,99,9",,,,"00,99,1,00,1,00,1,99999,9,00,1,00,1","0738,9",,,"999,N,+0166,1","99999,9,10129,1","3,1,003,1,+999,9","04,1",,,"SYN098AAXX  28061 08544 31920 02001 10166 20147 30129 40149 53003 704// 333 20166 50954 55123 555 60007;",
"08544099999","2010-07-28T09:00:00","4","40.9166666","-8.6333333","22.0","OVAR MACEDA, PO","FM-12","99999","V020","140,1,N,0020,1","22000,1,9,N","001200,1,N,1","+0228,1","+0170,1","10166,1",,"0,1,03,1","0,1,03,1","00,1,+99999,9,99,9",,,,"00,99,1,00,1,00,1,99999,9,00,1,00,1",,,,,"99999,9,10146,1","2,1,017,1,+999,9","04,1",,,"SYN066AAXX  28091 08544 41912 01402 10228 20170 30146 40166 52017 70400;",
"08544099999","2010-07-28T12:00:00","4","40.9166666","-8.6333333","22.0","OVAR MACEDA, PO","FM-12","99999","V020","330,1,N,0030,1","22000,1,9,N","008000,1,N,1","+0298,1","+0165,1","10160,1",,"0,1,06,1","0,1,06,1","00,1,+99999,9,99,9",,,,"00,99,1,00,1,00,1,99999,9,00,1,00,1",,,,,"99999,9,10141,1","7,1,005,1,+999,9","04,1",,,"SYN082AAXX  28120 08544 31958 03303 10298 20165 30141 40160 57005 70400 555 50004 60007;",
"08544099999","2010-07-28T15:00:00","4","40.9166666","-8.6333333","22.0","OVAR MACEDA, PO","FM-12","99999","V020","320,1,N,0030,1","22000,1,9,N","008000,1,N,1","+0320,1","+0144,1","10155,1",,"0,1,03,1","0,1,03,1","00,1,+99999,9,99,9",,,,"00,99,1,00,1,00,1,99999,9,00,1,00,1",,,,,"99999,9,10136,1","8,1,005,1,+999,9","04,1",,,"SYN066AAXX  28151 08544 41958 03203 10320 20144 30136 40155 58005 70400;",
"08544099999","2010-07-28T18:00:00","4","40.9166666","-8.6333333","22.0","OVAR MACEDA, PO","FM-12","99999","V020","310,1,N,0030,1","22000,1,9,N","008000,1,N,1","+0280,1","+0188,1","10152,1",,"0,1,06,1","0,1,06,1","00,1,+99999,9,99,9",,,,"00,99,1,00,1,00,1,99999,9,00,1,00,1",,,,"120,M,+0326,1","99999,9,10132,1","5,1,004,1,+999,9","04,1",,,"SYN086AAXX  28181 08544 31958 03103 10280 20188 30132 40152 55004 70400 333 10326 555 60007;",
"08544099999","2010-07-29T06:00:00","4","40.9166666","-8.6333333","22.0","OVAR MACEDA, PO","FM-12","99999","V020","999,9,C,0000,1","22000,1,9,N","003000,1,N,1","+0160,1","+0150,1","10147,1",,,,"01,1,+07500,1,00,1",,,,"01,99,1,00,1,00,1,99999,9,00,1,01,1","0666,9",,,"999,N,+0142,1","99999,9,10127,1","7,1,003,1,+999,9","10,1",,,"SYN110AAXX  29061 08544 31930 10000 10160 20150 30127 40147 57003 710// 80001 333 20142 50704 55111 81075 555 60002;",
"08544099999","2010-07-29T09:00:00","4","40.9166666","-8.6333333","22.0","OVAR MACEDA, PO","FM-12","99999","V020","310,1,N,0030,1","22000,1,9,N","006000,1,N,1","+0200,1","+0176,1","99999,9",,,,,,,,"02,99,1,99,9,99,9,00075,1,99,9,99,9",,,,,"99999,9,10133,1",,,,,"SYN081AAXX  29091 08544 41156 23103 10200 20176 30133 4152 53006 70400 82600 333 82703;",
"08544099999","2010-07-29T12:00:00","4","40.9166666","-8.6333333","22.0","OVAR MACEDA, PO","FM-12","99999","V020","330,1,N,0040,1","22000,1,9,N","007000,1,N,1","+0248,1","+0176,1","10149,1",,"0,1,06,1","0,1,06,1","02,1,+00750,1,08,1",,,,"02,99,1,02,1,02,1,00800,1,00,1,00,1",,,,,"99999,9,10129,1","7,1,004,1,+999,9","04,1",,,"SYN098AAXX  29121 08544 31557 23304 10248 20176 30129 40149 57004 70400 82200 333 82825 555 50004 60007;",
"08544099999","2010-07-29T15:00:00","4","40.9166666","-8.6333333","22.0","OVAR MACEDA, PO","FM-12","99999","V020","340,1,N,0030,1","22000,1,9,N","010000,1,N,1","+0250,1","+0175,1","10144,1",,,,"01,1,+04200,1,03,1",,,,"03,99,1,01,1,00,1,99999,9,03,1,01,1",,,,,"99999,9,10124,1","8,1,005,1,+999,9",,,,"SYN082AAXX  29151 08544 42960 33403 10250 20175 30124 40144 58005 81031 333 81364 83074;",
"08544099999","2010-07-29T18:00:00","4","40.9166666","-8.6333333","22.0","OVAR MACEDA, PO","FM-12","99999","V020","340,1,N,0040,1","22000,1,9,N","010000,1,N,1","+0230,1","+0168,1","10133,1",,,,"01,1,+07200,1,00,1",,,,"01,99,1,00,1,00,1,99999,9,00,1,01,1",,,,"120,M,+0258,1","99999,9,10113,1","7,1,009,1,+999,9",,,,"SYN092AAXX  29181 08544 32960 13404 10230 20168 30113 40133 57009 80001 333 10258 81074 555 60007;",
"08544099999","2010-07-30T06:00:00","4","40.9166666","-8.6333333","22.0","OVAR MACEDA, PO","FM-12","99999","V020","999,9,C,0000,1","22000,1,9,N","001400,1,N,1","+0158,1","+0152,1","10126,1",,,,"00,1,+99999,9,99,9",,,,"00,99,1,00,1,00,1,99999,9,00,1,00,1","0774,9",,,"999,N,+0156,1","99999,9,10106,1","6,1,002,1,+999,9","10,1",,,"SYN104AAXX  30061 08544 31914 00000 10158 20152 30106 40126 56002 710// 333 20156 50214 55129 96004 555 60002;",
"08544099999","2010-07-30T09:00:00","4","40.9166666","-8.6333333","22.0","OVAR MACEDA, PO","FM-12","99999","V020","270,1,N,0020,1","22000,1,9,N","005000,1,N,1","+0200,1","+0176,1","10133,1",,"0,1,03,1","0,1,03,1","03,1,+00060,1,07,1",,,,"03,99,1,03,1,06,1,00075,1,00,1,00,1",,,,,"99999,9,10113,1","0,1,007,1,+999,9","10,1",,,"SYN082AAXX  30091 08544 42150 32702 10200 20176 30113 40133 50007 71000 83600 333 83702;",
"08544099999","2010-07-30T12:00:00","4","40.9166666","-8.6333333","22.0","OVAR MACEDA, PO","FM-12","99999","V020","330,1,N,0040,1","22000,1,9,N","010000,1,N,1","+0220,1","+0174,1","10132,1",,,,"02,1,+00090,1,07,1",,,,"02,99,1,02,1,06,1,00075,1,00,1,00,1",,,,,"99999,9,10112,1","8,1,001,1,+999,9",,,,"SYN092AAXX  30121 08544 32160 23304 10220 20174 30112 40132 58001 82600 333 82703 555 50004 60007;",
"08544099999","2010-07-30T15:00:00","4","40.9166666","-8.6333333","22.0","OVAR MACEDA, PO","FM-12","99999","V020","350,1,N,0040,1","22000,1,9,N","010000,1,N,1","+0260,1","+0169,1","10126,1",,,,"00,1,+99999,9,99,9",,,,"00,99,1,00,1,00,1,99999,9,00,1,00,1",,,,,"99999,9,10106,1","6,1,006,1,+999,9",,,,"SYN060AAXX  30151 08544 42960 03504 10260 20169 30106 40126 56006;",
"08544099999","2010-07-30T18:00:00","4","40.9166666","-8.6333333","22.0","OVAR MACEDA, PO","FM-12","99999","V020","330,1,N,0030,1","22000,1,9,N","010000,1,N,1","+0240,1","+0176,1","10117,1",,,,"00,1,+99999,9,99,9",,,,"00,99,1,00,1,00,1,99999,9,00,1,00,1",,,,"120,M,+0270,1","99999,9,10098,1","7,1,008,1,+999,9",,,,"SYN080AAXX  30181 08544 32960 03303 10240 20176 30098 40117 57008 333 10270 555 60007;",
"08544099999","2010-07-31T06:00:00","4","40.9166666","-8.6333333","22.0","OVAR MACEDA, PO","FM-12","99999","V020","180,1,N,0040,1","00090,1,9,N","001200,1,N,1","+0176,1","+0173,1","10119,1",,,,"03,1,+00030,1,07,1","07,1,+00090,1,07,1",,,"08,99,1,08,1,06,1,00025,1,99,9,99,9","0786,9",,,"999,N,+0174,1","99999,9,10099,1","8,1,002,1,+999,9","10,1",,,"SYN116AAXX  31061 08544 31012 81804 10176 20173 30099 40119 58002 710// 886// 333 20174 50284 55131 83701 87703 555 60002;",
"08544099999","2010-07-31T09:00:00","4","40.9166666","-8.6333333","22.0","OVAR MACEDA, PO","FM-12","99999","V020","160,1,N,0040,1","00030,1,C,N","002000,1,N,1","+0188,1","+0169,1","10130,1",,"2,1,03,1","2,1,03,1","01,1,+00030,1,07,1",,,,"08,99,1,08,1,06,1,00025,1,99,9,99,9",,,,,"99999,9,10110,1","2,1,011,1,+999,9","10,1",,,"SYN088AAXX  31091 08544 41020 81604 10188 20169 30110 40130 52011 71022 886// 333 81701 88703;",
"08544099999","2010-07-31T12:00:00","4","40.9166666","-8.6333333","22.0","OVAR MACEDA, PO","FM-12","99999","V020","220,1,N,0040,1","00180,1,C,N","002500,1,N,1","+0212,1","+0179,1","10136,1",,"2,1,06,1","2,1,06,1","03,1,+00090,1,07,1","08,1,+00180,1,07,1",,,"08,99,1,99,9,99,9,00075,1,99,9,99,9",,,,,"99999,9,10116,1","0,1,006,1,+999,9","10,1",,,"SYN103AAXX  31121 08544 31125 82204 10212 20179 30116 40136 50006 71022 86// 333 83703 88706 555 50004 60007;",
"08544099999","2010-07-31T15:00:00","4","40.9166666","-8.6333333","22.0","OVAR MACEDA, PO","FM-12","99999","V020","240,1,N,0050,1","22000,1,9,N","010000,1,N,1","+0216,1","+0170,1","10139,1",,,,"01,1,+00150,1,07,1",,,,"04,99,1,02,1,02,1,00150,1,08,1,04,1",,,,,"99999,9,10119,1","3,1,003,1,+999,9",,"0070,5",,"SYN088AAXX  31151 08544 42260 42405 10216 20170 30119 40139 53003 82284 333 81705 91007 91110;",
"08544099999","2010-07-31T18:00:00","4","40.9166666","-8.6333333","22.0","OVAR MACEDA, PO","FM-12","99999","V020","290,1,N,0030,1","22000,1,9,N","010000,1,N,1","+0216,1","+0175,1","10133,1",,,,"01,1,+00150,1,07,1",,,,"02,99,1,02,1,02,1,00150,1,00,1,00,1",,,,"120,M,+0250,1","99999,9,10113,1","7,1,006,1,+999,9",,,,"SYN092AAXX  31181 08544 32260 22903 10216 20175 30113 40133 57006 82200 333 10250 81705 555 60007;",
"08544099999","2010-08-01T06:00:00","4","40.9166666","-8.6333333","22.0","OVAR MACEDA, PO","FM-12","99999","V020","999,9,C,0000,1","00090,1,9,N","001500,1,N,1","+0184,1","+0168,1","10142,1",,,,"08,1,+00090,1,07,1",,,,"08,99,1,08,1,06,1,00075,1,99,9,99,9","0432,9",,,"999,N,+0176,1","99999,9,10122,1","4,1,000,1,+999,9","10,1",,,"SYN110AAXX  01061 08544 31115 80000 10184 20168 30122 40142 54001 710// 886// 333 20176 50224 55072 88703 555 60002;",
"08544099999","2010-08-01T09:00:00","4","40.9166666","-8.6333333","22.0","OVAR MACEDA, PO","FM-12","99999","V020","340,1,N,0020,1","00090,1,9,N","001500,1,N,1","+0188,1","+0169,1","10153,1",,"5,1,03,1","2,1,03,1","08,1,+00090,1,07,1",,,,"08,99,1,08,1,06,1,00075,1,99,9,99,9",,,,,"99999,9,10133,1","1,1,011,1,+999,9","50,1",,,"SYN088AAXX  01091 08544 41115 83402 10188 20169 30133 40153 51011 75052 886// 333 88703 96010;",
"08544099999","2010-08-01T12:00:00","4","40.9166666","-8.6333333","22.0","OVAR MACEDA, PO","FM-12","99999","V020","320,1,N,0030,1","00090,1,9,N","002200,1,N,1","+0198,1","+0170,1","10159,1","06,0000,2,1","5,1,06,1","2,1,06,1","05,1,+00090,1,07,1",,,,"08,99,1,08,1,06,1,00075,1,99,9,99,9",,,,,"99999,9,10139,1","1,1,006,1,+999,9","10,1",,,"SYN114AAXX  01121 08544 11122 83203 10198 20170 30139 40159 51006 69901 71052 886// 333 85703 333 88706 555 59904 69907;",
"08544099999","2010-08-01T15:00:00","4","40.9166666","-8.6333333","22.0","OVAR MACEDA, PO","FM-12","99999","V020","350,1,N,0050,1","22000,1,9,N","010000,1,N,1","+0216,1","+0160,1","10156,1",,,,"04,1,+09000,1,00,1",,,,"04,99,1,00,1,00,1,99999,9,00,1,01,1",,,,,"99999,9,10136,1","8,1,003,1,+999,9",,"0080,5",,"SYN088AAXX  01151 08544 42960 43505 10216 20160 30136 40156 58003 80001 333 84080 91008 91109;",
"08544099999","2010-08-01T18:00:00","4","40.9166666","-8.6333333","22.0","OVAR MACEDA, PO","FM-12","99999","V020","350,1,N,0070,1","22000,1,9,N","010000,1,N,1","+0206,1","+0158,1","10148,1","12,0000,2,1",,,"03,1,+09000,1,00,1",,,,"03,99,1,00,1,00,1,99999,9,00,1,01,1",,,,"120,M,+0224,1","99999,9,10128,1","7,1,008,1,+999,9",,"0110,5","4,99,0120,9,999","SYN110AAXX  01181 08544 12960 33507 10206 20158 30128 40148 57008 69902 80001 333 10224 83080 91011 91112 555 60007;",
"08544099999","2010-08-02T06:00:00","4","40.9166666","-8.6333333","22.0","OVAR MACEDA, PO","FM-12","99999","V020","999,9,C,0000,1","22000,1,9,N","001500,1,N,1","+0118,1","+0111,1","10162,1",,,,"03,1,+00030,1,07,1",,,,"04,99,1,04,1,06,1,00025,1,00,1,00,1","0414,9",,,"999,N,+0118,1","99999,9,10141,1","3,1,002,1,+999,9","10,1",,,"SYN110AAXX  02061 08544 31015 40000 10118 20111 30141 40162 53002 710// 84600 333 20118 50254 55069 83701 555 60002;",
"08544099999","2010-08-02T09:00:00","4","40.9166666","-8.6333333","22.0","OVAR MACEDA, PO","FM-12","99999","V020","080,1,N,0050,1","22000,1,9,N","010000,1,N,1","+0194,1","+0142,1","10170,1",,,,"01,1,+06000,1,00,1",,,,"01,99,1,00,1,00,1,99999,9,00,1,01,1",,,,,"99999,9,10149,1","1,1,008,1,+999,9",,,,"SYN076AAXX  02091 08544 42960 10805 10194 20142 30149 40170 51008 80001 333 81070;",
"08544099999","2010-08-02T12:00:00","4","40.9166666","-8.6333333","22.0","OVAR MACEDA, PO","FM-12","99999","V020","360,1,N,0090,1","22000,1,9,N","010000,1,N,1","+0206,1","+0149,1","10169,1",,,,"00,1,+99999,9,99,9",,,,"00,99,1,00,1,00,1,99999,9,00,1,00,1",,,,,"99999,9,10149,1","0,1,000,1,+999,9",,"0140,5",,"SYN092AAXX  02121 08544 32960 03609 10206 20149 30149 40169 50000 333 91014 91114 555 50004 60007;",
"08544099999","2010-08-02T15:00:00","4","40.9166666","-8.6333333","22.0","OVAR MACEDA, PO","FM-12","99999","V020","360,1,N,0100,1","22000,1,9,N","010000,1,N,1","+0212,1","+0148,1","10162,1",,,,"00,1,+99999,9,99,9",,,,"00,99,1,00,1,00,1,99999,9,00,1,00,1",,,,,"99999,9,10142,1","7,1,007,1,+999,9",,"0170,5",,"SYN076AAXX  02151 08544 42960 03610 10212 20148 30142 40162 57007 333 91017 91117;",
"08544099999","2010-08-02T18:00:00","4","40.9166666","-8.6333333","22.0","OVAR MACEDA, PO","FM-12","99999","V020","010,1,N,0090,1","22000,1,9,N","010000,1,N,1","+0200,1","+0145,1","10151,1",,,,"00,1,+99999,9,99,9",,,,"00,99,1,00,1,00,1,99999,9,00,1,00,1",,,,"120,M,+0218,1","99999,9,10131,1","7,1,011,1,+999,9",,"0180,5",,"SYN092AAXX  02181 08544 32960 00109 10200 20145 30131 40151 57011 333 10218 91018 91118 555 60007;",
"08544099999","2010-08-03T06:00:00","4","40.9166666","-8.6333333","22.0","OVAR MACEDA, PO","FM-12","99999","V020","200,1,N,0020,1","22000,1,9,N","007000,1,N,1","+0126,1","+0119,1","10162,1",,,,"01,1,+06000,1,00,1",,,,"01,99,1,00,1,00,1,99999,9,00,1,01,1","0780,9",,,"999,N,+0122,1","99999,9,10141,1","2,1,010,1,+999,9","10,1",,,"SYN110AAXX  03061 08544 31957 12002 10126 20119 30141 40162 52010 710// 80001 333 20122 50354 55130 81070 555 60002;",
"08544099999","2010-08-03T09:00:00","4","40.9166666","-8.6333333","22.0","OVAR MACEDA, PO","FM-12","99999","V020","030,1,N,0030,1","22000,1,9,N","010000,1,N,1","+0262,1","+0146,1","10169,1",,,,"00,1,+99999,9,99,9",,,,"00,99,1,00,1,00,1,99999,9,00,1,00,1",,,,,"99999,9,10150,1","2,1,009,1,+999,9",,,,"SYN060AAXX  03091 08544 42960 00303 10262 20146 30150 40169 52009;",
"08544099999","2010-08-03T12:00:00","4","40.9166666","-8.6333333","22.0","OVAR MACEDA, PO","FM-12","99999","V020","340,1,N,0050,1","22000,1,9,N","010000,1,N,1","+0288,1","+0133,1","10167,1",,,,"00,1,+99999,9,99,9",,,,"00,99,1,00,1,00,1,99999,9,00,1,00,1",,,,,"99999,9,10148,1","8,1,002,1,+999,9",,,"4,99,0090,9,999","SYN086AAXX  03121 08544 32960 03405 10288 20133 30148 40167 58002 333 91109 555 50004 60007;",
"08544099999","2010-08-03T15:00:00","4","40.9166666","-8.6333333","22.0","OVAR MACEDA, PO","FM-12","99999","V020","010,1,N,0100,1","22000,1,9,N","010000,1,N,1","+0244,1","+0144,1","10164,1",,,,"00,1,+99999,9,99,9",,,,"00,99,1,00,1,00,1,99999,9,00,1,00,1",,,,,"99999,9,10144,1","7,1,004,1,+999,9",,"0130,5",,"SYN076AAXX  03151 08544 42960 00110 10244 20144 30144 40164 57004 333 91013 91114;",
"08544099999","2010-08-03T18:00:00","4","40.9166666","-8.6333333","22.0","OVAR MACEDA, PO","FM-12","99999","V020","360,1,N,0060,1","22000,1,9,N","010000,1,N,1","+0208,1","+0147,1","10154,1",,,,"00,1,+99999,9,99,9",,,,"00,99,1,00,1,00,1,99999,9,00,1,00,1",,,,"120,M,+0312,1","99999,9,10134,1","7,1,010,1,+999,9",,"0090,5","4,99,0130,9,999","SYN092AAXX  03181 08544 32960 03606 10208 20147 30134 40154 57010 333 10312 91009 91113 555 60007;",
"08544099999","2010-08-04T06:00:00","4","40.9166666","-8.6333333","22.0","OVAR MACEDA, PO","FM-12","99999","V020","040,1,N,0020,1","22000,1,9,N","005000,1,N,1","+0148,1","+0135,1","10147,1",,,,"00,1,+99999,9,99,9",,,,"00,99,1,00,1,00,1,99999,9,00,1,00,1","0774,9",,,"999,N,+0136,1","99999,9,10127,1","6,1,007,1,+999,9","10,1",,,"SYN098AAXX  04061 08544 31950 00402 10148 20135 30127 40147 56007 710// 333 20136 50634 55129 555 60002;",
"08544099999","2010-08-04T09:00:00","4","40.9166666","-8.6333333","22.0","OVAR MACEDA, PO","FM-12","99999","V020","010,1,N,0040,1","22000,1,9,N","010000,1,N,1","+0230,1","+0144,1","10154,1",,,,"00,1,+99999,9,99,9",,,,"00,99,1,00,1,00,1,99999,9,00,1,00,1",,,,,"99999,9,10134,1","2,1,007,1,+999,9",,,,"SYN060AAXX  04091 08544 42960 00104 10230 20144 30134 40154 52007;",
"08544099999","2010-08-04T12:00:00","4","40.9166666","-8.6333333","22.0","OVAR MACEDA, PO","FM-12","99999","V020","050,1,N,0080,1","22000,1,9,N","010000,1,N,1","+0222,1","+0142,1","10156,1",,,,"01,1,+06000,1,00,1",,,,"01,99,1,00,1,00,1,99999,9,00,1,01,1",,,,,"99999,9,10136,1","0,1,002,1,+999,9",,"0120,5",,"SYN104AAXX  04121 08544 32960 10508 10222 20142 30136 40156 50002 80001 333 81070 91012 91112 555 50004 60007;",
"08544099999","2010-08-04T15:00:00","4","40.9166666","-8.6333333","22.0","OVAR MACEDA, PO","FM-12","99999","V020","050,1,N,0100,1","22000,1,9,N","010000,1,N,1","+0214,1","+0154,1","10149,1",,,,"02,1,+02100,1,03,1","03,1,+06000,1,00,1",,,"04,99,1,02,1,00,1,99999,9,03,1,01,1",,,,,"99999,9,10129,1","7,1,007,1,+999,9",,"0180,5",,"SYN093AAXX  04151 08544 42960 40510 10214 20154 30129 40149 57007 82031 333 82357 83070 91018 9118;",
"08544099999","2010-08-04T18:00:00","4","40.9166666","-8.6333333","22.0","OVAR MACEDA, PO","FM-12","99999","V020","350,1,N,0100,1","22000,1,9,N","010000,1,N,1","+0188,1","+0149,1","10142,1",,,,"02,1,+02100,1,03,1","03,1,+06000,1,00,1",,,"04,99,1,02,1,00,1,99999,9,03,1,01,1",,,,"120,M,+0232,1","99999,9,10122,1","7,1,007,1,+999,9",,"0200,5",,"SYN110AAXX  04181 08544 32960 43510 10188 20149 30122 40142 57007 82031 333 10232 82357 83070 91020 91120 555 60007;",
"08544099999","2010-08-05T06:00:00","4","40.9166666","-8.6333333","22.0","OVAR MACEDA, PO","FM-12","99999","V020","999,9,C,0000,1","22000,1,9,N","005000,1,N,1","+0124,1","+0121,1","10132,1",,,,"03,1,+06000,1,00,1",,,,"03,99,1,00,1,00,1,99999,9,00,1,01,1","0786,9",,,"999,N,+0120,1","99999,9,10112,1","7,1,014,1,+999,9","10,1",,,"SYN110AAXX  05061 08544 31950 30000 10124 20121 30112 40132 57014 710// 80001 333 20120 50384 55131 83070 555 60002;",
"08544099999","2010-08-05T09:00:00","4","40.9166666","-8.6333333","22.0","OVAR MACEDA, PO","FM-12","99999","V020","360,1,N,0040,1","22000,1,9,N","010000,1,N,1","+0198,1","+0143,1","10147,1",,,,"03,1,+06000,1,00,1",,,,"03,99,1,00,1,00,1,99999,9,00,1,03,1",,,,,"99999,9,10128,1","2,1,016,1,+999,9",,,,"SYN076AAXX  05091 08544 42960 33604 10198 20143 30128 40147 52016 80003 333 83070;",
"08544099999","2010-08-05T12:00:00","4","40.9166666","-8.6333333","22.0","OVAR MACEDA, PO","FM-12","99999","V020","360,1,N,0070,1","22000,1,9,N","010000,1,N,1","+0236,1","+0140,1","10144,1",,,,"03,1,+07500,1,00,1",,,,"03,99,1,00,1,00,1,99999,9,00,1,01,1",,,,,"99999,9,10124,1","8,1,004,1,+999,9",,"0090,5","4,99,0100,9,999","SYN104AAXX  05121 08544 32960 33607 10236 20140 30124 40144 58004 80001 333 83075 91009 91110 555 50004 60007;",
"08544099999","2010-08-05T15:00:00","4","40.9166666","-8.6333333","22.0","OVAR MACEDA, PO","FM-12","99999","V020","360,1,N,0120,1","22000,1,9,N","010000,1,N,1","+0224,1","+0137,1","10134,1",,,,"02,1,+07500,1,00,1",,,,"02,99,1,00,1,00,1,99999,9,00,1,01,1",,,,,"99999,9,10114,1","7,1,010,1,+999,9",,"0160,5",,"SYN088AAXX  05151 08544 42960 23612 10224 20137 30114 40134 57010 80001 333 82075 91016 91116;",
"08544099999","2010-08-05T18:00:00","4","40.9166666","-8.6333333","22.0","OVAR MACEDA, PO","FM-12","99999","V020","360,1,N,0090,1","22000,1,9,N","010000,1,N,1","+0194,1","+0135,1","10122,1",,,,"02,1,+07500,1,00,1",,,,"02,99,1,00,1,00,1,99999,9,00,1,01,1",,,,"120,M,+0240,1","99999,9,10102,1","7,1,012,1,+999,9",,"0130,5","4,99,0170,9,999","SYN104AAXX  05181 08544 32960 23609 10194 20135 30102 40122 57012 80001 333 10240 82075 91013 91117 555 60007;",
"08544099999","2010-08-06T06:00:00","4","40.9166666","-8.6333333","22.0","OVAR MACEDA, PO","FM-12","99999","V020","999,9,C,0000,1","22000,1,9,N","008000,1,N,1","+0124,1","+0113,1","10122,1",,,,"03,1,+07500,1,00,1",,,,"03,99,1,00,1,00,1,99999,9,00,1,01,1","0744,9",,,"999,N,+0120,1","99999,9,10101,1","6,1,006,1,+999,9","10,1",,,"SYN110AAXX  06061 08544 31958 30000 10124 20113 30101 40122 56006 710// 80001 333 20120 50434 55124 83075 555 60002;",
"08544099999","2010-08-06T09:00:00","4","40.9166666","-8.6333333","22.0","OVAR MACEDA, PO","FM-12","99999","V020","020,1,N,0030,1","22000,1,9,N","010000,1,N,1","+0266,1","+0106,1","10125,1",,,,"02,1,+07500,1,00,1",,,,"02,99,1,00,1,00,1,99999,9,00,1,01,1",,,,,"99999,9,10105,1","0,1,004,1,+999,9",,,,"SYN076AAXX  06091 08544 42960 20203 10266 20106 30105 40125 50004 80001 333 82075;",
"08544099999","2010-08-06T12:00:00","4","40.9166666","-8.6333333","22.0","OVAR MACEDA, PO","FM-12","99999","V020","030,1,N,0050,1","22000,1,9,N","010000,1,N,1","+0324,2","+0097,1","10123,1",,,,"02,1,+07500,1,00,1",,,,"02,99,1,00,1,00,1,99999,9,00,1,01,1",,,,,"99999,9,10104,1","3,1,001,1,+999,9",,,,"SYN092AAXX  06121 08544 32960 20305 10324 20097 30104 40123 53001 80001 333 82075 555 50004 60007;",
"08544099999","2010-08-06T15:00:00","4","40.9166666","-8.6333333","22.0","OVAR MACEDA, PO","FM-12","99999","V020","360,1,N,0080,1","22000,1,9,N","010000,1,N,1","+0252,1","+0130,1","10119,1",,,,"04,1,+07500,1,00,1",,,,"04,99,1,00,1,00,1,99999,9,00,1,01,1",,,,,"99999,9,10099,1","0,1,005,1,+999,9",,"0130,5",,"SYN098AAXX  06151 08544 42960 43608 10252 20130 30099 40119 50005 80001 333 84075 91013 91113 555 60007;",
"08544099999","2010-08-06T18:00:00","4","40.9166666","-8.6333333","22.0","OVAR MACEDA, PO","FM-12","99999","V020","360,1,N,0050,1","07500,1,9,N","010000,1,N,1","+0212,1","+0137,1","10116,1",,,,"05,1,+07500,1,00,1",,,,"05,99,1,00,1,00,1,99999,9,00,1,01,1",,,,"120,M,+0328,1","99999,9,10097,1","8,1,002,1,+999,9",,"0130,5",,"SYN104AAXX  06181 08544 32960 53605 10212 20137 30097 40116 58002 80001 333 10328 85075 91013 91113 555 60007;",
"08544099999","2010-08-07T06:00:00","4","40.9166666","-8.6333333","22.0","OVAR MACEDA, PO","FM-12","99999","V020","999,9,C,0000,1","22000,1,9,N","008000,1,N,1","+0132,1","+0122,1","10128,1",,,,"03,1,+06000,1,00,1",,,,"03,99,1,00,1,00,1,99999,9,00,1,01,1","0750,9",,,"999,N,+0130,1","99999,9,10108,1","2,1,011,1,+999,9","10,1",,,"SYN110AAXX  07061 08544 31958 30000 10132 20122 30108 40128 52011 710// 80001 333 20130 50534 55125 83070 555 60002;",
"08544099999","2010-08-07T09:00:00","4","40.9166666","-8.6333333","22.0","OVAR MACEDA, PO","FM-12","99999","V020","999,9,C,0000,1","22000,1,9,N","010000,1,N,1","+0230,1","+0162,1","10135,1",,,,"02,1,+06000,1,00,1",,,,"02,99,1,00,1,00,1,99999,9,00,1,01,1",,,,,"99999,9,10115,1","1,1,007,1,+999,9",,,,"SYN076AAXX  07091 08544 42960 20000 10230 20162 30115 40135 51007 80001 333 82070;",
"08544099999","2010-08-07T12:00:00","4","40.9166666","-8.6333333","22.0","OVAR MACEDA, PO","FM-12","99999","V020","340,1,N,0030,1","22000,1,9,N","010000,1,N,1","+0288,1","+0129,1","10141,1",,,,"00,1,+99999,9,99,9",,,,"00,99,1,00,1,00,1,99999,9,00,1,00,1",,,,,"99999,9,10122,1","2,1,007,1,+999,9",,,,"SYN076AAXX  07121 08544 32960 03403 10288 20129 30122 40141 52007 555 50004 60007;",
"08544099999","2010-08-07T15:00:00","4","40.9166666","-8.6333333","22.0","OVAR MACEDA, PO","FM-12","99999","V020","020,1,N,0060,1","22000,1,9,N","010000,1,N,1","+0284,1","+0132,1","10139,1",,,,"01,1,+00450,1,08,1",,,,"03,99,1,01,1,02,1,00450,1,00,1,01,1",,,,,"99999,9,10120,1","7,1,002,1,+999,9",,"0090,5",,"SYN088AAXX  07151 08544 42460 30206 10284 20132 30120 40139 57002 81201 333 81815 91009 91109;",
"08544099999","2010-08-07T18:00:00","4","40.9166666","-8.6333333","22.0","OVAR MACEDA, PO","FM-12","99999","V020","350,1,N,0050,1","22000,1,9,N","010000,1,N,1","+0232,1","+0153,1","10135,1",,,,"00,1,+99999,9,99,9",,,,"00,99,1,00,1,00,1,99999,9,00,1,00,1",,,,"120,M,+0288,1","99999,9,10115,1","3,1,005,1,+999,9",,,,"SYN080AAXX  07181 08544 32960 03505 10232 20153 30115 40135 53005 333 10288 555 60007;",
"08544099999","2010-08-08T06:00:00","4","40.9166666","-8.6333333","22.0","OVAR MACEDA, PO","FM-12","99999","V020","200,1,N,0010,1","22000,1,9,N","010000,1,N,1","+0162,1","+0146,1","10144,1",,,,"03,1,+06000,1,00,1",,,,"03,99,1,00,1,00,1,99999,9,00,1,01,1","0774,9",,,"999,N,+0152,1","99999,9,10124,1","2,1,009,1,+999,9","00,1",,,"SYN110AAXX  08061 08544 31960 32001 10162 20146 30124 40144 52009 700// 80001 333 20152 50524 55129 83070 555 60002;",
"08544099999","2010-08-08T09:00:00","4","40.9166666","-8.6333333","22.0","OVAR MACEDA, PO","FM-12","99999","V020","180,1,N,0040,1","22000,1,9,N","010000,1,N,1","+0230,1","+0162,1","10151,1",,,,"03,1,+06000,1,00,1",,,,"03,99,1,00,1,00,1,99999,9,00,1,01,1",,,,,"99999,9,10131,1","0,1,007,1,+999,9",,,,"SYN076AAXX  08091 08544 42960 31804 10230 20162 30131 40151 50007 80001 333 83070;",
"08544099999","2010-08-08T12:00:00","4","40.9166666","-8.6333333","22.0","OVAR MACEDA, PO","FM-12","99999","V020","250,1,N,0050,1","06600,1,9,N","010000,1,N,1","+0246,1","+0163,1","10154,1",,,,"06,1,+06600,1,00,1",,,,"06,99,1,00,1,00,1,99999,9,00,1,05,1",,,,,"99999,9,10134,1","2,1,003,1,+999,9",,,,"SYN092AAXX  08121 08544 32960 62505 10246 20163 30134 40154 52003 80005 333 86072 555 50004 60007;",
"08544099999","2010-08-08T15:00:00","4","40.9166666","-8.6333333","22.0","OVAR MACEDA, PO","FM-12","99999","V020","300,1,N,0020,1","03600,1,C,N","010000,1,N,1","+0280,1","+0176,1","10142,1",,,,"01,1,+00840,1,08,1",,,,"06,99,1,01,1,01,1,00800,1,03,1,05,1",,,,,"99999,9,10123,1","7,1,011,1,+999,9",,,,"SYN082AAXX  08151 08544 42560 63002 10280 20176 30123 40142 57011 81135 333 81828 86072;",
"08544099999","2010-08-08T18:00:00","4","40.9166666","-8.6333333","22.0","OVAR MACEDA, PO","FM-12","99999","V020","010,1,N,0010,1","06600,1,9,N","006000,1,N,1","+0218,1","+0164,1","10156,1","12,0005,9,1","8,1,06,1","2,1,06,1","03,1,+00750,1,08,1","01,1,+00840,1,09,1","05,1,+06600,1,00,1",,"06,99,1,04,1,09,1,00800,1,00,1,01,1",,,,"120,M,+0282,1","99999,9,10136,1","0,1,013,1,+999,9","25,1",,,"SYN122AAXX  08181 08544 11556 60101 10218 20164 30136 40156 50013 69942 72582 84901 333 10282 83825 81928 85072 96010 555 69947;",
"08544099999","2010-08-09T06:00:00","4","40.9166666","-8.6333333","22.0","OVAR MACEDA, PO","FM-12","99999","V020","999,9,C,0000,1","06600,1,9,N","006000,1,N,1","+0188,1","+0166,1","10157,1","12,0005,9,1",,,"03,1,+00900,1,06,1","08,1,+06600,1,00,1",,,"08,99,1,03,1,05,1,00800,1,00,1,01,1","0390,9",,,"999,N,+0180,1","99999,9,10137,1","6,1,008,1,+999,9","10,1",,,"SYN122AAXX  09061 08544 11556 80000 10188 20166 30137 40157 56008 69962 710// 83501 333 20180 50414 55065 83630 88072 555 69962;",
"08544099999","2010-08-09T09:00:00","4","40.9166666","-8.6333333","22.0","OVAR MACEDA, PO","FM-12","99999","V020","020,1,N,0020,1","22000,1,C,N","010000,1,N,1","+0232,1","+0174,1","10162,1",,,,"01,1,+00900,1,06,1",,,,"07,99,1,01,1,05,1,00800,1,00,1,01,1",,,,,"99999,9,10142,1","0,1,005,1,+999,9",,,,"SYN082AAXX  09091 08544 42560 70202 10232 20174 30142 40162 50005 81501 333 81630 87072;",
"08544099999","2010-08-09T12:00:00","4","40.9166666","-8.6333333","22.0","OVAR MACEDA, PO","FM-12","99999","V020","030,1,N,0020,1","06600,1,9,N","010000,1,N,1","+0296,1","+0167,1","10156,1",,,,"07,1,+06600,1,00,1",,,,"07,99,1,00,1,00,1,99999,9,00,1,01,1",,,,,"99999,9,10137,1","7,1,005,1,+999,9",,,,"SYN092AAXX  09121 08544 32960 70302 10296 20167 30137 40156 57005 80001 333 87072 555 50014 60007;",
"08544099999","2010-08-09T15:00:00","4","40.9166666","-8.6333333","22.0","OVAR MACEDA, PO","FM-12","99999","V020","340,1,N,0050,1","06600,1,9,N","005000,1,N,1","+0274,1","+0157,1","10154,1",,"2,1,03,1","2,1,03,1","04,1,+02400,1,03,1","07,1,+06600,1,00,1",,,"07,99,1,04,1,00,1,02250,1,03,1,01,1",,,,,"99999,9,10135,1","6,1,002,1,+999,9","05,1",,,"SYN098AAXX  09151 08544 41850 73405 10274 20157 30135 40154 56002 70522 84031 333 84358 87072 555 60007;",
"08544099999","2010-08-09T18:00:00","4","40.9166666","-8.6333333","22.0","OVAR MACEDA, PO","FM-12","99999","V020","010,1,N,0050,1","06600,1,9,N","006000,1,N,1","+0266,1","+0154,1","10148,1",,"2,1,06,1","2,1,06,1","01,1,+00900,1,08,1","03,1,+02400,1,03,1","07,1,+06600,1,00,1",,"07,99,1,01,1,02,1,00800,1,03,1,01,1",,,,"120,M,+0314,1","99999,9,10129,1","7,1,006,1,+999,9","05,1",,,"SYN110AAXX  09181 08544 31556 70105 10266 20154 30129 40148 57006 70522 81231 333 10314 81830 83358 87072 555 60007;",
"08544099999","2010-08-10T06:00:00","4","40.9166666","-8.6333333","22.0","OVAR MACEDA, PO","FM-12","99999","V020","999,9,C,0000,1","07500,1,9,N","008000,1,N,1","+0180,1","+0158,1","10155,1",,,,"05,1,+07500,1,00,1",,,,"05,99,1,00,1,00,1,99999,9,00,1,01,1","0540,9",,,"999,N,+0180,1","99999,9,10136,1","3,1,002,1,+999,9","10,1",,,"SYN110AAXX  10061 08544 31958 50000 10180 20158 30136 40155 53002 710// 80001 333 20180 50534 55090 85075 555 60002;",
"08544099999","2010-08-10T09:00:00","4","40.9166666","-8.6333333","22.0","OVAR MACEDA, PO","FM-12","99999","V020","280,1,N,0010,1","22000,1,9,N","010000,1,N,1","+0238,1","+0178,1","10169,1",,"1,1,03,1","1,1,03,1","01,1,+00450,1,08,1",,,,"01,99,1,01,1,01,1,00450,1,00,1,00,1",,,,,"99999,9,10149,1","2,1,014,1,+999,9","06,1",,,"SYN082AAXX  10091 08544 41460 12801 10238 20178 30149 40169 52014 70611 81100 333 81815;",
"08544099999","2010-08-10T12:00:00","4","40.9166666","-8.6333333","22.0","OVAR MACEDA, PO","FM-12","99999","V020","340,1,N,0030,1","22000,1,9,N","007000,1,N,1","+0254,1","+0165,1","10178,1",,"0,1,06,1","0,1,06,1","00,1,+99999,9,99,9",,,,"00,99,1,00,1,00,1,99999,9,00,1,00,1",,,,,"99999,9,10158,1","2,1,009,1,+999,9","06,1",,,"SYN092AAXX  10121 08544 31957 03403 10254 20165 30158 40178 52009 70600 333 96006 555 50004 60007;",
"08544099999","2010-08-10T15:00:00","4","40.9166666","-8.6333333","22.0","OVAR MACEDA, PO","FM-12","99999","V020","010,1,N,0050,1","22000,1,9,N","007000,1,N,1","+0250,1","+0150,1","10176,1",,"0,1,03,1","0,1,03,1","00,1,+99999,9,99,9",,,,"00,99,1,00,1,00,1,99999,9,00,1,00,1",,,,,"99999,9,10156,1","8,1,002,1,+999,9","05,1",,"4,99,0080,9,999","SYN082AAXX  10151 08544 41957 00105 10250 20150 30156 40176 58002 70500 333 91108 96006;",
"08544099999","2010-08-10T18:00:00","4","40.9166666","-8.6333333","22.0","OVAR MACEDA, PO","FM-12","99999","V020","360,1,N,0050,1","22000,1,9,N","010000,1,N,1","+0218,1","+0147,1","10172,1",,"0,1,06,1","0,1,06,1","00,1,+99999,9,99,9",,,,"00,99,1,00,1,00,1,99999,9,00,1,00,1",,,,"120,M,+0276,1","99999,9,10152,1","7,1,004,1,+999,9","06,1",,"4,99,0090,9,999","SYN092AAXX  10181 08544 31960 03605 10218 20147 30152 40172 57004 70600 333 10276 91109 555 60007;",
"08544099999","2010-08-11T06:00:00","4","40.9166666","-8.6333333","22.0","OVAR MACEDA, PO","FM-12","99999","V020","999,9,C,0000,1","22000,1,9,N","007000,1,N,1","+0122,1","+0111,1","10192,1",,,,"01,1,+00450,1,08,1","03,1,+07500,1,00,1",,,"03,99,1,01,1,01,1,00450,1,00,1,01,1","0648,9",,,"999,N,+0116,1","99999,9,10171,1","3,1,002,1,+999,9","10,1",,,"SYN122AAXX  11061 08544 31457 30000 10122 20111 30171 40192 53002 710// 81101 333 20116 50444 55108 81815 83075 96006 555 60002;",
"08544099999","2010-08-11T09:00:00","4","40.9166666","-8.6333333","22.0","OVAR MACEDA, PO","FM-12","99999","V020","330,1,N,0020,1","22000,1,9,N","007000,1,N,1","+0204,1","+0146,1","10192,1",,"0,1,03,1","0,1,03,1","00,1,+99999,9,99,9",,,,"00,99,1,00,1,00,1,99999,9,00,1,00,1",,,,,"99999,9,10172,1","0,1,001,1,+999,9","05,1",,,"SYN094AAXX  11091 08544 41957 03302 10204 20146 30172 40192 50001 70500 555 30116 40/// 50004 60007;",
"08544099999","2010-08-11T12:00:00","4","40.9166666","-8.6333333","22.0","OVAR MACEDA, PO","FM-12","99999","V020","350,1,N,0050,1","22000,1,9,N","008000,1,N,1","+0226,1","+0124,1","10197,1",,"0,1,06,1","0,1,06,1","00,1,+99999,9,99,9",,,,"00,99,1,00,1,00,1,99999,9,00,1,00,1",,,,,"99999,9,10177,1","2,1,005,1,+999,9","05,1",,,"SYN082AAXX  11121 08544 31958 03505 10226 20124 30177 40197 52005 70500 555 50004 60007;",
"08544099999","2010-08-11T15:00:00","4","40.9166666","-8.6333333","22.0","OVAR MACEDA, PO","FM-12","99999","V020","360,1,N,0070,1","22000,1,9,N","010000,1,N,1","+0192,1","+0150,1","10193,1",,,,"03,1,+00090,1,07,1",,,,"03,99,1,03,1,06,1,00075,1,00,1,00,1",,,,,"99999,9,10173,1","8,1,004,1,+999,9",,"0090,5",,"SYN088AAXX  11151 08544 42160 33607 10192 20150 30173 40193 58004 83600 333 83703 91009 91111;",
"08544099999","2010-08-11T18:00:00","4","40.9166666","-8.6333333","22.0","OVAR MACEDA, PO","FM-12","99999","V020","360,1,N,0060,1","00090,1,9,N","000800,1,N,1","+0170,1","+0159,1","10196,1",,"4,1,06,1","1,1,06,1","07,1,+00090,1,07,1",,,,"07,99,1,07,1,06,1,00075,1,99,9,99,9",,,,"120,M,+0244,1","99999,9,10175,1","0,1,003,1,+999,9","44,1",,,"SYN098AAXX  11181 08544 31108 73606 10170 20159 30175 40196 50003 74441 876// 333 10244 87703 555 60007;",
"08544099999","2010-08-12T06:00:00","4","40.9166666","-8.6333333","22.0","OVAR MACEDA, PO","FM-12","99999","V020","999,9,C,0000,1","00060,1,9,N","000200,1,N,1","+0162,1","+0159,1","10185,1",,"4,1,06,1",,"08,1,+00060,1,07,1",,,,"08,99,1,08,1,06,1,00075,1,99,9,99,9","0570,9",,,"999,N,+0156,1","99999,9,10165,1","7,1,009,1,+999,9","44,1",,,"SYN110AAXX  12061 08544 31102 80000 10162 20159 30165 40185 57009 7444/ 886// 333 20156 50234 55095 88702 555 60002;",
"08544099999","2010-08-12T09:00:00","4","40.9166666","-8.6333333","22.0","OVAR MACEDA, PO","FM-12","99999","V020","300,1,N,0010,1","00060,1,9,N","000900,1,N,1","+0162,1","+0162,1","10191,1",,"4,1,03,1","4,1,03,1","08,1,+00060,1,07,1",,,,"08,99,1,08,1,06,1,00075,1,99,9,99,9",,,,,"99999,9,10171,1","2,1,006,1,+999,9","42,1",,,"SYN082AAXX  12091 08544 41109 83001 10162 20162 30171 40191 52006 74244 886// 333 88702;",
"08544099999","2010-08-12T12:00:00","4","40.9166666","-8.6333333","22.0","OVAR MACEDA, PO","FM-12","99999","V020","350,1,N,0050,1","22000,1,9,N","006000,1,N,1","+0194,1","+0166,1","10190,1",,"4,1,06,1","2,1,06,1","01,1,+00015,1,07,1","03,1,+00030,1,07,1",,,"04,99,1,04,1,02,1,00025,1,00,1,00,1",,,,,"99999,9,10170,1","8,1,001,1,+999,9","41,1",,,"SYN134AAXX  12120 08544 31056 43505 10194 20166 30170 40190 58001 74142 84200 333 81700 83701 96010 555 50004 60007 96642 90324 90214 96641;",
"08544099999","2010-08-12T15:00:00","4","40.9166666","-8.6333333","22.0","OVAR MACEDA, PO","FM-12","99999","V020","350,1,N,0070,1","22000,1,9,N","010000,1,N,1","+0210,1","+0163,1","10177,1",,"4,1,03,1","0,1,03,1","01,1,+06600,1,00,1",,,,"01,99,1,00,1,00,1,99999,9,00,1,04,1",,,,,"99999,9,10157,1","7,1,013,1,+999,9","03,1","0110,5",,"SYN094AAXX  12151 08544 41960 13507 10210 20163 30157 40177 57013 70340 80004 333 81072 91011 91114;",
"08544099999","2010-08-12T18:00:00","4","40.9166666","-8.6333333","22.0","OVAR MACEDA, PO","FM-12","99999","V020","350,1,N,0060,1","22000,1,9,N","010000,1,N,1","+0196,1","+0147,1","10169,1",,,,"02,1,+03000,1,03,1","03,1,+06600,1,00,1",,,"03,99,1,02,1,00,1,99999,9,08,1,04,1",,,,"120,M,+0220,1","99999,9,10149,1","7,1,008,1,+999,9",,"0100,5","4,99,0120,9,999","SYN110AAXX  12181 08544 32960 33506 10196 20147 30149 40169 57008 82084 333 10220 82360 83072 91010 91112 555 60007;",
"08544099999","2010-08-13T06:00:00","4","40.9166666","-8.6333333","22.0","OVAR MACEDA, PO","FM-12","99999","V020","020,1,N,0030,1","22000,1,9,N","005000,1,N,1","+0130,1","+0120,1","10156,1",,,,"00,1,+99999,9,99,9",,,,"00,99,1,00,1,00,1,99999,9,00,1,00,1","0576,9",,,"999,N,+0118,1","99999,9,10136,1","7,1,007,1,+999,9","10,1",,,"SYN098AAXX  13061 08544 31950 00203 10130 20120 30136 40156 57007 710// 333 20118 50224 55096 555 60002;",
"08544099999","2010-08-13T09:00:00","4","40.9166666","-8.6333333","22.0","OVAR MACEDA, PO","FM-12","99999","V020","020,1,N,0030,1","22000,1,9,N","010000,1,N,1","+0248,2","+0128,1","10160,1",,,,"00,1,+99999,9,99,9",,,,"00,99,1,00,1,00,1,99999,9,00,1,00,1",,,,,"99999,9,10140,1","2,1,004,1,+999,9",,,,"SYN060AAXX  13091 08544 42960 00203 10248 20128 30140 40160 52004;",
"08544099999","2010-08-13T12:00:00","4","40.9166666","-8.6333333","22.0","OVAR MACEDA, PO","FM-12","99999","V020","360,1,N,0090,1","22000,1,9,N","010000,1,N,1","+0238,1","+0123,1","10157,1",,,,"00,1,+99999,9,99,9",,,,"00,99,1,00,1,00,1,99999,9,00,1,00,1",,,,,"99999,9,10132,1","8,1,003,1,+999,9",,"0130,5",,"SYN092AAXX  13121 08544 32960 03609 10238 20123 30132 40157 58003 333 91013 91113 555 50004 60007;",
"08544099999","2010-08-13T15:00:00","4","40.9166666","-8.6333333","22.0","OVAR MACEDA, PO","FM-12","99999","V020","360,1,N,0120,1","22000,1,9,N","010000,1,N,1","+0222,1","+0135,1","10149,1",,,,"00,1,+99999,9,99,9",,,,"00,99,1,00,1,00,1,99999,9,00,1,00,1",,,,,"99999,9,10130,1","7,1,007,1,+999,9",,"0160,5",,"SYN076AAXX  13151 08544 42960 03612 10222 20135 30130 40149 57007 333 91016 91116;",
"08544099999","2010-08-13T18:00:00","4","40.9166666","-8.6333333","22.0","OVAR MACEDA, PO","FM-12","99999","V020","360,1,N,0110,1","22000,1,9,N","010000,1,N,1","+0196,1","+0126,1","10134,1",,,,"00,1,+99999,9,99,9",,,,"00,99,1,00,1,00,1,99999,9,00,1,00,1",,,,"120,M,+0272,1","99999,9,10114,1","7,1,016,1,+999,9",,,"4,99,0170,9,999","SYN086AAXX  13181 08544 32960 03611 10196 20126 30114 40134 57016 333 10272 91117 555 60007;",
"08544099999","2010-08-14T06:00:00","4","40.9166666","-8.6333333","22.0","OVAR MACEDA, PO","FM-12","99999","V020","999,9,C,0000,1","22000,1,9,N","010000,1,N,1","+0160,1","+0100,1","10150,1",,,,"00,1,+99999,9,99,9",,,,"00,99,1,00,1,00,1,99999,9,00,1,00,1","0750,9",,,"999,N,+0134,1","99999,9,10130,1","3,1,002,1,+999,9",,,,"SYN092AAXX  14061 08544 32960 00000 10160 20100 30130 40150 53002 333 20134 50584 55125 555 60002;",
"08544099999","2010-08-14T09:00:00","4","40.9166666","-8.6333333","22.0","OVAR MACEDA, PO","FM-12","99999","V020","060,1,N,0030,1","22000,1,9,N","010000,1,N,1","+0242,1","+0099,1","10155,1",,"0,1,03,1","0,1,03,1","00,1,+99999,9,99,9",,,,"00,99,1,00,1,00,1,99999,9,00,1,00,1",,,,,"99999,9,10135,1","3,1,005,1,+999,9","04,1",,,"SYN066AAXX  14091 08544 41960 00603 10242 20099 30135 40155 53005 70400;",
"08544099999","2010-08-14T12:00:00","4","40.9166666","-8.6333333","22.0","OVAR MACEDA, PO","FM-12","99999","V020","030,1,N,0060,1","22000,1,9,N","010000,1,N,1","+0278,1","+0096,1","10153,1",,"0,1,06,1","0,1,06,1","00,1,+99999,9,99,9",,,,"00,99,1,00,1,00,1,99999,9,00,1,00,1",,,,,"99999,9,10134,1","8,1,001,1,+999,9","04,1",,"4,99,0100,9,999","SYN092AAXX  14121 08544 31960 00306 10278 20096 30134 40153 58001 70400 333 91110 555 50004 60007;",
"08544099999","2010-08-14T15:00:00","4","40.9166666","-8.6333333","22.0","OVAR MACEDA, PO","FM-12","99999","V020","010,1,N,0100,1","22000,1,9,N","010000,1,N,1","+0232,1","+0112,1","10147,1",,"0,1,03,1","0,1,03,1","00,1,+99999,9,99,9",,,,"00,99,1,00,1,00,1,99999,9,00,1,00,1",,,,,"99999,9,10127,1","8,1,007,1,+999,9","04,1","0100,5",,"SYN082AAXX  14151 08544 41960 00110 10232 20112 30127 40147 58007 70400 333 91010 91116;",
"08544099999","2010-08-14T18:00:00","4","40.9166666","-8.6333333","22.0","OVAR MACEDA, PO","FM-12","99999","V020","010,1,N,0070,1","22000,1,9,N","010000,1,N,1","+0198,1","+0128,1","10130,1",,"0,1,06,1","0,1,06,1","00,1,+99999,9,99,9",,,,"00,99,1,00,1,00,1,99999,9,00,1,00,1",,,,"120,M,+0282,1","99999,9,10110,1","7,1,017,1,+999,9","04,1",,"4,99,0160,9,999","SYN092AAXX  14181 08544 31960 00107 10198 20128 30110 40130 57017 70400 333 10282 91116 555 60007;",
"08544099999","2010-08-15T06:00:00","4","40.9166666","-8.6333333","22.0","OVAR MACEDA, PO","FM-12","99999","V020","180,1,N,0020,1","22000,1,9,N","004000,1,N,1","+0106,1","+0099,1","10136,1",,,,"00,1,+99999,9,99,9",,,,"00,99,1,00,1,00,1,99999,9,00,1,00,1","0768,9",,,"999,N,+0104,1","99999,9,10115,1","4,1,000,1,+999,9","10,1",,,"SYN098AAXX  15061 08544 31940 01802 10106 20099 30115 40136 54000 710// 333 20104 50724 55128 555 60002;",
"08544099999","2010-08-15T09:00:00","4","40.9166666","-8.6333333","22.0","OVAR MACEDA, PO","FM-12","99999","V020","180,1,N,0010,1","22000,1,9,N","005000,1,N,1","+0200,1","+0142,1","10149,1",,"0,1,03,1","0,1,03,1","03,1,+07500,1,00,1",,,,"03,99,1,00,1,00,1,99999,9,00,1,04,1",,,,,"99999,9,10129,1","2,1,014,1,+999,9","10,1",,,"SYN082AAXX  15091 08544 41950 31801 10200 20142 30129 40149 52014 71000 80004 333 83075;",
"08544099999","2010-08-15T12:00:00","4","40.9166666","-8.6333333","22.0","OVAR MACEDA, PO","FM-12","99999","V020","340,1,N,0040,1","22000,1,9,N","008000,1,N,1","+0232,1","+0120,1","10155,1",,"0,1,06,1","0,1,06,1","03,1,+07500,1,00,1",,,,"03,99,1,00,1,00,1,99999,9,00,1,01,1",,,,,"99999,9,10135,1","2,1,006,1,+999,9","05,1",,,"SYN098AAXX  15121 08544 31958 33404 10232 20120 30135 40155 52006 70500 80001 333 83075 555 50004 60007;",
"08544099999","2010-08-15T15:00:00","4","40.9166666","-8.6333333","22.0","OVAR MACEDA, PO","FM-12","99999","V020","360,1,N,0080,1","22000,1,9,N","010000,1,N,1","+0238,1","+0123,1","10149,1",,,,"00,1,+99999,9,99,9",,,,"00,99,1,00,1,00,1,99999,9,00,1,00,1",,,,,"99999,9,10130,1","7,1,005,1,+999,9",,"0110,5",,"SYN086AAXX  15151 08544 42960 03608 10238 20123 30130 40149 57005 333 91011 91111 555 60007;",
"08544099999","2010-08-15T18:00:00","4","40.9166666","-8.6333333","22.0","OVAR MACEDA, PO","FM-12","99999","V020","360,1,N,0070,1","22000,1,9,N","010000,1,N,1","+0198,1","+0132,1","10143,1",,,,"00,1,+99999,9,99,9",,,,"00,99,1,00,1,00,1,99999,9,00,1,00,1",,,,"120,M,+0250,1","99999,9,10123,1","7,1,007,1,+999,9",,,"4,99,0100,9,999","SYN086AAXX  15181 08544 32960 03607 10198 20132 30123 40143 57007 333 10250 91110 555 60007;",
"08544099999","2010-08-16T06:00:00","4","40.9166666","-8.6333333","22.0","OVAR MACEDA, PO","FM-12","99999","V020","010,1,N,0020,1","22000,1,9,N","005000,1,N,1","+0140,1","+0126,1","10157,1",,,,"03,1,+00840,1,06,1",,,,"03,99,1,03,1,05,1,00800,1,00,1,00,1","0750,9",,,"999,N,+0136,1","99999,9,10137,1","8,1,003,1,+999,9","10,1",,,"SYN110AAXX  16061 08544 31550 30102 10140 20126 30137 40157 58003 710// 83500 333 20136 50434 55125 83628 555 60002;",
"08544099999","2010-08-16T09:00:00","4","40.9166666","-8.6333333","22.0","OVAR MACEDA, PO","FM-12","99999","V020","340,1,N,0030,1","22000,1,9,N","008000,1,N,1","+0182,1","+0143,1","10163,1",,"0,1,03,1","0,1,03,1","00,1,+99999,9,99,9",,,,"00,99,1,00,1,00,1,99999,9,00,1,00,1",,,,,"99999,9,10143,1","3,1,006,1,+999,9","05,1",,,"SYN066AAXX  16091 08544 41958 03403 10182 20143 30143 40163 53006 70500;",
"08544099999","2010-08-16T12:00:00","4","40.9166666","-8.6333333","22.0","OVAR MACEDA, PO","FM-12","99999","V020","320,1,N,0040,1","22000,1,9,N","010000,1,N,1","+0226,1","+0128,1","10165,1",,,,"00,1,+99999,9,99,9",,,,"00,99,1,00,1,00,1,99999,9,00,1,00,1",,,,,"99999,9,10146,1","0,1,003,1,+999,9",,,,"SYN076AAXX  16121 08544 32960 03204 10226 20128 30146 40165 50003 555 50004 60007;",
"08544099999","2010-08-16T15:00:00","4","40.9166666","-8.6333333","22.0","OVAR MACEDA, PO","FM-12","99999","V020","360,1,N,0070,1","22000,1,9,N","008000,1,N,1","+0234,1","+0118,1","10162,1",,"0,1,03,1","0,1,03,1","00,1,+99999,9,99,9",,,,"00,99,1,00,1,00,1,99999,9,00,1,00,1",,,,,"99999,9,10142,1","7,1,004,1,+999,9","05,1",,,"SYN076AAXX  16151 08544 41958 03607 10234 20118 30142 40162 57004 70500 333 91110;",
"08544099999","2010-08-16T18:00:00","4","40.9166666","-8.6333333","22.0","OVAR MACEDA, PO","FM-12","99999","V020","360,1,N,0040,1","22000,1,9,N","008000,1,N,1","+0198,1","+0139,1","10162,1",,"0,1,06,1","0,1,06,1","00,1,+99999,9,99,9",,,,"00,99,1,00,1,00,1,99999,9,00,1,00,1",,,,"120,M,+0248,1","99999,9,10142,1","0,1,000,1,+999,9","05,1",,"4,99,0110,9,999","SYN092AAXX  16181 08544 31958 03604 10198 20139 30142 40162 50000 70500 333 10248 91111 555 60007;",
"08544099999","2010-08-17T06:00:00","4","40.9166666","-8.6333333","22.0","OVAR MACEDA, PO","FM-12","99999","V020","190,1,N,0010,1","22000,1,9,N","003000,1,N,1","+0128,1","+0121,1","10179,1",,,,"03,1,+06600,1,00,1",,,,"03,99,1,00,1,00,1,99999,9,00,1,01,1","0732,9",,,"999,N,+0128,1","99999,9,10158,1","3,1,002,1,+999,9","10,1",,,"SYN110AAXX  17061 08544 31930 31901 10128 20121 30158 40179 53002 710// 80001 333 20128 50364 55122 83072 555 60002;",
"08544099999","2010-08-17T09:00:00","4","40.9166666","-8.6333333","22.0","OVAR MACEDA, PO","FM-12","99999","V020","200,1,N,0030,1","22000,1,9,N","010000,1,N,1","+0202,1","+0155,1","10185,1",,,,"02,1,+02100,1,03,1",,,,"03,99,1,02,1,00,1,02250,1,03,1,01,1",,,,,"99999,9,10165,1","1,1,007,1,+999,9",,,,"SYN082AAXX  17091 08544 42860 32003 10202 20155 30165 40185 51007 82031 333 82357 83072;",
"08544099999","2010-08-17T12:00:00","4","40.9166666","-8.6333333","22.0","OVAR MACEDA, PO","FM-12","99999","V020","230,1,N,0040,1","22000,1,9,N","010000,1,N,1","+0232,1","+0161,1","10183,1",,,,"02,1,+02100,1,03,1","04,1,+06600,1,00,1",,,"04,99,1,02,1,00,1,02250,1,03,1,01,1",,,,,"99999,9,10163,1","0,1,002,1,+999,9",,,,"SYN098AAXX  17121 08544 32860 42304 10232 20161 30163 40183 50002 82031 333 82357 84072 555 50004 60007;",
"08544099999","2010-08-17T15:00:00","4","40.9166666","-8.6333333","22.0","OVAR MACEDA, PO","FM-12","99999","V020","330,1,N,0030,1","22000,1,C,N","010000,1,N,1","+0202,1","+0151,1","10178,1",,,,"03,1,+02100,1,03,1",,,,"05,99,1,03,1,00,1,02250,1,03,1,01,1",,,,,"99999,9,10158,1","0,1,005,1,+999,9",,,,"SYN082AAXX  17151 08544 42860 53303 10202 20151 30158 40178 50005 83031 333 83357 85072;",
"08544099999","2010-08-17T18:00:00","4","40.9166666","-8.6333333","22.0","OVAR MACEDA, PO","FM-12","99999","V020","340,1,N,0060,1","22000,1,9,N","010000,1,N,1","+0188,1","+0152,1","10177,1",,,,"02,1,+02100,1,03,1","04,1,+06600,1,00,1",,,"04,99,1,02,1,00,1,02250,1,03,1,01,1",,,,"120,M,+0252,1","99999,9,10157,1","8,1,001,1,+999,9",,,,"SYN098AAXX  17181 08544 32860 43406 10188 20152 30157 40177 58001 82031 333 10252 82357 84072 555 60007;",
"08544099999","2010-08-18T06:00:00","4","40.9166666","-8.6333333","22.0","OVAR MACEDA, PO","FM-12","99999","V020","340,1,N,0020,1","00360,1,9,N","004000,1,N,1","+0160,1","+0154,1","10171,1",,,,"04,1,+00120,1,07,1","05,1,+00360,1,08,1",,,"07,99,1,07,1,02,1,00250,1,00,1,00,1","0666,9",,,"999,N,+0156,1","99999,9,10150,1","7,1,008,1,+999,9","10,1",,,"SYN116AAXX  18061 08544 31340 73402 10160 20154 30150 40171 57008 710// 87200 333 20156 50244 55111 84704 85812 555 60002;",
"08544099999","2010-08-18T09:00:00","4","40.9166666","-8.6333333","22.0","OVAR MACEDA, PO","FM-12","99999","V020","360,1,N,0020,1","00210,1,C,N","010000,1,N,1","+0182,1","+0150,1","10169,1",,,,"02,1,+00120,1,07,1",,,,"06,99,1,06,1,02,1,00250,1,00,1,01,1",,,,,"99999,9,10149,1","0,1,001,1,+999,9",,,,"SYN082AAXX  18091 08544 42360 63602 10182 20150 30149 40169 50001 86201 333 82704 84816;",
"08544099999","2010-08-18T12:00:00","4","40.9166666","-8.6333333","22.0","OVAR MACEDA, PO","FM-12","99999","V020","340,1,N,0040,1","00450,1,9,N","008000,1,N,1","+0214,1","+0171,1","10168,1",,"2,1,06,1","2,1,06,1","03,1,+00240,1,07,1","05,1,+00450,1,06,1",,,"07,99,1,05,1,02,1,00250,1,00,1,01,1",,,,,"99999,9,10148,1","8,1,001,1,+999,9","10,1",,,"SYN104AAXX  18121 08544 31358 73404 10214 20171 30148 40168 58001 71022 85201 333 83708 85615 555 50004 60007;",
"08544099999","2010-08-18T15:00:00","4","40.9166666","-8.6333333","22.0","OVAR MACEDA, PO","FM-12","99999","V020","330,1,N,0040,1","00360,1,9,N","006000,1,N,1","+0196,1","+0171,1","10160,1",,"4,1,03,1","2,1,03,1","03,1,+00060,1,07,1","06,1,+00360,1,06,1",,,"07,99,1,06,1,02,1,00075,1,00,1,01,1",,,,,"99999,9,10140,1","7,1,008,1,+999,9","41,1",,,"SYN094AAXX  18151 08544 41156 73304 10196 20171 30140 40160 57008 74142 86201 333 83702 86612 96010;",
"08544099999","2010-08-18T18:00:00","4","40.9166666","-8.6333333","22.0","OVAR MACEDA, PO","FM-12","99999","V020","360,1,N,0040,1","00360,1,9,N","006000,1,N,1","+0202,1","+0176,1","10147,1",,"4,1,06,1","2,1,06,1","04,1,+00120,1,07,1","06,1,+00360,1,06,1",,,"07,99,1,07,1,05,1,00150,1,00,1,00,1",,,,"120,M,+0232,1","99999,9,10127,1","7,1,013,1,+999,9","41,1",,,"SYN134AAXX  18181 08544 31256 73604 10202 20176 30127 40147 57013 74142 87500 333 10232 84704 86612 96010 555 60007 96641 90308 90202 96641;",
"08544099999","2010-08-19T06:00:00","4","40.9166666","-8.6333333","22.0","OVAR MACEDA, PO","FM-12","99999","V020","999,9,C,0000,1","00090,1,9,N","002000,1,N,1","+0130,1","+0123,1","10142,1",,,,"08,1,+00090,1,07,1",,,,"08,99,1,08,1,06,1,00075,1,99,9,99,9","0324,9",,,"999,N,+0128,1","99999,9,10122,1","6,1,006,1,+999,9","10,1",,,"SYN110AAXX  19061 08544 31120 80000 10130 20123 30122 40142 56006 710// 886// 333 20128 50154 55054 88703 555 60002;",
"08544099999","2010-08-19T09:00:00","4","40.9166666","-8.6333333","22.0","OVAR MACEDA, PO","FM-12","99999","V020","999,9,C,0000,1","22000,1,9,N","007000,1,N,1","+0172,1","+0159,1","10174,1",,"2,1,03,1","2,1,03,1","03,1,+00150,1,07,1",,,,"04,99,1,04,1,05,1,00150,1,00,1,00,1",,,,,"99999,9,10127,1","2,1,005,1,+999,9","10,1",,,"SYN088AAXX  19091 08544 41257 40000 10172 20159 30127 40174 52005 71022 84500 333 83705 85620;",
"08544099999","2010-08-19T12:00:00","4","40.9166666","-8.6333333","22.0","OVAR MACEDA, PO","FM-12","99999","V020","330,1,N,0040,1","22000,1,9,N","008000,1,N,1","+0192,1","+0144,1","10152,1",,"2,1,06,1","2,1,06,1","03,1,+00015,1,02,1",,,,"03,99,1,03,1,02,1,00150,1,00,1,00,1",,,,,"99999,9,10132,1","2,1,005,1,+999,9","10,1",,,"SYN098AAXX  19121 08544 31258 33304 10192 20144 30132 40152 52005 71022 83200 333 83705 555 50004 60007;",
"08544099999","2010-08-19T15:00:00","4","40.9166666","-8.6333333","22.0","OVAR MACEDA, PO","FM-12","99999","V020","030,1,N,0040,1","22000,1,9,N","010000,1,N,1","+0222,1","+0149,1","10146,1",,,,"01,1,+00150,1,07,1",,,,"01,99,1,01,1,06,1,00150,1,00,1,01,1",,,,,"99999,9,10129,1","7,1,006,1,+999,9",,,,"SYN076AAXX  19151 08544 42260 10304 10222 20149 30129 40146 57006 81601 333 81705;",
"08544099999","2010-08-19T18:00:00","4","40.9166666","-8.6333333","22.0","OVAR MACEDA, PO","FM-12","99999","V020","330,1,N,0060,1","22000,1,9,N","010000,1,N,1","+0192,1","+0150,1","10144,1",,,,"01,1,+06000,1,00,1",,,,"01,99,1,00,1,00,1,99999,9,00,1,01,1",,,,"120,M,+0222,1","99999,9,10124,1","0,1,002,1,+999,9",,"0110,5",,"SYN104AAXX  19181 08544 32960 13306 10192 20150 30124 40144 50002 80001 333 10222 81070 91011 91111 555 60007;",
"08544099999","2010-08-20T06:00:00","4","40.9166666","-8.6333333","22.0","OVAR MACEDA, PO","FM-12","99999","V020","360,1,N,0020,1","00090,1,9,N","002000,1,N,1","+0158,1","+0155,1","10188,1",,,,"08,1,+00090,1,07,1",,,,"08,99,1,08,1,06,1,00075,1,99,9,99,9","0642,9",,,"999,N,+0156,1","99999,9,10167,1","2,1,043,1,+999,9","10,1",,,"SYN110AAXX  20061 08544 31120 83602 10158 20155 30167 40188 52043 710// 886// 333 20156 50194 55107 88703 555 60002;",
"08544099999","2010-08-20T09:00:00","4","40.9166666","-8.6333333","22.0","OVAR MACEDA, PO","FM-12","99999","V020","999,9,C,0000,1","00060,1,C,N","008000,1,N,1","+0184,1","+0165,1","10194,1",,"2,1,03,1","2,1,03,1","02,1,+00090,1,07,1",,,,"05,99,1,05,1,02,1,00075,1,00,1,00,1",,,,,"99999,9,10174,1","0,1,007,1,+999,9","10,1",,,"SYN088AAXX  20091 08544 41158 50000 10184 20165 30174 40194 50007 71022 85200 333 82703 84812;",
"08544099999","2010-08-20T12:00:00","4","40.9166666","-8.6333333","22.0","OVAR MACEDA, PO","FM-12","99999","V020","340,1,N,0040,1","00090,1,9,N","001200,1,N,1","+0182,1","+0170,1","10210,1",,"4,1,06,1","2,1,06,1","03,1,+00015,1,07,1","05,1,+00090,1,07,1",,,"06,99,1,06,1,06,1,00025,1,00,1,00,1",,,,,"99999,9,10190,1","2,1,016,1,+999,9","28,1",,,"SYN104AAXX  20121 08544 31012 63404 10182 20170 30190 40210 52016 72842 86600 333 83700 85703 555 50004 60007;",
"08544099999","2010-08-20T15:00:00","4","40.9166666","-8.6333333","22.0","OVAR MACEDA, PO","FM-12","99999","V020","350,1,N,0050,1","22000,1,9,N","008000,1,N,1","+0198,1","+0160,1","10209,1",,"1,1,03,1","1,1,03,1","04,1,+00090,1,07,1",,,,"04,99,1,04,1,06,1,00150,1,00,1,00,1",,,,,"99999,9,10189,1","0,1,001,1,+999,9","10,1",,,"SYN082AAXX  20151 08544 41258 43505 10198 20160 30189 40209 50001 71011 84600 333 84703;",
"08544099999","2010-08-20T18:00:00","4","40.9166666","-8.6333333","22.0","OVAR MACEDA, PO","FM-12","99999","V020","360,1,N,0050,1","00060,1,9,N","006000,1,N,1","+0178,1","+0155,1","10209,1",,"4,1,06,1","1,1,06,1","03,1,+00015,1,07,1","05,1,+00060,1,07,1",,,"05,99,1,05,1,06,1,00025,1,00,1,00,1",,,,"120,M,+0210,1","99999,9,10188,1","5,1,001,1,+999,9","41,1",,"4,99,0100,9,999","SYN128AAXX  20181 08544 31056 53605 10178 20155 30188 40209 55001 74141 85600 333 10210 83700 85702 91110 96010 555 60007 90210 96641;",
"08544099999","2010-08-21T06:00:00","4","40.9166666","-8.6333333","22.0","OVAR MACEDA, PO","FM-12","99999","V020","999,9,C,0000,1","22000,1,9,N","001300,1,N,1","+0140,1","+0140,1","10210,1",,,,"03,1,+00180,1,07,1","03,1,+00360,1,06,1",,,"04,99,1,04,1,05,1,00150,1,00,1,00,1","0462,9",,,"999,N,+0140,1","99999,9,10189,1","6,1,002,1,+999,9","10,1",,,"SYN116AAXX  21061 08544 31213 40000 10140 20140 30189 40210 56002 710// 84500 333 20140 50144 55077 83706 83612 555 60002;",
"08544099999","2010-08-21T09:00:00","4","40.9166666","-8.6333333","22.0","OVAR MACEDA, PO","FM-12","99999","V020","020,1,N,0020,1","22000,1,9,N","008000,1,N,1","+0208,1","+0171,1","10214,1",,"0,1,03,1","0,1,03,1","00,1,+99999,9,99,9",,,,"00,99,1,00,1,00,1,99999,9,00,1,00,1",,,,,"99999,9,10194,1","0,1,005,1,+999,9","10,1",,,"SYN066AAXX  21091 08544 41958 00202 10208 20171 30194 40214 50005 71000;",
"08544099999","2010-08-21T12:00:00","4","40.9166666","-8.6333333","22.0","OVAR MACEDA, PO","FM-12","99999","V020","350,1,N,0050,1","22000,1,9,N","010000,1,N,1","+0226,1","+0168,1","10215,1",,,,"02,1,+07500,1,00,1",,,,"02,99,1,00,1,00,1,99999,9,00,1,04,1",,,,,"99999,9,10195,1","1,1,001,1,+999,9",,,,"SYN092AAXX  21121 08544 32960 23505 10226 20168 30195 40215 51001 80004 333 82075 555 50004 60007;",
"08544099999","2010-08-21T15:00:00","4","40.9166666","-8.6333333","22.0","OVAR MACEDA, PO","FM-12","99999","V020","350,1,N,0070,1","22000,1,9,N","010000,1,N,1","+0220,1","+0164,1","99999,9",,,,"03,1,+00090,1,07,1",,,,"04,99,1,99,9,99,9,00075,1,99,9,99,9",,,,,"99999,9,10188,1",,,,,"SYN081AAXX  21151 08544 42160 43507 10220 20164 30188 3201 40208 57007 333 83703 91110;",
"08544099999","2010-08-21T18:00:00","4","40.9166666","-8.6333333","22.0","OVAR MACEDA, PO","FM-12","99999","V020","360,1,N,0070,1","00060,1,9,N","001300,1,N,1","+0176,1","+0162,1","10210,1",,"2,1,06,1","1,1,06,1","03,1,+00015,1,07,1","08,1,+00060,1,07,1",,,"08,99,1,08,1,06,1,00025,1,99,9,99,9",,,,"120,M,+0244,1","99999,9,10190,1","2,1,002,1,+999,9","28,1",,"4,99,0110,9,999","SYN134AAXX  21181 08544 31013 83607 10176 20162 30190 40210 52002 72821 886// 333 10244 83700 88702 91111 96010 555 60007 90210 96641 90300;",
"08544099999","2010-08-22T06:00:00","4","40.9166666","-8.6333333","22.0","OVAR MACEDA, PO","FM-12","99999","V020","050,1,N,0010,1","00060,1,9,N","001300,1,N,1","+0170,1","+0164,1","10203,1","12,0005,9,1","5,1,06,1",,"04,1,+00060,1,07,1",,,,"08,99,1,08,1,06,1,00075,1,99,9,99,9","0576,9",,,"999,N,+0168,1","99999,9,10183,1","7,1,003,1,+999,9","50,1",,,"SYN122AAXX  22061 08544 11113 80501 10170 20164 30183 40203 57003 69942 7505/ 886// 333 20168 50184 55096 84702 96010 555 69942;",
"08544099999","2010-08-22T09:00:00","4","40.9166666","-8.6333333","22.0","OVAR MACEDA, PO","FM-12","99999","V020","070,1,N,0020,1","00120,1,C,N","005000,1,N,1","+0178,1","+0169,1","10214,1",,"5,1,03,1","2,1,03,1","04,1,+00150,1,07,1",,,,"08,99,1,08,1,06,1,00150,1,99,9,99,9",,,,,"99999,9,10194,1","2,1,011,1,+999,9","10,1",,,"SYN088AAXX  22091 08544 41250 80702 10178 20169 30194 40214 52011 71052 886// 333 84705 88708;",
"08544099999","2010-08-22T12:00:00","4","40.9166666","-8.6333333","22.0","OVAR MACEDA, PO","FM-12","99999","V020","350,1,N,0030,1","00360,1,9,N","010000,1,N,1","+0214,1","+0174,1","10210,1","06,0000,2,1","5,1,06,1","2,1,06,1","03,1,+00300,1,08,1","06,1,+00360,1,06,1",,,"07,99,1,06,1,08,1,00450,1,00,1,01,1",,,,,"99999,9,10190,1","8,1,004,1,+999,9","01,1",,,"SYN110AAXX  22121 08544 11460 73503 10214 20174 30190 40210 58004 69921 70152 86801 333 83810 86612 555 59964 60007;",
"08544099999","2010-08-22T15:00:00","4","40.9166666","-8.6333333","22.0","OVAR MACEDA, PO","FM-12","99999","V020","340,1,N,0030,1","00900,1,C,N","010000,1,N,1","+0226,1","+0166,1","10197,1",,,,"02,1,+00390,1,08,1",,,,"06,99,1,06,1,08,1,00450,1,00,1,01,1",,,,,"99999,9,10177,1","7,1,013,1,+999,9",,,,"SYN082AAXX  22151 08544 42460 63403 10226 20166 30177 40197 57013 86801 333 82813 86615;",
"08544099999","2010-08-22T18:00:00","4","40.9166666","-8.6333333","22.0","OVAR MACEDA, PO","FM-12","99999","V020","340,1,N,0020,1","00450,1,C,N","010000,1,N,1","+0200,1","+0174,1","10191,1",,,,"02,1,+00390,1,08,1","06,1,+00450,1,06,1",,,"07,99,1,99,9,99,9,00450,1,99,9,99,9",,,,"120,M,+0232,1","99999,9,10171,1",,,,,"SYN116AAXX  22181 08544 12460 73402 10200 20174 30171 40191 40191 57006 57006 60022 86801 333 10232 82813 86615 555 60007;",
"08544099999","2010-08-23T06:00:00","4","40.9166666","-8.6333333","22.0","OVAR MACEDA, PO","FM-12","99999","V020","190,1,N,0030,1","00240,1,9,N","005000,1,N,1","+0194,1","+0172,1","10155,1",,,,"04,1,+00090,1,07,1","05,1,+00240,1,07,1","08,1,+00360,1,06,1",,"08,99,1,08,1,05,1,00075,1,99,9,99,9","0048,9",,,"999,N,+0188,1","99999,9,10135,1","7,1,010,1,+999,9","10,1",,,"SYN122AAXX  23061 08544 31150 81903 10194 20172 30135 40155 57010 710// 885// 333 20188 50174 55008 84703 85708 88612 555 60002;",
"08544099999","2010-08-23T09:00:00","4","40.9166666","-8.6333333","22.0","OVAR MACEDA, PO","FM-12","99999","V020","190,1,N,0060,1","00210,1,C,N","010000,1,N,1","+0210,1","+0170,1","10154,1",,,,"02,1,+00240,1,07,1",,,,"07,99,1,07,1,02,1,00250,1,00,1,00,1",,,,,"99999,9,10134,1","0,1,001,1,+999,9",,,,"SYN082AAXX  23091 08544 42360 71906 10210 20170 30134 40154 50001 87200 333 82708 87814;",
"08544099999","2010-08-23T12:00:00","4","40.9166666","-8.6333333","22.0","OVAR MACEDA, PO","FM-12","99999","V020","200,1,N,0060,1","00180,1,9,N","001800,1,N,1","+0200,1","+0194,1","10153,1","06,0010,9,1","5,1,06,1","2,1,06,1","02,1,+00090,1,07,1","05,1,+00180,1,07,1","07,1,+00420,1,08,1",,"07,99,1,07,1,02,1,00075,1,00,1,00,1",,,,,"99999,9,10133,1","3,1,001,1,+999,9","51,1","0110,5",,"SYN128AAXX  23121 08544 11118 72006 10200 20194 30133 40153 53001 69991 75152 87200 333 82703 85706 87814 91011 91111 555 59994 69997;",
"08544099999","2010-08-23T15:00:00","4","40.9166666","-8.6333333","22.0","OVAR MACEDA, PO","FM-12","99999","V020","210,1,N,0070,1","00180,1,9,N","004000,1,N,1","+0204,1","+0189,1","10146,1",,"5,1,03,1","2,1,03,1","02,1,+00090,1,07,1","04,1,+00180,1,07,1","07,1,+00420,1,08,1",,"07,99,1,07,1,02,1,00075,1,00,1,00,1",,,,,"99999,9,10126,1","7,1,007,1,+999,9","20,1","0130,5",,"SYN106AAXX  23151 08544 41140 72107 10204 20189 30126 40146 57007 72052 87200 333 82703 84706 87814 91013 91113;",
"08544099999","2010-08-23T18:00:00","4","40.9166666","-8.6333333","22.0","OVAR MACEDA, PO","FM-12","99999","V020","220,1,N,0040,1","00180,1,9,N","003000,1,N,1","+0198,1","+0191,1","10146,1","12,0020,9,1","5,1,06,1","2,1,06,1","03,1,+00090,1,07,1","05,1,+00180,1,07,1","07,1,+00420,1,08,1",,"07,99,1,07,1,02,1,00075,1,00,1,00,1",,,,"120,M,+0206,1","99999,9,10126,1","4,1,000,1,+999,9","10,1",,,"SYN116AAXX  23181 08544 11130 72204 10198 20191 30126 40146 53000 60022 71052 87200 333 10206 83703 85706 87814 555 69917;","Q01+000032APCTEN"
"08544099999","2010-08-24T06:00:00","4","40.9166666","-8.6333333","22.0","OVAR MACEDA, PO","FM-12","99999","V020","190,1,N,0010,1","00420,1,9,N","004000,1,N,1","+0152,1","+0149,1","10180,1","12,0000,9,1",,,"03,1,+00120,1,07,1","05,1,+00420,1,08,1",,,"06,99,1,06,1,02,1,00150,1,00,1,00,1","0000,9",,,"999,N,+0148,1","99999,9,10159,1","2,1,024,1,+999,9","10,1",,,"SYN122AAXX  24061 08544 11240 61901 10152 20149 30159 40180 52024 69922 710// 86200 333 20148 50094 55000 83704 85814 555 69922;","Q01  00002PRCP12"
"08544099999","2010-08-24T09:00:00","4","40.9166666","-8.6333333","22.0","OVAR MACEDA, PO","FM-12","99999","V020","320,1,N,0010,1","22000,1,9,N","006000,1,N,1","+0176,1","+0163,1","10196,1",,"1,1,03,1","1,1,03,1","04,1,+00360,1,08,1",,,,"04,99,1,04,1,02,1,00450,1,00,1,00,1",,,,,"99999,9,10176,1","2,1,017,1,+999,9","10,1",,,"SYN082AAXX  24091 08544 41456 43201 10176 20163 30176 40196 52017 71011 84200 333 84812;",
"08544099999","2010-08-24T12:00:00","4","40.9166666","-8.6333333","22.0","OVAR MACEDA, PO","FM-12","99999","V020","320,1,N,0040,1","22000,1,9,N","010000,1,N,1","+0208,1","+0154,1","10198,1",,,,"02,1,+00450,1,08,1",,,,"02,99,1,02,1,02,1,00450,1,00,1,00,1",,,,,"99999,9,10178,1","1,1,002,1,+999,9",,"0060,5",,"SYN104AAXX  24121 08544 32460 23204 10208 20154 30178 40198 51002 82200 333 82815 91006 91106 555 59984 60007;",
"08544099999","2010-08-24T15:00:00","4","40.9166666","-8.6333333","22.0","OVAR MACEDA, PO","FM-12","99999","V020","330,1,N,0040,1","22000,1,9,N","010000,1,N,1","+0218,1","+0145,1","10190,1",,,,"02,1,+09000,1,00,1",,,,"02,99,1,00,1,00,1,99999,9,00,1,01,1",,,,,"99999,9,10170,1","7,1,008,1,+999,9",,,,"SYN076AAXX  24151 08544 42960 23304 10218 20145 30170 40190 57008 80001 333 82080;",
"08544099999","2010-08-24T18:00:00","4","40.9166666","-8.6333333","22.0","OVAR MACEDA, PO","FM-12","99999","V020","350,1,N,0040,1","22000,1,9,N","010000,1,N,1","+0208,1","+0132,1","10182,1",,,,"02,1,+09000,1,00,1",,,,"02,99,1,00,1,00,1,99999,9,00,1,01,1",,,,"120,M,+0226,1","99999,9,10162,1","8,1,008,1,+999,9",,,,"SYN092AAXX  24181 08544 32960 23504 10208 20132 30162 40182 58008 80001 333 10226 82080 555 60007;",
"08544099999","2010-08-25T06:00:00","4","40.9166666","-8.6333333","22.0","OVAR MACEDA, PO","FM-12","99999","V020","999,9,C,0000,1","22000,1,9,N","010000,1,N,1","+0136,1","+0115,1","10173,1",,,,"01,1,+06000,1,00,1",,,,"01,99,1,00,1,00,1,99999,9,00,1,01,1","0624,9",,,"999,N,+0130,1","99999,9,10153,1","7,1,022,1,+999,9","00,1",,,"SYN110AAXX  25061 08544 31960 10000 10136 20115 30153 40173 57022 700// 80001 333 20130 50314 55104 81070 555 60002;",
"08544099999","2010-08-25T09:00:00","4","40.9166666","-8.6333333","22.0","OVAR MACEDA, PO","FM-12","99999","V020","999,9,C,0000,1","22000,1,9,N","010000,1,N,1","+0208,1","+0147,1","10184,1",,,,"01,1,+02100,1,03,1",,,,"01,99,1,01,1,00,1,02250,1,03,1,00,1",,,,,"99999,9,10164,1","2,1,011,1,+999,9",,,,"SYN076AAXX  25091 08544 42860 10000 10208 20147 30164 40184 52011 81030 333 81357;",
"08544099999","2010-08-25T12:00:00","4","40.9166666","-8.6333333","22.0","OVAR MACEDA, PO","FM-12","99999","V020","330,1,N,0040,1","22000,1,9,N","010000,1,N,1","+0254,1","+0162,1","10175,1",,,,"01,1,+02100,1,03,1",,,,"01,99,1,01,1,00,1,02250,1,03,1,00,1",,,,,"99999,9,10156,1","0,1,008,1,+999,9",,,,"SYN092AAXX  25121 08544 32860 13304 10254 20162 30156 40175 50008 81030 333 81357 555 50004 60007;",
"08544099999","2010-08-25T15:00:00","4","40.9166666","-8.6333333","22.0","OVAR MACEDA, PO","FM-12","99999","V020","350,1,N,0040,1","22000,1,9,N","010000,1,N,1","+0252,1","+0129,1","10166,1",,,,"01,1,+02100,1,03,1",,,,"01,99,1,01,1,00,1,02250,1,03,1,00,1",,,,,"99999,9,10146,1","7,1,010,1,+999,9",,,,"SYN076AAXX  25151 08544 42860 13504 10252 20129 30146 40166 57010 81030 333 81357;",
"08544099999","2010-08-25T18:00:00","4","40.9166666","-8.6333333","22.0","OVAR MACEDA, PO","FM-12","99999","V020","350,1,N,0060,1","22000,1,9,N","010000,1,N,1","+0208,1","+0147,1","10161,1",,,,"01,1,+02100,1,00,1",,,,"01,99,1,01,1,00,1,02250,1,03,1,00,1",,,,"120,M,+0256,1","99999,9,10141,1","3,1,005,1,+999,9",,,,"SYN092AAXX  25181 08544 32860 13506 10208 20147 30141 40161 53005 81030 333 10256 81057 555 60007;",
"08544099999","2010-08-26T06:00:00","4","40.9166666","-8.6333333","22.0","OVAR MACEDA, PO","FM-12","99999","V020","999,9,C,0000,1","00090,1,9,N","000400,1,N,1","+0176,1","+0173,1","10150,1",,"4,1,06,1",,"04,1,+00015,1,07,1","06,1,+00090,1,07,1",,,"08,99,1,08,1,07,1,00025,1,99,9,99,9","0732,9",,,"999,N,+0166,1","99999,9,10130,1","7,1,013,1,+999,9","44,1",,,"SYN128AAXX  26061 08544 31004 80000 10176 20173 30130 40150 57013 7444/ 887// 333 20166 50354 55122 84700 86703 555 60002 90269 96644;",
"08544099999","2010-08-26T09:00:00","4","40.9166666","-8.6333333","22.0","OVAR MACEDA, PO","FM-12","99999","V020","180,1,N,0030,1","00060,1,C,N","003000,1,N,1","+0188,1","+0182,1","10165,1",,"4,1,03,1","2,1,03,1","04,1,+00090,1,07,1",,,,"08,99,1,08,1,07,1,00075,1,99,9,99,9",,,,,"99999,9,10144,1","2,1,015,1,+999,9","10,1",,,"SYN088AAXX  26091 08544 41130 81803 10188 20182 30144 40165 52015 71042 887// 333 84703 86705;",
"08544099999","2010-08-26T12:00:00","4","40.9166666","-8.6333333","22.0","OVAR MACEDA, PO","FM-12","99999","V020","200,1,N,0030,1","00360,1,9,N","008000,1,N,1","+0212,1","+0185,1","10165,1",,"4,1,06,1","2,1,06,1","04,1,+00180,1,07,1","07,1,+00360,1,08,1",,,"08,99,1,08,1,02,1,00150,1,99,9,99,9",,,,,"99999,9,10145,1","0,1,001,1,+999,9","10,1",,,"SYN104AAXX  26121 08544 31258 82003 10212 20185 30145 40165 50001 71042 882// 333 84706 87812 555 50004 60007;",
"08544099999","2010-08-26T15:00:00","4","40.9166666","-8.6333333","22.0","OVAR MACEDA, PO","FM-12","99999","V020","260,1,N,0040,1","09000,1,C,N","010000,1,N,1","+0134,1","+9999,9","10159,1",,,,"01,1,+00360,1,08,1","04,1,+02400,1,03,1",,,"05,99,1,01,1,01,1,00450,1,03,1,01,1",,,,,"99999,9,10139,1","7,1,006,1,+999,9",,,,"SYN092AAXX  26151 08544 42460 52604 10134 20180 30139 40159 57006 81131 333 81812 84358 555 60007;",
"08544099999","2010-08-26T18:00:00","4","40.9166666","-8.6333333","22.0","OVAR MACEDA, PO","FM-12","99999","V020","210,1,N,0040,1","09000,1,C,N","010000,1,N,1","+0226,1","+0180,1","10158,1",,,,"01,1,+00120,1,07,1","04,1,+02400,1,03,1",,,"05,99,1,01,1,01,1,00150,1,03,1,01,1",,,,"120,M,+0240,1","99999,9,10138,1","8,1,001,1,+999,9",,,,"SYN098AAXX  26181 08544 32260 52104 10226 20180 30138 40158 58001 81131 333 10240 81704 84358 555 60007;",
"08544099999","2010-08-27T06:00:00","4","40.9166666","-8.6333333","22.0","OVAR MACEDA, PO","FM-12","99999","V020","340,1,N,0020,1","22000,1,9,N","001500,1,N,1","+0182,1","+0176,1","10174,1","12,0000,9,1",,,"02,1,+00060,1,07,1","04,1,+00450,1,08,1",,,"06,99,1,04,1,02,1,00075,1,00,1,01,1","0348,9",,,"999,N,+0182,1","99999,9,10154,1","1,1,001,1,+999,9","10,1",,,"SYN122AAXX  27061 08544 11115 63402 10182 20176 30154 40174 51001 69922 710// 84201 333 20182 50254 55058 82702 84815 555 69922;","Q01  00002PRCP12"
"08544099999","2010-08-27T09:00:00","4","40.9166666","-8.6333333","22.0","OVAR MACEDA, PO","FM-12","99999","V020","340,1,N,0020,1","00120,1,C,N","004000,1,N,1","+0200,1","+0185,1","10189,1",,"4,1,03,1","2,1,03,1","04,1,+00120,1,07,1",,,,"05,99,1,05,1,02,1,00150,1,00,1,00,1",,,,,"99999,9,10169,1","6,1,015,1,+999,9","10,1",,,"SYN088AAXX  27091 08544 41240 53402 10200 20185 30169 40189 56015 71042 85200 333 84704 85814;",
"08544099999","2010-08-27T12:00:00","4","40.9166666","-8.6333333","22.0","OVAR MACEDA, PO","FM-12","99999","V020","330,1,N,0040,1","22000,1,9,N","010000,1,N,1","+0232,1","+0168,1","10194,1",,"4,1,06,1","2,1,06,1","03,1,+00015,1,02,1",,,,"03,99,1,03,1,02,1,00450,1,00,1,00,1",,,,,"99999,9,10175,1","8,1,006,1,+999,9","01,1",,,"SYN098AAXX  27121 08544 31460 33304 10232 20168 30175 40194 58006 70142 83200 333 83815 555 59924 60007;",
"08544099999","2010-08-27T15:00:00","4","40.9166666","-8.6333333","22.0","OVAR MACEDA, PO","FM-12","99999","V020","360,1,N,0070,1","22000,1,9,N","010000,1,N,1","+0222,1","+0155,1","10193,1",,,,"00,1,+99999,9,99,9",,,,"00,99,1,00,1,00,1,99999,9,00,1,00,1",,,,,"99999,9,10173,1","0,1,002,1,+999,9",,"0100,5",,"SYN076AAXX  27151 08544 42960 03607 10222 20155 30173 40193 50002 333 91010 91110;",
"08544099999","2010-08-27T18:00:00","4","40.9166666","-8.6333333","22.0","OVAR MACEDA, PO","FM-12","99999","V020","060,1,N,0070,1","22000,1,9,N","010000,1,N,1","+0210,1","+0149,1","10191,1",,,,"00,1,+99999,9,99,9",,,,"00,99,1,00,1,00,1,99999,9,00,1,00,1",,,,"120,M,+0236,1","99999,9,10171,1","7,1,002,1,+999,9",,"0120,5",,"SYN092AAXX  27181 08544 32960 00607 10210 20149 30171 40191 57002 333 10236 91012 91112 555 60007;",
"08544099999","2010-08-28T06:00:00","4","40.9166666","-8.6333333","22.0","OVAR MACEDA, PO","FM-12","99999","V020","999,9,C,0000,1","22000,1,9,N","007000,1,N,1","+0118,1","+0111,1","10178,1",,,,"00,1,+99999,9,99,9",,,,"00,99,1,00,1,00,1,99999,9,00,1,00,1","0612,9",,,"999,N,+0116,1","99999,9,10157,1","7,1,014,1,+999,9","10,1",,,"SYN098AAXX  28061 08544 31957 00000 10118 20111 30157 40178 57014 710// 333 20116 50344 55102 555 60002;",
"08544099999","2010-08-28T09:00:00","4","40.9166666","-8.6333333","22.0","OVAR MACEDA, PO","FM-12","99999","V020","200,1,N,0010,1","22000,1,9,N","010000,1,N,1","+0194,1","+0166,1","10185,1",,,,"00,1,+99999,9,99,9",,,,"00,99,1,00,1,00,1,99999,9,00,1,00,1",,,,,"99999,9,10165,1","2,1,008,1,+999,9",,,,"SYN060AAXX  28091 08544 42960 02001 10194 20166 30165 40185 52008;",
"08544099999","2010-08-28T12:00:00","4","40.9166666","-8.6333333","22.0","OVAR MACEDA, PO","FM-12","99999","V020","320,1,N,0040,1","22000,1,9,N","010000,1,N,1","+0232,1","+0157,1","10182,1",,,,"00,1,+99999,9,99,9",,,,"00,99,1,00,1,00,1,99999,9,00,1,00,1",,,,,"99999,9,10163,1","7,1,002,1,+999,9",,,,"SYN076AAXX  28121 08544 32960 03204 10232 20157 30163 40182 57002 555 50004 60007;",
"08544099999","2010-08-28T15:00:00","4","40.9166666","-8.6333333","22.0","OVAR MACEDA, PO","FM-12","99999","V020","360,1,N,0060,1","22000,1,9,N","010000,1,N,1","+0234,1","+0156,1","10171,1",,,,"00,1,+99999,9,99,9",,,,"00,99,1,00,1,00,1,99999,9,00,1,00,1",,,,,"99999,9,10151,1","7,1,012,1,+999,9",,,,"SYN070AAXX  28151 08544 42960 03606 10234 20156 30151 40171 57012 333 91109;",
"08544099999","2010-08-28T18:00:00","4","40.9166666","-8.6333333","22.0","OVAR MACEDA, PO","FM-12","99999","V020","360,1,N,0050,1","22000,1,9,N","010000,1,N,1","+0228,1","+0162,1","10161,1",,,,"00,1,+99999,9,99,9",,,,"00,99,1,00,1,00,1,99999,9,00,1,00,1",,,,"120,M,+0254,1","99999,9,10143,1","7,1,008,1,+999,9",,,"4,99,0100,9,999","SYN086AAXX  28181 08544 32960 03605 10228 20162 30143 40161 57008 333 10254 91110 555 60007;",
"08544099999","2010-08-29T06:00:00","4","40.9166666","-8.6333333","22.0","OVAR MACEDA, PO","FM-12","99999","V020","190,1,N,0010,1","22000,1,9,N","008000,1,N,1","+0142,1","+0135,1","10152,1",,,,"01,1,+06600,1,00,1",,,,"01,99,1,00,1,00,1,99999,9,00,1,01,1","0696,9",,,"999,N,+0142,1","99999,9,10132,1","7,1,008,1,+999,9","10,1",,,"SYN110AAXX  29061 08544 31958 11901 10142 20135 30132 40152 57008 710// 80001 333 20142 50364 55116 81072 555 60002;",
"08544099999","2010-08-29T09:00:00","4","40.9166666","-8.6333333","22.0","OVAR MACEDA, PO","FM-12","99999","V020","999,9,C,0000,1","22000,1,9,N","010000,1,N,1","+0230,1","+0169,1","10164,1",,,,"01,1,+06600,1,00,1",,,,"01,99,1,00,1,00,1,99999,9,00,1,01,1",,,,,"99999,9,10145,1","2,1,013,1,+999,9",,,,"SYN076AAXX  29091 08544 42960 10000 10230 20169 30145 40164 52013 80001 333 81072;",
"08544099999","2010-08-29T12:00:00","4","40.9166666","-8.6333333","22.0","OVAR MACEDA, PO","FM-12","99999","V020","330,1,N,0030,1","22000,1,9,N","010000,1,N,1","+0250,1","+0157,1","10168,1",,,,"00,1,+99999,9,99,9",,,,"00,99,1,00,1,00,1,99999,9,00,1,00,1",,,,,"99999,9,10148,1","0,1,003,1,+999,9",,,,"SYN076AAXX  29121 08544 32960 03303 10250 20157 30148 40168 50003 555 50004 60007;",
"08544099999","2010-08-29T15:00:00","4","40.9166666","-8.6333333","22.0","OVAR MACEDA, PO","FM-12","99999","V020","010,1,N,0060,1","22000,1,9,N","008000,1,N,1","+0272,1","+0143,1","10160,1",,"0,1,03,1","0,1,03,1","00,1,+99999,9,99,9",,,,"00,99,1,00,1,00,1,99999,9,00,1,00,1",,,,,"99999,9,10140,1","7,1,007,1,+999,9","05,1",,,"SYN076AAXX  29151 08544 41958 00106 10272 20143 30140 40160 57007 70500 333 91109;",
"08544099999","2010-08-29T18:00:00","4","40.9166666","-8.6333333","22.0","OVAR MACEDA, PO","FM-12","99999","V020","360,1,N,0060,1","22000,1,9,N","006000,1,N,1","+0262,1","+0141,1","10154,1",,"0,1,06,1","0,1,06,1","00,1,+99999,9,99,9",,,,"00,99,1,00,1,00,1,99999,9,00,1,00,1",,,,"120,M,+0280,1","99999,9,10134,1","5,1,006,1,+999,9","04,1",,"4,99,0100,9,999","SYN092AAXX  29181 08544 31956 03606 10262 20141 30134 40154 55006 70400 333 10280 91110 555 60007;",
"08544099999","2010-08-30T06:00:00","4","40.9166666","-8.6333333","22.0","OVAR MACEDA, PO","FM-12","99999","V020","190,1,N,0010,1","22000,1,9,N","007000,1,N,1","+0142,1","+0125,1","10143,1",,,,"00,1,+99999,9,99,9",,,,"00,99,1,00,1,00,1,99999,9,00,1,00,1","0720,9",,,"999,N,+0142,1","99999,9,10122,1","7,1,006,1,+999,9","10,1",,,"SYN098AAXX  30061 08544 31957 01901 10142 20125 30122 40143 57006 710// 333 20142 50484 55120 555 60002;",
"08544099999","2010-08-30T09:00:00","4","40.9166666","-8.6333333","22.0","OVAR MACEDA, PO","FM-12","99999","V020","310,1,N,0020,1","22000,1,9,N","008000,1,N,1","+0236,1","+0165,1","10146,1",,"0,1,03,1","0,1,03,1","01,1,+07500,1,00,1",,,,"01,99,1,00,1,00,1,99999,9,00,1,04,1",,,,,"99999,9,10126,1","2,1,004,1,+999,9","10,1",,,"SYN082AAXX  30091 08544 42958 13102 10236 20165 30126 40146 52004 71000 80004 333 81075;",
"08544099999","2010-08-30T12:00:00","4","40.9166666","-8.6333333","22.0","OVAR MACEDA, PO","FM-12","99999","V020","310,1,N,0040,1","22000,1,9,N","010000,1,N,1","+0296,1","+0159,1","10135,1",,"0,1,06,1","0,1,06,1","01,1,+07500,1,00,1",,,,"01,99,1,00,1,00,1,99999,9,00,1,01,1",,,,,"99999,9,10116,1","7,1,010,1,+999,9","05,1",,,"SYN098AAXX  30121 08544 32960 13104 10296 20159 30116 40135 57010 70500 80001 333 81075 555 50004 60007;",
"08544099999","2010-08-30T15:00:00","4","40.9166666","-8.6333333","22.0","OVAR MACEDA, PO","FM-12","99999","V020","340,1,N,0050,1","22000,1,9,N","009000,1,N,1","+0308,1","+0132,1","10121,1",,"0,1,03,1","0,1,03,1","00,1,+99999,9,99,9",,,,"00,99,1,00,1,00,1,99999,9,00,1,00,1",,,,,"99999,9,10102,1","7,1,014,1,+999,9","05,1",,,"SYN066AAXX  30151 08544 41959 03405 10308 20132 30102 40121 57014 70500;",
"08544099999","2010-08-30T18:00:00","4","40.9166666","-8.6333333","22.0","OVAR MACEDA, PO","FM-12","99999","V020","010,1,N,0050,1","22000,1,9,N","010000,1,N,1","+0268,1","+0122,1","10107,1",,,,"00,1,+99999,9,99,9",,,,"00,99,1,00,1,00,1,99999,9,00,1,00,1",,,,"120,M,+0324,1","99999,9,10087,1","7,1,015,1,+999,9",,,,"SYN080AAXX  30181 08544 32960 00105 10268 20122 30087 40107 57015 333 10324 555 60007;",
"08544099999","2010-08-31T06:00:00","4","40.9166666","-8.6333333","22.0","OVAR MACEDA, PO","FM-12","99999","V020","150,1,N,0010,1","06000,1,9,N","010000,1,N,1","+0180,1","+0138,1","10077,1",,,,"02,1,+03000,1,03,1","05,1,+06000,1,00,1",,,"06,99,1,02,1,00,1,99999,9,03,1,01,1","0690,9",,,"999,N,+0178,1","99999,9,10057,1","5,1,006,1,+999,9","00,1",,,"SYN116AAXX  31061 08544 31960 61501 10180 20138 30057 40077 55006 700// 82031 333 20178 50684 55115 82360 85070 555 60002;",
"08544099999","2010-08-31T09:00:00","4","40.9166666","-8.6333333","22.0","OVAR MACEDA, PO","FM-12","99999","V020","310,1,N,0010,1","99999,9,9,N","007000,1,N,1","+0256,1","+0127,1","10079,1",,"2,1,03,1","2,1,03,1","04,1,+03000,1,04,1",,,,"07,99,1,04,1,00,1,99999,9,07,1,02,1",,,,,"99999,9,10060,1","2,1,003,1,+999,9","05,1",,,"SYN088AAXX  31091 08544 41957 73101 10256 20127 30060 40079 52003 70522 84072 333 84460 86070;",
"08544099999","2010-08-31T12:00:00","4","40.9166666","-8.6333333","22.0","OVAR MACEDA, PO","FM-12","99999","V020","280,1,N,0040,1","03600,1,9,N","008000,1,N,1","+0326,1","+0137,1","10072,1",,"2,1,06,1","2,1,06,1","03,1,+00600,1,09,1","03,1,+00900,1,08,1",,,"06,99,1,04,1,09,1,00800,1,07,1,01,1",,,,,"99999,9,10053,1","8,1,007,1,+999,9","05,1",,,"SYN104AAXX  31121 08544 31558 62804 10326 20137 30053 40072 58007 70522 84971 333 83920 83830 555 50004 60007;",
"08544099999","2010-08-31T15:00:00","4","40.9166666","-8.6333333","22.0","OVAR MACEDA, PO","FM-12","99999","V020","250,1,N,0040,1","03600,1,9,N","010000,1,N,1","+0336,1","+0092,1","10071,1",,"9,1,03,1","2,1,03,1","03,1,+00900,1,09,1","04,1,+00960,1,08,1",,,"06,99,1,04,1,09,1,00800,1,07,1,02,1",,,,,"99999,9,10052,1","8,1,001,1,+999,9","29,1",,,"SYN094AAXX  31151 08544 41560 62504 10336 20092 30052 40071 58001 72992 84972 333 83930 84832 91109;",
"08544099999","2010-08-31T18:00:00","4","40.9166666","-8.6333333","22.0","OVAR MACEDA, PO","FM-12","99999","V020","290,1,N,0030,1","03600,1,9,N","010000,1,N,1","+0270,1","+0144,1","10077,1",,"9,1,06,1","2,1,06,1","02,1,+00960,1,09,1","04,1,+01050,1,08,1",,,"06,99,1,04,1,09,1,00800,1,07,1,02,1",,,,"120,M,+0348,1","99999,9,10057,1","3,1,005,1,+999,9","01,1",,,"SYN122AAXX  31181 08544 31560 62903 10270 20144 30057 40077 53005 70192 84972 333 10348 82932 84835 555 60007 90223 96617 90311;",
"08544099999","2010-09-01T06:00:00","4","40.9166666","-8.6333333","22.0","OVAR MACEDA, PO","FM-12","99999","V020","999,9,V,0010,1","03600,1,9,N","004000,1,N,1","+0192,1","+0174,1","10086,1",,,,"02,1,+00300,1,08,1",,,,"06,99,1,04,1,08,1,00450,1,07,1,01,1","0432,9",,,"999,N,+0190,1","99999,9,10066,1","4,1,000,1,+999,9","10,1",,,"SYN115AAXX  01061 08544 31440 69901 10192 20174 30066 40086 54000 710// 84871 333 20190 5074 55072 82810 93612 555 60002;",
"08544099999","2010-09-01T09:00:00","4","40.9166666","-8.6333333","22.0","OVAR MACEDA, PO","FM-12","99999","V020","280,1,N,0020,1","22000,1,9,N","008000,1,N,1","+0208,1","+0171,1","10097,1",,"1,1,03,1","1,1,03,1","03,1,+00360,1,08,1",,,,"04,99,1,04,1,08,1,00450,1,00,1,00,1",,,,,"99999,9,10077,1","2,1,011,1,+999,9","10,1",,,"SYN082AAXX  01091 08544 41458 42802 10208 20171 30077 40097 52011 71011 84800 333 83812;",
"08544099999","2010-09-01T12:00:00","4","40.9166666","-8.6333333","22.0","OVAR MACEDA, PO","FM-12","99999","V020","300,1,N,0040,1","00840,1,9,N","010000,1,N,1","+0220,1","+0178,1","10100,1",,,,"04,1,+00450,1,08,1","04,1,+00840,1,06,1",,,"06,99,1,06,1,08,1,00450,1,00,1,00,1",,,,,"99999,9,10081,1","1,1,004,1,+999,9",,,,"SYN098AAXX  01121 08544 32460 63004 10220 20178 30081 40100 51004 86800 333 84815 84628 555 50004 60007;",
"08544099999","2010-09-01T15:00:00","4","40.9166666","-8.6333333","22.0","OVAR MACEDA, PO","FM-12","99999","V020","330,1,N,0050,1","22000,1,9,N","010000,1,N,1","+0232,1","+0168,1","10098,1",,,,"01,1,+00450,1,08,1",,,,"02,99,1,02,1,08,1,00450,1,00,1,00,1",,,,,"99999,9,10079,1","8,1,002,1,+999,9",,,,"SYN076AAXX  01151 08544 42460 23305 10232 20168 30079 40098 58002 82800 333 81815;",
"08544099999","2010-09-01T18:00:00","4","40.9166666","-8.6333333","22.0","OVAR MACEDA, PO","FM-12","99999","V020","350,1,N,0050,1","22000,1,9,N","010000,1,N,1","+0214,1","+0170,1","10107,1",,,,"04,1,+00450,1,08,1",,,,"04,99,1,04,1,02,1,00450,1,00,1,00,1",,,,"120,M,+0242,1","99999,9,10088,1","2,1,009,1,+999,9",,,"4,99,0080,9,999","SYN098AAXX  01181 08544 32460 43505 10214 20170 30088 40107 52009 84200 333 10242 84815 91108 555 60007;",
"08544099999","2010-09-02T06:00:00","4","40.9166666","-8.6333333","22.0","OVAR MACEDA, PO","FM-12","99999","V020","999,9,C,0000,1","00240,1,9,N","005000,1,N,1","+0160,1","+0154,1","10133,1",,,,"02,1,+00120,1,07,1","05,1,+00240,1,07,1","06,1,+00540,1,08,1",,"08,99,1,08,1,02,1,00150,1,99,9,99,9","0492,9",,,"999,N,+0152,1","99999,9,10113,1","2,1,012,1,+999,9","10,1",,,"SYN122AAXX  02061 08544 31250 80000 10160 20154 30113 40133 52012 710// 882// 333 20152 50294 55082 82704 85708 86818 555 60002;",
"08544099999","2010-09-02T09:00:00","4","40.9166666","-8.6333333","22.0","OVAR MACEDA, PO","FM-12","99999","V020","360,1,N,0050,1","00240,1,9,N","007000,1,N,1","+0192,1","+0174,1","10154,1",,"2,1,03,1","2,1,03,1","05,1,+00240,1,07,1",,,,"06,99,1,06,1,02,1,00250,1,00,1,00,1",,,,,"99999,9,10134,1","2,1,021,1,+999,9","10,1",,,"SYN082AAXX  02091 08544 41357 63605 10192 20174 30134 40154 52021 71022 86200 333 85708;",
"08544099999","2010-09-02T12:00:00","4","40.9166666","-8.6333333","22.0","OVAR MACEDA, PO","FM-12","99999","V020","330,1,N,0060,1","00450,1,9,N","010000,1,N,1","+0214,1","+0168,1","10162,1",,,,"01,1,+00300,1,08,1","07,1,+00450,1,06,1",,,"07,99,1,07,1,08,1,00450,1,00,1,00,1",,,,,"99999,9,10143,1","2,1,009,1,+999,9",,,,"SYN098AAXX  02121 08544 32460 73306 10214 20168 30143 40162 52009 87800 333 81810 87615 555 50004 60007;",
"08544099999","2010-09-02T15:00:00","4","40.9166666","-8.6333333","22.0","OVAR MACEDA, PO","FM-12","99999","V020","350,1,N,0050,1","22000,1,9,N","010000,1,N,1","+0228,1","+0169,1","10162,1",,,,"02,1,+06000,1,00,1",,,,"02,99,1,00,1,00,1,99999,9,00,1,01,1",,,,,"99999,9,10142,1","8,1,001,1,+999,9",,,,"SYN076AAXX  02151 08544 42960 23505 10228 20169 30142 40162 58001 80001 333 82070;",
"08544099999","2010-09-02T18:00:00","4","40.9166666","-8.6333333","22.0","OVAR MACEDA, PO","FM-12","99999","V020","350,1,N,0060,1","22000,1,9,N","010000,1,N,1","+0210,1","+0162,1","10161,1",,,,"01,1,+06000,1,00,1",,,,"01,99,1,00,1,00,1,99999,9,00,1,01,1",,,,"120,M,+0230,1","99999,9,10141,1","3,1,001,1,+999,9",,,,"SYN092AAXX  02181 08544 32960 13506 10210 20162 30141 40161 53001 80001 333 10230 81070 555 60007;",
"08544099999","2010-09-03T06:00:00","4","40.9166666","-8.6333333","22.0","OVAR MACEDA, PO","FM-12","99999","V020","999,9,C,0000,1","00150,1,9,N","001500,1,N,1","+0136,1","+0129,1","10166,1",,,,"03,1,+00060,1,07,1","07,1,+00150,1,07,1",,,"08,99,1,08,1,06,1,00075,1,99,9,99,9","0360,9",,,"999,N,+0134,1","99999,9,10145,1","6,1,002,1,+999,9","10,1",,,"SYN116AAXX  03061 08544 31115 80000 10136 20129 30145 40166 56002 710// 886// 333 20134 50234 55060 83702 87705 555 60002;",
"08544099999","2010-09-03T09:00:00","4","40.9166666","-8.6333333","22.0","OVAR MACEDA, PO","FM-12","99999","V020","320,1,N,0010,1","00150,1,9,N","002000,1,N,1","+0176,1","+0157,1","10175,1",,"4,1,03,1","2,1,03,1","05,1,+00150,1,07,1",,,,"06,99,1,05,1,06,1,00150,1,00,1,04,1",,,,,"99999,9,10154,1","1,1,009,1,+999,9","10,1",,,"SYN082AAXX  03091 08544 41220 63201 10176 20157 30154 40175 51009 71042 85604 333 85705;",
"08544099999","2010-09-03T12:00:00","4","40.9166666","-8.6333333","22.0","OVAR MACEDA, PO","FM-12","99999","V020","330,1,N,0030,1","22000,1,9,N","008000,1,N,1","+0220,1","+0168,1","10175,1",,"4,1,06,1","1,1,06,1","01,1,+07500,1,00,1",,,,"01,99,1,00,1,00,1,99999,9,00,1,01,1",,,,,"99999,9,10156,1","3,1,002,1,+999,9","10,1",,,"SYN098AAXX  03121 08544 31958 13303 10220 20168 30156 40175 53002 71041 80001 333 81075 555 50004 60007;",
"08544099999","2010-09-03T15:00:00","4","40.9166666","-8.6333333","22.0","OVAR MACEDA, PO","FM-12","99999","V020","360,1,N,0070,1","22000,1,9,N","010000,1,N,1","+0226,1","+0178,1","10170,1",,,,"01,1,+06600,1,00,1",,,,"01,99,1,00,1,00,1,99999,9,00,1,04,1",,,,,"99999,9,10150,1","7,1,006,1,+999,9",,"0100,5",,"SYN088AAXX  03151 08544 42960 13607 10226 20178 30150 40170 57006 80004 333 81072 91010 91111;",
"08544099999","2010-09-03T18:00:00","4","40.9166666","-8.6333333","22.0","OVAR MACEDA, PO","FM-12","99999","V020","360,1,N,0070,1","22000,1,9,N","010000,1,N,1","+0216,1","+0175,1","10167,1",,"4,1,06,1","1,1,06,1","03,1,+06600,1,00,1",,,,"03,99,1,00,1,00,1,99999,9,00,1,01,1",,,,"120,M,+0234,1","99999,9,10147,1","7,1,003,1,+999,9","02,1","0100,5","4,99,0110,9,999","SYN110AAXX  03181 08544 31960 33607 10216 20175 30147 40167 57003 70241 80001 333 10234 83072 91010 91111 555 60007;",
"08544099999","2010-09-04T06:00:00","4","40.9166666","-8.6333333","22.0","OVAR MACEDA, PO","FM-12","99999","V020","999,9,C,0000,1","00180,1,9,N","002000,1,N,1","+0184,1","+0172,1","10165,1",,,,"04,1,+00120,1,07,1","07,1,+00180,1,07,1",,,"08,99,1,08,1,06,1,00150,1,99,9,99,9","0570,9",,,"999,N,+0184,1","99999,9,10145,1","6,1,003,1,+999,9","10,1",,,"SYN116AAXX  04061 08544 31220 80000 10184 20172 30145 40165 56003 710// 886// 333 20184 50354 55095 84704 87706 555 60002;",
"08544099999","2010-09-04T09:00:00","4","40.9166666","-8.6333333","22.0","OVAR MACEDA, PO","FM-12","99999","V020","050,1,N,0010,1","00120,1,C,N","004000,1,N,1","+0192,1","+0170,1","10174,1",,"2,1,03,1","2,1,03,1","02,1,+00120,1,07,1",,,,"08,99,1,08,1,06,1,00150,1,99,9,99,9",,,,,"99999,9,10154,1","2,1,009,1,+999,9","10,1",,,"SYN088AAXX  04091 08544 41240 80501 10192 20170 30154 40174 52009 71022 886// 333 82704 87706;",
"08544099999","2010-09-04T12:00:00","4","40.9166666","-8.6333333","22.0","OVAR MACEDA, PO","FM-12","99999","V020","310,1,N,0030,1","22000,1,9,N","007000,1,N,1","+0216,1","+0173,1","10168,1",,"2,1,06,1","1,1,06,1","04,1,+07500,1,00,1",,,,"04,99,1,00,1,00,1,99999,9,00,1,04,1",,,,,"99999,9,10148,1","8,1,006,1,+999,9","10,1",,,"SYN098AAXX  04121 08544 31957 43103 10216 20173 30148 40168 58006 71021 80004 333 84075 555 50004 60007;",
"08544099999","2010-09-04T15:00:00","4","40.9166666","-8.6333333","22.0","OVAR MACEDA, PO","FM-12","99999","V020","350,1,N,0040,1","00150,1,9,N","008000,1,N,1","+0206,1","+0175,1","10164,1",,"1,1,03,1","1,1,03,1","05,1,+00150,1,07,1",,,,"07,99,1,05,1,06,1,00150,1,00,1,02,1",,,,,"99999,9,10144,1","7,1,004,1,+999,9","10,1",,,"SYN088AAXX  04151 08544 41258 73504 10206 20175 30144 40164 57004 71011 85602 333 85705 85075;",
"08544099999","2010-09-04T18:00:00","4","40.9166666","-8.6333333","22.0","OVAR MACEDA, PO","FM-12","99999","V020","350,1,N,0040,1","22000,1,9,N","010000,1,N,1","+0208,1","+0173,1","10166,1",,,,"03,1,+07500,1,00,1",,,,"03,99,1,00,1,00,1,99999,9,00,1,02,1",,,,"120,M,+0230,1","99999,9,10147,1","3,1,003,1,+999,9",,,,"SYN092AAXX  04181 08544 32960 33504 10208 20173 30147 40166 53003 80002 333 10230 83075 555 60007;",
"08544099999","2010-09-05T06:00:00","4","40.9166666","-8.6333333","22.0","OVAR MACEDA, PO","FM-12","99999","V020","200,1,N,0010,1","00360,1,9,N","006000,1,N,1","+0162,1","+0152,1","10155,1",,,,"05,1,+00360,1,06,1",,,,"06,99,1,05,1,02,1,00450,1,00,1,01,1","0450,9",,,"999,N,+0162,1","99999,9,10135,1","6,1,004,1,+999,9","10,1",,,"SYN110AAXX  05061 08544 31456 62001 10162 20152 30135 40155 56004 710// 85201 333 20162 50164 55075 85612 555 60002;",
"08544099999","2010-09-05T09:00:00","4","40.9166666","-8.6333333","22.0","OVAR MACEDA, PO","FM-12","99999","V020","010,1,N,0020,1","22000,1,C,N","010000,1,N,1","+0198,1","+0164,1","10163,1",,,,"03,1,+00360,1,06,1",,,,"05,99,1,03,1,02,1,00450,1,00,1,04,1",,,,,"99999,9,10143,1","2,1,008,1,+999,9",,,,"SYN082AAXX  05091 08544 42460 50102 10198 20164 30143 40163 52008 83204 333 83612 84075;",
"08544099999","2010-09-05T12:00:00","4","40.9166666","-8.6333333","22.0","OVAR MACEDA, PO","FM-12","99999","V020","300,1,N,0050,1","22000,1,9,N","010000,1,N,1","+0220,1","+0164,1","10166,1",,,,"02,1,+00450,1,08,1","04,1,+07500,1,00,1",,,"04,99,1,02,1,02,1,00450,1,03,1,01,1",,,,,"99999,9,10146,1","0,1,003,1,+999,9",,,"4,99,0090,9,999","SYN104AAXX  05121 08544 32460 43005 10220 20164 30146 40166 50003 82231 333 82815 84075 91109 555 50004 60007;",
"08544099999","2010-09-05T15:00:00","4","40.9166666","-8.6333333","22.0","OVAR MACEDA, PO","FM-12","99999","V020","330,1,N,0040,1","22000,1,9,N","010000,1,N,1","+0232,1","+0181,1","10151,1",,,,"01,1,+00930,1,00,1",,,,"03,99,1,01,1,00,1,99999,9,03,1,01,1",,,,,"99999,9,10132,1","7,1,014,1,+999,9",,,,"SYN092AAXX  05151 08544 42960 33304 10232 20181 30132 40151 57014 81031 333 81360 83075 555 60007;",
"08544099999","2010-09-05T18:00:00","4","40.9166666","-8.6333333","22.0","OVAR MACEDA, PO","FM-12","99999","V020","350,1,N,0040,1","22000,1,9,N","010000,1,N,1","+0220,1","+0189,1","10151,1",,,,"03,1,+00360,1,08,1",,,,"03,99,1,03,1,02,1,00450,1,00,1,00,1",,,,"120,M,+0242,1","99999,9,10131,1","6,1,001,1,+999,9",,,,"SYN092AAXX  05181 08544 32460 33504 10220 20189 30131 40151 56001 83200 333 10242 83812 555 60007;",
"08544099999","2010-09-06T06:00:00","4","40.9166666","-8.6333333","22.0","OVAR MACEDA, PO","FM-12","99999","V020","160,1,N,0020,1","00150,1,9,N","001500,1,N,1","+0166,1","+0163,1","10139,1",,,,"03,1,+00060,1,07,1","05,1,+00150,1,07,1",,,"05,99,1,05,1,06,1,00075,1,00,1,00,1","0630,9",,,"999,N,+0164,1","99999,9,10118,1","7,1,012,1,+999,9","10,1",,,"SYN116AAXX  06061 08544 31115 51602 10166 20163 30118 40139 57012 710// 85600 333 20164 50234 55105 83702 85705 555 60002;",
"08544099999","2010-09-06T09:00:00","4","40.9166666","-8.6333333","22.0","OVAR MACEDA, PO","FM-12","99999","V020","180,1,N,0030,1","00900,1,C,N","008000,1,N,1","+0200,1","+0166,1","10139,1",,"2,1,03,1","2,1,03,1","02,1,+00300,1,08,1",,,,"07,99,1,05,1,08,1,00450,1,03,1,01,1",,,,,"99999,9,10119,1","0,1,001,1,+999,9","10,1",,,"SYN088AAXX  06091 08544 41458 71803 10200 20166 30119 40139 50001 71022 85831 333 82810 85818;",
"08544099999","2010-09-06T12:00:00","4","40.9166666","-8.6333333","22.0","OVAR MACEDA, PO","FM-12","99999","V020","240,1,N,0040,1","02100,1,9,N","010000,1,N,1","+0238,1","+0171,1","10133,1",,,,"03,1,+00540,1,08,1","05,1,+02100,1,03,1",,,"07,99,1,03,1,02,1,00450,1,07,1,01,1",,,,,"99999,9,10113,1","8,1,006,1,+999,9",,,,"SYN098AAXX  06121 08544 32460 72404 10238 20171 30113 40133 58006 83271 333 83818 85357 555 50004 60007;",
"08544099999","2010-09-06T15:00:00","4","40.9166666","-8.6333333","22.0","OVAR MACEDA, PO","FM-12","99999","V020","220,1,N,0070,1","02100,1,9,N","010000,1,N,1","+0226,1","+0187,1","10118,1",,,,"03,1,+00450,1,08,1","03,1,+00840,1,06,1","07,1,+02100,1,04,1",,"08,99,1,04,1,08,1,00450,1,07,1,99,9",,,,,"99999,9,10099,1","7,1,014,1,+999,9",,,,"SYN098AAXX  06151 08544 42460 82207 10226 20187 30099 40118 57014 8487/ 333 83815 83628 87457 555 60007;",
"08544099999","2010-09-06T18:00:00","4","40.9166666","-8.6333333","22.0","OVAR MACEDA, PO","FM-12","99999","V020","270,1,N,0010,1","00150,1,C,N","003000,1,N,1","+0196,1","+0192,1","10113,1","24,0000,9,1",,,"05,1,+00150,1,07,1","03,1,+00360,1,08,1","08,1,+02100,1,04,1",,"08,99,1,99,9,99,9,00150,1,99,9,99,9",,,,"120,M,+0248,1","99999,9,10093,1","7,1,006,1,+999,9",,,"4,99,0100,9,999","SYN129AAXX  06181 08544 11230 82701 10196 20192 30093 40113 57006 600042 75865 8527/ 333 10248 85705 83812 88457 91110 96010 555 60047;","Q01  00002PRCP24"
"08544099999","2010-09-07T06:00:00","4","40.9166666","-8.6333333","22.0","OVAR MACEDA, PO","FM-12","99999","V020","160,1,N,0020,1","00360,1,9,N","005000,1,N,1","+0158,1","+0152,1","10090,1","12,0020,9,1",,,"02,1,+00180,1,07,1","03,1,+00360,1,08,1",,,"06,99,1,05,1,08,1,00150,1,03,1,00,1","0210,9",,,"999,N,+0154,1","99999,9,10070,1","7,1,010,1,+999,9","10,1",,,"SYN122AAXX  07061 08544 11250 61602 10158 20152 30070 40090 57010 60022 710// 85830 333 20154 50204 55035 82706 83812 555 60022;",
"08544099999","2010-09-07T09:00:00","4","40.9166666","-8.6333333","22.0","OVAR MACEDA, PO","FM-12","99999","V020","190,1,N,0050,1","00450,1,9,N","004000,1,N,1","+0184,1","+0169,1","10081,1",,"8,1,03,1","2,1,03,1","02,1,+00270,1,07,1","04,1,+00450,1,08,1","06,1,+00660,1,06,1",,"07,99,1,06,1,08,1,00250,1,07,1,00,1",,,,,"99999,9,10061,1","7,1,009,1,+999,9","80,1",,,"SYN100AAXX  07091 08544 41340 71905 10184 20169 30061 40081 57009 78082 86870 333 82709 84815 86622 96010;",
"08544099999","2010-09-07T12:00:00","4","40.9166666","-8.6333333","22.0","OVAR MACEDA, PO","FM-12","99999","V020","240,1,N,0040,1","00360,1,9,N","007000,1,N,1","+0200,1","+0182,1","10083,1","06,0030,9,1","8,1,06,1","6,1,06,1","02,1,+00180,1,07,1","03,1,+00360,1,08,1","06,1,+00720,1,06,1",,"07,99,1,06,1,08,1,00150,1,07,1,00,1",,,,,"99999,9,10063,1","3,1,003,1,+999,9","21,1",,,"SYN122AAXX  07121 08544 11257 72404 10200 20182 30063 40083 53003 60031 72186 86870 333 82706 83812 86624 96010 555 50104 60037;",
"08544099999","2010-09-07T15:00:00","4","40.9166666","-8.6333333","22.0","OVAR MACEDA, PO","FM-12","99999","V020","350,1,N,0070,1","03600,1,9,N","010000,1,N,1","+0206,1","+0159,1","10095,1",,"8,1,03,1","1,1,03,1","03,1,+00450,1,08,1","03,1,+00750,1,06,1",,,"05,99,1,04,1,08,1,00450,1,03,1,00,1",,,,,"99999,9,10076,1","3,1,013,1,+999,9","03,1","0110,5",,"SYN100AAXX  07151 08544 41460 53507 10206 20159 30076 40095 53013 70381 84830 333 83815 83625 91011 91111;",
"08544099999","2010-09-07T18:00:00","4","40.9166666","-8.6333333","22.0","OVAR MACEDA, PO","FM-12","99999","V020","360,1,N,0050,1","22000,1,9,N","010000,1,N,1","+0196,1","+0147,1","10108,1","12,0041,9,1","8,1,06,1","1,1,06,1","03,1,+00450,1,08,1",,,,"04,99,1,03,1,02,1,00450,1,03,1,00,1",,,,"120,M,+0214,1","99999,9,10088,1","2,1,012,1,+999,9","02,1","0070,5","4,99,0110,9,999","SYN116AAXX  07181 08544 11460 43605 10196 20147 30088 40108 52012 60042 70281 83230 333 10214 83815 91007 91111 555 60007;",
"08544099999","2010-09-08T06:00:00","4","40.9166666","-8.6333333","22.0","OVAR MACEDA, PO","FM-12","99999","V020","190,1,N,0020,1","00390,1,9,N","005000,1,N,1","+0148,1","+0141,1","10149,1","12,0000,9,1",,,"02,1,+00210,1,07,1","03,1,+00390,1,08,1",,,"06,99,1,06,1,08,1,00250,1,00,1,00,1","0438,9",,,"999,N,+0132,1","99999,9,10129,1","2,1,015,1,+999,9","10,1",,,"SYN122AAXX  08061 08544 11350 61902 10148 20141 30129 40149 52015 69912 710// 86800 333 20132 50174 55073 82707 83813 555 69912;","Q01  00002PRCP12"
"08544099999","2010-09-08T09:00:00","4","40.9166666","-8.6333333","22.0","OVAR MACEDA, PO","FM-12","99999","V020","160,1,N,0020,1","00900,1,C,N","008000,1,N,1","+0180,1","+0158,1","10167,1",,"2,1,03,1","2,1,03,1","04,1,+00450,1,08,1",,,,"05,99,1,05,1,08,1,00450,1,00,1,00,1",,,,,"99999,9,10147,1","2,1,018,1,+999,9","10,1",,,"SYN088AAXX  08091 08544 41458 51602 10180 20158 30147 40167 52018 71022 85800 333 84815 84622;",
"08544099999","2010-09-08T12:00:00","4","40.9166666","-8.6333333","22.0","OVAR MACEDA, PO","FM-12","99999","V020","270,1,N,0040,1","03600,1,9,N","010000,1,N,1","+0218,1","+0155,1","10178,1",,,,"03,1,+00600,1,08,1","04,1,+01050,1,06,1",,,"06,99,1,04,1,08,1,00800,1,03,1,01,1",,,,,"99999,9,10158,1","2,1,011,1,+999,9",,,,"SYN098AAXX  08121 08544 32560 62704 10218 20155 30158 40178 52011 84831 333 83820 84635 555 59964 60007;",
"08544099999","2010-09-08T15:00:00","4","40.9166666","-8.6333333","22.0","OVAR MACEDA, PO","FM-12","99999","V020","250,1,N,0040,1","03600,1,C,N","010000,1,N,1","+0226,1","+0161,1","10181,1",,,,"03,1,+00600,1,08,1",,,,"05,99,1,03,1,08,1,00800,1,03,1,00,1",,,,,"99999,9,10161,1","2,1,003,1,+999,9",,,,"SYN082AAXX  08151 08544 42560 52504 10226 20161 30161 40181 52003 83830 333 83820 83358;",
"08544099999","2010-09-08T18:00:00","4","40.9166666","-8.6333333","22.0","OVAR MACEDA, PO","FM-12","99999","V020","330,1,N,0030,1","22000,1,9,N","010000,1,N,1","+0214,1","+0167,1","10186,1",,,,"02,1,+00600,1,08,1",,,,"02,99,1,02,1,02,1,00800,1,00,1,00,1",,,,"120,M,+0234,1","99999,9,10166,1","3,1,005,1,+999,9",,,,"SYN092AAXX  08181 08544 32560 23303 10214 20167 30166 40186 53005 82200 333 10234 82820 555 60007;",
"08544099999","2010-09-09T06:00:00","4","40.9166666","-8.6333333","22.0","OVAR MACEDA, PO","FM-12","99999","V020","999,9,C,0000,1","22000,1,9,N","004000,1,N,1","+0150,1","+0147,1","10213,1",,,,"02,1,+00270,1,07,1","04,1,+00360,1,06,1",,,"04,99,1,04,1,02,1,00250,1,00,1,00,1","0546,9",,,"999,N,+0150,1","99999,9,10193,1","2,1,004,1,+999,9","10,1",,,"SYN116AAXX  09061 08544 31340 40000 10150 20147 30193 40213 52004 710// 84200 333 20150 50254 55091 82709 84612 555 60002;",
"08544099999","2010-09-09T09:00:00","4","40.9166666","-8.6333333","22.0","OVAR MACEDA, PO","FM-12","99999","V020","999,9,V,0010,1","22000,1,9,N","008000,1,N,1","+0198,1","+0173,1","10226,1",,"0,1,03,1","0,1,03,1","03,1,+00450,1,08,1",,,,"03,99,1,03,1,02,1,00450,1,00,1,00,1",,,,,"99999,9,10206,1","2,1,013,1,+999,9","10,1",,,"SYN082AAXX  09091 08544 41458 39901 10198 20173 30206 40226 52013 71000 83200 333 83815;",
"08544099999","2010-09-09T12:00:00","4","40.9166666","-8.6333333","22.0","OVAR MACEDA, PO","FM-12","99999","V020","330,1,N,0050,1","22000,1,9,N","010000,1,N,1","+0122,1","+9999,9","10228,1",,,,"02,1,+00450,1,08,1",,,,"02,99,1,02,1,02,1,00450,1,00,1,01,1",,,,,"99999,9,10208,1","0,1,002,1,+999,9",,,,"SYN092AAXX  09121 08544 31460 23305 10122 20166 30208 40228 50002 82201 333 82815 555 50004 60007;",
"08544099999","2010-09-09T15:00:00","4","40.9166666","-8.6333333","22.0","OVAR MACEDA, PO","FM-12","99999","V020","350,1,N,0060,1","22000,1,9,N","010000,1,N,1","+0220,1","+0147,1","10228,1",,,,"01,1,+07500,1,00,1",,,,"01,99,1,00,1,00,1,99999,9,00,1,01,1",,,,,"99999,9,10208,1","0,1,000,1,+999,9",,,,"SYN076AAXX  09151 08544 42960 13506 10220 20147 30208 40228 50000 80001 333 81075;",
"08544099999","2010-09-09T18:00:00","4","40.9166666","-8.6333333","22.0","OVAR MACEDA, PO","FM-12","99999","V020","360,1,N,0060,1","22000,1,9,N","010000,1,N,1","+0196,1","+0164,1","10223,1",,,,"03,1,+07500,1,00,1",,,,"03,99,1,00,1,00,1,99999,9,00,1,04,1",,,,"120,M,+0232,1","99999,9,10203,1","7,1,005,1,+999,9",,"0090,5","4,99,0110,9,999","SYN104AAXX  09181 08544 32960 33606 10196 20164 30203 40223 57005 80004 333 10232 83075 91009 91111 555 60007;",
"08544099999","2010-09-10T06:00:00","4","40.9166666","-8.6333333","22.0","OVAR MACEDA, PO","FM-12","99999","V020","999,9,C,0000,1","22000,1,9,N","008000,1,N,1","+0116,1","+0109,1","10200,1",,,,"02,1,+07500,1,00,1",,,,"02,99,1,00,1,00,1,99999,9,00,1,01,1","0636,9",,,"999,N,+0114,1","99999,9,10180,1","6,1,005,1,+999,9","10,1",,,"SYN110AAXX  10061 08544 31958 20000 10116 20109 30180 40200 56005 710// 80001 333 20114 50264 55106 82075 555 60002;",
"08544099999","2010-09-10T09:00:00","4","40.9166666","-8.6333333","22.0","OVAR MACEDA, PO","FM-12","99999","V020","999,9,C,0000,1","22000,1,9,N","010000,1,N,1","+0198,1","+0154,1","10203,1",,,,"02,1,+07500,1,00,1",,,,"02,99,1,00,1,00,1,99999,9,00,1,01,1",,,,,"99999,9,10183,1","0,1,003,1,+999,9",,,,"SYN076AAXX  10091 08544 42960 20000 10198 20154 30183 40203 50003 80001 333 82075;",
"08544099999","2010-09-10T12:00:00","4","40.9166666","-8.6333333","22.0","OVAR MACEDA, PO","FM-12","99999","V020","320,1,N,0030,1","22000,1,9,N","007000,1,N,1","+0240,1","+0163,1","10198,1",,"0,1,06,1","0,1,06,1","04,1,+07500,1,00,1",,,,"04,99,1,00,1,00,1,99999,9,00,1,01,1",,,,,"99999,9,10178,1","8,1,005,1,+999,9","05,1",,,"SYN098AAXX  10121 08544 31957 43203 10240 20163 30178 40198 58005 70500 80001 333 84075 555 50004 60007;",
"08544099999","2010-09-10T15:00:00","4","40.9166666","-8.6333333","22.0","OVAR MACEDA, PO","FM-12","99999","V020","010,1,N,0060,1","22000,1,9,N","010000,1,N,1","+0252,1","+0152,1","10181,1",,,,"01,1,+02700,1,03,1",,,,"04,99,1,01,1,00,1,99999,9,08,1,01,1",,,,,"99999,9,10162,1","7,1,016,1,+999,9",,,,"SYN082AAXX  10151 08544 42960 40106 10252 20152 30162 40181 57016 81081 333 81359 84075;",
"08544099999","2010-09-10T18:00:00","4","40.9166666","-8.6333333","22.0","OVAR MACEDA, PO","FM-12","99999","V020","010,1,N,0050,1","22000,1,9,N","010000,1,N,1","+0232,1","+0142,1","10167,1",,,,"03,1,+02700,1,03,1","04,1,+07500,1,00,1",,,"04,99,1,03,1,00,1,99999,9,03,1,01,1",,,,"120,M,+0258,1","99999,9,10147,1","7,1,015,1,+999,9",,,"4,99,0090,9,999","SYN104AAXX  10181 08544 32960 40105 10232 20142 30147 40167 57015 83031 333 10258 83359 84075 91109 555 60007;",
"08544099999","2010-09-11T06:00:00","4","40.9166666","-8.6333333","22.0","OVAR MACEDA, PO","FM-12","99999","V020","999,9,C,0000,1","08100,1,9,N","001500,1,N,1","+0126,1","+9999,9","10146,1",,,,"05,1,+08100,1,00,1",,,,"05,99,1,00,1,00,1,99999,9,00,1,01,1","0648,9",,,"999,N,+9999,9","99999,9,10126,1","7,1,005,1,+999,9","10,1",,,"SYN110AAXX  11061 08544 31915 50000 10126 20146 30126 40146 57005 710// 80001 333 20140 50364 55108 85077 555 60002;","Q01 +01402ATMN  "
"08544099999","2010-09-11T09:00:00","4","40.9166666","-8.6333333","22.0","OVAR MACEDA, PO","FM-12","99999","V020","999,9,V,0010,1","22000,1,9,N","006000,1,N,1","+0194,1","+0166,1","10151,1",,"1,1,03,1","1,1,03,1","02,1,+02100,1,03,1",,,,"03,99,1,02,1,00,1,02250,1,08,1,01,1",,,,,"99999,9,10131,1","3,1,005,1,+999,9","10,1",,,"SYN082AAXX  11091 08544 41856 39901 10194 20166 30131 40151 53005 71011 82081 333 82357;",
"08544099999","2010-09-11T15:00:00","4","40.9166666","-8.6333333","22.0","OVAR MACEDA, PO","FM-12","99999","V020","360,1,N,0050,1","22000,1,9,N","008000,1,N,1","+0228,1","+0170,1","10143,1",,"0,1,03,1","0,1,03,1","01,1,+02100,1,03,1",,,,"03,99,1,01,1,00,1,02250,1,03,1,02,1",,,,,"99999,9,10123,1","8,1,006,1,+999,9","05,1","0090,5",,"SYN094AAXX  11151 08544 41858 33605 10228 20170 30123 40143 58006 70500 81032 333 81357 91009 91109;",
"08544099999","2010-09-11T18:00:00","4","40.9166666","-8.6333333","22.0","OVAR MACEDA, PO","FM-12","99999","V020","360,1,N,0040,1","22000,1,9,N","010000,1,N,1","+0206,1","+0171,1","10145,1",,,,"01,1,+02100,1,03,1",,,,"03,99,1,01,1,00,1,02250,1,03,1,04,1",,,,"120,M,+0236,1","99999,9,10125,1","3,1,002,1,+999,9",,,"4,99,0090,9,999","SYN098AAXX  11181 08544 32860 33604 10206 20171 30125 40145 53002 81034 333 10236 81357 91109 555 60007;",
"08544099999","2010-09-12T06:00:00","4","40.9166666","-8.6333333","22.0","OVAR MACEDA, PO","FM-12","99999","V020","190,1,N,0020,1","22000,1,9,N","000100,1,N,1","+0132,1","+0129,1","10151,1",,"4,1,06,1",,"02,1,+00030,1,07,1","03,1,+07500,1,00,1",,,"04,99,1,02,1,06,1,00025,1,00,1,01,1","0654,9",,,"999,N,+0130,1","99999,9,10131,1","4,1,000,1,+999,9","44,1",,,"SYN116AAXX  12061 08544 31001 41902 10132 20129 30131 40151 54000 7444/ 82601 333 20130 52104 55109 82701 83075 555 60002;",
"08544099999","2010-09-12T09:00:00","4","40.9166666","-8.6333333","22.0","OVAR MACEDA, PO","FM-12","99999","V020","270,1,N,0010,1","22000,1,9,N","010000,1,N,1","+0194,1","+0172,1","10162,1",,"4,1,03,1","0,1,03,1","04,1,+07500,1,00,1",,,,"04,99,1,00,1,00,1,99999,9,00,1,01,1",,,,,"99999,9,10142,1","2,1,011,1,+999,9","10,1",,,"SYN082AAXX  12091 08544 41960 42701 10194 20172 30142 40162 52011 71040 80001 333 84075;",
"08544099999","2010-09-12T12:00:00","4","40.9166666","-8.6333333","22.0","OVAR MACEDA, PO","FM-12","99999","V020","330,1,N,0030,1","07500,1,9,N","010000,1,N,1","+0248,1","+0169,1","10167,1",,"4,1,06,1","1,1,06,1","06,1,+07500,1,00,1",,,,"06,99,1,00,1,00,1,99999,9,00,1,01,1",,,,,"99999,9,10147,1","1,1,005,1,+999,9","02,1",,,"SYN098AAXX  12121 08544 31960 63303 10248 20169 30147 40167 51005 70241 80001 333 86075 555 50004 60007;",
"08544099999","2010-09-12T15:00:00","4","40.9166666","-8.6333333","22.0","OVAR MACEDA, PO","FM-12","99999","V020","360,1,N,0060,1","07500,1,9,N","010000,1,N,1","+0288,1","+0164,1","10154,1",,,,"01,1,+00750,1,08,1","07,1,+07500,1,00,1",,,"07,99,1,02,1,01,1,00800,1,00,1,01,1",,,,,"99999,9,10135,1","7,1,012,1,+999,9",,"0090,5",,"SYN094AAXX  12151 08544 42560 73606 10288 20164 30135 40154 57012 82101 333 81825 87075 91009 91109;",
"08544099999","2010-09-12T18:00:00","4","40.9166666","-8.6333333","22.0","OVAR MACEDA, PO","FM-12","99999","V020","020,1,N,0070,1","07500,1,9,N","010000,1,N,1","+0256,1","+0167,1","10157,1",,,,"05,1,+07500,1,00,1",,,,"05,99,1,00,1,00,1,99999,9,00,1,01,1",,,,"120,M,+0320,1","99999,9,10138,1","3,1,003,1,+999,9",,"0080,5","4,99,0110,9,999","SYN104AAXX  12181 08544 32960 50207 10256 20167 30138 40157 53003 80001 333 10320 85075 91008 91111 555 60007;",
"08544099999","2010-09-13T06:00:00","4","40.9166666","-8.6333333","22.0","OVAR MACEDA, PO","FM-12","99999","V020","090,1,N,0020,1","22000,1,9,N","010000,1,N,1","+0236,1","+0125,1","10184,1",,,,"01,1,+07500,1,00,1",,,,"01,99,1,00,1,00,1,99999,9,00,1,01,1","0648,9",,,"999,N,+0184,1","99999,9,10164,1","2,1,009,1,+999,9","00,1",,,"SYN110AAXX  13061 08544 31960 10902 10236 20125 30164 40184 52009 700// 80001 333 20184 50614 55108 81075 555 60002;",
"08544099999","2010-09-13T09:00:00","4","40.9166666","-8.6333333","22.0","OVAR MACEDA, PO","FM-12","99999","V020","999,9,V,0010,1","22000,1,9,N","010000,1,N,1","+0252,1","+0148,1","10206,1",,,,"00,1,+99999,9,99,9",,,,"00,99,1,00,1,00,1,99999,9,00,1,00,1",,,,,"99999,9,10187,1","2,1,023,1,+999,9",,,,"SYN060AAXX  13091 08544 42960 09901 10252 20148 30187 40206 52023;",
"08544099999","2010-09-13T12:00:00","4","40.9166666","-8.6333333","22.0","OVAR MACEDA, PO","FM-12","99999","V020","310,1,N,0020,1","22000,1,9,N","010000,1,N,1","+0294,1","+0145,1","10216,1",,,,"01,1,+07500,1,00,1",,,,"01,99,1,00,1,00,1,99999,9,00,1,01,1",,,,,"99999,9,10197,1","0,1,010,1,+999,9",,,,"SYN092AAXX  13121 08544 32960 13102 10294 20145 30197 40216 50010 80001 333 81075 555 50004 60007;",
"08544099999","2010-09-13T15:00:00","4","40.9166666","-8.6333333","22.0","OVAR MACEDA, PO","FM-12","99999","V020","340,1,N,0050,1","22000,1,9,N","010000,1,N,1","+0284,1","+0151,1","10211,1",,,,"01,1,+07500,1,00,1",,,,"01,99,1,00,1,00,1,99999,9,00,1,01,1",,,,,"99999,9,10192,1","8,1,005,1,+999,9",,"0080,5",,"SYN088AAXX  13151 08544 42960 13405 10284 20151 30192 40211 58005 80001 333 81075 91008 91108;",
"08544099999","2010-09-13T18:00:00","4","40.9166666","-8.6333333","22.0","OVAR MACEDA, PO","FM-12","99999","V020","360,1,N,0050,1","22000,1,9,N","010000,1,N,1","+0258,1","+0136,1","10209,1",,,,"00,1,+99999,9,99,9",,,,"00,99,1,00,1,00,1,99999,9,00,1,00,1",,,,"120,M,+0306,1","99999,9,10190,1","7,1,002,1,+999,9",,,"4,99,0090,9,999","SYN086AAXX  13181 08544 32960 03605 10258 20136 30190 40209 57002 333 10306 91109 555 60007;",
"08544099999","2010-09-14T06:00:00","4","40.9166666","-8.6333333","22.0","OVAR MACEDA, PO","FM-12","99999","V020","999,9,C,0000,1","22000,1,9,N","007000,1,N,1","+0156,1","+0136,1","10222,1",,,,"00,1,+99999,9,99,9",,,,"00,99,1,00,1,00,1,99999,9,00,1,00,1","0672,9",,,"999,N,+0154,1","99999,9,10202,1","4,1,000,1,+999,9","10,1",,,"SYN098AAXX  14061 08544 31957 00000 10156 20136 30202 40222 54000 710// 333 20154 50744 55112 555 60002;",
"08544099999","2010-09-14T09:00:00","4","40.9166666","-8.6333333","22.0","OVAR MACEDA, PO","FM-12","99999","V020","999,9,C,0000,1","22000,1,9,N","010000,1,N,1","+0234,1","+0166,1","10222,1",,,,"02,1,+07500,1,00,1",,,,"02,99,1,00,1,00,1,99999,9,00,1,04,1",,,,,"99999,9,10202,1","0,1,000,1,+999,9",,,,"SYN076AAXX  14091 08544 42960 20000 10234 20166 30202 40222 50000 80004 333 82075;",
"08544099999","2010-09-14T12:00:00","4","40.9166666","-8.6333333","22.0","OVAR MACEDA, PO","FM-12","99999","V020","310,1,N,0040,1","22000,1,9,N","010000,1,N,1","+0280,1","+0138,1","10219,1",,,,"02,1,+07500,1,00,1",,,,"02,99,1,00,1,00,1,99999,9,00,1,02,1",,,,,"99999,9,10199,1","8,1,003,1,+999,9",,,,"SYN092AAXX  14121 08544 32960 23104 10280 20138 30199 40219 58003 80002 333 82075 555 50004 60007;",
"08544099999","2010-09-14T15:00:00","4","40.9166666","-8.6333333","22.0","OVAR MACEDA, PO","FM-12","99999","V020","360,1,N,0030,1","99999,9,9,N","010000,1,N,1","+0294,1","+0145,1","10203,1",,,,"01,1,+03000,1,03,1",,,,"05,99,1,01,1,00,1,99999,9,03,1,04,1",,,,,"99999,9,10183,1","7,1,016,1,+999,9",,,,"SYN082AAXX  14151 08544 42960 53603 10294 20145 30183 40203 57016 81034 333 81360 85075;",
"08544099999","2010-09-14T18:00:00","4","40.9166666","-8.6333333","22.0","OVAR MACEDA, PO","FM-12","99999","V020","360,1,N,0030,1","07500,1,9,N","010000,1,N,1","+0248,1","+0173,1","10200,1",,,,"01,1,+00750,1,08,1","04,1,+07500,1,00,1",,,"05,99,1,01,1,02,1,00800,1,03,1,01,1",,,,"120,M,+0298,1","99999,9,10180,1","6,1,003,1,+999,9",,,,"SYN098AAXX  14181 08544 32560 53603 10248 20173 30180 40200 56003 81231 333 10298 81825 84075 555 60007;",
"08544099999","2010-09-15T06:00:00","4","40.9166666","-8.6333333","22.0","OVAR MACEDA, PO","FM-12","99999","V020","999,9,C,0000,1","07500,1,9,N","005000,1,N,1","+0178,1","+0169,1","10179,1",,,,"07,1,+07500,1,00,1",,,,"07,99,1,00,1,00,1,99999,9,00,1,06,1","0600,9",,,"999,N,+0164,1","99999,9,10159,1","7,1,012,1,+999,9","10,1",,,"SYN110AAXX  15061 08544 31950 70000 10178 20169 30159 40179 57012 710// 80006 333 20164 50494 55100 87075 555 60002;",
"08544099999","2010-09-15T09:00:00","4","40.9166666","-8.6333333","22.0","OVAR MACEDA, PO","FM-12","99999","V020","999,9,V,0010,1","00030,1,C,N","000800,1,N,1","+0200,1","+0194,1","10201,1",,"4,1,03,1","2,1,03,1","03,1,+00030,1,07,1",,,,"08,99,1,08,1,06,1,00025,1,99,9,99,9",,,,,"99999,9,10181,1","2,1,022,1,+999,9","42,1",,,"SYN088AAXX  15091 08544 41008 89901 10200 20194 30181 40201 52022 74242 886// 333 83701 88703;",
"08544099999","2010-09-15T12:00:00","4","40.9166666","-8.6333333","22.0","OVAR MACEDA, PO","FM-12","99999","V020","200,1,N,0030,1","02100,1,9,N","003000,1,N,1","+0222,1","+0183,1","10214,1","06,9999,9,9","6,1,06,1","4,1,06,1","03,1,+00360,1,08,1","03,1,+00900,1,06,1","08,1,+02100,1,04,1",,"08,99,1,04,1,08,1,00450,1,02,1,99,9",,,,,"99999,9,10194,1","2,1,013,1,+999,9","60,1",,,"SYN134AAXX  15121 08544 11430 82003 10222 20183 30194 40214 52013 69901 76064 8482/ 333 83812 83630 88457 96010 555 59904 69907 96642 90329;","Q01  00002PRCP06Q02  00002PRCP06"
"08544099999","2010-09-15T15:00:00","4","40.9166666","-8.6333333","22.0","OVAR MACEDA, PO","FM-12","99999","V020","100,1,N,0020,1","02400,1,9,N","003000,1,N,1","+0218,1","+0196,1","10186,1",,"6,1,03,1","2,1,03,1","02,1,+00900,1,06,1","08,1,+02400,1,04,1",,,"08,99,1,02,1,05,1,00800,1,01,1,99,9",,,,,"99999,9,10166,1","7,1,025,1,+999,9","21,1",,,"SYN094AAXX  15151 08544 41530 81002 10218 20196 30166 40186 57025 72162 8251/ 333 82630 88458 96010;",
"08544099999","2010-09-15T18:00:00","4","40.9166666","-8.6333333","22.0","OVAR MACEDA, PO","FM-12","99999","V020","360,1,N,0020,1","02700,1,9,N","004000,1,N,1","+0220,1","+0183,1","10167,1","12,0005,9,1","6,1,06,1","2,1,06,1","04,1,+00900,1,06,1","06,1,+02700,1,04,1",,,"07,99,1,04,1,02,1,00800,1,07,1,04,1",,,,"120,M,+0228,1","99999,9,10148,1","7,1,018,1,+999,9","10,1",,,"SYN110AAXX  15181 08544 11540 73602 10220 20183 30148 40167 57018 69942 71062 84274 333 10228 84630 86459 555 60007;",
"08544099999","2010-09-16T06:00:00","4","40.9166666","-8.6333333","22.0","OVAR MACEDA, PO","FM-12","99999","V020","999,9,C,0000,1","03600,1,9,N","002000,1,N,1","+0184,1","+0175,1","10151,1",,,,"03,1,+00090,1,07,1","04,1,+00360,1,06,1",,,"06,99,1,04,1,02,1,00075,1,07,1,01,1","0006,9",,,"999,N,+0184,1","99999,9,10131,1","7,1,006,1,+999,9","10,1",,,"SYN116AAXX  16061 08544 31120 60000 10184 20175 30131 40151 57006 710// 84271 333 20184 50114 55001 83703 84612 555 60002;",
"08544099999","2010-09-16T09:00:00","4","40.9166666","-8.6333333","22.0","OVAR MACEDA, PO","FM-12","99999","V020","300,1,N,0020,1","99999,9,9,N","006000,1,N,1","+0206,1","+0172,1","10155,1",,,,"02,1,+00450,1,08,1",,,,"07,99,1,99,9,99,9,00450,1,99,9,99,9",,,,,"99999,9,10135,1","2,1,004,1,+999,9",,,,"SYN094AAXX  16091 08544 41456 73002 10206 20172 30135 40155 52004 52004 71022 86801 333 82815 85635;",
"08544099999","2010-09-16T12:00:00","4","40.9166666","-8.6333333","22.0","OVAR MACEDA, PO","FM-12","99999","V020","330,1,N,0040,1","22000,1,9,N","010000,1,N,1","+0226,1","+0171,1","10150,1",,,,"02,1,+00450,1,08,1","03,1,+07500,1,00,1",,,"04,99,1,02,1,08,1,00450,1,00,1,01,1",,,,,"99999,9,10130,1","8,1,005,1,+999,9",,,,"SYN098AAXX  16121 08544 32460 43304 10226 20171 30130 40150 58005 82801 333 82815 83075 555 59944 60007;",
"08544099999","2010-09-16T15:00:00","4","40.9166666","-8.6333333","22.0","OVAR MACEDA, PO","FM-12","99999","V020","330,1,N,0050,1","22000,1,9,N","010000,1,N,1","+0228,1","+0163,1","10135,1",,,,"01,1,+00030,1,01,1",,,,"03,99,1,01,1,01,1,00450,1,00,1,01,1",,,,,"99999,9,10115,1","7,1,015,1,+999,9",,,,"SYN082AAXX  16151 08544 42460 33305 10228 20163 30115 40135 57015 81101 333 81815 83075;",
"08544099999","2010-09-16T18:00:00","4","40.9166666","-8.6333333","22.0","OVAR MACEDA, PO","FM-12","99999","V020","360,1,N,0050,1","22000,1,9,N","010000,1,N,1","+0206,1","+0171,1","10130,1",,,,"01,1,+00450,1,08,1",,,,"02,99,1,01,1,02,1,00450,1,00,1,01,1",,,,"120,M,+0234,1","99999,9,10110,1","6,1,005,1,+999,9",,,,"SYN092AAXX  16181 08544 32460 23605 10206 20171 30110 40130 56005 81201 333 10234 81815 555 60007;",
"08544099999","2010-09-17T06:00:00","4","40.9166666","-8.6333333","22.0","OVAR MACEDA, PO","FM-12","99999","V020","999,9,C,0000,1","00150,1,9,N","004000,1,N,1","+0168,1","+0162,1","10112,1",,,,"04,1,+00060,1,07,1","07,1,+00150,1,07,1",,,"08,99,1,08,1,06,1,00150,1,99,9,99,9","0462,9",,,"999,N,+0144,1","99999,9,10092,1","7,1,018,1,+999,9",,,,"SYN110AAXX  17061 08544 31240 80000 10168 20162 30092 40112 57018 886// 333 20144 50234 55077 84702 87705 555 60002;",
"08544099999","2010-09-17T09:00:00","4","40.9166666","-8.6333333","22.0","OVAR MACEDA, PO","FM-12","99999","V020","130,1,N,0010,1","00120,1,C,N","005000,1,N,1","+0184,1","+0168,1","10123,1",,"2,1,03,1","2,1,03,1","03,1,+00120,1,07,1",,,,"08,99,1,08,1,06,1,00150,1,99,9,99,9",,,,,"99999,9,10103,1","2,1,011,1,+999,9","10,1",,,"SYN088AAXX  17091 08544 41250 81301 10184 20168 30103 40123 52011 71022 886// 333 83704 87708;",
"08544099999","2010-09-17T12:00:00","4","40.9166666","-8.6333333","22.0","OVAR MACEDA, PO","FM-12","99999","V020","320,1,N,0010,1","00360,1,9,N","005000,1,N,1","+0194,1","+0172,1","10124,1",,"2,1,06,1","2,1,06,1","04,1,+00240,1,07,1","07,1,+00360,1,08,1",,,"08,99,1,08,1,02,1,00250,1,99,9,99,9",,,,,"99999,9,10104,1","3,1,001,1,+999,9","10,1",,,"SYN104AAXX  17121 08544 31350 83201 10194 20172 30104 40124 53001 71022 882// 333 84708 87812 555 50004 60007;",
"08544099999","2010-09-17T15:00:00","4","40.9166666","-8.6333333","22.0","OVAR MACEDA, PO","FM-12","99999","V020","330,1,N,0050,1","00210,1,C,N","008000,1,N,1","+0210,1","+0173,1","10111,1",,"2,1,03,1","2,1,03,1","02,1,+00015,1,07,1",,,,"05,99,1,05,1,02,1,00250,1,00,1,00,1",,,,,"99999,9,10091,1","7,1,013,1,+999,9","10,1",,,"SYN088AAXX  17151 08544 41358 53305 10210 20173 30091 40111 57013 71022 85200 333 82700 84812;",
"08544099999","2010-09-17T18:00:00","4","40.9166666","-8.6333333","22.0","OVAR MACEDA, PO","FM-12","99999","V020","350,1,N,0030,1","22000,1,9,N","010000,1,N,1","+0210,1","+0162,1","10111,1",,,,"01,1,+00600,1,08,1","01,1,+00750,1,09,1","03,1,+07500,1,00,1",,"04,99,1,01,1,09,1,00800,1,03,1,03,1",,,,"120,M,+0222,1","99999,9,10091,1","5,1,000,1,+999,9",,,,"SYN104AAXX  17181 08544 32560 43503 10210 20162 30091 40111 55000 81933 333 10222 81820 81925 83075 555 60007;",
"08544099999","2010-09-18T06:00:00","4","40.9166666","-8.6333333","22.0","OVAR MACEDA, PO","FM-12","99999","V020","999,9,C,0000,1","22000,1,9,N","003000,1,N,1","+0148,1","+0141,1","10133,1",,,,"04,1,+00900,1,06,1",,,,"04,99,1,04,1,05,1,00800,1,00,1,00,1","0258,9",,,"999,N,+0142,1","99999,9,10113,1","3,1,004,1,+999,9","10,1",,,"SYN110AAXX  18061 08544 31530 40000 10148 20141 30113 40133 53004 710// 84500 333 20142 50134 55043 84630 555 60002;",
"08544099999","2010-09-18T09:00:00","4","40.9166666","-8.6333333","22.0","OVAR MACEDA, PO","FM-12","99999","V020","200,1,N,0010,1","00900,1,9,N","005000,1,N,1","+0190,1","+0168,1","10149,1",,"1,1,03,1","1,1,03,1","06,1,+00900,1,06,1",,,,"06,99,1,06,1,05,1,00800,1,00,1,00,1",,,,,"99999,9,10129,1","2,1,016,1,+999,9","10,1",,,"SYN082AAXX  18091 08544 41550 62001 10190 20168 30129 40149 52016 71011 86500 333 86630;",
"08544099999","2010-09-18T12:00:00","4","40.9166666","-8.6333333","22.0","OVAR MACEDA, PO","FM-12","99999","V020","280,1,N,0040,1","22000,1,9,N","010000,1,N,1","+0226,1","+0174,1","10154,1",,,,"02,1,+00600,1,08,1",,,,"03,99,1,03,1,08,1,00800,1,00,1,00,1",,,,,"99999,9,10134,1","0,1,005,1,+999,9",,,,"SYN092AAXX  18121 08544 32560 32804 10226 20174 30134 40154 50005 83800 333 82820 555 50004 60007;",
"08544099999","2010-09-18T15:00:00","4","40.9166666","-8.6333333","22.0","OVAR MACEDA, PO","FM-12","99999","V020","350,1,N,0050,1","22000,1,9,N","010000,1,N,1","+0232,1","+0157,1","10144,1",,,,"02,1,+00600,1,08,1",,,,"02,99,1,02,1,02,1,00800,1,00,1,00,1",,,,,"99999,9,10125,1","7,1,009,1,+999,9",,,,"SYN076AAXX  18151 08544 42560 23505 10232 20157 30125 40144 57009 82200 333 82820;",
"08544099999","2010-09-18T18:00:00","4","40.9166666","-8.6333333","22.0","OVAR MACEDA, PO","FM-12","99999","V020","360,1,N,0070,1","22000,1,9,N","010000,1,N,1","+0212,1","+0144,1","10146,1",,,,"01,1,+00600,1,08,1",,,,"01,99,1,01,1,02,1,00800,1,00,1,00,1",,,,"120,M,+0240,1","99999,9,10126,1","3,1,001,1,+999,9",,"0110,5","4,99,0120,9,999","SYN104AAXX  18181 08544 32560 13607 10212 20144 30126 40146 53001 81200 333 10240 81820 91011 91112 555 60007;",
"08544099999","2010-09-19T06:00:00","4","40.9166666","-8.6333333","22.0","OVAR MACEDA, PO","FM-12","99999","V020","999,9,C,0000,1","22000,1,9,N","008000,1,N,1","+0120,1","+0109,1","10145,1",,,,"02,1,+00600,1,08,1",,,,"02,99,1,02,1,02,1,00800,1,00,1,00,1","0462,9",,,"999,N,+0116,1","99999,9,10125,1","6,1,005,1,+999,9","10,1",,,"SYN110AAXX  19061 08544 31558 20000 10120 20109 30125 40145 56005 710// 82200 333 20116 50334 55077 82820 555 60002;",
"08544099999","2010-09-19T09:00:00","4","40.9166666","-8.6333333","22.0","OVAR MACEDA, PO","FM-12","99999","V020","160,1,N,0010,1","22000,1,9,N","010000,1,N,1","+0200,1","+0145,1","10153,1",,,,"01,1,+00750,1,08,1",,,,"01,99,1,01,1,01,1,00800,1,00,1,00,1",,,,,"99999,9,10133,1","0,1,008,1,+999,9",,,,"SYN076AAXX  19091 08544 42560 11601 10200 20145 30133 40153 50008 81100 333 81825;",
"08544099999","2010-09-19T12:00:00","4","40.9166666","-8.6333333","22.0","OVAR MACEDA, PO","FM-12","99999","V020","280,1,N,0040,1","22000,1,9,N","010000,1,N,1","+0244,1","+0150,1","10152,1",,,,"01,1,+00750,1,08,1",,,,"01,99,1,01,1,02,1,00800,1,00,1,00,1",,,,,"99999,9,10132,1","8,1,001,1,+999,9",,,,"SYN092AAXX  19121 08544 32560 12804 10244 20150 30132 40152 58001 81200 333 81825 555 50004 60007;",
"08544099999","2010-09-19T15:00:00","4","40.9166666","-8.6333333","22.0","OVAR MACEDA, PO","FM-12","99999","V020","340,1,N,0050,1","22000,1,9,N","010000,1,N,1","+0240,1","+0152,1","10136,1",,,,"01,1,+00600,1,08,1",,,,"01,99,1,01,1,02,1,00800,1,00,1,00,1",,,,,"99999,9,10116,1","7,1,016,1,+999,9",,,,"SYN076AAXX  19151 08544 42560 13405 10240 20152 30116 40136 57016 81200 333 81820;",
"08544099999","2010-09-19T18:00:00","4","40.9166666","-8.6333333","22.0","OVAR MACEDA, PO","FM-12","99999","V020","360,1,N,0050,1","22000,1,9,N","010000,1,N,1","+0212,1","+0141,1","10130,1",,,,"00,1,+99999,9,99,9",,,,"00,99,1,00,1,00,1,99999,9,00,1,00,1",,,,"120,M,+0256,1","99999,9,10110,1","7,1,006,1,+999,9",,,,"SYN080AAXX  19181 08544 32960 03605 10212 20141 30110 40130 57006 333 10256 555 60007;",
"08544099999","2010-09-20T06:00:00","4","40.9166666","-8.6333333","22.0","OVAR MACEDA, PO","FM-12","99999","V020","999,9,C,0000,1","22000,1,9,N","010000,1,N,1","+0130,1","+0120,1","10123,1",,,,"02,1,+00600,1,08,1",,,,"02,99,1,02,1,02,1,00800,1,00,1,00,1","0636,9",,,"999,N,+0126,1","99999,9,10103,1","7,1,005,1,+999,9","00,1",,,"SYN110AAXX  20061 08544 31560 20000 10130 20120 30103 40123 57005 700// 82200 333 20126 50354 55106 82820 555 60002;",
"08544099999","2010-09-20T09:00:00","4","40.9166666","-8.6333333","22.0","OVAR MACEDA, PO","FM-12","99999","V020","190,1,N,0030,1","22000,1,9,N","008000,1,N,1","+0188,1","+0160,1","10127,1",,"1,1,03,1","1,1,03,1","02,1,+00240,1,07,1",,,,"02,99,1,02,1,06,1,00250,1,00,1,00,1",,,,,"99999,9,10107,1","5,1,004,1,+999,9","10,1",,,"SYN082AAXX  20091 08544 41358 21903 10188 20160 30107 40127 55004 71011 82600 333 82708;",
"08544099999","2010-09-20T12:00:00","4","40.9166666","-8.6333333","22.0","OVAR MACEDA, PO","FM-12","99999","V020","270,1,N,0050,1","22000,1,9,N","010000,1,N,1","+0218,1","+0169,1","10135,1",,,,"01,1,+00450,1,08,1",,,,"03,99,1,02,1,08,1,00450,1,03,1,00,1",,,,,"99999,9,10115,1","2,1,008,1,+999,9",,,,"SYN092AAXX  20121 08544 32460 32705 10218 20169 30115 40135 52008 82830 333 81815 555 50004 60007;",
"08544099999","2010-09-20T15:00:00","4","40.9166666","-8.6333333","22.0","OVAR MACEDA, PO","FM-12","99999","V020","310,1,N,0040,1","22000,1,9,N","010000,1,N,1","+0224,1","+0159,1","10130,1",,,,"02,1,+00450,1,08,1",,,,"03,99,1,02,1,01,1,00450,1,03,1,00,1",,,,,"99999,9,10111,1","0,1,004,1,+999,9",,,,"SYN076AAXX  20151 08544 42460 33104 10224 20159 30111 40130 50004 82130 333 82815;",
"08544099999","2010-09-20T18:00:00","4","40.9166666","-8.6333333","22.0","OVAR MACEDA, PO","FM-12","99999","V020","360,1,N,0040,1","00660,1,9,N","010000,1,N,1","+0198,1","+0163,1","10138,1",,,,"04,1,+00600,1,08,1","01,1,+00660,1,09,1",,,"05,99,1,05,1,09,1,00450,1,00,1,00,1",,,,"120,M,+0230,1","99999,9,10118,1","3,1,007,1,+999,9",,,,"SYN098AAXX  20181 08544 32460 53604 10198 20163 30118 40138 53007 85900 333 10230 84820 81922 555 60007;",
"08544099999","2010-09-21T06:00:00","4","40.9166666","-8.6333333","22.0","OVAR MACEDA, PO","FM-12","99999","V020","999,9,C,0000,1","00450,1,9,N","006000,1,N,1","+0134,1","+0131,1","10164,1",,,,"01,1,+00180,1,07,1","05,1,+00450,1,08,1",,,"06,99,1,06,1,02,1,00150,1,00,1,00,1","0546,9",,,"999,N,+0126,1","99999,9,10143,1","2,1,025,1,+999,9","10,1",,,"SYN116AAXX  21061 08544 31256 60000 10134 20131 30143 40164 52025 710// 86200 333 20126 50224 55091 81706 85815 555 60002;",
"08544099999","2010-09-21T09:00:00","4","40.9166666","-8.6333333","22.0","OVAR MACEDA, PO","FM-12","99999","V020","040,1,N,0010,1","22000,1,9,N","010000,1,N,1","+0190,1","+0141,1","10177,1",,,,"02,1,+00420,1,08,1",,,,"02,99,1,02,1,02,1,00450,1,00,1,00,1",,,,,"99999,9,10157,1","2,1,014,1,+999,9",,,,"SYN076AAXX  21091 08544 42460 20401 10190 20141 30157 40177 52014 82200 333 82814;",
"08544099999","2010-09-21T12:00:00","4","40.9166666","-8.6333333","22.0","OVAR MACEDA, PO","FM-12","99999","V020","300,1,N,0040,1","22000,1,9,N","010000,1,N,1","+0210,1","+0135,1","10176,1",,,,"00,1,+99999,9,99,9",,,,"00,99,1,00,1,00,1,99999,9,00,1,00,1",,,,,"99999,9,10156,1","8,1,001,1,+999,9",,,,"SYN076AAXX  21121 08544 32960 03004 10210 20135 30156 40176 58001 555 50004 60007;",
"08544099999","2010-09-21T15:00:00","4","40.9166666","-8.6333333","22.0","OVAR MACEDA, PO","FM-12","99999","V020","330,1,N,0050,1","22000,1,9,N","010000,1,N,1","+0218,1","+0148,1","10173,1",,,,"01,1,+00660,1,08,1",,,,"02,99,1,01,1,02,1,00800,1,00,1,04,1",,,,,"99999,9,10153,1","7,1,003,1,+999,9",,,,"SYN076AAXX  21151 08544 42560 23305 10218 20148 30153 40173 57003 81204 333 81822;",
"08544099999","2010-09-21T18:00:00","4","40.9166666","-8.6333333","22.0","OVAR MACEDA, PO","FM-12","99999","V020","350,1,N,0030,1","22000,1,9,N","010000,1,N,1","+0196,1","+0154,1","10173,1",,,,"01,1,+00300,1,07,1","04,1,+07500,1,00,1",,,"04,99,1,01,1,06,1,00450,1,00,1,04,1",,,,"120,M,+0222,1","99999,9,10153,1","5,1,000,1,+999,9",,,,"SYN098AAXX  21181 08544 32460 43503 10196 20154 30153 40173 55000 81604 333 10222 81710 84075 555 60007;",
"08544099999","2010-09-22T06:00:00","4","40.9166666","-8.6333333","22.0","OVAR MACEDA, PO","FM-12","99999","V020","999,9,C,0000,1","22000,1,9,N","003000,1,N,1","+0128,1","+0121,1","10163,1",,,,"04,1,+07500,1,00,1",,,,"04,99,1,00,1,00,1,99999,9,00,1,01,1","0576,9",,,"999,N,+0124,1","99999,9,10142,1","7,1,005,1,+999,9","10,1",,,"SYN110AAXX  22061 08544 31930 40000 10128 20121 30142 40163 57005 710// 80001 333 20124 50294 55096 84075 555 60002;",
"08544099999","2010-09-22T09:00:00","4","40.9166666","-8.6333333","22.0","OVAR MACEDA, PO","FM-12","99999","V020","260,1,N,0010,1","09000,1,C,N","005000,1,N,1","+0180,1","+0155,1","10167,1",,"2,1,03,1","2,1,03,1","01,1,+00900,1,06,1",,,,"08,99,1,01,1,05,1,00800,1,00,1,06,1",,,,,"99999,9,10147,1","3,1,005,1,+999,9","10,1",,,"SYN088AAXX  22091 08544 41550 82601 10180 20155 30147 40167 53005 71022 81506 333 81630 88275;",
"08544099999","2010-09-22T12:00:00","4","40.9166666","-8.6333333","22.0","OVAR MACEDA, PO","FM-12","99999","V020","290,1,N,0030,1","07500,1,9,N","006000,1,N,1","+0226,1","+0164,1","10165,1",,"1,1,06,1","1,1,06,1","03,1,+03000,1,03,1","06,1,+07500,1,00,1",,,"07,99,1,03,1,00,1,99999,9,03,1,02,1",,,,,"99999,9,10145,1","8,1,012,1,+999,9","10,1",,,"SYN104AAXX  22121 08544 31956 72903 10226 20164 30145 40165 58012 71011 83032 333 83360 86075 555 50004 60007;",
"08544099999","2010-09-22T15:00:00","4","40.9166666","-8.6333333","22.0","OVAR MACEDA, PO","FM-12","99999","V020","340,1,N,0040,1","22000,1,9,N","008000,1,N,1","+0218,1","+0169,1","10163,1",,"1,1,03,1","1,1,03,1","02,1,+00660,1,08,1",,,,"04,99,1,02,1,02,1,00800,1,00,1,01,1",,,,,"99999,9,10143,1","8,1,002,1,+999,9","10,1",,,"SYN088AAXX  22151 08544 41558 43404 10218 20169 30143 40163 58002 71011 82201 333 82822 84075;",
"08544099999","2010-09-22T18:00:00","4","40.9166666","-8.6333333","22.0","OVAR MACEDA, PO","FM-12","99999","V020","310,1,N,0020,1","07500,1,9,N","010000,1,N,1","+0200,1","+0162,1","10175,1",,,,"03,1,+00540,1,08,1","05,1,+07500,1,00,1",,,"05,99,1,03,1,02,1,00450,1,00,1,04,1",,,,"120,M,+0230,1","99999,9,10155,1","2,1,012,1,+999,9",,,,"SYN098AAXX  22181 08544 32460 53102 10200 20162 30155 40175 52012 83204 333 10230 83818 85075 555 60007;",
"08544099999","2010-09-23T06:00:00","4","40.9166666","-8.6333333","22.0","OVAR MACEDA, PO","FM-12","99999","V020","200,1,N,0020,1","00900,1,9,N","005000,1,N,1","+0142,1","+0139,1","10169,1",,,,"01,1,+00450,1,08,1","05,1,+00900,1,06,1",,,"06,99,1,05,1,08,1,00450,1,00,1,01,1","0282,9",,,"999,N,+0138,1","99999,9,10148,1","7,1,007,1,+999,9","10,1",,,"SYN116AAXX  23061 08544 31450 62002 10142 20139 30148 40169 57007 710// 85801 333 20138 50224 55047 81815 85630 555 60002;",
"08544099999","2010-09-23T09:00:00","4","40.9166666","-8.6333333","22.0","OVAR MACEDA, PO","FM-12","99999","V020","170,1,N,0040,1","00900,1,9,N","010000,1,N,1","+0192,1","+0151,1","10176,1",,,,"02,1,+00450,1,08,1","04,1,+00900,1,06,1",,,"07,99,1,05,1,08,1,00450,1,05,1,01,1",,,,,"99999,9,10156,1","2,1,008,1,+999,9",,,,"SYN088AAXX  23091 08544 42460 71704 10192 20151 30156 40176 52008 85851 333 82815 84630 85070;",
"08544099999","2010-09-23T12:00:00","4","40.9166666","-8.6333333","22.0","OVAR MACEDA, PO","FM-12","99999","V020","170,1,N,0030,1","00900,1,C,N","010000,1,N,1","+0220,1","+0154,1","10174,1",,,,"02,1,+00450,1,08,1","03,1,+00900,1,06,1","05,1,+02400,1,03,1",,"07,99,1,03,1,08,1,00450,1,05,1,01,1",,,,,"99999,9,10154,1","8,1,002,1,+999,9",,,,"SYN104AAXX  23121 08544 32460 71703 10220 20154 30154 40174 58002 83851 333 82815 83630 85358 555 50004 60007;",
"08544099999","2010-09-23T15:00:00","4","40.9166666","-8.6333333","22.0","OVAR MACEDA, PO","FM-12","99999","V020","260,1,N,0040,1","99999,9,9,N","010000,1,N,1","+0220,1","+0168,1","10163,1",,,,"04,1,+00600,1,08,1",,,,"07,99,1,99,9,99,9,00800,1,99,9,99,9",,,,,"99999,9,10143,1","8,1,011,1,+999,9",,,,"SYN076AAXX  23151 08544 42560 72604 10220 20168 30143 40163 58011 333 84820 85358;",
"08544099999","2010-09-23T18:00:00","4","40.9166666","-8.6333333","22.0","OVAR MACEDA, PO","FM-12","99999","V020","230,1,N,0040,1","00600,1,9,N","010000,1,N,1","+0208,1","+0176,1","10162,1",,,,"01,1,+00450,1,09,1","05,1,+00600,1,08,1","05,1,+02400,1,03,1",,"08,99,1,06,1,09,1,00450,1,07,1,99,9",,,,"120,M,+0224,1","99999,9,10142,1","0,1,001,1,+999,9",,,,"SYN104AAXX  23181 08544 32460 82304 10208 20176 30142 40162 50001 8697/ 333 10224 81915 85820 85358 555 60007;",
"08544099999","2010-09-24T06:00:00","4","40.9166666","-8.6333333","22.0","OVAR MACEDA, PO","FM-12","99999","V020","999,9,C,0000,1","00180,1,9,N","000800,1,N,1","+0164,1","+0161,1","10164,1","12,0000,9,1","4,1,06,1",,"03,1,+00015,1,07,1","05,1,+00180,1,07,1","05,1,+00450,1,08,1",,"07,99,1,07,1,02,1,00025,1,00,1,00,1","0030,9",,,"999,N,+0152,1","99999,9,10144,1","2,1,002,1,+999,9","46,1",,,"SYN128AAXX  24061 08544 11008 70000 10164 20161 30144 40164 52002 69912 7464/ 87200 333 20152 50194 55005 83700 85706 85815 555 69912;","Q01  00002PRCP12"
"08544099999","2010-09-24T09:00:00","4","40.9166666","-8.6333333","22.0","OVAR MACEDA, PO","FM-12","99999","V020","050,1,N,0010,1","00900,1,9,N","010000,1,N,1","+0188,1","+0176,1","10153,1",,"4,1,03,1","2,1,03,1","04,1,+00450,1,08,1",,,,"05,99,1,05,1,08,1,00450,1,00,1,00,1",,,,,"99999,9,10153,1","2,1,009,1,+999,9","02,1",,,"SYN088AAXX  24091 08544 41460 50501 10188 20176 30153 40153 52009 70242 85800 333 84815 83630;",
"08544099999","2010-09-24T12:00:00","4","40.9166666","-8.6333333","22.0","OVAR MACEDA, PO","FM-12","99999","V020","340,1,N,0040,1","22000,1,9,N","010000,1,N,1","+0208,1","+0181,1","10176,1","06,0030,9,1","8,1,06,1","4,1,06,1","03,1,+00450,1,08,1",,,,"04,99,1,04,1,08,1,00450,1,00,1,00,1",,,,,"99999,9,10156,1","0,1,003,1,+999,9","01,1",,,"SYN104AAXX  24121 08544 11460 43404 10208 20181 30156 40176 50003 60031 70184 84800 333 83815 555 50044 60037;",
"08544099999","2010-09-24T15:00:00","4","40.9166666","-8.6333333","22.0","OVAR MACEDA, PO","FM-12","99999","V020","360,1,N,0080,1","22000,1,9,N","010000,1,N,1","+0216,1","+0153,1","10170,1",,,,"01,1,+00480,1,08,1",,,,"02,99,1,01,1,08,1,00450,1,00,1,01,1",,,,,"99999,9,10150,1","7,1,006,1,+999,9",,"0120,5","4,99,0130,9,999","SYN098AAXX  24151 08544 42460 23608 10216 20153 30150 40170 57006 81801 333 81816 91012 91113 555 60007;",
"08544099999","2010-09-24T18:00:00","4","40.9166666","-8.6333333","22.0","OVAR MACEDA, PO","FM-12","99999","V020","360,1,N,0070,1","22000,1,9,N","010000,1,N,1","+0188,1","+0142,1","10164,1","12,0030,9,1",,,"01,1,+00450,1,08,1",,,,"02,99,1,01,1,01,1,00450,1,00,1,04,1",,,,"120,M,+0218,1","99999,9,10144,1","7,1,006,1,+999,9",,"0110,5","4,99,0120,9,999","SYN110AAXX  24181 08544 12460 23607 10188 20142 30144 40164 57006 60032 81104 333 10218 81815 91011 91112 555 60007;",
"08544099999","2010-09-25T06:00:00","4","40.9166666","-8.6333333","22.0","OVAR MACEDA, PO","FM-12","99999","V020","360,1,N,0030,1","22000,1,9,N","010000,1,N,1","+0110,1","+0080,1","10154,1",,,,"02,1,+07500,1,00,1",,,,"02,99,1,00,1,00,1,99999,9,00,1,01,1","0516,9",,,"999,N,+0098,1","99999,9,10133,1","7,1,006,1,+999,9","00,1",,,"SYN110AAXX  25061 08544 31960 23603 10110 20080 30133 40154 57006 700// 80001 333 20098 50264 55086 82075 555 60002;",
"08544099999","2010-09-25T09:00:00","4","40.9166666","-8.6333333","22.0","OVAR MACEDA, PO","FM-12","99999","V020","030,1,N,0040,1","07500,1,9,N","010000,1,N,1","+0156,1","+0091,1","10162,1",,,,"05,1,+07500,1,00,1",,,,"05,99,1,00,1,00,1,99999,9,00,1,01,1",,,,,"99999,9,10142,1","2,1,009,1,+999,9",,,,"SYN076AAXX  25091 08544 42960 50304 10156 20091 30142 40162 52009 80001 333 85075;",
"08544099999","2010-09-25T12:00:00","4","40.9166666","-8.6333333","22.0","OVAR MACEDA, PO","FM-12","99999","V020","340,1,N,0050,1","07500,1,9,N","010000,1,N,1","+0206,1","+0099,1","10154,1",,,,"01,1,+03000,1,03,1","05,1,+07500,1,00,1",,,"05,99,1,01,1,00,1,99999,9,03,1,01,1",,,,,"99999,9,10134,1","7,1,008,1,+999,9",,,"4,99,0080,9,999","SYN104AAXX  25121 08544 32960 53405 10206 20099 30134 40154 57008 81031 333 81360 85075 91108 555 50004 60007;",
"08544099999","2010-09-25T15:00:00","4","40.9166666","-8.6333333","22.0","OVAR MACEDA, PO","FM-12","99999","V020","350,1,N,0100,1","22000,1,9,N","010000,1,N,1","+0200,1","+0149,1","10131,1",,,,"01,1,+00600,1,08,1","04,1,+07500,1,00,1",,,"04,99,1,01,1,01,1,00800,1,03,1,01,1",,,,,"99999,9,10111,1","7,1,023,1,+999,9",,"0150,5",,"SYN094AAXX  25151 08544 42560 43510 10200 20149 30111 40131 57023 81131 333 81820 84075 91015 91115;",
"08544099999","2010-09-25T18:00:00","4","40.9166666","-8.6333333","22.0","OVAR MACEDA, PO","FM-12","99999","V020","360,1,N,0090,1","22000,1,9,N","010000,1,N,1","+0180,1","+0132,1","10126,1",,,,"03,1,+03000,1,03,1","04,1,+07500,1,00,1",,,"04,99,1,03,1,00,1,99999,9,03,1,01,1",,,,"120,M,+0210,1","99999,9,10106,1","6,1,005,1,+999,9",,,"4,99,0150,9,999","SYN104AAXX  25181 08544 32960 43609 10180 20132 30106 40126 56005 83031 333 10210 83360 84075 91115 555 60007;",
"08544099999","2010-09-26T06:00:00","4","40.9166666","-8.6333333","22.0","OVAR MACEDA, PO","FM-12","99999","V020","999,9,C,0000,1","22000,1,9,N","010000,1,N,1","+0090,1","+0078,1","10119,1",,,,"03,1,+06600,1,00,1",,,,"03,99,1,00,1,00,1,99999,9,00,1,01,1","0570,9",,,"999,N,+0090,1","99999,9,10098,1","6,1,004,1,+999,9","00,1",,,"SYN110AAXX  26061 08544 31960 30000 10090 20078 30098 40119 56004 700// 80001 333 20090 50424 55095 83072 555 60002;",
"08544099999","2010-09-26T09:00:00","4","40.9166666","-8.6333333","22.0","OVAR MACEDA, PO","FM-12","99999","V020","010,1,N,0010,1","22000,1,9,N","010000,1,N,1","+0180,1","+0100,1","10127,1",,,,"03,1,+06600,1,00,1",,,,"03,99,1,00,1,00,1,99999,9,00,1,01,1",,,,,"99999,9,10107,1","2,1,009,1,+999,9",,,,"SYN076AAXX  26091 08544 42960 30101 10180 20100 30107 40127 52009 80001 333 83072;",
"08544099999","2010-09-26T12:00:00","4","40.9166666","-8.6333333","22.0","OVAR MACEDA, PO","FM-12","99999","V020","300,1,N,0040,1","22000,1,9,N","010000,1,N,1","+0212,1","+0094,1","10130,1",,,,"04,1,+07500,1,00,1",,,,"04,99,1,00,1,00,1,99999,9,00,1,01,1",,,,,"99999,9,10110,1","0,1,003,1,+999,9",,,,"SYN092AAXX  26121 08544 32960 43004 10212 20094 30110 40130 50003 80001 333 84075 555 50004 60007;",
"08544099999","2010-09-26T15:00:00","4","40.9166666","-8.6333333","22.0","OVAR MACEDA, PO","FM-12","99999","V020","360,1,N,0090,1","22000,1,9,N","010000,1,N,1","+0208,1","+0110,1","10122,1",,,,"04,1,+07500,1,00,1",,,,"04,99,1,00,1,00,1,99999,9,00,1,01,1",,,,,"99999,9,10102,1","6,1,008,1,+999,9",,"0120,5",,"SYN088AAXX  26151 08544 42960 43609 10208 20110 30102 40122 56008 80001 333 84075 91012 91113;",
"08544099999","2010-09-26T18:00:00","4","40.9166666","-8.6333333","22.0","OVAR MACEDA, PO","FM-12","99999","V020","010,1,N,0080,1","22000,1,9,N","010000,1,N,1","+0178,1","+0109,1","10129,1",,,,"03,1,+07500,1,00,1",,,,"03,99,1,00,1,00,1,99999,9,00,1,01,1",,,,"120,M,+0220,1","99999,9,10108,1","3,1,006,1,+999,9",,"0120,5","4,99,0150,9,999","SYN104AAXX  26181 08544 32960 30108 10178 20109 30108 40129 53006 80001 333 10220 83075 91012 91115 555 60007;",
"08544099999","2010-09-27T06:00:00","4","40.9166666","-8.6333333","22.0","OVAR MACEDA, PO","FM-12","99999","V020","190,1,N,0010,1","22000,1,9,N","010000,1,N,1","+0096,1","+0085,1","10133,1",,,,"02,1,+00240,1,07,1","04,1,+07500,1,00,1",,,"04,99,1,02,1,06,1,00250,1,00,1,01,1","0588,9",,,"999,N,+0086,1","99999,9,10113,1","4,1,000,1,+999,9","00,1",,,"SYN116AAXX  27061 08544 31360 41901 10096 20085 30113 40133 54000 700// 82601 333 20086 50454 55098 82708 84075 555 60002;",
"08544099999","2010-09-27T09:00:00","4","40.9166666","-8.6333333","22.0","OVAR MACEDA, PO","FM-12","99999","V020","180,1,N,0040,1","22000,1,C,N","010000,1,N,1","+0168,1","+0113,1","10141,1",,,,"02,1,+00210,1,07,1",,,,"05,99,1,02,1,07,1,00250,1,00,1,01,1",,,,,"99999,9,10121,1","2,1,008,1,+999,9",,,,"SYN082AAXX  27091 08544 42360 51804 10168 20113 30121 40141 52008 82701 333 82707 85075;",
"08544099999","2010-09-27T12:00:00","4","40.9166666","-8.6333333","22.0","OVAR MACEDA, PO","FM-12","99999","V020","280,1,N,0040,1","22000,1,9,N","010000,1,N,1","+0194,1","+0142,1","10151,1",,,,"03,1,+00450,1,08,1","03,1,+07500,1,00,1",,,"04,99,1,03,1,02,1,00450,1,00,1,01,1",,,,,"99999,9,10131,1","2,1,010,1,+999,9",,,,"SYN098AAXX  27121 08544 32460 42804 10194 20142 30131 40151 52010 83201 333 83815 83075 555 50004 60007;",
"08544099999","2010-09-27T15:00:00","4","40.9166666","-8.6333333","22.0","OVAR MACEDA, PO","FM-12","99999","V020","330,1,N,0040,1","22000,1,9,N","010000,1,N,1","+0198,1","+0121,1","10144,1",,,,"02,1,+00450,1,08,1",,,,"04,99,1,02,1,02,1,00450,1,03,1,01,1",,,,,"99999,9,10124,1","7,1,007,1,+999,9",,,,"SYN082AAXX  27151 08544 42460 43304 10198 20121 30124 40144 57007 82231 333 82815 83360;",
"08544099999","2010-09-27T18:00:00","4","40.9166666","-8.6333333","22.0","OVAR MACEDA, PO","FM-12","99999","V020","340,1,N,0030,1","22000,1,9,N","010000,1,N,1","+0176,1","+0125,1","10151,1",,,,"02,1,+00600,1,08,1","03,1,+02100,1,03,1",,,"03,99,1,02,1,02,1,00800,1,03,1,00,1",,,,"120,M,+0206,1","99999,9,10131,1","2,1,007,1,+999,9",,,,"SYN098AAXX  27181 08544 32560 33403 10176 20125 30131 40151 52007 82230 333 10206 82820 83357 555 60007;",
"08544099999","2010-09-28T06:00:00","4","40.9166666","-8.6333333","22.0","OVAR MACEDA, PO","FM-12","99999","V020","999,9,C,0000,1","22000,1,9,N","005000,1,N,1","+0082,1","+0074,1","10172,1",,,,"02,1,+07500,1,00,1",,,,"02,99,1,00,1,00,1,99999,9,00,1,01,1","0594,9",,,"999,N,+0078,1","99999,9,10151,1","1,1,010,1,+999,9","10,1",,,"SYN110AAXX  28061 08544 31950 20000 10082 20074 30151 40172 51010 710// 80001 333 20078 50244 55099 82075 555 60002;",
"08544099999","2010-09-28T09:00:00","4","40.9166666","-8.6333333","22.0","OVAR MACEDA, PO","FM-12","99999","V020","999,9,C,0000,1","22000,1,9,N","010000,1,N,1","+0160,1","+0133,1","10182,1",,,,"01,1,+07500,1,00,1",,,,"01,99,1,00,1,00,1,99999,9,00,1,01,1",,,,,"99999,9,10161,1","2,1,010,1,+999,9",,,,"SYN076AAXX  28091 08544 42960 10000 10160 20133 30161 40182 52010 80001 333 81075;",
"08544099999","2010-09-28T12:00:00","4","40.9166666","-8.6333333","22.0","OVAR MACEDA, PO","FM-12","99999","V020","320,1,N,0030,1","22000,1,9,N","010000,1,N,1","+0190,1","+0134,1","10188,1",,,,"01,1,+07500,1,00,1",,,,"01,99,1,00,1,00,1,99999,9,00,1,01,1",,,,,"99999,9,10168,1","1,1,007,1,+999,9",,,,"SYN092AAXX  28121 08544 32960 13203 10190 20134 30168 40188 51007 80001 333 81075 555 50004 60007;",
"08544099999","2010-09-28T15:00:00","4","40.9166666","-8.6333333","22.0","OVAR MACEDA, PO","FM-12","99999","V020","330,1,N,0050,1","22000,1,9,N","010000,1,N,1","+0196,1","+0130,1","10185,1",,,,"01,1,+07500,1,00,1",,,,"01,99,1,00,1,00,1,99999,9,00,1,01,1",,,,,"99999,9,10165,1","7,1,008,1,+999,9",,,,"SYN076AAXX  28151 08544 42960 13305 10196 20130 30165 40185 57008 80001 333 81075;",
"08544099999","2010-09-28T18:00:00","4","40.9166666","-8.6333333","22.0","OVAR MACEDA, PO","FM-12","99999","V020","350,1,N,0040,1","22000,1,9,N","010000,1,N,1","+0182,1","+0152,1","10188,1",,,,"01,1,+07500,1,00,1",,,,"01,99,1,00,1,00,1,99999,9,00,1,01,1",,,,"120,M,+0202,1","99999,9,10168,1","3,1,003,1,+999,9",,,,"SYN092AAXX  28181 08544 32960 13504 10182 20152 30168 40188 53003 80001 333 10202 81075 555 60007;",
"08544099999","2010-09-29T06:00:00","4","40.9166666","-8.6333333","22.0","OVAR MACEDA, PO","FM-12","99999","V020","070,1,N,0020,1","22000,1,9,N","007000,1,N,1","+0146,1","+0136,1","10194,1",,,,"03,1,+00900,1,06,1",,,,"04,99,1,03,1,05,1,00800,1,00,1,01,1","0618,9",,,"999,N,+0120,1","99999,9,10174,1","6,1,003,1,+999,9","10,1",,,"SYN110AAXX  29061 08544 31557 40702 10146 20136 30174 40194 56003 710// 83501 333 20120 50204 55103 83630 555 60002;",
"08544099999","2010-09-29T09:00:00","4","40.9166666","-8.6333333","22.0","OVAR MACEDA, PO","FM-12","99999","V020","060,1,N,0020,1","22000,1,9,N","010000,1,N,1","+0194,1","+0142,1","10202,1",,,,"01,1,+00450,1,08,1",,,,"04,99,1,03,1,08,1,00450,1,00,1,01,1",,,,,"99999,9,10182,1","2,1,008,1,+999,9",,,,"SYN082AAXX  29091 08544 42460 40602 10194 20142 30182 40202 52008 83801 333 81815 83635;",
"08544099999","2010-09-29T12:00:00","4","40.9166666","-8.6333333","22.0","OVAR MACEDA, PO","FM-12","99999","V020","320,1,N,0040,1","22000,1,9,N","010000,1,N,1","+0210,1","+0146,1","10202,1",,,,"01,1,+00540,1,08,1",,,,"02,99,1,01,1,02,1,00450,1,00,1,01,1",,,,,"99999,9,10181,1","8,1,001,1,+999,9",,,,"SYN092AAXX  29121 08544 32460 23204 10210 20146 30181 40202 58001 81201 333 81818 555 50004 60007;",
"08544099999","2010-09-29T15:00:00","4","40.9166666","-8.6333333","22.0","OVAR MACEDA, PO","FM-12","99999","V020","300,1,N,0040,1","22000,1,9,N","010000,1,N,1","+0200,1","+0162,1","10200,1",,,,"02,1,+00540,1,08,1","04,1,+07500,1,00,1",,,"04,99,1,03,1,08,1,00450,1,00,1,04,1",,,,,"99999,9,10176,1","6,1,002,1,+999,9",,,,"SYN088AAXX  29151 08544 42460 43004 10200 20162 30176 40200 56002 83804 333 82818 84075 91108;",
"08544099999","2010-09-29T18:00:00","4","40.9166666","-8.6333333","22.0","OVAR MACEDA, PO","FM-12","99999","V020","360,1,N,0030,1","01050,1,9,N","010000,1,N,1","+0190,1","+0157,1","10198,1",,,,"03,1,+00450,1,08,1","04,1,+01050,1,06,1",,,"06,99,1,05,1,08,1,00450,1,00,1,01,1",,,,"120,M,+0222,1","99999,9,10177,1","8,1,002,1,+999,9",,,,"SYN098AAXX  29181 08544 32460 63603 10190 20157 30177 40198 58002 85801 333 10222 83815 84635 555 60007;",
"08544099999","2010-09-30T06:00:00","4","40.9166666","-8.6333333","22.0","OVAR MACEDA, PO","FM-12","99999","V020","020,1,N,0050,1","00660,1,9,N","010000,1,N,1","+0152,1","+0135,1","10196,1",,,,"05,1,+00660,1,08,1",,,,"05,99,1,05,1,02,1,00450,1,00,1,00,1","0564,9",,,"999,N,+0152,1","99999,9,10175,1","3,1,005,1,+999,9","00,1",,,"SYN110AAXX  30061 08544 31460 50205 10152 20135 30175 40196 53005 700// 85200 333 20152 50224 55094 85822 555 60002;",
"08544099999","2010-09-30T09:00:00","4","40.9166666","-8.6333333","22.0","OVAR MACEDA, PO","FM-12","99999","V020","010,1,N,0060,1","09000,1,C,N","010000,1,N,1","+0170,1","+0119,1","10203,1",,,,"01,1,+00660,1,08,1",,,,"05,99,1,01,1,02,1,00800,1,03,1,04,1",,,,,"99999,9,10183,1","1,1,008,1,+999,9",,,,"SYN082AAXX  30091 08544 42560 50106 10170 20119 30183 40203 51008 81234 333 81822 84070;",
"08544099999","2010-09-30T12:00:00","4","40.9166666","-8.6333333","22.0","OVAR MACEDA, PO","FM-12","99999","V020","350,1,N,0060,1","06000,1,9,N","010000,1,N,1","+0194,1","+0116,1","10201,1",,,,"02,1,+00540,1,08,1","04,1,+06000,1,00,1",,,"05,99,1,02,1,02,1,00450,1,03,1,04,1",,,,,"99999,9,10181,1","7,1,002,1,+999,9",,,"4,99,0100,9,999","SYN104AAXX  30121 08544 32460 53506 10194 20116 30181 40201 57002 82234 333 82818 84070 91110 555 50004 60007;",
"08544099999","2010-09-30T15:00:00","4","40.9166666","-8.6333333","22.0","OVAR MACEDA, PO","FM-12","99999","V020","350,1,N,0080,1","06000,1,9,N","010000,1,N,1","+0194,1","+0123,1","10194,1",,,,"01,1,+02400,1,03,1","05,1,+06000,1,02,1",,,"05,99,1,01,1,00,1,02250,1,03,1,06,1",,,,,"99999,9,10174,1","7,1,007,1,+999,9",,,,"SYN088AAXX  30151 08544 42860 53508 10194 20123 30174 40194 57007 81036 333 81358 85270 91113;",
"08544099999","2010-09-30T18:00:00","4","40.9166666","-8.6333333","22.0","OVAR MACEDA, PO","FM-12","99999","V020","360,1,N,0050,1","22000,1,9,N","010000,1,N,1","+0172,1","+0132,1","10192,1",,,,"01,1,+02400,1,03,1","03,1,+06000,1,02,1",,,"03,99,1,01,1,00,1,02250,1,03,1,08,1",,,,"120,M,+0202,1","99999,9,10172,1","5,1,002,1,+999,9",,,"4,99,0120,9,999","SYN104AAXX  30181 08544 32860 33605 10172 20132 30172 40192 55002 81038 333 10202 81358 83270 91112 555 60007;",
"08544099999","2010-10-01T06:00:00","4","40.9166666","-8.6333333","22.0","OVAR MACEDA, PO","FM-12","99999","V020","190,1,N,0020,1","06000,1,9,N","010000,1,N,1","+0086,1","+0082,1","10168,1",,,,"02,1,+00450,1,06,1","03,1,+06000,1,00,1",,,"05,99,1,02,1,05,1,00450,1,03,1,01,1","0582,9",,,"999,N,+0084,1","99999,9,10147,1","7,1,006,1,+999,9","00,1",,,"SYN116AAXX  01061 08544 31460 51902 10086 20082 30147 40168 57006 700// 82531 333 20084 50354 55097 82615 83070 555 60002;",
"08544099999","2010-10-01T09:00:00","4","40.9166666","-8.6333333","22.0","OVAR MACEDA, PO","FM-12","99999","V020","190,1,N,0020,1","22000,1,9,N","010000,1,N,1","+0158,1","+0128,1","10169,1",,,,"02,1,+00450,1,08,1",,,,"04,99,1,02,1,02,1,00450,1,03,1,01,1",,,,,"99999,9,10149,1","2,1,002,1,+999,9",,,,"SYN076AAXX  01091 08544 42460 41902 10158 20128 30149 40169 52002 82231 333 82815;",
"08544099999","2010-10-01T12:00:00","4","40.9166666","-8.6333333","22.0","OVAR MACEDA, PO","FM-12","99999","V020","320,1,N,0030,1","22000,1,9,N","010000,1,N,1","+0204,1","+0139,1","10166,1",,,,"03,1,+00450,1,08,1",,,,"04,99,1,03,1,02,1,00450,1,03,1,01,1",,,,,"99999,9,10146,1","8,1,003,1,+999,9",,,,"SYN092AAXX  01121 08544 32460 43203 10204 20139 30146 40166 58003 83231 333 83815 555 50004 60007;",
"08544099999","2010-10-01T15:00:00","4","40.9166666","-8.6333333","22.0","OVAR MACEDA, PO","FM-12","99999","V020","280,1,N,0040,1","22000,1,9,N","010000,1,N,1","+0204,1","+0143,1","10151,1",,,,"01,1,+00480,1,08,1",,,,"04,99,1,01,1,02,1,00450,1,03,1,01,1",,,,,"99999,9,10131,1","7,1,015,1,+999,9",,,,"SYN082AAXX  01151 08544 42460 42804 10204 20143 30131 40151 57015 81231 333 81816 83360;",
"08544099999","2010-10-01T18:00:00","4","40.9166666","-8.6333333","22.0","OVAR MACEDA, PO","FM-12","99999","V020","260,1,N,0020,1","22000,1,9,N","010000,1,N,1","+0188,1","+0159,1","10149,1",,,,"01,1,+00450,1,08,1","03,1,+03000,1,03,1",,,"03,99,1,01,1,01,1,00450,1,03,1,00,1",,,,"120,M,+0220,1","99999,9,10129,1","5,1,002,1,+999,9",,,,"SYN098AAXX  01181 08544 32460 32602 10188 20159 30129 40149 55002 81130 333 10220 81815 83360 555 60007;",
"08544099999","2010-10-02T06:00:00","4","40.9166666","-8.6333333","22.0","OVAR MACEDA, PO","FM-12","99999","V020","190,1,N,0020,1","00900,1,9,N","010000,1,N,1","+0136,1","+0126,1","10123,1",,,,"02,1,+00450,1,08,1","06,1,+00900,1,06,1",,,"06,99,1,06,1,08,1,00450,1,00,1,00,1","0564,9",,,"999,N,+0116,1","99999,9,10102,1","7,1,007,1,+999,9","00,1",,,"SYN116AAXX  02061 08544 31460 61902 10136 20126 30102 40123 57007 700// 86800 333 20116 50234 55094 82815 86630 555 60002;",
"08544099999","2010-10-02T09:00:00","4","40.9166666","-8.6333333","22.0","OVAR MACEDA, PO","FM-12","99999","V020","180,1,N,0040,1","00900,1,C,N","010000,1,N,1","+0182,1","+0140,1","10133,1",,,,"03,1,+00450,1,08,1",,,,"06,99,1,06,1,08,1,00450,1,00,1,00,1",,,,,"99999,9,10113,1","2,1,011,1,+999,9",,,,"SYN082AAXX  02091 08544 42460 61804 10182 20140 30113 40133 52011 86800 333 83815 85620;",
"08544099999","2010-10-02T12:00:00","4","40.9166666","-8.6333333","22.0","OVAR MACEDA, PO","FM-12","99999","V020","210,1,N,0060,1","00600,1,9,N","010000,1,N,1","+0208,1","+0148,1","10131,1",,,,"04,1,+00540,1,08,1","03,1,+00600,1,06,1",,,"05,99,1,05,1,08,1,00450,1,00,1,00,1",,,,,"99999,9,10111,1","8,1,002,1,+999,9",,"0090,5","4,99,0120,9,999","SYN110AAXX  02121 08544 32460 52106 10208 20148 30111 40131 58002 85800 333 84818 83620 91009 91112 555 50004 60007;",
"08544099999","2010-10-02T15:00:00","4","40.9166666","-8.6333333","22.0","OVAR MACEDA, PO","FM-12","99999","V020","220,1,N,0070,1","02400,1,9,N","010000,1,N,1","+0218,1","+0152,1","10112,1",,,,"03,1,+00540,1,08,1","03,1,+02400,1,03,1",,,"06,99,1,04,1,08,1,00450,1,07,1,01,1",,,,,"99999,9,10092,1","7,1,019,1,+999,9",,"0150,5",,"SYN094AAXX  02151 08544 42460 62207 10218 20152 30092 40112 57019 84871 333 83818 83358 91015 91115;",
"08544099999","2010-10-02T18:00:00","4","40.9166666","-8.6333333","22.0","OVAR MACEDA, PO","FM-12","99999","V020","200,1,N,0060,1","02400,1,9,N","010000,1,N,1","+0200,1","+0152,1","10106,1",,,,"02,1,+00540,1,08,1","04,1,+00600,1,06,1","06,1,+02400,1,04,1",,"07,99,1,04,1,08,1,00450,1,07,1,01,1",,,,"120,M,+0234,1","99999,9,10086,1","7,1,006,1,+999,9",,"0100,5","4,99,0140,9,999","SYN116AAXX  02181 08544 32460 72006 10200 20152 30086 40106 57006 84871 333 10234 82818 84620 86458 91010 91114 555 60007;",
"08544099999","2010-10-03T06:00:00","4","40.9166666","-8.6333333","22.0","OVAR MACEDA, PO","FM-12","99999","V020","170,1,N,0080,1","00180,1,9,N","003000,1,N,1","+0168,1","+0159,1","10029,1","12,0079,9,1","6,1,06,1",,"05,1,+00180,1,07,1","06,1,+00270,1,07,1","08,1,+00360,1,06,1",,"08,99,1,08,1,05,1,00150,1,99,9,99,9","0474,9",,,"999,N,+0166,1","99999,9,10009,1","7,1,012,1,+999,9","60,1","0120,5","4,99,0180,9,999","SYN146AAXX  03061 08544 11230 81708 10168 20159 30009 40029 57012 60082 7606/ 885// 333 20166 50514 55079 85706 86709 88612 91012 91118 96010 555 60082;",
"08544099999","2010-10-03T09:00:00","4","40.9166666","-8.6333333","22.0","OVAR MACEDA, PO","FM-12","99999","V020","180,1,N,0120,1","00180,1,9,N","001000,1,N,1","+0174,1","+0168,1","09995,1",,"6,1,03,1","6,1,03,1","05,1,+00180,1,07,1","06,1,+00270,1,07,1","08,1,+00360,1,06,1",,"08,99,1,08,1,05,1,00150,1,99,9,99,9",,,,,"99999,9,09976,1","7,1,033,1,+999,9","65,1","0210,5",,"SYN106AAXX  03091 08544 41210 81812 10174 20168 39976 49995 57033 76566 885// 333 85706 86709 88612 91021 91121;",
"08544099999","2010-10-03T12:00:00","4","40.9166666","-8.6333333","22.0","OVAR MACEDA, PO","FM-12","99999","V020","210,1,N,0120,1","00540,1,9,N","003000,1,N,1","+0190,1","+0181,1","09987,1","06,0340,9,1","8,1,06,1","6,1,06,1","03,1,+00210,1,07,1","01,1,+00360,1,09,1","08,1,+00540,1,08,1",,"08,99,1,08,1,03,1,00250,1,99,9,99,9",,,,,"99999,9,09968,1","8,1,008,1,+999,9","80,1","0220,5","4,99,0240,9,999","SYN134AAXX  03121 08544 11330 82112 10190 20181 39968 49987 58008 60341 78086 883// 333 83707 81912 88818 91022 91124 96010 555 50424 60137;",
"08544099999","2010-10-03T15:00:00","4","40.9166666","-8.6333333","22.0","OVAR MACEDA, PO","FM-12","99999","V020","240,1,N,0090,1","00540,1,9,N","005000,1,N,1","+0202,1","+0168,1","09992,1",,"8,1,03,1","6,1,03,1","03,1,+00360,1,08,1","01,1,+00450,1,09,1","03,1,+00540,1,08,1",,"06,99,1,05,1,03,1,00450,1,07,1,00,1",,,,,"99999,9,09972,1","3,1,004,1,+999,9","10,1","0150,5",,"SYN106AAXX  03151 08544 41450 62409 10202 20168 39972 49992 53004 71086 85370 333 83812 81915 83818 91015 91125;",
"08544099999","2010-10-03T18:00:00","4","40.9166666","-8.6333333","22.0","OVAR MACEDA, PO","FM-12","99999","V020","270,1,N,0050,1","00540,1,9,N","007000,1,N,1","+0188,1","+0156,1","10019,1","12,0399,9,1","8,1,06,1","6,1,06,1","04,1,+00360,1,08,1","04,1,+00540,1,08,1",,,"06,99,1,06,1,08,1,00450,1,00,1,00,1",,,,"120,M,+0206,1","99999,9,09999,1","2,1,027,1,+999,9","10,1","0110,5","4,99,0160,9,999","SYN122AAXX  03181 08544 11457 62705 10188 20156 39999 40019 52027 60402 71086 86800 333 10206 84812 84818 91011 91116 555 60007;",
"08544099999","2010-10-04T06:00:00","4","40.9166666","-8.6333333","22.0","OVAR MACEDA, PO","FM-12","99999","V020","020,1,N,0030,1","06000,1,9,N","008000,1,N,1","+0154,1","+0134,1","10106,1","12,0061,9,1",,,"03,1,+00540,1,08,1","03,1,+06000,1,00,1",,,"05,99,1,04,1,08,1,00450,1,00,1,01,1","0084,9",,,"999,N,+0154,1","99999,9,10085,1","2,1,028,1,+999,9","10,1",,,"SYN122AAXX  04061 08544 11458 50203 10154 20134 30085 40106 52028 60062 710// 84801 333 20154 50244 55014 83818 83070 555 60062;",
"08544099999","2010-10-04T09:00:00","4","40.9166666","-8.6333333","22.0","OVAR MACEDA, PO","FM-12","99999","V020","999,9,V,0010,1","03600,1,9,N","010000,1,N,1","+0168,1","+0138,1","10128,1",,,,"03,1,+00540,1,08,1",,,,"06,99,1,04,1,08,1,00450,1,05,1,01,1",,,,,"99999,9,10108,1","2,1,023,1,+999,9",,,,"SYN082AAXX  04091 08544 42460 69901 10168 20138 30108 40128 52023 84851 333 83818 83630;",
"08544099999","2010-10-04T12:00:00","4","40.9166666","-8.6333333","22.0","OVAR MACEDA, PO","FM-12","99999","V020","330,1,N,0040,1","22000,1,9,N","010000,1,N,1","+0190,1","+0138,1","10139,1",,,,"03,1,+00540,1,08,1",,,,"04,99,1,03,1,02,1,00450,1,03,1,00,1",,,,,"99999,9,10119,1","0,1,011,1,+999,9",,,,"SYN092AAXX  04121 08544 32460 43304 10190 20138 30119 40139 50011 83230 333 83818 555 50124 60007;",
"08544099999","2010-10-04T15:00:00","4","40.9166666","-8.6333333","22.0","OVAR MACEDA, PO","FM-12","99999","V020","330,1,N,0040,1","22000,1,9,N","010000,1,N,1","+0192,1","+0137,1","10138,1",,,,"03,1,+00540,1,08,1",,,,"03,99,1,03,1,02,1,00450,1,00,1,00,1",,,,,"99999,9,10118,1","5,1,001,1,+999,9",,,,"SYN076AAXX  04151 08544 42460 33304 10192 20137 30118 40138 55001 83200 333 83818;",
"08544099999","2010-10-04T18:00:00","4","40.9166666","-8.6333333","22.0","OVAR MACEDA, PO","FM-12","99999","V020","340,1,N,0020,1","22000,1,9,N","010000,1,N,1","+0176,1","+0139,1","10145,1",,,,"01,1,+00390,1,08,1",,,,"01,99,1,01,1,02,1,00450,1,00,1,00,1",,,,"120,M,+0198,1","99999,9,10125,1","1,1,007,1,+999,9",,,,"SYN092AAXX  04181 08544 32460 13402 10176 20139 30125 40145 51007 81200 333 10198 81813 555 60007;",
"08544099999","2010-10-05T06:00:00","4","40.9166666","-8.6333333","22.0","OVAR MACEDA, PO","FM-12","99999","V020","999,9,C,0000,1","99999,9,9,N","010000,1,N,1","+9999,9","+9999,9","99999,9",,,,,,,,"07,99,1,99,9,99,9,00250,1,99,9,99,9",,,,,,,,,,"SYN117AAXX  05061 08544 31360 719002 10110 20103 30110 40131 57006 700// 85271 333 20100 50204 55094 83708 85615 555 60002;",
"08544099999","2010-10-05T09:00:00","4","40.9166666","-8.6333333","22.0","OVAR MACEDA, PO","FM-12","99999","V020","190,1,N,0040,1","00450,1,9,N","010000,1,N,1","+0162,1","+0132,1","10131,1",,,,"06,1,+00450,1,08,1",,,,"07,99,1,06,1,02,1,00450,1,03,1,99,9",,,,,"99999,9,10110,1","5,1,000,1,+999,9",,,,"SYN076AAXX  05091 08544 42460 71904 10162 20132 30110 40131 55000 8623/ 333 86815;",
"08544099999","2010-10-05T12:00:00","4","40.9166666","-8.6333333","22.0","OVAR MACEDA, PO","FM-12","99999","V020","180,1,N,0070,1","00450,1,9,N","010000,1,N,1","+0198,1","+0129,1","10122,1",,,,"06,1,+00450,1,08,1",,,,"08,99,1,06,1,02,1,00450,1,03,1,99,9",,,,,"99999,9,10102,1","7,1,008,1,+999,9",,,,"SYN092AAXX  05121 08544 32460 81807 10198 20129 30102 40122 57008 8623/ 333 86815 555 50004 60007;",
"08544099999","2010-10-05T15:00:00","4","40.9166666","-8.6333333","22.0","OVAR MACEDA, PO","FM-12","99999","V020","220,1,N,0060,1","00450,1,9,N","010000,1,N,1","+0192,1","+0140,1","10104,1",,,,"01,1,+00300,1,08,1","06,1,+00450,1,08,1",,,"08,99,1,06,1,02,1,00450,1,07,1,99,9",,,,,"99999,9,10084,1","7,1,018,1,+999,9",,,,"SYN088AAXX  05151 08544 42460 82206 10192 20140 30084 40104 57018 8627/ 333 81810 86815 91110;",
"08544099999","2010-10-05T18:00:00","4","40.9166666","-8.6333333","22.0","OVAR MACEDA, PO","FM-12","99999","V020","210,1,N,0070,1","00450,1,9,N","010000,1,N,1","+0190,1","+0144,1","10093,1",,,,"05,1,+00450,1,08,1",,,,"08,99,1,05,1,02,1,00450,1,07,1,99,9",,,,"120,M,+0202,1","99999,9,10073,1","5,1,011,1,+999,9",,"0110,5",,"SYN104AAXX  05181 08544 32460 82107 10190 20144 30073 40093 55011 8527/ 333 10202 85815 91011 91111 555 60007;",
"08544099999","2010-10-06T06:00:00","4","40.9166666","-8.6333333","22.0","OVAR MACEDA, PO","FM-12","99999","V020","010,1,N,0040,1","00420,1,9,N","005000,1,N,1","+0150,1","+0142,1","10087,1","12,0109,9,1","6,1,06,1",,"03,1,+00180,1,07,1","06,1,+00420,1,08,1",,,"08,99,1,06,1,02,1,00150,1,02,1,99,9","0006,9",,,"999,N,+0148,1","99999,9,10067,1","3,1,004,1,+999,9","60,1",,,"SYN128AAXX  06061 08544 11250 80104 10150 20142 30067 40087 53004 60112 7606/ 8622/ 333 20148 50284 55001 83706 86814 96010 555 60112;",
"08544099999","2010-10-06T09:00:00","4","40.9166666","-8.6333333","22.0","OVAR MACEDA, PO","FM-12","99999","V020","010,1,N,0030,1","00750,1,9,N","003500,1,N,1","+0152,1","+0145,1","10099,1",,"6,1,03,1","6,1,03,1","02,1,+00240,1,07,1","05,1,+00750,1,06,1","05,1,+02100,1,02,1",,"08,99,1,06,1,08,1,00150,1,02,1,99,9",,,,,"99999,9,10079,1","2,1,012,1,+999,9","61,1",,,"SYN100AAXX  06091 08544 41235 80103 10152 20145 30079 40099 52012 76166 8682/ 333 82708 85625 85257 96010;",
"08544099999","2010-10-06T12:00:00","4","40.9166666","-8.6333333","22.0","OVAR MACEDA, PO","FM-12","99999","V020","360,1,N,0040,1","00900,1,9,N","006000,1,N,1","+0164,1","+0144,1","10109,1","06,0041,9,1","6,1,06,1","2,1,06,1","03,1,+00240,1,07,1","05,1,+00900,1,06,1","06,1,+02100,1,02,1",,"08,99,1,07,1,08,1,00250,1,02,1,99,9",,,,,"99999,9,10089,1","2,1,010,1,+999,9","21,1",,,"SYN122AAXX  06121 08544 11356 83604 10164 20144 30089 40109 52010 60041 72162 8782/ 333 83708 85630 86257 96010 555 50154 69947;",
"08544099999","2010-10-06T15:00:00","4","40.9166666","-8.6333333","22.0","OVAR MACEDA, PO","FM-12","99999","V020","330,1,N,0030,1","03600,1,9,N","010000,1,N,1","+0178,1","+0152,1","10104,1",,,,"02,1,+00450,1,08,1",,,,"06,99,1,03,1,08,1,00450,1,07,1,04,1",,,,,"99999,9,10084,1","5,1,005,1,+999,9",,,,"SYN082AAXX  06151 08544 42460 63303 10178 20152 30084 40104 55005 83874 333 82815 83630;",
"08544099999","2010-10-06T18:00:00","4","40.9166666","-8.6333333","22.0","OVAR MACEDA, PO","FM-12","99999","V020","350,1,N,0030,1","00900,1,9,N","008000,1,N,1","+0172,1","+0152,1","10097,1","12,0041,9,1","2,1,06,1","2,1,06,1","02,1,+00450,1,08,1","04,1,+00900,1,06,1","06,1,+02100,1,06,1",,"07,99,1,05,1,08,1,00450,1,07,1,01,1",,,,"120,M,+0182,1","99999,9,10077,1","6,1,007,1,+999,9","10,1",,,"SYN116AAXX  06181 08544 11458 73503 10172 20152 30077 40097 56007 60042 71022 85871 333 10182 82815 84630 86657 555 60007;",
"08544099999","2010-10-07T06:00:00","4","40.9166666","-8.6333333","22.0","OVAR MACEDA, PO","FM-12","99999","V020","260,1,N,0020,1","00150,1,9,N","003000,1,N,1","+0164,1","+0161,1","10084,1","12,0030,9,1",,,"02,1,+00060,1,07,1","05,1,+00150,1,07,1","06,1,+00360,1,08,1",,"08,99,1,08,1,02,1,00075,1,99,9,99,9","0018,9",,,"999,N,+0164,1","99999,9,10084,1","7,1,011,1,+999,9","10,1",,,"SYN128AAXX  07061 08544 11130 82602 10164 20161 30084 40084 57011 60032 710// 882// 333 20164 50074 55003 82702 85705 86812 555 60032;",
"08544099999","2010-10-07T09:00:00","4","40.9166666","-8.6333333","22.0","OVAR MACEDA, PO","FM-12","99999","V020","200,1,N,0030,1","00900,1,9,N","003000,1,N,1","+0182,1","+0150,1","10090,1",,"6,1,03,1","2,1,03,1","02,1,+00150,1,07,1","05,1,+00900,1,06,1",,,"08,99,1,05,1,05,1,00150,1,07,1,99,9",,,,,"99999,9,10070,1","2,1,006,1,+999,9","10,1",,,"SYN094AAXX  07091 08544 41230 82003 10182 20150 30070 40090 52006 71062 8557/ 333 82705 85630 87358;",
"08544099999","2010-10-07T12:00:00","4","40.9166666","-8.6333333","22.0","OVAR MACEDA, PO","FM-12","99999","V020","200,1,N,0050,1","00900,1,9,N","010000,1,N,1","+0214,1","+0178,1","10085,1","06,0010,9,1","6,1,06,1","2,1,06,1","04,1,+00390,1,08,1","04,1,+00900,1,06,1",,,"06,99,1,06,1,08,1,00450,1,00,1,00,1",,,,,"99999,9,10065,1","8,1,005,1,+999,9","03,1","0090,5","4,99,0120,9,999","SYN122AAXX  07121 08544 11460 62005 10214 20178 30065 40085 58005 60011 70362 86800 333 84813 84630 91009 91112 555 50044 69957;",
"08544099999","2010-10-07T15:00:00","4","40.9166666","-8.6333333","22.0","OVAR MACEDA, PO","FM-12","99999","V020","230,1,N,0040,1","00900,1,9,N","010000,1,N,1","+0224,1","+0179,1","10073,1",,"8,1,03,1","2,1,03,1","03,1,+00480,1,08,1","05,1,+00900,1,06,1",,,"06,99,1,05,1,08,1,00450,1,00,1,01,1",,,,,"99999,9,10053,1","7,1,012,1,+999,9","80,1",,,"SYN094AAXX  07151 08544 41460 62304 10224 20179 30053 40073 57012 78082 85801 333 83816 85630 91112;",
"08544099999","2010-10-07T18:00:00","4","40.9166666","-8.6333333","22.0","OVAR MACEDA, PO","FM-12","99999","V020","210,1,N,0030,1","00900,1,9,N","006000,1,N,1","+0198,1","+0185,1","10066,1","12,0020,9,1","8,1,06,1","6,1,06,1","03,1,+00450,1,08,1","08,1,+00900,1,06,1",,,"08,99,1,08,1,08,1,00450,1,99,9,99,9",,,,"120,M,+0234,1","99999,9,10046,1","7,1,007,1,+999,9","61,1",,,"SYN110AAXX  07181 08544 11456 82103 10198 20185 30046 40066 57007 60022 76186 888// 333 10234 83815 88630 555 69987;",
"08544099999","2010-10-08T06:00:00","4","40.9166666","-8.6333333","22.0","OVAR MACEDA, PO","FM-12","99999","V020","180,1,N,0080,1","00900,1,9,N","010000,1,N,1","+0194,1","+0163,1","10031,1","12,0089,9,1",,,"03,1,+00450,1,08,1","05,1,+00900,1,06,1","06,1,+02400,1,03,1",,"08,99,1,06,1,08,1,00450,1,07,1,99,9","0414,9",,,"999,N,+0174,1","99999,9,10011,1","7,1,015,1,+999,9","00,1","0120,5","4,99,0140,9,999","SYN140AAXX  08061 08544 11460 81808 10194 20163 30011 40031 57015 60092 700// 8687/ 333 20174 50264 55069 83815 85630 86358 91012 91114 555 60092;",
"08544099999","2010-10-08T09:00:00","4","40.9166666","-8.6333333","22.0","OVAR MACEDA, PO","FM-12","99999","V020","180,1,N,0090,1","00900,1,9,N","010000,1,N,1","+0200,1","+0163,1","10028,1",,"8,1,03,1","2,1,03,1","03,1,+00450,1,08,1","08,1,+00900,1,06,1",,,"08,99,1,08,1,08,1,00450,1,99,9,99,9",,,,,"99999,9,10008,1","5,1,003,1,+999,9","02,1","0130,5",,"SYN100AAXX  08091 08544 41460 81809 10200 20163 30008 40028 55003 70282 888// 333 83815 88630 91013 91120;",
"08544099999","2010-10-08T12:00:00","4","40.9166666","-8.6333333","22.0","OVAR MACEDA, PO","FM-12","99999","V020","180,1,N,0080,1","00240,1,9,N","004000,1,N,1","+0190,1","+0175,1","10020,1","06,0020,9,1","8,1,06,1","6,1,06,1","05,1,+00240,1,07,1","07,1,+00450,1,08,1",,,"08,99,1,08,1,02,1,00250,1,99,9,99,9",,,,,"99999,9,10001,1","5,1,007,1,+999,9","61,1","0110,5","4,99,0160,9,999","SYN122AAXX  08121 08544 11340 81808 10190 20175 30001 40020 55007 60021 76186 882// 333 85708 87815 91011 91116 555 50124 60027;",
"08544099999","2010-10-08T15:00:00","4","40.9166666","-8.6333333","22.0","OVAR MACEDA, PO","FM-12","99999","V020","180,1,N,0100,1","00420,1,9,N","005000,1,N,1","+0192,1","+0174,1","10001,1",,"8,1,03,1","6,1,03,1","03,1,+00240,1,07,1","06,1,+00420,1,08,1",,,"08,99,1,08,1,02,1,00450,1,99,9,99,9",,,,,"99999,9,09982,1","7,1,019,1,+999,9","80,1","0160,5",,"SYN100AAXX  08151 08544 41450 81810 10192 20174 39982 40001 57019 78086 882// 333 83708 86814 91016 91116;",
"08544099999","2010-10-08T18:00:00","4","40.9166666","-8.6333333","22.0","OVAR MACEDA, PO","FM-12","99999","V020","160,1,N,0060,1","00420,1,9,N","005000,1,N,1","+0162,1","+0158,1","10021,1","12,0300,9,1","8,1,06,1","6,1,06,1","03,1,+00240,1,07,1","06,1,+00420,1,08,1",,,"08,99,1,99,9,02,1,00450,1,02,1,99,9",,,,"120,M,+0212,1","99999,9,10001,1","0,1,019,1,+999,9","61,1",,,"SYN110AAXX  08181 08544 11450 81606 10162 20158 30001 40021 50019 60302 76186 8822/ 333 10212 83708 86814 555 60207;","Q01+000082SCOTLC"
"08544099999","2010-10-09T06:00:00","4","40.9166666","-8.6333333","22.0","OVAR MACEDA, PO","FM-12","99999","V020","180,1,N,0050,1","00900,1,9,N","004000,1,N,1","+0134,1","+0120,1","10050,1","12,0231,9,1","6,1,06,1",,"03,1,+00420,1,08,1","05,1,+00900,1,06,1","06,1,+01800,1,04,1",,"08,99,1,06,1,08,1,00450,1,07,1,99,9","0000,9",,,"999,N,+0134,1","99999,9,10030,1","2,1,029,1,+999,9","61,1",,,"SYN128AAXX  09061 08544 11440 81805 10134 20120 30030 40050 52029 60232 7616/ 8687/ 333 20134 50164 55000 83814 85630 86456 555 60232;",
"08544099999","2010-10-09T09:00:00","4","40.9166666","-8.6333333","22.0","OVAR MACEDA, PO","FM-12","99999","V020","170,1,N,0050,1","22000,1,9,N","010000,1,N,1","+0154,1","+0131,1","10059,1",,"6,1,03,1","1,1,03,1","01,1,+00450,1,08,1",,,,"03,99,1,02,1,08,1,00450,1,03,1,00,1",,,,,"99999,9,10039,1","3,1,009,1,+999,9","01,1",,,"SYN082AAXX  09091 08544 41460 31705 10154 20131 30039 40059 53009 70161 82830 333 81815;",
"08544099999","2010-10-09T12:00:00","4","40.9166666","-8.6333333","22.0","OVAR MACEDA, PO","FM-12","99999","V020","180,1,N,0050,1","00450,1,9,N","010000,1,N,1","+0186,1","+0134,1","10058,1","06,0005,9,1","6,1,06,1","1,1,06,1","05,1,+00450,1,08,1",,,,"06,99,1,05,1,08,1,00450,1,03,1,00,1",,,,,"99999,9,10038,1","8,1,001,1,+999,9","03,1","0100,5",,"SYN116AAXX  09121 08544 11460 61805 10186 20134 30038 40058 58001 69961 70361 85830 333 85815 91010 91110 555 50504 60007;",
"08544099999","2010-10-09T15:00:00","4","40.9166666","-8.6333333","22.0","OVAR MACEDA, PO","FM-12","99999","V020","230,1,N,0060,1","07500,1,9,N","010000,1,N,1","+0200,1","+0124,1","10046,1",,,,"03,1,+00450,1,08,1","03,1,+07500,1,00,1",,,"07,99,1,04,1,02,1,00450,1,03,1,01,1",,,,,"99999,9,10026,1","7,1,012,1,+999,9",,"0110,5",,"SYN094AAXX  09151 08544 42460 72306 10200 20124 30026 40046 57012 84231 333 83815 83075 91011 91111;",
"08544099999","2010-10-09T18:00:00","4","40.9166666","-8.6333333","22.0","OVAR MACEDA, PO","FM-12","99999","V020","170,1,N,0020,1","06000,1,9,N","010000,1,N,1","+0152,1","+0141,1","10051,1","12,0020,9,1","8,1,06,1","2,1,06,1","03,1,+00450,1,08,1","03,1,+06000,1,00,1",,,"06,99,1,03,1,08,1,00450,1,00,1,02,1",,,,"120,M,+0208,1","99999,9,10031,1","2,1,005,1,+999,9","01,1",,"4,99,0120,9,999","SYN116AAXX  09181 08544 11460 61702 10152 20141 30031 40051 52005 60022 70182 83802 333 10208 83815 83070 91112 555 60017;",
"08544099999","2010-10-10T06:00:00","4","40.9166666","-8.6333333","22.0","OVAR MACEDA, PO","FM-12","99999","V020","170,1,N,0030,1","22000,1,9,N","010000,1,N,1","+0136,1","+0117,1","10044,1",,,,"01,1,+00450,1,08,1","03,1,+06000,1,00,1",,,"04,99,1,02,1,08,1,00450,1,00,1,04,1","0444,9",,,"999,N,+0130,1","99999,9,10024,1","7,1,003,1,+999,9","00,1",,,"SYN116AAXX  10061 08544 31460 41703 10136 20117 30024 40044 57003 700// 82804 333 20130 50264 55074 81815 83070 555 60002;",
"08544099999","2010-10-10T09:00:00","4","40.9166666","-8.6333333","22.0","OVAR MACEDA, PO","FM-12","99999","V020","180,1,N,0050,1","22000,1,9,N","010000,1,N,1","+0158,1","+0131,1","10046,1",,,,"02,1,+00450,1,08,1",,,,"05,99,1,03,1,09,1,00450,1,00,1,04,1",,,,,"99999,9,10026,1","3,1,002,1,+999,9",,,,"SYN082AAXX  10091 08544 42460 51805 10158 20131 30026 40046 53002 83904 333 82815 81920;",
"08544099999","2010-10-10T12:00:00","4","40.9166666","-8.6333333","22.0","OVAR MACEDA, PO","FM-12","99999","V020","190,1,N,0050,1","02100,1,9,N","010000,1,N,1","+0192,1","+0147,1","10037,1",,,,"04,1,+00450,1,08,1","03,1,+02100,1,03,1","06,1,+06000,1,00,1",,"07,99,1,04,1,02,1,00450,1,07,1,01,1",,,,,"99999,9,10017,1","7,1,009,1,+999,9",,,,"SYN104AAXX  10121 08544 32460 71905 10192 20147 30017 40037 57009 84271 333 84815 83357 86070 555 50014 60007;",
"08544099999","2010-10-10T15:00:00","4","40.9166666","-8.6333333","22.0","OVAR MACEDA, PO","FM-12","99999","V020","200,1,N,0050,1","03600,1,C,N","010000,1,N,1","+0196,1","+0152,1","10021,1",,"8,1,03,1","2,1,03,1","03,1,+00450,1,08,1","01,1,+00600,1,09,1",,,"06,99,1,03,1,03,1,00450,1,07,1,01,1",,,,,"99999,9,10001,1","7,1,016,1,+999,9","01,1",,,"SYN094AAXX  10151 08544 41460 62005 10196 20152 30001 40021 57016 70182 83371 333 83815 81920 84070;",
"08544099999","2010-10-10T18:00:00","4","40.9166666","-8.6333333","22.0","OVAR MACEDA, PO","FM-12","99999","V020","999,9,V,0010,1","22000,1,9,N","010000,1,N,1","+0170,1","+0147,1","10019,1","12,0010,9,1","8,1,06,1","2,1,06,1","02,1,+00450,1,08,1","02,1,+00600,1,09,1",,,"05,99,1,03,1,03,1,00450,1,00,1,01,1",,,,"120,M,+0202,1","99999,9,09999,1","5,1,002,1,+999,9","01,1",,,"SYN110AAXX  10181 08544 11460 59901 10170 20147 39999 40019 55002 69992 70182 83301 333 10202 82815 82920 555 60007;",
"08544099999","2010-10-11T06:00:00","4","40.9166666","-8.6333333","22.0","OVAR MACEDA, PO","FM-12","99999","V020","340,1,N,0010,1","22000,1,9,N","010000,1,N,1","+0102,1","+0098,1","99999,9",,,,,,,,"02,99,1,99,9,99,9,00800,1,99,9,99,9",,,,,,,,,,"SYN109AAXX  11061 08544 31560 23401 10102 20098 3006 40026 57006 700// 81501 333 20102 50154 55067 81630 555 60002;",
"08544099999","2010-10-11T09:00:00","4","40.9166666","-8.6333333","22.0","OVAR MACEDA, PO","FM-12","99999","V020","340,1,N,0030,1","22000,1,9,N","010000,1,N,1","+0140,1","+0109,1","10033,1",,,,"03,1,+01050,1,06,1",,,,"03,99,1,03,1,05,1,01250,1,00,1,00,1",,,,,"99999,9,10012,1","2,1,006,1,+999,9",,,,"SYN076AAXX  11091 08544 42660 33403 10140 20109 30012 40033 52006 83500 333 83635;",
"08544099999","2010-10-11T12:00:00","4","40.9166666","-8.6333333","22.0","OVAR MACEDA, PO","FM-12","99999","V020","340,1,N,0040,1","22000,1,9,N","010000,1,N,1","+0186,1","+0137,1","10028,1",,,,"01,1,+00450,1,08,1",,,,"03,99,1,02,1,08,1,00450,1,03,1,01,1",,,,,"99999,9,10008,1","7,1,004,1,+999,9",,,,"SYN092AAXX  11121 08544 32460 33404 10186 20137 30008 40028 57004 82831 333 81815 555 59994 60007;",
"08544099999","2010-10-11T15:00:00","4","40.9166666","-8.6333333","22.0","OVAR MACEDA, PO","FM-12","99999","V020","340,1,N,0050,1","22000,1,9,N","010000,1,N,1","+0200,1","+0149,1","10014,1",,,,"01,1,+00450,1,08,1",,,,"02,99,1,01,1,02,1,00450,1,03,1,00,1",,,,,"99999,9,09994,1","7,1,014,1,+999,9",,,,"SYN076AAXX  11151 08544 42460 23405 10200 20149 39994 40014 57014 81230 333 81815;",
"08544099999","2010-10-11T18:00:00","4","40.9166666","-8.6333333","22.0","OVAR MACEDA, PO","FM-12","99999","V020","330,1,N,0020,1","22000,1,9,N","010000,1,N,1","+0188,1","+0165,1","10018,1",,,,"01,1,+00900,1,02,1",,,,"03,99,1,01,1,02,1,00450,1,03,1,00,1",,,,"120,M,+0202,1","99999,9,09998,1","3,1,004,1,+999,9",,,,"SYN098AAXX  11181 08544 31460 33302 10188 20165 39998 40018 53004 81230 333 10202 81815 83358 555 60007;",
"08544099999","2010-10-12T06:00:00","4","40.9166666","-8.6333333","22.0","OVAR MACEDA, PO","FM-12","99999","V020","999,9,C,0000,1","22000,1,9,N","003000,1,N,1","+0136,1","+0133,1","10037,1",,,,"01,1,+00090,1,07,1",,,,"02,99,1,02,1,06,1,00075,1,00,1,00,1","0576,9",,,"999,N,+0130,1","99999,9,10017,1","2,1,004,1,+999,9","10,1",,,"SYN110AAXX  12061 08544 31130 20000 10136 20133 30017 40037 52004 710// 82600 333 20130 50144 55096 81703 555 60002;",
"08544099999","2010-10-12T09:00:00","4","40.9166666","-8.6333333","22.0","OVAR MACEDA, PO","FM-12","99999","V020","200,1,N,0010,1","22000,1,9,N","003000,1,N,1","+0144,1","+0137,1","10053,1",,"0,1,03,1","0,1,03,1","01,1,+00900,1,06,1",,,,"03,99,1,01,1,05,1,00800,1,03,1,04,1",,,,,"99999,9,10033,1","2,1,016,1,+999,9","10,1",,,"SYN088AAXX  12091 08544 41530 32001 10144 20137 30033 40053 52016 71000 81534 333 81630 83070;",
"08544099999","2010-10-12T12:00:00","4","40.9166666","-8.6333333","22.0","OVAR MACEDA, PO","FM-12","99999","V020","290,1,N,0030,1","22000,1,9,N","010000,1,N,1","+0210,1","+0146,1","10056,1",,,,"02,1,+00450,1,08,1",,,,"03,99,1,02,1,02,1,00450,1,03,1,00,1",,,,,"99999,9,10036,1","0,1,003,1,+999,9",,,,"SYN092AAXX  12121 08544 32460 32903 10210 20146 30036 40056 50003 82230 333 82815 555 50004 60007;",
"08544099999","2010-10-12T15:00:00","4","40.9166666","-8.6333333","22.0","OVAR MACEDA, PO","FM-12","99999","V020","340,1,N,0050,1","22000,1,9,N","010000,1,N,1","+0218,1","+0152,1","10052,1",,,,"01,1,+00450,1,08,1",,,,"04,99,1,04,1,08,1,00450,1,00,1,00,1",,,,,"99999,9,10032,1","7,1,004,1,+999,9",,,,"SYN082AAXX  12151 08544 42460 43405 10218 20152 30032 40052 57004 84800 333 81815 84618;",
"08544099999","2010-10-12T18:00:00","4","40.9166666","-8.6333333","22.0","OVAR MACEDA, PO","FM-12","99999","V020","010,1,N,0050,1","22000,1,9,N","010000,1,N,1","+0186,1","+0150,1","10056,1",,,,"01,1,+00600,1,06,1","01,1,+02100,1,03,1",,,"02,99,1,01,1,05,1,00800,1,03,1,00,1",,,,"120,M,+9999,9","99999,9,10036,1","2,1,005,1,+999,9",,"0070,5","4,99,0080,9,999","SYN110AAXX  12181 08544 32560 20105 10186 20150 30036 40056 52005 81530 333 10142 81620 81357 91007 91108 555 60007;","Q01 +01422ATMX  "
"08544099999","2010-10-13T06:00:00","4","40.9166666","-8.6333333","22.0","OVAR MACEDA, PO","FM-12","99999","V020","020,1,N,0020,1","22000,1,9,N","005000,1,N,1","+0108,1","+0104,1","10089,1",,,,"03,1,+00600,1,06,1","03,1,+06600,1,00,1",,,"04,99,1,03,1,02,1,00800,1,00,1,01,1","0504,9",,,"999,N,+0108,1","99999,9,10068,1","2,1,005,1,+999,9","10,1",,,"SYN116AAXX  13061 08544 31550 40202 10108 20104 30068 40089 52005 710// 83201 333 20108 50194 55084 83620 83072 555 60002;",
"08544099999","2010-10-13T09:00:00","4","40.9166666","-8.6333333","22.0","OVAR MACEDA, PO","FM-12","99999","V020","350,1,N,0010,1","22000,1,9,N","010000,1,N,1","+0164,1","+0151,1","10102,1",,,,"02,1,+06600,1,00,1",,,,"02,99,1,00,1,00,1,99999,9,00,1,01,1",,,,,"99999,9,10082,1","2,1,014,1,+999,9",,,,"SYN076AAXX  13091 08544 42960 23501 10164 20151 30082 40102 52014 80001 333 82072;",
"08544099999","2010-10-13T12:00:00","4","40.9166666","-8.6333333","22.0","OVAR MACEDA, PO","FM-12","99999","V020","310,1,N,0030,1","22000,1,9,N","010000,1,N,1","+0212,1","+0134,1","10109,1",,,,"01,1,+00600,1,08,1",,,,"02,99,1,01,1,01,1,00800,1,00,1,01,1",,,,,"99999,9,10089,1","2,1,007,1,+999,9",,,,"SYN092AAXX  13121 08544 32560 23103 10212 20134 30089 40109 52007 81101 333 81820 555 50004 60007;",
"08544099999","2010-10-13T15:00:00","4","40.9166666","-8.6333333","22.0","OVAR MACEDA, PO","FM-12","99999","V020","350,1,N,0060,1","22000,1,9,N","010000,1,N,1","+0208,1","+0144,1","10107,1",,,,"02,1,+00750,1,08,1",,,,"02,99,1,02,1,02,1,00800,1,00,1,00,1",,,,,"99999,9,10088,1","8,1,001,1,+999,9",,,,"SYN076AAXX  13151 08544 42560 23506 10208 20144 30088 40107 58001 82200 333 82825;",
"08544099999","2010-10-13T18:00:00","4","40.9166666","-8.6333333","22.0","OVAR MACEDA, PO","FM-12","99999","V020","340,1,N,0030,1","22000,1,9,N","010000,1,N,1","+0190,1","+0158,1","10115,1",,,,"02,1,+00750,1,08,1",,,,"02,99,1,02,1,02,1,00800,1,00,1,00,1",,,,"120,M,+0226,1","99999,9,10095,1","3,1,007,1,+999,9",,,,"SYN092AAXX  13181 08544 32560 23403 10190 20158 30095 40115 53007 82200 333 10226 82825 555 60007;",
"08544099999","2010-10-14T06:00:00","4","40.9166666","-8.6333333","22.0","OVAR MACEDA, PO","FM-12","99999","V020","170,1,N,0010,1","22000,1,9,N","007000,1,N,1","+0106,1","+0099,1","10127,1",,,,"00,1,+99999,9,99,9",,,,"00,99,1,00,1,00,1,99999,9,00,1,00,1","0576,9",,,"999,N,+0104,1","99999,9,10106,1","2,1,011,1,+999,9","10,1",,,"SYN098AAXX  14061 08544 31957 01701 10106 20099 30106 40127 52011 710// 333 20104 50214 55096 555 60002;",
"08544099999","2010-10-14T09:00:00","4","40.9166666","-8.6333333","22.0","OVAR MACEDA, PO","FM-12","99999","V020","190,1,N,0030,1","09000,1,C,N","006000,1,N,1","+0158,1","+0138,1","10141,1",,"1,1,03,1","1,1,03,1","01,1,+00180,1,07,1","03,1,+01800,1,03,1",,,"05,99,1,01,1,06,1,00150,1,03,1,01,1",,,,,"99999,9,10120,1","2,1,014,1,+999,9","10,1",,,"SYN094AAXX  14091 08544 41256 51903 10158 20138 30120 40141 52014 71011 81631 333 81706 83356 85070;",
"08544099999","2010-10-14T12:00:00","4","40.9166666","-8.6333333","22.0","OVAR MACEDA, PO","FM-12","99999","V020","240,1,N,0030,1","22000,1,9,N","010000,1,N,1","+0222,1","+0163,1","10141,1",,,,"02,1,+00600,1,08,1",,,,"02,99,1,02,1,02,1,00800,1,00,1,00,1",,,,,"99999,9,10121,1","0,1,001,1,+999,9",,,,"SYN092AAXX  14121 08544 32560 22403 10222 20163 30121 40141 50001 82200 333 82820 555 50004 60007;",
"08544099999","2010-10-14T15:00:00","4","40.9166666","-8.6333333","22.0","OVAR MACEDA, PO","FM-12","99999","V020","250,1,N,0040,1","22000,1,9,N","010000,1,N,1","+0210,1","+0170,1","10135,1",,,,"02,1,+00120,1,07,1","03,1,+00300,1,08,1",,,"04,99,1,04,1,02,1,00150,1,00,1,00,1",,,,,"99999,9,10115,1","7,1,006,1,+999,9",,,,"SYN088AAXX  14151 08544 42260 42504 10210 20170 30115 40135 57006 84200 333 82704 83810 91106;",
"08544099999","2010-10-14T18:00:00","4","40.9166666","-8.6333333","22.0","OVAR MACEDA, PO","FM-12","99999","V020","280,1,N,0020,1","00300,1,9,N","006000,1,N,1","+0188,1","+0165,1","10138,1",,"1,1,06,1","1,1,06,1","06,1,+00300,1,06,1",,,,"07,99,1,06,1,02,1,00450,1,00,1,01,1",,,,"120,M,+0228,1","99999,9,10118,1","1,1,003,1,+999,9","10,1",,,"SYN098AAXX  14181 08544 32456 72802 10188 20165 30118 40138 51003 71011 86201 333 10228 86610 555 60007;",
"08544099999","2010-10-15T06:00:00","4","40.9166666","-8.6333333","22.0","OVAR MACEDA, PO","FM-12","99999","V020","999,9,C,0000,1","22000,1,9,N","004000,1,N,1","+0124,1","+0117,1","10126,1",,,,"03,1,+00360,1,06,1",,,,"03,99,1,03,1,02,1,00450,1,00,1,00,1","0516,9",,,"999,N,+0116,1","99999,9,10106,1","2,1,005,1,+999,9","10,1",,,"SYN110AAXX  15061 08544 31440 30000 10124 20117 30106 40126 52005 710// 83200 333 20116 50844 55086 83612 555 60002;",
"08544099999","2010-10-15T09:00:00","4","40.9166666","-8.6333333","22.0","OVAR MACEDA, PO","FM-12","99999","V020","999,9,C,0000,1","22000,1,9,N","008000,1,N,1","+0156,1","+0133,1","10135,1",,"1,1,03,1","1,1,03,1","04,1,+00450,1,08,1",,,,"04,99,1,04,1,02,1,00450,1,00,1,00,1",,,,,"99999,9,10115,1","2,1,009,1,+999,9","10,1",,,"SYN082AAXX  15091 08544 41458 40000 10156 20133 30115 40135 52009 71011 84200 333 84815;",
"08544099999","2010-10-15T12:00:00","4","40.9166666","-8.6333333","22.0","OVAR MACEDA, PO","FM-12","99999","V020","310,1,N,0030,1","22000,1,9,N","010000,1,N,1","+0188,1","+0128,1","10131,1",,,,"04,1,+00510,1,08,1",,,,"04,99,1,04,1,02,1,00450,1,00,1,00,1",,,,,"99999,9,10111,1","7,1,004,1,+999,9",,,,"SYN092AAXX  15121 08544 32460 43103 10188 20128 30111 40131 57004 84200 333 84817 555 50004 60007;",
"08544099999","2010-10-15T15:00:00","4","40.9166666","-8.6333333","22.0","OVAR MACEDA, PO","FM-12","99999","V020","330,1,N,0040,1","22000,1,9,N","010000,1,N,1","+0194,1","+0132,1","10120,1",,,,"00,1,+99999,9,99,9",,,,"00,99,1,00,1,00,1,99999,9,00,1,00,1",,,,,"99999,9,10100,1","6,1,011,1,+999,9",,,,"SYN060AAXX  15151 08544 42960 03304 10194 20132 30100 40120 56011;",
"08544099999","2010-10-15T18:00:00","4","40.9166666","-8.6333333","22.0","OVAR MACEDA, PO","FM-12","99999","V020","350,1,N,0030,1","22000,1,9,N","008000,1,N,1","+0170,1","+0129,1","10124,1",,"0,1,06,1","0,1,06,1","01,1,+00450,1,08,1",,,,"01,99,1,01,1,02,1,00450,1,00,1,00,1",,,,"120,M,+0195,1","99999,9,10104,1","1,1,004,1,+999,9","10,1",,,"SYN098AAXX  15181 08544 31458 13503 10170 20129 30104 40124 51004 71000 81200 333 10195 81815 555 60007;",
"08544099999","2010-10-16T06:00:00","4","40.9166666","-8.6333333","22.0","OVAR MACEDA, PO","FM-12","99999","V020","999,9,C,0000,1","22000,1,9,N","010000,1,N,1","+0130,1","+0020,1","10125,1",,,,"00,1,+99999,9,99,9",,,,"00,99,1,00,1,00,1,99999,9,00,1,00,1","0504,9",,,"999,N,+0130,1","99999,9,10104,1","6,1,003,1,+999,9","00,1",,,"SYN098AAXX  16061 08544 31960 00000 10130 20020 30104 40125 56003 700// 333 20130 50194 55084 555 60002;",
"08544099999","2010-10-16T09:00:00","4","40.9166666","-8.6333333","22.0","OVAR MACEDA, PO","FM-12","99999","V020","999,9,C,0000,1","22000,1,9,N","010000,1,N,1","+0150,1","+0096,1","10136,1",,"4,1,03,1","0,1,03,1","00,1,+99999,9,99,9",,,,"00,99,1,00,1,00,1,99999,9,00,1,00,1",,,,,"99999,9,10116,1","2,1,012,1,+999,9","02,1",,,"SYN066AAXX  16091 08544 41960 00000 10150 20096 30116 40136 52012 70240;",
"08544099999","2010-10-16T12:00:00","4","40.9166666","-8.6333333","22.0","OVAR MACEDA, PO","FM-12","99999","V020","270,1,N,0030,1","22000,1,9,N","010000,1,N,1","+0194,1","+0120,1","10138,1",,"4,1,06,1","0,1,06,1","01,1,+00600,1,08,1",,,,"01,99,1,01,1,02,1,00800,1,00,1,00,1",,,,,"99999,9,10118,1","2,1,002,1,+999,9","03,1",,,"SYN098AAXX  16121 08544 31560 12703 10194 20120 30118 40138 52002 70340 81200 333 81820 555 50004 60007;",
"08544099999","2010-10-16T15:00:00","4","40.9166666","-8.6333333","22.0","OVAR MACEDA, PO","FM-12","99999","V020","320,1,N,0030,1","22000,1,9,N","010000,1,N,1","+0212,1","+0102,1","10128,1",,,,"01,1,+00600,1,08,1",,,,"01,99,1,01,1,02,1,00800,1,00,1,00,1",,,,,"99999,9,10108,1","6,1,010,1,+999,9",,,,"SYN076AAXX  16151 08544 42560 13203 10212 20102 30108 40128 56010 81200 333 81820;",
"08544099999","2010-10-16T18:00:00","4","40.9166666","-8.6333333","22.0","OVAR MACEDA, PO","FM-12","99999","V020","360,1,N,0060,1","22000,1,9,N","010000,1,N,1","+0170,1","+0133,1","10136,1",,,,"00,1,+99999,9,99,9",,,,"00,99,1,00,1,00,1,99999,9,00,1,00,1",,,,"120,M,+0212,1","99999,9,10115,1","2,1,007,1,+999,9",,"0090,5","4,99,0100,9,999","SYN092AAXX  16181 08544 32960 03606 10170 20133 30115 40136 52007 333 10212 91009 91110 555 60007;",
"08544099999","2010-10-17T06:00:00","4","40.9166666","-8.6333333","22.0","OVAR MACEDA, PO","FM-12","99999","V020","030,1,N,0010,1","22000,1,9,N","010000,1,N,1","+0078,1","+0062,1","10164,1",,,,"00,1,+99999,9,99,9",,,,"00,99,1,00,1,00,1,99999,9,00,1,00,1","0552,9",,,"999,N,+0074,1","99999,9,10143,1","3,1,004,1,+999,9","00,1",,,"SYN098AAXX  17061 08544 31960 00301 10078 20062 30143 40164 53004 700// 333 20074 50274 55092 555 60002;",
"08544099999","2010-10-17T09:00:00","4","40.9166666","-8.6333333","22.0","OVAR MACEDA, PO","FM-12","99999","V020","010,1,N,0010,1","22000,1,9,N","010000,1,N,1","+0138,1","+0102,1","10190,1",,,,"01,1,+06000,1,00,1",,,,"01,99,1,00,1,00,1,99999,9,00,1,01,1",,,,,"99999,9,10169,1","2,1,026,1,+999,9",,,,"SYN076AAXX  17091 08544 42960 10101 10138 20102 30169 40190 52026 80001 333 81070;",
"08544099999","2010-10-17T12:00:00","4","40.9166666","-8.6333333","22.0","OVAR MACEDA, PO","FM-12","99999","V020","080,1,N,0040,1","22000,1,9,N","010000,1,N,1","+0204,1","+0068,1","10193,1",,,,"01,1,+06000,1,00,1",,,,"01,99,1,00,1,00,1,99999,9,00,1,01,1",,,,,"99999,9,10173,1","1,1,004,1,+999,9",,,,"SYN092AAXX  17121 08544 32960 10804 10204 20068 30173 40193 51004 80001 333 81070 555 50004 60007;",
"08544099999","2010-10-17T15:00:00","4","40.9166666","-8.6333333","22.0","OVAR MACEDA, PO","FM-12","99999","V020","050,1,N,0050,1","22000,1,9,N","010000,1,N,1","+0214,1","+0073,1","10179,1",,,,"01,1,+06000,1,00,1",,,,"01,99,1,00,1,00,1,99999,9,00,1,01,1",,,,,"99999,9,10159,1","7,1,014,1,+999,9",,,,"SYN076AAXX  17151 08544 42960 10505 10214 20073 30159 40179 57014 80001 333 81070;",
"08544099999","2010-10-17T18:00:00","4","40.9166666","-8.6333333","22.0","OVAR MACEDA, PO","FM-12","99999","V020","360,1,N,0050,1","22000,1,9,N","010000,1,N,1","+0172,1","+0121,1","10186,1",,,,"00,1,+99999,9,99,9",,,,"00,99,1,00,1,00,1,99999,9,00,1,00,1",,,,"120,M,+0216,1","99999,9,10165,1","2,1,006,1,+999,9",,,,"SYN080AAXX  17181 08544 32960 03605 10172 20121 30165 40186 52006 333 10216 555 60007;",
"08544099999","2010-10-18T06:00:00","4","40.9166666","-8.6333333","22.0","OVAR MACEDA, PO","FM-12","99999","V020","070,1,N,0030,1","22000,1,9,N","010000,1,N,1","+0130,1","+0041,1","10204,1",,,,"00,1,+99999,9,99,9",,,,"00,99,1,00,1,00,1,99999,9,00,1,00,1","0606,9",,,"999,N,+0094,1","99999,9,10183,1","1,1,001,1,+999,9","00,1",,,"SYN098AAXX  18061 08544 31960 00703 10130 20041 30183 40204 51001 700// 333 20094 50494 55101 555 60002;",
"08544099999","2010-10-18T09:00:00","4","40.9166666","-8.6333333","22.0","OVAR MACEDA, PO","FM-12","99999","V020","080,1,N,0020,1","22000,1,9,N","010000,1,N,1","+0148,1","+0045,1","10215,1",,,,"02,1,+06000,1,00,1",,,,"02,99,1,00,1,00,1,99999,9,00,1,01,1",,,,,"99999,9,10195,1","2,1,012,1,+999,9",,,,"SYN076AAXX  18091 08544 42960 20802 10148 20045 30195 40215 52012 80001 333 82070;",
"08544099999","2010-10-18T12:00:00","4","40.9166666","-8.6333333","22.0","OVAR MACEDA, PO","FM-12","99999","V020","270,1,N,0030,1","22000,1,9,N","010000,1,N,1","+0212,1","+0044,1","10213,1",,,,"02,1,+06000,1,00,1",,,,"02,99,1,00,1,00,1,99999,9,00,1,01,1",,,,,"99999,9,10193,1","8,1,002,1,+999,9",,,,"SYN092AAXX  18121 08544 32960 22703 10212 20044 30193 40213 58002 80001 333 82070 555 50004 60007;",
"08544099999","2010-10-18T15:00:00","4","40.9166666","-8.6333333","22.0","OVAR MACEDA, PO","FM-12","99999","V020","050,1,N,0040,1","22000,1,9,N","010000,1,N,1","+0212,1","+0055,1","10195,1",,,,"01,1,+06000,1,00,1",,,,"01,99,1,00,1,00,1,99999,9,00,1,01,1",,,,,"99999,9,10175,1","7,1,028,1,+999,9",,,,"SYN082AAXX  18151 08544 42960 10504 10212 20055 30175 40195 57028 80001 333 81070 91107;",
"08544099999","2010-10-18T18:00:00","4","40.9166666","-8.6333333","22.0","OVAR MACEDA, PO","FM-12","99999","V020","360,1,N,0050,1","22000,1,9,N","010000,1,N,1","+0164,1","+0115,1","10199,1",,,,"02,1,+06000,1,00,1",,,,"99,99,9,00,1,00,1,99999,9,00,1,01,1",,,,"120,M,+0216,1","99999,9,10178,1","3,1,003,1,+999,9",,,"4,99,0120,9,999","SYN098AAXX  18181 08544 32960 13605 10164 20115 30178 40199 53003 80001 333 10216 82070 91112 555 60007;","Q01+000012SCOTCV"
"08544099999","2010-10-19T06:00:00","4","40.9166666","-8.6333333","22.0","OVAR MACEDA, PO","FM-12","99999","V020","999,9,C,0000,1","22000,1,9,N","010000,1,N,1","+0086,1","+0040,1","10184,1",,,,"00,1,+99999,9,99,9",,,,"00,99,1,00,1,00,1,99999,9,00,1,00,1","0594,9",,,"999,N,+0056,1","99999,9,10162,1","6,1,012,1,+999,9",,,,"SYN092AAXX  19061 08544 32960 00000 10086 20040 30162 40184 56012 333 20056 50544 55099 555 60002;",
"08544099999","2010-10-19T09:00:00","4","40.9166666","-8.6333333","22.0","OVAR MACEDA, PO","FM-12","99999","V020","999,9,C,0000,1","22000,1,9,N","010000,1,N,1","+0138,1","+0065,1","10192,1",,,,"00,1,+99999,9,99,9",,,,"00,99,1,00,1,00,1,99999,9,00,1,00,1",,,,,"99999,9,10172,1","2,1,010,1,+999,9",,,,"SYN060AAXX  19091 08544 42960 00000 10138 20065 30172 40192 52010;",
"08544099999","2010-10-19T12:00:00","4","40.9166666","-8.6333333","22.0","OVAR MACEDA, PO","FM-12","99999","V020","330,1,N,0030,1","22000,1,9,N","010000,1,N,1","+0184,1","+0096,1","10186,1",,,,"00,1,+99999,9,99,9",,,,"00,99,1,00,1,00,1,99999,9,00,1,00,1",,,,,"99999,9,10166,1","8,1,006,1,+999,9",,,,"SYN076AAXX  19121 08544 32960 03303 10184 20096 30166 40186 58006 555 50004 60007;",
"08544099999","2010-10-19T15:00:00","4","40.9166666","-8.6333333","22.0","OVAR MACEDA, PO","FM-12","99999","V020","300,1,N,0030,1","22000,1,9,N","010000,1,N,1","+0188,1","+0101,1","10167,1",,,,"01,1,+06000,1,00,1",,,,"01,99,1,00,1,00,1,99999,9,00,1,01,1",,,,,"99999,9,10146,1","7,1,019,1,+999,9",,,,"SYN076AAXX  19151 08544 42960 13003 10188 20101 30146 40167 57019 80001 333 81070;",
"08544099999","2010-10-19T18:00:00","4","40.9166666","-8.6333333","22.0","OVAR MACEDA, PO","FM-12","99999","V020","360,1,N,0050,1","22000,1,9,N","010000,1,N,1","+0160,1","+0126,1","10164,1",,,,"01,1,+06000,1,00,1",,,,"01,99,1,00,1,00,1,99999,9,00,1,01,1",,,,"120,M,+0200,1","99999,9,10144,1","5,1,002,1,+999,9",,,,"SYN092AAXX  19181 08544 32960 13605 10160 20126 30144 40164 55002 80001 333 10200 81070 555 60007;",
"08544099999","2010-10-20T06:00:00","4","40.9166666","-8.6333333","22.0","OVAR MACEDA, PO","FM-12","99999","V020","999,9,C,0000,1","22000,1,9,N","010000,1,N,1","+0056,1","+0052,1","10156,1",,,,"00,1,+99999,9,99,9",,,,"00,99,1,00,1,00,1,99999,9,00,1,00,1","0582,9",,,"999,N,+0056,1","99999,9,10135,1","8,1,006,1,+999,9","00,1",,,"SYN098AAXX  20061 08544 31960 00000 10056 20052 30135 40156 58006 700// 333 20056 50274 55097 555 60007;",
"08544099999","2010-10-20T09:00:00","4","40.9166666","-8.6333333","22.0","OVAR MACEDA, PO","FM-12","99999","V020","999,9,C,0000,1","22000,1,9,N","010000,1,N,1","+0098,1","+0083,1","10167,1",,,,"02,1,+06000,1,00,1",,,,"02,99,1,00,1,00,1,99999,9,00,1,01,1",,,,,"99999,9,10146,1","2,1,011,1,+999,9",,,,"SYN076AAXX  20091 08544 42960 20000 10098 20083 30146 40167 52011 80001 333 82070;",
"08544099999","2010-10-20T12:00:00","4","40.9166666","-8.6333333","22.0","OVAR MACEDA, PO","FM-12","99999","V020","340,1,N,0020,1","22000,1,9,N","010000,1,N,1","+0182,1","+0098,1","10168,1",,,,"01,1,+06000,1,00,1",,,,"01,99,1,00,1,00,1,99999,9,00,1,01,1",,,,,"99999,9,10147,1","0,1,001,1,+999,9",,,,"SYN092AAXX  20121 08544 32960 13402 10182 20098 30147 40168 50001 80001 333 81070 555 50004 60007;",
"08544099999","2010-10-20T15:00:00","4","40.9166666","-8.6333333","22.0","OVAR MACEDA, PO","FM-12","99999","V020","320,1,N,0030,1","22000,1,9,N","010000,1,N,1","+0198,1","+0101,1","10156,1",,,,"03,1,+06000,1,00,1",,,,"03,99,1,00,1,00,1,99999,9,00,1,04,1",,,,,"99999,9,10136,1","7,1,011,1,+999,9",,,,"SYN076AAXX  20151 08544 42960 33203 10198 20101 30136 40156 57011 80004 333 83070;",
"08544099999","2010-10-20T18:00:00","4","40.9166666","-8.6333333","22.0","OVAR MACEDA, PO","FM-12","99999","V020","360,1,N,0020,1","22000,1,9,N","010000,1,N,1","+0166,1","+0114,1","10160,1",,,,"03,1,+06000,1,00,1",,,,"03,99,1,00,1,00,1,99999,9,00,1,01,1",,,,"120,M,+0208,1","99999,9,10140,1","3,1,004,1,+999,9",,,,"SYN092AAXX  20181 08544 32960 33602 10166 20114 30140 40160 53004 80001 333 10208 83070 555 60007;",
"08544099999","2010-10-21T06:00:00","4","40.9166666","-8.6333333","22.0","OVAR MACEDA, PO","FM-12","99999","V020","999,9,C,0000,1","22000,1,9,N","010000,1,N,1","+0058,1","+0050,1","10178,1",,,,"00,1,+99999,9,99,9",,,,"00,99,1,00,1,00,1,99999,9,00,1,00,1","0588,9",,,"999,N,+0054,1","99999,9,10156,1","3,1,002,1,+999,9",,,,"SYN092AAXX  21061 08544 32960 00000 10058 20050 30156 40178 53002 333 20054 50224 55098 555 60002;",
"08544099999","2010-10-21T09:00:00","4","40.9166666","-8.6333333","22.0","OVAR MACEDA, PO","FM-12","99999","V020","999,9,V,0010,1","22000,1,9,N","006000,1,N,1","+0120,1","+0094,1","10189,1",,"0,1,03,1","0,1,03,1","01,1,+06000,1,00,1",,,,"01,99,1,00,1,00,1,99999,9,00,1,04,1",,,,,"99999,9,10168,1","2,1,012,1,+999,9","10,1",,,"SYN082AAXX  21091 08544 41956 19901 10120 20094 30168 40189 52012 71000 80004 333 81070;",
"08544099999","2010-10-21T12:00:00","4","40.9166666","-8.6333333","22.0","OVAR MACEDA, PO","FM-12","99999","V020","300,1,N,0030,1","22000,1,9,N","010000,1,N,1","+0194,1","+0112,1","10191,1",,,,"01,1,+06000,1,00,1",,,,"01,99,1,00,1,00,1,99999,9,00,1,01,1",,,,,"99999,9,10171,1","1,1,003,1,+999,9",,,,"SYN092AAXX  21121 08544 32960 13003 10194 20112 30171 40191 51003 80001 333 81070 555 50004 60007;",
"08544099999","2010-10-21T15:00:00","4","40.9166666","-8.6333333","22.0","OVAR MACEDA, PO","FM-12","99999","V020","280,1,N,0030,1","22000,1,9,N","010000,1,N,1","+0196,1","+0126,1","10183,1",,,,"03,1,+06000,1,01,1",,,,"03,99,1,00,1,00,1,99999,9,00,1,09,1",,,,,"99999,9,10163,1","7,1,008,1,+999,9",,,,"SYN076AAXX  21151 08544 42960 32803 10196 20126 30163 40183 57008 80009 333 83170;",
"08544099999","2010-10-21T18:00:00","4","40.9166666","-8.6333333","22.0","OVAR MACEDA, PO","FM-12","99999","V020","999,9,C,0000,1","22000,1,9,N","010000,1,N,1","+0166,1","+0139,1","10187,1",,,,"01,1,+06000,1,01,1",,,,"01,99,1,00,1,00,1,99999,9,00,1,09,1",,,,"120,M,+0214,1","99999,9,10166,1","3,1,003,1,+999,9",,,,"SYN092AAXX  21181 08544 32960 10000 10166 20139 30166 40187 53003 80009 333 10214 81170 555 60007;",
"08544099999","2010-10-22T06:00:00","4","40.9166666","-8.6333333","22.0","OVAR MACEDA, PO","FM-12","99999","V020","190,1,N,0010,1","22000,1,9,N","005000,1,N,1","+0090,1","+0082,1","10188,1",,,,"04,1,+06000,1,00,1",,,,"04,99,1,00,1,00,1,99999,9,00,1,01,1","0570,9",,,"999,N,+0076,1","99999,9,10168,1","7,1,003,1,+999,9","10,1",,,"SYN110AAXX  22061 08544 31950 41901 10090 20082 30168 40188 57003 710// 80001 333 20076 50204 55095 84070 555 60002;",
"08544099999","2010-10-22T09:00:00","4","40.9166666","-8.6333333","22.0","OVAR MACEDA, PO","FM-12","99999","V020","999,9,C,0000,1","06000,1,9,N","005000,1,N,1","+0102,1","+0095,1","10201,1",,"1,1,03,1","1,1,03,1","06,1,+06000,1,00,1",,,,"06,99,1,00,1,00,1,99999,9,00,1,02,1",,,,,"99999,9,10180,1","3,1,022,1,+999,9","10,1",,,"SYN082AAXX  22091 08544 41950 60000 10102 20095 30180 40201 53022 71011 80002 333 86070;",
"08544099999","2010-10-22T12:00:00","4","40.9166666","-8.6333333","22.0","OVAR MACEDA, PO","FM-12","99999","V020","160,1,N,0020,1","06000,1,9,N","010000,1,N,1","+0174,1","+0108,1","10202,1",,,,"02,1,+02400,1,03,1","06,1,+06000,1,01,1",,,"07,99,1,02,1,00,1,02250,1,03,1,09,1",,,,,"99999,9,10182,1","0,1,002,1,+999,9",,,,"SYN098AAXX  22121 08544 32860 71602 10174 20108 30182 40202 50002 82039 333 82358 86170 555 50004 60007;",
"08544099999","2010-10-22T15:00:00","4","40.9166666","-8.6333333","22.0","OVAR MACEDA, PO","FM-12","99999","V020","999,9,V,0020,1","03600,1,C,N","010000,1,N,1","+0184,1","+0120,1","10189,1",,,,"02,1,+01350,1,06,1",,,,"07,99,1,02,1,05,1,01250,1,03,1,06,1",,,,,"99999,9,10169,1","7,1,013,1,+999,9",,,,"SYN082AAXX  22151 08544 42660 79902 10184 20120 30169 40189 57013 82536 333 82645 86270;",
"08544099999","2010-10-22T18:00:00","4","40.9166666","-8.6333333","22.0","OVAR MACEDA, PO","FM-12","99999","V020","999,9,V,0020,1","06000,1,9,N","010000,1,N,1","+0166,1","+0139,1","10190,1",,,,"01,1,+00540,1,08,1","05,1,+06000,1,02,1",,,"07,99,1,03,1,08,1,00450,1,00,1,06,1",,,,"120,M,+0192,1","99999,9,10170,1","3,1,001,1,+999,9",,,,"SYN098AAXX  22181 08544 32460 79902 10166 20139 30170 40190 53001 83806 333 10192 81818 85270 555 60007;",
"08544099999","2010-10-23T06:00:00","4","40.9166666","-8.6333333","22.0","OVAR MACEDA, PO","FM-12","99999","V020","999,9,C,0000,1","22000,1,9,N","000200,1,N,1","+0080,1","+0076,1","10192,1",,"4,1,06,1",,"01,1,+01050,1,06,1",,,,"01,99,1,01,1,05,1,01250,1,00,1,00,1","0048,9",,,"999,N,+0070,1","99999,9,10171,1","2,1,002,1,+999,9","41,1",,,"SYN110AAXX  23061 08544 31602 10000 10080 20076 30171 40192 52002 7414/ 81500 333 20070 50104 55008 81635 555 60002;",
"08544099999","2010-10-23T09:00:00","4","40.9166666","-8.6333333","22.0","OVAR MACEDA, PO","FM-12","99999","V020","999,9,C,0000,1","00900,1,9,N","003000,1,N,1","+0130,1","+0120,1","10203,1",,"4,1,03,1","1,1,03,1","06,1,+00900,1,06,1",,,,"06,99,1,06,1,02,1,01250,1,00,1,00,1",,,,,"99999,9,10182,1","2,1,011,1,+999,9","10,1",,,"SYN082AAXX  23091 08544 41630 60000 10130 20120 30182 40203 52011 71041 86200 333 86630;",
"08544099999","2010-10-23T12:00:00","4","40.9166666","-8.6333333","22.0","OVAR MACEDA, PO","FM-12","99999","V020","340,1,N,0050,1","22000,1,9,N","008000,1,N,1","+0182,1","+0125,1","10202,1",,"4,1,06,1","1,1,06,1","01,1,+00600,1,08,1",,,,"03,99,1,01,1,01,1,00800,1,00,1,04,1",,,,,"99999,9,10182,1","0,1,000,1,+999,9","10,1",,,"SYN098AAXX  23121 08544 31558 33405 10182 20125 30182 40202 50000 71041 81104 333 81820 555 50004 60007;",
"08544099999","2010-10-23T15:00:00","4","40.9166666","-8.6333333","22.0","OVAR MACEDA, PO","FM-12","99999","V020","360,1,N,0070,1","22000,1,C,N","010000,1,N,1","+0188,1","+0128,1","10191,1",,,,"01,1,+00600,1,08,1",,,,"05,99,1,01,1,01,1,00800,1,00,1,04,1",,,,,"99999,9,10171,1","7,1,011,1,+999,9",,,,"SYN082AAXX  23151 08544 42560 53607 10188 20128 30171 40191 57011 81104 333 81820 84070;",
"08544099999","2010-10-23T18:00:00","4","40.9166666","-8.6333333","22.0","OVAR MACEDA, PO","FM-12","99999","V020","360,1,N,0060,1","06000,1,9,N","010000,1,N,1","+0164,1","+0108,1","10189,1",,,,"06,1,+06000,1,00,1",,,,"06,99,1,00,1,00,1,99999,9,00,1,01,1",,,,"120,M,+0190,1","99999,9,10169,1","1,1,001,1,+999,9",,"0090,5","4,99,0110,9,999","SYN104AAXX  23181 08544 42960 63606 10164 20108 30169 40189 51001 80001 333 10190 86070 91009 91111 555 60007;",
"08544099999","2010-10-24T06:00:00","4","40.9166666","-8.6333333","22.0","OVAR MACEDA, PO","FM-12","99999","V020","999,9,C,0000,1","00450,1,9,N","010000,1,N,1","+0088,1","+0080,1","10200,1",,,,"05,1,+00450,1,06,1",,,,"05,99,1,05,1,02,1,00450,1,00,1,00,1","0432,9",,,"999,N,+0084,1","99999,9,10179,1","7,1,003,1,+999,9","10,1",,,"SYN110AAXX  24061 08544 32460 50000 10088 20080 30179 40200 57003 710// 85200 333 20084 50244 55072 85615 555 60002;",
"08544099999","2010-10-24T09:00:00","4","40.9166666","-8.6333333","22.0","OVAR MACEDA, PO","FM-12","99999","V020","999,9,V,0010,1","00450,1,9,N","010000,1,N,1","+0140,1","+0126,1","10208,1",,,,"05,1,+00450,1,08,1",,,,"06,99,1,05,1,02,1,00450,1,00,1,01,1",,,,,"99999,9,10187,1","2,1,008,1,+999,9",,,,"SYN076AAXX  24091 08544 42460 69901 10140 20126 30187 40208 52008 85201 333 85815;",
"08544099999","2010-10-24T12:00:00","4","40.9166666","-8.6333333","22.0","OVAR MACEDA, PO","FM-12","99999","V020","010,1,N,0040,1","00660,1,9,N","010000,1,N,1","+0182,1","+0140,1","10213,1",,,,"02,1,+00450,1,08,1","05,1,+00660,1,06,1",,,"06,99,1,06,1,08,1,00450,1,00,1,00,1",,,,,"99999,9,10193,1","3,1,006,1,+999,9",,,,"SYN098AAXX  24121 08544 32460 60104 10182 20140 30193 40213 53006 86800 333 82815 85622 555 50004 60007;",
"08544099999","2010-10-24T15:00:00","4","40.9166666","-8.6333333","22.0","OVAR MACEDA, PO","FM-12","99999","V020","320,1,N,0030,1","00900,1,C,N","010000,1,N,1","+0184,1","+0149,1","10197,1",,,,"02,1,+00450,1,08,1",,,,"07,99,1,05,1,08,1,00450,1,05,1,01,1",,,,,"99999,9,10177,1","7,1,016,1,+999,9",,,,"SYN082AAXX  24151 08544 42460 73203 10184 20149 30177 40197 57016 85851 333 82815 85622;",
"08544099999","2010-10-24T18:00:00","4","40.9166666","-8.6333333","22.0","OVAR MACEDA, PO","FM-12","99999","V020","320,1,N,0020,1","00180,1,9,N","004000,1,N,1","+0170,1","+0160,1","10194,1","12,0005,9,1","5,1,06,1","2,1,06,1","05,1,+00180,1,07,1","05,1,+00450,1,08,1",,,"08,99,1,08,1,02,1,00150,1,99,9,99,9",,,,"120,M,+0196,1","99999,9,10174,1","8,1,003,1,+999,9","51,1",,,"SYN116AAXX  24181 08544 11240 83202 10170 20160 30174 40194 58003 69962 75152 882// 333 10196 85706 85815 96010 555 69967;",
"08544099999","2010-10-25T06:00:00","4","40.9166666","-8.6333333","22.0","OVAR MACEDA, PO","FM-12","99999","V020","999,9,V,0010,1","02100,1,9,N","005000,1,N,1","+0154,1","+0147,1","10192,1","12,0010,9,1",,,"01,1,+00450,1,08,1","05,1,+02100,1,04,1",,,"07,99,1,03,1,08,1,00450,1,02,1,00,1","0180,9",,,"999,N,+0154,1","99999,9,10172,1","7,1,003,1,+999,9","10,1",,,"SYN122AAXX  25061 08544 11450 79901 10154 20147 30172 40192 57003 60012 710// 83820 333 20154 50104 55030 81815 85457 555 60012;",
"08544099999","2010-10-25T09:00:00","4","40.9166666","-8.6333333","22.0","OVAR MACEDA, PO","FM-12","99999","V020","040,1,N,0030,1","00750,1,9,N","005000,1,N,1","+0160,1","+0150,1","10211,1",,"4,1,03,1","2,1,03,1","03,1,+00450,1,08,1","03,1,+00750,1,06,1",,,"06,99,1,05,1,08,1,00450,1,03,1,01,1",,,,,"99999,9,10190,1","2,1,018,1,+999,9","28,1",,,"SYN094AAXX  25091 08544 41450 60403 10160 20150 30190 40211 52018 72842 85831 333 83815 83625 96010;",
"08544099999","2010-10-25T12:00:00","4","40.9166666","-8.6333333","22.0","OVAR MACEDA, PO","FM-12","99999","V020","320,1,N,0040,1","22000,1,9,N","010000,1,N,1","+0188,1","+0160,1","10210,1",,"4,1,06,1","2,1,06,1","03,1,+00450,1,08,1",,,,"04,99,1,04,1,08,1,00450,1,00,1,00,1",,,,,"99999,9,10190,1","5,1,000,1,+999,9","02,1",,,"SYN098AAXX  25121 08544 31460 43204 10188 20160 30190 40210 55000 70242 84800 333 83815 555 50024 60007;",
"08544099999","2010-10-25T15:00:00","4","40.9166666","-8.6333333","22.0","OVAR MACEDA, PO","FM-12","99999","V020","360,1,N,0060,1","22000,1,9,N","010000,1,N,1","+0176,1","+0147,1","10208,1",,,,"03,1,+00540,1,08,1",,,,"03,99,1,03,1,02,1,00450,1,00,1,01,1",,,,,"99999,9,10188,1","5,1,002,1,+999,9",,,"4,99,0090,9,999","SYN092AAXX  25151 08544 42460 33606 10176 20147 30188 40208 55002 83201 333 83818 91109 555 60007;",
"08544099999","2010-10-25T18:00:00","4","40.9166666","-8.6333333","22.0","OVAR MACEDA, PO","FM-12","99999","V020","350,1,N,0040,1","22000,1,9,N","010000,1,N,1","+0166,1","+0139,1","10214,1",,,,"01,1,+00540,1,08,1","03,1,+06600,1,00,1",,,"03,99,1,01,1,02,1,00450,1,00,1,01,1",,,,"120,M,+0194,1","99999,9,10194,1","3,1,006,1,+999,9",,,"4,99,0090,9,999","SYN104AAXX  25181 08544 32460 33504 10166 20139 30194 40214 53006 81201 333 10194 81818 83072 91109 555 60007;",
"08544099999","2010-10-26T06:00:00","4","40.9166666","-8.6333333","22.0","OVAR MACEDA, PO","FM-12","99999","V020","999,9,C,0000,1","22000,1,9,N","010000,1,N,1","+0092,1","+0037,1","10249,1",,,,"00,1,+99999,9,99,9",,,,"00,99,1,00,1,00,1,99999,9,00,1,00,1","0504,9",,,"999,N,+0072,1","99999,9,10228,1","2,1,008,1,+999,9",,,,"SYN092AAXX  26061 08544 32960 00000 10092 20037 30228 40249 52008 333 20072 50154 55084 555 60002;",
"08544099999","2010-10-26T09:00:00","4","40.9166666","-8.6333333","22.0","OVAR MACEDA, PO","FM-12","99999","V020","999,9,C,0000,1","22000,1,9,N","010000,1,N,1","+0128,1","+0062,1","10259,1",,,,"03,1,+07500,1,00,1",,,,"03,99,1,00,1,00,1,99999,9,00,1,01,1",,,,,"99999,9,10238,1","2,1,010,1,+999,9",,,,"SYN076AAXX  26091 08544 42960 30000 10128 20062 30238 40259 52010 80001 333 83075;",
"08544099999","2010-10-26T12:00:00","4","40.9166666","-8.6333333","22.0","OVAR MACEDA, PO","FM-12","99999","V020","300,1,N,0030,1","22000,1,9,N","010000,1,N,1","+0192,1","+0089,1","10263,1",,,,"03,1,+07500,1,00,1",,,,"03,99,1,00,1,00,1,99999,9,00,1,01,1",,,,,"99999,9,10243,1","0,1,005,1,+999,9",,,,"SYN092AAXX  26121 08544 32960 33003 10192 20089 30243 40263 50005 80001 333 83075 555 50004 60007;",
"08544099999","2010-10-26T15:00:00","4","40.9166666","-8.6333333","22.0","OVAR MACEDA, PO","FM-12","99999","V020","340,1,N,0030,1","22000,1,9,N","010000,1,N,1","+0192,1","+0089,1","10259,1",,,,"01,1,+03000,1,03,1",,,,"04,99,1,01,1,00,1,99999,9,03,1,04,1",,,,,"99999,9,10239,1","7,1,004,1,+999,9",,,,"SYN082AAXX  26151 08544 42960 43403 10192 20089 30239 40259 57004 81034 333 81360 84075;",
"08544099999","2010-10-26T18:00:00","4","40.9166666","-8.6333333","22.0","OVAR MACEDA, PO","FM-12","99999","V020","010,1,N,0020,1","07500,1,9,N","010000,1,N,1","+0154,1","+0104,1","10258,1",,,,"04,1,+03000,1,03,1","05,1,+07500,1,00,1",,,"06,99,1,04,1,00,1,99999,9,03,1,01,1",,,,"120,M,+0200,1","99999,9,10238,1","5,1,001,1,+999,9",,,,"SYN098AAXX  26181 08544 32960 60102 10154 20104 30238 40258 55001 84031 333 10200 84360 85075 555 60007;",
"08544099999","2010-10-27T06:00:00","4","40.9166666","-8.6333333","22.0","OVAR MACEDA, PO","FM-12","99999","V020","999,9,C,0000,1","22000,1,9,N","010000,1,N,1","+0054,1","+0050,1","10259,1",,,,"02,1,+06900,1,00,1",,,,"02,99,1,00,1,00,1,99999,9,00,1,01,1","0522,9",,,"999,N,+0054,1","99999,9,10238,1","7,1,004,1,+999,9",,,,"SYN104AAXX  27061 08544 32960 20000 10054 20050 30238 40259 57004 80001 333 20054 50284 55087 82073 555 60002;",
"08544099999","2010-10-27T09:00:00","4","40.9166666","-8.6333333","22.0","OVAR MACEDA, PO","FM-12","99999","V020","160,1,N,0010,1","99999,9,9,N","010000,1,N,1","+0106,1","+0075,1","10260,1",,,,"01,1,+03000,1,03,1",,,,"05,99,1,01,1,00,1,99999,9,03,1,01,1",,,,,"99999,9,10239,1","3,1,001,1,+999,9",,,,"SYN082AAXX  27091 08544 42960 51601 10106 20075 30239 40260 53001 81031 333 81360 85075;",
"08544099999","2010-10-27T12:00:00","4","40.9166666","-8.6333333","22.0","OVAR MACEDA, PO","FM-12","99999","V020","240,1,N,0020,1","22000,1,9,N","010000,1,N,1","+0188,1","+0105,1","10258,1",,,,"02,1,+03000,1,03,1","03,1,+07500,1,00,1",,,"04,99,1,02,1,00,1,99999,9,03,1,02,1",,,,,"99999,9,10238,1","8,1,001,1,+999,9",,,,"SYN098AAXX  27121 08544 32960 42402 10188 20105 30238 40258 58001 82032 333 82360 83075 555 50004 60007;",
"08544099999","2010-10-27T15:00:00","4","40.9166666","-8.6333333","22.0","OVAR MACEDA, PO","FM-12","99999","V020","350,1,N,0030,1","99999,9,9,N","010000,1,N,1","+0176,1","+0094,1","10247,1",,,,"01,1,+03000,1,03,1",,,,"08,99,1,01,1,00,1,99999,9,03,1,04,1",,,,,"99999,9,10227,1","7,1,011,1,+999,9",,,,"SYN082AAXX  27151 08544 42960 83503 10176 20094 30227 40247 57011 81034 333 81360 88072;",
"08544099999","2010-10-27T18:00:00","4","40.9166666","-8.6333333","22.0","OVAR MACEDA, PO","FM-12","99999","V020","030,1,N,0040,1","06000,1,9,N","010000,1,N,1","+0160,1","+0139,1","10248,1",,,,"03,1,+03000,1,03,1","08,1,+06000,1,02,1",,,"08,99,1,03,1,00,1,99999,9,03,1,06,1",,,,"120,M,+0196,1","99999,9,10228,1","0,1,001,1,+999,9",,,,"SYN098AAXX  27181 08544 32960 80304 10160 20139 30228 40248 50001 83036 333 10196 83360 88270 555 60007;",
"08544099999","2010-10-28T06:00:00","4","40.9166666","-8.6333333","22.0","OVAR MACEDA, PO","FM-12","99999","V020","010,1,N,0010,1","06000,1,9,N","008000,1,N,1","+0112,1","+0101,1","10220,1",,,,"02,1,+03000,1,03,1","07,1,+06000,1,02,1",,,"08,99,1,02,1,00,1,99999,9,03,1,08,1","0348,9",,,"999,N,+0102,1","99999,9,10199,1","8,1,007,1,+999,9","10,1",,,"SYN116AAXX  28061 08544 31958 80101 10112 20101 30199 40220 58007 710// 82038 333 20102 50194 55058 82360 87270 555 60002;",
"08544099999","2010-10-28T09:00:00","4","40.9166666","-8.6333333","22.0","OVAR MACEDA, PO","FM-12","99999","V020","999,9,V,0010,1","99999,9,9,N","005000,1,N,1","+0124,1","+0110,1","10219,1",,"2,1,03,1","2,1,03,1","04,1,+03000,1,03,1",,,,"06,99,1,04,1,00,1,99999,9,03,1,02,1",,,,,"99999,9,10198,1","5,1,001,1,+999,9","10,1",,,"SYN088AAXX  28091 08544 41950 69901 10124 20110 30198 40219 55001 71022 84032 333 84360 84070;",
"08544099999","2010-10-28T12:00:00","4","40.9166666","-8.6333333","22.0","OVAR MACEDA, PO","FM-12","99999","V020","280,1,N,0070,1","06000,1,9,N","008000,1,N,1","+0186,1","+0126,1","10207,1",,"1,1,06,1","1,1,06,1","03,1,+03000,1,03,1","03,1,+06000,1,00,1",,,"05,99,1,03,1,00,1,99999,9,03,1,02,1",,,,,"99999,9,10187,1","8,1,011,1,+999,9","10,1",,,"SYN104AAXX  28121 08544 31958 52807 10186 20126 30187 40207 58011 71011 83032 333 83360 83070 555 50004 60007;",
"08544099999","2010-10-28T15:00:00","4","40.9166666","-8.6333333","22.0","OVAR MACEDA, PO","FM-12","99999","V020","999,9,V,0010,1","99999,9,9,N","010000,1,N,1","+0188,1","+0132,1","10180,1",,,,"04,1,+03000,1,03,1",,,,"07,99,1,04,1,00,1,99999,9,03,1,04,1",,,,,"99999,9,10160,1","7,1,027,1,+999,9",,,,"SYN082AAXX  28151 08544 42960 79901 10188 20132 30160 40180 57027 84034 333 84360 85070;",
"08544099999","2010-10-28T18:00:00","4","40.9166666","-8.6333333","22.0","OVAR MACEDA, PO","FM-12","99999","V020","150,1,N,0010,1","06000,1,9,N","010000,1,N,1","+0166,1","+0121,1","10167,1",,,,"03,1,+03000,1,03,1","07,1,+06000,1,00,1",,,"07,99,1,03,1,00,1,99999,9,03,1,04,1",,,,"120,M,+0204,1","99999,9,10147,1","7,1,013,1,+999,9",,,,"SYN098AAXX  28181 08544 32960 71501 10166 20121 30147 40167 57013 83034 333 10204 83360 87070 555 60007;",
"08544099999","2010-10-29T06:00:00","4","40.9166666","-8.6333333","22.0","OVAR MACEDA, PO","FM-12","99999","V020","180,1,N,0070,1","00450,1,9,N","008000,1,N,1","+0156,1","+0146,1","10081,1","12,0030,9,1","6,1,06,1",,"04,1,+00240,1,07,1","07,1,+00450,1,06,1",,,"07,99,1,07,1,02,1,00250,1,99,9,99,9","0216,9",,,"999,N,+0120,1","99999,9,10061,1","7,1,021,1,+999,9","62,1",,"4,99,0120,9,999","SYN134AAXX  29061 08544 11358 71807 10156 20146 30061 40081 57021 60032 7626/ 872// 333 20120 50294 55036 84708 87615 91112 96010 555 60032;",
"08544099999","2010-10-29T09:00:00","4","40.9166666","-8.6333333","22.0","OVAR MACEDA, PO","FM-12","99999","V020","190,1,N,0070,1","00450,1,9,N","008000,1,N,1","+0160,1","+0150,1","10068,1",,"8,1,03,1","6,1,03,1","01,1,+00240,1,07,1","06,1,+00450,1,06,1","05,1,+02100,1,04,1",,"08,99,1,06,1,02,1,00250,1,02,1,99,9",,,,,"99999,9,10048,1","7,1,013,1,+999,9","80,1","0120,5",,"SYN106AAXX  29091 08544 41358 81907 10160 20150 30048 40068 57013 78086 8622/ 333 81708 86615 85457 91012 91113;",
"08544099999","2010-10-29T12:00:00","4","40.9166666","-8.6333333","22.0","OVAR MACEDA, PO","FM-12","99999","V020","150,1,N,0030,1","00450,1,9,N","004000,1,N,1","+0144,1","+0137,1","10079,1","06,0231,9,1","9,1,06,1","8,1,06,1","02,1,+00210,1,07,1","05,1,+00450,1,08,1","05,1,+02100,1,04,1",,"08,99,1,05,1,02,1,00250,1,07,1,99,9",,,,,"99999,9,10059,1","8,1,011,1,+999,9","21,1",,"4,99,0130,9,999","SYN140AAXX  29121 08544 11340 81503 10144 20137 30059 40079 58011 60231 72198 8527/ 333 82707 85815 85457 91113 555 50264 60177 90224 96695 90322;",
"08544099999","2010-10-29T15:00:00","4","40.9166666","-8.6333333","22.0","OVAR MACEDA, PO","FM-12","99999","V020","330,1,N,0040,1","00450,1,9,N","010000,1,N,1","+0162,1","+0129,1","10078,1",,"6,1,03,1","2,1,03,1","05,1,+00450,1,08,1",,,,"07,99,1,06,1,03,1,00450,1,07,1,00,1",,,,,"99999,9,10058,1","5,1,001,1,+999,9","01,1",,,"SYN088AAXX  29151 08544 41460 73304 10162 20129 30058 40078 55001 70162 86370 333 85815 81918;",
"08544099999","2010-10-29T18:00:00","4","40.9166666","-8.6333333","22.0","OVAR MACEDA, PO","FM-12","99999","V020","330,1,N,0040,1","22000,1,9,N","010000,1,N,1","+0156,1","+0111,1","10102,1",,"6,1,06,1","2,1,06,1","03,1,+00450,1,08,1","01,1,+00540,1,09,1",,,"04,99,1,04,1,03,1,00450,1,00,1,00,1",,,,"120,M,+0176,1","99999,9,10082,1","2,1,024,1,+999,9","01,1",,,"SYN104AAXX  29181 08544 31460 43304 10156 20111 30082 40102 52024 70162 84300 333 10176 83815 81918 555 60007;",
"08544099999","2010-10-30T06:00:00","4","40.9166666","-8.6333333","22.0","OVAR MACEDA, PO","FM-12","99999","V020","180,1,N,0050,1","02100,1,C,N","007000,1,N,1","+0126,1","+0116,1","10078,1","12,0061,9,1","6,1,06,1",,"03,1,+00450,1,08,1","07,1,+02100,1,04,1",,,"08,99,1,03,1,02,1,00250,1,02,1,99,9","0108,9",,,"999,N,+0116,1","99999,9,10058,1","6,1,002,1,+999,9","60,1",,,"SYN128AAXX  30061 08544 11357 81805 10126 20116 30058 40078 56002 60062 7606/ 8322/ 333 20116 50104 55018 51708 83815 87457 555 60062;",
"08544099999","2010-10-30T09:00:00","4","40.9166666","-8.6333333","22.0","OVAR MACEDA, PO","FM-12","99999","V020","180,1,N,0080,1","00450,1,9,N","005000,1,N,1","+0124,1","+0114,1","10052,1",,"6,1,03,1","2,1,03,1","02,1,+00180,1,07,1","06,1,+00450,1,08,1","04,1,+02100,1,04,1",,"08,99,1,06,1,02,1,00150,1,02,1,99,9",,,,,"99999,9,10032,1","7,1,025,1,+999,9","21,1",,,"SYN100AAXX  30091 08544 41250 81808 10124 20114 30032 40052 57025 72162 8622/ 333 82706 86815 84457 96010;",
"08544099999","2010-10-30T12:00:00","4","40.9166666","-8.6333333","22.0","OVAR MACEDA, PO","FM-12","99999","V020","200,1,N,0050,1","00600,1,C,N","010000,1,N,1","+0160,1","+0140,1","10037,1","06,0170,9,1","9,1,06,1","6,1,06,1","04,1,+00450,1,08,1","01,1,+00600,1,09,1","03,1,+02100,1,03,1",,"07,99,1,05,1,03,1,00450,1,99,9,07,1",,,,,"99999,9,10017,1","7,1,025,1,+999,9","02,1",,,"SYN117AAXX  30121 08544 11460 72005 10160 20140 30017 40037 57025 60171 70296 853079 333 84815 81920 83357 555 50274 60027;","Q01+000002SCOMCG"
"08544099999","2010-10-30T15:00:00","4","40.9166666","-8.6333333","22.0","OVAR MACEDA, PO","FM-12","99999","V020","250,1,N,0050,1","22000,1,9,N","010000,1,N,1","+0196,1","+0148,1","10014,1",,,,"03,1,+00450,1,08,1",,,,"04,99,1,04,1,03,1,00450,1,00,1,00,1",,,,,"99999,9,09994,1","7,1,023,1,+999,9",,,,"SYN082AAXX  30151 08544 42460 42505 10196 20148 39994 40014 57023 84300 333 83815 82920;",
"08544099999","2010-10-30T18:00:00","4","40.9166666","-8.6333333","22.0","OVAR MACEDA, PO","FM-12","99999","V020","230,1,N,0060,1","00510,1,9,N","005000,1,N,1","+0180,1","+0137,1","09993,1","12,0170,9,1","9,1,06,1","8,1,06,1","04,1,+00450,1,08,1","01,1,+00510,1,09,1","07,1,+00900,1,06,1",,"08,99,1,08,1,03,1,00450,1,99,9,99,9",,,,"120,M,+0196,1","99999,9,09974,1","7,1,020,1,+999,9","95,1",,,"SYN116AAXX  30181 08544 11450 82306 10180 20137 39974 49993 57020 60172 79598 883// 333 10196 84815 81917 87630 555 69937;",
"08544099999","2010-10-31T06:00:00","4","40.9166666","-8.6333333","22.0","OVAR MACEDA, PO","FM-12","99999","V020","330,1,N,0050,1","00450,1,9,N","007000,1,N,1","+0136,1","+0115,1","10017,1","12,0330,9,1","8,1,06,1",,"05,1,+00450,1,08,1","02,1,+00600,1,09,1",,,"06,99,1,06,1,03,1,00450,1,00,1,00,1","0168,9",,,"999,N,+0100,1","99999,9,09996,1","3,1,021,1,+999,9","80,1",,,"SYN122AAXX  31061 08544 11457 63305 10136 20115 39996 40017 53021 60332 7808/ 86300 333 20100 50134 55028 85815 82920 555 60332;",
"08544099999","2010-10-31T09:00:00","4","40.9166666","-8.6333333","22.0","OVAR MACEDA, PO","FM-12","99999","V020","340,1,N,0100,1","00600,1,9,N","010000,1,N,1","+0156,1","+0107,1","10041,1",,"8,1,03,1","2,1,03,1","04,1,+00450,1,08,1","02,1,+00600,1,09,1",,,"06,99,1,06,1,03,1,00450,1,00,1,00,1",,,,,"99999,9,10021,1","3,1,025,1,+999,9","25,1",,,"SYN094AAXX  31091 08544 41460 63410 10156 20107 30021 40041 53025 72582 86300 333 84815 82920 84630;",
"08544099999","2010-10-31T12:00:00","4","40.9166666","-8.6333333","22.0","OVAR MACEDA, PO","FM-12","99999","V020","350,1,N,0110,1","00540,1,C,N","008000,1,N,1","+0162,1","+0114,1","10074,1","06,0051,9,1","8,1,06,1","2,1,06,1","01,1,+00240,1,07,1","04,1,+00450,1,08,1","01,1,+00540,1,09,1",,"06,99,1,06,1,03,1,00250,1,00,1,00,1",,,,,"99999,9,10054,1","2,1,003,1,+999,9","25,1","0180,5","4,99,0220,9,999","SYN124AAXX  31121 08544 11358 63511 10162 20114 30054 40074 52003 60051 72582 86300 333 81708 84815 81918 91018 91122 50384 60037;",
"08544099999","2010-10-31T15:00:00","4","40.9166666","-8.6333333","22.0","OVAR MACEDA, PO","FM-12","99999","V020","350,1,N,0090,1","00450,1,9,N","010000,1,N,1","+0164,1","+0101,1","10094,1",,"8,1,03,1","2,1,03,1","05,1,+00450,1,08,1","01,1,+00540,1,09,1",,,"06,99,1,06,1,03,1,00450,1,00,1,00,1",,,,,"99999,9,10074,1","2,1,020,1,+999,9","25,1","0160,5",,"SYN100AAXX  31151 08544 41460 63509 10164 20101 30074 40094 52020 72582 86300 333 85815 81918 91016 91124;",
"08544099999","2010-10-31T18:00:00","4","40.9166666","-8.6333333","22.0","OVAR MACEDA, PO","FM-12","99999","V020","360,1,N,0120,1","00450,1,9,N","010000,1,N,1","+0146,1","+0099,1","10123,1","12,0071,9,1","8,1,06,1","2,1,06,1","05,1,+00450,1,08,1","01,1,+00540,1,09,1",,,"06,99,1,06,1,03,1,00450,1,00,1,00,1",,,,"120,M,+0172,1","99999,9,10102,1","2,1,028,1,+999,9","25,1","0170,5","4,99,0190,9,999","SYN122AAXX  31181 08544 11460 63612 10146 20099 30102 40123 52028 60072 72582 86300 333 10172 85815 81918 91017 91119 555 69967;",
"08544099999","2010-11-01T06:00:00","4","40.9166666","-8.6333333","22.0","OVAR MACEDA, PO","FM-12","99999","V020","070,1,N,0020,1","22000,1,9,N","010000,1,N,1","+0132,1","+0100,1","10200,1","12,0020,9,1",,,"01,1,+00450,1,08,1",,,,"02,99,1,02,1,08,1,00450,1,00,1,00,1","0138,9",,,"999,N,+0126,1","99999,9,10179,1",,"00,1",,,"SYN116AAXX  01061 08544 11460 20702 10132 20100 30179 40200 5//// 60022 700// 82800 333 20126 50294 55023 81815 555 60022;",
"08544099999","2010-11-01T09:00:00","4","40.9166666","-8.6333333","22.0","OVAR MACEDA, PO","FM-12","99999","V020","020,1,N,0060,1","22000,1,9,N","010000,1,N,1","+0140,1","+0097,1","10220,1",,,,"01,1,+00450,1,08,1","03,1,+01200,1,06,1",,,"04,99,1,03,1,08,1,00450,1,00,1,04,1",,,,,"99999,9,10199,1","2,1,020,1,+999,9",,"0080,5",,"SYN094AAXX  01091 08544 42460 40206 10140 20097 30199 40220 52020 83804 333 81815 83640 91008 91108;",
"08544099999","2010-11-01T12:00:00","4","40.9166666","-8.6333333","22.0","OVAR MACEDA, PO","FM-12","99999","V020","360,1,N,0080,1","06000,1,9,N","010000,1,N,1","+0170,1","+0111,1","10222,1",,,,"03,1,+00450,1,08,1","03,1,+06000,1,00,1",,,"05,99,1,03,1,02,1,00450,1,00,1,01,1",,,,,"99999,9,10202,1","1,1,003,1,+999,9",,"0110,5","4,99,0130,9,999","SYN110AAXX  01121 08544 32460 53608 10170 20111 30202 40222 51003 83201 333 83815 83070 91011 91113 555 50044 60007;",
"08544099999","2010-11-01T15:00:00","4","40.9166666","-8.6333333","22.0","OVAR MACEDA, PO","FM-12","99999","V020","360,1,N,0080,1","01200,1,C,N","010000,1,N,1","+0172,1","+0125,1","10217,1",,,,"02,1,+00450,1,08,1","03,1,+01200,1,06,1",,,"06,99,1,04,1,08,1,00450,1,00,1,01,1",,,,,"99999,9,10197,1","3,1,005,1,+999,9",,"0130,5",,"SYN094AAXX  01151 08544 42460 63608 10172 20125 30197 40217 53005 84801 333 82815 83640 91013 91113;",
"08544099999","2010-11-01T18:00:00","4","40.9166666","-8.6333333","22.0","OVAR MACEDA, PO","FM-12","99999","V020","020,1,N,0040,1","22000,1,9,N","010000,1,N,1","+0156,1","+0121,1","10223,1",,,,"01,1,+00450,1,08,1","04,1,+06000,1,00,1",,,"04,99,1,02,1,08,1,00450,1,00,1,01,1",,,,"120,M,+0178,1","99999,9,10202,1","2,1,005,1,+999,9",,,"4,99,0120,9,999","SYN104AAXX  01181 08544 32460 40204 10156 20121 30202 40223 52005 82801 333 10178 81815 84070 91112 555 60007;",
"08544099999","2010-11-02T06:00:00","4","40.9166666","-8.6333333","22.0","OVAR MACEDA, PO","FM-12","99999","V020","360,1,N,0020,1","22000,1,9,N","010000,1,N,1","+0080,1","+0076,1","10240,1",,,,"00,1,+99999,9,99,9",,,,"00,99,1,00,1,00,1,99999,9,00,1,00,1","0492,9",,,"999,N,+0078,1","99999,9,10219,1","3,1,003,1,+999,9","00,1",,,"SYN098AAXX  02061 08544 31960 03602 10080 20076 30219 40240 53003 700// 333 20078 50254 55082 555 60002;",
"08544099999","2010-11-02T09:00:00","4","40.9166666","-8.6333333","22.0","OVAR MACEDA, PO","FM-12","99999","V020","010,1,N,0030,1","22000,1,9,N","010000,1,N,1","+0110,1","+0099,1","10253,1",,,,"02,1,+06000,1,00,1",,,,"02,99,1,00,1,00,1,99999,9,00,1,01,1",,,,,"99999,9,10232,1","2,1,013,1,+999,9",,,,"SYN076AAXX  02091 08544 42960 20103 10110 20099 30232 40253 52013 80001 333 82070;",
"08544099999","2010-11-02T12:00:00","4","40.9166666","-8.6333333","22.0","OVAR MACEDA, PO","FM-12","99999","V020","040,1,N,0040,1","22000,1,9,N","010000,1,N,1","+0170,1","+0107,1","10250,1",,,,"03,1,+06000,1,00,1",,,,"03,99,1,00,1,00,1,99999,9,00,1,04,1",,,,,"99999,9,10229,1","8,1,003,1,+999,9",,,,"SYN092AAXX  02121 08544 32960 30404 10170 20107 30229 40250 58003 80004 333 83070 555 50004 60007;",
"08544099999","2010-11-02T15:00:00","4","40.9166666","-8.6333333","22.0","OVAR MACEDA, PO","FM-12","99999","V020","350,1,N,0060,1","22000,1,9,N","010000,1,N,1","+0176,1","+0129,1","10237,1",,,,"03,1,+06000,1,00,1",,,,"03,99,1,00,1,00,1,99999,9,00,1,01,1",,,,,"99999,9,10216,1","6,1,013,1,+999,9",,,,"SYN076AAXX  02151 08544 42960 33506 10176 20129 30216 40237 56013 80001 333 83070;",
"08544099999","2010-11-02T18:00:00","4","40.9166666","-8.6333333","22.0","OVAR MACEDA, PO","FM-12","99999","V020","360,1,N,0050,1","22000,1,9,N","010000,1,N,1","+0156,1","+0135,1","10248,1",,,,"01,1,+00750,1,06,1",,,,"02,99,1,01,1,05,1,00800,1,00,1,01,1",,,,"120,M,+0180,1","99999,9,10227,1","3,1,011,1,+999,9",,,,"SYN092AAXX  02181 08544 32560 23605 10156 20135 30227 40248 53011 81501 333 10180 81625 555 60007;",
"08544099999","2010-11-03T06:00:00","4","40.9166666","-8.6333333","22.0","OVAR MACEDA, PO","FM-12","99999","V020","010,1,N,0020,1","22000,1,9,N","010000,1,N,1","+0096,1","+0085,1","10244,1",,,,"00,1,+99999,9,99,9",,,,"00,99,1,00,1,00,1,99999,9,00,1,00,1","0564,9",,,"999,N,+0085,1","99999,9,10223,1","6,1,001,1,+999,9","00,1",,,"SYN098AAXX  03061 08544 31960 00102 10096 20085 30223 40244 56001 700// 333 20085 50174 55094 555 60002;",
"08544099999","2010-11-03T09:00:00","4","40.9166666","-8.6333333","22.0","OVAR MACEDA, PO","FM-12","99999","V020","340,1,N,0010,1","22000,1,9,N","010000,1,N,1","+0122,1","+0111,1","10258,1",,"4,1,03,1","0,1,03,1","02,1,+06000,1,00,1",,,,"02,99,1,00,1,00,1,99999,9,00,1,04,1",,,,,"99999,9,10237,1","2,1,014,1,+999,9","03,1",,,"SYN082AAXX  03091 08544 41960 23401 10122 20111 30237 40258 52014 70340 80004 333 82070;",
"08544099999","2010-11-03T12:00:00","4","40.9166666","-8.6333333","22.0","OVAR MACEDA, PO","FM-12","99999","V020","340,1,N,0040,1","22000,1,9,N","010000,1,N,1","+0180,1","+0134,1","10258,1",,"4,1,06,1","0,1,06,1","01,1,+06000,1,00,1",,,,"01,99,1,00,1,00,1,99999,9,00,1,01,1",,,,,"99999,9,10237,1","0,1,000,1,+999,9","01,1",,,"SYN098AAXX  03121 08544 31960 13404 10180 20134 30237 40258 50000 70140 80001 333 81070 555 50004 60007;",
"08544099999","2010-11-03T15:00:00","4","40.9166666","-8.6333333","22.0","OVAR MACEDA, PO","FM-12","99999","V020","010,1,N,0070,1","22000,1,9,N","010000,1,N,1","+0184,1","+0142,1","10247,1",,,,"01,1,+06000,1,00,1",,,,"01,99,1,00,1,00,1,99999,9,00,1,01,1",,,,,"99999,9,10227,1","7,1,010,1,+999,9",,,,"SYN076AAXX  03151 08544 42960 10107 10184 20142 30227 40247 57010 80001 333 81070;",
"08544099999","2010-11-03T18:00:00","4","40.9166666","-8.6333333","22.0","OVAR MACEDA, PO","FM-12","99999","V020","360,1,N,0040,1","22000,1,9,N","010000,1,N,1","+0158,1","+0147,1","10254,1",,,,"01,1,+06000,1,00,1",,,,"01,99,1,00,1,00,1,99999,9,00,1,01,1",,,,"120,M,+0190,1","99999,9,10234,1","3,1,007,1,+999,9",,,,"SYN092AAXX  03181 08544 32960 13604 10158 20147 30234 40254 53007 80001 333 10190 81070 555 60007;",
"08544099999","2010-11-04T06:00:00","4","40.9166666","-8.6333333","22.0","OVAR MACEDA, PO","FM-12","99999","V020","200,1,N,0020,1","22000,1,9,N","003000,1,N,1","+0076,1","+0074,1","10265,1",,,,"00,1,+99999,9,99,9",,,,"00,99,1,00,1,00,1,99999,9,00,1,00,1","0546,9",,,"999,N,+0076,1","99999,9,10244,1","5,1,000,1,+999,9","10,1",,,"SYN098AAXX  04061 08544 31930 02002 10076 20074 30244 40265 55000 710// 333 20076 50134 55091 555 60002;",
"08544099999","2010-11-04T09:00:00","4","40.9166666","-8.6333333","22.0","OVAR MACEDA, PO","FM-12","99999","V020","999,9,C,0000,1","22000,1,9,N","000500,1,N,1","+0108,1","+0101,1","10282,1",,"4,1,03,1","1,1,03,1","04,1,+00060,1,07,1",,,,"04,99,1,04,1,06,1,00075,1,00,1,00,1",,,,,"99999,9,10261,1","2,1,017,1,+999,9","41,1",,,"SYN082AAXX  04091 08544 41105 40000 10108 20101 30261 40282 52017 74141 84600 333 84702;",
"08544099999","2010-11-04T12:00:00","4","40.9166666","-8.6333333","22.0","OVAR MACEDA, PO","FM-12","99999","V020","310,1,N,0020,1","22000,1,9,N","010000,1,N,1","+0214,1","+0136,1","10280,1",,"4,1,06,1","1,1,06,1","00,1,+99999,9,99,9",,,,"00,99,1,00,1,00,1,99999,9,00,1,00,1",,,,,"99999,9,10260,1","8,1,001,1,+999,9","02,1",,,"SYN094AAXX  04121 08544 31960 03102 10214 20136 30260 40280 58001 70241 555 50004 60007 96641 90325;",
"08544099999","2010-11-04T15:00:00","4","40.9166666","-8.6333333","22.0","OVAR MACEDA, PO","FM-12","99999","V020","350,1,N,0020,1","22000,1,9,N","008000,1,N,1","+0200,1","+0152,1","10268,1",,"0,1,03,1","0,1,03,1","00,1,+99999,9,99,9",,,,"00,99,1,00,1,00,1,99999,9,00,1,00,1",,,,,"99999,9,10248,1","7,1,012,1,+999,9","05,1",,,"SYN066AAXX  04151 08544 41958 03502 10200 20152 30248 40268 57012 70500;",
"08544099999","2010-11-04T18:00:00","4","40.9166666","-8.6333333","22.0","OVAR MACEDA, PO","FM-12","99999","V020","350,1,N,0020,1","22000,1,9,N","008000,1,N,1","+0162,1","+0145,1","10265,1",,"0,1,06,1","0,1,06,1","00,1,+99999,9,99,9",,,,"00,99,1,00,1,00,1,99999,9,00,1,00,1",,,,"120,M,+0220,1","99999,9,10245,1","5,1,003,1,+999,9","10,1",,,"SYN086AAXX  04181 08544 31958 03502 10162 20145 30245 40265 55003 71000 333 10220 555 60007;",
"08544099999","2010-11-05T06:00:00","4","40.9166666","-8.6333333","22.0","OVAR MACEDA, PO","FM-12","99999","V020","999,9,C,0000,1","22000,1,9,N","010000,1,N,1","+0104,1","+0100,1","10250,1",,,,"00,1,+99999,9,99,9",,,,"00,99,1,00,1,00,1,99999,9,00,1,00,1","0546,9",,,"999,N,+0096,1","99999,9,10229,1","7,1,004,1,+999,9","00,1",,,"SYN098AAXX  05061 08544 31960 00000 10104 20100 30229 40250 57004 700// 333 20096 50114 55091 555 60002;",
"08544099999","2010-11-05T09:00:00","4","40.9166666","-8.6333333","22.0","OVAR MACEDA, PO","FM-12","99999","V020","999,9,C,0000,1","22000,1,9,N","010000,1,N,1","+0130,1","+0120,1","10260,1",,,,"01,1,+07500,1,00,1",,,,"01,99,1,00,1,00,1,99999,9,00,1,01,1",,,,,"99999,9,10240,1","2,1,011,1,+999,9",,,,"SYN076AAXX  05091 08544 42960 10000 10130 20120 30240 40260 52011 80001 333 81075;",
"08544099999","2010-11-05T12:00:00","4","40.9166666","-8.6333333","22.0","OVAR MACEDA, PO","FM-12","99999","V020","320,1,N,0020,1","22000,1,9,N","010000,1,N,1","+0214,1","+0143,1","10259,1",,,,"02,1,+07500,1,00,1",,,,"02,99,1,00,1,00,1,99999,9,00,1,01,1",,,,,"99999,9,10239,1","8,1,001,1,+999,9",,,,"SYN092AAXX  05121 08544 32960 23202 10214 20143 30239 40259 58001 80001 333 82075 555 50004 60007;",
"08544099999","2010-11-05T15:00:00","4","40.9166666","-8.6333333","22.0","OVAR MACEDA, PO","FM-12","99999","V020","350,1,N,0030,1","22000,1,9,N","010000,1,N,1","+0206,1","+0141,1","10244,1",,,,"03,1,+07500,1,00,1",,,,"03,99,1,00,1,00,1,99999,9,00,1,01,1",,,,,"99999,9,10224,1","7,1,015,1,+999,9",,,,"SYN076AAXX  05151 08544 42960 33503 10206 20141 30224 40244 57015 80001 333 83075;",
"08544099999","2010-11-05T18:00:00","4","40.9166666","-8.6333333","22.0","OVAR MACEDA, PO","FM-12","99999","V020","360,1,N,0020,1","22000,1,9,N","010000,1,N,1","+0166,1","+0132,1","10247,1",,,,"03,1,+07500,1,00,1",,,,"03,99,1,00,1,00,1,99999,9,00,1,01,1",,,,"120,M,+0220,1","99999,9,10227,1","3,1,003,1,+999,9",,,,"SYN092AAXX  05181 08544 32960 33602 10166 20132 30227 40247 53003 80001 333 10220 83075 555 60007;",
"08544099999","2010-11-06T06:00:00","4","40.9166666","-8.6333333","22.0","OVAR MACEDA, PO","FM-12","99999","V020","999,9,C,0000,1","22000,1,9,N","004000,1,N,1","+0090,1","+0086,1","10243,1",,,,"03,1,+06600,1,00,1",,,,"03,99,1,00,1,00,1,99999,9,00,1,01,1","0570,9",,,"999,N,+0090,1","99999,9,10222,1","8,1,002,1,+999,9","10,1",,,"SYN110AAXX  06061 08544 31940 30000 10090 20086 30222 40243 58002 710// 80001 333 20090 50154 55095 83072 555 60002;",
"08544099999","2010-11-06T09:00:00","4","40.9166666","-8.6333333","22.0","OVAR MACEDA, PO","FM-12","99999","V020","999,9,C,0000,1","22000,1,9,N","000100,1,N,1","+0114,1","+0110,1","10248,1",,"4,1,03,1","1,1,03,1","04,1,+06600,1,00,1",,,,"04,99,1,00,1,00,1,99999,9,00,1,01,1",,,,,"99999,9,10227,1","2,1,005,1,+999,9","46,1",,,"SYN082AAXX  06091 08544 41901 40000 10114 20110 30227 40248 52005 74641 80001 333 84072;",
"08544099999","2010-11-06T12:00:00","4","40.9166666","-8.6333333","22.0","OVAR MACEDA, PO","FM-12","99999","V020","250,1,N,0030,1","00120,1,9,N","001500,1,N,1","+0152,1","+0149,1","10246,1",,"4,1,06,1","0,1,06,1","09,1,+99999,9,99,9",,,,"09,99,1,09,1,99,9,99999,9,99,9,99,9",,,,,"99999,9,10226,1","8,1,001,1,+999,9","41,1",,,"SYN082AAXX  06121 08544 31/15 92503 10152 20149 30226 40246 58001 74140 555 50004 60007;",
"08544099999","2010-11-06T15:00:00","4","40.9166666","-8.6333333","22.0","OVAR MACEDA, PO","FM-12","99999","V020","330,1,N,0030,1","00210,1,C,N","008000,1,N,1","+0156,1","+0139,1","10229,1",,"4,1,03,1","2,1,03,1","02,1,+00240,1,07,1",,,,"08,99,1,08,1,02,1,00250,1,99,9,99,9",,,,,"99999,9,10209,1","7,1,017,1,+999,9","10,1",,,"SYN088AAXX  06151 08544 41358 83303 10156 20139 30209 40229 57017 71042 882// 333 82708 87615;",
"08544099999","2010-11-06T18:00:00","4","40.9166666","-8.6333333","22.0","OVAR MACEDA, PO","FM-12","99999","V020","360,1,N,0040,1","00540,1,9,N","010000,1,N,1","+0156,1","+0128,1","10221,1",,"4,1,06,1","2,1,06,1","06,1,+00540,1,06,1",,,,"07,99,1,06,1,02,1,00450,1,00,1,04,1",,,,"120,M,+0160,1","99999,9,10201,1","7,1,008,1,+999,9","02,1",,,"SYN098AAXX  06181 08544 31460 73604 10156 20128 30201 40221 57008 70242 86204 333 10160 86618 555 60007;",
"08544099999","2010-11-07T06:00:00","4","40.9166666","-8.6333333","22.0","OVAR MACEDA, PO","FM-12","99999","V020","999,9,C,0000,1","00900,1,9,N","010000,1,N,1","+0128,1","+0114,1","10180,1",,,,"02,1,+00450,1,08,1","05,1,+00900,1,06,1",,,"06,99,1,06,1,08,1,00450,1,00,1,00,1","0000,9",,,"999,N,+0120,1","99999,9,10159,1","7,1,018,1,+999,9","00,1",,,"SYN116AAXX  07061 08544 31460 60000 10128 20114 30159 40180 57018 700// 86800 333 20120 50114 55000 82815 85630 555 60002;",
"08544099999","2010-11-07T09:00:00","4","40.9166666","-8.6333333","22.0","OVAR MACEDA, PO","FM-12","99999","V020","999,9,C,0000,1","00900,1,C,N","010000,1,N,1","+0134,1","+0124,1","10171,1",,,,"02,1,+00450,1,08,1",,,,"07,99,1,07,1,08,1,00450,1,99,9,99,9",,,,,"99999,9,10150,1","3,1,009,1,+999,9",,,,"SYN082AAXX  07091 08544 42460 70000 10134 20124 30150 40171 53009 878// 333 82815 87625;",
"08544099999","2010-11-07T12:00:00","4","40.9166666","-8.6333333","22.0","OVAR MACEDA, PO","FM-12","99999","V020","350,1,N,0070,1","00900,1,C,N","010000,1,N,1","+0160,1","+0100,1","10163,1","06,0000,9,1","8,1,06,1","2,1,06,1","03,1,+00450,1,08,1",,,,"06,99,1,05,1,08,1,00450,1,03,1,00,1",,,,,"99999,9,10142,1","8,1,008,1,+999,9","01,1","0110,5",,"SYN116AAXX  07121 08544 11460 63507 10160 20100 30142 40163 58008 69911 70182 85830 333 83815 91011 91111 555 59914 69917;","Q01  00002PRCP06"
"08544099999","2010-11-07T15:00:00","4","40.9166666","-8.6333333","22.0","OVAR MACEDA, PO","FM-12","99999","V020","360,1,N,0090,1","22000,1,9,N","010000,1,N,1","+0160,1","+0096,1","10146,1",,,,"01,1,+00450,1,08,1",,,,"02,99,1,02,1,08,1,00450,1,00,1,00,1",,,,,"99999,9,10126,1","7,1,016,1,+999,9",,,,"SYN082AAXX  07151 08544 42460 23609 10160 20096 30126 40146 57016 82800 333 81815 91114;",
"08544099999","2010-11-07T18:00:00","4","40.9166666","-8.6333333","22.0","OVAR MACEDA, PO","FM-12","99999","V020","360,1,N,0080,1","22000,1,9,N","010000,1,N,1","+0140,1","+0095,1","10143,1","12,0000,9,1",,,"01,1,+00450,1,08,1",,,,"02,99,1,02,1,08,1,00450,1,00,1,00,1",,,,"120,M,+0170,1","99999,9,10123,1","8,1,003,1,+999,9",,"0120,5","4,99,0140,9,999","SYN110AAXX  07181 08544 12460 23608 10140 20095 30123 40143 58003 69912 82800 333 10170 81815 91012 91114 555 60007;","Q01  00002PRCP12"
"08544099999","2010-11-08T06:00:00","4","40.9166666","-8.6333333","22.0","OVAR MACEDA, PO","FM-12","99999","V020","170,1,N,0020,1","02100,1,C,N","010000,1,N,1","+0098,1","+0091,1","10082,1","12,0000,9,1","6,1,06,1",,"01,1,+00210,1,07,1","04,1,+00480,1,08,1","05,1,+02100,1,04,1",,"08,99,1,05,1,02,1,00250,1,02,1,99,9","0378,9",,,"999,N,+0060,1","99999,9,10062,1","7,1,005,1,+999,9","00,1",,,"SYN128AAXX  08061 08544 11360 81702 10098 20091 30062 40082 57005 69922 7006/ 8522/ 333 20060 50274 55063 81707 84816 85457 555 69922;","Q01  00002PRCP12"
"08544099999","2010-11-08T09:00:00","4","40.9166666","-8.6333333","22.0","OVAR MACEDA, PO","FM-12","99999","V020","290,1,N,0050,1","00420,1,9,N","008000,1,N,1","+0148,1","+0128,1","10053,1",,"8,1,03,1","6,1,03,1","01,1,+00210,1,07,1","05,1,+00420,1,08,1",,,"08,99,1,08,1,02,1,00250,1,99,9,99,9",,,,,"99999,9,10033,1","7,1,029,1,+999,9","25,1","0100,5",,"SYN100AAXX  08091 08544 41358 82905 10148 20128 30033 40053 57029 72586 882// 333 81707 85814 91010 91114;",
"08544099999","2010-11-08T12:00:00","4","40.9166666","-8.6333333","22.0","OVAR MACEDA, PO","FM-12","99999","V020","290,1,N,0060,1","00450,1,9,N","008000,1,N,1","+0160,1","+0140,1","10030,1","06,0020,9,1","8,1,06,1","6,1,06,1","05,1,+00450,1,08,1","07,1,+00600,1,06,1",,,"07,99,1,07,1,08,1,00450,1,99,9,99,9",,,,,"99999,9,10010,1","7,1,023,1,+999,9","25,1",,,"SYN116AAXX  08121 08544 11458 72906 10160 20140 30010 40030 57023 60021 72586 878// 333 85815 87620 96010 555 50024 69937;",
"08544099999","2010-11-08T15:00:00","4","40.9166666","-8.6333333","22.0","OVAR MACEDA, PO","FM-12","99999","V020","320,1,N,0050,1","00450,1,9,N","003000,1,N,1","+0162,1","+0132,1","10005,1",,"8,1,03,1","2,1,03,1","05,1,+00450,1,08,1",,,,"07,99,1,07,1,08,1,00450,1,99,9,99,9",,,,,"99999,9,09985,1","7,1,025,1,+999,9","80,1",,,"SYN088AAXX  08151 08544 41430 73205 10162 20132 39985 40005 57025 78082 878// 333 85815 87620;",
"08544099999","2010-11-08T18:00:00","4","40.9166666","-8.6333333","22.0","OVAR MACEDA, PO","FM-12","99999","V020","300,1,N,0030,1","00600,1,9,N","006000,1,N,1","+0144,1","+0127,1","10002,1","12,0030,9,1","8,1,06,1","2,1,06,1","02,1,+00450,1,08,1","08,1,+00600,1,06,1",,,"08,99,1,08,1,08,1,00450,1,99,9,99,9",,,,"120,M,+0168,1","99999,9,09982,1","5,1,003,1,+999,9","25,1",,,"SYN116AAXX  08181 08544 11456 83003 10144 20127 39982 40002 55003 60032 72582 888// 333 10168 82815 88620 96010 555 69997;",
"08544099999","2010-11-09T06:00:00","4","40.9166666","-8.6333333","22.0","OVAR MACEDA, PO","FM-12","99999","V020","340,1,N,0070,1","00900,1,9,N","010000,1,N,1","+0134,1","+0102,1","09954,1","12,0061,9,1","8,1,06,1",,"04,1,+00600,1,08,1","07,1,+00900,1,06,1",,,"07,99,1,07,1,08,1,00800,1,00,1,00,1","0066,9",,,"999,N,+0124,1","99999,9,09934,1","7,1,020,1,+999,9","25,1",,,"SYN122AAXX  09061 08544 11560 73407 10134 20102 39934 49954 57020 60062 7258/ 87800 333 20124 50234 55011 84820 87630 555 60062;",
"08544099999","2010-11-09T09:00:00","4","40.9166666","-8.6333333","22.0","OVAR MACEDA, PO","FM-12","99999","V020","340,1,N,0050,1","01200,1,C,N","008000,1,N,1","+0136,1","+0104,1","09966,1",,"8,1,03,1","2,1,03,1","04,1,+00600,1,08,1",,,,"07,99,1,07,1,08,1,00800,1,00,1,00,1",,,,,"99999,9,09946,1","3,1,012,1,+999,9","10,1",,,"SYN088AAXX  09091 08544 41558 73405 10136 20104 39946 49966 53012 71082 87800 333 84820 86630;",
"08544099999","2010-11-09T12:00:00","4","40.9166666","-8.6333333","22.0","OVAR MACEDA, PO","FM-12","99999","V020","320,1,N,0080,1","00600,1,9,N","010000,1,N,1","+0134,1","+0091,1","09980,1","06,0030,9,1","9,1,06,1","8,1,06,1","03,1,+00540,1,08,1","02,1,+00600,1,09,1","05,1,+00900,1,06,1",,"07,99,1,07,1,03,1,00450,1,00,1,00,1",,,,,"99999,9,09960,1","2,1,014,1,+999,9","95,1","0150,5",,"SYN128AAXX  09121 08544 11460 73208 10134 20091 39960 49980 52014 60031 79598 87300 333 83818 82920 85630 91015 91115 555 50114 69957;",
"08544099999","2010-11-09T15:00:00","4","40.9166666","-8.6333333","22.0","OVAR MACEDA, PO","FM-12","99999","V020","330,1,N,0080,1","00900,1,9,N","010000,1,N,1","+0146,1","+0096,1","09981,1",,"9,1,03,1","8,1,03,1","02,1,+00450,1,08,1","02,1,+00600,1,09,1","04,1,+00900,1,06,1",,"05,99,1,05,1,03,1,00450,1,00,1,00,1",,,,,"99999,9,09961,1","3,1,001,1,+999,9","25,1","0150,5",,"SYN106AAXX  09151 08544 41460 53308 10146 20096 39961 49981 53001 72598 85300 333 82815 82920 84630 91015 91115;",
"08544099999","2010-11-09T18:00:00","4","40.9166666","-8.6333333","22.0","OVAR MACEDA, PO","FM-12","99999","V020","330,1,N,0080,1","00450,1,9,N","010000,1,N,1","+0146,1","+0096,1","09988,1","12,0061,9,1","9,1,06,1","8,1,06,1","05,1,+00450,1,08,1","02,1,+00600,1,09,1",,,"06,99,1,06,1,09,1,00450,1,00,1,00,1",,,,"120,M,+0158,1","99999,9,09968,1","3,1,007,1,+999,9","25,1","0130,5","4,99,0150,9,999","SYN140AAXX  09181 08544 11460 63308 10146 20096 39968 49988 53007 60062 72598 86900 333 10158 85815 82920 91013 91115 555 69977 90214 96681 90312;",
"08544099999","2010-11-10T06:00:00","4","40.9166666","-8.6333333","22.0","OVAR MACEDA, PO","FM-12","99999","V020","999,9,C,0000,1","22000,1,9,N","006000,1,N,1","+0088,1","+0080,1","10065,1","12,0071,9,1",,,"03,1,+00750,1,06,1",,,,"03,99,1,03,1,05,1,00800,1,00,1,00,1","0252,9",,,"999,N,+0084,1","99999,9,10044,1","2,1,027,1,+999,9","10,1",,,"SYN116AAXX  10061 08544 11556 30000 10088 20080 30044 40065 52027 60072 710// 83500 333 20084 50324 55042 83625 555 60072;",
"08544099999","2010-11-10T09:00:00","4","40.9166666","-8.6333333","22.0","OVAR MACEDA, PO","FM-12","99999","V020","190,1,N,0010,1","22000,1,9,N","008000,1,N,1","+0094,1","+0086,1","10105,1",,"8,1,03,1","1,1,03,1","01,1,+00600,1,08,1",,,,"02,99,1,01,1,08,1,00800,1,00,1,04,1",,,,,"99999,9,10084,1","2,1,040,1,+999,9","10,1",,,"SYN082AAXX  10091 08544 41558 21901 10094 20086 30084 40105 52040 71081 81804 333 81820;",
"08544099999","2010-11-10T12:00:00","4","40.9166666","-8.6333333","22.0","OVAR MACEDA, PO","FM-12","99999","V020","340,1,N,0030,1","22000,1,9,N","010000,1,N,1","+0154,1","+0097,1","10131,1","06,0005,9,1","8,1,06,1","1,1,06,1","02,1,+00600,1,08,1","03,1,+00900,1,06,1",,,"04,99,1,04,1,08,1,00800,1,00,1,00,1",,,,,"99999,9,10110,1","2,1,026,1,+999,9","03,1",,,"SYN110AAXX  10121 08544 11560 43403 10154 20097 30110 40131 52026 69941 70381 84800 333 82820 83630 555 50114 60007;",
"08544099999","2010-11-10T15:00:00","4","40.9166666","-8.6333333","22.0","OVAR MACEDA, PO","FM-12","99999","V020","280,1,N,0020,1","22000,1,9,N","010000,1,N,1","+0160,1","+0104,1","10139,1",,,,"01,1,+00600,1,08,1",,,,"03,99,1,03,1,08,1,00800,1,00,1,00,1",,,,,"99999,9,10119,1","2,1,009,1,+999,9",,,,"SYN082AAXX  10151 08544 42560 32802 10160 20104 30119 40139 52009 83800 333 81820 83630;",
"08544099999","2010-11-10T18:00:00","4","40.9166666","-8.6333333","22.0","OVAR MACEDA, PO","FM-12","99999","V020","999,9,C,0000,1","22000,1,9,N","010000,1,N,1","+0122,1","+0107,1","10159,1","12,0005,9,1",,,"01,1,+00600,1,08,1",,,,"02,99,1,01,1,02,1,00800,1,00,1,01,1",,,,"120,M,+0162,1","99999,9,10139,1","2,1,020,1,+999,9",,,,"SYN098AAXX  10181 08544 12560 20000 10122 20107 30139 40159 52020 69942 81201 333 10162 81820 555 60007;",
"08544099999","2010-11-11T06:00:00","4","40.9166666","-8.6333333","22.0","OVAR MACEDA, PO","FM-12","99999","V020","180,1,N,0030,1","03600,1,C,N","010000,1,N,1","+0114,1","+0093,1","10213,1",,,,"01,1,+00450,1,08,1","04,1,+01200,1,06,1",,,"07,99,1,04,1,08,1,00450,1,03,1,00,1","0444,9",,,"999,N,+0070,1","99999,9,10193,1","3,1,004,1,+999,9","00,1",,,"SYN112AAXX  11061 08544 31460 71803 10114 20093 30193 40213 53004 700// 84830 333 20070 50124 55074 81815 84640 85357;",
"08544099999","2010-11-11T09:00:00","4","40.9166666","-8.6333333","22.0","OVAR MACEDA, PO","FM-12","99999","V020","170,1,N,0030,1","00900,1,9,N","010000,1,N,1","+0128,1","+0103,1","10232,1",,"8,1,03,1","2,1,03,1","01,1,+00450,1,08,1",,,,"06,99,1,05,1,08,1,00450,1,03,1,01,1",,,,,"99999,9,10212,1","2,1,020,1,+999,9","02,1",,,"SYN088AAXX  11091 08544 41460 61703 10128 20103 30212 40232 52020 70282 85831 333 81815 85630;",
"08544099999","2010-11-11T12:00:00","4","40.9166666","-8.6333333","22.0","OVAR MACEDA, PO","FM-12","99999","V020","210,1,N,0030,1","00900,1,C,N","010000,1,N,1","+0158,1","+0135,1","10239,1","06,0000,9,1","8,1,06,1","2,1,06,1","02,1,+00450,1,08,1","03,1,+00900,1,06,1",,,"07,99,1,03,1,08,1,00450,1,03,1,02,1",,,,,"99999,9,10219,1","2,1,007,1,+999,9","02,1",,,"SYN110AAXX  11121 08544 11460 72103 10158 20135 30219 40239 52007 69921 70282 83832 333 82815 83630 555 59924 60007;","Q01  00002PRCP06"
"08544099999","2010-11-11T15:00:00","4","40.9166666","-8.6333333","22.0","OVAR MACEDA, PO","FM-12","99999","V020","220,1,N,0040,1","00900,1,9,N","010000,1,N,1","+0168,1","+0113,1","10239,1",,,,"01,1,+00450,1,08,1",,,,"08,99,1,06,1,08,1,00450,1,00,1,01,1",,,,,"99999,9,10219,1","0,1,000,1,+999,9",,,,"SYN082AAXX  11151 08544 42460 82204 10168 20113 30219 40239 50000 86801 333 81815 86630;",
"08544099999","2010-11-11T18:00:00","4","40.9166666","-8.6333333","22.0","OVAR MACEDA, PO","FM-12","99999","V020","200,1,N,0020,1","00900,1,9,N","010000,1,N,1","+0154,1","+0123,1","10245,1","12,0000,9,1",,,"02,1,+00450,1,08,1","07,1,+00900,1,06,1",,,"08,99,1,08,1,08,1,00450,1,99,9,99,9",,,,"120,M,+0176,1","99999,9,10224,1","2,1,005,1,+999,9",,,,"SYN104AAXX  11181 08544 12460 82002 10154 20123 30224 40245 52005 69922 888// 333 10176 82815 87630 555 60007;","Q01  00002PRCP12"
"08544099999","2010-11-12T06:00:00","4","40.9166666","-8.6333333","22.0","OVAR MACEDA, PO","FM-12","99999","V020","180,1,N,0030,1","00420,1,9,N","008000,1,N,1","+0144,1","+0123,1","10240,1",,,,"02,1,+00150,1,07,1","05,1,+00420,1,08,1",,,"08,99,1,08,1,08,1,00150,1,99,9,99,9","0114,9",,,"999,N,+0134,1","99999,9,10219,1","7,1,002,1,+999,9","10,1",,,"SYN112AAXX  12061 08544 31258 81803 10144 20123 30219 40240 57002 710// 888// 333 20134 50184 55019 82705 85814 60002;",
"08544099999","2010-11-12T09:00:00","4","40.9166666","-8.6333333","22.0","OVAR MACEDA, PO","FM-12","99999","V020","180,1,N,0030,1","00600,1,C,N","004000,1,N,1","+0140,1","+0133,1","10245,1",,"5,1,03,1","2,1,03,1","04,1,+00150,1,07,1",,,,"08,99,1,08,1,08,1,00150,1,99,9,99,9",,,,,"99999,9,10224,1","3,1,005,1,+999,9","50,1",,,"SYN088AAXX  12091 08544 41240 81803 10140 20133 30224 40245 53005 75052 888// 333 84705 85622;",
"08544099999","2010-11-12T12:00:00","4","40.9166666","-8.6333333","22.0","OVAR MACEDA, PO","FM-12","99999","V020","180,1,N,0060,1","00660,1,9,N","010000,1,N,1","+0162,1","+0128,1","10238,1","06,0000,2,1","5,1,06,1","2,1,06,1","04,1,+00420,1,08,1","07,1,+00660,1,06,1",,,"07,99,1,07,1,08,1,00450,1,00,1,00,1",,,,,"99999,9,10217,1","7,1,007,1,+999,9","02,1",,"4,99,0100,9,999","SYN116AAXX  12121 08544 11460 71806 10162 20128 30217 40238 57007 69901 70252 87800 333 84814 87622 91110 555 59904 69907;",
"08544099999","2010-11-12T15:00:00","4","40.9166666","-8.6333333","22.0","OVAR MACEDA, PO","FM-12","99999","V020","200,1,N,0040,1","00690,1,9,N","010000,1,N,1","+0168,1","+0128,1","10216,1",,,,"04,1,+00450,1,08,1","07,1,+00690,1,06,1",,,"07,99,1,07,1,08,1,00450,1,00,1,00,1",,,,,"99999,9,10195,1","7,1,022,1,+999,9",,,,"SYN088AAXX  12151 08544 42460 72004 10168 20128 30195 40216 57022 87800 333 84815 87623 91108;",
"08544099999","2010-11-12T18:00:00","4","40.9166666","-8.6333333","22.0","OVAR MACEDA, PO","FM-12","99999","V020","140,1,N,0020,1","00360,1,9,N","004000,1,N,1","+0146,1","+0135,1","10209,1","12,0003,9,1","5,1,06,1","2,1,06,1","04,1,+00210,1,07,1","05,1,+00360,1,08,1","08,1,+00540,1,06,1",,"08,99,1,08,1,08,1,00250,1,99,9,99,9",,,,"120,M,+0178,1","99999,9,10188,1","7,1,007,1,+999,9","10,1",,,"SYN116AAXX  12181 08544 11340 81402 10146 20135 30188 40209 57007 69932 71052 888// 333 10178 84707 85812 88618 555 69937;",
"08544099999","2010-11-13T06:00:00","4","40.9166666","-8.6333333","22.0","OVAR MACEDA, PO","FM-12","99999","V020","190,1,N,0050,1","00240,1,9,N","007000,1,N,1","+0152,1","+0114,1","10148,1",,,,"05,1,+00240,1,07,1","08,1,+00360,1,06,1",,,"08,99,1,08,1,05,1,00250,1,99,9,99,9","0072,9",,,"999,N,+0144,1","99999,9,10128,1","7,1,009,1,+999,9","10,1","0070,5","4,99,0080,9,999","SYN128AAXX  13061 08544 31357 81905 10152 20114 30128 40148 57009 710// 885// 333 20144 50184 55012 85708 88612 91007 91108 555 60002;",
"08544099999","2010-11-13T09:00:00","4","40.9166666","-8.6333333","22.0","OVAR MACEDA, PO","FM-12","99999","V020","170,1,N,0050,1","00240,1,9,N","006000,1,N,1","+0138,1","+0124,1","10141,1",,"2,1,03,1","2,1,03,1","05,1,+00240,1,07,1","08,1,+00360,1,06,1",,,"08,99,1,08,1,05,1,00250,1,99,9,99,9",,,,,"99999,9,10121,1","6,1,007,1,+999,9","20,1","0080,5",,"SYN106AAXX  13091 08544 41356 81705 10138 20124 30121 40141 56007 72022 885// 333 85708 88612 91008 91108 96010;",
"08544099999","2010-11-13T12:00:00","4","40.9166666","-8.6333333","22.0","OVAR MACEDA, PO","FM-12","99999","V020","180,1,N,0070,1","00450,1,9,N","007000,1,N,1","+0152,1","+0135,1","10124,1","06,0010,9,1","5,1,06,1","2,1,06,1","04,1,+00240,1,07,1","05,1,+00450,1,08,1","07,1,+00600,1,06,1",,"07,99,1,07,1,08,1,00250,1,00,1,00,1",,,,,"99999,9,10104,1","7,1,017,1,+999,9","50,1","0110,5","4,99,0120,9,999","SYN128AAXX  13121 08544 11357 71807 10152 20135 30104 40124 57017 60011 75052 87800 333 84708 85815 87620 91011 91112 555 50014 69917;",
"08544099999","2010-11-13T15:00:00","4","40.9166666","-8.6333333","22.0","OVAR MACEDA, PO","FM-12","99999","V020","170,1,N,0060,1","00450,1,9,N","008000,1,N,1","+0156,1","+0140,1","10091,1",,"5,1,03,1","2,1,03,1","04,1,+00240,1,07,1","05,1,+00450,1,08,1","08,1,+00750,1,06,1",,"08,99,1,08,1,08,1,00250,1,99,9,99,9",,,,,"99999,9,10070,1","7,1,034,1,+999,9","20,1","0090,5",,"SYN106AAXX  13151 08544 41358 81706 10156 20140 30070 40091 57034 72052 888// 333 84708 85815 88625 91009 91111;",
"08544099999","2010-11-13T18:00:00","4","40.9166666","-8.6333333","22.0","OVAR MACEDA, PO","FM-12","99999","V020","180,1,N,0060,1","00450,1,9,N","008000,1,N,1","+0162,1","+0135,1","10072,1","12,0010,9,1","5,1,06,1","2,1,06,1","05,1,+00450,1,08,1","08,1,+00750,1,06,1",,,"08,99,1,08,1,08,1,00450,1,99,9,99,9",,,,"120,M,+0164,1","99999,9,10052,1","7,1,018,1,+999,9","10,1","0100,5","4,99,0110,9,999","SYN122AAXX  13181 08544 11458 81806 10162 20135 30052 40072 57018 60012 71052 888// 333 10164 85815 88625 91010 91111 555 60007;",
"08544099999","2010-11-14T06:00:00","4","40.9166666","-8.6333333","22.0","OVAR MACEDA, PO","FM-12","99999","V020","330,1,N,0030,1","00900,1,9,N","010000,1,N,1","+0132,1","+0104,1","10061,1","12,0320,9,1",,,"04,1,+00360,1,08,1","03,1,+00900,1,06,1","07,1,+02100,1,04,1",,"08,99,1,06,1,08,1,00450,1,07,1,99,9","0006,9",,,"999,N,+0126,1","99999,9,10040,1","3,1,028,1,+999,9",,,,"SYN122AAXX  14061 08544 12460 83303 10132 20104 30040 40061 53028 60322 8687/ 333 20126 50124 55001 84812 83630 87457 555 60322;",
"08544099999","2010-11-14T09:00:00","4","40.9166666","-8.6333333","22.0","OVAR MACEDA, PO","FM-12","99999","V020","330,1,N,0030,1","22000,1,9,N","010000,1,N,1","+0136,1","+0072,1","10086,1",,"6,1,03,1","2,1,03,1","03,1,+00450,1,08,1",,,,"04,99,1,04,1,08,1,00450,1,00,1,00,1",,,,,"99999,9,10066,1","2,1,026,1,+999,9","01,1",,,"SYN082AAXX  14091 08544 41460 43303 10136 20072 30066 40086 52026 70162 84800 333 83815;",
"08544099999","2010-11-14T12:00:00","4","40.9166666","-8.6333333","22.0","OVAR MACEDA, PO","FM-12","99999","V020","290,1,N,0040,1","00750,1,9,N","006000,1,N,1","+0152,1","+0078,1","10096,1","06,0003,9,1","8,1,06,1","6,1,06,1","04,1,+00450,1,08,1","04,1,+00750,1,06,1",,,"05,99,1,05,1,08,1,00450,1,00,1,00,1",,,,,"99999,9,10076,1","1,1,010,1,+999,9","80,1","0080,5",,"SYN122AAXX  14121 08544 11456 52904 10152 20078 30076 40096 51010 69931 78086 85800 333 84815 84625 91008 91108 555 50324 69907;",
"08544099999","2010-11-14T15:00:00","4","40.9166666","-8.6333333","22.0","OVAR MACEDA, PO","FM-12","99999","V020","350,1,N,0040,1","22000,1,9,N","010000,1,N,1","+0138,1","+0095,1","10105,1",,"8,1,03,1","2,1,03,1","03,1,+00450,1,08,1","04,1,+00750,1,06,1",,,"04,99,1,04,1,08,1,00450,1,00,1,00,1",,,,,"99999,9,10085,1","2,1,009,1,+999,9","01,1",,,"SYN094AAXX  14151 08544 41460 43504 10138 20095 30085 40105 52009 70182 84800 333 83815 84625 91112;",
"08544099999","2010-11-14T18:00:00","4","40.9166666","-8.6333333","22.0","OVAR MACEDA, PO","FM-12","99999","V020","330,1,N,0040,1","09000,1,9,N","010000,1,N,1","+0124,1","+0062,1","10127,1","12,0030,9,1","8,1,06,1","1,1,06,1","04,1,+00450,1,08,1",,,,"05,99,1,04,1,02,1,00450,1,00,1,02,1",,,,"120,M,+0158,1","99999,9,10106,1","2,1,021,1,+999,9","02,1",,"4,99,0120,9,999","SYN110AAXX  14181 08544 11460 53304 10124 20062 30106 40127 52021 60032 70281 84202 333 10158 84815 91112 555 69917;",
"08544099999","2010-11-15T06:00:00","4","40.9166666","-8.6333333","22.0","OVAR MACEDA, PO","FM-12","99999","V020","100,1,N,0030,1","00600,1,9,N","007000,1,N,1","+0088,1","+0072,1","10190,1","12,0005,9,1","8,1,06,1",,"04,1,+00390,1,08,1","05,1,+00600,1,06,1",,,"05,99,1,05,1,08,1,00450,1,00,1,00,1","0336,9",,,"999,N,+0074,1","99999,9,10170,1","2,1,015,1,+999,9","80,1",,,"SYN122AAXX  15061 08544 11457 51003 10088 20072 30170 40190 52015 69952 7808/ 85800 333 20074 50284 55056 84813 85620 555 69952;",
"08544099999","2010-11-15T09:00:00","4","40.9166666","-8.6333333","22.0","OVAR MACEDA, PO","FM-12","99999","V020","190,1,N,0030,1","00900,1,C,N","010000,1,N,1","+0092,1","+0080,1","10222,1",,"8,1,03,1","2,1,03,1","04,1,+00420,1,08,1",,,,"05,99,1,05,1,08,1,00450,1,00,1,00,1",,,,,"99999,9,10201,1","2,1,031,1,+999,9","25,1",,,"SYN082AAXX  15091 08544 41460 51903 10092 20080 30201 40222 52031 72582 85800 333 84814;",
"08544099999","2010-11-15T12:00:00","4","40.9166666","-8.6333333","22.0","OVAR MACEDA, PO","FM-12","99999","V020","190,1,N,0030,1","00750,1,9,N","010000,1,N,1","+0126,1","+0093,1","10238,1","06,0020,9,1","8,1,06,1","2,1,06,1","03,1,+00450,1,08,1","04,1,+00750,1,06,1",,,"05,99,1,05,1,08,1,00450,1,00,1,00,1",,,,,"99999,9,10217,1","0,1,016,1,+999,9","25,1",,,"SYN110AAXX  15121 08544 11460 51903 10126 20093 30217 40238 50016 60021 72582 85800 333 83815 84625 555 50054 60017;",
"08544099999","2010-11-15T15:00:00","4","40.9166666","-8.6333333","22.0","OVAR MACEDA, PO","FM-12","99999","V020","280,1,N,0020,1","22000,1,9,N","010000,1,N,1","+0138,1","+0094,1","10237,1",,,,"01,1,+00450,1,08,1",,,,"04,99,1,04,1,08,1,00450,1,00,1,00,1",,,,,"99999,9,10217,1","5,1,000,1,+999,9",,,,"SYN082AAXX  15151 08544 42460 42802 10138 20094 30217 40237 55000 84800 333 81815 84625;",
"08544099999","2010-11-15T18:00:00","4","40.9166666","-8.6333333","22.0","OVAR MACEDA, PO","FM-12","99999","V020","210,1,N,0010,1","00750,1,9,N","010000,1,N,1","+0118,1","+0103,1","10255,1","12,0041,9,1","8,1,06,1","2,1,06,1","03,1,+00450,1,08,1","03,1,+00750,1,06,1",,,"05,99,1,05,1,08,1,00450,1,00,1,00,1",,,,"120,M,+0152,1","99999,9,10235,1","2,1,018,1,+999,9","25,1",,,"SYN110AAXX  15181 08544 11460 52101 10118 20103 30235 40255 52018 60042 72582 85800 333 10152 83815 83625 555 69917;",
"08544099999","2010-11-16T06:00:00","4","40.9166666","-8.6333333","22.0","OVAR MACEDA, PO","FM-12","99999","V020","190,1,N,0020,1","22000,1,9,N","010000,1,N,1","+0050,1","+0050,1","10258,1","12,0010,9,1",,,"01,1,+00450,1,08,1",,,,"02,99,1,02,1,08,1,00450,1,00,1,00,1","0294,9",,,"999,N,+0050,1","99999,9,10237,1","7,1,008,1,+999,9",,,,"SYN110AAXX  16061 08544 13460 21902 10050 20050 30237 40258 57008 60012 82800 333 20050 50084 55049 81815 555 60012;",
"08544099999","2010-11-16T09:00:00","4","40.9166666","-8.6333333","22.0","OVAR MACEDA, PO","FM-12","99999","V020","190,1,N,0020,1","22000,1,9,N","008000,1,N,1","+0078,1","+0070,1","10263,1",,"0,1,03,1","0,1,03,1","03,1,+02400,1,03,1",,,,"04,99,1,03,1,00,1,02250,1,03,1,01,1",,,,,"99999,9,10242,1","2,1,005,1,+999,9","10,1",,,"SYN088AAXX  16091 08544 41858 41902 10078 20070 30242 40263 52005 71000 83031 333 83358 84070;",
"08544099999","2010-11-16T12:00:00","4","40.9166666","-8.6333333","22.0","OVAR MACEDA, PO","FM-12","99999","V020","180,1,N,0050,1","01050,1,9,N","010000,1,N,1","+0130,1","+0085,1","10252,1",,,,"05,1,+01050,1,06,1","06,1,+06000,1,00,1",,,"07,99,1,05,1,05,1,01250,1,03,1,02,1",,,,,"99999,9,10231,1","7,1,011,1,+999,9",,,,"SYN098AAXX  16121 08544 32660 71805 10130 20085 30231 40252 57011 85532 333 85635 86070 555 50014 60007;",
"08544099999","2010-11-16T15:00:00","4","40.9166666","-8.6333333","22.0","OVAR MACEDA, PO","FM-12","99999","V020","180,1,N,0050,1","03600,1,C,N","010000,1,N,1","+0140,1","+0089,1","10219,1",,,,"01,1,+00450,1,08,1","03,1,+01050,1,06,1",,,"08,99,1,03,1,08,1,00450,1,03,1,06,1",,,,,"99999,9,10198,1","7,1,033,1,+999,9",,,,"SYN088AAXX  16151 08544 42460 81805 10140 20089 30198 40219 57033 83836 333 81815 83635 85358;",
"08544099999","2010-11-16T18:00:00","4","40.9166666","-8.6333333","22.0","OVAR MACEDA, PO","FM-12","99999","V020","170,1,N,0050,1","02100,1,9,N","010000,1,N,1","+0136,1","+0092,1","10190,1",,,,"01,1,+00450,1,08,1","05,1,+02100,1,03,1","07,1,+06000,1,02,1",,"08,99,1,02,1,08,1,00450,1,03,1,08,1",,,,"120,M,+0148,1","99999,9,10170,1","7,1,028,1,+999,9",,,,"SYN104AAXX  16181 08544 32460 81705 10136 20092 30170 40190 57028 82838 333 10148 81815 85357 87270 555 60007;",
"08544099999","2010-11-17T06:00:00","4","40.9166666","-8.6333333","22.0","OVAR MACEDA, PO","FM-12","99999","V020","020,1,N,0040,1","22000,1,9,N","010000,1,N,1","+0126,1","+0108,1","10128,1","12,0160,9,1",,,"01,1,+00450,1,08,1","04,1,+00900,1,06,1",,,"04,99,1,04,1,08,1,00450,1,00,1,00,1","0126,9",,,"999,N,+0102,1","99999,9,10108,1","3,1,009,1,+999,9","00,1",,"4,99,0130,9,999","SYN128AAXX  17061 08544 11460 40204 10126 20108 30108 40128 53009 60162 700// 84800 333 20102 50164 55021 81815 84630 91113 555 60162;",
"08544099999","2010-11-17T09:00:00","4","40.9166666","-8.6333333","22.0","OVAR MACEDA, PO","FM-12","99999","V020","999,9,C,0000,1","22000,1,9,N","010000,1,N,1","+0112,1","+0097,1","10152,1",,,,"03,1,+00450,1,08,1",,,,"03,99,1,03,1,02,1,00450,1,00,1,00,1",,,,,"99999,9,10131,1","2,1,024,1,+999,9",,,,"SYN076AAXX  17091 08544 42460 30000 10112 20097 30131 40152 52024 83200 333 83815;",
"08544099999","2010-11-17T12:00:00","4","40.9166666","-8.6333333","22.0","OVAR MACEDA, PO","FM-12","99999","V020","310,1,N,0020,1","00450,1,9,N","010000,1,N,1","+0146,1","+0104,1","10161,1","06,0008,9,1","8,1,06,1","1,1,06,1","05,1,+00450,1,08,1",,,,"05,99,1,05,1,02,1,00450,1,00,1,00,1",,,,,"99999,9,10141,1","0,1,010,1,+999,9","03,1",,,"SYN104AAXX  17121 08544 11460 53102 10146 20104 30141 40161 50010 69971 70381 85200 333 85815 555 50174 69977;",
"08544099999","2010-11-17T15:00:00","4","40.9166666","-8.6333333","22.0","OVAR MACEDA, PO","FM-12","99999","V020","340,1,N,0050,1","00900,1,C,N","010000,1,N,1","+0154,1","+0080,1","10160,1",,"8,1,03,1","1,1,03,1","04,1,+00450,1,08,1",,,,"05,99,1,05,1,08,1,00450,1,00,1,00,1",,,,,"99999,9,10140,1","5,1,001,1,+999,9","03,1","0090,5",,"SYN094AAXX  17151 08544 41460 53405 10154 20080 30140 40160 55001 70381 85800 333 84815 91009 91109;",
"08544099999","2010-11-17T18:00:00","4","40.9166666","-8.6333333","22.0","OVAR MACEDA, PO","FM-12","99999","V020","310,1,N,0030,1","22000,1,9,N","010000,1,N,1","+0132,1","+0080,1","10165,1","12,0020,9,1","8,1,06,1","1,1,06,1","02,1,+00450,1,08,1","03,1,+00750,1,06,1",,,"04,99,1,04,1,08,1,00450,1,00,1,00,1",,,,"120,M,+0158,1","99999,9,10145,1","0,1,005,1,+999,9","01,1",,,"SYN110AAXX  17181 08544 11460 43103 10132 20080 30145 40165 50005 60022 70181 84800 333 10158 82815 83625 555 60007;",
"08544099999","2010-11-18T06:00:00","4","40.9166666","-8.6333333","22.0","OVAR MACEDA, PO","FM-12","99999","V020","200,1,N,0020,1","00900,1,9,N","008000,1,N,1","+0086,1","+0078,1","10175,1","12,0030,9,1",,,"01,1,+00450,1,08,1","05,1,+00900,1,06,1",,,"05,99,1,05,1,08,1,00450,1,00,1,00,1","0378,9",,,"999,N,+0084,1","99999,9,10154,1","3,1,002,1,+999,9","10,1",,,"SYN122AAXX  18061 08544 11458 52002 10086 20078 30154 40175 53002 60032 710// 85800 333 20084 50194 55063 81815 85630 555 60032;",
"08544099999","2010-11-18T09:00:00","4","40.9166666","-8.6333333","22.0","OVAR MACEDA, PO","FM-12","99999","V020","140,1,N,0030,1","00900,1,9,N","010000,1,N,1","+0100,1","+0093,1","10185,1",,"8,1,03,1","6,1,03,1","02,1,+00450,1,08,1",,,,"07,99,1,05,1,08,1,00450,1,03,1,04,1",,,,,"99999,9,10164,1","2,1,010,1,+999,9","21,1",,,"SYN088AAXX  18091 08544 41460 71403 10100 20093 30164 40185 52010 72186 85834 333 82815 85630;",
"08544099999","2010-11-18T12:00:00","4","40.9166666","-8.6333333","22.0","OVAR MACEDA, PO","FM-12","99999","V020","160,1,N,0030,1","00900,1,C,N","010000,1,N,1","+0132,1","+0111,1","10194,1","06,0020,9,1","8,1,06,1","6,1,06,1","03,1,+00450,1,08,1",,,,"06,99,1,05,1,08,1,00450,1,07,1,00,1",,,,,"99999,9,10174,1","1,1,010,1,+999,9","02,1",,,"SYN094AAXX  18121 08544 11460 61603 10132 20111 30174 40194 51010 60021 70286 85870 333 83815 85625;",
"08544099999","2010-11-18T15:00:00","4","40.9166666","-8.6333333","22.0","OVAR MACEDA, PO","FM-12","99999","V020","210,1,N,0030,1","03600,1,9,N","010000,1,N,1","+0150,1","+0104,1","10181,1",,,,"02,1,+00450,1,08,1",,,,"06,99,1,04,1,08,1,00450,1,07,1,01,1",,,,,"99999,9,10160,1","7,1,014,1,+999,9",,,,"SYN082AAXX  18151 08544 42460 62103 10150 20104 30160 40181 57014 84871 333 82815 84625;",
"08544099999","2010-11-18T18:00:00","4","40.9166666","-8.6333333","22.0","OVAR MACEDA, PO","FM-12","99999","V020","160,1,N,0020,1","00660,1,9,N","006000,1,N,1","+0130,1","+0112,1","10185,1","12,0020,9,1","2,1,06,1","2,1,06,1","03,1,+00390,1,08,1","06,1,+00660,1,06,1",,,"07,99,1,06,1,08,1,00450,1,07,1,00,1",,,,"120,M,+0152,1","99999,9,10165,1","2,1,005,1,+999,9","10,1",,,"SYN110AAXX  18181 08544 11456 71602 10130 20112 30165 40185 52005 60022 71022 86870 333 10152 83813 86622 555 60007;",
"08544099999","2010-11-19T06:00:00","4","40.9166666","-8.6333333","22.0","OVAR MACEDA, PO","FM-12","99999","V020","160,1,N,0040,1","00450,1,9,N","006000,1,N,1","+0106,1","+0095,1","10141,1","12,0051,9,1","6,1,06,1",,"04,1,+00240,1,07,1","05,1,+00450,1,06,1","08,1,+02100,1,04,1",,"08,99,1,05,1,05,1,00250,1,02,1,99,9","0150,9",,,"999,N,+0106,1","99999,9,10120,1","7,1,006,1,+999,9","60,1",,,"SYN134AAXX  19061 08544 11356 81604 10106 20095 30120 40141 57006 60052 7606/ 8552/ 333 20106 50114 55025 84708 85615 88457 96010 555 60052;",
"08544099999","2010-11-19T09:00:00","4","40.9166666","-8.6333333","22.0","OVAR MACEDA, PO","FM-12","99999","V020","180,1,N,0060,1","00390,1,9,N","004000,1,N,1","+0110,1","+0099,1","10144,1",,"6,1,03,1","6,1,03,1","04,1,+00240,1,07,1","06,1,+00390,1,06,1","08,1,+02100,1,04,1",,"08,99,1,06,1,05,1,00250,1,02,1,99,9",,,,,"99999,9,10124,1","3,1,004,1,+999,9","61,1",,"4,99,0090,9,999","SYN106AAXX  19091 08544 41340 81806 10110 20099 30124 40144 53004 76166 8652/ 333 84708 86613 88457 91109 96010;",
"08544099999","2010-11-19T12:00:00","4","40.9166666","-8.6333333","22.0","OVAR MACEDA, PO","FM-12","99999","V020","180,1,N,0070,1","00390,1,9,N","010000,1,N,1","+0128,1","+0110,1","10136,1","06,0071,9,1","8,1,06,1","6,1,06,1","06,1,+00390,1,06,1",,,,"07,99,1,06,1,02,1,00450,1,02,1,00,1",,,,,"99999,9,10115,1","7,1,008,1,+999,9","25,1","0100,5",,"SYN116AAXX  19121 08544 11460 71807 10128 20110 30115 40136 57008 60071 72586 86220 333 86613 91010 91110 555 50124 60027;",
"08544099999","2010-11-19T15:00:00","4","40.9166666","-8.6333333","22.0","OVAR MACEDA, PO","FM-12","99999","V020","180,1,N,0060,1","00390,1,9,N","010000,1,N,1","+0132,1","+0121,1","10126,1",,"8,1,03,1","6,1,03,1","03,1,+00300,1,08,1","05,1,+00390,1,08,1",,,"07,99,1,05,1,02,1,00450,1,07,1,00,1",,,,,"99999,9,10105,1","7,1,010,1,+999,9","21,1",,,"SYN094AAXX  19151 08544 41460 71806 10132 20121 30105 40126 57010 72186 85270 333 83810 85813 91110;",
"08544099999","2010-11-19T18:00:00","4","40.9166666","-8.6333333","22.0","OVAR MACEDA, PO","FM-12","99999","V020","190,1,N,0060,1","00390,1,9,N","010000,1,N,1","+0132,1","+0121,1","10122,1","12,0119,9,1","8,1,06,1","6,1,06,1","05,1,+00390,1,08,1","05,1,+02100,1,04,1",,,"08,99,1,05,1,02,1,00450,1,07,1,99,9",,,,"120,M,+0136,1","99999,9,10102,1","5,1,003,1,+999,9","25,1",,"4,99,0100,9,999","SYN116AAXX  19181 08544 11460 81906 10132 20121 30102 40122 55003 60122 72586 8527/ 333 10136 85813 85457 91110 555 69947;",
"08544099999","2010-11-20T06:00:00","4","40.9166666","-8.6333333","22.0","OVAR MACEDA, PO","FM-12","99999","V020","340,1,N,0030,1","22000,1,9,N","010000,1,N,1","+0136,1","+0076,1","10127,1","12,0130,9,1","6,1,06,1","1,1,06,1","02,1,+00450,1,08,1",,,,"02,99,1,02,1,02,1,00450,1,00,1,00,1","0006,9",,,"999,N,+0126,1","99999,9,10106,1","2,1,009,1,+999,9","02,1",,,"SYN116AAXX  20061 08544 11460 23403 10136 20076 30106 40127 52009 60132 70261 82200 333 20126 50134 55001 82815 555 60132;",
"08544099999","2010-11-20T09:00:00","4","40.9166666","-8.6333333","22.0","OVAR MACEDA, PO","FM-12","99999","V020","340,1,N,0050,1","00900,1,C,N","010000,1,N,1","+0144,1","+0094,1","10142,1",,,,"03,1,+00450,1,08,1",,,,"05,99,1,05,1,08,1,00450,1,00,1,00,1",,,,,"99999,9,10122,1","2,1,016,1,+999,9",,"0100,5",,"SYN088AAXX  20091 08544 42460 53405 10144 20094 30122 40142 52016 85800 333 83815 91010 91110;",
"08544099999","2010-11-20T12:00:00","4","40.9166666","-8.6333333","22.0","OVAR MACEDA, PO","FM-12","99999","V020","360,1,N,0060,1","02700,1,9,N","010000,1,N,1","+0156,1","+0099,1","10147,1","06,0003,9,1","8,1,06,1","1,1,06,1","04,1,+00450,1,08,1","01,1,+02700,1,03,1",,,"05,99,1,04,1,02,1,00450,1,03,1,00,1",,,,,"99999,9,10127,1","0,1,005,1,+999,9","02,1",,,"SYN110AAXX  20121 08544 11460 53606 10156 20099 30127 40147 50005 69931 70281 84230 333 84815 81359 555 50164 69937;",
"08544099999","2010-11-20T15:00:00","4","40.9166666","-8.6333333","22.0","OVAR MACEDA, PO","FM-12","99999","V020","350,1,N,0080,1","00420,1,C,N","003000,1,N,1","+0156,1","+0095,1","10140,1",,"8,1,03,1","2,1,03,1","04,1,+00450,1,08,1",,,,"05,99,1,05,1,02,1,00450,1,00,1,00,1",,,,,"99999,9,10120,1","6,1,007,1,+999,9","81,1",,,"SYN082AAXX  20151 08544 41430 53508 10156 20095 30120 40140 56007 78182 85200 333 84815;",
"08544099999","2010-11-20T18:00:00","4","40.9166666","-8.6333333","22.0","OVAR MACEDA, PO","FM-12","99999","V020","340,1,N,0060,1","01200,1,9,N","010000,1,N,1","+0138,1","+0078,1","10145,1","12,0030,9,1","8,1,06,1","1,1,06,1","02,1,+00450,1,08,1","05,1,+01200,1,06,1",,,"06,99,1,06,1,08,1,00450,1,00,1,00,1",,,,"120,M,+0158,1","99999,9,10124,1","3,1,004,1,+999,9","03,1",,,"SYN110AAXX  20181 08544 11460 63406 10138 20078 30124 40145 53004 60032 70381 86800 333 10158 82815 85640 555 69977;",
"08544099999","2010-11-21T06:00:00","4","40.9166666","-8.6333333","22.0","OVAR MACEDA, PO","FM-12","99999","V020","360,1,N,0070,1","00450,1,9,N","010000,1,N,1","+0124,1","+0106,1","10125,1","12,0020,9,1","8,1,06,1",,"07,1,+00450,1,08,1",,,,"07,99,1,07,1,02,1,00450,1,00,1,00,1","0282,9",,,"999,N,+0116,1","99999,9,10104,1","7,1,011,1,+999,9","80,1",,,"SYN116AAXX  21061 08544 11460 73607 10124 20106 30104 40125 57011 60022 7808/ 87200 333 20116 50384 55047 87815 555 60022;",
"08544099999","2010-11-21T09:00:00","4","40.9166666","-8.6333333","22.0","OVAR MACEDA, PO","FM-12","99999","V020","360,1,N,0040,1","00900,1,C,N","010000,1,N,1","+0120,1","+0106,1","10140,1",,"8,1,03,1","2,1,03,1","02,1,+00300,1,08,1",,,,"07,99,1,07,1,08,1,00450,1,00,1,00,1",,,,,"99999,9,10119,1","2,1,015,1,+999,9","25,1",,,"SYN088AAXX  21091 08544 41460 73604 10120 20106 30119 40140 52015 72582 87800 333 82810 87815;",
"08544099999","2010-11-21T12:00:00","4","40.9166666","-8.6333333","22.0","OVAR MACEDA, PO","FM-12","99999","V020","340,1,N,0060,1","22000,1,9,N","010000,1,N,1","+0152,1","+0087,1","10138,1","06,0079,9,1","8,1,06,1","1,1,06,1","04,1,+00450,1,08,1",,,,"04,99,1,04,1,02,1,00450,1,00,1,00,1",,,,,"99999,9,10117,1","8,1,002,1,+999,9","01,1","0090,5","4,99,0110,9,999","SYN116AAXX  21121 08544 11460 43406 10152 20087 30117 40138 58002 60081 70181 84200 333 84815 91009 91111 555 50134 60007;",
"08544099999","2010-11-21T15:00:00","4","40.9166666","-8.6333333","22.0","OVAR MACEDA, PO","FM-12","99999","V020","350,1,N,0030,1","00540,1,9,N","010000,1,N,1","+0136,1","+0088,1","10126,1",,,,"04,1,+00450,1,08,1","01,1,+00540,1,09,1","03,1,+00900,1,06,1",,"06,99,1,06,1,03,1,00450,1,00,1,00,1",,,,,"99999,9,10105,1","7,1,012,1,+999,9",,,,"SYN094AAXX  21151 08544 42460 63503 10136 20088 30105 40126 57012 86300 333 84815 81918 83630 91114;",
"08544099999","2010-11-21T18:00:00","4","40.9166666","-8.6333333","22.0","OVAR MACEDA, PO","FM-12","99999","V020","999,9,V,0010,1","00450,1,9,N","008000,1,N,1","+0106,1","+0091,1","10124,1","12,0099,9,1","8,1,06,1","1,1,06,1","05,1,+00450,1,08,1","02,1,+00540,1,09,1",,,"07,99,1,06,1,09,1,00450,1,03,1,00,1",,,,"120,M,+0156,1","99999,9,10104,1","8,1,001,1,+999,9","80,1",,"4,99,0150,9,999","SYN116AAXX  21181 08544 11458 79901 10106 20091 30104 40124 58001 60102 78081 86930 333 10156 85815 82918 91115 555 60027;",
"08544099999","2010-11-22T06:00:00","4","40.9166666","-8.6333333","22.0","OVAR MACEDA, PO","FM-12","99999","V020","170,1,N,0010,1","22000,1,9,N","007000,1,N,1","+0064,1","+0060,1","10124,1","12,0051,9,1",,,"01,1,+00450,1,08,1","03,1,+02400,1,03,1",,,"04,99,1,02,1,08,1,00450,1,03,1,01,1","0228,9",,,"999,N,+0064,1","99999,9,10103,1","7,1,003,1,+999,9","10,1",,,"SYN122AAXX  22061 08544 11457 41701 10064 20060 30103 40124 57003 60052 710// 82831 333 20064 50154 55038 81815 83358 555 60052;",
"08544099999","2010-11-22T09:00:00","4","40.9166666","-8.6333333","22.0","OVAR MACEDA, PO","FM-12","99999","V020","200,1,N,0020,1","00900,1,9,N","010000,1,N,1","+0084,1","+0080,1","10132,1",,"8,1,03,1","1,1,03,1","02,1,+00450,1,08,1",,,,"05,99,1,05,1,08,1,00450,1,00,1,00,1",,,,,"99999,9,10111,1","2,1,008,1,+999,9","25,1",,,"SYN088AAXX  22091 08544 41460 52002 10084 20080 30111 40132 52008 72581 85800 333 82815 84630;",
"08544099999","2010-11-22T12:00:00","4","40.9166666","-8.6333333","22.0","OVAR MACEDA, PO","FM-12","99999","V020","200,1,N,0030,1","00900,1,9,N","010000,1,N,1","+0136,1","+0096,1","10132,1","06,0005,9,1","8,1,06,1","1,1,06,1","02,1,+00450,1,08,1","05,1,+00900,1,06,1",,,"06,99,1,05,1,08,1,00450,1,00,1,01,1",,,,,"99999,9,10112,1","0,1,001,1,+999,9","03,1",,,"SYN110AAXX  22121 08544 11460 62003 10136 20096 30112 40132 50001 69941 70381 85801 333 82815 85630 555 50084 60007;",
"08544099999","2010-11-22T15:00:00","4","40.9166666","-8.6333333","22.0","OVAR MACEDA, PO","FM-12","99999","V020","250,1,N,0020,1","03600,1,C,N","010000,1,N,1","+0150,1","+0084,1","10119,1",,,,"02,1,+00450,1,08,1",,,,"05,99,1,03,1,02,1,00450,1,03,1,01,1",,,,,"99999,9,10099,1","5,1,013,1,+999,9",,,,"SYN082AAXX  22151 08544 42460 52502 10150 20084 30099 40119 55013 83231 333 82815 83070;",
"08544099999","2010-11-22T18:00:00","4","40.9166666","-8.6333333","22.0","OVAR MACEDA, PO","FM-12","99999","V020","999,9,C,0000,1","06000,1,9,N","010000,1,N,1","+0100,1","+0089,1","10123,1","12,0005,9,1",,,"02,1,+00450,1,08,1","03,1,+06000,1,00,1",,,"05,99,1,02,1,02,1,00450,1,03,1,01,1",,,,"120,M,+0154,1","99999,9,10102,1","0,1,003,1,+999,9",,,,"SYN104AAXX  22181 08544 12460 50000 10100 20089 30102 40123 50003 69942 82231 333 10154 82815 83070 555 60007;",
"08544099999","2010-11-22T21:00:00","4","40.9166666","-8.6333333","22.0","OVAR MACEDA, PO","FM-12","99999","V020","999,9,C,0000,1","22000,1,9,N","010000,1,N,1","+0070,1","+0062,1","10127,1",,,,"01,1,+00360,1,08,1",,,,"04,99,1,01,1,02,1,00450,1,03,1,01,1",,,,,"99999,9,10106,1","1,1,004,1,+999,9",,,,"SYN076AAXX  22211 08544 42460 40000 10070 20062 30106 40127 51004 81231 333 81812;",
"08544099999","2010-11-23T00:00:00","4","40.9166666","-8.6333333","22.0","OVAR MACEDA, PO","FM-12","99999","V020","190,1,N,0010,1","22000,1,9,N","007000,1,N,1","+0056,1","+0052,1","10127,1",,"1,1,06,1","1,1,06,1","01,1,+01800,1,03,1","03,1,+06000,1,00,1",,,"03,99,1,01,1,00,1,01750,1,03,1,01,1",,,,,"99999,9,10106,1","0,1,000,1,+999,9","10,1",,,"SYN098AAXX  23001 08544 31757 31901 10056 20052 30106 40127 50000 71011 81031 333 81356 83070 555 60007;",
"08544099999","2010-11-23T03:00:00","4","40.9166666","-8.6333333","22.0","OVAR MACEDA, PO","FM-12","99999","V020","999,9,V,0010,1","03600,1,C,N","007000,1,N,1","+0060,1","+0052,1","10122,1",,"1,1,03,1","1,1,03,1","02,1,+01050,1,06,1",,,,"05,99,1,02,1,05,1,01250,1,03,1,00,1",,,,,"99999,9,10101,1","7,1,005,1,+999,9","10,1",,,"SYN088AAXX  23031 08544 41657 59901 10060 20052 30101 40122 57005 71011 82530 333 82635 84356;",
"08544099999","2010-11-23T06:00:00","4","40.9166666","-8.6333333","22.0","OVAR MACEDA, PO","FM-12","99999","V020","999,9,C,0000,1","02100,1,9,N","010000,1,N,1","+0080,1","+0068,1","10116,1",,,,"03,1,+01050,1,06,1","05,1,+02100,1,04,1",,,"06,99,1,03,1,05,1,01250,1,07,1,00,1","0378,9",,,"999,N,+0054,1","99999,9,10095,1","7,1,006,1,+999,9",,,,"SYN110AAXX  23061 08544 32660 60000 10080 20068 30095 40116 57006 83570 333 20054 50094 55063 83635 85457 555 60007;",
"08544099999","2010-11-23T09:00:00","4","40.9166666","-8.6333333","22.0","OVAR MACEDA, PO","FM-12","99999","V020","360,1,N,0010,1","00900,1,9,N","010000,1,N,1","+0088,1","+0076,1","10119,1",,,,"05,1,+00900,1,06,1",,,,"06,99,1,04,1,02,1,00800,1,03,1,00,1",,,,,"99999,9,10098,1","3,1,003,1,+999,9",,,,"SYN082AAXX  23091 08544 42560 63601 10088 20076 30098 40119 53003 84230 333 85630 83357;",
"08544099999","2010-11-23T12:00:00","4","40.9166666","-8.6333333","22.0","OVAR MACEDA, PO","FM-12","99999","V020","070,1,N,0020,1","22000,1,9,N","010000,1,N,1","+0150,1","+0088,1","10112,1",,,,"04,1,+02100,1,03,1",,,,"04,99,1,04,1,00,1,02250,1,03,1,00,1",,,,,"99999,9,10092,1","8,1,006,1,+999,9",,,,"SYN092AAXX  23121 08544 32860 40702 10150 20088 30092 40112 58006 84030 333 84357 555 50004 60007;",
"08544099999","2010-11-23T15:00:00","4","40.9166666","-8.6333333","22.0","OVAR MACEDA, PO","FM-12","99999","V020","050,1,N,0020,1","02100,1,9,N","010000,1,N,1","+0150,1","+0084,1","10102,1",,,,"07,1,+02100,1,03,1",,,,"07,99,1,07,1,00,1,02250,1,03,1,00,1",,,,,"99999,9,10081,1","7,1,011,1,+999,9",,,,"SYN076AAXX  23151 08544 42860 70502 10150 20084 30081 40102 57011 87030 333 87357;",
"08544099999","2010-11-23T18:00:00","4","40.9166666","-8.6333333","22.0","OVAR MACEDA, PO","FM-12","99999","V020","030,1,N,0020,1","02400,1,9,N","010000,1,N,1","+0128,1","+0079,1","10105,1",,,,"07,1,+02400,1,03,1",,,,"07,99,1,07,1,00,1,02250,1,07,1,00,1",,,,"120,M,+0162,1","99999,9,10085,1","0,1,004,1,+999,9",,,,"SYN092AAXX  23181 08544 32860 70302 10128 20079 30085 40105 50004 87070 333 10162 87358 555 60007;",
"08544099999","2010-11-23T21:00:00","4","40.9166666","-8.6333333","22.0","OVAR MACEDA, PO","FM-12","99999","V020","999,9,C,0000,1","02400,1,9,N","010000,1,N,1","+0116,1","+0082,1","10109,1",,,,"06,1,+02400,1,03,1",,,,"06,99,1,06,1,00,1,02250,1,03,1,00,1",,,,,"99999,9,10089,1","2,1,004,1,+999,9",,,,"SYN076AAXX  23211 08544 42860 60000 10116 20082 30089 40109 52004 86030 333 86358;",
"08544099999","2010-11-24T00:00:00","4","40.9166666","-8.6333333","22.0","OVAR MACEDA, PO","FM-12","99999","V020","999,9,C,0000,1","22000,1,9,N","010000,1,N,1","+0090,1","+0075,1","10121,1",,,,"02,1,+02400,1,03,1",,,,"02,99,1,02,1,00,1,02250,1,03,1,00,1",,,,,"99999,9,10100,1","2,1,011,1,+999,9",,,,"SYN086AAXX  24001 08544 32860 20000 10090 20075 30100 40121 52011 82030 333 82358 555 60007;",
"08544099999","2010-11-24T03:00:00","4","40.9166666","-8.6333333","22.0","OVAR MACEDA, PO","FM-12","99999","V020","999,9,C,0000,1","22000,1,9,N","010000,1,N,1","+0066,1","+0058,1","10116,1",,,,"00,1,+99999,9,99,9",,,,"00,99,1,00,1,00,1,99999,9,00,1,00,1",,,,,"99999,9,10095,1","6,1,005,1,+999,9",,,,"SYN060AAXX  24031 08544 42960 00000 10066 20058 30095 40116 56005;",
"08544099999","2010-11-24T06:00:00","4","40.9166666","-8.6333333","22.0","OVAR MACEDA, PO","FM-12","99999","V020","999,9,C,0000,1","22000,1,9,N","010000,1,N,1","+0056,1","+0052,1","10122,1",,,,"00,1,+99999,9,99,9",,,,"00,99,1,00,1,00,1,99999,9,00,1,00,1","0138,9",,,"999,N,+0054,1","99999,9,10101,1","2,1,006,1,+999,9",,,,"SYN092AAXX  24061 08544 32960 00000 10056 20052 30101 40122 52006 333 20054 50164 55023 555 60007;",
"08544099999","2010-11-24T09:00:00","4","40.9166666","-8.6333333","22.0","OVAR MACEDA, PO","FM-12","99999","V020","180,1,N,0010,1","22000,1,9,N","010000,1,N,1","+0062,1","+0054,1","10132,1",,,,"03,1,+07500,1,00,1",,,,"03,99,1,00,1,00,1,99999,9,00,1,01,1",,,,,"99999,9,10111,1","2,1,010,1,+999,9",,,,"SYN076AAXX  24091 08544 42960 31801 10062 20054 30111 40132 52010 80001 333 83075;",
"08544099999","2010-11-24T12:00:00","4","40.9166666","-8.6333333","22.0","OVAR MACEDA, PO","FM-12","99999","V020","300,1,N,0020,1","22000,1,9,N","010000,1,N,1","+0136,1","+0100,1","10137,1",,,,"03,1,+07500,1,00,1",,,,"03,99,1,00,1,00,1,99999,9,00,1,01,1",,,,,"99999,9,10117,1","0,1,006,1,+999,9",,,,"SYN092AAXX  24121 08544 32960 33002 10136 20100 30117 40137 50006 80001 333 83075 555 50004 60007;",
"08544099999","2010-11-24T15:00:00","4","40.9166666","-8.6333333","22.0","OVAR MACEDA, PO","FM-12","99999","V020","340,1,N,0030,1","22000,1,9,N","010000,1,N,1","+0146,1","+0092,1","10127,1",,,,"01,1,+00600,1,08,1",,,,"02,99,1,01,1,01,1,99999,9,00,1,01,1",,,,,"99999,9,10107,1","6,1,010,1,+999,9",,,,"SYN076AAXX  24151 08544 42960 23403 10146 20092 30107 40127 56010 81101 333 81820;",
"08544099999","2010-11-24T18:00:00","4","40.9166666","-8.6333333","22.0","OVAR MACEDA, PO","FM-12","99999","V020","020,1,N,0020,1","22000,1,9,N","008000,1,N,1","+0116,1","+0082,1","10133,1",,"0,1,06,1","0,1,06,1","03,1,+06600,1,00,1",,,,"03,99,1,00,1,00,1,99999,9,00,1,01,1",,,,"120,M,+0154,1","99999,9,10113,1","0,1,006,1,+999,9","10,1",,,"SYN098AAXX  24181 08544 31958 30202 10116 20082 30113 40133 50006 71000 80001 333 10154 83072 555 60007;",
"08544099999","2010-11-24T21:00:00","4","40.9166666","-8.6333333","22.0","OVAR MACEDA, PO","FM-12","99999","V020","060,1,N,0020,1","22000,1,9,N","010000,1,N,1","+0092,1","+0051,1","10140,1",,,,"02,1,+06600,1,00,1",,,,"02,99,1,00,1,00,1,99999,9,00,1,01,1",,,,,"99999,9,10119,1","0,1,006,1,+999,9",,,,"SYN076AAXX  24211 08544 42960 20602 10092 20051 30119 40140 50006 80001 333 82072;",
"08544099999","2010-11-25T00:00:00","4","40.9166666","-8.6333333","22.0","OVAR MACEDA, PO","FM-12","99999","V020","999,9,C,0000,1","22000,1,9,N","010000,1,N,1","+0056,1","+0039,1","10145,1",,,,"00,1,+99999,9,99,9",,,,"00,99,1,00,1,00,1,99999,9,00,1,00,1",,,,,"99999,9,10124,1","2,1,005,1,+999,9",,,,"SYN070AAXX  25001 08544 32960 00000 10056 20039 30124 40145 52005 555 60007;",
"08544099999","2010-11-25T03:00:00","4","40.9166666","-8.6333333","22.0","OVAR MACEDA, PO","FM-12","99999","V020","999,9,C,0000,1","22000,1,9,N","008000,1,N,1","+0034,1","+0025,1","10138,1",,"0,1,03,1","0,1,03,1","00,1,+99999,9,99,9",,,,"00,99,1,00,1,00,1,99999,9,00,1,00,1",,,,,"99999,9,10117,1","7,1,007,1,+999,9","10,1",,,"SYN066AAXX  25031 08544 41958 00000 10034 20025 30117 40138 57007 71000;",
"08544099999","2010-11-25T06:00:00","4","40.9166666","-8.6333333","22.0","OVAR MACEDA, PO","FM-12","99999","V020","999,9,C,0000,1","22000,1,9,N","010000,1,N,1","+0022,1","+0017,1","10143,1",,,,"00,1,+99999,9,99,9",,,,"00,99,1,00,1,00,1,99999,9,00,1,00,1","0498,9",,,"999,N,+0022,1","99999,9,10122,1","1,1,004,1,+999,9",,,,"SYN092AAXX  25061 08544 32960 00000 10022 20017 30122 40143 51004 333 20022 50124 55083 555 60007;",
"08544099999","2010-11-25T09:00:00","4","40.9166666","-8.6333333","22.0","OVAR MACEDA, PO","FM-12","99999","V020","010,1,N,0020,1","06600,1,9,N","010000,1,N,1","+0046,1","+0037,1","10151,1",,,,"06,1,+06600,1,00,1",,,,"06,99,1,00,1,00,1,99999,9,00,1,04,1",,,,,"99999,9,10130,1","2,1,008,1,+999,9",,,,"SYN076AAXX  25091 08544 42960 60102 10046 20037 30130 40151 52008 80004 333 86072;",
"08544099999","2010-11-25T12:00:00","4","40.9166666","-8.6333333","22.0","OVAR MACEDA, PO","FM-12","99999","V020","050,1,N,0030,1","06600,1,9,N","008000,1,N,1","+0104,1","+0052,1","10150,1",,"2,1,06,1","2,1,06,1","04,1,+02100,1,04,1","07,1,+06600,1,02,1",,,"07,99,1,04,1,00,1,02250,1,01,1,08,1",,,,,"99999,9,10129,1","8,1,001,1,+999,9","10,1",,,"SYN104AAXX  25121 08544 31858 70503 10104 20052 30129 40150 58001 71022 84018 333 84457 87272 555 50004 60007;",
"08544099999","2010-11-25T15:00:00","4","40.9166666","-8.6333333","22.0","OVAR MACEDA, PO","FM-12","99999","V020","040,1,N,0030,1","09000,1,C,N","008000,1,N,1","+0122,1","+0059,1","10142,1",,"2,1,03,1","2,1,03,1","02,1,+02100,1,03,1",,,,"07,99,1,02,1,00,1,02250,1,03,1,08,1",,,,,"99999,9,10122,1","6,1,007,1,+999,9","10,1",,,"SYN088AAXX  25151 08544 41858 70403 10122 20059 30122 40142 56007 71022 82038 333 82357 87272;",
"08544099999","2010-11-25T21:00:00","4","40.9166666","-8.6333333","22.0","OVAR MACEDA, PO","FM-12","99999","V020","999,9,V,0020,1","22000,1,9,N","008000,1,N,1","+0042,1","+0033,1","10140,1",,"0,1,03,1","0,1,03,1","00,1,+99999,9,99,9",,,,"00,99,1,00,1,00,1,99999,9,00,1,00,1",,,,,"99999,9,10120,1","2,1,006,1,+999,9","10,1",,,"SYN066AAXX  25211 08544 41958 09902 10042 20033 30120 40140 52006 71000;",
"08544099999","2010-11-26T00:00:00","4","40.9166666","-8.6333333","22.0","OVAR MACEDA, PO","FM-12","99999","V020","010,1,N,0050,1","22000,1,9,N","010000,1,N,1","+0028,1","+0009,1","10141,1",,,,"01,1,+06000,1,00,1",,,,"01,99,1,00,1,00,1,99999,9,00,1,01,1",,,,,"99999,9,10120,1","0,1,000,1,+999,9",,,,"SYN086AAXX  26001 08544 32960 10105 10028 20009 30120 40141 50000 80001 333 81070 555 60007;",
"08544099999","2010-11-26T03:00:00","4","40.9166666","-8.6333333","22.0","OVAR MACEDA, PO","FM-12","99999","V020","050,1,N,0040,1","22000,1,9,N","010000,1,N,1","+0056,1","+0034,1","10128,1",,,,"00,1,+99999,9,99,9",,,,"00,99,1,00,1,00,1,99999,9,00,1,00,1",,,,,"99999,9,10107,1","7,1,013,1,+999,9",,,,"SYN060AAXX  26031 08544 42960 00504 10056 20034 30107 40128 57013;",
"08544099999","2010-11-26T06:00:00","4","40.9166666","-8.6333333","22.0","OVAR MACEDA, PO","FM-12","99999","V020","060,1,N,0030,1","22000,1,9,N","010000,1,N,1","+0060,1","+0004,1","10116,1",,,,"00,1,+99999,9,99,9",,,,"00,99,1,00,1,00,1,99999,9,00,1,00,1","0150,9",,,"999,N,+0026,1","99999,9,10095,1","7,1,012,1,+999,9",,,,"SYN092AAXX  26061 08544 32960 00603 10060 20004 30095 40116 57012 333 20026 50184 55025 555 60007;",
"08544099999","2010-11-26T09:00:00","4","40.9166666","-8.6333333","22.0","OVAR MACEDA, PO","FM-12","99999","V020","070,1,N,0030,1","22000,1,9,N","010000,1,N,1","+0072,1","-0003,1","10115,1",,,,"01,1,+02400,1,03,1",,,,"02,99,1,99,9,00,1,99999,9,03,1,01,1",,,,,"99999,9,10094,1","5,1,001,1,+999,9",,,,"SYN076AAXX  26091 08544 42960 20703 10072 21003 30094 40115 55001 80031 333 81358;","Q01+000002SCOTLC"
"08544099999","2010-11-26T12:00:00","4","40.9166666","-8.6333333","22.0","OVAR MACEDA, PO","FM-12","99999","V020","050,1,N,0030,1","22000,1,9,N","010000,1,N,1","+0110,1","+0015,1","10102,1",,,,"03,1,+02400,1,03,1",,,,"04,99,1,03,1,00,1,02250,1,03,1,01,1",,,,,"99999,9,10081,1","7,1,013,1,+999,9",,,,"SYN092AAXX  26121 08544 32860 40503 10110 20015 30081 40102 57013 83031 333 83358 555 50004 60007;",
"08544099999","2010-11-26T15:00:00","4","40.9166666","-8.6333333","22.0","OVAR MACEDA, PO","FM-12","99999","V020","060,1,N,0020,1","02700,1,9,N","010000,1,N,1","+0112,1","+0023,1","10081,1",,,,"05,1,+02700,1,03,1",,,,"07,99,1,05,1,00,1,99999,9,03,1,04,1",,,,,"99999,9,10061,1","7,1,020,1,+999,9",,,,"SYN082AAXX  26151 08544 42960 70602 10112 20023 30061 40081 57020 85034 333 85359 84070;",
"08544099999","2010-11-26T18:00:00","4","40.9166666","-8.6333333","22.0","OVAR MACEDA, PO","FM-12","99999","V020","090,1,N,0010,1","06000,1,9,N","010000,1,N,1","+0084,1","+0033,1","10073,1",,,,"02,1,+02400,1,03,1","05,1,+06000,1,02,1",,,"05,99,1,02,1,00,1,02250,1,03,1,05,1",,,,"120,M,+0118,1","99999,9,10053,1","7,1,008,1,+999,9",,,,"SYN098AAXX  26181 08544 32860 50901 10084 20033 30053 40073 57008 82035 333 10118 82358 85270 555 60007;",
"08544099999","2010-11-26T21:00:00","4","40.9166666","-8.6333333","22.0","OVAR MACEDA, PO","FM-12","99999","V020","999,9,C,0000,1","22000,1,9,N","010000,1,N,1","+0062,1","+0022,1","10072,1",,,,"01,1,+02100,1,03,1",,,,"02,99,1,01,1,00,1,02250,1,03,1,01,1",,,,,"99999,9,10051,1","8,1,002,1,+999,9",,,,"SYN076AAXX  26211 08544 42860 20000 10062 20022 30051 40072 58002 81031 333 81357;",
"08544099999","2010-11-27T00:00:00","4","40.9166666","-8.6333333","22.0","OVAR MACEDA, PO","FM-12","99999","V020","060,1,N,0020,1","22000,1,9,N","010000,1,N,1","+0056,1","+0010,1","10069,1",,,,"03,1,+06000,1,00,1",,,,"03,99,1,00,1,00,1,99999,9,00,1,04,1",,,,,"99999,9,10048,1","8,1,003,1,+999,9",,,,"SYN086AAXX  27001 08544 32960 30602 10056 20010 30048 40069 58003 80004 333 83070 555 60007;",
"08544099999","2010-11-27T03:00:00","4","40.9166666","-8.6333333","22.0","OVAR MACEDA, PO","FM-12","99999","V020","999,9,C,0000,1","22000,1,9,N","010000,1,N,1","+0048,1","+0006,1","10059,1",,,,"04,1,+06000,1,00,1",,,,"04,99,1,00,1,00,1,99999,9,00,1,01,1",,,,,"99999,9,10038,1","6,1,010,1,+999,9",,,,"SYN076AAXX  27031 08544 42960 40000 10048 20006 30038 40059 56010 80001 333 84070;",
"08544099999","2010-11-27T06:00:00","4","40.9166666","-8.6333333","22.0","OVAR MACEDA, PO","FM-12","99999","V020","040,1,N,0030,1","06000,1,9,N","010000,1,N,1","+0052,1","+0000,1","10049,1",,,,"05,1,+06000,1,00,1",,,,"05,99,1,00,1,00,1,99999,9,00,1,06,1","0222,9",,,"999,N,+0038,1","99999,9,10028,1","7,1,010,1,+999,9",,,,"SYN104AAXX  27061 08544 32960 50403 10052 20000 30028 40049 57010 80006 333 20038 50304 55037 85070 555 60007;",
"08544099999","2010-11-27T09:00:00","4","40.9166666","-8.6333333","22.0","OVAR MACEDA, PO","FM-12","99999","V020","040,1,N,0030,1","06000,1,9,N","010000,1,N,1","+0056,1","+0005,1","10049,1",,,,"05,1,+06000,1,00,1",,,,"05,99,1,00,1,00,1,99999,9,00,1,06,1",,"01,9","999,+0380,9",,"99999,9,10028,1","0,1,000,1,+999,9",,,,"SYN100AAXX  27091 08544 42960 50403 10056 20005 30028 40049 50000 80006 333 85070 30038 40/// 50004 60007;",
"08544099999","2010-11-27T12:00:00","4","40.9166666","-8.6333333","22.0","OVAR MACEDA, PO","FM-12","99999","V020","070,1,N,0020,1","22000,1,9,N","010000,1,N,1","+0106,1","+0064,1","10042,1","06,0000,9,1",,,"04,1,+06000,1,00,1",,,,"04,99,1,00,1,00,1,99999,9,00,1,01,1",,,,,"99999,9,10021,1","7,1,007,1,+999,9",,,,"SYN098AAXX  27121 08544 32960 40702 10106 20064 30021 40042 57007 60001 80001 333 84070 555 50004 60007;","Q01  00002PRCP06"
"08544099999","2010-11-27T15:00:00","4","40.9166666","-8.6333333","22.0","OVAR MACEDA, PO","FM-12","99999","V020","360,1,N,0050,1","22000,1,9,N","010000,1,N,1","+0120,1","+0028,1","10029,1",,,,"02,1,+06000,1,00,1",,,,"02,99,1,00,1,00,1,99999,9,00,1,01,1",,,,,"99999,9,10008,1","7,1,013,1,+999,9",,,,"SYN076AAXX  27151 08544 42960 23605 10120 20028 30008 40029 57013 80001 333 82070;",
"08544099999","2010-11-27T18:00:00","4","40.9166666","-8.6333333","22.0","OVAR MACEDA, PO","FM-12","99999","V020","020,1,N,0030,1","22000,1,9,N","010000,1,N,1","+0100,1","+0052,1","10027,1",,,,"01,1,+00600,1,08,1","01,1,+06000,1,00,1",,,"02,99,1,01,1,02,1,00800,1,00,1,01,1",,,,"120,M,+0122,1","99999,9,10006,1","6,1,002,1,+999,9",,,,"SYN098AAXX  27181 08544 32560 20203 10100 20052 30006 40027 56002 81201 333 10122 81820 81070 555 60007;",
"08544099999","2010-11-27T21:00:00","4","40.9166666","-8.6333333","22.0","OVAR MACEDA, PO","FM-12","99999","V020","999,9,V,0010,1","22000,1,9,N","010000,1,N,1","+0066,1","+0041,1","10036,1",,,,"00,1,+99999,9,99,9",,,,"00,99,1,00,1,00,1,99999,9,00,1,00,1",,,,,"99999,9,10015,1","2,1,009,1,+999,9",,,,"SYN060AAXX  27211 08544 42960 09901 10066 20041 30015 40036 52009;",
"08544099999","2010-11-28T00:00:00","4","40.9166666","-8.6333333","22.0","OVAR MACEDA, PO","FM-12","99999","V020","999,9,V,0010,1","22000,1,9,N","010000,1,N,1","+0020,1","+0006,1","10056,1",,,,"01,1,+06000,1,00,1",,,,"01,99,1,00,1,00,1,99999,9,00,1,01,1",,,,,"99999,9,10035,1","2,1,020,1,+999,9",,,,"SYN086AAXX  28001 08544 32960 19901 10020 20006 30035 40056 52020 80001 333 81070 555 60007;",
"08544099999","2010-11-28T03:00:00","4","40.9166666","-8.6333333","22.0","OVAR MACEDA, PO","FM-12","99999","V020","999,9,C,0000,1","22000,1,9,N","008000,1,N,1","+0010,1","+0000,1","10051,1",,"0,1,03,1","0,1,03,1","02,1,+02100,1,03,1",,,,"03,99,1,02,1,00,1,02250,1,03,1,01,1",,,,,"99999,9,10030,1","0,1,004,1,+999,9","10,1",,,"SYN082AAXX  28031 08544 41858 30000 10010 20000 30030 40051 50004 71000 82031 333 82357;",
"08544099999","2010-11-28T06:00:00","4","40.9166666","-8.6333333","22.0","OVAR MACEDA, PO","FM-12","99999","V020","999,9,C,0000,1","22000,1,9,N","008000,1,N,1","+0004,1","-0001,1","10060,1",,"0,1,06,1","0,1,06,1","01,1,+00750,1,08,1",,,,"02,99,1,01,1,01,1,00800,1,03,1,00,1","0432,9",,,"999,N,+0002,1","99999,9,10038,1","1,1,008,1,+999,9","10,1",,,"SYN110AAXX  28061 08544 31558 20000 10004 21001 30038 40060 51008 71000 81130 333 20002 50254 55072 81825 555 60007;",
"08544099999","2010-11-28T09:00:00","4","40.9166666","-8.6333333","22.0","OVAR MACEDA, PO","FM-12","99999","V020","999,9,C,0000,1","22000,1,9,N","006000,1,N,1","+0014,1","+0004,1","10082,1",,"0,1,03,1","0,1,03,1","01,1,+00600,1,08,1",,,,"02,99,1,01,1,08,1,00800,1,00,1,00,1",,,,,"99999,9,10061,1","2,1,023,1,+999,9","10,1",,,"SYN082AAXX  28091 08544 41556 20000 10014 20004 30061 40082 52023 71000 81800 333 81820;",
"08544099999","2010-11-28T12:00:00","4","40.9166666","-8.6333333","22.0","OVAR MACEDA, PO","FM-12","99999","V020","020,1,N,0030,1","22000,1,9,N","010000,1,N,1","+0110,1","+0009,1","10083,1",,,,"01,1,+00600,1,08,1",,,,"02,99,1,02,1,08,1,00800,1,00,1,00,1",,,,,"99999,9,10063,1","0,1,002,1,+999,9",,,,"SYN092AAXX  28121 08544 32560 20203 10110 20009 30063 40083 50002 82800 333 81820 555 50004 60007;",
"08544099999","2010-11-28T15:00:00","4","40.9166666","-8.6333333","22.0","OVAR MACEDA, PO","FM-12","99999","V020","340,1,N,0020,1","22000,1,9,N","010000,1,N,1","+0112,1","+0023,1","10080,1",,,,"01,1,+00600,1,08,1",,,,"02,99,1,02,1,08,1,00800,1,00,1,00,1",,,,,"99999,9,10060,1","5,1,003,1,+999,9",,,,"SYN076AAXX  28151 08544 42560 23402 10112 20023 30060 40080 55003 82800 333 81820;",
"08544099999","2010-11-28T18:00:00","4","40.9166666","-8.6333333","22.0","OVAR MACEDA, PO","FM-12","99999","V020","999,9,C,0000,1","22000,1,9,N","010000,1,N,1","+0048,1","+0044,1","10076,1",,,,"01,1,+00450,1,08,1",,,,"02,99,1,02,1,08,1,00450,1,00,1,00,1",,,,"120,M,+0114,1","99999,9,10055,1","7,1,005,1,+999,9",,,,"SYN092AAXX  28181 08544 32460 20000 10048 20044 30055 40076 57005 82800 333 10114 81815 555 60007;",
"08544099999","2010-11-28T21:00:00","4","40.9166666","-8.6333333","22.0","OVAR MACEDA, PO","FM-12","99999","V020","999,9,C,0000,1","22000,1,9,N","010000,1,N,1","+0012,1","+0007,1","10082,1",,,,"01,1,+00450,1,08,1",,,,"02,99,1,02,1,08,1,00450,1,00,1,00,1",,,,,"99999,9,10060,1","0,1,005,1,+999,9",,,,"SYN092AAXX  28211 08544 42460 20000 10012 20007 30060 40082 50005 82800 333 81815 555 50002 60007;",
"08544099999","2010-11-29T00:00:00","4","40.9166666","-8.6333333","22.0","OVAR MACEDA, PO","FM-12","99999","V020","999,9,C,0000,1","22000,1,9,N","010000,1,N,1","+0030,1","+0011,1","10068,1",,,,"01,1,+02100,1,03,1",,,,"01,99,1,01,1,00,1,02250,1,03,1,00,1",,,,,"99999,9,10046,1","7,1,014,1,+999,9",,,,"SYN076AAXX  29001 08544 32860 10000 10030 20011 30046 40068 57014 81030 333 81357;",
"08544099999","2010-11-29T03:00:00","4","40.9166666","-8.6333333","22.0","OVAR MACEDA, PO","FM-12","99999","V020","030,1,N,0010,1","22000,1,9,N","010000,1,N,1","+0016,1","+0006,1","10038,1",,,,"04,1,+02100,1,03,1",,,,"04,99,1,04,1,00,1,02250,1,03,1,00,1",,,,,"99999,9,10017,1","7,1,029,1,+999,9",,,,"SYN076AAXX  29031 08544 42860 40301 10016 20006 30017 40038 57029 84030 333 84357;",
"08544099999","2010-11-29T06:00:00","4","40.9166666","-8.6333333","22.0","OVAR MACEDA, PO","FM-12","99999","V020","999,9,V,0010,1","02100,1,9,N","010000,1,N,1","+0020,1","+0006,1","10012,1",,,,"06,1,+02100,1,03,1",,,,"06,99,1,06,1,00,1,02250,1,03,1,00,1","0486,9",,,"999,N,+0010,1","99999,9,09991,1","7,1,026,1,+999,9",,,,"SYN104AAXX  29061 08544 32860 69901 10020 20006 39991 40012 57026 86030 333 20010 50144 55081 86357 555 60007;",
"08544099999","2010-11-29T09:00:00","4","40.9166666","-8.6333333","22.0","OVAR MACEDA, PO","FM-12","99999","V020","030,1,N,0020,1","02400,1,9,N","010000,1,N,1","+0060,1","+0015,1","09996,1",,,,"08,1,+02400,1,04,1",,,,"08,99,1,08,1,00,1,02250,1,07,1,99,9",,,,,"99999,9,09976,1","7,1,015,1,+999,9",,,,"SYN076AAXX  29091 08544 42860 80302 10060 20015 39976 49996 57015 8807/ 333 88458;",
"08544099999","2010-11-29T12:00:00","4","40.9166666","-8.6333333","22.0","OVAR MACEDA, PO","FM-12","99999","V020","140,1,N,0030,1","02400,1,9,N","006000,1,N,1","+0074,1","+0040,1","09989,1","06,0005,9,1","6,1,06,1","2,1,06,1","01,1,+00450,1,08,1","03,1,+00900,1,06,1","06,1,+02400,1,04,1",,"08,99,1,04,1,08,1,00450,1,07,1,99,9",,,,,"99999,9,09968,1","7,1,008,1,+999,9","61,1",,,"SYN116AAXX  29121 08544 11456 81403 10074 20040 39968 49989 57008 69941 76162 8487/ 333 81815 83630 86458 555 59944 69947;",
"08544099999","2010-11-29T15:00:00","4","40.9166666","-8.6333333","22.0","OVAR MACEDA, PO","FM-12","99999","V020","999,9,V,0010,1","00900,1,9,N","010000,1,N,1","+0068,1","+0047,1","09953,1",,"6,1,03,1","2,1,03,1","01,1,+00450,1,08,1","04,1,+00900,1,06,1",,,"08,99,1,05,1,08,1,00450,1,07,1,99,9",,,,,"99999,9,09932,1","7,1,036,1,+999,9","21,1",,,"SYN094AAXX  29151 08544 41460 89901 10068 20047 39932 49953 57036 72162 8587/ 333 81815 84630 85458;",
"08544099999","2010-11-29T18:00:00","4","40.9166666","-8.6333333","22.0","OVAR MACEDA, PO","FM-12","99999","V020","170,1,N,0060,1","00900,1,9,N","008000,1,N,1","+0092,1","+0052,1","09942,1","12,0051,9,1","8,1,06,1","6,1,06,1","01,1,+00450,1,08,1","06,1,+00900,1,06,1",,,"08,99,1,05,1,08,1,00450,1,07,1,99,9",,,,"120,M,+0092,1","99999,9,09922,1","7,1,010,1,+999,9","80,1",,,"SYN110AAXX  29181 08544 11458 81706 10092 20052 39922 49942 57010 60052 78086 8587/ 333 10092 81815 86630 555 60017;",
"08544099999","2010-11-29T21:00:00","4","40.9166666","-8.6333333","22.0","OVAR MACEDA, PO","FM-12","99999","V020","180,1,N,0050,1","00900,1,9,N","010000,1,N,1","+0078,1","+0058,1","09958,1",,"8,1,03,1","2,1,03,1","01,1,+00450,1,08,1",,,,"06,99,1,05,1,08,1,00450,1,03,1,00,1",,,,,"99999,9,09937,1","2,1,015,1,+999,9","25,1",,,"SYN088AAXX  29211 08544 41460 61805 10078 20058 39937 49958 52015 72582 85830 333 81815 85630;",
"08544099999","2010-11-30T00:00:00","4","40.9166666","-8.6333333","22.0","OVAR MACEDA, PO","FM-12","99999","V020","170,1,N,0040,1","22000,1,9,N","010000,1,N,1","+0070,1","+0054,1","09960,1","06,0005,9,1","8,1,06,1","2,1,06,1","03,1,+00900,1,08,1",,,,"03,99,1,03,1,02,1,00800,1,03,1,00,1",,,,,"99999,9,09939,1","0,1,002,1,+999,9","01,1",,,"SYN098AAXX  30001 08544 11560 31704 10070 20054 39939 49960 50002 69951 70182 83230 333 83830 555 60007;",
"08544099999","2010-11-30T03:00:00","4","40.9166666","-8.6333333","22.0","OVAR MACEDA, PO","FM-12","99999","V020","180,1,N,0040,1","03600,1,C,N","008000,1,N,1","+0070,1","+0062,1","09951,1",,"6,1,03,1","1,1,03,1","01,1,+00450,1,08,1","04,1,+00900,1,06,1",,,"08,99,1,04,1,08,1,00450,1,01,1,99,9",,,,,"99999,9,09931,1","5,1,008,1,+999,9","61,1",,,"SYN094AAXX  30031 08544 41458 81804 10070 20062 39931 49951 55008 76161 8481/ 333 81815 84630 88459;",
"08544099999","2010-11-30T06:00:00","4","40.9166666","-8.6333333","22.0","OVAR MACEDA, PO","FM-12","99999","V020","170,1,N,0070,1","03600,1,9,N","010000,1,N,1","+0074,1","+0058,1","09932,1","12,0071,9,1","6,1,06,1","1,1,06,1","01,1,+00450,1,08,1","04,1,+00900,1,06,1",,,"06,99,1,04,1,08,1,00450,1,07,1,00,1","0000,9",,,"999,N,+0068,1","99999,9,09911,1","7,1,022,1,+999,9","01,1",,,"SYN122AAXX  30061 08544 11460 61707 10074 20058 39911 49932 57022 60072 70161 84870 333 20068 50114 55000 81815 84630 555 60037;",
"08544099999","2010-11-30T09:00:00","4","40.9166666","-8.6333333","22.0","OVAR MACEDA, PO","FM-12","99999","V020","180,1,N,0050,1","00900,1,C,N","010000,1,N,1","+0072,1","+0060,1","09942,1",,"8,1,03,1","2,1,03,1","02,1,+00450,1,08,1",,,,"06,99,1,06,1,08,1,00450,1,00,1,00,1",,,,,"99999,9,09921,1","3,1,010,1,+999,9","25,1",,,"SYN088AAXX  30091 08544 41460 61805 10072 20060 39921 49942 53010 72582 86800 333 82815 86625;",
"08544099999","2010-11-30T12:00:00","4","40.9166666","-8.6333333","22.0","OVAR MACEDA, PO","FM-12","99999","V020","160,1,N,0030,1","00750,1,9,N","010000,1,N,1","+0088,1","+0068,1","09945,1","06,0071,9,1","8,1,06,1","2,1,06,1","01,1,+00450,1,08,1","01,1,+00600,1,09,1","05,1,+00750,1,06,1",,"06,99,1,06,1,09,1,00450,1,00,1,00,1",,,,,"99999,9,09924,1","0,1,003,1,+999,9","25,1",,,"SYN116AAXX  30121 08544 11460 61603 10088 20068 39924 49945 50003 60071 72582 86900 333 81815 81920 85625 555 50194 60047;",
"08544099999","2010-11-30T15:00:00","4","40.9166666","-8.6333333","22.0","OVAR MACEDA, PO","FM-12","99999","V020","170,1,N,0030,1","00420,1,C,N","008000,1,N,1","+0090,1","+0078,1","09943,1",,"9,1,03,1","8,1,03,1","02,1,+00450,1,08,1","02,1,+00600,1,09,1",,,"07,99,1,07,1,09,1,00450,1,99,9,99,9",,,,,"99999,9,09923,1","8,1,001,1,+999,9","95,1",,,"SYN094AAXX  30151 08544 41458 71703 10090 20078 39923 49943 58001 79598 879// 333 82815 82920 86625;",
"08544099999","2010-11-30T18:00:00","4","40.9166666","-8.6333333","22.0","OVAR MACEDA, PO","FM-12","99999","V020","240,1,N,0020,1","00420,1,C,N","008000,1,N,1","+0076,1","+0060,1","09952,1","12,0109,9,1","9,1,06,1","8,1,06,1","01,1,+00450,1,08,1","02,1,+00600,1,09,1",,,"06,99,1,06,1,09,1,00450,1,00,1,00,1",,,,"120,M,+0102,1","99999,9,09932,1","2,1,009,1,+999,9","80,1",,,"SYN106AAXX  30181 08544 11458 62402 10076 20060 39932 49952 52009 60112 78098 86900 333 10102 81815 82920 85625;",
"08544099999","2010-11-30T21:00:00","4","40.9166666","-8.6333333","22.0","OVAR MACEDA, PO","FM-12","99999","V020","180,1,N,0030,1","00420,1,C,N","010000,1,N,1","+0064,1","+0060,1","09975,1",,"9,1,03,1","8,1,03,1","01,1,+00450,1,08,1","01,1,+00600,1,09,1",,,"06,99,1,06,1,09,1,00450,1,00,1,00,1",,,,,"99999,9,09954,1","2,1,022,1,+999,9","01,1",,,"SYN094AAXX  30211 08544 41460 61803 10064 20060 39954 49975 52022 70198 86900 333 81815 81920 84625;",
"08544099999","2010-12-01T00:00:00","4","40.9166666","-8.6333333","22.0","OVAR MACEDA, PO","FM-12","99999","V020","170,1,N,0030,1","00750,1,9,N","008000,1,N,1","+0068,1","+0064,1","09993,1","06,0020,9,1","9,1,06,1","8,1,06,1","02,1,+00450,1,08,1","02,1,+00600,1,09,1","05,1,+00750,1,06,1",,"06,99,1,06,1,09,1,00450,1,00,1,00,1",,,,,"99999,9,09972,1","2,1,018,1,+999,9","80,1",,,"SYN110AAXX  01001 08544 11458 61703 10068 20064 39972 49993 52018 60021 78098 86900 333 82815 82920 85625 555 60027;",
"08544099999","2010-12-01T03:00:00","4","40.9166666","-8.6333333","22.0","OVAR MACEDA, PO","FM-12","99999","V020","190,1,N,0030,1","00450,1,9,N","007000,1,N,1","+0066,1","+0062,1","10001,1",,"8,1,03,1","6,1,03,1","03,1,+00240,1,07,1","04,1,+00450,1,08,1",,,"08,99,1,08,1,08,1,00250,1,99,9,99,9",,,,,"99999,9,09980,1","1,1,008,1,+999,9","61,1",,,"SYN094AAXX  01031 08544 41357 81903 10066 20062 39980 40001 51008 76186 888// 333 83708 84815 87825;",
"08544099999","2010-12-01T06:00:00","4","40.9166666","-8.6333333","22.0","OVAR MACEDA, PO","FM-12","99999","V020","180,1,N,0030,1","22000,1,9,N","010000,1,N,1","+0054,1","+0050,1","10008,1","12,0061,9,1","8,1,06,1","6,1,06,1","02,1,+00450,1,08,1","03,1,+01050,1,06,1",,,"04,99,1,04,1,08,1,00450,1,00,1,00,1","0066,9",,,"999,N,+0054,1","99999,9,09987,1","2,1,007,1,+999,9","01,1",,,"SYN122AAXX  01061 08544 11460 41803 10054 20050 39987 40008 52007 60062 70186 84800 333 20054 50074 55011 82815 83635 555 69937;",
"08544099999","2010-12-01T09:00:00","4","40.9166666","-8.6333333","22.0","OVAR MACEDA, PO","FM-12","99999","V020","999,9,V,0020,1","00420,1,C,N","010000,1,N,1","+0066,1","+0062,1","10042,1",,"8,1,03,1","2,1,03,1","01,1,+00450,1,09,1",,,,"07,99,1,07,1,03,1,00450,1,99,9,99,9",,,,,"99999,9,10021,1","2,1,034,1,+999,9","25,1",,,"SYN088AAXX  01091 08544 41460 79902 10066 20062 30021 40042 52034 72582 873// 333 81915 85818;",
"08544099999","2010-12-01T12:00:00","4","40.9166666","-8.6333333","22.0","OVAR MACEDA, PO","FM-12","99999","V020","999,9,V,0010,1","22000,1,9,N","010000,1,N,1","+0112,1","+0078,1","10062,1","06,0030,9,1","8,1,06,1","1,1,06,1","03,1,+00540,1,08,1",,,,"04,99,1,03,1,08,1,00450,1,00,1,01,1",,,,,"99999,9,10041,1","2,1,020,1,+999,9","01,1",,,"SYN104AAXX  01121 08544 11460 49901 10112 20078 30041 40062 52020 60031 70181 83801 333 83818 555 50134 69987;",
"08544099999","2010-12-01T15:00:00","4","40.9166666","-8.6333333","22.0","OVAR MACEDA, PO","FM-12","99999","V020","360,1,N,0040,1","22000,1,9,N","010000,1,N,1","+0110,1","+0063,1","10070,1",,,,"02,1,+00600,1,08,1",,,,"04,99,1,02,1,02,1,00450,1,00,1,01,1",,,,,"99999,9,10050,1","2,1,009,1,+999,9",,,,"SYN082AAXX  01151 08544 42460 43604 10110 20063 30050 40070 52009 82201 333 82820 83070;",
"08544099999","2010-12-01T18:00:00","4","40.9166666","-8.6333333","22.0","OVAR MACEDA, PO","FM-12","99999","V020","999,9,C,0000,1","06000,1,9,N","010000,1,N,1","+0074,1","+0058,1","10091,1",,,,"01,1,+00600,1,08,1","07,1,+06000,1,02,1",,,"07,99,1,01,1,01,1,00800,1,00,1,06,1",,,,"120,M,+0112,1","99999,9,10071,1","2,1,021,1,+999,9",,,,"SYN098AAXX  01181 08544 32560 70000 10074 20058 30071 40091 52021 81106 333 10112 81820 87270 555 60007;",
"08544099999","2010-12-01T21:00:00","4","40.9166666","-8.6333333","22.0","OVAR MACEDA, PO","FM-12","99999","V020","190,1,N,0020,1","06000,1,9,N","010000,1,N,1","+0052,1","+0043,1","10108,1",,"8,1,03,1","2,1,03,1","04,1,+00900,1,06,1","06,1,+06000,1,02,1",,,"07,99,1,04,1,02,1,00800,1,00,1,06,1",,,,,"99999,9,10087,1","2,1,016,1,+999,9","25,1",,,"SYN104AAXX  01211 08544 41560 71902 10052 20043 30087 40108 52016 72582 84206 333 84630 86270 555 59992 69917;",
"08544099999","2010-12-02T00:00:00","4","40.9166666","-8.6333333","22.0","OVAR MACEDA, PO","FM-12","99999","V020","230,1,N,0030,1","00750,1,9,N","005000,1,N,1","+0056,1","+0052,1","10117,1","06,0005,9,1","8,1,06,1","2,1,06,1","01,1,+00450,1,08,1","06,1,+00750,1,06,1",,,"07,99,1,07,1,08,1,00450,1,99,9,99,9",,,,,"99999,9,10096,1","2,1,009,1,+999,9","80,1",,,"SYN110AAXX  02001 08544 11450 72303 10056 20052 30096 40117 52009 69961 78082 878// 333 81815 86625 96010 555 69957;",
"08544099999","2010-12-02T03:00:00","4","40.9166666","-8.6333333","22.0","OVAR MACEDA, PO","FM-12","99999","V020","999,9,V,0010,1","22000,1,9,N","010000,1,N,1","+0050,1","+0046,1","10118,1",,"9,1,03,1","8,1,03,1","01,1,+00450,1,08,1","01,1,+00600,1,09,1",,,"05,99,1,04,1,03,1,00450,1,00,1,01,1",,,,,"99999,9,10097,1","3,1,001,1,+999,9","29,1",,,"SYN094AAXX  02031 08544 41460 59901 10050 20046 30097 40118 53001 72998 84301 333 81815 81920 83625;",
"08544099999","2010-12-02T06:00:00","4","40.9166666","-8.6333333","22.0","OVAR MACEDA, PO","FM-12","99999","V020","070,1,N,0020,1","22000,1,9,N","010000,1,N,1","+0042,1","+0029,1","10128,1","12,0030,9,1","9,1,06,1","8,1,06,1","01,1,+00450,1,08,1","01,1,+00600,1,09,1","03,1,+00900,1,06,1",,"04,99,1,03,1,09,1,00450,1,00,1,04,1","0336,9",,,"999,N,+0022,1","99999,9,10107,1","3,1,010,1,+999,9","25,1",,"4,99,0090,9,999","SYN134AAXX  02061 08544 11460 40702 10042 20029 30107 40128 53010 60032 72598 83904 333 20022 50074 55056 81815 81920 83630 91109 555 60017;",
"08544099999","2010-12-02T09:00:00","4","40.9166666","-8.6333333","22.0","OVAR MACEDA, PO","FM-12","99999","V020","200,1,N,0020,1","22000,1,9,N","010000,1,N,1","+0032,1","+0030,1","10152,1",,"8,1,03,1","1,1,03,1","02,1,+00450,1,08,1",,,,"04,99,1,03,1,09,1,00450,1,00,1,04,1",,,,,"99999,9,10131,1","2,1,024,1,+999,9","03,1",,,"SYN088AAXX  02091 08544 41460 42002 10032 20030 30131 40152 52024 70381 83904 333 82815 81920;",
"08544099999","2010-12-02T12:00:00","4","40.9166666","-8.6333333","22.0","OVAR MACEDA, PO","FM-12","99999","V020","190,1,N,0020,1","00600,1,9,N","010000,1,N,1","+0100,1","+0037,1","10150,1","06,0030,9,1","8,1,06,1","1,1,06,1","03,1,+00450,1,08,1","02,1,+00600,1,09,1",,,"06,99,1,05,1,03,1,00450,1,00,1,01,1",,,,,"99999,9,10138,1","1,1,007,1,+999,9","03,1",,,"SYN110AAXX  02121 08544 11460 61902 10100 20037 30138 40150 51007 60031 70381 85301 333 83815 82920 555 50044 60007;",
"08544099999","2010-12-02T15:00:00","4","40.9166666","-8.6333333","22.0","OVAR MACEDA, PO","FM-12","99999","V020","210,1,N,0050,1","00540,1,9,N","007000,1,N,1","+0088,1","+0064,1","10135,1",,"9,1,03,1","8,1,03,1","02,1,+00450,1,08,1","03,1,+00540,1,08,1",,,"06,99,1,06,1,09,1,00450,1,00,1,00,1",,,,,"99999,9,10114,1","8,1,024,1,+999,9","80,1",,,"SYN094AAXX  02151 08544 41457 62105 10088 20064 30114 40135 58024 78098 86900 333 82815 83818 82920;",
"08544099999","2010-12-02T18:00:00","4","40.9166666","-8.6333333","22.0","OVAR MACEDA, PO","FM-12","99999","V020","300,1,N,0170,1","00540,1,9,N","008000,1,N,1","+0084,1","+0064,1","10133,1","12,0051,9,1","9,1,06,1","8,1,06,1","02,1,+00450,1,08,1","04,1,+00540,1,08,1","01,1,+00600,1,09,1",,"06,99,1,06,1,03,1,00450,1,00,1,00,1",,,,"120,M,+0102,1","99999,9,10112,1","8,1,002,1,+999,9","25,1","9999,9","4,99,0180,9,999","SYN128AAXX  02181 08544 11458 63017 10084 20064 30112 40133 58002 60052 72598 86300 333 10102 82815 84818 81920 91015 91118 555 60027;","Q01  01502WGOSPD"
"08544099999","2010-12-02T21:00:00","4","40.9166666","-8.6333333","22.0","OVAR MACEDA, PO","FM-12","99999","V020","030,1,N,0060,1","00540,1,9,N","008000,1,N,1","+0072,1","+0051,1","10138,1",,"8,1,03,1","2,1,03,1","04,1,+00450,1,08,1","02,1,+00540,1,09,1","03,1,+01050,1,06,1",,"07,99,1,07,1,09,1,00450,1,99,9,99,9",,,,,"99999,9,10117,1","3,1,005,1,+999,9","80,1","0130,5",,"SYN106AAXX  02211 08544 41458 70306 10072 20051 30117 40138 53005 78082 879// 333 84815 82918 83635 91013 91117;",
"08544099999","2010-12-03T00:00:00","4","40.9166666","-8.6333333","22.0","OVAR MACEDA, PO","FM-12","99999","V020","020,1,N,0050,1","22000,1,9,N","010000,1,N,1","+0056,1","+0015,1","10175,1","06,0061,9,1","8,1,06,1","1,1,06,1","02,1,+00450,1,08,1","03,1,+01200,1,06,1",,,"04,99,1,04,1,08,1,00450,1,00,1,00,1",,,,,"99999,9,10154,1","2,1,038,1,+999,9","01,1",,"4,99,0100,9,999","SYN110AAXX  03001 08544 11460 40205 10056 20015 30154 40175 52038 60061 70181 84800 333 82815 83640 91110 555 60027;",
"08544099999","2010-12-03T03:00:00","4","40.9166666","-8.6333333","22.0","OVAR MACEDA, PO","FM-12","99999","V020","999,9,C,0000,1","22000,1,9,N","010000,1,N,1","+0018,1","+0013,1","10190,1",,,,"00,1,+99999,9,99,9",,,,"00,99,1,00,1,00,1,99999,9,00,1,00,1",,,,,"99999,9,10168,1","2,1,014,1,+999,9",,,,"SYN060AAXX  03031 08544 42960 00000 10018 20013 30168 40190 52014;",
"08544099999","2010-12-03T06:00:00","4","40.9166666","-8.6333333","22.0","OVAR MACEDA, PO","FM-12","99999","V020","999,9,V,0010,1","22000,1,9,N","010000,1,N,1","-0006,1","-0017,1","10207,1","12,0061,9,1",,,"00,1,+99999,9,99,9",,,,"00,99,1,00,1,00,1,99999,9,00,1,00,1","0222,9",,,"999,N,-0010,1","99999,9,10186,1","2,1,018,1,+999,9",,,,"SYN098AAXX  03061 08544 12960 09901 11006 21017 30186 40207 52018 60062 333 21010 50134 55037 555 60007;",
"08544099999","2010-12-03T09:00:00","4","40.9166666","-8.6333333","22.0","OVAR MACEDA, PO","FM-12","99999","V020","999,9,V,0010,1","22000,1,9,N","007000,1,N,1","-0006,1","-0017,1","10222,1",,"0,1,03,1","0,1,03,1","01,1,+06000,1,00,1",,,,"01,99,1,00,1,00,1,99999,9,00,1,01,1",,,,,"99999,9,10201,1","2,1,015,1,+999,9","10,1",,,"SYN082AAXX  03091 08544 41957 19901 11006 21017 30201 40222 52015 71000 80001 333 81070;",
"08544099999","2010-12-03T12:00:00","4","40.9166666","-8.6333333","22.0","OVAR MACEDA, PO","FM-12","99999","V020","999,9,V,0010,1","22000,1,9,N","010000,1,N,1","+0094,1","+0030,1","10234,1",,,,"01,1,+06000,1,00,1",,,,"02,99,1,00,1,00,1,99999,9,00,1,04,1",,,,,"99999,9,10213,1","1,1,012,1,+999,9",,,,"SYN092AAXX  03121 08544 32960 29901 10094 20030 30213 40234 51012 80004 333 81070 555 50104 60007;",
"08544099999","2010-12-03T15:00:00","4","40.9166666","-8.6333333","22.0","OVAR MACEDA, PO","FM-12","99999","V020","290,1,N,0010,1","22000,1,9,N","010000,1,N,1","+0090,1","+0030,1","10225,1",,,,"02,1,+06000,1,00,1",,,,"02,99,1,00,1,00,1,99999,9,00,1,01,1",,,,,"99999,9,10204,1","5,1,009,1,+999,9",,,,"SYN076AAXX  03151 08544 42960 22901 10090 20030 30204 40225 55009 80001 333 82070;",
"08544099999","2010-12-03T18:00:00","4","40.9166666","-8.6333333","22.0","OVAR MACEDA, PO","FM-12","99999","V020","999,9,V,0010,1","06000,1,9,N","010000,1,N,1","+0048,1","+0035,1","10223,1",,,,"05,1,+06000,1,00,1",,,,"05,99,1,00,1,00,1,99999,9,00,1,01,1",,,,"120,M,+0100,1","99999,9,10202,1","8,1,002,1,+999,9",,,,"SYN092AAXX  03181 08544 32960 59901 10048 20035 30202 40223 58002 80001 333 10100 85070 555 60007;",
"08544099999","2010-12-03T21:00:00","4","40.9166666","-8.6333333","22.0","OVAR MACEDA, PO","FM-12","99999","V020","999,9,C,0000,1","22000,1,9,N","000800,1,N,1","+0006,1","+0006,1","10222,1",,"4,1,03,1","1,1,03,1","03,1,+06000,1,00,1",,,,"03,99,1,00,1,00,1,99999,9,00,1,01,1",,,,,"99999,9,10200,1","8,1,002,1,+999,9","46,1",,,"SYN082AAXX  03211 08544 41908 30000 10006 20006 30200 40222 58002 74641 80001 333 83070;",
"08544099999","2010-12-04T00:00:00","4","40.9166666","-8.6333333","22.0","OVAR MACEDA, PO","FM-12","99999","V020","999,9,V,0010,1","22000,1,9,N","001200,1,N,1","-0002,1","-0007,1","10215,1",,"4,1,06,1","1,1,06,1","03,1,+06000,1,00,1",,,,"03,99,1,00,1,00,1,99999,9,00,1,01,1",,,,,"99999,9,10194,1","5,1,006,1,+999,9","10,1",,,"SYN104AAXX  04001 08544 31912 39901 11002 21007 30194 40215 55006 71041 80001 333 83070 555 60007 96646 90312;",
"08544099999","2010-12-04T03:00:00","4","40.9166666","-8.6333333","22.0","OVAR MACEDA, PO","FM-12","99999","V020","999,9,V,0010,1","22000,1,9,N","007000,1,N,1","-0006,1","-0011,1","10196,1",,"4,1,03,1","0,1,03,1","03,1,+06000,1,00,1",,,,"03,99,1,00,1,00,1,99999,9,00,1,04,1",,,,,"99999,9,10174,1","7,1,020,1,+999,9","12,1",,,"SYN088AAXX  04031 08544 41957 39901 11006 21011 30174 40196 57020 71240 80004 333 83070 96010;",
"08544099999","2010-12-04T06:00:00","4","40.9166666","-8.6333333","22.0","OVAR MACEDA, PO","FM-12","99999","V020","999,9,C,0000,1","22000,1,9,N","008000,1,N,1","-0018,1","-0018,1","10167,1",,"0,1,06,1","0,1,06,1","04,1,+06000,1,00,1",,,,"04,99,1,00,1,00,1,99999,9,00,1,01,1","0348,9",,,"999,N,-0022,1","99999,9,10145,1","7,1,029,1,+999,9","10,1",,,"SYN110AAXX  04061 08544 31958 40000 11018 21018 30145 40167 57029 71000 80001 333 21022 50074 55058 84070 555 60007;",
"08544099999","2010-12-04T09:00:00","4","40.9166666","-8.6333333","22.0","OVAR MACEDA, PO","FM-12","99999","V020","999,9,C,0000,1","99999,9,9,N","010000,1,N,1","-0008,1","-0019,1","10162,1",,,,"03,1,+01800,1,04,1",,,,"06,99,1,03,1,00,1,99999,9,01,1,08,1",,,,,"99999,9,10140,1","5,1,005,1,+999,9",,,,"SYN082AAXX  04091 08544 42960 60000 11008 21019 30140 40162 55005 83018 333 83456 86270;",
"08544099999","2010-12-04T12:00:00","4","40.9166666","-8.6333333","22.0","OVAR MACEDA, PO","FM-12","99999","V020","999,9,C,0000,1","01800,1,9,N","008000,1,N,1","+0046,1","+0033,1","10147,1",,"1,1,06,1","1,1,06,1","04,1,+00450,1,06,1","05,1,+01800,1,04,1","08,1,+06000,1,02,1",,"08,99,1,04,1,05,1,00450,1,01,1,07,1",,,,,"99999,9,10125,1","7,1,015,1,+999,9","10,1",,,"SYN110AAXX  04121 08544 31458 80000 10046 20033 30125 40147 57015 71011 84517 333 84615 85456 88270 555 50004 60007;",
"08544099999","2010-12-04T15:00:00","4","40.9166666","-8.6333333","22.0","OVAR MACEDA, PO","FM-12","99999","V020","130,1,N,0020,1","03600,1,C,N","006000,1,N,1","+0076,1","+0033,1","10101,1",,"2,1,03,1","2,1,03,1","04,1,+00540,1,06,1",,,,"08,99,1,04,1,05,1,00450,1,01,1,99,9",,,,,"99999,9,10080,1","7,1,045,1,+999,9","10,1",,,"SYN088AAXX  04151 08544 41456 81302 10076 20033 30080 40101 57045 71022 8451/ 333 84618 88456;",
"08544099999","2010-12-04T18:00:00","4","40.9166666","-8.6333333","22.0","OVAR MACEDA, PO","FM-12","99999","V020","999,9,V,0010,1","00450,1,9,N","002000,1,N,1","+0066,1","+0054,1","10096,1","12,9999,9,9","6,1,06,1","2,1,06,1","03,1,+00240,1,07,1","05,1,+00450,1,06,1","08,1,+01800,1,04,1",,"08,99,1,05,1,05,1,00250,1,02,1,99,9",,,,"120,M,+0076,1","99999,9,10075,1","7,1,005,1,+999,9","60,1",,,"SYN122AAXX  04181 08544 11320 89901 10066 20054 30075 40096 57005 69922 76062 8552/ 333 10076 83708 85615 88456 96010 555 69927;","Q01  00002PRCP12Q02  00002PRCP12"
"08544099999","2010-12-04T21:00:00","4","40.9166666","-8.6333333","22.0","OVAR MACEDA, PO","FM-12","99999","V020","150,1,N,0020,1","00450,1,9,N","006000,1,N,1","+0070,1","+0038,1","10065,1",,"6,1,03,1","2,1,03,1","03,1,+00240,1,07,1","05,1,+00450,1,06,1",,,"08,99,1,05,1,05,1,00250,1,02,1,99,9",,,,,"99999,9,10044,1","7,1,033,1,+999,9","10,1",,,"SYN094AAXX  04211 08544 41356 81502 10070 20038 30044 40065 57033 71062 8552/ 333 83708 85615 88456;",
"08544099999","2010-12-05T00:00:00","4","40.9166666","-8.6333333","22.0","OVAR MACEDA, PO","FM-12","99999","V020","160,1,N,0040,1","00450,1,9,N","008000,1,N,1","+0076,1","+0051,1","10068,1","06,0030,9,1","6,1,06,1","2,1,06,1","03,1,+00240,1,07,1","05,1,+00450,1,06,1","07,1,+01800,1,04,1",,"08,99,1,06,1,05,1,00250,1,02,1,99,9",,,,,"99999,9,10047,1","3,1,003,1,+999,9","61,1",,,"SYN110AAXX  05001 08544 11358 81604 10076 20051 30047 40068 53003 60031 76162 8652/ 333 83708 85615 87456 555 60037;",
"08544099999","2010-12-05T03:00:00","4","40.9166666","-8.6333333","22.0","OVAR MACEDA, PO","FM-12","99999","V020","170,1,N,0050,1","00450,1,9,N","010000,1,N,1","+0120,1","+0062,1","10031,1",,"6,1,03,1","2,1,03,1","02,1,+00240,1,07,1","05,1,+00450,1,06,1","07,1,+01800,1,04,1",,"08,99,1,05,1,05,1,00250,1,02,1,99,9",,,,,"99999,9,10011,1","7,1,036,1,+999,9","02,1",,,"SYN100AAXX  05031 08544 41360 81705 10120 20062 30011 40031 57036 70262 8552/ 333 82708 85615 87456 91112;",
"08544099999","2010-12-05T06:00:00","4","40.9166666","-8.6333333","22.0","OVAR MACEDA, PO","FM-12","99999","V020","170,1,N,0090,1","00450,1,9,N","005000,1,N,1","+0122,1","+0108,1","10008,1","12,0099,9,1","8,1,06,1","6,1,06,1","03,1,+00240,1,07,1","05,1,+00450,1,08,1","07,1,+01800,1,04,1",,"08,99,1,06,1,02,1,00250,1,02,1,99,9","0000,9",,,"999,N,+0060,1","99999,9,09988,1","6,1,023,1,+999,9","60,1","0140,5",,"SYN140AAXX  05061 08544 11350 81709 10122 20108 39988 40008 56023 60102 76086 8622/ 333 20060 50094 55000 83708 85815 87456 91014 91114 555 60067;",
"08544099999","2010-12-05T09:00:00","4","40.9166666","-8.6333333","22.0","OVAR MACEDA, PO","FM-12","99999","V020","170,1,N,0090,1","00450,1,9,N","003000,1,N,1","+0132,1","+0118,1","10008,1",,"9,1,03,1","8,1,03,1","02,1,+00300,1,08,1","05,1,+00450,1,08,1","01,1,+00540,1,09,1","05,1,+01800,1,04,1","08,99,1,06,1,09,1,00450,1,02,1,99,9",,,,,"99999,9,09988,1","0,1,000,1,+999,9","95,1","0140,5",,"SYN112AAXX  05091 08544 41430 81709 10132 20118 39988 40008 50000 79598 8692/ 333 82810 85815 81918 85456 91014 91118;",
"08544099999","2010-12-05T12:00:00","4","40.9166666","-8.6333333","22.0","OVAR MACEDA, PO","FM-12","99999","V020","180,1,N,0090,1","00360,1,9,N","007000,1,N,1","+0152,1","+0124,1","10003,1","06,0130,9,1","9,1,06,1","8,1,06,1","04,1,+00240,1,07,1","08,1,+00360,1,06,1",,,"08,99,1,08,1,05,1,00250,1,99,9,99,9",,,,,"99999,9,09983,1","7,1,005,1,+999,9","80,1","0150,5","4,99,0220,9,999","SYN122AAXX  05121 08544 11357 81809 10152 20124 39983 40003 57005 60131 78098 885// 333 84708 88612 91015 91122 555 50234 60037;",
"08544099999","2010-12-05T15:00:00","4","40.9166666","-8.6333333","22.0","OVAR MACEDA, PO","FM-12","99999","V020","180,1,N,0090,1","00300,1,9,N","003000,1,N,1","+0148,1","+0137,1","09983,1",,"8,1,03,1","2,1,03,1","04,1,+00240,1,07,1","03,1,+00300,1,08,1","08,1,+00300,1,06,1",,"08,99,1,08,1,08,1,00250,1,99,9,99,9",,,,,"99999,9,09963,1","7,1,020,1,+999,9","81,1","0130,5","4,99,0170,9,999","SYN112AAXX  05151 08544 41330 81809 10148 20137 39963 49983 57020 78182 888// 333 84708 83810 88610 91013 91117 96010;",
"08544099999","2010-12-05T18:00:00","4","40.9166666","-8.6333333","22.0","OVAR MACEDA, PO","FM-12","99999","V020","190,1,N,0060,1","00360,1,9,N","004000,1,N,1","+0162,1","+0152,1","09981,1","12,0381,9,1","8,1,06,1","6,1,06,1","04,1,+00180,1,07,1","08,1,+00360,1,06,1",,,"08,99,1,08,1,05,1,00150,1,99,9,99,9",,,,"120,M,+0162,1","99999,9,09961,1","5,1,002,1,+999,9","61,1","0090,5","4,99,0170,9,999","SYN140AAXX  05181 08544 11240 81906 10162 20152 39961 49981 55002 60382 76186 885// 333 10162 84706 88612 91009 91117 96010 555 60157 96681 90327;",
"08544099999","2010-12-05T21:00:00","4","40.9166666","-8.6333333","22.0","OVAR MACEDA, PO","FM-12","99999","V020","180,1,N,0060,1","00420,1,9,N","005000,1,N,1","+0162,1","+0148,1","09976,1",,"8,1,03,1","6,1,03,1","04,1,+00180,1,07,1","08,1,+00420,1,06,1",,,"08,99,1,08,1,05,1,00150,1,99,9,99,9",,,,,"99999,9,09956,1","7,1,005,1,+999,9","60,1","0090,5","4,99,0150,9,999","SYN106AAXX  05211 08544 41250 81806 10162 20148 39956 49976 57005 76086 885// 333 84706 88614 91009 91115 96010;",
"08544099999","2010-12-06T00:00:00","4","40.9166666","-8.6333333","22.0","OVAR MACEDA, PO","FM-12","99999","V020","180,1,N,0080,1","00180,1,9,N","010000,1,N,1","+0158,1","+0148,1","09969,1","06,0109,9,1","6,1,06,1","2,1,06,1","06,1,+00180,1,07,1","08,1,+00360,1,06,1",,,"08,99,1,08,1,05,1,00150,1,99,9,99,9",,,,,"99999,9,09950,1","7,1,005,1,+999,9","21,1","0120,5",,"SYN116AAXX  06001 08544 11260 81808 10158 20148 39950 49969 57005 60111 72162 885// 333 86706 88612 91012 91112 555 60067;",
"08544099999","2010-12-06T03:00:00","4","40.9166666","-8.6333333","22.0","OVAR MACEDA, PO","FM-12","99999","V020","180,1,N,0050,1","00120,1,9,N","006000,1,N,1","+0158,1","+0152,1","09960,1",,"6,1,03,1","2,1,03,1","06,1,+00120,1,07,1","08,1,+00420,1,06,1",,,"08,99,1,08,1,05,1,00150,1,99,9,99,9",,,,,"99999,9,09940,1","6,1,010,1,+999,9","60,1","0070,5","4,99,0140,9,999","SYN110AAXX  06031 08544 41256 81805 10158 20152 39940 49960 56010 76062 885// 333 86704 88614 91007 91114 555 69987;",
"08544099999","2010-12-06T06:00:00","4","40.9166666","-8.6333333","22.0","OVAR MACEDA, PO","FM-12","99999","V020","220,1,N,0070,1","00120,1,9,N","002000,1,N,1","+0160,1","+0160,1","09966,1","12,0130,9,1","6,1,06,1","5,1,06,1","08,1,+00120,1,07,1",,,,"08,99,1,08,1,07,1,00150,1,99,9,99,9","0000,9",,,"999,N,+0158,1","99999,9,09946,1","3,1,006,1,+999,9","50,1","0120,5","4,99,0130,9,999","SYN134AAXX  06061 08544 11220 82207 10160 20160 39946 49966 53006 60132 75065 887// 333 20158 50114 55000 88704 91012 91113 96010 555 60027;",
"08544099999","2010-12-06T09:00:00","4","40.9166666","-8.6333333","22.0","OVAR MACEDA, PO","FM-12","99999","V020","220,1,N,0040,1","03600,1,9,N","006000,1,N,1","+0152,1","+0142,1","10000,1",,"6,1,03,1","5,1,03,1","03,1,+00360,1,08,1","04,1,+00450,1,06,1",,,"05,99,1,04,1,08,1,00450,1,07,1,00,1",,,,,"99999,9,09980,1","2,1,034,1,+999,9","10,1","0060,5",,"SYN100AAXX  06091 08544 41456 52204 10152 20142 39980 40000 52034 71065 84870 333 83812 84615 91006 91113;",
"08544099999","2010-12-06T12:00:00","4","40.9166666","-8.6333333","22.0","OVAR MACEDA, PO","FM-12","99999","V020","220,1,N,0070,1","03600,1,9,N","010000,1,N,1","+0168,1","+0145,1","10020,1","06,0008,9,1","8,1,06,1","5,1,06,1","02,1,+00450,1,08,1","04,1,+00600,1,08,1",,,"05,99,1,04,1,08,1,00450,1,08,1,00,1",,,,,"99999,9,10000,1","2,1,020,1,+999,9","02,1","0110,5","4,99,0130,9,999","SYN122AAXX  06121 08544 11460 52207 10168 20145 30000 40020 52020 69971 70285 84880 333 82815 84820 91011 91113 555 50394 69917;",
"08544099999","2010-12-06T15:00:00","4","40.9166666","-8.6333333","22.0","OVAR MACEDA, PO","FM-12","99999","V020","190,1,N,0050,1","02100,1,9,N","008000,1,N,1","+0166,1","+0143,1","09997,1",,"6,1,03,1","2,1,03,1","02,1,+00450,1,08,1","04,1,+00600,1,08,1","07,1,+02100,1,04,1",,"08,99,1,04,1,08,1,00450,1,07,1,99,9",,,,,"99999,9,09972,1","7,1,023,1,+999,9","60,1",,"4,99,0120,9,999","SYN110AAXX  06151 08544 41458 81905 10166 20143 39972 49997 57023 76062 8487/ 333 82815 84820 87457 91112 555 69907;",
"08544099999","2010-12-06T18:00:00","4","40.9166666","-8.6333333","22.0","OVAR MACEDA, PO","FM-12","99999","V020","160,1,N,0060,1","00540,1,9,N","004000,1,N,1","+0148,1","+0134,1","09969,1","12,0051,9,1","6,1,06,1","5,1,06,1","03,1,+00210,1,07,1","05,1,+00540,1,08,1","07,1,+02100,1,04,1",,"08,99,1,06,1,02,1,00250,1,07,1,99,9",,,,"120,M,+0172,1","99999,9,09950,1","7,1,039,1,+999,9","61,1",,"4,99,0120,9,999","SYN128AAXX  06181 08544 11340 81606 10148 20134 39950 49969 57039 60052 76165 8627/ 333 10172 83707 85818 87457 91112 96010 555 60057;",
"08544099999","2010-12-06T21:00:00","4","40.9166666","-8.6333333","22.0","OVAR MACEDA, PO","FM-12","99999","V020","210,1,N,0070,1","00450,1,9,N","005000,1,N,1","+0164,1","+0154,1","09977,1",,"9,1,03,1","8,1,03,1","01,1,+00210,1,07,1","02,1,+00360,1,09,1","05,1,+00450,1,08,1",,"07,99,1,07,1,03,1,00250,1,99,9,99,9",,,,,"99999,9,09957,1","3,1,007,1,+999,9","10,1","0110,5","4,99,0120,9,999","SYN140AAXX  06211 08544 41350 72107 10164 20154 39957 49977 53007 71098 873// 333 81707 82912 85815 91011 91112 555 50142 60097 90228 96695 90314;",
"08544099999","2010-12-07T00:00:00","4","40.9166666","-8.6333333","22.0","OVAR MACEDA, PO","FM-12","99999","V020","200,1,N,0070,1","00600,1,9,N","010000,1,N,1","+0166,1","+0153,1","09983,1","06,0089,9,1","9,1,06,1","8,1,06,1","02,1,+00450,1,08,1","06,1,+00600,1,06,1",,,"07,99,1,07,1,08,1,00450,1,99,9,99,9",,,,,"99999,9,09963,1","0,1,006,1,+999,9","02,1","0130,5",,"SYN116AAXX  07001 08544 11460 72007 10166 20153 39963 49983 50006 60091 70298 878// 333 82815 86620 91013 91113 555 60007;",
"08544099999","2010-12-07T03:00:00","4","40.9166666","-8.6333333","22.0","OVAR MACEDA, PO","FM-12","99999","V020","190,1,N,0040,1","22000,1,9,N","010000,1,N,1","+0152,1","+0142,1","09982,1",,,,"01,1,+00450,1,08,1",,,,"03,99,1,02,1,08,1,00450,1,00,1,04,1",,,,,"99999,9,09962,1","5,1,001,1,+999,9",,,,"SYN076AAXX  07031 08544 42460 31904 10152 20142 39962 49982 55001 82804 333 81815;",
"08544099999","2010-12-07T06:00:00","4","40.9166666","-8.6333333","22.0","OVAR MACEDA, PO","FM-12","99999","V020","170,1,N,0020,1","00900,1,9,N","010000,1,N,1","+0150,1","+0140,1","09968,1","12,0089,9,1",,,"01,1,+00450,1,08,1","04,1,+00900,1,06,1",,,"05,99,1,05,1,08,1,00450,1,00,1,00,1","0066,9",,,"999,N,+0136,1","99999,9,09948,1","7,1,014,1,+999,9",,,,"SYN116AAXX  07061 08544 12460 51702 10150 20140 39948 49968 57014 60092 85800 333 20136 50104 55011 81815 84630 555 60007;",
"08544099999","2010-12-07T09:00:00","4","40.9166666","-8.6333333","22.0","OVAR MACEDA, PO","FM-12","99999","V020","130,1,N,0030,1","00360,1,9,N","005000,1,N,1","+0142,1","+0135,1","09962,1",,"8,1,03,1","6,1,03,1","03,1,+00240,1,07,1","03,1,+00360,1,08,1",,,"08,99,1,07,1,08,1,00250,1,07,1,99,9",,,,,"99999,9,09942,1","5,1,006,1,+999,9","58,1",,,"SYN094AAXX  07091 08544 41350 81303 10142 20135 39942 49962 55006 75886 8787/ 333 83708 83812 85625;",
"08544099999","2010-12-07T12:00:00","4","40.9166666","-8.6333333","22.0","OVAR MACEDA, PO","FM-12","99999","V020","190,1,N,0050,1","00450,1,9,N","006000,1,N,1","+0162,1","+0152,1","09967,1","06,0079,9,1","8,1,06,1","6,1,06,1","02,1,+00240,1,07,1","04,1,+00450,1,08,1","07,1,+00540,1,08,1",,"08,99,1,08,1,08,1,00250,1,99,9,99,9",,,,,"99999,9,09947,1","0,1,005,1,+999,9","80,1",,,"SYN122AAXX  07121 08544 11356 81905 10162 20152 39947 49967 50005 60081 78086 888// 333 82708 84815 87818 96010 555 50224 69987;",
"08544099999","2010-12-07T15:00:00","4","40.9166666","-8.6333333","22.0","OVAR MACEDA, PO","FM-12","99999","V020","170,1,N,0070,1","00600,1,C,N","010000,1,N,1","+0172,1","+0135,1","09936,1",,"8,1,03,1","6,1,03,1","01,1,+00360,1,08,1","03,1,+00540,1,08,1","01,1,+00600,1,09,1",,"06,99,1,04,1,03,1,00450,1,07,1,00,1",,,,,"99999,9,09917,1","7,1,030,1,+999,9","01,1",,,"SYN100AAXX  07151 08544 41460 61707 10172 20135 39917 49936 57030 70186 84370 333 81812 83818 81920 91111;",
"08544099999","2010-12-07T18:00:00","4","40.9166666","-8.6333333","22.0","OVAR MACEDA, PO","FM-12","99999","V020","180,1,N,0060,1","06000,1,9,N","010000,1,N,1","+0164,1","+0134,1","09929,1","12,0099,9,1","8,1,06,1","6,1,06,1","03,1,+00450,1,08,1","01,1,+00540,1,09,1","03,1,+06000,1,00,1",,"05,99,1,04,1,03,1,00450,1,00,1,01,1",,,,"120,M,+0182,1","99999,9,09909,1","7,1,008,1,+999,9","02,1","0090,5","4,99,0150,9,999","SYN128AAXX  07181 08544 11460 51806 10164 20134 39909 49929 57008 60102 70286 84301 333 10182 83815 81918 83070 91009 91115 555 60007;",
"08544099999","2010-12-07T21:00:00","4","40.9166666","-8.6333333","22.0","OVAR MACEDA, PO","FM-12","99999","V020","190,1,N,0080,1","00540,1,9,N","010000,1,N,1","+0154,1","+0137,1","09916,1",,"8,1,03,1","2,1,03,1","04,1,+00450,1,08,1","02,1,+00540,1,09,1","04,1,+00900,1,06,1",,"07,99,1,06,1,09,1,00450,1,00,1,01,1",,,,,"99999,9,09896,1","5,1,013,1,+999,9","25,1","0130,5",,"SYN106AAXX  07211 08544 41460 71908 10154 20137 39896 49916 55013 72582 86901 333 84815 82918 84630 91013 91116;",
"08544099999","2010-12-08T00:00:00","4","40.9166666","-8.6333333","22.0","OVAR MACEDA, PO","FM-12","99999","V020","220,1,N,0090,1","00900,1,9,N","010000,1,N,1","+0148,1","+0135,1","09960,1","06,0030,9,1","8,1,06,1","2,1,06,1","04,1,+00450,1,08,1","04,1,+00900,1,06,1",,,"07,99,1,07,1,08,1,00450,1,00,1,00,1",,,,,"99999,9,09940,1","2,1,044,1,+999,9","01,1","0150,5","4,99,0210,9,999","SYN116AAXX  08001 08544 11460 72209 10148 20135 39940 49960 52044 60031 70182 87800 333 84815 84630 91015 91121 555 69957;",
"08544099999","2010-12-08T03:00:00","4","40.9166666","-8.6333333","22.0","OVAR MACEDA, PO","FM-12","99999","V020","200,1,N,0060,1","00900,1,9,N","010000,1,N,1","+0144,1","+0127,1","09992,1",,"8,1,03,1","2,1,03,1","02,1,+00450,1,08,1","06,1,+00900,1,06,1",,,"06,99,1,06,1,08,1,00450,1,00,1,00,1",,,,,"99999,9,09972,1","2,1,032,1,+999,9","02,1","0090,5","4,99,0130,9,999","SYN106AAXX  08031 08544 41460 62006 10144 20127 39972 49992 52032 70282 86800 333 82815 86630 91009 91113 69927;",
"08544099999","2010-12-08T06:00:00","4","40.9166666","-8.6333333","22.0","OVAR MACEDA, PO","FM-12","99999","V020","200,1,N,0050,1","00900,1,9,N","010000,1,N,1","+0140,1","+0123,1","10019,1","12,0051,9,1","8,1,06,1","1,1,06,1","02,1,+00450,1,08,1","05,1,+00900,1,06,1",,,"05,99,1,05,1,08,1,00450,1,00,1,00,1","0054,9",,,"999,N,+0135,1","99999,9,09999,1","2,1,027,1,+999,9","02,1","0090,5","4,99,0110,9,999","SYN134AAXX  08061 08544 11460 52005 10140 20123 39999 40019 52027 60052 70281 85800 333 20135 50174 55009 82815 85630 91009 91111 555 60027;",
"08544099999","2010-12-08T09:00:00","4","40.9166666","-8.6333333","22.0","OVAR MACEDA, PO","FM-12","99999","V020","180,1,N,0050,1","00900,1,9,N","010000,1,N,1","+0136,1","+0122,1","10052,1",,,,"03,1,+00450,1,08,1",,,,"07,99,1,06,1,08,1,00450,1,00,1,01,1",,,,,"99999,9,10032,1","2,1,033,1,+999,9",,,,"SYN082AAXX  08091 08544 42460 71805 10136 20122 30032 40052 52033 86801 333 83815 84630;",
"08544099999","2010-12-08T12:00:00","4","40.9166666","-8.6333333","22.0","OVAR MACEDA, PO","FM-12","99999","V020","999,9,V,0010,1","00450,1,9,N","004000,1,N,1","+0136,1","+0125,1","10071,1","06,0089,9,1","8,1,06,1","6,1,06,1","05,1,+00450,1,08,1","05,1,+02100,1,04,1",,,"08,99,1,07,1,08,1,00450,1,02,1,99,9",,,,,"99999,9,10051,1","2,1,019,1,+999,9","60,1",,,"SYN116AAXX  08121 08544 11440 89901 10136 20125 30051 40071 52019 60091 76086 8782/ 333 85815 85457 96010 555 50164 60097;",
"08544099999","2010-12-08T15:00:00","4","40.9166666","-8.6333333","22.0","OVAR MACEDA, PO","FM-12","99999","V020","330,1,N,0030,1","00210,1,C,N","005000,1,N,1","+0126,1","+0119,1","10076,1",,"6,1,03,1","2,1,03,1","04,1,+00210,1,07,1",,,,"08,99,1,06,1,02,1,00250,1,02,1,99,9",,,,,"99999,9,10056,1","3,1,005,1,+999,9","10,1",,,"SYN088AAXX  08151 08544 41350 83303 10126 20119 30056 40076 53005 71062 8622/ 333 84707 85815;",
"08544099999","2010-12-08T18:00:00","4","40.9166666","-8.6333333","22.0","OVAR MACEDA, PO","FM-12","99999","V020","290,1,N,0010,1","00450,1,9,N","010000,1,N,1","+0122,1","+0111,1","10094,1","12,0099,9,1","6,1,06,1","5,1,06,1","03,1,+00210,1,07,1","05,1,+00450,1,08,1",,,"07,99,1,06,1,02,1,00250,1,02,1,00,1",,,,"120,M,+0142,1","99999,9,10074,1","2,1,018,1,+999,9","02,1",,,"SYN110AAXX  08181 08544 11360 72901 10122 20111 30074 40094 52018 60102 70265 86220 333 10142 83707 85815 555 69917;",
"08544099999","2010-12-08T21:00:00","4","40.9166666","-8.6333333","22.0","OVAR MACEDA, PO","FM-12","99999","V020","010,1,N,0010,1","22000,1,9,N","000100,1,N,1","+0102,1","+0098,1","10113,1",,"6,1,03,1","5,1,03,1","01,1,+00450,1,08,1",,,,"04,99,1,03,1,08,1,00450,1,00,1,01,1",,,,,"99999,9,10093,1","2,1,019,1,+999,9","46,1",,,"SYN088AAXX  08211 08544 41401 40101 10102 20098 30093 40113 52019 74665 83801 333 81815 83630;",
"08544099999","2010-12-09T00:00:00","4","40.9166666","-8.6333333","22.0","OVAR MACEDA, PO","FM-12","99999","V020","999,9,C,0000,1","22000,1,9,N","000700,1,N,1","+0100,1","+0100,1","10128,1",,"4,1,06,1","2,1,06,1","02,1,+00180,1,07,1","04,1,+00900,1,06,1",,,"06,99,1,02,1,05,1,00075,1,00,1,04,1",,,,,"99999,9,10107,1","2,1,012,1,+999,9","42,1",,,"SYN098AAXX  09001 08544 31107 60000 10100 20100 30107 40128 52012 74242 82504 333 82706 84630 555 60007;",
"08544099999","2010-12-09T03:00:00","4","40.9166666","-8.6333333","22.0","OVAR MACEDA, PO","FM-12","99999","V020","999,9,C,0000,1","03600,1,C,N","003000,1,N,1","+0092,1","+0088,1","10134,1",,"4,1,03,1","2,1,03,1","01,1,+00060,1,07,1",,,,"05,99,1,02,1,05,1,00075,1,03,1,00,1",,,,,"99999,9,10113,1","3,1,006,1,+999,9","10,1",,,"SYN088AAXX  09031 08544 41130 50000 10092 20088 30113 40134 53006 71042 82530 333 81702 84358;",
"08544099999","2010-12-09T06:00:00","4","40.9166666","-8.6333333","22.0","OVAR MACEDA, PO","FM-12","99999","V020","999,9,C,0000,1","22000,1,9,N","004000,1,N,1","+0084,1","+0080,1","10134,1",,"4,1,06,1","1,1,06,1","02,1,+00060,1,07,1","04,1,+02400,1,03,1",,,"04,99,1,02,1,06,1,00075,1,03,1,00,1","0000,9",,,"999,N,+0084,1","99999,9,10113,1","4,1,000,1,+999,9","10,1",,,"SYN116AAXX  09061 08544 31140 40000 10084 20080 30113 40134 54000 71041 82630 333 20084 50044 55000 82702 84358 555 60007;",
"08544099999","2010-12-09T09:00:00","4","40.9166666","-8.6333333","22.0","OVAR MACEDA, PO","FM-12","99999","V020","999,9,C,0000,1","02400,1,9,N","010000,1,N,1","+0110,1","+0103,1","10147,1",,,,"02,1,+01050,1,06,1","06,1,+02400,1,04,1",,,"08,99,1,02,1,05,1,01250,1,07,1,04,1",,,,,"99999,9,10126,1","2,1,013,1,+999,9",,,,"SYN088AAXX  09091 08544 42660 80000 10110 20103 30126 40147 52013 82574 333 82635 86458 84070;",
"08544099999","2010-12-09T12:00:00","4","40.9166666","-8.6333333","22.0","OVAR MACEDA, PO","FM-12","99999","V020","050,1,N,0030,1","00750,1,9,N","007000,1,N,1","+0136,1","+0125,1","10165,1","06,0041,9,1","6,1,06,1","5,1,06,1","02,1,+00240,1,07,1","04,1,+00750,1,06,1","07,1,+02100,1,03,1",,"08,99,1,05,1,05,1,00250,1,07,1,99,9",,,,,"99999,9,10145,1","0,1,019,1,+999,9","61,1",,,"SYN112AAXX  09121 08544 11357 80503 10136 20125 30145 40165 50019 60041 76165 8557/ 333 82708 84625 87357 50045 60047;",
"08544099999","2010-12-09T15:00:00","4","40.9166666","-8.6333333","22.0","OVAR MACEDA, PO","FM-12","99999","V020","100,1,N,0030,1","03600,1,9,N","010000,1,N,1","+0160,1","+0122,1","10156,1",,"6,1,03,1","2,1,03,1","01,1,+00600,1,08,1",,,,"05,99,1,04,1,08,1,00800,1,03,1,00,1",,,,,"99999,9,10135,1","7,1,010,1,+999,9","01,1",,,"SYN088AAXX  09151 08544 41560 51003 10160 20122 30135 40156 57010 70162 84830 333 81820 84630;",
"08544099999","2010-12-09T18:00:00","4","40.9166666","-8.6333333","22.0","OVAR MACEDA, PO","FM-12","99999","V020","080,1,N,0030,1","06000,1,9,N","010000,1,N,1","+0148,1","+0105,1","10163,1","12,0041,9,1","6,1,06,1","1,1,06,1","01,1,+00600,1,08,1","05,1,+06000,1,00,1",,,"06,99,1,01,1,08,1,00800,1,03,1,04,1",,,,"120,M,+0170,1","99999,9,10142,1","3,1,007,1,+999,9","03,1",,,"SYN110AAXX  09181 08544 11560 60803 10148 20105 30142 40163 53007 60042 70361 81834 333 10170 81820 85070 555 60007;",
"08544099999","2010-12-09T21:00:00","4","40.9166666","-8.6333333","22.0","OVAR MACEDA, PO","FM-12","99999","V020","080,1,N,0030,1","03600,1,C,N","010000,1,N,1","+0144,1","+0101,1","10177,1",,,,"03,1,+01050,1,06,1",,,,"07,99,1,03,1,05,1,01250,1,05,1,99,9",,,,,"99999,9,10157,1","0,1,015,1,+999,9",,,,"SYN082AAXX  09211 08544 42660 70803 10144 20101 30157 40177 50015 8355/ 333 83635 85357;",
"08544099999","2010-12-10T00:00:00","4","40.9166666","-8.6333333","22.0","OVAR MACEDA, PO","FM-12","99999","V020","270,1,N,0030,1","02100,1,9,N","010000,1,N,1","+0142,1","+0103,1","10184,1",,,,"01,1,+01050,1,06,1","05,1,+02100,1,04,1",,,"06,99,1,01,1,05,1,01250,1,07,1,00,1",,,,,"99999,9,10164,1","2,1,007,1,+999,9",,,,"SYN092AAXX  10001 08544 32660 62703 10142 20103 30164 40184 52007 81570 333 81635 85457 555 60007;",
"08544099999","2010-12-10T03:00:00","4","40.9166666","-8.6333333","22.0","OVAR MACEDA, PO","FM-12","99999","V020","060,1,N,0040,1","22000,1,9,N","010000,1,N,1","+0154,1","+0101,1","10179,1",,,,"01,1,+00900,1,06,1",,,,"03,99,1,01,1,05,1,01250,1,07,1,00,1",,,,,"99999,9,10158,1","6,1,006,1,+999,9",,,,"SYN082AAXX  10031 08544 42660 30604 10154 20101 30158 40179 56006 81570 333 81630 83457;",
"08544099999","2010-12-10T06:00:00","4","40.9166666","-8.6333333","22.0","OVAR MACEDA, PO","FM-12","99999","V020","070,1,N,0020,1","22000,1,9,N","010000,1,N,1","+0152,1","+0091,1","10178,1",,,,"01,1,+00900,1,06,1","03,1,+02100,1,04,1",,,"04,99,1,01,1,05,1,00800,1,07,1,01,1","0102,9",,,"999,N,+0136,1","99999,9,10157,1","6,1,001,1,+999,9",,,,"SYN110AAXX  10061 08544 32560 40702 10152 20091 30157 40178 56001 81571 333 20136 50224 55017 81630 83457 555 60007;",
"08544099999","2010-12-10T09:00:00","4","40.9166666","-8.6333333","22.0","OVAR MACEDA, PO","FM-12","99999","V020","999,9,V,0010,1","09000,1,9,N","010000,1,N,1","+0162,1","+0090,1","10192,1",,,,"01,1,+00450,1,08,1",,,,"05,99,1,02,1,08,1,00450,1,03,1,04,1",,,,,"99999,9,10171,1","2,1,014,1,+999,9",,,,"SYN082AAXX  10091 08544 42460 59901 10162 20090 30171 40192 52014 82834 333 81815 83358;",
"08544099999","2010-12-10T12:00:00","4","40.9166666","-8.6333333","22.0","OVAR MACEDA, PO","FM-12","99999","V020","310,1,N,0020,1","02700,1,9,N","010000,1,N,1","+0178,1","+0112,1","10193,1",,,,"03,1,+00900,1,06,1","03,1,+02700,1,03,1","05,1,+06000,1,00,1",,"06,99,1,03,1,05,1,00800,1,03,1,02,1",,,,,"99999,9,10172,1","0,1,001,1,+999,9",,,,"SYN104AAXX  10121 08544 32560 63102 10178 20112 30172 40193 50001 83532 333 83630 83359 85070 555 50004 60007;",
"08544099999","2010-12-10T15:00:00","4","40.9166666","-8.6333333","22.0","OVAR MACEDA, PO","FM-12","99999","V020","170,1,N,0020,1","06000,1,9,N","010000,1,N,1","+0212,1","+0110,1","10191,1",,,,"02,1,+02700,1,03,1","07,1,+06000,1,02,1",,,"08,99,1,02,1,00,1,99999,9,03,1,06,1",,,,,"99999,9,10171,1","8,1,001,1,+999,9",,,,"SYN092AAXX  10151 08544 42960 81702 10212 20110 30171 40191 58001 82036 333 82359 87270 555 60007;",
"08544099999","2010-12-10T18:00:00","4","40.9166666","-8.6333333","22.0","OVAR MACEDA, PO","FM-12","99999","V020","060,1,N,0020,1","06000,1,9,N","010000,1,N,1","+0172,1","+0113,1","10192,1",,,,"02,1,+02700,1,03,1","07,1,+06000,1,02,1",,,"08,99,1,02,1,00,1,99999,9,03,1,06,1",,,,"120,M,+0214,1","99999,9,10172,1","8,1,001,1,+999,9",,,,"SYN098AAXX  10181 08544 32960 80602 10172 20113 30172 40192 58001 82036 333 10214 82359 87270 555 60007;",
"08544099999","2010-12-10T21:00:00","4","40.9166666","-8.6333333","22.0","OVAR MACEDA, PO","FM-12","99999","V020","080,1,N,0030,1","99999,9,9,N","010000,1,N,1","+0178,1","+0092,1","10190,1",,,,"04,1,+02700,1,09,1",,,,"08,99,1,04,1,00,1,99999,9,03,1,08,1",,,,,"99999,9,10169,1","8,1,003,1,+999,9",,,,"SYN082AAXX  10211 08544 42960 80803 10178 20092 30169 40190 58003 84038 333 84959 86270;",
"08544099999","2010-12-11T00:00:00","4","40.9166666","-8.6333333","22.0","OVAR MACEDA, PO","FM-12","99999","V020","360,1,N,0020,1","99999,9,9,N","010000,1,N,1","+0158,1","+0038,1","10181,1",,,,"03,1,+02700,1,03,1",,,,"05,99,1,03,1,00,1,99999,9,03,1,01,1",,,,,"99999,9,10160,1","7,1,009,1,+999,9",,,,"SYN092AAXX  11001 08544 32960 53602 10158 20038 30160 40181 57009 83031 333 83359 54070 555 60007;",
"08544099999","2010-12-11T03:00:00","4","40.9166666","-8.6333333","22.0","OVAR MACEDA, PO","FM-12","99999","V020","050,1,N,0010,1","22000,1,9,N","010000,1,N,1","+0126,1","+0093,1","10173,1",,,,"02,1,+02700,1,03,1",,,,"02,99,1,02,1,00,1,99999,9,05,1,00,1",,,,,"99999,9,10153,1","8,1,007,1,+999,9",,,,"SYN076AAXX  11031 08544 42960 20501 10126 20093 30153 40173 58007 82050 333 82359;",
"08544099999","2010-12-11T06:00:00","4","40.9166666","-8.6333333","22.0","OVAR MACEDA, PO","FM-12","99999","V020","300,1,N,0020,1","22000,1,9,N","010000,1,N,1","+0126,1","+0101,1","10194,1",,,,"01,1,+06000,1,00,1",,,,"01,99,1,00,1,00,1,99999,9,00,1,04,1","0096,9",,,"999,N,+0122,1","99999,9,10173,1","0,1,020,1,+999,9",,,,"SYN104AAXX  11061 08544 32960 13002 10126 20101 30173 40194 50020 80004 333 20122 50654 55016 81070 555 60007;",
"08544099999","2010-12-11T09:00:00","4","40.9166666","-8.6333333","22.0","OVAR MACEDA, PO","FM-12","99999","V020","999,9,C,0000,1","22000,1,9,N","010000,1,N,1","+0112,1","+0097,1","10201,1",,,,"03,1,+06600,1,00,1",,,,"03,99,1,00,1,00,1,99999,9,00,1,01,1",,,,,"99999,9,10180,1","2,1,007,1,+999,9",,,,"SYN076AAXX  11091 08544 42960 30000 10112 20097 30180 40201 52007 80001 333 83072;",
"08544099999","2010-12-11T12:00:00","4","40.9166666","-8.6333333","22.0","OVAR MACEDA, PO","FM-12","99999","V020","290,1,N,0020,1","06600,1,9,N","010000,1,N,1","+0180,1","+0119,1","10197,1",,,,"06,1,+06600,1,02,1",,,,"06,99,1,00,1,00,1,99999,9,00,1,06,1",,,,,"99999,9,10176,1","6,1,004,1,+999,9",,,,"SYN092AAXX  11121 08544 32960 62902 10180 20119 30176 40197 56004 80006 333 86272 555 50004 60007;",
"08544099999","2010-12-11T15:00:00","4","40.9166666","-8.6333333","22.0","OVAR MACEDA, PO","FM-12","99999","V020","290,1,N,0010,1","06600,1,9,N","010000,1,N,1","+0174,1","+0127,1","10191,1",,,,"08,1,+06600,1,02,1",,,,"08,99,1,00,1,00,1,99999,9,00,1,07,1",,,,,"99999,9,10171,1","5,1,005,1,+999,9",,,,"SYN076AAXX  11151 08544 42960 82901 10174 20127 30171 40191 55005 80007 333 88272;",
"08544099999","2010-12-11T18:00:00","4","40.9166666","-8.6333333","22.0","OVAR MACEDA, PO","FM-12","99999","V020","999,9,C,0000,1","06600,1,9,N","010000,1,N,1","+0142,1","+0131,1","10193,1",,,,"07,1,+06600,1,02,1",,,,"07,99,1,00,1,00,1,99999,9,00,1,08,1",,,,"120,M,+0190,1","99999,9,10173,1","2,1,002,1,+999,9",,,,"SYN092AAXX  11181 08544 32960 70000 10142 20131 30173 40193 52002 80008 333 10190 87272 555 60007;",
"08544099999","2010-12-11T21:00:00","4","40.9166666","-8.6333333","22.0","OVAR MACEDA, PO","FM-12","99999","V020","999,9,C,0000,1","06600,1,9,N","006000,1,N,1","+0116,1","+0105,1","10188,1",,"2,1,03,1","2,1,03,1","07,1,+06600,1,02,1",,,,"07,99,1,00,1,00,1,99999,9,00,1,08,1",,,,,"99999,9,10167,1","7,1,006,1,+999,9","10,1",,,"SYN082AAXX  11211 08544 41956 70000 10116 20105 30167 40188 57006 71022 80008 333 87272;",
"08544099999","2010-12-12T00:00:00","4","40.9166666","-8.6333333","22.0","OVAR MACEDA, PO","FM-12","99999","V020","999,9,C,0000,1","06600,1,9,N","006000,1,N,1","+0104,1","+0100,1","10181,1",,"2,1,06,1","2,1,06,1","07,1,+06600,1,00,1",,,,"07,99,1,00,1,00,1,99999,9,00,1,02,1",,,,,"99999,9,10160,1","7,1,007,1,+999,9","10,1",,,"SYN092AAXX  12001 08544 31956 70000 10104 20100 30160 40181 57007 71022 80002 333 87072 555 60007;",
"08544099999","2010-12-12T03:00:00","4","40.9166666","-8.6333333","22.0","OVAR MACEDA, PO","FM-12","99999","V020","180,1,N,0010,1","06600,1,9,N","008000,1,N,1","+0098,1","+0091,1","10168,1",,"2,1,03,1","2,1,03,1","07,1,+06600,1,00,1",,,,"07,99,1,00,1,00,1,99999,9,00,1,02,1",,,,,"99999,9,10147,1","7,1,013,1,+999,9","10,1",,,"SYN082AAXX  12031 08544 41958 71801 10098 20091 30147 40168 57013 71022 80002 333 87072;",
"08544099999","2010-12-12T06:00:00","4","40.9166666","-8.6333333","22.0","OVAR MACEDA, PO","FM-12","99999","V020","999,9,C,0000,1","06000,1,9,N","010000,1,N,1","+0086,1","+0082,1","10161,1",,,,"03,1,+00900,1,06,1","05,1,+06000,1,00,1",,,"06,99,1,03,1,05,1,00800,1,00,1,02,1","0204,9",,,"999,N,+0086,1","99999,9,10141,1","7,1,006,1,+999,9",,,,"SYN110AAXX  12061 08544 32560 60000 10086 20082 30141 40161 57006 83502 333 20086 50094 55034 83630 85070 555 60002;",
"08544099999","2010-12-12T09:00:00","4","40.9166666","-8.6333333","22.0","OVAR MACEDA, PO","FM-12","99999","V020","190,1,N,0010,1","09000,1,C,N","010000,1,N,1","+0094,1","+0086,1","10165,1",,,,"03,1,+00900,1,06,1",,,,"07,99,1,03,1,05,1,00800,1,00,1,02,1",,,,,"99999,9,10144,1","3,1,003,1,+999,9",,,,"SYN082AAXX  12091 08544 42560 71901 10094 20086 30144 40165 53003 83502 333 83630 87072;",
"08544099999","2010-12-12T12:00:00","4","40.9166666","-8.6333333","22.0","OVAR MACEDA, PO","FM-12","99999","V020","170,1,N,0020,1","06600,1,9,N","010000,1,N,1","+0166,1","+0129,1","10159,1",,,,"07,1,+06600,1,00,1",,,,"07,99,1,00,1,00,1,99999,9,00,1,02,1",,,,,"99999,9,10139,1","8,1,005,1,+999,9",,,,"SYN092AAXX  12121 08544 32960 71702 10166 20129 30139 40159 58005 80002 333 87072 555 50004 60007;",
"08544099999","2010-12-12T15:00:00","4","40.9166666","-8.6333333","22.0","OVAR MACEDA, PO","FM-12","99999","V020","220,1,N,0020,1","02700,1,9,N","010000,1,N,1","+0166,1","+0121,1","10149,1",,,,"05,1,+02700,1,03,1",,,,"08,99,1,05,1,00,1,99999,9,03,1,02,1",,,,,"99999,9,10129,1","7,1,010,1,+999,9",,,,"SYN082AAXX  12151 08544 42960 82202 10166 20121 30129 40149 57010 85032 333 85359 87072;",
"08544099999","2010-12-12T18:00:00","4","40.9166666","-8.6333333","22.0","OVAR MACEDA, PO","FM-12","99999","V020","050,1,N,0010,1","06600,1,9,N","006000,1,N,1","+0132,1","+0125,1","10140,1",,"2,1,06,1","2,1,06,1","03,1,+02400,1,03,1","07,1,+06600,1,00,1",,,"07,99,1,03,1,00,1,02250,1,03,1,02,1",,,,"120,M,+0176,1","99999,9,10120,1","7,1,009,1,+999,9","10,1",,,"SYN104AAXX  12181 08544 31856 70501 10132 20125 30120 40140 57009 71022 83032 333 10176 83358 87072 555 60007;",
"08544099999","2010-12-12T21:00:00","4","40.9166666","-8.6333333","22.0","OVAR MACEDA, PO","FM-12","99999","V020","210,1,N,0010,1","09000,1,C,N","004000,1,N,1","+0110,1","+0102,1","10132,1",,"2,1,03,1","2,1,03,1","02,1,+02400,1,03,1",,,,"07,99,1,02,1,00,1,02250,1,03,1,02,1",,,,,"99999,9,10111,1","7,1,009,1,+999,9","10,1",,,"SYN088AAXX  12211 08544 41840 72101 10110 20102 30111 40132 57009 71022 82032 333 82358 87072;",
"08544099999","2010-12-13T00:00:00","4","40.9166666","-8.6333333","22.0","OVAR MACEDA, PO","FM-12","99999","V020","999,9,V,0010,1","06000,1,9,N","003000,1,N,1","+0100,1","+0093,1","10133,1",,"2,1,06,1","2,1,06,1","02,1,+02400,1,03,1","04,1,+06000,1,00,1",,,"05,99,1,02,1,00,1,02250,1,03,1,02,1",,,,,"99999,9,10112,1","1,1,001,1,+999,9","10,1",,,"SYN098AAXX  13001 08544 31830 59901 10100 20093 30112 40133 51001 71022 82032 333 82358 84070 555 60007;",
"08544099999","2010-12-13T03:00:00","4","40.9166666","-8.6333333","22.0","OVAR MACEDA, PO","FM-12","99999","V020","999,9,C,0000,1","03600,1,C,N","005000,1,N,1","+0100,1","+0089,1","10133,1",,"4,1,03,1","2,1,03,1","03,1,+01200,1,06,1",,,,"06,99,1,03,1,05,1,01250,1,03,1,01,1",,,,,"99999,9,10113,1","1,1,001,1,+999,9","10,1",,,"SYN088AAXX  13031 08544 41650 60000 10100 20089 30113 40133 51001 71042 83531 333 83640 83070;",
"08544099999","2010-12-13T06:00:00","4","40.9166666","-8.6333333","22.0","OVAR MACEDA, PO","FM-12","99999","V020","999,9,C,0000,1","22000,1,9,N","000400,1,N,1","+0082,1","+0078,1","10131,1",,"4,1,06,1","1,1,06,1","01,1,+01200,1,06,1",,,,"03,99,1,01,1,05,1,01250,1,00,1,01,1","0000,9",,,"999,N,+0078,1","99999,9,10110,1","5,1,003,1,+999,9","46,1",,,"SYN122AAXX  13061 08544 31604 30000 10082 20078 30110 40131 55003 74641 81501 333 20078 50074 55000 81640 555 60007 90202 96646;",
"08544099999","2010-12-13T09:00:00","4","40.9166666","-8.6333333","22.0","OVAR MACEDA, PO","FM-12","99999","V020","190,1,N,0010,1","22000,1,9,N","004000,1,N,1","+0064,1","+0060,1","10144,1",,"4,1,03,1","0,1,03,1","02,1,+02400,1,03,1",,,,"02,99,1,02,1,00,1,02250,1,03,1,00,1",,,,,"99999,9,10123,1","2,1,013,1,+999,9","10,1",,,"SYN082AAXX  13091 08544 41840 21901 10064 20060 30123 40144 52013 71040 82030 333 82358;",
"08544099999","2010-12-13T12:00:00","4","40.9166666","-8.6333333","22.0","OVAR MACEDA, PO","FM-12","99999","V020","360,1,N,0020,1","22000,1,9,N","008000,1,N,1","+0146,1","+0118,1","10142,1",,"4,1,06,1","0,1,06,1","00,1,+99999,9,99,9",,,,"00,99,1,00,1,00,1,99999,9,00,1,00,1",,,,,"99999,9,10122,1","8,1,001,1,+999,9","10,1",,,"SYN082AAXX  13121 08544 31958 03602 10146 20118 30122 40142 58001 71040 555 50004 60007;",
"08544099999","2010-12-13T15:00:00","4","40.9166666","-8.6333333","22.0","OVAR MACEDA, PO","FM-12","99999","V020","350,1,N,0040,1","22000,1,9,N","008000,1,N,1","+0152,1","+0114,1","10137,1",,"0,1,03,1","0,1,03,1","00,1,+99999,9,99,9",,,,"00,99,1,00,1,00,1,99999,9,00,1,00,1",,,,,"99999,9,10116,1","7,1,006,1,+999,9","10,1",,,"SYN076AAXX  13151 08544 41958 03504 10152 20114 30116 40137 57006 71000 555 60007;",
"08544099999","2010-12-13T18:00:00","4","40.9166666","-8.6333333","22.0","OVAR MACEDA, PO","FM-12","99999","V020","360,1,N,0020,1","22000,1,9,N","003000,1,N,1","+0116,1","+0105,1","10152,1",,"0,1,06,1","0,1,06,1","01,1,+06000,1,00,1",,,,"01,99,1,00,1,00,1,99999,9,00,1,01,1",,,,"120,M,+0156,1","99999,9,10131,1","2,1,015,1,+999,9","10,1",,,"SYN098AAXX  13181 08544 31930 13602 10116 20105 30131 40152 52015 71000 80001 333 10156 81070 555 60007;",
"08544099999","2010-12-13T21:00:00","4","40.9166666","-8.6333333","22.0","OVAR MACEDA, PO","FM-12","99999","V020","999,9,V,0010,1","22000,1,9,N","000600,1,N,1","+0096,1","+0088,1","10167,1",,"4,1,03,1","1,1,03,1","00,1,+99999,9,99,9",,,,"00,99,1,00,1,00,1,99999,9,00,1,00,1",,,,,"99999,9,10146,1","2,1,015,1,+999,9","46,1",,,"SYN066AAXX  13211 08544 41906 09901 10096 20088 30146 40167 52015 74641;",
"08544099999","2010-12-14T00:00:00","4","40.9166666","-8.6333333","22.0","OVAR MACEDA, PO","FM-12","99999","V020","170,1,N,0010,1","22000,1,9,N","000500,1,N,1","+0072,1","+0068,1","10168,1",,"4,1,06,1","0,1,06,1","00,1,+99999,9,99,9",,,,"00,99,1,00,1,00,1,99999,9,00,1,00,1",,,,,"99999,9,10147,1","3,1,001,1,+999,9","44,1",,,"SYN082AAXX  14001 08544 31905 01701 10072 20068 30147 40168 53001 74440 555 60007 96644;",
"08544099999","2010-12-14T03:00:00","4","40.9166666","-8.6333333","22.0","OVAR MACEDA, PO","FM-12","99999","V020","130,1,N,0020,1","00030,1,9,N","000200,1,N,1","+0102,1","+0102,1","10178,1",,"4,1,03,1","4,1,03,1","09,1,+99999,9,99,9",,,,"09,99,1,09,1,99,9,99999,9,99,9,99,9",,,,,"99999,9,10157,1","2,1,010,1,+999,9","45,1",,,"SYN076AAXX  14031 08544 41/02 91302 10102 20102 30157 40178 52010 74544 333 89///;",
"08544099999","2010-12-14T06:00:00","4","40.9166666","-8.6333333","22.0","OVAR MACEDA, PO","FM-12","99999","V020","240,1,N,0010,1","00015,1,9,N","000100,1,N,1","+0088,1","+0088,1","10191,1",,"4,1,06,1","4,1,06,1","09,1,+99999,9,99,9",,,,"09,99,1,09,1,99,9,99999,9,99,9,99,9","0426,9",,,"999,N,+0066,1","99999,9,10170,1","2,1,013,1,+999,9","45,1",,,"SYN110AAXX  14061 08544 31/01 92401 10088 20088 30170 40191 52013 74544 333 20066 50064 55071 89/// 555 60007 96645;",
"08544099999","2010-12-14T09:00:00","4","40.9166666","-8.6333333","22.0","OVAR MACEDA, PO","FM-12","99999","V020","140,1,N,0010,1","00015,1,9,N","000100,1,N,1","+0088,1","+0088,1","10213,1",,"4,1,03,1","4,1,03,1","09,1,+99999,9,99,9",,,,"09,99,1,09,1,99,9,99999,9,99,9,99,9",,,,,"99999,9,10192,1","2,1,022,1,+999,9","45,1",,,"SYN076AAXX  14091 08544 41/01 91401 10088 20088 30192 40213 52022 74544 333 89///;",
"08544099999","2010-12-14T15:00:00","4","40.9166666","-8.6333333","22.0","OVAR MACEDA, PO","FM-12","99999","V020","320,1,N,0020,1","00060,1,C,N","000700,1,N,1","+0110,1","+0110,1","10220,1",,"4,1,03,1","4,1,03,1","03,1,+00060,1,07,1",,,,"07,99,1,06,1,06,1,00075,1,00,1,01,1",,,,,"99999,9,10200,1","5,1,008,1,+999,9","44,1",,,"SYN088AAXX  14150 08544 41107 73202 10110 20110 30200 40220 55008 74444 86601 333 83702 86704;",
"08544099999","2010-12-14T18:00:00","4","40.9166666","-8.6333333","22.0","OVAR MACEDA, PO","FM-12","99999","V020","999,9,V,0010,1","22000,1,9,N","002500,1,N,1","+0104,1","+0096,1","10234,1",,"4,1,06,1","2,1,06,1","02,1,+00120,1,07,1","03,1,+06600,1,00,1",,,"03,99,1,02,1,06,1,00150,1,00,1,01,1",,,,"120,M,+0130,1","99999,9,10213,1","2,1,013,1,+999,9","10,1",,,"SYN116AAXX  14181 08544 31225 39901 10104 20096 30213 40234 52013 71042 82601 333 10130 82704 83072 555 60007 96644 90330;",
"08544099999","2010-12-14T21:00:00","4","40.9166666","-8.6333333","22.0","OVAR MACEDA, PO","FM-12","99999","V020","090,1,N,0030,1","22000,1,9,N","008000,1,N,1","+0094,1","+0049,1","10245,1",,"1,1,03,1","1,1,03,1","03,1,+06600,1,00,1",,,,"03,99,1,00,1,00,1,99999,9,00,1,01,1",,,,,"99999,9,10224,1","2,1,011,1,+999,9","10,1",,,"SYN082AAXX  14211 08544 41958 30903 10094 20049 30224 40245 52011 71011 80001 333 83072;",
"08544099999","2010-12-15T00:00:00","4","40.9166666","-8.6333333","22.0","OVAR MACEDA, PO","FM-12","99999","V020","010,1,N,0010,1","22000,1,9,N","010000,1,N,1","+0064,1","+0033,1","10257,1",,,,"00,1,+99999,9,99,9",,,,"00,99,1,00,1,00,1,99999,9,00,1,00,1",,,,,"99999,9,10235,1","1,1,011,1,+999,9",,,,"SYN070AAXX  15001 08544 32960 00101 10064 20033 30235 40257 51011 555 60007;",
"08544099999","2010-12-15T03:00:00","4","40.9166666","-8.6333333","22.0","OVAR MACEDA, PO","FM-12","99999","V020","010,1,N,0010,1","22000,1,9,N","010000,1,N,1","+0062,1","+0022,1","10259,1",,,,"00,1,+99999,9,99,9",,,,"00,99,1,00,1,00,1,99999,9,00,1,00,1",,,,,"99999,9,10238,1","2,1,003,1,+999,9",,,,"SYN060AAXX  15031 08544 42960 00101 10062 20022 30238 40259 52003;",
"08544099999","2010-12-15T06:00:00","4","40.9166666","-8.6333333","22.0","OVAR MACEDA, PO","FM-12","99999","V020","080,1,N,0030,1","22000,1,9,N","010000,1,N,1","+0074,1","-0013,1","10265,1",,,,"00,1,+99999,9,99,9",,,,"00,99,1,00,1,00,1,99999,9,00,1,00,1","0150,9",,,"999,N,+0044,1","99999,9,10244,1","2,1,006,1,+999,9",,,,"SYN092AAXX  15061 08544 32960 00803 10074 21013 30244 40265 52006 333 20044 50064 55025 555 60007;",
"08544099999","2010-12-15T09:00:00","4","40.9166666","-8.6333333","22.0","OVAR MACEDA, PO","FM-12","99999","V020","350,1,N,0010,1","22000,1,9,N","010000,1,N,1","+0036,1","+0007,1","10276,1",,,,"01,1,+06000,1,00,1",,,,"01,99,1,00,1,00,1,99999,9,00,1,01,1",,,,,"99999,9,10255,1","1,1,011,1,+999,9",,,,"SYN076AAXX  15091 08544 42960 13501 10036 20007 30255 40276 51011 80001 333 81070;",
"08544099999","2010-12-15T12:00:00","4","40.9166666","-8.6333333","22.0","OVAR MACEDA, PO","FM-12","99999","V020","190,1,N,0020,1","22000,1,9,N","010000,1,N,1","+0124,1","+0022,1","10275,1",,,,"01,1,+06600,1,00,1",,,,"01,99,1,00,1,00,1,99999,9,00,1,01,1",,,,,"99999,9,10254,1","8,1,001,1,+999,9",,,,"SYN092AAXX  15121 08544 32960 11902 10124 20022 30254 40275 58001 80001 333 81072 555 50004 60007;",
"08544099999","2010-12-15T15:00:00","4","40.9166666","-8.6333333","22.0","OVAR MACEDA, PO","FM-12","99999","V020","050,1,N,0030,1","22000,1,9,N","010000,1,N,1","+0120,1","+0011,1","10265,1",,,,"01,1,+06600,1,00,1",,,,"01,99,1,00,1,00,1,99999,9,00,1,01,1",,,,,"99999,9,10245,1","7,1,009,1,+999,9",,,,"SYN076AAXX  15151 08544 42960 10503 10120 20011 30245 40265 57009 80001 333 81072;",
"08544099999","2010-12-15T18:00:00","4","40.9166666","-8.6333333","22.0","OVAR MACEDA, PO","FM-12","99999","V020","050,1,N,0030,1","22000,1,9,N","010000,1,N,1","+0084,1","+0006,1","10269,1",,,,"01,1,+06600,1,00,1",,,,"01,99,1,00,1,00,1,99999,9,00,1,01,1",,,,"120,M,+0128,1","99999,9,10248,1","3,1,003,1,+999,9",,,,"SYN092AAXX  15181 08544 32960 10503 10084 20006 30248 40269 53003 80001 333 10128 81072 555 60007;",
"08544099999","2010-12-15T21:00:00","4","40.9166666","-8.6333333","22.0","OVAR MACEDA, PO","FM-12","99999","V020","070,1,N,0020,1","22000,1,9,N","010000,1,N,1","+0056,1","+0004,1","10269,1",,,,"00,1,+99999,9,99,9",,,,"00,99,1,00,1,00,1,99999,9,00,1,00,1",,,,,"99999,9,10247,1","8,1,001,1,+999,9",,,,"SYN060AAXX  15211 08544 42960 00702 10056 20004 30247 40269 58001;",
"08544099999","2010-12-16T00:00:00","4","40.9166666","-8.6333333","22.0","OVAR MACEDA, PO","FM-12","99999","V020","360,1,N,0020,1","22000,1,9,N","010000,1,N,1","+0032,1","-0008,1","10267,1",,,,"00,1,+99999,9,99,9",,,,"00,99,1,00,1,00,1,99999,9,00,1,00,1",,,,,"99999,9,10245,1","8,1,002,1,+999,9",,,,"SYN070AAXX  16001 08544 32960 03602 10032 21008 30245 40267 58002 555 60007;",
"08544099999","2010-12-16T03:00:00","4","40.9166666","-8.6333333","22.0","OVAR MACEDA, PO","FM-12","99999","V020","030,1,N,0030,1","22000,1,9,N","010000,1,N,1","+0040,1","-0027,1","10258,1",,,,"00,1,+99999,9,99,9",,,,"00,99,1,00,1,00,1,99999,9,00,1,00,1",,,,,"99999,9,10236,1","8,1,009,1,+999,9",,,,"SYN060AAXX  16031 08544 42960 00303 10040 21027 30236 40258 58009;",
"08544099999","2010-12-16T06:00:00","4","40.9166666","-8.6333333","22.0","OVAR MACEDA, PO","FM-12","99999","V020","070,1,N,0020,1","22000,1,9,N","010000,1,N,1","+0036,1","-0033,1","10249,1",,,,"00,1,+99999,9,99,9",,,,"00,99,1,00,1,00,1,99999,9,00,1,00,1","0474,9",,,"999,N,+0028,1","99999,9,10228,1","7,1,008,1,+999,9",,,,"SYN092AAXX  16061 08544 32960 00702 10036 21033 30228 40249 57008 333 20028 50354 55079 555 60007;",
"08544099999","2010-12-16T09:00:00","4","40.9166666","-8.6333333","22.0","OVAR MACEDA, PO","FM-12","99999","V020","999,9,V,0010,1","22000,1,9,N","010000,1,N,1","+0008,1","-0036,1","10253,1",,,,"00,1,+99999,9,99,9",,,,"00,99,1,00,1,00,1,99999,9,00,1,00,1",,,,,"99999,9,10231,1","3,1,003,1,+999,9",,,,"SYN088AAXX  16091 08544 42960 09901 10008 21036 30231 40253 53003 555 31016 40/// 50004 60007;",
"08544099999","2010-12-16T12:00:00","4","40.9166666","-8.6333333","22.0","OVAR MACEDA, PO","FM-12","99999","V020","060,1,N,0040,1","22000,1,9,N","010000,1,N,1","+0088,1","-0018,1","10245,1",,,,"00,1,+99999,9,99,9",,,,"00,99,1,00,1,00,1,99999,9,00,1,00,1",,,,,"99999,9,10224,1","8,1,007,1,+999,9",,,,"SYN076AAXX  16121 08544 32960 00604 10088 21018 30224 40245 58007 555 50004 60007;",
"08544099999","2010-12-16T15:00:00","4","40.9166666","-8.6333333","22.0","OVAR MACEDA, PO","FM-12","99999","V020","050,1,N,0030,1","22000,1,9,N","010000,1,N,1","+0110,1","+0002,1","10221,1",,,,"00,1,+99999,9,99,9",,,,"00,99,1,00,1,00,1,99999,9,00,1,00,1",,,,,"99999,9,10200,1","7,1,024,1,+999,9",,,,"SYN060AAXX  16151 08544 42960 00503 10110 20002 30200 40221 57024;",
"08544099999","2010-12-16T18:00:00","4","40.9166666","-8.6333333","22.0","OVAR MACEDA, PO","FM-12","99999","V020","350,1,N,0010,1","22000,1,9,N","010000,1,N,1","+0056,1","+0020,1","10217,1",,,,"01,1,+06000,1,00,1",,,,"01,99,1,00,1,00,1,99999,9,00,1,01,1",,,,"120,M,+0110,1","99999,9,10195,1","6,1,005,1,+999,9",,,,"SYN092AAXX  16181 08544 32960 13501 10056 20020 30195 40217 56005 80001 333 10110 81070 555 60007;",
"08544099999","2010-12-16T21:00:00","4","40.9166666","-8.6333333","22.0","OVAR MACEDA, PO","FM-12","99999","V020","999,9,C,0000,1","22000,1,9,N","010000,1,N,1","+0006,1","-0004,1","10204,1",,,,"00,1,+99999,9,99,9",,,,"00,99,1,00,1,00,1,99999,9,00,1,00,1",,,,,"99999,9,10183,1","7,1,012,1,+999,9",,,,"SYN060AAXX  16211 08544 42960 00000 10006 21004 30183 40204 57012;",
"08544099999","2010-12-17T00:00:00","4","40.9166666","-8.6333333","22.0","OVAR MACEDA, PO","FM-12","99999","V020","999,9,V,0010,1","22000,1,9,N","010000,1,N,1","-0014,1","-0025,1","10191,1",,,,"00,1,+99999,9,99,9",,,,"00,99,1,00,1,00,1,99999,9,00,1,00,1",,,,,"99999,9,10169,1","7,1,014,1,+999,9",,,,"SYN070AAXX  17001 08544 32960 09901 11014 21025 30169 40191 57014 555 60007;",
"08544099999","2010-12-17T03:00:00","4","40.9166666","-8.6333333","22.0","OVAR MACEDA, PO","FM-12","99999","V020","999,9,C,0000,1","22000,1,9,N","010000,1,N,1","-0016,1","-0021,1","10170,1",,,,"00,1,+99999,9,99,9",,,,"00,99,1,00,1,00,1,99999,9,00,1,00,1",,,,,"99999,9,10144,1","7,1,021,1,+999,9",,,,"SYN060AAXX  17031 08544 42960 00000 11016 21021 30144 40170 57021;",
"08544099999","2010-12-17T06:00:00","4","40.9166666","-8.6333333","22.0","OVAR MACEDA, PO","FM-12","99999","V020","180,1,N,0030,1","22000,1,9,N","010000,1,N,1","-0026,1","-0032,1","10151,1",,,,"00,1,+99999,9,99,9",,,,"00,99,1,00,1,00,1,99999,9,00,1,00,1","0504,9",,,"999,N,-0034,1","99999,9,10129,1","7,1,019,1,+999,9",,,,"SYN092AAXX  17061 08544 32960 01803 11026 21032 30129 40151 57019 333 21034 50134 55084 555 60007;",
"08544099999","2010-12-17T09:00:00","4","40.9166666","-8.6333333","22.0","OVAR MACEDA, PO","FM-12","99999","V020","190,1,N,0020,1","22000,1,9,N","010000,1,N,1","-0020,1","-0031,1","10137,1",,,,"03,1,+06600,1,00,1",,,,"03,99,1,00,1,00,1,99999,9,00,1,04,1",,,,,"99999,9,10116,1","7,1,013,1,+999,9",,,,"SYN076AAXX  17091 08544 42960 31902 11020 21031 30116 40137 57013 80004 333 83072;",
"08544099999","2010-12-17T12:00:00","4","40.9166666","-8.6333333","22.0","OVAR MACEDA, PO","FM-12","99999","V020","020,1,N,0050,1","22000,1,9,N","010000,1,N,1","+0088,1","+0001,1","10105,1",,,,"01,1,+02700,1,03,1","03,1,+06000,1,00,1",,,"03,99,1,01,1,00,1,99999,9,03,1,01,1",,,,,"99999,9,10085,1","7,1,031,1,+999,9",,,,"SYN098AAXX  17121 08544 32960 30205 10088 20001 30085 40105 57031 81031 333 81359 83070 555 50004 60007;",
"08544099999","2010-12-17T15:00:00","4","40.9166666","-8.6333333","22.0","OVAR MACEDA, PO","FM-12","99999","V020","030,1,N,0040,1","22000,1,9,N","010000,1,N,1","+0120,1","+0028,1","10076,1",,,,"01,1,+03000,1,03,1",,,,"02,99,1,01,1,00,1,99999,9,03,1,01,1",,,,,"99999,9,10055,1","7,1,030,1,+999,9",,,,"SYN076AAXX  17151 08544 42960 20304 10120 20028 30055 40076 57030 81031 333 81360;",
"08544099999","2010-12-17T18:00:00","4","40.9166666","-8.6333333","22.0","OVAR MACEDA, PO","FM-12","99999","V020","999,9,C,0000,1","22000,1,9,N","010000,1,N,1","+0062,1","+0036,1","10058,1",,,,"01,1,+03000,1,03,1",,,,"02,99,1,01,1,00,1,99999,9,03,1,01,1",,,,"120,M,+0120,1","99999,9,10037,1","7,1,018,1,+999,9",,,,"SYN092AAXX  17181 08544 32960 20000 10062 20036 30037 40058 57018 81031 333 10120 81360 555 60007;",
"08544099999","2010-12-17T21:00:00","4","40.9166666","-8.6333333","22.0","OVAR MACEDA, PO","FM-12","99999","V020","200,1,N,0010,1","22000,1,9,N","008000,1,N,1","+0034,1","+0020,1","10051,1",,"0,1,03,1","0,1,03,1","00,1,+99999,9,99,9",,,,"00,99,1,00,1,00,1,99999,9,00,1,00,1",,,,,"99999,9,10030,1","7,1,007,1,+999,9","10,1",,,"SYN066AAXX  17211 08544 41958 02001 10034 20020 30030 40051 57007 71000;",
"08544099999","2010-12-18T00:00:00","4","40.9166666","-8.6333333","22.0","OVAR MACEDA, PO","FM-12","99999","V020","999,9,V,0010,1","22000,1,9,N","010000,1,N,1","+0010,1","+0000,1","10039,1",,,,"01,1,+06000,1,00,1",,,,"01,99,1,00,1,00,1,99999,9,00,1,01,1",,,,,"99999,9,10018,1","7,1,012,1,+999,9",,,,"SYN086AAXX  18001 08544 32960 19901 10010 20000 30018 40039 57012 80001 333 81070 555 60007;",
"08544099999","2010-12-18T03:00:00","4","40.9166666","-8.6333333","22.0","OVAR MACEDA, PO","FM-12","99999","V020","010,1,N,0020,1","22000,1,9,N","008000,1,N,1","-0010,1","-0015,1","10024,1",,"0,1,03,1","0,1,03,1","01,1,+06000,1,00,1",,,,"01,99,1,00,1,00,1,99999,9,00,1,01,1",,,,,"99999,9,10002,1","7,1,016,1,+999,9","10,1",,,"SYN082AAXX  18031 08544 42958 10102 11010 21015 30002 40024 57016 71000 80001 333 81070;",
"08544099999","2010-12-18T06:00:00","4","40.9166666","-8.6333333","22.0","OVAR MACEDA, PO","FM-12","99999","V020","210,1,N,0010,1","22000,1,9,N","010000,1,N,1","+0010,1","-0005,1","10014,1",,,,"01,1,+06000,1,00,1",,,,"01,99,1,00,1,00,1,99999,9,00,1,01,1","0366,9",,,"999,N,-0020,1","99999,9,09993,1","7,1,009,1,+999,9",,,,"SYN104AAXX  18061 08544 32960 12101 10010 21005 39993 40014 57009 80001 333 21020 50154 55061 81070 555 60007;",
"08544099999","2010-12-18T09:00:00","4","40.9166666","-8.6333333","22.0","OVAR MACEDA, PO","FM-12","99999","V020","200,1,N,0010,1","22000,1,9,N","005000,1,N,1","-0018,1","-0023,1","10008,1",,"0,1,03,1","0,1,03,1","00,1,+99999,9,99,9",,,,"00,99,1,00,1,00,1,99999,9,00,1,00,1",,,,,"99999,9,09987,1","8,1,006,1,+999,9","10,1",,,"SYN066AAXX  18091 08544 42950 02001 11018 21023 39987 40008 58006 71000;",
"08544099999","2010-12-18T12:00:00","4","40.9166666","-8.6333333","22.0","OVAR MACEDA, PO","FM-12","99999","V020","999,9,V,0010,1","22000,1,9,N","007000,1,N,1","+0092,1","+0038,1","09999,1",,"0,1,06,1","0,1,06,1","00,1,+99999,9,99,9",,,,"00,99,1,00,1,00,1,99999,9,00,1,00,1",,,,,"99999,9,09979,1","7,1,008,1,+999,9","10,1",,,"SYN082AAXX  18121 08544 31957 09901 10092 20038 39979 49999 57008 71000 555 50004 60007;",
"08544099999","2010-12-18T15:00:00","4","40.9166666","-8.6333333","22.0","OVAR MACEDA, PO","FM-12","99999","V020","360,1,N,0040,1","22000,1,9,N","008000,1,N,1","+0126,1","+0032,1","09974,1",,"0,1,03,1","0,1,03,1","00,1,+99999,9,99,9",,,,"00,99,1,00,1,00,1,99999,9,00,1,00,1",,,,,"99999,9,09954,1","2,1,025,1,+999,9","10,1",,,"SYN066AAXX  18151 08544 41958 03604 10126 20032 39954 49974 52025 71000;",
"08544099999","2010-12-18T18:00:00","4","40.9166666","-8.6333333","22.0","OVAR MACEDA, PO","FM-12","99999","V020","010,1,N,0030,1","22000,1,9,N","008000,1,N,1","+0078,1","+0016,1","09980,1",,"0,1,06,1","0,1,06,1","01,1,+02700,1,03,1",,,,"01,99,1,01,1,00,1,99999,9,03,1,00,1",,,,"120,M,+0128,1","99999,9,09960,1","3,1,006,1,+999,9","10,1",,,"SYN088AAXX  18181 08544 31958 10103 10078 20016 39960 49980 53006 71000 81030 333 10128 81359;",
"08544099999","2010-12-18T21:00:00","4","40.9166666","-8.6333333","22.0","OVAR MACEDA, PO","FM-12","99999","V020","999,9,V,0010,1","22000,1,9,N","008000,1,N,1","+0022,1","+0008,1","09982,1",,"0,1,03,1","0,1,03,1","01,1,+02700,1,03,1",,,,"01,99,1,01,1,00,1,99999,9,03,1,00,1",,,,,"99999,9,09961,1","3,1,001,1,+999,9","10,1",,,"SYN082AAXX  18211 08544 41958 19901 10022 20008 39961 49982 53001 71000 81030 333 81359;",
"08544099999","2010-12-19T00:00:00","4","40.9166666","-8.6333333","22.0","OVAR MACEDA, PO","FM-12","99999","V020","010,1,N,0020,1","22000,1,9,N","007000,1,N,1","+0014,1","+0004,1","09992,1",,"0,1,06,1","0,1,06,1","01,1,+02700,1,03,1",,,,"01,99,1,01,1,00,1,99999,9,03,1,00,1",,,,,"99999,9,09971,1","2,1,010,1,+999,9","10,1",,,"SYN092AAXX  19001 08544 31957 10102 10014 20004 39971 49992 52010 71000 81030 333 81359 555 60007;",
"08544099999","2010-12-19T03:00:00","4","40.9166666","-8.6333333","22.0","OVAR MACEDA, PO","FM-12","99999","V020","999,9,9,9999,9","22000,1,9,N","010000,1,N,1","+0102,1","+0011,1","99999,9",,,,,,,,"01,99,1,99,9,99,9,99999,9,99,9,99,9",,,,,,,,,,"SYN076AAXX  19031 08544 42960 10102 20011 20020 39979 40000 53008 81030 333 81359;",
"08544099999","2010-12-19T06:00:00","4","40.9166666","-8.6333333","22.0","OVAR MACEDA, PO","FM-12","99999","V020","999,9,C,0000,1","22000,1,9,N","010000,1,N,1","+0010,1","+0000,1","10017,1",,,,"00,1,+99999,9,99,9",,,,"00,99,1,00,1,00,1,99999,9,00,1,00,1","0444,9",,,"999,N,+0004,1","99999,9,09996,1","2,1,017,1,+999,9",,,,"SYN092AAXX  19061 08544 32960 00000 10010 20000 39996 40017 52017 333 20004 50134 55074 555 60007;",
"08544099999","2010-12-19T09:00:00","4","40.9166666","-8.6333333","22.0","OVAR MACEDA, PO","FM-12","99999","V020","190,1,N,0020,1","01050,1,9,N","008000,1,N,1","+0010,1","+0000,1","10041,1",,"1,1,03,1","1,1,03,1","06,1,+01050,1,06,1",,,,"06,99,1,06,1,05,1,01250,1,00,1,00,1",,,,,"99999,9,10020,1","2,1,024,1,+999,9","10,1",,,"SYN082AAXX  19091 08544 41658 61902 10010 20000 30020 40041 52024 71011 86500 333 86635;",
"08544099999","2010-12-19T12:00:00","4","40.9166666","-8.6333333","22.0","OVAR MACEDA, PO","FM-12","99999","V020","180,1,N,0040,1","01050,1,9,N","007000,1,N,1","+0080,1","+0047,1","10064,1",,"1,1,06,1","1,1,06,1","02,1,+00600,1,08,1","07,1,+01050,1,06,1",,,"07,99,1,07,1,08,1,00800,1,99,9,99,9",,,,,"99999,9,10043,1","2,1,023,1,+999,9","10,1",,,"SYN104AAXX  19121 08544 31557 71804 10080 20047 30043 40064 52023 71011 878// 333 82820 87635 555 50004 60007;",
"08544099999","2010-12-19T15:00:00","4","40.9166666","-8.6333333","22.0","OVAR MACEDA, PO","FM-12","99999","V020","160,1,N,0040,1","01200,1,C,N","008000,1,N,1","+0102,1","+0071,1","10067,1",,"6,1,03,1","2,1,03,1","02,1,+00600,1,08,1",,,,"06,99,1,06,1,08,1,00800,1,00,1,00,1",,,,,"99999,9,10047,1","1,1,004,1,+999,9","21,1",,,"SYN088AAXX  19151 08544 41558 61604 10102 20071 30047 40067 51004 72162 86800 333 82820 85635;",
"08544099999","2010-12-19T18:00:00","4","40.9166666","-8.6333333","22.0","OVAR MACEDA, PO","FM-12","99999","V020","170,1,N,0040,1","00660,1,9,N","007000,1,N,1","+0090,1","+0074,1","10078,1","12,0000,2,1","6,1,06,1","2,1,06,1","03,1,+00360,1,08,1","06,1,+00660,1,08,1",,,"07,99,1,07,1,08,1,00450,1,99,9,99,9",,,,"120,M,+0104,1","99999,9,10058,1","2,1,011,1,+999,9","02,1",,,"SYN110AAXX  19181 08544 11457 71704 10090 20074 30058 40078 52011 69922 70262 878// 333 10104 83812 86822 555 69917;",
"08544099999","2010-12-19T21:00:00","4","40.9166666","-8.6333333","22.0","OVAR MACEDA, PO","FM-12","99999","V020","170,1,N,0040,1","00900,1,C,N","008000,1,N,1","+0100,1","+0081,1","10088,1",,"8,1,03,1","2,1,03,1","03,1,+00450,1,08,1",,,,"06,99,1,06,1,08,1,00450,1,00,1,00,1",,,,,"99999,9,10067,1","2,1,009,1,+999,9","10,1",,,"SYN088AAXX  19211 08544 41458 61704 10100 20081 30067 40088 52009 71082 86800 333 83815 85825;",
"08544099999","2010-12-20T00:00:00","4","40.9166666","-8.6333333","22.0","OVAR MACEDA, PO","FM-12","99999","V020","180,1,N,0040,1","02100,1,9,N","008000,1,N,1","+0094,1","+0086,1","10096,1","06,0000,9,1","8,1,06,1","6,1,06,1","03,1,+00450,1,08,1","03,1,+02100,1,03,1",,,"06,99,1,04,1,08,1,00450,1,03,1,00,1",,,,,"99999,9,10075,1","1,1,008,1,+999,9","10,1",,,"SYN104AAXX  20001 08544 11458 61804 10094 20086 30075 40096 51008 69921 71086 84830 333 83815 83357 555 60007;","Q01  00002PRCP06"
"08544099999","2010-12-20T03:00:00","4","40.9166666","-8.6333333","22.0","OVAR MACEDA, PO","FM-12","99999","V020","170,1,N,0050,1","00450,1,C,N","007000,1,N,1","+0100,1","+0081,1","10087,1",,"6,1,03,1","2,1,03,1","02,1,+00240,1,07,1","03,1,+00450,1,08,1","06,1,+02100,1,04,1",,"07,99,1,04,1,02,1,00250,1,07,1,99,9",,,,,"99999,9,10067,1","8,1,008,1,+999,9","60,1",,,"SYN100AAXX  20031 08544 41357 71705 10100 20081 30067 40087 58008 76062 8427/ 333 82708 83815 86457 96010;",
"08544099999","2010-12-20T06:00:00","4","40.9166666","-8.6333333","22.0","OVAR MACEDA, PO","FM-12","99999","V020","180,1,N,0050,1","02100,1,9,N","008000,1,N,1","+0104,1","+0081,1","10085,1","12,0020,9,1","6,1,06,1","2,1,06,1","03,1,+00450,1,08,1","06,1,+02100,1,04,1",,,"07,99,1,03,1,02,1,00450,1,07,1,04,1","0018,9",,,"999,N,+0084,1","99999,9,10064,1","8,1,003,1,+999,9","10,1",,,"SYN122AAXX  20061 08544 11458 71805 10104 20081 30064 40085 58003 60022 71062 83274 333 20084 50094 55003 83815 86457 555 69967;",
"08544099999","2010-12-20T09:00:00","4","40.9166666","-8.6333333","22.0","OVAR MACEDA, PO","FM-12","99999","V020","190,1,N,0060,1","06000,1,9,N","010000,1,N,1","+0110,1","+0080,1","10086,1",,"6,1,03,1","2,1,03,1","02,1,+00450,1,08,1","04,1,+00600,1,08,1","06,1,+06000,1,00,1",,"07,99,1,04,1,08,1,00450,1,07,1,04,1",,,,,"99999,9,10066,1","3,1,002,1,+999,9","02,1","0090,5",,"SYN106AAXX  20091 08544 41460 71906 10110 20080 30066 40086 53002 70262 84874 333 82815 84820 86070 91009 91110;",
"08544099999","2010-12-20T12:00:00","4","40.9166666","-8.6333333","22.0","OVAR MACEDA, PO","FM-12","99999","V020","170,1,N,0040,1","00750,1,C,N","010000,1,N,1","+0122,1","+0093,1","10083,1",,,,"02,1,+00540,1,08,1","03,1,+00750,1,08,1","06,1,+06000,1,00,1",,"07,99,1,03,1,08,1,00450,1,03,1,05,1",,,,,"99999,9,10062,1","8,1,004,1,+999,9",,,,"SYN104AAXX  20121 08544 32460 71704 10122 20093 30062 40083 58004 83835 333 82818 83825 86070 555 50024 60007;",
"08544099999","2010-12-20T15:00:00","4","40.9166666","-8.6333333","22.0","OVAR MACEDA, PO","FM-12","99999","V020","160,1,N,0030,1","00900,1,C,N","010000,1,N,1","+0136,1","+0096,1","10049,1",,,,"02,1,+00480,1,08,1","03,1,+00900,1,08,1",,,"08,99,1,03,1,08,1,00450,1,07,1,01,1",,,,,"99999,9,10029,1","7,1,033,1,+999,9",,,,"SYN088AAXX  20151 08544 42460 81603 10136 20096 30029 40049 57033 83871 333 82816 83830 86357;",
"08544099999","2010-12-20T18:00:00","4","40.9166666","-8.6333333","22.0","OVAR MACEDA, PO","FM-12","99999","V020","150,1,N,0010,1","02100,1,9,N","007000,1,N,1","+0134,1","+0086,1","10020,1","12,9999,9,9","6,1,06,1","2,1,06,1","01,1,+00480,1,08,1","04,1,+00750,1,08,1","07,1,+02100,1,04,1",,"08,99,1,04,1,08,1,00450,1,07,1,99,9",,,,"120,M,+0138,1","99999,9,09999,1","7,1,020,1,+999,9","61,1",,,"SYN116AAXX  20181 08544 11457 81501 10134 20086 39999 40020 57020 69912 76162 8487/ 333 10138 81816 84825 87457 555 69917;","Q01  00002PRCP12Q02  00002PRCP12"
"08544099999","2010-12-20T21:00:00","4","40.9166666","-8.6333333","22.0","OVAR MACEDA, PO","FM-12","99999","V020","040,1,N,0020,1","03600,1,C,N","007000,1,N,1","+0108,1","+0100,1","09983,1",,"6,1,03,1","6,1,03,1","04,1,+00750,1,08,1",,,,"08,99,1,04,1,02,1,00800,1,07,1,99,9",,,,,"99999,9,09963,1","7,1,036,1,+999,9","61,1",,,"SYN088AAXX  20211 08544 41557 80402 10108 20100 39963 49983 57036 76166 8427/ 333 84825 87457;",
"08544099999","2010-12-21T00:00:00","4","40.9166666","-8.6333333","22.0","OVAR MACEDA, PO","FM-12","99999","V020","060,1,N,0010,1","00600,1,9,N","005000,1,N,1","+0104,1","+0100,1","09962,1","06,0061,9,1","6,1,06,1","2,1,06,1","03,1,+00540,1,08,1","05,1,+00600,1,08,1","06,1,+02100,1,04,1",,"08,99,1,06,1,08,1,00450,1,07,1,99,9",,,,,"99999,9,09942,1","7,1,021,1,+999,9","60,1",,,"SYN110AAXX  21001 08544 11450 80601 10104 20100 39942 49962 57021 60061 76062 8687/ 333 83818 85820 86457 555 69997;",
"08544099999","2010-12-21T03:00:00","4","40.9166666","-8.6333333","22.0","OVAR MACEDA, PO","FM-12","99999","V020","040,1,N,0010,1","00420,1,C,N","005000,1,N,1","+0110,1","+0106,1","09934,1",,"6,1,03,1","2,1,03,1","03,1,+00240,1,07,1",,,,"08,99,1,06,1,02,1,00450,1,07,1,99,9",,,,,"99999,9,09914,1","7,1,028,1,+999,9","21,1",,,"SYN088AAXX  21031 08544 41450 80401 10110 20106 39914 49934 57028 72162 8627/ 333 83708 58520;",
"08544099999","2010-12-21T06:00:00","4","40.9166666","-8.6333333","22.0","OVAR MACEDA, PO","FM-12","99999","V020","170,1,N,0030,1","00600,1,9,N","010000,1,N,1","+0130,1","+0120,1","09925,1","12,0071,9,1","8,1,06,1","6,1,06,1","03,1,+00360,1,08,1","06,1,+00600,1,08,1",,,"07,99,1,07,1,08,1,00450,1,99,9,99,9","0006,9",,,"999,N,+0104,1","99999,9,09905,1","7,1,009,1,+999,9","25,1",,,"SYN122AAXX  21061 08544 11460 71703 10130 20120 39905 49925 57009 60072 72586 878// 333 20104 50134 55001 83812 86820 555 69977;",
"08544099999","2010-12-21T09:00:00","4","40.9166666","-8.6333333","22.0","OVAR MACEDA, PO","FM-12","99999","V020","180,1,N,0060,1","00900,1,C,N","010000,1,N,1","+0136,1","+0122,1","09923,1",,,,"03,1,+00360,1,08,1",,,,"07,99,1,07,1,08,1,00450,1,99,9,99,9",,,,,"99999,9,09903,1","6,1,002,1,+999,9",,,,"SYN082AAXX  21091 08544 42460 71806 10136 20122 39903 49923 56002 878// 333 83812 86820;",
"08544099999","2010-12-21T12:00:00","4","40.9166666","-8.6333333","22.0","OVAR MACEDA, PO","FM-12","99999","V020","210,1,N,0060,1","00360,1,9,N","010000,1,N,1","+0142,1","+0128,1","09933,1",,,,"02,1,+00270,1,07,1","03,1,+00360,1,08,1","07,1,+00750,1,06,1",,"08,99,1,08,1,08,1,00250,1,99,9,99,9",,,,,"99999,9,09913,1","0,1,010,1,+999,9",,"0080,5","4,99,0100,9,999","SYN116AAXX  21121 08544 32360 82106 10142 20128 39913 49933 50010 888// 333 82709 83812 87625 91008 91110 555 50074 60007;",
"08544099999","2010-12-21T15:00:00","4","40.9166666","-8.6333333","22.0","OVAR MACEDA, PO","FM-12","99999","V020","220,1,N,0030,1","00450,1,9,N","010000,1,N,1","+0136,1","+0122,1","09929,1",,,,"02,1,+00180,1,07,1","03,1,+00450,1,08,1",,,"08,99,1,08,1,08,1,00150,1,99,9,99,9",,,,,"99999,9,09909,1","7,1,004,1,+999,9",,,,"SYN088AAXX  21151 08544 42260 82203 10136 20122 39909 49929 57004 888// 333 82706 83815 87620;",
"08544099999","2010-12-21T18:00:00","4","40.9166666","-8.6333333","22.0","OVAR MACEDA, PO","FM-12","99999","V020","180,1,N,0030,1","00600,1,9,N","010000,1,N,1","+0132,1","+0118,1","09928,1",,,,"03,1,+00180,1,07,1","05,1,+00600,1,06,1","05,1,+02700,1,03,1",,"08,99,1,06,1,08,1,00150,1,03,1,99,9",,,,"120,M,+0142,1","99999,9,09908,1","8,1,001,1,+999,9",,,,"SYN104AAXX  21181 08544 32260 81803 10132 20118 39908 49928 58001 8683/ 333 10142 83706 85620 85359 555 60007;",
"08544099999","2010-12-21T21:00:00","4","40.9166666","-8.6333333","22.0","OVAR MACEDA, PO","FM-12","99999","V020","130,1,N,0020,1","00600,1,C,N","010000,1,N,1","+0130,1","+0119,1","09908,1",,"8,1,03,1","2,1,03,1","01,1,+00240,1,07,1","03,1,+00450,1,08,1",,,"07,99,1,06,1,08,1,00250,1,07,1,99,9",,,,,"99999,9,09888,1","7,1,020,1,+999,9","25,1",,,"SYN094AAXX  21211 08544 41360 71302 10130 20119 39888 49908 57020 72582 8687/ 333 81708 83815 85630;",
"08544099999","2010-12-22T00:00:00","4","40.9166666","-8.6333333","22.0","OVAR MACEDA, PO","FM-12","99999","V020","170,1,N,0040,1","00900,1,9,N","010000,1,N,1","+0130,1","+0120,1","09897,1","06,0030,9,1","8,1,06,1","6,1,06,1","03,1,+00450,1,08,1","07,1,+00900,1,06,1",,,"08,99,1,08,1,08,1,00450,1,99,9,99,9",,,,,"99999,9,09877,1","7,1,011,1,+999,9","21,1",,,"SYN104AAXX  22001 08544 11460 81704 10130 20120 39877 49897 57011 60031 72186 888// 333 83815 87630 555 60027;",
"08544099999","2010-12-22T03:00:00","4","40.9166666","-8.6333333","22.0","OVAR MACEDA, PO","FM-12","99999","V020","180,1,N,0030,1","00900,1,9,N","008000,1,N,1","+0124,1","+0114,1","09870,1",,"6,1,03,1","2,1,03,1","04,1,+00450,1,08,1",,,,"08,99,1,08,1,08,1,00450,1,99,9,99,9",,,,,"99999,9,09870,1","6,1,007,1,+999,9","61,1",,,"SYN088AAXX  22031 08544 41458 81803 10124 20114 39870 49870 56007 76162 888// 333 84815 87630;",
"08544099999","2010-12-22T06:00:00","4","40.9166666","-8.6333333","22.0","OVAR MACEDA, PO","FM-12","99999","V020","170,1,N,0030,1","00540,1,9,N","010000,1,N,1","+0116,1","+0098,1","09881,1","12,0061,9,1","6,1,06,1","2,1,06,1","05,1,+00540,1,08,1","04,1,+02400,1,03,1",,,"07,99,1,06,1,08,1,00450,1,03,1,01,1","0000,9",,,"999,N,+0116,1","99999,9,09861,1","7,1,009,1,+999,9","01,1",,,"SYN122AAXX  22061 08544 11460 71703 10116 20098 39861 49881 57009 60062 70162 86831 333 20116 50104 55000 85818 84358 555 60017;",
"08544099999","2010-12-22T09:00:00","4","40.9166666","-8.6333333","22.0","OVAR MACEDA, PO","FM-12","99999","V020","160,1,N,0020,1","09000,1,9,N","010000,1,N,1","+0116,1","+0090,1","09885,1",,,,"01,1,+00450,1,08,1",,,,"05,99,1,02,1,08,1,00450,1,03,1,04,1",,,,,"99999,9,09865,1","4,1,000,1,+999,9",,,,"SYN082AAXX  22091 08544 42460 51602 10116 20090 39865 49885 54004 82834 333 81815 83359;",
"08544099999","2010-12-22T12:00:00","4","40.9166666","-8.6333333","22.0","OVAR MACEDA, PO","FM-12","99999","V020","170,1,N,0030,1","03600,1,C,N","010000,1,N,1","+0152,1","+0107,1","09890,1",,,,"01,1,+00540,1,08,1","01,1,+00600,1,09,1","03,1,+06600,1,00,1",,"05,99,1,03,1,09,1,00450,1,03,1,01,1",,,,,"99999,9,09870,1","2,1,005,1,+999,9",,,,"SYN104AAXX  22121 08544 32460 51703 10152 20107 39870 49890 52005 83931 333 81818 81920 83072 555 50064 60007;",
"08544099999","2010-12-22T15:00:00","4","40.9166666","-8.6333333","22.0","OVAR MACEDA, PO","FM-12","99999","V020","260,1,N,0020,1","03600,1,C,N","010000,1,N,1","+0156,1","+0111,1","09886,1",,,,"03,1,+00450,1,08,1","01,1,+00600,1,09,1",,,"06,99,1,03,1,09,1,00450,1,03,1,01,1",,,,,"99999,9,09866,1","5,1,004,1,+999,9",,,,"SYN088AAXX  22151 08544 42460 62602 10156 20111 39866 49886 55004 83931 333 83815 81920 83070;",
"08544099999","2010-12-22T18:00:00","4","40.9166666","-8.6333333","22.0","OVAR MACEDA, PO","FM-12","99999","V020","340,1,N,0030,1","00750,1,9,N","010000,1,N,1","+0132,1","+0111,1","09911,1",,,,"02,1,+00450,1,08,1","01,1,+00600,1,09,1","04,1,+00750,1,06,1",,"06,99,1,05,1,03,1,00450,1,03,1,01,1",,,,"120,M,+0166,1","99999,9,09891,1","2,1,025,1,+999,9",,,,"SYN104AAXX  22181 08544 32460 63403 10132 20111 39891 49911 52025 85331 333 10166 82815 81920 84625 555 60007;",
"08544099999","2010-12-22T21:00:00","4","40.9166666","-8.6333333","22.0","OVAR MACEDA, PO","FM-12","99999","V020","999,9,V,0010,1","00900,1,9,N","010000,1,N,1","+0110,1","+0102,1","09933,1",,,,"02,1,+00450,1,08,1",,,,"07,99,1,07,1,08,1,00450,1,99,9,99,9",,,,,"99999,9,09913,1","2,1,022,1,+999,9",,,,"SYN082AAXX  22211 08544 42460 79901 10110 20102 39913 49933 52022 878// 333 82815 86630;",
"08544099999","2010-12-23T00:00:00","4","40.9166666","-8.6333333","22.0","OVAR MACEDA, PO","FM-12","99999","V020","360,1,N,0110,1","00750,1,9,N","010000,1,N,1","+0096,1","+0073,1","09968,1","06,0020,9,1","8,1,06,1","2,1,06,1","01,1,+00240,1,07,1","03,1,+00450,1,08,1","06,1,+00750,1,06,1",,"07,99,1,07,1,08,1,00250,1,99,9,99,9",,,,,"99999,9,09948,1","2,1,035,1,+999,9","80,1",,"4,99,0160,9,999","SYN116AAXX  23001 08544 11360 73611 10096 20073 39948 49968 52035 60021 78082 878// 333 81708 83815 86625 91116 555 60027;",
"08544099999","2010-12-23T03:00:00","4","40.9166666","-8.6333333","22.0","OVAR MACEDA, PO","FM-12","99999","V020","360,1,N,0120,1","00750,1,9,N","010000,1,N,1","+0096,1","+0060,1","10012,1",,"8,1,03,1","2,1,03,1","03,1,+00450,1,08,1","05,1,+00750,1,06,1",,,"06,99,1,05,1,08,1,00450,1,03,1,00,1",,,,,"99999,9,09991,1","2,1,043,1,+999,9","02,1","0200,5",,"SYN122AAXX  23031 08544 41460 63612 10096 20060 39991 40012 52043 70282 85830 333 83815 85625 91020 91120 555 69947 90400 91212;",
"08544099999","2010-12-23T06:00:00","4","40.9166666","-8.6333333","22.0","OVAR MACEDA, PO","FM-12","99999","V020","010,1,N,0090,1","22000,1,9,N","010000,1,N,1","+0078,1","+0031,1","10045,1","12,0020,9,1","8,1,06,1","2,1,06,1","01,1,+00450,1,08,1","03,1,+00750,1,06,1",,,"03,99,1,03,1,08,1,00450,1,00,1,00,1","0342,9",,,"999,N,+0076,1","99999,9,10024,1","2,1,033,1,+999,9","01,1","0140,5","4,99,0170,9,999","SYN146AAXX  23061 08544 11460 30109 10078 20031 30024 40045 52033 60022 70182 83800 333 20076 50234 55057 81815 83625 91014 91117 555 60007 90420 91214;",
"08544099999","2010-12-23T09:00:00","4","40.9166666","-8.6333333","22.0","OVAR MACEDA, PO","FM-12","99999","V020","020,1,N,0060,1","22000,1,9,N","010000,1,N,1","+0078,1","+0036,1","10080,1",,,,"01,1,+00450,1,08,1",,,,"03,99,1,03,1,08,1,00450,1,03,1,00,1",,,,,"99999,9,10059,1","2,1,035,1,+999,9",,,,"SYN082AAXX  23091 08544 42460 30206 10078 20036 30059 40080 52035 83830 333 81815 83630;",
"08544099999","2010-12-23T12:00:00","4","40.9166666","-8.6333333","22.0","OVAR MACEDA, PO","FM-12","99999","V020","360,1,N,0070,1","22000,1,9,N","010000,1,N,1","+0100,1","+0047,1","10111,1",,,,"01,1,+00450,1,08,1",,,,"03,99,1,03,1,08,1,00450,1,00,1,00,1",,,,,"99999,9,10090,1","2,1,031,1,+999,9",,"0110,5","4,99,0120,9,999","SYN104AAXX  23121 08544 32460 33607 10100 20047 30090 40111 52031 83800 333 81815 91011 91112 555 50024 60007;",
"08544099999","2010-12-23T15:00:00","4","40.9166666","-8.6333333","22.0","OVAR MACEDA, PO","FM-12","99999","V020","340,1,N,0060,1","00750,1,9,N","010000,1,N,1","+0092,1","+0056,1","10119,1",,,,"02,1,+00450,1,08,1","03,1,+00750,1,06,1",,,"05,99,1,05,1,08,1,00450,1,00,1,00,1",,,,,"99999,9,10098,1","2,1,008,1,+999,9",,"0120,5",,"SYN094AAXX  23151 08544 42460 53406 10092 20056 30098 40119 52008 85800 333 82815 83625 91012 91115;",
"08544099999","2010-12-23T18:00:00","4","40.9166666","-8.6333333","22.0","OVAR MACEDA, PO","FM-12","99999","V020","020,1,N,0090,1","22000,1,9,N","010000,1,N,1","+0088,1","+0033,1","10146,1",,,,"02,1,+00450,1,08,1",,,,"03,99,1,03,1,08,1,00450,1,00,1,00,1",,,,"120,M,+0112,1","99999,9,10125,1","2,1,027,1,+999,9",,,"4,99,0150,9,999","SYN098AAXX  23181 08544 32460 30209 10088 20033 30125 40146 52027 83800 333 10112 82815 91115 555 60007;",
"08544099999","2010-12-23T21:00:00","4","40.9166666","-8.6333333","22.0","OVAR MACEDA, PO","FM-12","99999","V020","360,1,N,0030,1","22000,1,9,N","010000,1,N,1","+0066,1","+0026,1","10164,1",,,,"00,1,+99999,9,99,9",,,,"00,99,1,00,1,00,1,99999,9,00,1,00,1",,,,,"99999,9,10143,1","2,1,018,1,+999,9",,,,"SYN060AAXX  23211 08544 42960 03603 10066 20026 30143 40164 52018;",
"08544099999","2010-12-24T00:00:00","4","40.9166666","-8.6333333","22.0","OVAR MACEDA, PO","FM-12","99999","V020","999,9,C,0000,1","22000,1,9,N","010000,1,N,1","+0026,1","+0017,1","10185,1",,,,"01,1,+06000,1,00,1",,,,"01,99,1,00,1,00,1,99999,9,00,1,01,1",,,,,"99999,9,10164,1","2,1,021,1,+999,9",,,,"SYN076AAXX  24001 08544 32960 10000 10026 20017 30164 40185 52021 80001 333 81070;",
"08544099999","2010-12-24T03:00:00","4","40.9166666","-8.6333333","22.0","OVAR MACEDA, PO","FM-12","99999","V020","040,1,N,0020,1","22000,1,9,N","010000,1,N,1","+0008,1","-0002,1","10189,1",,,,"04,1,+06000,1,00,1",,,,"04,99,1,00,1,00,1,99999,9,00,1,04,1",,,,,"99999,9,10167,1","3,1,003,1,+999,9",,,,"SYN076AAXX  24031 08544 42960 40402 10008 21002 30167 40189 53003 80004 333 84070;",
"08544099999","2010-12-24T06:00:00","4","40.9166666","-8.6333333","22.0","OVAR MACEDA, PO","FM-12","99999","V020","999,9,V,0010,1","22000,1,9,N","010000,1,N,1","-0002,1","-0007,1","10189,1",,,,"02,1,+00660,1,06,1",,,,"03,99,1,02,1,05,1,00800,1,00,1,01,1","0378,9",,,"999,N,-0002,1","99999,9,10168,1","3,1,001,1,+999,9",,,,"SYN104AAXX  24061 08544 32560 39901 11002 21007 30168 40189 53001 82501 333 21002 50304 55063 82622 555 60007;",
"08544099999","2010-12-24T09:00:00","4","40.9166666","-8.6333333","22.0","OVAR MACEDA, PO","FM-12","99999","V020","999,9,V,0010,1","22000,1,9,N","008000,1,N,1","-0004,1","-0009,1","10196,1",,"0,1,03,1","0,1,03,1","01,1,+06000,1,00,1",,,,"01,99,1,00,1,00,1,99999,9,00,1,01,1",,,,,"99999,9,10174,1","2,1,006,1,+999,9","10,1",,,"SYN082AAXX  24091 08544 42958 19901 11004 21009 30174 40196 52006 71000 80001 333 81070;",
"08544099999","2010-12-24T12:00:00","4","40.9166666","-8.6333333","22.0","OVAR MACEDA, PO","FM-12","99999","V020","999,9,V,0010,1","22000,1,9,N","010000,1,N,1","+0090,1","+0030,1","10192,1",,,,"01,1,+02400,1,03,1","03,1,+06000,1,00,1",,,"03,99,1,01,1,00,1,02250,1,03,1,04,1",,,,,"99999,9,10171,1","8,1,003,1,+999,9",,,,"SYN098AAXX  24121 08544 32860 39901 10090 20030 30171 40192 58003 81034 333 81358 83070 555 50004 60007;",
"08544099999","2010-12-24T15:00:00","4","40.9166666","-8.6333333","22.0","OVAR MACEDA, PO","FM-12","99999","V020","290,1,N,0020,1","22000,1,C,N","010000,1,N,1","+0098,1","+0035,1","10171,1",,,,"01,1,+02400,1,03,1",,,,"06,99,1,01,1,00,1,02250,1,03,1,04,1",,,,,"99999,9,10150,1","7,1,021,1,+999,9",,,,"SYN082AAXX  24151 08544 42860 62902 10098 20035 30150 40171 57021 81034 333 81358 85070;",
"08544099999","2010-12-24T18:00:00","4","40.9166666","-8.6333333","22.0","OVAR MACEDA, PO","FM-12","99999","V020","999,9,V,0010,1","02400,1,9,N","010000,1,N,1","+0064,1","+0047,1","10166,1",,,,"01,1,+01200,1,06,1","05,1,+02400,1,04,1",,,"07,99,1,01,1,05,1,01250,1,07,1,01,1",,,,"120,M,+0106,1","99999,9,10145,1","7,1,005,1,+999,9",,,,"SYN098AAXX  24181 08544 32660 79901 10064 20047 30145 40166 57005 81571 333 10106 81640 85458 555 60007;",
"08544099999","2010-12-24T21:00:00","4","40.9166666","-8.6333333","22.0","OVAR MACEDA, PO","FM-12","99999","V020","999,9,C,0000,1","03600,1,C,N","010000,1,N,1","+0050,1","+0037,1","10164,1",,,,"02,1,+01200,1,06,1",,,,"07,99,1,02,1,05,1,01250,1,07,1,99,9",,,,,"99999,9,10142,1","7,1,003,1,+999,9",,,,"SYN082AAXX  24211 08544 42660 70000 10050 20037 30142 40164 57003 8257/ 333 82640 86358;",
"08544099999","2010-12-25T00:00:00","4","40.9166666","-8.6333333","22.0","OVAR MACEDA, PO","FM-12","99999","V020","999,9,V,0010,1","02400,1,9,N","010000,1,N,1","+0050,1","+0037,1","10156,1",,,,"03,1,+01200,1,06,1","05,1,+02400,1,04,1",,,"07,99,1,03,1,05,1,01250,1,07,1,99,9",,,,,"99999,9,10135,1","7,1,007,1,+999,9",,,,"SYN092AAXX  25001 08544 32660 79901 10050 20037 30135 40156 57007 8357/ 333 83640 85458 555 60007;",
"08544099999","2010-12-25T03:00:00","4","40.9166666","-8.6333333","22.0","OVAR MACEDA, PO","FM-12","99999","V020","999,9,V,0010,1","03600,1,C,N","010000,1,N,1","+0066,1","+0016,1","10145,1",,"6,1,03,1","2,1,03,1","04,1,+01200,1,06,1",,,,"07,99,1,04,1,05,1,01250,1,07,1,99,9",,,,,"99999,9,10124,1","7,1,011,1,+999,9","21,1",,,"SYN088AAXX  25031 08544 41660 79901 10066 20016 30124 40145 57011 72162 8457/ 333 84640 85458;",
"08544099999","2010-12-25T06:00:00","4","40.9166666","-8.6333333","22.0","OVAR MACEDA, PO","FM-12","99999","V020","100,1,N,0020,1","02400,1,9,N","010000,1,N,1","+0080,1","+0007,1","10137,1","12,0000,2,1","6,1,06,1","2,1,06,1","03,1,+01200,1,06,1","05,1,+02400,1,04,1",,,"07,99,1,03,1,05,1,01250,1,07,1,99,9","0288,9",,,"999,N,+0050,1","99999,9,10116,1","7,1,008,1,+999,9","03,1",,,"SYN122AAXX  25061 08544 11660 71002 10080 20007 30116 40137 57008 69912 70362 8357/ 333 20050 50124 55048 83640 85458 555 60007;",
"08544099999","2010-12-25T09:00:00","4","40.9166666","-8.6333333","22.0","OVAR MACEDA, PO","FM-12","99999","V020","999,9,V,0010,1","03600,1,C,N","010000,1,N,1","+0076,1","+0018,1","10157,1",,,,"03,1,+01200,1,06,1",,,,"05,99,1,03,1,05,1,01250,1,03,1,01,1",,,,,"99999,9,10136,1","2,1,020,1,+999,9",,,,"SYN082AAXX  25091 08544 42660 59901 10076 20018 30136 40157 52020 83531 333 83640 83358;",
"08544099999","2010-12-25T12:00:00","4","40.9166666","-8.6333333","22.0","OVAR MACEDA, PO","FM-12","99999","V020","160,1,N,0020,1","22000,1,9,N","010000,1,N,1","+0128,1","+0038,1","10170,1",,,,"02,1,+02700,1,03,1",,,,"02,99,1,02,1,00,1,99999,9,03,1,00,1",,,,,"99999,9,10149,1","0,1,013,1,+999,9",,,,"SYN092AAXX  25121 08544 32960 21602 10128 20038 30149 40170 50013 82030 333 82359 555 59974 60007;",
"08544099999","2010-12-25T15:00:00","4","40.9166666","-8.6333333","22.0","OVAR MACEDA, PO","FM-12","99999","V020","300,1,N,0030,1","22000,1,9,N","010000,1,N,1","+0138,1","+0046,1","10169,1",,,,"01,1,+02700,1,03,1",,,,"01,99,1,01,1,00,1,99999,9,03,1,00,1",,,,,"99999,9,10149,1","5,1,000,1,+999,9",,,,"SYN076AAXX  25151 08544 42960 13003 10138 20046 30149 40169 55000 81030 333 81359;",
"08544099999","2010-12-25T18:00:00","4","40.9166666","-8.6333333","22.0","OVAR MACEDA, PO","FM-12","99999","V020","090,1,N,0040,1","22000,1,9,N","010000,1,N,1","+0090,1","+0034,1","10179,1",,,,"00,1,+99999,9,99,9",,,,"00,99,1,00,1,00,1,99999,9,00,1,00,1",,,,"120,M,+0152,1","99999,9,10158,1","1,1,009,1,+999,9",,,,"SYN080AAXX  25181 08544 32960 00904 10090 20034 30158 40179 51009 333 10152 555 60007;",
"08544099999","2010-12-25T21:00:00","4","40.9166666","-8.6333333","22.0","OVAR MACEDA, PO","FM-12","99999","V020","100,1,N,0020,1","22000,1,9,N","010000,1,N,1","+0042,1","+0009,1","10200,1",,,,"00,1,+99999,9,99,9",,,,"00,99,1,00,1,00,1,99999,9,00,1,00,1",,,,,"99999,9,10179,1","2,1,021,1,+999,9",,,,"SYN060AAXX  25211 08544 42960 01002 10042 20009 30179 40200 52021;",
"08544099999","2010-12-26T00:00:00","4","40.9166666","-8.6333333","22.0","OVAR MACEDA, PO","FM-12","99999","V020","100,1,N,0010,1","22000,1,9,N","010000,1,N,1","+0042,1","-0002,1","10209,1",,,,"00,1,+99999,9,99,9",,,,"00,99,1,00,1,00,1,99999,9,00,1,00,1",,,,,"99999,9,10188,1","1,1,009,1,+999,9",,,,"SYN070AAXX  26001 08544 32960 01001 10042 21002 30188 40209 51009 555 60007;",
"08544099999","2010-12-26T03:00:00","4","40.9166666","-8.6333333","22.0","OVAR MACEDA, PO","FM-12","99999","V020","210,1,N,0010,1","22000,1,9,N","010000,1,N,1","+0032,1","-0013,1","10210,1",,,,"00,1,+99999,9,99,9",,,,"00,99,1,00,1,00,1,99999,9,00,1,00,1",,,,,"99999,9,10189,1","3,1,001,1,+999,9",,,,"SYN060AAXX  26031 08544 42960 02101 10032 21013 30189 40210 53001;",
"08544099999","2010-12-26T06:00:00","4","40.9166666","-8.6333333","22.0","OVAR MACEDA, PO","FM-12","99999","V020","070,1,N,0020,1","22000,1,9,N","010000,1,N,1","+0016,1","-0021,1","10219,1",,,,"00,1,+99999,9,99,9",,,,"00,99,1,00,1,00,1,99999,9,00,1,00,1","0456,9",,,"999,N,-0010,1","99999,9,10198,1","3,1,009,1,+999,9",,,,"SYN091AAXX  26061 08544 32960 00702 10016 21021 30198 40219 53009 333 21010 5033 55076 555 60007;",
"08544099999","2010-12-26T09:00:00","4","40.9166666","-8.6333333","22.0","OVAR MACEDA, PO","FM-12","99999","V020","060,1,N,0010,1","22000,1,9,N","010000,1,N,1","+0032,1","-0038,1","10225,1",,,,"03,1,+06000,1,00,1",,,,"03,99,1,00,1,00,1,99999,9,00,1,04,1",,,,,"99999,9,10204,1","0,1,006,1,+999,9",,,,"SYN104AAXX  26091 08544 42960 30601 10032 21038 30204 40225 50006 80004 333 83070 555 31010 40/// 50004 60007;",
"08544099999","2010-12-26T12:00:00","4","40.9166666","-8.6333333","22.0","OVAR MACEDA, PO","FM-12","99999","V020","999,9,V,0010,1","06000,1,9,N","010000,1,N,1","+0082,1","-0008,1","10222,1",,,,"02,1,+02400,1,03,1","06,1,+06000,1,00,1",,,"06,99,1,02,1,00,1,02250,1,03,1,01,1",,,,,"99999,9,10201,1","6,1,003,1,+999,9",,,,"SYN098AAXX  26121 08544 32860 69901 10082 21008 30201 40222 56003 82031 333 82358 86070 555 50004 60007;",
"08544099999","2010-12-26T15:00:00","4","40.9166666","-8.6333333","22.0","OVAR MACEDA, PO","FM-12","99999","V020","999,9,C,0000,1","06000,1,9,N","010000,1,N,1","+0098,1","+0019,1","10214,1",,,,"05,1,+06000,1,00,1",,,,"05,99,1,00,1,00,1,99999,9,00,1,01,1",,,,,"99999,9,10193,1","5,1,009,1,+999,9",,,,"SYN076AAXX  26151 08544 42960 50000 10098 20019 30193 40214 55009 80001 333 85070;",
"08544099999","2010-12-26T18:00:00","4","40.9166666","-8.6333333","22.0","OVAR MACEDA, PO","FM-12","99999","V020","999,9,C,0000,1","06000,1,9,N","010000,1,N,1","+0054,1","+0023,1","10201,1",,,,"05,1,+06000,1,00,1",,,,"05,99,1,00,1,00,1,99999,9,00,1,01,1",,,,"120,M,+0110,1","99999,9,10180,1","5,1,013,1,+999,9",,,,"SYN092AAXX  26181 08544 32960 50000 10054 20023 30180 40201 55013 80001 333 10110 85070 555 60007;",
"08544099999","2010-12-26T21:00:00","4","40.9166666","-8.6333333","22.0","OVAR MACEDA, PO","FM-12","99999","V020","999,9,V,0010,1","06000,1,9,N","010000,1,N,1","+0022,1","+0004,1","10201,1",,,,"06,1,+06000,1,00,1",,,,"06,99,1,00,1,00,1,99999,9,00,1,01,1",,,,,"99999,9,10179,1","8,1,001,1,+999,9",,,,"SYN076AAXX  26211 08544 42960 69901 10022 20004 30179 40201 58001 80001 333 86070;",
"08544099999","2010-12-27T00:00:00","4","40.9166666","-8.6333333","22.0","OVAR MACEDA, PO","FM-12","99999","V020","160,1,N,0020,1","06000,1,9,N","010000,1,N,1","+0000,1","-0010,1","10194,1",,,,"06,1,+06000,1,00,1",,,,"06,99,1,00,1,00,1,99999,9,00,1,01,1",,,,,"99999,9,10172,1","7,1,007,1,+999,9",,,,"SYN086AAXX  27001 08544 32960 61602 10000 21010 30172 40194 57007 80001 333 86070 555 60007;",
"08544099999","2010-12-27T03:00:00","4","40.9166666","-8.6333333","22.0","OVAR MACEDA, PO","FM-12","99999","V020","180,1,N,0020,1","22000,1,9,N","010000,1,N,1","-0004,1","-0009,1","10183,1",,,,"04,1,+06000,1,00,1",,,,"04,99,1,00,1,00,1,99999,9,00,1,01,1",,,,,"99999,9,10161,1","8,1,011,1,+999,9",,,,"SYN076AAXX  27031 08544 42960 41802 11004 21009 30161 40183 58011 80001 333 84070;",
"08544099999","2010-12-27T06:00:00","4","40.9166666","-8.6333333","22.0","OVAR MACEDA, PO","FM-12","99999","V020","170,1,N,0020,1","22000,1,9,N","010000,1,N,1","+0058,1","-0022,1","10167,1",,,,"03,1,+02400,1,03,1","03,1,+06000,1,00,1",,,"04,99,1,03,1,00,1,02250,1,03,1,01,1","0438,9",,,"999,N,-0006,1","99999,9,10146,1","7,1,015,1,+999,9",,,,"SYN110AAXX  27061 08544 32860 41702 10058 21022 30146 40167 57015 83031 333 21006 50184 55073 83358 83070 555 60007;",
"08544099999","2010-12-27T09:00:00","4","40.9166666","-8.6333333","22.0","OVAR MACEDA, PO","FM-12","99999","V020","170,1,N,0050,1","00900,1,9,N","010000,1,N,1","+0110,1","+0040,1","10170,1",,,,"03,1,+00660,1,08,1","05,1,+00900,1,08,1","06,1,+02400,1,04,1",,"08,99,1,06,1,08,1,00800,1,07,1,99,9",,,,,"99999,9,10150,1","2,1,004,1,+999,9",,"0100,5",,"SYN100AAXX  27091 08544 42560 81705 10110 20040 30150 40170 52004 8687/ 333 83822 85830 86458 91010 91110;",
"08544099999","2010-12-27T12:00:00","4","40.9166666","-8.6333333","22.0","OVAR MACEDA, PO","FM-12","99999","V020","170,1,N,0060,1","00900,1,9,N","010000,1,N,1","+0126,1","+0068,1","10176,1",,,,"02,1,+00750,1,08,1","05,1,+00900,1,06,1","06,1,+02400,1,04,1",,"08,99,1,05,1,08,1,00800,1,07,1,99,9",,,,,"99999,9,10156,1","0,1,006,1,+999,9",,"0110,5","4,99,0130,9,999","SYN116AAXX  27121 08544 32560 81706 10126 20068 30156 40176 50006 8587/ 333 82825 85630 86458 91011 91113 555 50004 60007;",
"08544099999","2010-12-27T15:00:00","4","40.9166666","-8.6333333","22.0","OVAR MACEDA, PO","FM-12","99999","V020","170,1,N,0060,1","00900,1,9,N","008000,1,N,1","+0118,1","+0088,1","10156,1",,"6,1,03,1","2,1,03,1","02,1,+00600,1,08,1","05,1,+00900,1,06,1","07,1,+02400,1,04,1",,"08,99,1,05,1,08,1,00800,1,07,1,99,9",,,,,"99999,9,10135,1","7,1,021,1,+999,9","61,1",,,"SYN100AAXX  27151 08544 41558 81706 10118 20088 30135 40156 57021 76162 8587/ 333 82820 85630 87458 91111;",
"08544099999","2010-12-27T18:00:00","4","40.9166666","-8.6333333","22.0","OVAR MACEDA, PO","FM-12","99999","V020","170,1,N,0060,1","00750,1,9,N","010000,1,N,1","+0122,1","+0081,1","10162,1","12,0020,9,1","6,1,06,1","2,1,06,1","02,1,+00600,1,08,1","05,1,+00750,1,06,1","06,1,+02400,1,04,1",,"08,99,1,05,1,08,1,00800,1,07,1,99,9",,,,"120,M,+0126,1","99999,9,10142,1","0,1,007,1,+999,9","02,1","0090,5","4,99,0120,9,999","SYN128AAXX  27181 08544 11560 81706 10122 20081 30142 40162 50007 60022 70262 8587/ 333 10126 82820 85625 86458 91009 91112 555 69947;",
"08544099999","2010-12-27T21:00:00","4","40.9166666","-8.6333333","22.0","OVAR MACEDA, PO","FM-12","99999","V020","180,1,N,0070,1","00750,1,9,N","010000,1,N,1","+0134,1","+0086,1","10165,1",,,,"05,1,+00750,1,06,1","07,1,+02400,1,04,1",,,"08,99,1,05,1,05,1,00800,1,07,1,99,9",,,,,"99999,9,10145,1","0,1,003,1,+999,9",,,"4,99,0140,9,999","SYN104AAXX  27211 08544 42560 81807 10134 20086 30145 40165 50003 8557/ 333 85625 87458 91114 555 50022 60007;",
"08544099999","2010-12-28T00:00:00","4","40.9166666","-8.6333333","22.0","OVAR MACEDA, PO","FM-12","99999","V020","170,1,N,0060,1","02400,1,9,N","010000,1,N,1","+0114,1","+0103,1","10169,1","06,0005,9,1","6,1,06,1","2,1,06,1","02,1,+00600,1,08,1","04,1,+00750,1,06,1","06,1,+02400,1,04,1",,"08,99,1,04,1,08,1,00800,1,07,1,99,9",,,,,"99999,9,10149,1","2,1,004,1,+999,9","21,1","0100,5","4,99,0130,9,999","SYN122AAXX  28001 08544 11560 81706 10114 20103 30149 40169 52004 69951 72162 8487/ 333 82820 84625 86458 91010 91113 555 69957;",
"08544099999","2010-12-28T03:00:00","4","40.9166666","-8.6333333","22.0","OVAR MACEDA, PO","FM-12","99999","V020","170,1,N,0060,1","00750,1,9,N","010000,1,N,1","+0116,1","+0109,1","10161,1",,"5,1,03,1","2,1,03,1","04,1,+00270,1,07,1","05,1,+00750,1,06,1",,,"08,99,1,06,1,08,1,00250,1,07,1,99,9",,,,,"99999,9,10141,1","7,1,008,1,+999,9","51,1",,,"SYN098AAXX  28031 08544 41360 81706 10116 20109 30141 40161 57008 75152 8687/ 333 84709 85625 555 69937;",
"08544099999","2010-12-28T06:00:00","4","40.9166666","-8.6333333","22.0","OVAR MACEDA, PO","FM-12","99999","V020","170,1,N,0050,1","00750,1,9,N","010000,1,N,1","+0128,1","+0110,1","10149,1","12,0010,9,1","5,1,06,1","2,1,06,1","03,1,+00270,1,07,1","05,1,+00750,1,06,1",,,"08,99,1,06,1,02,1,00250,1,07,1,99,9","0000,9",,,"999,N,+0114,1","99999,9,10129,1","7,1,012,1,+999,9","02,1",,,"SYN122AAXX  28061 08544 11360 81705 10128 20110 30129 40149 57012 60012 70252 8627/ 333 20114 50344 55000 83709 85625 555 69947;",
"08544099999","2010-12-28T09:00:00","4","40.9166666","-8.6333333","22.0","OVAR MACEDA, PO","FM-12","99999","V020","180,1,N,0030,1","00900,1,9,N","008000,1,N,1","+0134,1","+0117,1","10149,1",,"6,1,03,1","2,1,03,1","02,1,+00600,1,08,1","06,1,+00900,1,06,1",,,"08,99,1,06,1,08,1,00800,1,07,1,99,9",,,,,"99999,9,10128,1","5,1,001,1,+999,9","61,1",,,"SYN094AAXX  28091 08544 41558 81803 10134 20117 30128 40149 55001 76162 8687/ 333 82820 86630 85458;",
"08544099999","2010-12-28T12:00:00","4","40.9166666","-8.6333333","22.0","OVAR MACEDA, PO","FM-12","99999","V020","220,1,N,0010,1","00750,1,9,N","005000,1,N,1","+0132,1","+0118,1","10146,1","06,0020,9,1","6,1,06,1","2,1,06,1","01,1,+00240,1,07,1","06,1,+00750,1,08,1","07,1,+02400,1,04,1",,"08,99,1,07,1,08,1,00250,1,07,1,99,9",,,,,"99999,9,10126,1","8,1,002,1,+999,9","10,1",,,"SYN116AAXX  28121 08544 11350 82201 10132 20118 30126 40146 58002 60021 71062 8787/ 333 81708 86825 87458 555 50044 60017;",
"08544099999","2010-12-28T15:00:00","4","40.9166666","-8.6333333","22.0","OVAR MACEDA, PO","FM-12","99999","V020","020,1,N,0010,1","00750,1,9,N","003000,1,N,1","+0128,1","+0121,1","10127,1",,"6,1,03,1","2,1,03,1","01,1,+00240,1,07,1","05,1,+00750,1,08,1",,,"08,99,1,07,1,08,1,00250,1,07,1,99,9",,,,,"99999,9,10107,1","6,1,019,1,+999,9","21,1",,,"SYN094AAXX  28151 08544 41330 80201 10128 20121 30107 40127 56019 72162 8787/ 333 81708 85825 87458;",
"08544099999","2010-12-28T18:00:00","4","40.9166666","-8.6333333","22.0","OVAR MACEDA, PO","FM-12","99999","V020","140,1,N,0020,1","00750,1,C,N","005000,1,N,1","+0124,1","+0117,1","10117,1","12,0030,9,1","6,1,06,1","2,1,06,1","02,1,+00030,1,07,1","03,1,+00750,1,08,1","04,1,+02400,1,04,1",,"07,99,1,04,1,02,1,00025,1,07,1,01,1",,,,"120,M,+0136,1","99999,9,10097,1","7,1,010,1,+999,9","10,1",,,"SYN116AAXX  28181 08544 11050 71402 10124 20117 30097 40117 57010 60032 71062 84271 333 10136 82701 83825 84458 555 60007;",
"08544099999","2010-12-28T21:00:00","4","40.9166666","-8.6333333","22.0","OVAR MACEDA, PO","FM-12","99999","V020","160,1,N,9999,9","03600,1,C,N","010000,1,N,1","+0154,1","+0101,1","10106,1",,,,"03,1,+00900,1,06,1",,,,"05,99,1,03,1,05,1,00800,1,03,1,00,1",,,,,"99999,9,10086,1","7,1,011,1,+999,9",,,,"SYN082AAXX  28211 08544 42560 51660 10154 20101 30086 40106 57011 83530 333 83630 83358;","Q01+006003WOSPD "
"08544099999","2010-12-29T00:00:00","4","40.9166666","-8.6333333","22.0","OVAR MACEDA, PO","FM-12","99999","V020","160,1,N,0050,1","03600,1,C,N","010000,1,N,1","+0152,1","+0095,1","10113,1",,,,"03,1,+00900,1,06,1",,,,"07,99,1,04,1,05,1,00800,1,03,1,99,9",,,,,"99999,9,10093,1","2,1,007,1,+999,9",,,,"SYN082AAXX  29001 08544 32560 71605 10152 20095 30093 40113 52007 8453/ 333 83630 86359;",
"08544099999","2010-12-29T03:00:00","4","40.9166666","-8.6333333","22.0","OVAR MACEDA, PO","FM-12","99999","V020","150,1,N,0050,1","03600,1,C,N","010000,1,N,1","+0156,1","+0099,1","10097,1",,,,"02,1,+00900,1,06,1",,,,"07,99,1,02,1,05,1,00800,1,03,1,99,9",,,,,"99999,9,10077,1","7,1,016,1,+999,9",,,,"SYN082AAXX  29031 08544 42560 71505 10156 20099 30077 40097 57016 8253/ 333 82630 87359;",
"08544099999","2010-12-29T06:00:00","4","40.9166666","-8.6333333","22.0","OVAR MACEDA, PO","FM-12","99999","V020","200,1,N,0050,1","00600,1,C,N","008000,1,N,1","+0132,1","+0111,1","10099,1","12,0010,9,1","6,1,06,1","2,1,06,1","02,1,+00540,1,08,1","04,1,+00600,1,08,1","07,1,+02400,1,04,1",,"08,99,1,05,1,08,1,00450,1,07,1,99,9","0006,9",,,,"99999,9,10078,1","3,1,001,1,+999,9","61,1",,,"SYN127AAXX  29061 08544 11458 82005 10132 20111 30078 40099 53001 60012 76162 8587/ 333 0124 50274 55001 82818 84820 87458 555 60017;",
"08544099999","2010-12-29T09:00:00","4","40.9166666","-8.6333333","22.0","OVAR MACEDA, PO","FM-12","99999","V020","180,1,N,0070,1","99999,9,9,N","010000,1,N,1","+0150,1","+9999,9","99999,9",,,,,,,,"08,99,1,99,9,99,9,00800,1,99,9,99,9",,,,,,,,,,"SYN088AAXX  29091 08544 41560 81807 10150 10100 30079 40099 53001 70262 8527/ 333 85825 87458;",
"08544099999","2010-12-29T12:00:00","4","40.9166666","-8.6333333","22.0","OVAR MACEDA, PO","FM-12","99999","V020","180,1,N,0060,1","00900,1,9,N","010000,1,N,1","+0150,1","+0111,1","10107,1","06,0020,9,1","8,1,06,1","6,1,06,1","02,1,+00450,1,08,1","02,1,+00660,1,09,1","04,1,+00900,1,08,1",,"07,99,1,06,1,03,1,00450,1,03,1,99,9",,,,,"99999,9,10087,1","1,1,008,1,+999,9","25,1","0100,5","4,99,0140,9,999","SYN128AAXX  29121 08544 11460 71806 10150 20111 30087 40107 51008 60021 72586 8633/ 333 82815 82922 84830 91010 91114 555 50054 60017;",
"08544099999","2010-12-29T15:00:00","4","40.9166666","-8.6333333","22.0","OVAR MACEDA, PO","FM-12","99999","V020","180,1,N,0070,1","00900,1,9,N","010000,1,N,1","+0178,1","+0120,1","10089,1",,,,"03,1,+00540,1,08,1","01,1,+00660,1,09,1","03,1,+00900,1,06,1",,"05,99,1,05,1,09,1,00450,1,00,1,04,1",,,,,"99999,9,10069,1","7,1,018,1,+999,9",,"0120,5",,"SYN100AAXX  29151 08544 42460 51807 10178 20120 30069 40089 57018 85904 333 83818 81922 83630 91012 91112;",
"08544099999","2010-12-29T18:00:00","4","40.9166666","-8.6333333","22.0","OVAR MACEDA, PO","FM-12","99999","V020","150,1,N,0030,1","00900,1,9,N","010000,1,N,1","+0156,1","+0114,1","10085,1","12,0020,9,1","8,1,06,1","2,1,06,1","03,1,+00540,1,08,1","01,1,+00660,1,09,1","04,1,+00900,1,06,1",,"06,99,1,06,1,09,1,00450,1,00,1,01,1",,,,"120,M,+0180,1","99999,9,10065,1","8,1,004,1,+999,9","25,1",,"4,99,0100,9,999","SYN122AAXX  29181 08544 11460 61503 10156 20114 30065 40085 58004 60022 72582 86901 333 10180 83818 81922 84630 91110 555 69917;",
"08544099999","2010-12-29T21:00:00","4","40.9166666","-8.6333333","22.0","OVAR MACEDA, PO","FM-12","99999","V020","150,1,N,0030,1","00900,1,C,N","010000,1,N,1","+0156,1","+0103,1","10082,1",,,,"02,1,+00540,1,03,1","03,1,+00900,1,06,1","06,1,+02100,1,04,1",,"07,99,1,04,1,08,1,00450,1,07,1,99,9",,,,,"99999,9,10062,1","7,1,003,1,+999,9",,,,"SYN094AAXX  29211 08544 42460 71503 10156 20103 30062 40082 57003 8487/ 333 82318 83630 86457 91110;",
"08544099999","2010-12-30T00:00:00","4","40.9166666","-8.6333333","22.0","OVAR MACEDA, PO","FM-12","99999","V020","999,9,V,0010,1","02100,1,9,N","010000,1,N,1","+0138,1","+0099,1","10073,1","06,0000,2,1","6,1,06,1","2,1,06,1","03,1,+00540,1,08,1","07,1,+02100,1,04,1",,,"08,99,1,04,1,08,1,00450,1,07,1,99,9",,,,,"99999,9,10053,1","7,1,009,1,+999,9","21,1",,,"SYN104AAXX  30001 08544 11460 89901 10138 20099 30053 40073 57009 69921 72162 8487/ 333 83818 87457 555 69927;",
"08544099999","2010-12-30T03:00:00","4","40.9166666","-8.6333333","22.0","OVAR MACEDA, PO","FM-12","99999","V020","160,1,N,0060,1","01050,1,9,N","010000,1,N,1","+0156,1","+0091,1","10057,1",,"8,1,03,1","2,1,03,1","03,1,+00540,1,08,1","03,1,+01050,1,06,1","05,1,+02100,1,04,1",,"07,99,1,05,1,08,1,00450,1,07,1,99,9",,,,,"99999,9,10037,1","7,1,016,1,+999,9","25,1","0120,5",,"SYN106AAXX  30031 08544 41460 71606 10156 20091 30037 40057 57016 72582 8587/ 333 83818 83635 85457 91012 91112;",
"08544099999","2010-12-30T06:00:00","4","40.9166666","-8.6333333","22.0","OVAR MACEDA, PO","FM-12","99999","V020","130,1,N,0020,1","01050,1,C,N","010000,1,N,1","+0120,1","+0102,1","10055,1","12,0010,9,1","8,1,06,1","6,1,06,1","02,1,+00540,1,08,1","03,1,+01050,1,06,1","07,1,+02100,1,04,1",,"08,99,1,04,1,08,1,00450,1,07,1,99,9","0156,9",,,"999,N,+0120,1","99999,9,10034,1","7,1,003,1,+999,9","21,1",,"4,99,0150,9,999","SYN134AAXX  30061 08544 11460 81302 10120 20102 30034 40055 57003 60012 72186 8487/ 333 20120 50364 55026 82818 83635 87457 91115 555 69997;",
"08544099999","2010-12-30T09:00:00","4","40.9166666","-8.6333333","22.0","OVAR MACEDA, PO","FM-12","99999","V020","150,1,N,0040,1","01050,1,C,N","008000,1,N,1","+0142,1","+0103,1","10059,1",,"6,1,03,1","2,1,03,1","02,1,+00540,1,08,1","03,1,+01050,1,06,1",,,"07,99,1,04,1,08,1,00450,1,07,1,99,9",,,,,"99999,9,10039,1","3,1,005,1,+999,9","60,1",,,"SYN094AAXX  30091 08544 41458 71504 10142 20103 30039 40059 53005 76062 8487/ 333 82818 83635 85757;",
"08544099999","2010-12-30T12:00:00","4","40.9166666","-8.6333333","22.0","OVAR MACEDA, PO","FM-12","99999","V020","160,1,N,0060,1","02100,1,9,N","010000,1,N,1","+0164,1","+0112,1","10062,1","06,0000,2,1","6,1,06,1","2,1,06,1","03,1,+00600,1,08,1","05,1,+02100,1,03,1",,,"06,99,1,03,1,02,1,00800,1,03,1,04,1",,,,,"99999,9,10041,1","0,1,002,1,+999,9","01,1","0120,5",,"SYN122AAXX  30121 08544 11560 61606 10164 20112 30041 40062 50002 69911 70162 83234 333 83820 85357 91012 91112 555 50014 69917;",
"08544099999","2010-12-30T15:00:00","4","40.9166666","-8.6333333","22.0","OVAR MACEDA, PO","FM-12","99999","V020","140,1,N,0040,1","02100,1,9,N","010000,1,N,1","+0156,1","+0107,1","10051,1",,,,"01,1,+00450,1,08,1","03,1,+00900,1,06,1","05,1,+02100,1,03,1",,"07,99,1,03,1,08,1,00450,1,07,1,04,1",,,,,"99999,9,10031,1","7,1,010,1,+999,9",,,,"SYN094AAXX  30151 08544 42460 71404 10156 20107 30031 40051 57010 83874 333 81815 83630 85357 91111;",
"08544099999","2010-12-30T18:00:00","4","40.9166666","-8.6333333","22.0","OVAR MACEDA, PO","FM-12","99999","V020","150,1,N,0050,1","00450,1,9,N","010000,1,N,1","+0128,1","+0110,1","10065,1","12,0005,9,1","6,1,06,1","2,1,06,1","05,1,+00450,1,08,1","07,1,+02100,1,04,1",,,"08,99,1,05,1,02,1,00450,1,07,1,99,9",,,,"120,M,+0168,1","99999,9,10044,1","2,1,013,1,+999,9","21,1","0080,5","4,99,0090,9,999","SYN122AAXX  30181 08544 11460 81505 10128 20110 30044 40065 52013 69952 72162 8527/ 333 10168 85815 87457 91008 91109 555 69947;",
"08544099999","2010-12-30T21:00:00","4","40.9166666","-8.6333333","22.0","OVAR MACEDA, PO","FM-12","99999","V020","170,1,N,0040,1","01050,1,9,N","010000,1,N,1","+0130,1","+0119,1","10078,1",,"6,1,03,1","2,1,03,1","03,1,+00450,1,08,1","04,1,+01050,1,06,1",,,"07,99,1,05,1,08,1,00450,1,07,1,01,1",,,,,"99999,9,10058,1","2,1,014,1,+999,9","01,1",,,"SYN094AAXX  30211 08544 41460 71704 10130 20119 30058 40078 52014 70162 85871 333 83815 84635 85357;",
"08544099999","2010-12-31T00:00:00","4","40.9166666","-8.6333333","22.0","OVAR MACEDA, PO","FM-12","99999","V020","170,1,N,0030,1","02100,1,9,N","010000,1,N,1","+0138,1","+0114,1","10088,1","06,0030,9,1","6,1,06,1","2,1,06,1","01,1,+00450,1,08,1","03,1,+00900,1,06,1","07,1,+02100,1,03,1",,"08,99,1,03,1,08,1,00450,1,07,1,99,9",,,,,"99999,9,10068,1","2,1,010,1,+999,9","03,1",,,"SYN110AAXX  31001 08544 11460 81703 10138 20114 30068 40088 52010 60031 70362 8387/ 333 81815 83630 87357 555 60007;",
"08544099999","2010-12-31T03:00:00","4","40.9166666","-8.6333333","22.0","OVAR MACEDA, PO","FM-12","99999","V020","180,1,N,0050,1","00900,1,9,N","010000,1,N,1","+0130,1","+0105,1","10093,1",,"6,1,03,1","2,1,03,1","01,1,+00600,1,08,1","05,1,+00900,1,06,1",,,"08,99,1,05,1,08,1,00800,1,07,1,99,9",,,,,"99999,9,10073,1","2,1,005,1,+999,9","02,1",,,"SYN094AAXX  31031 08544 41560 81805 10130 20105 30073 40093 52005 70262 8587/ 333 81820 85630 87357;",
"08544099999","2010-12-31T06:00:00","4","40.9166666","-8.6333333","22.0","OVAR MACEDA, PO","FM-12","99999","V020","120,1,N,0020,1","03600,1,9,N","010000,1,N,1","+0122,1","+0093,1","10098,1","12,0051,9,1","6,1,06,1","2,1,06,1","01,1,+00600,1,08,1","03,1,+00900,1,06,1",,,"07,99,1,03,1,08,1,00800,1,03,1,04,1","0084,9",,,"999,N,+0116,1","99999,9,10077,1","2,1,004,1,+999,9","03,1",,,"SYN122AAXX  31061 08544 11560 71202 10122 20093 30077 40098 52004 60052 70362 83834 333 20116 50224 55014 81820 83630 555 60007;",
"08544099999","2010-12-31T09:00:00","4","40.9166666","-8.6333333","22.0","OVAR MACEDA, PO","FM-12","99999","V020","130,1,N,0020,1","01050,1,9,N","010000,1,N,1","+0128,1","+0095,1","10114,1",,,,"05,1,+01050,1,06,1",,,,"06,99,1,05,1,05,1,01250,1,03,1,02,1",,,,,"99999,9,10094,1","2,1,017,1,+999,9",,,,"SYN076AAXX  31091 08544 42660 61302 10128 20095 30094 40114 52017 85532 333 85635;",
"08544099999","2010-12-31T12:00:00","4","40.9166666","-8.6333333","22.0","OVAR MACEDA, PO","FM-12","99999","V020","290,1,N,0010,1","01050,1,9,N","010000,1,N,1","+0148,1","+0105,1","10131,1",,,,"06,1,+01050,1,06,1",,,,"07,99,1,06,1,05,1,01250,1,03,1,00,1",,,,,"99999,9,10110,1","1,1,016,1,+999,9",,,,"SYN092AAXX  31121 08544 32660 72901 10148 20105 30110 40131 51016 86530 333 86635 555 50054 60007;",
"08544099999","2010-12-31T15:00:00","4","40.9166666","-8.6333333","22.0","OVAR MACEDA, PO","FM-12","99999","V020","030,1,N,0020,1","00900,1,C,N","007000,1,N,1","+0140,1","+0122,1","10134,1",,"8,1,03,1","2,1,03,1","03,1,+00450,1,08,1",,,,"08,99,1,08,1,08,1,00450,1,99,9,99,9",,,,,"99999,9,10114,1","3,1,004,1,+999,9","80,1",,,"SYN088AAXX  31151 08544 41457 80302 10140 20122 30114 40134 53004 78082 888// 333 83815 87635;",
"08544099999","2010-12-31T18:00:00","4","40.9166666","-8.6333333","22.0","OVAR MACEDA, PO","FM-12","99999","V020","999,9,V,0010,1","01050,1,9,N","010000,1,N,1","+0132,1","+0121,1","10150,1","12,0005,9,1","8,1,06,1","2,1,06,1","02,1,+00450,1,08,1","06,1,+01050,1,06,1",,,"07,99,1,07,1,08,1,00450,1,00,1,00,1",,,,"120,M,+0150,1","99999,9,10130,1","2,1,016,1,+999,9","02,1",,,"SYN110AAXX  31181 08544 11460 79901 10132 20121 30130 40150 52016 69952 70282 87800 333 10150 82815 86635 555 69907;",
"08544099999","2010-12-31T21:00:00","4","40.9166666","-8.6333333","22.0","OVAR MACEDA, PO","FM-12","99999","V020","999,9,V,0010,1","00900,1,C,N","005000,1,N,1","+0118,1","+0110,1","10166,1",,"2,1,03,1","2,1,03,1","01,1,+00450,1,08,1",,,,"07,99,1,07,1,08,1,00450,1,00,1,00,1",,,,,"99999,9,10146,1","2,1,016,1,+999,9","10,1",,,"SYN088AAXX  31211 08544 41450 79901 10118 20110 30146 40166 52016 71022 87800 333 81815 87635;",
