"STATION","DATE","SOURCE","LATITUDE","LONGITUDE","ELEVATION","NAME","REPORT_TYPE","CALL_SIGN","QUALITY_CONTROL","WND","CIG","VIS","TMP","DEW","SLP","AA1","AY1","AY2","GA1","GA2","GA3","GF1","KA1","MD1","MW1","REM","EQD"
"08583099999","2010-01-01T00:00:00","4","16.8333333","-25.05","20.0","MINDELO, CV","FM-12","99999","V020","060,1,N,0077,1","22000,1,9,N","020000,1,N,1","+0223,1","+0172,1","10164,1",,,,"02,1,+00600,1,06,1",,,"02,99,1,02,1,05,1,00800,1,00,1,00,1",,"9,9,999,9,-001,1",,"SYN070AAXX  01004 08583 32570 20615 10223 20172 40164 82500 333 59001 82620;",
"08583099999","2010-01-01T12:00:00","4","16.8333333","-25.05","20.0","MINDELO, CV","FM-12","99999","V020","050,1,N,0087,1","22000,1,9,N","020000,1,N,1","+0258,1","+0167,1","10158,1",,,,"01,1,+00600,1,06,1",,,"01,99,1,01,1,05,1,00800,1,00,1,00,1",,"9,9,999,9,-004,1",,"SYN070AAXX  01124 08583 32570 10517 10258 20167 40158 81500 333 59004 81620;",
"08583099999","2010-01-01T18:00:00","4","16.8333333","-25.05","20.0","MINDELO, CV","FM-12","99999","V020","060,1,N,0072,1","22000,1,9,N","020000,1,N,1","+0250,1","+0176,1","10134,1",,,,"01,1,+00600,1,06,1",,,"01,99,1,01,1,05,1,00800,1,00,1,00,1","120,M,+0273,1","9,9,999,9,-007,1",,"SYN076AAXX  01184 08583 32570 10614 10250 20176 40134 81500 333 10273 59007 81620;",
"08583099999","2010-01-02T00:00:00","4","16.8333333","-25.05","20.0","MINDELO, CV","FM-12","99999","V020","050,1,N,0041,1","22000,1,9,N","020000,1,N,1","+0215,1","+0180,1","10155,1",,,,"01,1,+00600,1,06,1",,,"01,99,1,01,1,05,1,00800,1,00,1,00,1",,"9,9,999,9,-009,1",,"SYN070AAXX  02004 08583 32570 10508 10215 20180 40155 81500 333 59009 81620;",
"08583099999","2010-01-03T00:00:00","4","16.8333333","-25.05","20.0","MINDELO, CV","FM-12","99999","V020","070,1,N,0072,1","22000,1,9,N","020000,1,N,1","+0222,1","+0176,1","10174,1",,,,"01,1,+00600,1,06,1",,,"01,99,1,01,1,05,1,00800,1,00,1,00,1",,"9,9,999,9,+019,1",,"SYN070AAXX  03004 08583 32570 10714 10222 20176 40174 81500 333 58019 81620;",
"08583099999","2010-01-03T06:00:00","4","16.8333333","-25.05","20.0","MINDELO, CV","FM-12","99999","V020","070,1,N,0072,1","22000,1,9,N","020000,1,N,1","+0208,1","+0183,1","10156,1",,,,"01,1,+00600,1,06,1",,,"01,99,1,01,1,05,1,00800,1,00,1,00,1","999,N,+0190,1","9,9,999,9,-014,1",,"SYN076AAXX  03064 08583 32570 10714 10208 20183 40156 81500 333 20190 59014 81620;",
"08583099999","2010-01-03T12:00:00","4","16.8333333","-25.05","20.0","MINDELO, CV","FM-12","99999","V020","050,1,N,0113,1","22000,1,9,N","025000,1,N,1","+0261,1","+0190,1","10175,1",,,,"02,1,+00540,1,06,1",,,"02,99,1,02,1,05,1,00800,1,00,1,00,1",,"9,9,999,9,+026,1",,"SYN070AAXX  03124 08583 32575 20522 10261 20190 40175 82500 333 58026 82618;",
"08583099999","2010-01-03T18:00:00","4","16.8333333","-25.05","20.0","MINDELO, CV","FM-12","99999","V020","070,1,N,0144,1","22000,1,9,N","020000,1,N,1","+0256,1","+0180,1","10150,1",,,,"01,1,+00540,1,06,1",,,"01,99,1,01,1,05,1,00450,1,00,1,00,1","120,M,+0276,1","9,9,999,9,-002,1",,"SYN076AAXX  03184 08583 32470 10728 10256 20180 40150 81500 333 10276 59002 81618;",
"08583099999","2010-01-04T00:00:00","4","16.8333333","-25.05","20.0","MINDELO, CV","FM-12","99999","V020","060,1,N,0108,1","22000,1,9,N","020000,1,N,1","+0227,1","+0176,1","10186,1",,,,"01,1,+00540,1,06,1",,,"01,99,1,01,1,05,1,00450,1,00,1,00,1",,"9,9,999,9,+012,1",,"SYN070AAXX  04004 08583 32470 10621 10227 20176 40186 81500 333 58012 81618;",
"08583099999","2010-01-04T06:00:00","4","16.8333333","-25.05","20.0","MINDELO, CV","FM-12","99999","V020","060,1,N,0087,1","10500,1,C,N","020000,1,N,1","+0220,1","+0178,1","10172,1",,,,"01,1,+00540,1,06,1",,,"07,99,1,01,1,05,1,00450,1,00,1,02,1","999,N,+0205,1","9,9,999,9,+016,1",,"SYN082AAXX  04064 08583 32470 70617 10220 20178 40172 81502 333 20205 58016 81618 87070;",
"08583099999","2010-01-04T12:00:00","4","16.8333333","-25.05","20.0","MINDELO, CV","FM-12","99999","V020","060,1,N,0108,1","04500,1,C,N","020000,1,N,1","+0240,1","+0182,1","10193,1",,,,"01,1,+00660,1,06,1",,,"07,99,1,01,1,05,1,00450,1,07,1,02,1",,"9,9,999,9,+018,1",,"SYN076AAXX  04124 08583 32470 70621 10240 20182 40193 81572 333 58018 81622 86459;",
"08583099999","2010-01-04T18:00:00","4","16.8333333","-25.05","20.0","MINDELO, CV","FM-12","99999","V020","060,1,N,0144,1","04500,1,C,N","018000,1,N,1","+0240,1","+0182,1","10162,1",,,,"04,1,+00600,1,06,1",,,"07,99,1,04,1,05,1,00450,1,03,1,02,1","120,M,+0256,1","9,9,999,9,+012,1",,"SYN082AAXX  04184 08583 32468 70628 10240 20182 40162 84532 333 10256 58012 84620 85070;",
"08583099999","2010-01-05T00:00:00","4","16.8333333","-25.05","20.0","MINDELO, CV","FM-12","99999","V020","060,1,N,0118,1","04500,1,C,N","018000,1,N,1","+0227,1","+0165,1","10184,1",,,,"02,1,+00600,1,06,1",,,"06,99,1,02,1,05,1,00800,1,03,1,02,1",,"9,9,999,9,-003,1",,"SYN076AAXX  05004 08583 32568 60623 10227 20165 40184 82532 333 59003 82620 85070;",
"08583099999","2010-01-05T06:00:00","4","16.8333333","-25.05","20.0","MINDELO, CV","FM-12","99999","V020","060,1,N,0108,1","22000,1,9,N","020000,1,N,1","+0225,1","+0165,1","10174,1",,,,"04,1,+00750,1,06,1",,,"04,99,1,04,1,05,1,00800,1,00,1,01,1","999,N,+0217,1","9,9,999,9,+002,1",,"SYN076AAXX  05064 08583 32570 40621 10225 20165 40174 84501 333 20217 58002 84625;",
"08583099999","2010-01-05T12:00:00","4","16.8333333","-25.05","20.0","MINDELO, CV","FM-12","99999","V020","060,1,N,0134,1","22000,1,9,N","025000,1,N,1","+0255,1","+0170,1","10178,1",,,,"02,1,+00600,1,06,1",,,"02,99,1,02,1,05,1,00800,1,00,1,00,1",,"9,9,999,9,-015,1",,"SYN070AAXX  05124 08583 32575 20626 10255 20170 40178 82500 333 59015 82620;",
"08583099999","2010-01-05T18:00:00","4","16.8333333","-25.05","20.0","MINDELO, CV","FM-12","99999","V020","060,1,N,0139,1","22000,1,9,N","020000,1,N,1","+0250,1","+0165,1","10148,1",,,,"01,1,+00660,1,08,1",,,"01,99,1,01,1,01,1,00800,1,00,1,00,1","120,M,+0270,1","9,9,999,9,-014,1",,"SYN076AAXX  05184 08583 32570 10627 10250 20165 40148 81100 333 10270 59014 81822;",
"08583099999","2010-01-06T00:00:00","4","16.8333333","-25.05","20.0","MINDELO, CV","FM-12","99999","V020","060,1,N,0087,1","22000,1,9,N","020000,1,N,1","+0228,1","+0176,1","10178,1",,,,"03,1,+00660,1,06,1",,,"04,99,1,03,1,02,1,00800,1,00,1,01,1",,"9,9,999,9,-006,1",,"SYN070AAXX  06004 08583 32570 40617 10228 20176 40178 83201 333 59006 83622;",
"08583099999","2010-01-06T06:00:00","4","16.8333333","-25.05","20.0","MINDELO, CV","FM-12","99999","V020","070,1,N,0087,1","00660,1,9,N","020000,1,N,1","+0225,1","+0153,1","10163,1",,,,"06,1,+00660,1,06,1",,,"06,99,1,06,1,05,1,00800,1,00,1,02,1","999,N,+0220,1","9,9,999,9,-011,1",,"SYN076AAXX  06064 08583 32570 60717 10225 20153 40163 86502 333 20220 59011 86622;",
"08583099999","2010-01-06T12:00:00","4","16.8333333","-25.05","20.0","MINDELO, CV","FM-12","99999","V020","060,1,N,0134,1","22000,1,C,N","020000,1,N,1","+0250,1","+0150,1","10165,1",,,,"01,1,+00750,1,06,1",,,"05,99,1,01,1,05,1,00800,1,00,1,04,1",,"9,9,999,9,-013,1",,"SYN076AAXX  06124 08583 32570 50626 10250 20150 40165 81504 333 59013 81625 85070;",
"08583099999","2010-01-06T18:00:00","4","16.8333333","-25.05","20.0","MINDELO, CV","FM-12","99999","V020","070,1,N,0123,1","22000,1,C,N","020000,1,N,1","+0247,1","+0162,1","10146,1",,,,"02,1,+00750,1,06,1",,,"06,99,1,02,1,05,1,00800,1,00,1,04,1","120,M,+0270,1","9,9,999,9,-001,1",,"SYN082AAXX  06184 08583 32570 60724 10247 20162 40146 82504 333 10270 59001 82625 86070;",
"08583099999","2010-01-07T00:00:00","4","16.8333333","-25.05","20.0","MINDELO, CV","FM-12","99999","V020","050,1,N,0098,1","22000,1,9,N","020000,1,N,1","+0222,1","+0168,1","10171,1",,,,"02,1,+00690,1,06,1",,,"02,99,1,02,1,05,1,00800,1,00,1,01,1",,"9,9,999,9,-007,1",,"SYN070AAXX  07004 08583 32570 20519 10222 20168 40171 82501 333 59007 82623;",
"08583099999","2010-01-07T12:00:00","4","16.8333333","-25.05","20.0","MINDELO, CV","FM-12","99999","V020","070,1,N,0123,1","00600,1,9,N","020000,1,N,1","+0255,1","+0171,1","10175,1",,,,"05,1,+00600,1,06,1",,,"05,99,1,05,1,05,1,00800,1,00,1,00,1",,"9,9,999,9,+010,1",,"SYN070AAXX  07124 08583 32570 50724 10255 20171 40175 85500 333 58010 85620;",
"08583099999","2010-01-08T00:00:00","4","16.8333333","-25.05","20.0","MINDELO, CV","FM-12","99999","V020","070,1,N,0062,1","22000,1,9,N","020000,1,N,1","+0223,1","+0152,1","10182,1",,,,"02,1,+00600,1,06,1",,,"02,99,1,02,1,05,1,00800,1,00,1,00,1",,"9,9,999,9,+011,1",,"SYN070AAXX  08004 08583 32570 20712 10223 20152 40182 82500 333 58011 82620;",
"08583099999","2010-01-08T12:00:00","4","16.8333333","-25.05","20.0","MINDELO, CV","FM-12","99999","V020","040,1,N,0108,1","01200,1,C,N","025000,1,N,1","+0233,1","+0171,1","10181,1",,,,"02,1,+00540,1,08,1",,,"05,99,1,05,1,08,1,00800,1,00,1,00,1",,"9,9,999,9,+006,1",,"SYN076AAXX  08124 08583 32575 50421 10233 20171 40181 85800 333 58006 82818 85621;",
"08583099999","2010-01-08T18:00:00","4","16.8333333","-25.05","20.0","MINDELO, CV","FM-12","99999","V020","060,1,N,0093,1","00540,1,9,N","020000,1,N,1","+0248,1","+0175,1","10152,1","12,9999,9,9","2,1,06,1","2,1,06,1","05,1,+00540,1,08,1",,,"05,99,1,05,1,02,1,00450,1,00,1,02,1","120,M,+0270,1","9,9,999,9,-005,1","20,1","SYN088AAXX  08184 08583 11470 50618 10248 20175 40152 6///2 72022 85202 333 10270 59005 85818;",
"08583099999","2010-01-09T00:00:00","4","16.8333333","-25.05","20.0","MINDELO, CV","FM-12","99999","V020","070,1,N,0051,1","22000,1,9,N","018000,1,N,1","+0220,1","+0187,1","10178,1",,"5,1,06,1","0,1,06,1","02,1,+00540,1,06,1",,,"02,99,1,02,1,05,1,00450,1,00,1,01,1",,"9,9,999,9,-004,1","01,1","SYN076AAXX  09004 08583 31468 20710 10220 20187 40178 70150 82501 333 59004 82618;",
"08583099999","2010-01-09T06:00:00","4","16.8333333","-25.05","20.0","MINDELO, CV","FM-12","99999","V020","050,1,N,0082,1","22000,1,9,N","018000,1,N,1","+0216,1","+0154,1","10157,1",,"5,1,06,1","0,1,06,1","04,1,+00480,1,06,1",,,"04,99,1,04,1,05,1,00450,1,00,1,00,1","999,N,+0201,1","9,9,999,9,-004,1","03,1","SYN088AAXX  09064 08583 11468 40516 10216 20154 40157 6///4 70350 84500 333 20201 59004 84616;",
"08583099999","2010-01-09T12:00:00","4","16.8333333","-25.05","20.0","MINDELO, CV","FM-12","99999","V020","060,1,N,0103,1","00660,1,9,N","020000,1,N,1","+0245,1","+0165,1","10178,1",,,,"06,1,+00660,1,06,1",,,"06,99,1,06,1,05,1,00800,1,99,9,99,9",,"9,9,999,9,-003,1",,"SYN070AAXX  09124 08583 32570 60620 10245 20165 40178 865// 333 59003 86622;",
"08583099999","2010-01-09T18:00:00","4","16.8333333","-25.05","20.0","MINDELO, CV","FM-12","99999","V020","060,1,N,0108,1","22000,1,9,N","020000,1,N,1","+0250,1","+0157,1","10145,1",,,,"03,1,+00600,1,06,1",,,"03,99,1,03,1,02,1,00800,1,00,1,00,1","120,M,+0263,1","9,9,999,9,-007,1",,"SYN076AAXX  09184 08583 32570 30621 10250 20157 40145 83200 333 10263 59007 83620;",
"08583099999","2010-01-10T00:00:00","4","16.8333333","-25.05","20.0","MINDELO, CV","FM-12","99999","V020","060,1,N,0108,1","22000,1,9,N","020000,1,N,1","+0222,1","+0163,1","10167,1",,,,"04,1,+00600,1,06,1",,,"04,99,1,04,1,05,1,00800,1,00,1,00,1",,"9,9,999,9,-011,1",,"SYN070AAXX  10004 08583 32570 40621 10222 20163 40167 84500 333 59011 84620;",
"08583099999","2010-01-10T06:00:00","4","16.8333333","-25.05","20.0","MINDELO, CV","FM-12","99999","V020","070,1,N,0072,1","22000,1,9,N","020000,1,N,1","+0218,1","+0150,1","10157,1",,,,"02,1,+00600,1,06,1",,,"02,99,1,02,1,05,1,00800,1,00,1,00,1","999,N,+0215,1","9,9,999,9,+000,1",,"SYN076AAXX  10064 08583 32570 20714 10218 20150 40157 82500 333 20215 58000 82620;",
"08583099999","2010-01-10T12:00:00","4","16.8333333","-25.05","20.0","MINDELO, CV","FM-12","99999","V020","060,1,N,0123,1","22000,1,9,N","025000,1,N,1","+0250,1","+0160,1","10182,1",,,,"02,1,+00660,1,06,1",,,"02,99,1,02,1,05,1,00800,1,00,1,00,1",,"9,9,999,9,+004,1",,"SYN070AAXX  10124 08583 32575 20624 10250 20160 40182 82500 333 58004 82622;",
"08583099999","2010-01-10T18:00:00","4","16.8333333","-25.05","20.0","MINDELO, CV","FM-12","99999","V020","060,1,N,0123,1","22000,1,9,N","025000,1,N,1","+0243,1","+0156,1","10156,1",,,,"03,1,+00750,1,08,1",,,"03,99,1,03,1,01,1,00800,1,00,1,00,1","120,M,+0261,1","9,9,999,9,+011,1",,"SYN076AAXX  10184 08583 32575 30624 10243 20156 40156 83100 333 10261 58011 83825;",
"08583099999","2010-01-11T00:00:00","4","16.8333333","-25.05","20.0","MINDELO, CV","FM-12","99999","V020","060,1,N,0103,1","22000,1,9,N","020000,1,N,1","+0220,1","+0152,1","10186,1",,,,"03,1,+00750,1,06,1",,,"03,99,1,03,1,02,1,00800,1,00,1,00,1",,"9,9,999,9,-019,1",,"SYN070AAXX  11004 08583 32570 30620 10220 20152 40186 83200 333 59019 83625;",
"08583099999","2010-01-11T06:00:00","4","16.8333333","-25.05","20.0","MINDELO, CV","FM-12","99999","V020","050,1,N,0108,1","22000,1,9,N","020000,1,N,1","+0216,1","+0158,1","10166,1",,,,"02,1,+00600,1,06,1",,,"02,99,1,02,1,02,1,00800,1,00,1,00,1","999,N,+0215,1","9,9,999,9,+009,1",,"SYN076AAXX  11064 08583 32570 20521 10216 20158 40166 82200 333 20215 58009 82620;",
"08583099999","2010-01-11T12:00:00","4","16.8333333","-25.05","20.0","MINDELO, CV","FM-12","99999","V020","070,1,N,0123,1","22000,1,9,N","020000,1,N,1","+0255,1","+0167,1","10166,1",,,,"02,1,+00660,1,08,1",,,"02,99,1,02,1,01,1,00800,1,00,1,00,1",,"9,9,999,9,+010,1",,"SYN070AAXX  11124 08583 32570 20724 10255 20167 40166 82100 333 58010 82822;",
"08583099999","2010-01-11T18:00:00","4","16.8333333","-25.05","20.0","MINDELO, CV","FM-12","99999","V020","060,1,N,0113,1","22000,1,9,N","020000,1,N,1","+0247,1","+0161,1","10169,1",,,,"02,1,+00660,1,06,1",,,"02,99,1,02,1,02,1,00800,1,00,1,00,1","120,M,+0271,1","9,9,999,9,+013,1",,"SYN076AAXX  11184 08583 32570 20622 10247 20161 40169 82200 333 10271 58013 82622;",
"08583099999","2010-01-12T00:00:00","4","16.8333333","-25.05","20.0","MINDELO, CV","FM-12","99999","V020","050,1,N,0098,1","22000,1,9,N","018000,1,N,1","+0225,1","+0160,1","10206,1",,,,"03,1,+00660,1,06,1",,,"03,99,1,03,1,05,1,00800,1,00,1,00,1",,"9,9,999,9,+020,1",,"SYN070AAXX  12004 08583 32568 30519 10225 20160 40206 83500 333 58020 83622;",
"08583099999","2010-01-12T06:00:00","4","16.8333333","-25.05","20.0","MINDELO, CV","FM-12","99999","V020","070,1,N,0077,1","22000,1,9,N","018000,1,N,1","+0217,1","+0165,1","10186,1",,,,"02,1,+00660,1,06,1",,,"02,99,1,02,1,05,1,00800,1,00,1,00,1","999,N,+0217,1","9,9,999,9,+020,1",,"SYN076AAXX  12064 08583 32568 20715 10217 20165 40186 82500 333 20217 58020 82622;",
"08583099999","2010-01-12T12:00:00","4","16.8333333","-25.05","20.0","MINDELO, CV","FM-12","99999","V020","070,1,N,0123,1","10500,1,C,N","009000,1,N,1","+0255,1","+0170,1","10196,1",,"2,1,06,1","1,1,06,1","03,1,+00600,1,06,1",,,"06,99,1,03,1,05,1,00800,1,00,1,02,1",,"9,9,999,9,+004,1","06,1","SYN082AAXX  12124 08583 31559 60724 10255 20170 40196 70621 83502 333 58004 83620 85070;",
"08583099999","2010-01-12T18:00:00","4","16.8333333","-25.05","20.0","MINDELO, CV","FM-12","99999","V020","050,1,N,0098,1","22000,1,9,N","010000,1,N,1","+0255,1","+0171,1","10170,1",,,,"02,1,+00660,1,06,1",,,"03,99,1,02,1,05,1,00800,1,00,1,01,1","120,M,+0273,1","9,9,999,9,+001,1",,"SYN076AAXX  12184 08583 32560 30519 10255 20171 40170 82501 333 10273 58001 82622;",
"08583099999","2010-01-13T00:00:00","4","16.8333333","-25.05","20.0","MINDELO, CV","FM-12","99999","V020","070,1,N,0082,1","22000,1,C,N","009000,1,N,1","+0225,1","+0175,1","10196,1",,"1,1,06,1","0,1,06,1","02,1,+00660,1,06,1",,,"05,99,1,02,1,05,1,00800,1,00,1,01,1",,"9,9,999,9,-010,1","06,1","SYN082AAXX  13004 08583 31559 50716 10225 20175 40196 70610 82501 333 59010 82622 84070;",
"08583099999","2010-01-13T06:00:00","4","16.8333333","-25.05","20.0","MINDELO, CV","FM-12","99999","V020","060,1,N,0103,1","22000,1,9,N","009000,1,N,1","+0215,1","+0170,1","10176,1",,"2,1,06,1","1,1,06,1","01,1,+00660,1,06,1",,,"02,99,1,01,1,05,1,00800,1,00,1,01,1","999,N,+0213,1","9,9,999,9,-010,1","06,1","SYN082AAXX  13064 08583 31559 20620 10215 20170 40176 70621 81501 333 20213 59010 81622;",
"08583099999","2010-01-13T12:00:00","4","16.8333333","-25.05","20.0","MINDELO, CV","FM-12","99999","V020","040,1,N,0118,1","22000,1,9,N","012000,1,N,1","+0255,1","+0173,1","10196,1",,,,"03,1,+00660,1,06,1",,,"03,99,1,03,1,05,1,00800,1,00,1,01,1",,"9,9,999,9,+000,1",,"SYN070AAXX  13124 08583 32562 30423 10255 20173 40196 83501 333 58000 83622;",
"08583099999","2010-01-14T00:00:00","4","16.8333333","-25.05","20.0","MINDELO, CV","FM-12","99999","V020","070,1,N,0057,1","22000,1,9,N","010000,1,N,1","+0220,1","+0175,1","10186,1",,,,"02,1,+00660,1,06,1",,,"02,99,1,01,1,05,1,00800,1,00,1,01,1",,"9,9,999,9,-010,1",,"SYN070AAXX  14004 08583 32560 20711 10220 20175 40186 81501 333 59010 82622;",
"08583099999","2010-01-14T06:00:00","4","16.8333333","-25.05","20.0","MINDELO, CV","FM-12","99999","V020","050,1,N,0062,1","22000,1,9,N","010000,1,N,1","+0210,1","+0176,1","10170,1",,,,"02,1,+00600,1,06,1",,,"02,99,1,02,1,05,1,00800,1,00,1,00,1","999,N,+0203,1","9,9,999,9,-006,1",,"SYN076AAXX  14064 08583 32560 20512 10210 20176 40170 82500 333 20203 59006 82620;",
"08583099999","2010-01-14T12:00:00","4","16.8333333","-25.05","20.0","MINDELO, CV","FM-12","99999","V020","060,1,N,0108,1","22000,1,9,N","015000,1,N,1","+0250,1","+0170,1","10181,1",,,,"01,1,+00660,1,06,1",,,"02,99,1,01,1,05,1,00800,1,00,1,01,1",,"9,9,999,9,-015,1",,"SYN070AAXX  14124 08583 32565 20621 10250 20170 40181 81501 333 59015 81622;",
"08583099999","2010-01-15T00:00:00","4","16.8333333","-25.05","20.0","MINDELO, CV","FM-12","99999","V020","070,1,N,0087,1","22000,1,9,N","015000,1,N,1","+0220,1","+0176,1","10184,1",,,,"01,1,+00660,1,06,1",,,"01,99,1,01,1,05,1,00800,1,00,1,00,1",,"9,9,999,9,-002,1",,"SYN070AAXX  15004 08583 32565 10717 10220 20176 40184 81500 333 59002 81622;",
"08583099999","2010-01-15T06:00:00","4","16.8333333","-25.05","20.0","MINDELO, CV","FM-12","99999","V020","080,1,N,0031,1","22000,1,9,N","012000,1,N,1","+0202,1","+0180,1","10167,1",,,,"00,1,+99999,9,99,9",,,"00,99,1,00,1,00,1,99999,9,00,1,00,1","999,N,+0200,1","9,9,999,9,-003,1",,"SYN064AAXX  15064 08583 32962 00806 10202 20180 40167 333 20200 59003;",
"08583099999","2010-01-15T12:00:00","4","16.8333333","-25.05","20.0","MINDELO, CV","FM-12","99999","V020","060,1,N,0087,1","22000,1,9,N","018000,1,N,1","+0261,1","+0143,1","10180,1",,,,"01,1,+00660,1,06,1",,,"01,99,1,01,1,05,1,00800,1,00,1,00,1",,"9,9,999,9,-001,1",,"SYN070AAXX  15124 08583 32568 10617 10261 20143 40180 81500 333 59001 81622;",
"08583099999","2010-01-15T18:00:00","4","16.8333333","-25.05","20.0","MINDELO, CV","FM-12","99999","V020","060,1,N,0093,1","22000,1,9,N","020000,1,N,1","+0251,1","+0180,1","10162,1",,,,"01,1,+00600,1,06,1",,,"01,99,1,01,1,05,1,00800,1,00,1,00,1","120,M,+0272,1","9,9,999,9,-018,1",,"SYN076AAXX  15184 08583 32570 10618 10251 20180 40162 81500 333 10272 59018 81620;",
"08583099999","2010-01-16T00:00:00","4","16.8333333","-25.05","20.0","MINDELO, CV","FM-12","99999","V020","080,1,N,0036,1","22000,1,9,N","012000,1,N,1","+0206,1","+0185,1","10181,1",,,,"01,1,+00540,1,06,1",,,"01,99,1,01,1,05,1,00450,1,00,1,00,1",,"9,9,999,9,-003,1",,"SYN070AAXX  16004 08583 32462 10807 10206 20185 40181 81500 333 59003 81618;",
"08583099999","2010-01-16T06:00:00","4","16.8333333","-25.05","20.0","MINDELO, CV","FM-12","99999","V020","070,1,N,0036,1","22000,1,9,N","012000,1,N,1","+0182,1","+0170,1","10162,1",,,,"01,1,+00540,1,06,1",,,"01,99,1,01,1,05,1,00450,1,00,1,00,1","999,N,+0180,1","9,9,999,9,-005,1",,"SYN076AAXX  16064 08583 32462 10707 10182 20170 40162 81500 333 20180 59005 81618;",
"08583099999","2010-01-16T12:00:00","4","16.8333333","-25.05","20.0","MINDELO, CV","FM-12","99999","V020","070,1,N,0031,1","22000,1,9,N","012000,1,N,1","+0265,1","+0175,1","10186,1",,,,"01,1,+06000,1,00,1",,,"01,99,1,00,1,00,1,99999,9,00,1,01,1",,"9,9,999,9,+006,1",,"SYN070AAXX  16124 08583 32962 10706 10265 20175 40186 80001 333 58006 81070;",
"08583099999","2010-01-16T18:00:00","4","16.8333333","-25.05","20.0","MINDELO, CV","FM-12","99999","V020","240,1,N,0026,1","22000,1,9,N","018000,1,N,1","+0265,1","+0125,1","10160,1",,,,"03,1,+06000,1,00,1",,,"03,99,1,00,1,00,1,99999,9,00,1,01,1","120,M,+0286,1","9,9,999,9,-002,1",,"SYN076AAXX  16184 08583 32968 32405 10265 20125 40160 80001 333 10286 59002 83070;",
"08583099999","2010-01-17T00:00:00","4","16.8333333","-25.05","20.0","MINDELO, CV","FM-12","99999","V020","080,1,N,0031,1","22000,1,9,N","015000,1,N,1","+0216,1","+0188,1","10187,1",,,,"01,1,+00600,1,06,1",,,"01,99,1,01,1,05,1,00800,1,00,1,00,1",,"9,9,999,9,+006,1",,"SYN070AAXX  17004 08583 32565 10806 10216 20188 40187 81500 333 58006 81620;",
"08583099999","2010-01-17T06:00:00","4","16.8333333","-25.05","20.0","MINDELO, CV","FM-12","99999","V020","070,1,N,0041,1","22000,1,9,N","015000,1,N,1","+0192,1","+0185,1","10164,1",,,,"01,1,+00540,1,06,1",,,"01,99,1,01,1,05,1,00450,1,00,1,00,1","999,N,+0192,1","9,9,999,9,+002,1",,"SYN076AAXX  17064 08583 32465 10708 10192 20185 40164 81500 333 20192 58002 81618;",
"08583099999","2010-01-17T18:00:00","4","16.8333333","-25.05","20.0","MINDELO, CV","FM-12","99999","V020","040,1,N,0072,1","22000,1,9,N","030000,1,N,1","+0270,1","+0150,1","10157,1",,,,"00,1,+99999,9,99,9",,,"00,99,1,00,1,00,1,99999,9,00,1,00,1","120,M,+0308,1","9,9,999,9,-003,1",,"SYN064AAXX  17184 08583 32980 00414 10270 20150 40157 333 10308 59003;",
"08583099999","2010-01-18T00:00:00","4","16.8333333","-25.05","20.0","MINDELO, CV","FM-12","99999","V020","070,1,N,0067,1","22000,1,9,N","020000,1,N,1","+0225,1","+0186,1","10173,1",,,,"00,1,+99999,9,99,9",,,"00,99,1,00,1,00,1,99999,9,00,1,00,1",,"9,9,999,9,-014,1",,"SYN058AAXX  18004 08583 32970 00713 10225 20186 40173 333 59014;",
"08583099999","2010-01-18T06:00:00","4","16.8333333","-25.05","20.0","MINDELO, CV","FM-12","99999","V020","080,1,N,0057,1","22000,1,9,N","020000,1,N,1","+0206,1","+0185,1","10155,1",,,,"00,1,+99999,9,99,9",,,"00,99,1,00,1,00,1,99999,9,00,1,00,1","999,N,+0192,1","9,9,999,9,-009,1",,"SYN064AAXX  18064 08583 32970 00811 10206 20185 40155 333 20192 59009;",
"08583099999","2010-01-18T12:00:00","4","16.8333333","-25.05","20.0","MINDELO, CV","FM-12","99999","V020","070,1,N,0072,1","22000,1,9,N","020000,1,N,1","+0275,1","+0177,1","10176,1",,,,"01,1,+00510,1,08,1",,,"03,99,1,99,9,99,9,99999,9,99,9,99,9",,"9,9,999,9,+003,1",,"SYN070AAXX  18124 08583 32970 30714 10275 20177 40176 333 58003 81817 83070;",
"08583099999","2010-01-18T18:00:00","4","16.8333333","-25.05","20.0","MINDELO, CV","FM-12","99999","V020","060,1,N,0087,1","22000,1,9,N","015000,1,N,1","+0272,1","+0157,1","10150,1",,,,"01,1,+00510,1,08,1",,,"02,99,1,01,1,01,1,00450,1,00,1,01,1","120,M,+0303,1","9,9,999,9,-007,1",,"SYN076AAXX  18184 08583 32465 20617 10272 20157 40150 81101 333 10303 59007 81817;",
"08583099999","2010-01-19T00:00:00","4","16.8333333","-25.05","20.0","MINDELO, CV","FM-12","99999","V020","070,1,N,0041,1","22000,1,9,N","004000,1,N,1","+0222,1","+0186,1","10180,1",,"0,1,06,1","0,1,06,1","00,1,+99999,9,99,9",,,"00,99,1,00,1,00,1,99999,9,00,1,00,1",,"9,9,999,9,-007,1","05,1","SYN064AAXX  19004 08583 31940 00708 10222 20186 40180 70500 333 59007;",
"08583099999","2010-01-19T06:00:00","4","16.8333333","-25.05","20.0","MINDELO, CV","FM-12","99999","V020","070,1,N,0036,1","22000,1,9,N","004000,1,N,1","+0202,1","+0186,1","10158,1",,"0,1,06,1","0,1,06,1","00,1,+99999,9,99,9",,,"00,99,1,00,1,00,1,99999,9,00,1,00,1","999,N,+0202,1","9,9,999,9,+003,1","05,1","SYN070AAXX  19064 08583 31940 00707 10202 20186 40158 70500 333 20202 58003;",
"08583099999","2010-01-19T12:00:00","4","16.8333333","-25.05","20.0","MINDELO, CV","FM-12","99999","V020","060,1,N,0123,1","22000,1,9,N","006000,1,N,1","+0256,1","+0187,1","10180,1",,"0,1,06,1","0,1,06,1","01,1,+00600,1,08,1",,,"02,99,1,01,1,01,1,00800,1,00,1,01,1",,"9,9,999,9,+004,1","06,1","SYN076AAXX  19124 08583 31556 20624 10256 20187 40180 70600 81101 333 58004 81820;",
"08583099999","2010-01-19T18:00:00","4","16.8333333","-25.05","20.0","MINDELO, CV","FM-12","99999","V020","060,1,N,0098,1","22000,1,9,N","006000,1,N,1","+0255,1","+0171,1","10155,1",,"0,1,06,1","0,1,06,1","00,1,+99999,9,99,9",,,"00,99,1,00,1,00,1,99999,9,00,1,00,1","120,M,+0276,1","9,9,999,9,+005,1","06,1","SYN070AAXX  19184 08583 31956 00619 10255 20171 40155 70600 333 10276 58005;",
"08583099999","2010-01-20T00:00:00","4","16.8333333","-25.05","20.0","MINDELO, CV","FM-12","99999","V020","060,1,N,0082,1","22000,1,9,N","004800,1,N,1","+0221,1","+0161,1","10171,1",,"0,1,06,1","0,1,06,1","04,1,+06000,1,00,1",,,"99,99,9,00,1,00,1,99999,9,00,1,99,9",,"9,9,999,9,-009,1","05,1","SYN076AAXX  20004 08583 31948 00616 10221 20161 40171 70500 80001 333 59009 84070;","Q01+000002SCOTCV"
"08583099999","2010-01-20T06:00:00","4","16.8333333","-25.05","20.0","MINDELO, CV","FM-12","99999","V020","060,1,N,0093,1","22000,1,9,N","005000,1,N,1","+0213,1","+0173,1","10157,1",,"0,1,06,1","0,1,06,1","03,1,+06000,1,00,1",,,"03,99,1,00,1,00,1,99999,9,00,1,01,1","999,N,+0201,1","9,9,999,9,-001,1","05,1","SYN082AAXX  20064 08583 31950 30618 10213 20173 40157 70500 80001 333 20201 59001 83070;",
"08583099999","2010-01-20T12:00:00","4","16.8333333","-25.05","20.0","MINDELO, CV","FM-12","99999","V020","060,1,N,0113,1","22000,1,9,N","007000,1,N,1","+0258,1","+0172,1","10176,1",,"0,1,06,1","0,1,06,1","01,1,+00600,1,06,1",,,"04,99,1,01,1,05,1,00800,1,03,1,01,1",,"9,9,999,9,-004,1","06,1","SYN082AAXX  20124 08583 31557 40622 10258 20172 40176 70600 81531 333 59004 81620 84070;",
"08583099999","2010-01-21T00:00:00","4","16.8333333","-25.05","20.0","MINDELO, CV","FM-12","99999","V020","070,1,N,0041,1","22000,1,C,N","004800,1,N,1","+0220,1","+0152,1","10180,1",,"2,1,06,1","2,1,06,1","01,1,+00600,1,06,1",,,"06,99,1,01,1,05,1,00800,1,00,1,04,1",,"9,9,999,9,+009,1","05,1","SYN082AAXX  21004 08583 31548 60708 10220 20152 40180 70522 81504 333 58009 81620 86070;",
"08583099999","2010-01-21T06:00:00","4","16.8333333","-25.05","20.0","MINDELO, CV","FM-12","99999","V020","070,1,N,0031,1","22000,1,9,N","005000,1,N,1","+0206,1","+0166,1","10163,1",,"2,1,06,1","1,1,06,1","04,1,+06000,1,00,1",,,"04,99,1,00,1,00,1,99999,9,00,1,01,1","999,N,+0205,1","9,9,999,9,+006,1","05,1","SYN082AAXX  21064 08583 31950 40706 10206 20166 40163 70521 80001 333 20205 58006 84070;",
"08583099999","2010-01-21T12:00:00","4","16.8333333","-25.05","20.0","MINDELO, CV","FM-12","99999","V020","060,1,N,0123,1","04500,1,C,N","007000,1,N,1","+0255,1","+0165,1","10170,1",,"2,1,06,1","2,1,06,1","01,1,+00600,1,06,1",,,"07,99,1,01,1,05,1,00800,1,03,1,04,1",,"9,9,999,9,-006,1","06,1","SYN082AAXX  21124 08583 31557 70624 10255 20165 40170 70622 81534 333 59006 81620 87070;",
"08583099999","2010-01-21T18:00:00","4","16.8333333","-25.05","20.0","MINDELO, CV","FM-12","99999","V020","050,1,N,0098,1","10500,1,C,N","009000,1,N,1","+0250,1","+0163,1","10147,1",,"2,1,06,1","2,1,06,1","02,1,+00600,1,06,1",,,"06,99,1,02,1,05,1,00800,1,03,1,04,1","120,M,+0272,1","9,9,999,9,-006,1","06,1","SYN088AAXX  21184 08583 31559 60519 10250 20163 40147 70622 82534 333 10272 59006 82620 86070;",
"08583099999","2010-01-22T00:00:00","4","16.8333333","-25.05","20.0","MINDELO, CV","FM-12","99999","V020","050,1,N,0082,1","22000,1,9,N","007000,1,N,1","+0216,1","+0152,1","10169,1",,"2,1,06,1","2,1,06,1","01,1,+00600,1,06,1",,,"04,99,1,01,1,05,1,00800,1,00,1,02,1",,"9,9,999,9,-011,1","06,1","SYN082AAXX  22004 08583 31557 40516 10216 20152 40169 70622 81502 333 59011 81620 84070;",
"08583099999","2010-01-22T06:00:00","4","16.8333333","-25.05","20.0","MINDELO, CV","FM-12","99999","V020","050,1,N,0031,1","22000,1,C,N","006000,1,N,1","+0208,1","+0152,1","10175,1",,"2,1,06,1","2,1,06,1","01,1,+00600,1,06,1",,,"07,99,1,01,1,05,1,00800,1,00,1,04,1","999,N,+0205,1","9,9,999,9,-008,1","06,1","SYN088AAXX  22064 08583 31556 70506 10208 20152 40175 70622 81504 333 20205 59008 81620 87070;",
"08583099999","2010-01-22T12:00:00","4","16.8333333","-25.05","20.0","MINDELO, CV","FM-12","99999","V020","060,1,N,0170,1","04500,1,C,N","006000,1,N,1","+0245,1","+0170,1","10169,1",,"2,1,06,1","2,1,06,1","01,1,+00600,1,06,1",,,"07,99,1,01,1,05,1,00800,1,03,1,04,1",,"9,9,999,9,-001,1","06,1","SYN082AAXX  2212/ 08583 31556 70617 10245 20170 40169 70622 81534 333 59001 81620 87070;",
"08583099999","2010-01-22T18:00:00","4","16.8333333","-25.05","20.0","MINDELO, CV","FM-12","99999","V020","050,1,N,0118,1","22000,1,9,N","009000,1,N,1","+0250,1","+0160,1","10138,1",,"2,1,06,1","0,1,06,1","01,1,+00600,1,06,1",,,"03,99,1,01,1,05,1,00800,1,00,1,01,1","120,M,+0272,1","9,9,999,9,-012,1","06,1","SYN088AAXX  22184 08583 31559 30523 10250 20160 40138 70620 81501 333 10272 59012 81620 83070;",
"08583099999","2010-01-23T00:00:00","4","16.8333333","-25.05","20.0","MINDELO, CV","FM-12","99999","V020","070,1,N,0093,1","22000,1,9,N","008000,1,N,1","+0217,1","+0177,1","10170,1",,"0,1,06,1","0,1,06,1","01,1,+00600,1,06,1",,,"03,99,1,01,1,05,1,00800,1,03,1,01,1",,"9,9,999,9,+001,1","06,1","SYN082AAXX  23004 08583 31558 30718 10217 20177 40170 70600 81531 333 58001 81620 83070;",
"08583099999","2010-01-23T06:00:00","4","16.8333333","-25.05","20.0","MINDELO, CV","FM-12","99999","V020","060,1,N,0098,1","22000,1,9,N","009000,1,N,1","+0208,1","+0178,1","10142,1",,"0,1,06,1","0,1,06,1","01,1,+00600,1,06,1",,,"02,99,1,01,1,05,1,00800,1,00,1,01,1","999,N,+0205,1","9,9,999,9,-001,1","06,1","SYN082AAXX  23064 08583 31559 20619 10208 20178 40142 70600 81501 333 20205 59001 81620;",
"08583099999","2010-01-23T12:00:00","4","16.8333333","-25.05","20.0","MINDELO, CV","FM-12","99999","V020","050,1,N,0113,1","22000,1,C,N","010000,1,N,1","+0253,1","+0175,1","10160,1",,,,"02,1,+00660,1,06,1",,,"05,99,1,02,1,05,1,00800,1,00,1,06,1",,"9,9,999,9,-009,1",,"SYN076AAXX  23124 08583 32560 50522 10253 20175 40160 82506 333 59009 82622 85070;",
"08583099999","2010-01-23T18:00:00","4","16.8333333","-25.05","20.0","MINDELO, CV","FM-12","99999","V020","060,1,N,0118,1","22000,1,9,N","012000,1,N,1","+0253,1","+0175,1","10132,1",,,,"01,1,+00600,1,06,1",,,"03,99,1,01,1,05,1,00800,1,00,1,01,1","120,M,+0270,1","9,9,999,9,-006,1",,"SYN082AAXX  23184 08583 32562 30623 10253 20175 40132 81501 333 10270 59006 81620 83070;",
"08583099999","2010-01-24T00:00:00","4","16.8333333","-25.05","20.0","MINDELO, CV","FM-12","99999","V020","050,1,N,0118,1","22000,1,9,N","010000,1,N,1","+0222,1","+0158,1","10161,1",,,,"01,1,+00600,1,06,1",,,"03,99,1,01,1,05,1,00800,1,03,1,00,1",,"9,9,999,9,-009,1",,"SYN070AAXX  24004 08583 32560 30523 10222 20158 40161 81530 333 59009 81620;",
"08583099999","2010-01-24T06:00:00","4","16.8333333","-25.05","20.0","MINDELO, CV","FM-12","99999","V020","040,1,N,0098,1","22000,1,9,N","012000,1,N,1","+0208,1","+0175,1","10145,1",,,,"02,1,+00540,1,06,1",,,"02,99,1,02,1,05,1,00800,1,00,1,00,1","999,N,+0198,1","9,9,999,9,+003,1",,"SYN076AAXX  24064 08583 32562 20419 10208 20175 40145 82500 333 20198 58003 82618;",
"08583099999","2010-01-24T12:00:00","4","16.8333333","-25.05","20.0","MINDELO, CV","FM-12","99999","V020","060,1,N,0144,1","22000,1,9,N","010000,1,N,1","+0255,1","+0163,1","10162,1",,,,"02,1,+00600,1,06,1",,,"02,99,1,02,1,05,1,00800,1,00,1,01,1",,"9,9,999,9,+002,1",,"SYN070AAXX  24124 08583 32560 20628 10255 20163 40162 82501 333 58002 82620;",
"08583099999","2010-01-24T18:00:00","4","16.8333333","-25.05","20.0","MINDELO, CV","FM-12","99999","V020","050,1,N,0134,1","22000,1,9,N","010000,1,N,1","+0247,1","+0170,1","10140,1",,,,"02,1,+00600,1,06,1",,,"02,99,1,02,1,05,1,00800,1,00,1,00,1","120,M,+0266,1","9,9,999,9,+008,1",,"SYN076AAXX  24184 08583 32560 20526 10247 20170 40140 82500 333 10266 58008 82620;",
"08583099999","2010-01-25T00:00:00","4","16.8333333","-25.05","20.0","MINDELO, CV","FM-12","99999","V020","060,1,N,0072,1","22000,1,9,N","008000,1,N,1","+0215,1","+0170,1","10164,1",,"0,1,06,1","0,1,06,1","03,1,+00690,1,06,1",,,"04,99,1,03,1,02,1,00800,1,00,1,01,1",,"9,9,999,9,+003,1","06,1","SYN076AAXX  25004 08583 31558 40614 10215 20170 40164 70600 83201 333 58003 83623;",
"08583099999","2010-01-25T06:00:00","4","16.8333333","-25.05","20.0","MINDELO, CV","FM-12","99999","V020","060,1,N,0082,1","22000,1,9,N","010000,1,N,1","+0203,1","+0163,1","10150,1",,"0,1,06,1","0,1,06,1","01,1,+00690,1,06,1",,,"01,99,1,01,1,05,1,00800,1,00,1,00,1","999,N,+0203,1","9,9,999,9,+005,1","06,1","SYN082AAXX  25064 08583 32560 10616 10203 20163 40150 70600 81500 333 20203 58005 81623;",
"08583099999","2010-01-25T12:00:00","4","16.8333333","-25.05","20.0","MINDELO, CV","FM-12","99999","V020","040,1,N,0123,1","22000,1,9,N","012000,1,N,1","+0245,1","+0160,1","10167,1",,,,"02,1,+00660,1,06,1",,,"02,99,1,02,1,05,1,00800,1,00,1,00,1",,"9,9,999,9,+006,1",,"SYN070AAXX  25124 08583 32562 20424 10245 20160 40167 82500 333 58006 82622;",
"08583099999","2010-01-26T00:00:00","4","16.8333333","-25.05","20.0","MINDELO, CV","FM-12","99999","V020","999,9,9,9999,9","22000,1,9,N","007000,1,N,1","+9999,9","+9999,9","99999,9",,"0,1,06,1","0,1,06,1","01,1,+00600,1,06,1",,,"01,99,1,01,1,02,1,00800,1,00,1,00,1",,,"06,1","SYN076AAXX  26004 08583 31557 1//// 1//// 2//// 40/// 70600 81200 333 5//// 81620;",
"08583099999","2010-01-26T12:00:00","4","16.8333333","-25.05","20.0","MINDELO, CV","FM-12","99999","V020","040,1,N,0067,1","22000,1,9,N","015000,1,N,1","+0241,1","+0135,1","10157,1",,,,"01,1,+00660,1,06,1",,,"01,99,1,01,1,05,1,00800,1,00,1,00,1",,"9,9,999,9,-010,1",,"SYN070AAXX  26124 08583 32565 10413 10241 20135 40157 81500 333 59010 81622;",
"08583099999","2010-01-26T18:00:00","4","16.8333333","-25.05","20.0","MINDELO, CV","FM-12","99999","V020","060,1,N,0077,1","22000,1,9,N","025000,1,N,1","+0240,1","+0140,1","10125,1",,,,"01,1,+00600,1,06,1",,,"01,99,1,01,1,05,1,00800,1,00,1,00,1","120,M,+0253,1","9,9,999,9,-010,1",,"SYN076AAXX  26184 08583 32575 10615 10240 20140 40125 81500 333 10253 59010 81620;",
"08583099999","2010-01-27T00:00:00","4","16.8333333","-25.05","20.0","MINDELO, CV","FM-12","99999","V020","060,1,N,0067,1","22000,1,9,N","013000,1,N,1","+0240,1","+0191,1","10150,1",,,,"00,1,+99999,9,99,9",,,"00,99,1,00,1,00,1,99999,9,00,1,00,1",,,,"SYN058AAXX  27004 08583 32963 00613 10240 20191 40150 333 5////;",
"08583099999","2010-01-27T06:00:00","4","16.8333333","-25.05","20.0","MINDELO, CV","FM-12","99999","V020","050,1,N,0026,1","22000,1,9,N","009000,1,N,1","+0163,1","+0132,1","10131,1",,"0,1,06,1","0,1,06,1","01,1,+00600,1,06,1",,,"04,99,1,01,1,05,1,00800,1,00,1,01,1","999,N,+0161,1",,"06,1","SYN088AAXX  27064 08583 31559 40505 10163 20132 40131 70600 81501 333 20161 5//// 81620 84070;",
"08583099999","2010-01-27T12:00:00","4","16.8333333","-25.05","20.0","MINDELO, CV","FM-12","99999","V020","999,9,V,0021,1","22000,1,9,N","015000,1,N,1","+0235,1","+0150,1","10146,1",,,,"01,1,+00600,1,06,1",,,"01,99,1,01,1,05,1,00800,1,00,1,00,1",,"9,9,999,9,-011,1",,"SYN070AAXX  27124 08583 32565 19904 10235 20150 40146 81500 333 59011 81620;",
"08583099999","2010-01-27T18:00:00","4","16.8333333","-25.05","20.0","MINDELO, CV","FM-12","99999","V020","220,1,N,0031,1","22000,1,9,N","020000,1,N,1","+0230,1","+0148,1","10118,1",,,,"03,1,+00660,1,06,1",,,"03,99,1,03,1,05,1,00800,1,00,1,00,1","120,M,+0250,1","9,9,999,9,-007,1",,"SYN076AAXX  27184 08583 32570 32206 10230 20148 40118 83500 333 10250 59007 83622;",
"08583099999","2010-01-28T00:00:00","4","16.8333333","-25.05","20.0","MINDELO, CV","FM-12","99999","V020","060,1,N,0015,1","22000,1,9,N","015000,1,N,1","+0195,1","+0135,1","10142,1",,,,"02,1,+02700,1,03,1",,,"02,99,1,02,1,00,1,99999,9,03,1,00,1",,"9,9,999,9,-008,1",,"SYN070AAXX  28004 08583 32965 20603 10195 20135 40142 82030 333 59008 82359;",
"08583099999","2010-01-28T06:00:00","4","16.8333333","-25.05","20.0","MINDELO, CV","FM-12","99999","V020","060,1,N,0015,1","22000,1,9,N","015000,1,N,1","+0183,1","+0145,1","10130,1",,,,"01,1,+00600,1,06,1",,,"02,99,1,01,1,05,1,00800,1,03,1,00,1","999,N,+0152,1","9,9,999,9,-001,1",,"SYN076AAXX  28064 08583 32565 20603 10183 20145 40130 81530 333 20152 59001 81620;",
"08583099999","2010-01-28T12:00:00","4","16.8333333","-25.05","20.0","MINDELO, CV","FM-12","99999","V020","200,1,N,0031,1","22000,1,9,N","020000,1,N,1","+0233,1","+0160,1","10149,1",,,,"03,1,+00690,1,08,1",,,"03,99,1,03,1,01,1,00800,1,00,1,00,1",,"9,9,999,9,+003,1",,"SYN070AAXX  28124 08583 32570 32006 10233 20160 40149 83100 333 58003 83823;",
"08583099999","2010-01-28T18:00:00","4","16.8333333","-25.05","20.0","MINDELO, CV","FM-12","99999","V020","240,1,N,0036,1","22000,1,9,N","020000,1,N,1","+0237,1","+0170,1","10116,1",,,,"01,1,+00690,1,08,1",,,"01,99,1,01,1,01,1,00800,1,00,1,00,1","120,M,+0246,1","9,9,999,9,-002,1",,"SYN076AAXX  28184 08583 32570 12407 10237 20170 40116 81100 333 10246 59002 81823;",
"08583099999","2010-01-29T00:00:00","4","16.8333333","-25.05","20.0","MINDELO, CV","FM-12","99999","V020","210,1,N,0026,1","04500,1,C,N","018000,1,N,1","+0225,1","+0180,1","10148,1",,,,"03,1,+00690,1,06,1",,,"05,99,1,03,1,05,1,00800,1,03,1,00,1",,"9,9,999,9,-006,1",,"SYN076AAXX  29004 08583 32568 52105 10225 20180 40148 83530 333 59006 83623 84359;",
"08583099999","2010-01-29T06:00:00","4","16.8333333","-25.05","20.0","MINDELO, CV","FM-12","99999","V020","030,1,N,0010,1","01200,1,C,N","015000,1,N,1","+0195,1","+0167,1","10136,1",,,,"01,1,+00600,1,08,1",,,"06,99,1,06,1,08,1,00800,1,00,1,00,1","999,N,+0170,1","9,9,999,9,+006,1",,"SYN082AAXX  29064 08583 32565 60302 10195 20167 40136 86800 333 20170 58006 81820 86624;",
"08583099999","2010-01-29T12:00:00","4","16.8333333","-25.05","20.0","MINDELO, CV","FM-12","99999","V020","210,1,N,0021,1","22000,1,9,N","015000,1,N,1","+0241,1","+0180,1","10148,1",,,,"01,1,+00720,1,06,1",,,"02,99,1,02,1,05,1,00800,1,00,1,00,1",,"9,9,999,9,-001,1",,"SYN070AAXX  29124 08583 32565 22104 10241 20180 40148 82500 333 59001 81624;",
"08583099999","2010-01-29T18:00:00","4","16.8333333","-25.05","20.0","MINDELO, CV","FM-12","99999","V020","230,1,N,0041,1","22000,1,9,N","018000,1,N,1","+0240,1","+0186,1","10118,1",,,,"03,1,+00660,1,06,1",,,"03,99,1,03,1,05,1,00800,1,00,1,00,1","120,M,+0255,1","9,9,999,9,+002,1",,"SYN076AAXX  29184 08583 32568 32308 10240 20186 40118 83500 333 10255 58002 83622;",
"08583099999","2010-01-30T06:00:00","4","16.8333333","-25.05","20.0","MINDELO, CV","FM-12","99999","V020","999,9,C,0000,1","22000,1,9,N","012000,1,N,1","+0200,1","+0181,1","10127,1",,,,"01,1,+00510,1,06,1",,,"02,99,1,01,1,05,1,00800,1,03,1,00,1","999,N,+0185,1","9,9,999,9,-009,1",,"SYN076AAXX  30064 08583 32562 20000 10200 20181 40127 81530 333 20185 59009 81617;",
"08583099999","2010-01-30T12:00:00","4","16.8333333","-25.05","20.0","MINDELO, CV","FM-12","99999","V020","230,1,N,0036,1","22000,1,9,N","012000,1,N,1","+0245,1","+0193,1","10137,1",,,,"02,1,+00510,1,06,1",,,"02,99,1,01,1,05,1,00450,1,00,1,00,1",,"9,9,999,9,-011,1",,"SYN070AAXX  30124 08583 32462 22307 10245 20193 40137 81500 333 59011 82617;",
"08583099999","2010-01-30T18:00:00","4","16.8333333","-25.05","20.0","MINDELO, CV","FM-12","99999","V020","240,1,N,0041,1","22000,1,9,N","015000,1,N,1","+0247,1","+0193,1","10111,1",,,,"01,1,+00600,1,06,1",,,"01,99,1,01,1,05,1,00800,1,00,1,00,1","120,M,+0260,1","9,9,999,9,-007,1",,"SYN076AAXX  30184 08583 32565 12408 10247 20193 40111 81500 333 10260 59007 81620;",
"08583099999","2010-01-31T00:00:00","4","16.8333333","-25.05","20.0","MINDELO, CV","FM-12","99999","V020","250,1,N,0057,1","22000,1,9,N","015000,1,N,1","+0232,1","+0200,1","10135,1",,,,"01,1,+00600,1,06,1",,,"03,99,1,01,1,05,1,00800,1,03,1,00,1",,"9,9,999,9,-009,1",,"SYN076AAXX  31004 08583 32565 32511 10232 20200 40135 81530 333 59009 81620 83359;",
"08583099999","2010-01-31T06:00:00","4","16.8333333","-25.05","20.0","MINDELO, CV","FM-12","99999","V020","260,1,N,0046,1","00600,1,9,N","015000,1,N,1","+0225,1","+0192,1","10120,1",,,,"05,1,+00600,1,06,1",,,"05,99,1,05,1,05,1,00800,1,00,1,00,1","999,N,+0188,1","9,9,999,9,-007,1",,"SYN076AAXX  31064 08583 32565 52609 10225 20192 40120 85500 333 20188 59007 85620;",
"08583099999","2010-01-31T12:00:00","4","16.8333333","-25.05","20.0","MINDELO, CV","FM-12","99999","V020","270,1,N,0026,1","22000,1,9,N","020000,1,N,1","+0266,1","+0180,1","10138,1",,,,"02,1,+00600,1,08,1",,,"04,99,1,02,1,02,1,00800,1,03,1,01,1",,"9,9,999,9,+001,1",,"SYN076AAXX  31124 08583 32570 42705 10266 20180 40138 82231 333 58001 82820 84070;",
"08583099999","2010-01-31T18:00:00","4","16.8333333","-25.05","20.0","MINDELO, CV","FM-12","99999","V020","270,1,N,0046,1","22000,1,9,N","025000,1,N,1","+0256,1","+0170,1","10128,1",,,,"02,1,+00600,1,06,1",,,"02,99,1,02,1,02,1,00800,1,00,1,00,1","120,M,+0277,1","9,9,999,9,-017,1",,"SYN076AAXX  31184 08583 32575 22709 10256 20170 40128 82200 333 10277 59017 82620;",
"08583099999","2010-02-01T00:00:00","4","16.8333333","-25.05","20.0","MINDELO, CV","FM-12","99999","V020","250,1,N,0046,1","22000,1,9,N","025000,1,N,1","+0231,1","+0185,1","10142,1",,,,"03,1,+00660,1,08,1",,,"03,99,1,03,1,01,1,00800,1,03,1,00,1",,"9,9,999,9,+013,1",,"SYN070AAXX  01004 08583 32575 32509 10231 20185 40142 83130 333 58013 83822;",
"08583099999","2010-02-01T12:00:00","4","16.8333333","-25.05","20.0","MINDELO, CV","FM-12","99999","V020","250,1,N,0031,1","22000,1,9,N","020000,1,N,1","+0251,1","+0180,1","10163,1",,,,"01,1,+00600,1,08,1",,,"04,99,1,01,1,02,1,00800,1,03,1,01,1",,"9,9,999,9,+025,1",,"SYN070AAXX  01124 08583 32570 42506 10251 20180 40163 81231 333 58025 81820;",
"08583099999","2010-02-01T18:00:00","4","16.8333333","-25.05","20.0","MINDELO, CV","FM-12","99999","V020","250,1,N,0046,1","01200,1,C,N","020000,1,N,1","+0253,1","+0175,1","10150,1",,,,"02,1,+00660,1,08,1",,,"06,99,1,06,1,08,1,00800,1,00,1,00,1","120,M,+0266,1","9,9,999,9,+022,1",,"SYN082AAXX  01184 08583 32570 62509 10253 20175 40150 86800 333 10266 58022 82822 86625;",
"08583099999","2010-02-02T00:00:00","4","16.8333333","-25.05","20.0","MINDELO, CV","FM-12","99999","V020","060,1,N,0021,1","22000,1,9,N","015000,1,N,1","+0222,1","+0170,1","10165,1",,,,"01,1,+03000,1,03,1",,,"01,99,1,01,1,00,1,99999,9,03,1,00,1",,"9,9,999,9,+023,1",,"SYN070AAXX  02004 08583 32965 10604 10222 20170 40165 81030 333 58023 81360;",
"08583099999","2010-02-02T06:00:00","4","16.8333333","-25.05","20.0","MINDELO, CV","FM-12","99999","V020","060,1,N,0026,1","22000,1,9,N","015000,1,N,1","+0197,1","+0171,1","10155,1",,,,"00,1,+99999,9,99,9",,,"00,99,1,00,1,00,1,99999,9,00,1,00,1","999,N,+0195,1","9,9,999,9,+018,1",,"SYN064AAXX  02064 08583 32965 00605 10197 20171 40155 333 20195 58018;",
"08583099999","2010-02-02T12:00:00","4","16.8333333","-25.05","20.0","MINDELO, CV","FM-12","99999","V020","200,1,N,0031,1","22000,1,9,N","020000,1,N,1","+0250,1","+0180,1","10171,1",,,,"02,1,+00660,1,06,1",,,"02,99,1,02,1,05,1,99999,9,00,1,00,1",,"9,9,999,9,+008,1",,"SYN070AAXX  02124 08583 32970 22006 10250 20180 40171 82500 333 58008 82622;",
"08583099999","2010-02-02T18:00:00","4","16.8333333","-25.05","20.0","MINDELO, CV","FM-12","99999","V020","070,1,N,0098,1","22000,1,9,N","020000,1,N,1","+0260,1","+0171,1","10147,1",,,,"01,1,+00660,1,06,1",,,"01,99,1,01,1,05,1,00800,1,00,1,00,1","120,M,+0277,1","9,9,999,9,-003,1",,"SYN076AAXX  02184 08583 32570 10719 10260 20171 40147 81500 333 10277 59003 81622;",
"08583099999","2010-02-03T00:00:00","4","16.8333333","-25.05","20.0","MINDELO, CV","FM-12","99999","V020","060,1,N,0082,1","22000,1,9,N","020000,1,N,1","+0223,1","+0176,1","10172,1",,,,"01,1,+00540,1,06,1",,,"01,99,1,01,1,05,1,00450,1,00,1,00,1",,"9,9,999,9,+007,1",,"SYN070AAXX  03004 08583 32470 10616 10223 20176 40172 81500 333 58007 81618;",
"08583099999","2010-02-03T06:00:00","4","16.8333333","-25.05","20.0","MINDELO, CV","FM-12","99999","V020","070,1,N,0082,1","22000,1,9,N","025000,1,N,1","+0215,1","+0175,1","10163,1",,,,"01,1,+00600,1,06,1",,,"01,99,1,01,1,05,1,00450,1,00,1,00,1","999,N,+0180,1","9,9,999,9,+001,1",,"SYN076AAXX  03064 08583 32475 10716 10215 20175 40163 81500 333 20180 58001 81620;",
"08583099999","2010-02-03T12:00:00","4","16.8333333","-25.05","20.0","MINDELO, CV","FM-12","99999","V020","060,1,N,0093,1","22000,1,9,N","020000,1,N,1","+0255,1","+0163,1","10187,1",,,,"02,1,+00720,1,06,1",,,"02,99,1,02,1,05,1,00800,1,00,1,00,1",,"9,9,999,9,+016,1",,"SYN070AAXX  03124 08583 32570 20618 10255 20163 40187 82500 333 58016 82624;",
"08583099999","2010-02-03T18:00:00","4","16.8333333","-25.05","20.0","MINDELO, CV","FM-12","99999","V020","060,1,N,0118,1","22000,1,9,N","025000,1,N,1","+0245,1","+0160,1","10143,1",,,,"01,1,+00690,1,06,1",,,"01,99,1,01,1,05,1,00800,1,00,1,00,1","120,M,+0267,1","9,9,999,9,-007,1",,"SYN076AAXX  03184 08583 32575 10623 10245 20160 40143 81500 333 10267 59007 81623;",
"08583099999","2010-02-04T00:00:00","4","16.8333333","-25.05","20.0","MINDELO, CV","FM-12","99999","V020","070,1,N,0108,1","22000,1,9,N","020000,1,N,1","+0220,1","+0163,1","10172,1",,,,"01,1,+00690,1,06,1",,,"02,99,1,02,1,05,1,00800,1,00,1,01,1",,"9,9,999,9,+008,1",,"SYN070AAXX  04004 08583 32570 20721 10220 20163 40172 82501 333 58008 81623;",
"08583099999","2010-02-04T06:00:00","4","16.8333333","-25.05","20.0","MINDELO, CV","FM-12","99999","V020","070,1,N,0077,1","22000,1,9,N","020000,1,N,1","+0217,1","+0156,1","10159,1",,,,"02,1,+00690,1,06,1",,,"03,99,1,02,1,05,1,00800,1,00,1,01,1","999,N,+0211,1","9,9,999,9,-004,1",,"SYN076AAXX  04064 08583 32570 30715 10217 20156 40159 82501 333 20211 59004 82623;",
"08583099999","2010-02-04T12:00:00","4","16.8333333","-25.05","20.0","MINDELO, CV","FM-12","99999","V020","060,1,N,0103,1","22000,1,9,N","025000,1,N,1","+0261,1","+0151,1","10179,1",,,,"02,1,+00600,1,06,1",,,"02,99,1,02,1,05,1,00800,1,00,1,00,1",,"9,9,999,9,-008,1",,"SYN070AAXX  04124 08583 32575 20620 10261 20151 40179 82500 333 59008 82620;",
"08583099999","2010-02-04T18:00:00","4","16.8333333","-25.05","20.0","MINDELO, CV","FM-12","99999","V020","050,1,N,0118,1","22000,1,9,N","025000,1,N,1","+0250,1","+0168,1","10145,1",,,,"02,1,+00660,1,06,1",,,"02,99,1,02,1,02,1,00800,1,00,1,00,1","120,M,+0270,1","9,9,999,9,-002,1",,"SYN076AAXX  04184 08583 32575 20523 10250 20168 40145 82200 333 10270 59002 82622;",
"08583099999","2010-02-05T00:00:00","4","16.8333333","-25.05","20.0","MINDELO, CV","FM-12","99999","V020","070,1,N,0067,1","22000,1,9,N","020000,1,N,1","+0217,1","+0162,1","10171,1",,,,"01,1,+00660,1,06,1",,,"01,99,1,01,1,05,1,00800,1,00,1,00,1",,"9,9,999,9,-001,1",,"SYN070AAXX  05004 08583 32570 10713 10217 20162 40171 81500 333 59001 81622;",
"08583099999","2010-02-05T06:00:00","4","16.8333333","-25.05","20.0","MINDELO, CV","FM-12","99999","V020","070,1,N,0082,1","22000,1,9,N","020000,1,N,1","+0212,1","+0163,1","10151,1",,,,"02,1,+00600,1,06,1",,,"02,99,1,02,1,05,1,00800,1,00,1,00,1","999,N,+0210,1","9,9,999,9,-008,1",,"SYN076AAXX  05064 08583 32570 20716 10212 20163 40151 82500 333 20210 59008 82620;",
"08583099999","2010-02-05T12:00:00","4","16.8333333","-25.05","20.0","MINDELO, CV","FM-12","99999","V020","060,1,N,0129,1","22000,1,9,N","025000,1,N,1","+0250,1","+0170,1","10163,1",,,,"01,1,+00600,1,06,1",,,"01,99,1,01,1,02,1,00800,1,00,1,00,1",,"9,9,999,9,-016,1",,"SYN070AAXX  05124 08583 32575 10625 10250 20170 40163 81200 333 59016 81620;",
"08583099999","2010-02-05T18:00:00","4","16.8333333","-25.05","20.0","MINDELO, CV","FM-12","99999","V020","040,1,N,0072,1","22000,1,9,N","025000,1,N,1","+0250,1","+0181,1","10143,1",,,,"01,1,+00540,1,06,1",,,"01,99,1,01,1,05,1,00450,1,00,1,00,1","120,M,+0266,1","9,9,999,9,-007,1",,"SYN076AAXX  05184 08583 32475 10414 10250 20181 40143 81500 333 10266 59007 81618;",
"08583099999","2010-02-06T00:00:00","4","16.8333333","-25.05","20.0","MINDELO, CV","FM-12","99999","V020","060,1,N,0072,1","22000,1,9,N","025000,1,N,1","+0215,1","+0190,1","10169,1",,,,"02,1,+00540,1,06,1",,,"02,99,1,02,1,05,1,00450,1,00,1,00,1",,"9,9,999,9,-002,1",,"SYN070AAXX  06004 08583 32475 20614 10215 20190 40169 82500 333 59002 82618;",
"08583099999","2010-02-06T06:00:00","4","16.8333333","-25.05","20.0","MINDELO, CV","FM-12","99999","V020","070,1,N,0077,1","22000,1,9,N","015000,1,N,1","+0205,1","+0192,1","10139,1",,,,"01,1,+00540,1,06,1",,,"01,99,1,01,1,05,1,00450,1,00,1,00,1","999,N,+0203,1","9,9,999,9,-012,1",,"SYN076AAXX  06064 08583 32465 10715 10205 20192 40139 81500 333 20203 59012 81618;",
"08583099999","2010-02-06T12:00:00","4","16.8333333","-25.05","20.0","MINDELO, CV","FM-12","99999","V020","070,1,N,0123,1","22000,1,9,N","020000,1,N,1","+0285,1","+0155,1","10145,1",,,,"01,1,+00480,1,06,1",,,"01,99,1,01,1,05,1,00450,1,00,1,00,1",,"9,9,999,9,-018,1",,"SYN070AAXX  06124 08583 32470 10724 10285 20155 40145 81500 333 59018 81616;",
"08583099999","2010-02-06T18:00:00","4","16.8333333","-25.05","20.0","MINDELO, CV","FM-12","99999","V020","060,1,N,0144,1","22000,1,9,N","025000,1,N,1","+0262,1","+0191,1","10124,1",,,,"02,1,+00480,1,06,1",,,"02,99,1,02,1,05,1,00450,1,00,1,00,1","120,M,+0303,1","9,9,999,9,-019,1",,"SYN076AAXX  06184 08583 32475 20628 10262 20191 40124 82500 333 10303 59019 82616;",
"08583099999","2010-02-07T12:00:00","4","16.8333333","-25.05","20.0","MINDELO, CV","FM-12","99999","V020","060,1,N,0108,1","22000,1,9,N","011000,1,N,1","+0281,1","+0165,1","10160,1",,,,"01,1,+00510,1,08,1",,,"01,99,1,01,1,01,1,00450,1,00,1,04,1",,"9,9,999,9,+020,1",,"SYN070AAXX  07124 08583 32461 10621 10281 20165 40160 81104 333 58020 81817;",
"08583099999","2010-02-07T18:00:00","4","16.8333333","-25.05","20.0","MINDELO, CV","FM-12","99999","V020","060,1,N,0159,1","22000,1,9,N","008000,1,N,1","+0255,1","+0192,1","10129,1",,"0,1,06,1","0,1,06,1","01,1,+00510,1,06,1",,,"03,99,1,01,1,05,1,00450,1,00,1,01,1","120,M,+0301,1","9,9,999,9,+005,1","06,1","SYN088AAXX  07184 08583 31458 30631 10255 20192 40129 70600 81501 333 10301 58005 81617 83070;",
"08583099999","2010-02-08T06:00:00","4","16.8333333","-25.05","20.0","MINDELO, CV","FM-12","99999","V020","060,1,N,0123,1","22000,1,9,N","010000,1,N,1","+0212,1","+0182,1","10133,1",,,,"02,1,+00510,1,06,1",,,"02,99,1,02,1,05,1,00450,1,00,1,00,1","999,N,+0210,1","9,9,999,9,-009,1",,"SYN076AAXX  08064 08583 32460 20624 10212 20182 40133 82500 333 20210 59009 82617;",
"08583099999","2010-02-08T12:00:00","4","16.8333333","-25.05","20.0","MINDELO, CV","FM-12","99999","V020","070,1,N,0164,1","22000,1,9,N","009000,1,N,1","+0255,1","+0180,1","10150,1",,"0,1,06,1","0,1,06,1","02,1,+00480,1,06,1",,,"02,99,1,02,1,05,1,00450,1,00,1,00,1",,"9,9,999,9,-010,1","06,1","SYN076AAXX  08124 08583 31459 20732 10255 20180 40150 70600 82500 333 59010 82616;",
"08583099999","2010-02-08T18:00:00","4","16.8333333","-25.05","20.0","MINDELO, CV","FM-12","99999","V020","060,1,N,0139,1","22000,1,9,N","012000,1,N,1","+0247,1","+0178,1","10127,1",,,,"02,1,+00540,1,06,1",,,"99,99,9,01,1,05,1,00450,1,00,1,00,1","120,M,+0272,1","9,9,999,9,-002,1",,"SYN076AAXX  08184 08583 32462 10627 10247 20178 40127 81500 333 10272 59002 82618;","Q01+000012SCOTCV"
"08583099999","2010-02-09T00:00:00","4","16.8333333","-25.05","20.0","MINDELO, CV","FM-12","99999","V020","060,1,N,0103,1","22000,1,9,N","012000,1,N,1","+0218,1","+0165,1","10152,1",,,,"01,1,+00540,1,06,1",,,"04,99,1,01,1,05,1,00450,1,00,1,01,1",,"9,9,999,9,-005,1",,"SYN076AAXX  09004 08583 32462 40620 10218 20165 40152 81501 333 59005 81618 84070;",
"08583099999","2010-02-09T12:00:00","4","16.8333333","-25.05","20.0","MINDELO, CV","FM-12","99999","V020","060,1,N,0093,1","22000,1,9,N","015000,1,N,1","+0253,1","+0161,1","10142,1",,,,"01,1,+00600,1,06,1",,,"01,99,1,01,1,05,1,00800,1,00,1,00,1",,"9,9,999,9,-008,1",,"SYN070AAXX  09124 08583 32565 10618 10253 20161 40142 81500 333 59008 81620;",
"08583099999","2010-02-09T18:00:00","4","16.8333333","-25.05","20.0","MINDELO, CV","FM-12","99999","V020","060,1,N,0098,1","22000,1,9,N","020000,1,N,1","+0250,1","+0166,1","10111,1",,,,"01,1,+00600,1,06,1",,,"01,99,1,01,1,05,1,00800,1,00,1,00,1","120,M,+0270,1","9,9,999,9,-009,1",,"SYN076AAXX  09184 08583 32570 10619 10250 20166 40111 81500 333 10270 59009 81620;",
"08583099999","2010-02-10T00:00:00","4","16.8333333","-25.05","20.0","MINDELO, CV","FM-12","99999","V020","070,1,N,0072,1","22000,1,9,N","020000,1,N,1","+0212,1","+0163,1","10139,1",,,,"01,1,+00540,1,06,1",,,"01,99,1,01,1,05,1,00450,1,00,1,00,1",,"9,9,999,9,-013,1",,"SYN070AAXX  10004 08583 32470 10714 10212 20163 40139 81500 333 59013 81618;",
"08583099999","2010-02-10T06:00:00","4","16.8333333","-25.05","20.0","MINDELO, CV","FM-12","99999","V020","060,1,N,0046,1","22000,1,9,N","020000,1,N,1","+0200,1","+0162,1","10122,1",,,,"01,1,+00600,1,06,1",,,"01,99,1,01,1,05,1,00800,1,00,1,00,1","999,N,+0190,1","9,9,999,9,-010,1",,"SYN076AAXX  10064 08583 32570 10609 10200 20162 40122 81500 333 20190 59010 81620;",
"08583099999","2010-02-10T12:00:00","4","16.8333333","-25.05","20.0","MINDELO, CV","FM-12","99999","V020","050,1,N,0087,1","22000,1,9,N","015000,1,N,1","+0247,1","+0162,1","10142,1",,,,"01,1,+00600,1,06,1",,,"01,99,1,01,1,05,1,00800,1,00,1,00,1",,"9,9,999,9,+000,1",,"SYN070AAXX  10124 08583 32565 10517 10247 20162 40142 81500 333 58000 81620;",
"08583099999","2010-02-10T18:00:00","4","16.8333333","-25.05","20.0","MINDELO, CV","FM-12","99999","V020","040,1,N,0005,1","22000,1,9,N","015000,1,N,1","+0256,1","+0167,1","10112,1",,,,"01,1,+00540,1,06,1",,,"01,99,1,01,1,05,1,00450,1,00,1,00,1","120,M,+0268,1","9,9,999,9,+001,1",,"SYN076AAXX  10184 08583 32465 10401 10256 20167 40112 81500 333 10268 58001 81618;",
"08583099999","2010-02-11T00:00:00","4","16.8333333","-25.05","20.0","MINDELO, CV","FM-12","99999","V020","060,1,N,0057,1","22000,1,9,N","012000,1,N,1","+0211,1","+0168,1","10140,1",,,,"01,1,+00540,1,06,1",,,"01,99,1,01,1,05,1,00450,1,00,1,00,1",,"9,9,999,9,+001,1",,"SYN070AAXX  11004 08583 32462 10611 10211 20168 40140 81500 333 58001 81618;",
"08583099999","2010-02-11T06:00:00","4","16.8333333","-25.05","20.0","MINDELO, CV","FM-12","99999","V020","070,1,N,0041,1","22000,1,9,N","015000,1,N,1","+0188,1","+0162,1","10131,1",,,,"01,1,+00540,1,06,1",,,"01,99,1,01,1,05,1,00450,1,00,1,00,1","999,N,+0186,1","9,9,999,9,+009,1",,"SYN076AAXX  11064 08583 32465 10708 10188 20162 40131 81500 333 20186 58009 81618;",
"08583099999","2010-02-11T12:00:00","4","16.8333333","-25.05","20.0","MINDELO, CV","FM-12","99999","V020","050,1,N,0067,1","22000,1,9,N","012000,1,N,1","+0245,1","+0165,1","10147,1",,,,"01,1,+00540,1,06,1",,,"01,99,1,01,1,05,1,00450,1,00,1,00,1",,"9,9,999,9,+005,1",,"SYN070AAXX  11124 08583 32462 10513 10245 20165 40147 81500 333 58005 81618;",
"08583099999","2010-02-12T00:00:00","4","16.8333333","-25.05","20.0","MINDELO, CV","FM-12","99999","V020","070,1,N,0077,1","22000,1,9,N","012000,1,N,1","+0215,1","+0158,1","10137,1",,,,"01,1,+00600,1,06,1",,,"01,99,1,01,1,05,1,00800,1,00,1,00,1",,"9,9,999,9,-003,1",,"SYN070AAXX  12004 08583 32562 10715 10215 20158 40137 81500 333 59003 81620;",
"08583099999","2010-02-12T06:00:00","4","16.8333333","-25.05","20.0","MINDELO, CV","FM-12","99999","V020","070,1,N,0051,1","22000,1,9,N","012000,1,N,1","+0197,1","+0151,1","10122,1",,,,"01,1,+00600,1,06,1",,,"01,99,1,01,1,05,1,00800,1,00,1,00,1","999,N,+0181,1","9,9,999,9,-009,1",,"SYN076AAXX  12064 08583 32562 10710 10197 20151 40122 81500 333 20181 59009 81620;",
"08583099999","2010-02-12T12:00:00","4","16.8333333","-25.05","20.0","MINDELO, CV","FM-12","99999","V020","050,1,N,0072,1","22000,1,9,N","020000,1,N,1","+0246,1","+0151,1","10143,1",,,,"02,1,+00600,1,08,1",,,"02,99,1,02,1,01,1,00800,1,00,1,00,1",,"9,9,999,9,-004,1",,"SYN070AAXX  12124 08583 32570 20514 10246 20151 40143 82100 333 59004 82820;",
"08583099999","2010-02-12T18:00:00","4","16.8333333","-25.05","20.0","MINDELO, CV","FM-12","99999","V020","050,1,N,0067,1","22000,1,9,N","020000,1,N,1","+0250,1","+0142,1","10121,1",,,,"01,1,+00600,1,06,1",,,"01,99,1,01,1,05,1,00800,1,00,1,00,1","120,M,+0270,1","9,9,999,9,+004,1",,"SYN076AAXX  12184 08583 32570 10513 10250 20142 40121 81500 333 10270 58004 81620;",
"08583099999","2010-02-13T00:00:00","4","16.8333333","-25.05","20.0","MINDELO, CV","FM-12","99999","V020","070,1,N,0046,1","22000,1,9,N","020000,1,N,1","+0216,1","+0160,1","10147,1",,,,,,,"02,99,1,02,1,05,1,00800,1,00,1,00,1",,"9,9,999,9,+004,1",,"SYN076AAXX  13004 08583 32570 20709 10216 20160 40147 82500 333 58004 58010 82620;",
"08583099999","2010-02-13T06:00:00","4","16.8333333","-25.05","20.0","MINDELO, CV","FM-12","99999","V020","060,1,N,0015,1","22000,1,9,N","020000,1,N,1","+0195,1","+0165,1","10138,1",,,,"03,1,+00660,1,06,1",,,"03,99,1,03,1,05,1,00800,1,00,1,00,1","999,N,+0187,1","9,9,999,9,+016,1",,"SYN076AAXX  13064 08583 32570 30603 10195 20165 40138 83500 333 20187 58016 83622;",
"08583099999","2010-02-13T12:00:00","4","16.8333333","-25.05","20.0","MINDELO, CV","FM-12","99999","V020","220,1,N,0031,1","00600,1,9,N","025000,1,N,1","+0237,1","+0170,1","10151,1",,,,"05,1,+00600,1,08,1",,,"05,99,1,05,1,01,1,00800,1,00,1,00,1",,"9,9,999,9,+008,1",,"SYN070AAXX  13124 08583 32575 52206 10237 20170 40151 85100 333 58008 85820;",
"08583099999","2010-02-13T18:00:00","4","16.8333333","-25.05","20.0","MINDELO, CV","FM-12","99999","V020","250,1,N,0041,1","22000,1,9,N","025000,1,N,1","+0252,1","+0161,1","10123,1",,,,"02,1,+00660,1,06,1",,,"02,99,1,02,1,05,1,00800,1,00,1,00,1","120,M,+0262,1","9,9,999,9,+002,1",,"SYN076AAXX  13184 08583 32575 22508 10252 20161 40123 82500 333 10262 58002 82622;",
"08583099999","2010-02-14T00:00:00","4","16.8333333","-25.05","20.0","MINDELO, CV","FM-12","99999","V020","090,1,N,0026,1","22000,1,9,N","025000,1,N,1","+0227,1","+0170,1","10154,1",,,,"02,1,+00600,1,06,1",,,"03,99,1,02,1,02,1,00800,1,00,1,01,1",,"9,9,999,9,+007,1",,"SYN070AAXX  14004 08583 32575 30905 10227 20170 40154 82201 333 58007 82620;",
"08583099999","2010-02-14T12:00:00","4","16.8333333","-25.05","20.0","MINDELO, CV","FM-12","99999","V020","260,1,N,0031,1","22000,1,9,N","025000,1,N,1","+0251,1","+0162,1","10163,1",,,,"01,1,+00600,1,06,1",,,"01,99,1,01,1,05,1,00800,1,00,1,00,1",,"9,9,999,9,+012,1",,"SYN070AAXX  14124 08583 32575 12606 10251 20162 40163 81500 333 58012 81620;",
"08583099999","2010-02-14T18:00:00","4","16.8333333","-25.05","20.0","MINDELO, CV","FM-12","99999","V020","220,1,N,0031,1","22000,1,9,N","040000,1,N,1","+0250,1","+0142,1","10126,1",,,,"01,1,+00540,1,06,1",,,"02,99,1,01,1,05,1,00450,1,00,1,01,1","120,M,+0267,1","9,9,999,9,+003,1",,"SYN076AAXX  14184 08583 32482 22206 10250 20142 40126 81501 333 10267 58003 81618;",
"08583099999","2010-02-15T06:00:00","4","16.8333333","-25.05","20.0","MINDELO, CV","FM-12","99999","V020","999,9,V,0010,1","22000,1,9,N","020000,1,N,1","+0218,1","+0177,1","10132,1",,,,"01,1,+00600,1,06,1",,,"01,99,1,01,1,05,1,00800,1,00,1,00,1","999,N,+0182,1","9,9,999,9,-008,1",,"SYN076AAXX  15064 08583 32570 19902 10218 20177 40132 81500 333 20182 59008 81620;",
"08583099999","2010-02-15T12:00:00","4","16.8333333","-25.05","20.0","MINDELO, CV","FM-12","99999","V020","060,1,N,0072,1","00900,1,C,N","035000,1,N,1","+0260,1","+0180,1","10160,1",,,,"02,1,+00540,1,08,1",,,"06,99,1,06,1,08,1,00450,1,00,1,00,1",,"9,9,999,9,-003,1",,"SYN076AAXX  15124 08583 32481 60614 10260 20180 40160 86800 333 59003 82818 86623;",
"08583099999","2010-02-15T18:00:00","4","16.8333333","-25.05","20.0","MINDELO, CV","FM-12","99999","V020","060,1,N,0026,1","00900,1,C,N","030000,1,N,1","+0260,1","+0178,1","10132,1",,,,"02,1,+00540,1,08,1",,,"06,99,1,06,1,08,1,00450,1,00,1,00,1","120,M,+0276,1","9,9,999,9,-006,1",,"SYN082AAXX  15184 08583 32480 60605 10260 20178 40132 86800 333 10276 59006 82818 86625;",
"08583099999","2010-02-16T00:00:00","4","16.8333333","-25.05","20.0","MINDELO, CV","FM-12","99999","V020","060,1,N,0051,1","22000,1,9,N","020000,1,N,1","+0220,1","+0176,1","10156,1",,,,"01,1,+00540,1,08,1",,,"01,99,1,01,1,01,1,00450,1,00,1,00,1",,"9,9,999,9,+007,1",,"SYN070AAXX  16004 08583 32470 10610 10220 20176 40156 81100 333 58007 81818;",
"08583099999","2010-02-16T12:00:00","4","16.8333333","-25.05","20.0","MINDELO, CV","FM-12","99999","V020","070,1,N,0046,1","22000,1,9,N","025000,1,N,1","+0253,1","+0158,1","10167,1",,,,"01,1,+00600,1,06,1",,,"01,99,1,01,1,05,1,00800,1,00,1,00,1",,"9,9,999,9,+007,1",,"SYN070AAXX  16124 08583 32575 10709 10253 20158 40167 81500 333 58007 81620;",
"08583099999","2010-02-16T18:00:00","4","16.8333333","-25.05","20.0","MINDELO, CV","FM-12","99999","V020","190,1,N,0015,1","22000,1,9,N","030000,1,N,1","+0245,1","+0170,1","10136,1",,,,"02,1,+00660,1,06,1",,,"02,99,1,02,1,08,1,00800,1,00,1,00,1","120,M,+0270,1","9,9,999,9,+004,1",,"SYN076AAXX  16184 08583 32580 21903 10245 20170 40136 82800 333 10270 58004 82622;",
"08583099999","2010-02-17T00:00:00","4","16.8333333","-25.05","20.0","MINDELO, CV","FM-12","99999","V020","070,1,N,0036,1","22000,1,9,N","020000,1,N,1","+0222,1","+0165,1","10156,1",,,,"02,1,+00660,1,06,1",,,"02,99,1,02,1,05,1,00800,1,00,1,00,1",,"9,9,999,9,+000,1",,"SYN070AAXX  17004 08583 32570 20707 10222 20165 40156 82500 333 58000 82622;",
"08583099999","2010-02-17T06:00:00","4","16.8333333","-25.05","20.0","MINDELO, CV","FM-12","99999","V020","999,9,V,0010,1","22000,1,9,N","020000,1,N,1","+0217,1","+0162,1","10146,1",,,,"03,1,+00660,1,06,1",,,"03,99,1,03,1,05,1,00800,1,00,1,00,1","999,N,+0192,1","9,9,999,9,+005,1",,"SYN076AAXX  17064 08583 32570 39902 10217 20162 40146 83500 333 20192 58005 83622;",
"08583099999","2010-02-17T12:00:00","4","16.8333333","-25.05","20.0","MINDELO, CV","FM-12","99999","V020","200,1,N,0026,1","22000,1,9,N","030000,1,N,1","+0250,1","+0156,1","10159,1",,,,"01,1,+00690,1,08,1",,,"03,99,1,03,1,08,1,00800,1,00,1,00,1",,"9,9,999,9,-008,1",,"SYN076AAXX  17124 08583 32580 32005 10250 20156 40159 83800 333 59008 81823 83640;",
"08583099999","2010-02-17T18:00:00","4","16.8333333","-25.05","20.0","MINDELO, CV","FM-12","99999","V020","250,1,N,0046,1","22000,1,9,N","025000,1,N,1","+0255,1","+0170,1","10133,1",,,,"01,1,+00720,1,06,1",,,"01,99,1,01,1,05,1,00800,1,00,1,00,1","120,M,+0270,1","9,9,999,9,-003,1",,"SYN076AAXX  17184 08583 32575 12509 10255 20170 40133 81500 333 10270 59003 81624;",
"08583099999","2010-02-18T00:00:00","4","16.8333333","-25.05","20.0","MINDELO, CV","FM-12","99999","V020","999,9,C,0000,1","22000,1,9,N","020000,1,N,1","+0227,1","+0168,1","10159,1",,,,"01,1,+00600,1,06,1",,,"01,99,1,01,1,05,1,00800,1,00,1,01,1",,"9,9,999,9,+003,1",,"SYN070AAXX  18004 08583 32570 10000 10227 20168 40159 81501 333 58003 81620;",
"08583099999","2010-02-18T06:00:00","4","16.8333333","-25.05","20.0","MINDELO, CV","FM-12","99999","V020","140,1,N,0015,1","22000,1,9,N","025000,1,N,1","+0220,1","+0180,1","10152,1",,,,"01,1,+00660,1,08,1",,,"01,99,1,01,1,01,1,00800,1,00,1,00,1","999,N,+0210,1","9,9,999,9,+006,1",,"SYN076AAXX  18064 08583 32575 11403 10220 20180 40152 81100 333 20210 58006 81822;",
"08583099999","2010-02-18T12:00:00","4","16.8333333","-25.05","20.0","MINDELO, CV","FM-12","99999","V020","080,1,N,0036,1","22000,1,9,N","020000,1,N,1","+0260,1","+0162,1","10177,1",,,,"03,1,+00660,1,08,1",,,"03,99,1,03,1,01,1,00800,1,00,1,00,1",,"9,9,999,9,+018,1",,"SYN070AAXX  18124 08583 32570 30807 10260 20162 40177 83100 333 58018 83822;",
"08583099999","2010-02-18T18:00:00","4","16.8333333","-25.05","20.0","MINDELO, CV","FM-12","99999","V020","050,1,N,0093,1","22000,1,9,N","025000,1,N,1","+0257,1","+0150,1","10158,1",,,,"01,1,+00660,1,08,1",,,"01,99,1,01,1,05,1,00800,1,00,1,00,1","120,M,+0273,1","9,9,999,9,+025,1",,"SYN076AAXX  18184 08583 32575 10518 10257 20150 40158 81500 333 10273 58025 81822;",
"08583099999","2010-02-19T06:00:00","4","16.8333333","-25.05","20.0","MINDELO, CV","FM-12","99999","V020","070,1,N,0062,1","22000,1,9,N","020000,1,N,1","+0210,1","+0150,1","10169,1",,,,"01,1,+00690,1,06,1",,,"01,99,1,01,1,05,1,00800,1,00,1,00,1","999,N,+0208,1","9,9,999,9,+017,1",,"SYN076AAXX  19064 08583 32570 10712 10210 20150 40169 81500 333 20208 58017 81623;",
"08583099999","2010-02-19T12:00:00","4","16.8333333","-25.05","20.0","MINDELO, CV","FM-12","99999","V020","070,1,N,0093,1","22000,1,9,N","025000,1,N,1","+0256,1","+0145,1","10195,1",,,,"01,1,+00690,1,06,1",,,"01,99,1,01,1,05,1,00800,1,00,1,00,1",,"9,9,999,9,+018,1",,"SYN070AAXX  19124 08583 32575 10718 10256 20145 40195 81500 333 58018 81623;",
"08583099999","2010-02-19T18:00:00","4","16.8333333","-25.05","20.0","MINDELO, CV","FM-12","99999","V020","040,1,N,0087,1","22000,1,9,N","030000,1,N,1","+0253,1","+0160,1","10163,1",,,,"01,1,+00540,1,06,1",,,"02,99,1,02,1,05,1,00800,1,00,1,00,1","120,M,+0270,1","9,9,999,9,+013,1",,"SYN076AAXX  19184 08583 32580 20417 10253 20160 40163 82500 333 10270 58013 81618;",
"08583099999","2010-02-20T00:00:00","4","16.8333333","-25.05","20.0","MINDELO, CV","FM-12","99999","V020","060,1,N,0051,1","22000,1,9,N","025000,1,N,1","+0217,1","+0157,1","10193,1",,,,"02,1,+00600,1,06,1",,,"02,99,1,02,1,05,1,00800,1,00,1,00,1",,"9,9,999,9,+014,1",,"SYN070AAXX  20004 08583 32575 20610 10217 20157 40193 82500 333 58014 82620;",
"08583099999","2010-02-20T06:00:00","4","16.8333333","-25.05","20.0","MINDELO, CV","FM-12","99999","V020","070,1,N,0021,1","22000,1,9,N","025000,1,N,1","+0192,1","+0150,1","10168,1",,,,"01,1,+00600,1,06,1",,,"01,99,1,01,1,05,1,00800,1,00,1,00,1","999,N,+0191,1","9,9,999,9,-001,1",,"SYN076AAXX  20064 08583 32575 10704 10192 20150 40168 81500 333 20191 59001 81620;",
"08583099999","2010-02-20T12:00:00","4","16.8333333","-25.05","20.0","MINDELO, CV","FM-12","99999","V020","040,1,N,0041,1","22000,1,9,N","030000,1,N,1","+0250,1","+0153,1","10184,1",,,,"01,1,+00600,1,06,1",,,"03,99,1,01,1,05,1,00800,1,00,1,01,1",,"9,9,999,9,-011,1",,"SYN076AAXX  20124 08583 32580 30408 10250 20153 40184 81501 333 59011 81620 83070;",
"08583099999","2010-02-20T18:00:00","4","16.8333333","-25.05","20.0","MINDELO, CV","FM-12","99999","V020","070,1,N,0057,1","22000,1,9,N","035000,1,N,1","+0253,1","+0150,1","10148,1",,,,"01,1,+00600,1,06,1",,,"02,99,1,01,1,05,1,00800,1,00,1,01,1","120,M,+0267,1","9,9,999,9,-015,1",,"SYN076AAXX  20184 08583 32581 20711 10253 20150 40148 81501 333 10267 59015 81620;",
"08583099999","2010-02-21T00:00:00","4","16.8333333","-25.05","20.0","MINDELO, CV","FM-12","99999","V020","070,1,N,0051,1","22000,1,9,N","030000,1,N,1","+0216,1","+0160,1","10167,1",,,,"03,1,+00660,1,06,1",,,"03,99,1,03,1,05,1,00800,1,00,1,00,1",,"9,9,999,9,-026,1",,"SYN070AAXX  21004 08583 32580 30710 10216 20160 40167 83500 333 59026 83622;",
"08583099999","2010-02-21T12:00:00","4","16.8333333","-25.05","20.0","MINDELO, CV","FM-12","99999","V020","050,1,N,0046,1","22000,1,9,N","030000,1,N,1","+0250,1","+0155,1","10172,1",,,,"02,1,+00600,1,06,1",,,"02,99,1,02,1,05,1,00800,1,00,1,01,1",,"9,9,999,9,-012,1",,"SYN070AAXX  21124 08583 32580 20509 10250 20155 40172 82501 333 59012 82620;",
"08583099999","2010-02-21T18:00:00","4","16.8333333","-25.05","20.0","MINDELO, CV","FM-12","99999","V020","040,1,N,0062,1","22000,1,9,N","035000,1,N,1","+0250,1","+0160,1","10149,1",,,,"01,1,+00660,1,06,1",,,"03,99,1,01,1,05,1,00800,1,00,1,02,1","120,M,+0266,1","9,9,999,9,-001,1",,"SYN082AAXX  21184 08583 32581 30412 10250 20160 40149 81502 333 10266 59001 81622 83070;",
"08583099999","2010-02-22T00:00:00","4","16.8333333","-25.05","20.0","MINDELO, CV","FM-12","99999","V020","070,1,N,0072,1","22000,1,9,N","020000,1,N,1","+0215,1","+0167,1","10160,1",,,,"01,1,+00660,1,06,1",,,"01,99,1,01,1,05,1,00800,1,00,1,00,1",,"9,9,999,9,-007,1",,"SYN070AAXX  22004 08583 32570 10714 10215 20167 40160 81500 333 59007 81622;",
"08583099999","2010-02-22T06:00:00","4","16.8333333","-25.05","20.0","MINDELO, CV","FM-12","99999","V020","070,1,N,0062,1","22000,1,9,N","020000,1,N,1","+0206,1","+0160,1","10145,1",,,,"01,1,+00660,1,06,1",,,"01,99,1,01,1,05,1,00800,1,00,1,00,1","999,N,+0205,1","9,9,999,9,-008,1",,"SYN076AAXX  22064 08583 32570 10712 10206 20160 40145 81500 333 20205 59008 81622;",
"08583099999","2010-02-22T12:00:00","4","16.8333333","-25.05","20.0","MINDELO, CV","FM-12","99999","V020","050,1,N,0108,1","22000,1,9,N","030000,1,N,1","+0247,1","+0157,1","10167,1",,,,"03,1,+00660,1,06,1",,,"03,99,1,03,1,05,1,00800,1,00,1,00,1",,"9,9,999,9,-005,1",,"SYN070AAXX  22124 08583 32580 30521 10247 20157 40167 83500 333 59005 83622;",
"08583099999","2010-02-22T18:00:00","4","16.8333333","-25.05","20.0","MINDELO, CV","FM-12","99999","V020","050,1,N,0087,1","22000,1,9,N","025000,1,N,1","+0247,1","+0168,1","10138,1",,,,"01,1,+00660,1,06,1",,,"01,99,1,01,1,05,1,00800,1,00,1,00,1","120,M,+0266,1","9,9,999,9,-011,1",,"SYN076AAXX  22184 08583 32575 10517 10247 20168 40138 81500 333 10266 59011 81622;",
"08583099999","2010-02-23T00:00:00","4","16.8333333","-25.05","20.0","MINDELO, CV","FM-12","99999","V020","070,1,N,0067,1","22000,1,9,N","020000,1,N,1","+0216,1","+0175,1","10166,1",,,,"01,1,+00660,1,06,1",,,"01,99,1,01,1,05,1,00800,1,00,1,00,1",,"9,9,999,9,+006,1",,"SYN070AAXX  23004 08583 32570 10713 10216 20175 40166 81500 333 58006 81622;",
"08583099999","2010-02-23T06:00:00","4","16.8333333","-25.05","20.0","MINDELO, CV","FM-12","99999","V020","040,1,N,0046,1","22000,1,9,N","020000,1,N,1","+0210,1","+0168,1","10157,1",,,,"03,1,+00660,1,06,1",,,"03,99,1,03,1,05,1,00800,1,00,1,00,1","999,N,+0205,1","9,9,999,9,+012,1",,"SYN076AAXX  23064 08583 32570 30409 10210 20168 40157 83500 333 20205 58012 83622;",
"08583099999","2010-02-23T12:00:00","4","16.8333333","-25.05","20.0","MINDELO, CV","FM-12","99999","V020","060,1,N,0103,1","22000,1,9,N","020000,1,N,1","+0252,1","+0177,1","10166,1",,,,"02,1,+00600,1,06,1",,,"02,99,1,02,1,05,1,00800,1,00,1,00,1",,"9,9,999,9,-001,1",,"SYN070AAXX  23124 08583 32570 20620 10252 20177 40166 82500 333 59001 82620;",
"08583099999","2010-02-23T18:00:00","4","16.8333333","-25.05","20.0","MINDELO, CV","FM-12","99999","V020","060,1,N,0149,1","22000,1,9,N","020000,1,N,1","+0255,1","+0175,1","10139,1",,,,"01,1,+00600,1,06,1",,,"01,99,1,01,1,05,1,00800,1,00,1,00,1","120,M,+0270,1","9,9,999,9,+001,1",,"SYN076AAXX  23184 08583 32570 10629 10255 20175 40139 81500 333 10270 58001 81620;",
"08583099999","2010-02-24T00:00:00","4","16.8333333","-25.05","20.0","MINDELO, CV","FM-12","99999","V020","060,1,N,0118,1","22000,1,9,N","020000,1,N,1","+0221,1","+0185,1","10160,1",,,,"01,1,+00600,1,06,1",,,"01,99,1,01,1,05,1,00800,1,00,1,00,1",,"9,9,999,9,-006,1",,"SYN070AAXX  24004 08583 32570 10623 10221 20185 40160 81500 333 59006 81620;",
"08583099999","2010-02-24T06:00:00","4","16.8333333","-25.05","20.0","MINDELO, CV","FM-12","99999","V020","060,1,N,0087,1","22000,1,9,N","020000,1,N,1","+0215,1","+0187,1","10144,1",,,,"01,1,+00600,1,06,1",,,"01,99,1,01,1,05,1,00800,1,00,1,00,1","999,N,+0206,1","9,9,999,9,-013,1",,"SYN076AAXX  24064 08583 32570 10617 10215 20187 40144 81500 333 20206 59013 81620;",
"08583099999","2010-02-24T12:00:00","4","16.8333333","-25.05","20.0","MINDELO, CV","FM-12","99999","V020","060,1,N,0134,1","22000,1,9,N","020000,1,N,1","+0260,1","+0196,1","10164,1",,,,"01,1,+00480,1,08,1",,,"01,99,1,01,1,01,1,00450,1,00,1,00,1",,"9,9,999,9,-002,1",,"SYN070AAXX  24124 08583 32470 10626 10260 20196 40164 81100 333 59002 81816;",
"08583099999","2010-02-24T18:00:00","4","16.8333333","-25.05","20.0","MINDELO, CV","FM-12","99999","V020","070,1,N,0129,1","22000,1,9,N","020000,1,N,1","+0261,1","+0198,1","10129,1",,,,"01,1,+00510,1,06,1",,,"01,99,1,01,1,05,1,00450,1,00,1,00,1","120,M,+0285,1","9,9,999,9,-010,1",,"SYN076AAXX  24184 08583 32470 10725 10261 20198 40129 81500 333 10285 59010 81617;",
"08583099999","2010-02-25T00:00:00","4","16.8333333","-25.05","20.0","MINDELO, CV","FM-12","99999","V020","070,1,N,0077,1","22000,1,9,N","015000,1,N,1","+0227,1","+0196,1","10150,1",,,,"02,1,+00600,1,06,1",,,"99,99,9,02,1,05,1,00800,1,00,1,00,1",,"9,9,999,9,-010,1",,"SYN070AAXX  25004 08583 32565 10715 10227 20196 40150 82500 333 59010 82620;","Q01+000012SCOTCV"
"08583099999","2010-02-25T06:00:00","4","16.8333333","-25.05","20.0","MINDELO, CV","FM-12","99999","V020","080,1,N,0062,1","22000,1,9,N","015000,1,N,1","+0215,1","+0195,1","10130,1",,,,,,,"01,99,1,99,9,99,9,99999,9,99,9,99,9","999,N,+0212,1","9,9,999,9,-018,1",,"SYN064AAXX  25064 08583 32965 10812 10215 20195 40130 333 20212 59018;",
"08583099999","2010-02-25T12:00:00","4","16.8333333","-25.05","20.0","MINDELO, CV","FM-12","99999","V020","050,1,N,0077,1","22000,1,9,N","012000,1,N,1","+0275,1","+0190,1","10147,1",,,,"01,1,+00330,1,08,1",,,"01,99,1,01,1,01,1,00450,1,00,1,00,1",,"9,9,999,9,-017,1",,"SYN070AAXX  25124 08583 32462 10515 10275 20190 40147 81100 333 59017 81811;",
"08583099999","2010-02-25T18:00:00","4","16.8333333","-25.05","20.0","MINDELO, CV","FM-12","99999","V020","060,1,N,0051,1","22000,1,9,N","018000,1,N,1","+0297,1","+0157,1","10110,1",,,,"00,1,+99999,9,99,9",,,"00,99,1,00,1,00,1,99999,9,00,1,00,1","120,M,+0306,1","9,9,999,9,-019,1",,"SYN064AAXX  25184 08583 32968 00610 10297 20157 40110 333 10306 59019;",
"08583099999","2010-02-26T00:00:00","4","16.8333333","-25.05","20.0","MINDELO, CV","FM-12","99999","V020","080,1,N,0036,1","22000,1,9,N","018000,1,N,1","+0236,1","+0183,1","10133,1",,,,"00,1,+99999,9,99,9",,,"00,99,1,00,1,00,1,99999,9,00,1,00,1",,"9,9,999,9,-017,1",,"SYN058AAXX  26004 08583 32968 00807 10236 20183 40133 333 59017;",
"08583099999","2010-02-26T06:00:00","4","16.8333333","-25.05","20.0","MINDELO, CV","FM-12","99999","V020","070,1,N,0026,1","22000,1,9,N","015000,1,N,1","+0202,1","+0188,1","10113,1",,,,"01,1,+06000,1,00,1",,,"01,99,1,00,1,00,1,99999,9,00,1,01,1","999,N,+0200,1","9,9,999,9,-017,1",,"SYN076AAXX  26064 08583 32965 10705 10202 20188 40113 80001 333 20200 59017 81070;",
"08583099999","2010-02-26T12:00:00","4","16.8333333","-25.05","20.0","MINDELO, CV","FM-12","99999","V020","230,1,N,0026,1","22000,1,9,N","018000,1,N,1","+0287,1","+0165,1","10124,1",,,,"01,1,+00510,1,06,1",,,"03,99,1,01,1,05,1,00450,1,00,1,01,1",,"9,9,999,9,-023,1",,"SYN076AAXX  26124 08583 32468 32305 10287 20165 40124 81501 333 59023 81617 83070;",
"08583099999","2010-02-26T18:00:00","4","16.8333333","-25.05","20.0","MINDELO, CV","FM-12","99999","V020","210,1,N,0036,1","22000,1,9,N","018000,1,N,1","+0253,1","+0215,1","10100,1",,,,"02,1,+06000,1,00,1",,,"02,99,1,00,1,00,1,99999,9,00,1,02,1","120,M,+0270,1","9,9,999,9,-010,1",,"SYN076AAXX  26184 08583 32968 22107 10253 20215 40100 80002 333 10270 59010 82070;",
"08583099999","2010-02-27T00:00:00","4","16.8333333","-25.05","20.0","MINDELO, CV","FM-12","99999","V020","060,1,N,0026,1","22000,1,9,N","015000,1,N,1","+0227,1","+0200,1","10129,1",,,,"00,1,+99999,9,99,9",,,"00,99,1,00,1,00,1,99999,9,00,1,00,1",,"9,9,999,9,-004,1",,"SYN058AAXX  27004 08583 32965 00605 10227 20200 40129 333 59004;",
"08583099999","2010-02-27T06:00:00","4","16.8333333","-25.05","20.0","MINDELO, CV","FM-12","99999","V020","050,1,N,0021,1","22000,1,9,N","015000,1,N,1","+0206,1","+0190,1","10121,1",,,,"00,1,+99999,9,99,9",,,"00,99,1,00,1,00,1,99999,9,00,1,00,1","999,N,+0205,1","9,9,999,9,+008,1",,"SYN064AAXX  27064 08583 32965 00504 10206 20190 40121 333 20205 58008;",
"08583099999","2010-02-27T12:00:00","4","16.8333333","-25.05","20.0","MINDELO, CV","FM-12","99999","V020","999,9,V,0021,1","22000,1,9,N","020000,1,N,1","+0272,1","+0202,1","10141,1",,,,"00,1,+99999,9,99,9",,,"00,99,1,00,1,00,1,99999,9,00,1,00,1",,"9,9,999,9,+017,1",,"SYN058AAXX  27124 08583 32970 09904 10272 20202 40141 333 58017;",
"08583099999","2010-02-27T18:00:00","4","16.8333333","-25.05","20.0","MINDELO, CV","FM-12","99999","V020","060,1,N,0077,1","22000,1,9,N","020000,1,N,1","+0277,1","+0195,1","10125,1",,,,,,,"01,99,1,01,1,05,1,00450,1,00,1,00,1","120,M,+0290,1","9,9,999,9,+025,1",,"SYN076AAXX  27184 08583 32470 10615 10277 20195 40125 81500 333 10290 58025 91615;",
"08583099999","2010-02-28T00:00:00","4","16.8333333","-25.05","20.0","MINDELO, CV","FM-12","99999","V020","080,1,N,0062,1","22000,1,9,N","018000,1,N,1","+0238,1","+0197,1","10164,1",,,,"01,1,+00450,1,06,1",,,"01,99,1,01,1,05,1,00450,1,00,1,00,1",,"9,9,999,9,+039,1",,"SYN070AAXX  28004 08583 32468 10812 10238 20197 40164 81500 333 58039 81615;",
"08583099999","2010-02-28T03:00:00","4","16.8333333","-25.05","20.0","MINDELO, CV","FM-12","99999","V020","060,1,N,0046,1","22000,1,9,N","018000,1,N,1","+0225,1","+0200,1","10145,1",,,,"02,1,+00480,1,06,1",,,"02,99,1,02,1,05,1,00450,1,00,1,00,1","999,N,+0218,1","9,9,999,9,+024,1",,"SYN076AAXX  28034 08583 32468 20609 10225 20200 40145 82500 333 20218 58024 82616;",
"08583099999","2010-02-28T12:00:00","4","16.8333333","-25.05","20.0","MINDELO, CV","FM-12","99999","V020","050,1,N,0093,1","22000,1,9,N","018000,1,N,1","+0268,1","+0205,1","10165,1",,,,"02,1,+00450,1,08,1",,,"02,99,1,02,1,01,1,00450,1,00,1,00,1",,"9,9,999,9,+024,1",,"SYN070AAXX  28124 08583 32468 20518 10268 20205 40165 82100 333 58024 82815;",
"08583099999","2010-02-28T18:00:00","4","16.8333333","-25.05","20.0","MINDELO, CV","FM-12","99999","V020","060,1,N,0077,1","22000,1,9,N","018000,1,N,1","+0267,1","+0190,1","10138,1",,,,"01,1,+00540,1,08,1",,,"01,99,1,01,1,08,1,00450,1,00,1,00,1","120,M,+0288,1","9,9,999,9,+013,1",,"SYN076AAXX  28184 08583 32468 10615 10267 20190 40138 81800 333 10288 58013 81818;",
"08583099999","2010-03-01T00:00:00","4","16.8333333","-25.05","20.0","MINDELO, CV","FM-12","99999","V020","070,1,N,0051,1","22000,1,9,N","018000,1,N,1","+0228,1","+0180,1","10155,1",,,,"01,1,+00690,1,06,1",,,"02,99,1,01,1,05,1,00800,1,00,1,01,1",,"9,9,999,9,-009,1",,"SYN070AAXX  01004 08583 32568 20710 10228 20180 40155 81501 333 59009 81623;",
"08583099999","2010-03-01T06:00:00","4","16.8333333","-25.05","20.0","MINDELO, CV","FM-12","99999","V020","070,1,N,0041,1","22000,1,9,N","015000,1,N,1","+0220,1","+0188,1","10144,1",,,,"01,1,+00450,1,06,1",,,"01,99,1,01,1,05,1,00450,1,00,1,00,1","999,N,+0215,1","9,9,999,9,-001,1",,"SYN076AAXX  01064 08583 32465 10708 10220 20188 40144 81500 333 20215 59001 81615;",
"08583099999","2010-03-01T12:00:00","4","16.8333333","-25.05","20.0","MINDELO, CV","FM-12","99999","V020","050,1,N,0067,1","22000,1,9,N","018000,1,N,1","+0260,1","+0180,1","10169,1",,,,"02,1,+00540,1,08,1",,,"02,99,1,02,1,01,1,00450,1,00,1,00,1",,"9,9,999,9,+004,1",,"SYN070AAXX  01124 08583 32468 20513 10260 20180 40169 82100 333 58004 82818;",
"08583099999","2010-03-01T18:00:00","4","16.8333333","-25.05","20.0","MINDELO, CV","FM-12","99999","V020","050,1,N,0087,1","22000,1,9,N","018000,1,N,1","+0261,1","+0177,1","10142,1",,,,"02,1,+00600,1,06,1",,,"02,99,1,02,1,02,1,00800,1,00,1,00,1",,"9,9,999,9,+004,1",,"SYN070AAXX  01184 08583 32568 20517 10261 20177 40142 82200 333 58004 82620;",
"08583099999","2010-03-02T00:00:00","4","16.8333333","-25.05","20.0","MINDELO, CV","FM-12","99999","V020","050,1,N,0057,1","22000,1,9,N","018000,1,N,1","+0222,1","+0176,1","10168,1",,,,"01,1,+00600,1,06,1",,,"01,99,1,01,1,02,1,00800,1,00,1,00,1",,"9,9,999,9,+013,1",,"SYN070AAXX  02004 08583 32568 10511 10222 20176 40168 81200 333 58013 81620;",
"08583099999","2010-03-02T06:00:00","4","16.8333333","-25.05","20.0","MINDELO, CV","FM-12","99999","V020","070,1,N,0082,1","22000,1,9,N","020000,1,N,1","+0222,1","+0156,1","10154,1",,,,"01,1,+00600,1,06,1",,,"01,99,1,01,1,05,1,00800,1,00,1,00,1","999,N,+0217,1","9,9,999,9,+010,1",,"SYN076AAXX  02064 08583 32570 10716 10222 20156 40154 81500 333 20217 58010 81620;",
"08583099999","2010-03-02T12:00:00","4","16.8333333","-25.05","20.0","MINDELO, CV","FM-12","99999","V020","070,1,N,0113,1","22000,1,9,N","025000,1,N,1","+0260,1","+0141,1","10180,1",,,,"02,1,+00600,1,06,1",,,"02,99,1,02,1,05,1,00800,1,00,1,00,1",,"9,9,999,9,+011,1",,"SYN070AAXX  02124 08583 32575 20722 10260 20141 40180 82500 333 58011 82620;",
"08583099999","2010-03-02T18:00:00","4","16.8333333","-25.05","20.0","MINDELO, CV","FM-12","99999","V020","060,1,N,0103,1","22000,1,9,N","030000,1,N,1","+0258,1","+0160,1","10149,1",,,,"01,1,+00600,1,06,1",,,"01,99,1,01,1,02,1,00800,1,00,1,00,1","120,M,+0272,1","9,9,999,9,+007,1",,"SYN076AAXX  02184 08583 32580 10620 10258 20160 40149 81200 333 10272 58007 81620;",
"08583099999","2010-03-03T00:00:00","4","16.8333333","-25.05","20.0","MINDELO, CV","FM-12","99999","V020","060,1,N,0077,1","22000,1,9,N","030000,1,N,1","+0225,1","+0178,1","10181,1",,,,"03,1,+00600,1,06,1",,,"03,99,1,03,1,05,1,00450,1,00,1,00,1",,"9,9,999,9,+026,1",,"SYN070AAXX  03004 08583 32480 30615 10225 20178 40181 83500 333 58026 83620;",
"08583099999","2010-03-03T12:00:00","4","16.8333333","-25.05","20.0","MINDELO, CV","FM-12","99999","V020","060,1,N,0067,1","22000,1,9,N","025000,1,N,1","+0256,1","+0143,1","10190,1",,,,"02,1,+00600,1,06,1",,,"02,99,1,02,1,05,1,00450,1,00,1,00,1",,"9,9,999,9,+010,1",,"SYN070AAXX  03124 08583 32475 20613 10256 20143 40190 82500 333 58010 82620;",
"08583099999","2010-03-03T18:00:00","4","16.8333333","-25.05","20.0","MINDELO, CV","FM-12","99999","V020","040,1,N,0093,1","22000,1,C,N","030000,1,N,1","+0255,1","+0140,1","10162,1",,,,"01,1,+00660,1,06,1",,,"06,99,1,01,1,05,1,00800,1,00,1,04,1","120,M,+0270,1","9,9,999,9,+013,1",,"SYN082AAXX  03184 08583 32580 60418 10255 20140 40162 81504 333 10270 58013 81622 86070;",
"08583099999","2010-03-04T00:00:00","4","16.8333333","-25.05","20.0","MINDELO, CV","FM-12","99999","V020","070,1,N,0062,1","22000,1,9,N","020000,1,N,1","+0218,1","+0147,1","10180,1",,,,"01,1,+00660,1,06,1",,,"04,99,1,01,1,05,1,00800,1,00,1,01,1",,"9,9,999,9,-001,1",,"SYN076AAXX  04004 08583 32570 40712 10218 20147 40180 81501 333 59001 81622 84070;",
"08583099999","2010-03-04T12:00:00","4","16.8333333","-25.05","20.0","MINDELO, CV","FM-12","99999","V020","040,1,N,0103,1","22000,1,9,N","030000,1,N,1","+0250,1","+0143,1","10180,1",,,,"02,1,+00720,1,06,1",,,"02,99,1,02,1,05,1,00800,1,00,1,00,1",,"9,9,999,9,-010,1",,"SYN070AAXX  04124 08583 32580 20420 10250 20143 40180 82500 333 59010 82624;",
"08583099999","2010-03-04T18:00:00","4","16.8333333","-25.05","20.0","MINDELO, CV","FM-12","99999","V020","070,1,N,0093,1","22000,1,9,N","020000,1,N,1","+0251,1","+0147,1","10149,1",,,,"01,1,+00660,1,06,1",,,"01,99,1,01,1,05,1,00800,1,00,1,00,1","120,M,+0270,1","9,9,999,9,-013,1",,"SYN076AAXX  04184 08583 32570 10718 10251 20147 40149 81500 333 10270 59013 81622;",
"08583099999","2010-03-05T00:00:00","4","16.8333333","-25.05","20.0","MINDELO, CV","FM-12","99999","V020","060,1,N,0082,1","22000,1,9,N","020000,1,N,1","+0210,1","+0147,1","10167,1",,,,"01,1,+00660,1,06,1",,,"01,99,1,01,1,05,1,00800,1,00,1,00,1",,"9,9,999,9,-013,1",,"SYN070AAXX  05004 08583 32570 10616 10210 20147 40167 81500 333 59013 81622;",
"08583099999","2010-03-05T06:00:00","4","16.8333333","-25.05","20.0","MINDELO, CV","FM-12","99999","V020","050,1,N,0093,1","22000,1,9,N","020000,1,N,1","+0206,1","+0150,1","10148,1",,,,"02,1,+00720,1,06,1",,,"02,99,1,02,1,05,1,00800,1,00,1,00,1","999,N,+0205,1","9,9,999,9,-023,1",,"SYN076AAXX  05064 08583 32570 20518 10206 20150 40148 82500 333 20205 59023 82624;",
"08583099999","2010-03-05T12:00:00","4","16.8333333","-25.05","20.0","MINDELO, CV","FM-12","99999","V020","060,1,N,0149,1","22000,1,9,N","020000,1,N,1","+0248,1","+0152,1","10157,1",,,,"02,1,+00720,1,06,1",,,"02,99,1,02,1,05,1,00800,1,00,1,00,1",,"9,9,999,9,-023,1",,"SYN070AAXX  05124 08583 32570 20629 10248 20152 40157 82500 333 59023 82624;",
"08583099999","2010-03-05T18:00:00","4","16.8333333","-25.05","20.0","MINDELO, CV","FM-12","99999","V020","060,1,N,0149,1","22000,1,9,N","020000,1,N,1","+0250,1","+0165,1","10129,1",,,,"01,1,+00660,1,06,1",,,"01,99,1,01,1,05,1,00800,1,00,1,00,1","120,M,+0266,1","9,9,999,9,-022,1",,"SYN076AAXX  05184 08583 32570 10629 10250 20165 40129 81500 333 10266 59022 81622;",
"08583099999","2010-03-06T00:00:00","4","16.8333333","-25.05","20.0","MINDELO, CV","FM-12","99999","V020","050,1,N,0175,1","22000,1,9,N","020000,1,N,1","+0220,1","+0158,1","10148,1",,,,"02,1,+00600,1,06,1",,,"02,99,1,02,1,05,1,00800,1,00,1,01,1",,"9,9,999,9,-019,1",,"SYN070AAXX  06004 08583 32570 20534 10220 20158 40148 82501 333 59019 82620;",
"08583099999","2010-03-06T06:00:00","4","16.8333333","-25.05","20.0","MINDELO, CV","FM-12","99999","V020","070,1,N,0072,1","00720,1,9,N","020000,1,N,1","+0216,1","+0160,1","10149,1",,,,"06,1,+00720,1,06,1",,,"06,99,1,06,1,05,1,00800,1,99,9,99,9","999,N,+0203,1","9,9,999,9,+001,1",,"SYN076AAXX  06064 08583 32570 60714 10216 20160 40149 865// 333 20203 58001 86624;",
"08583099999","2010-03-06T12:00:00","4","16.8333333","-25.05","20.0","MINDELO, CV","FM-12","99999","V020","070,1,N,0170,1","22000,1,9,N","020000,1,N,1","+0256,1","+0161,1","10148,1",,,,"01,1,+00720,1,06,1",,,"01,99,1,01,1,05,1,00800,1,00,1,00,1",,"9,9,999,9,-001,1",,"SYN070AAXX  06124 08583 32570 10733 10256 20161 40148 81500 333 59001 81624;",
"08583099999","2010-03-06T18:00:00","4","16.8333333","-25.05","20.0","MINDELO, CV","FM-12","99999","V020","070,1,N,0159,1","22000,1,9,N","020000,1,N,1","+0256,1","+0171,1","10126,1",,,,"02,1,+00750,1,06,1",,,"02,99,1,02,1,05,1,00800,1,00,1,00,1","120,M,+0272,1","9,9,999,9,-003,1",,"SYN076AAXX  06184 08583 32570 20731 10256 20171 40126 82500 333 10272 59003 82625;",
"08583099999","2010-03-07T00:00:00","4","16.8333333","-25.05","20.0","MINDELO, CV","FM-12","99999","V020","050,1,N,0170,1","22000,1,9,N","020000,1,N,1","+0222,1","+0162,1","10152,1",,,,"01,1,+00750,1,06,1",,,"01,99,1,01,1,05,1,00800,1,00,1,00,1",,"9,9,999,9,+004,1",,"SYN070AAXX  07004 08583 32570 10533 10222 20162 40152 81500 333 58004 81625;",
"08583099999","2010-03-07T12:00:00","4","16.8333333","-25.05","20.0","MINDELO, CV","FM-12","99999","V020","060,1,N,0180,1","22000,1,9,N","020000,1,N,1","+0261,1","+0175,1","10158,1",,,,"02,1,+00600,1,06,1",,,"02,99,1,02,1,05,1,00800,1,00,1,00,1",,"9,9,999,9,+010,1",,"SYN070AAXX  07124 08583 32570 20635 10261 20175 40158 82500 333 58010 82620;",
"08583099999","2010-03-07T18:00:00","4","16.8333333","-25.05","20.0","MINDELO, CV","FM-12","99999","V020","060,1,N,0144,1","22000,1,9,N","020000,1,N,1","+0255,1","+0172,1","10137,1",,,,"02,1,+00600,1,06,1",,,"02,99,1,02,1,05,1,00800,1,00,1,00,1","120,M,+0275,1","9,9,999,9,+011,1",,"SYN076AAXX  07184 08583 32570 20628 10255 20172 40137 82500 333 10275 58011 82620;",
"08583099999","2010-03-08T00:00:00","4","16.8333333","-25.05","20.0","MINDELO, CV","FM-12","99999","V020","050,1,N,0118,1","22000,1,9,N","018000,1,N,1","+0225,1","+0162,1","10167,1",,,,"02,1,+00600,1,06,1",,,"02,99,1,02,1,05,1,00800,1,00,1,00,1",,"9,9,999,9,+015,1",,"SYN070AAXX  08004 08583 32568 20523 10225 20162 40167 82500 333 58015 82620;",
"08583099999","2010-03-08T06:00:00","4","16.8333333","-25.05","20.0","MINDELO, CV","FM-12","99999","V020","060,1,N,0087,1","22000,1,9,N","018000,1,N,1","+0218,1","+0161,1","10160,1",,,,"02,1,+00690,1,06,1",,,"02,99,1,02,1,05,1,00800,1,00,1,00,1","999,N,+0217,1","9,9,999,9,-003,1",,"SYN076AAXX  08064 08583 32568 20617 10218 20161 40160 82500 333 20217 59003 82623;",
"08583099999","2010-03-08T12:00:00","4","16.8333333","-25.05","20.0","MINDELO, CV","FM-12","99999","V020","050,1,N,0108,1","22000,1,9,N","018000,1,N,1","+0265,1","+0173,1","10169,1",,,,"03,1,+00600,1,06,1",,,"03,99,1,03,1,05,1,00800,1,00,1,00,1",,"9,9,999,9,+011,1",,"SYN070AAXX  08124 08583 32568 30521 10265 20173 40169 83500 333 58011 83620;",
"08583099999","2010-03-08T18:00:00","4","16.8333333","-25.05","20.0","MINDELO, CV","FM-12","99999","V020","050,1,N,0103,1","22000,1,9,N","018000,1,N,1","+0265,1","+0180,1","10148,1",,,,"04,1,+00660,1,06,1",,,"04,99,1,04,1,05,1,00800,1,00,1,00,1","120,M,+0276,1","9,9,999,9,+011,1",,"SYN076AAXX  08184 08583 32568 40520 10265 20180 40148 84500 333 10276 58011 84622;",
"08583099999","2010-03-09T12:00:00","4","16.8333333","-25.05","20.0","MINDELO, CV","FM-12","99999","V020","050,1,N,0113,1","00600,1,9,N","012000,1,N,1","+0255,1","+0178,1","10177,1",,,,"05,1,+00600,1,06,1",,,"05,99,1,05,1,05,1,00450,1,00,1,00,1",,"9,9,999,9,+008,1",,"SYN070AAXX  09124 08583 32462 50522 10255 20178 40177 85500 333 58008 85620;",
"08583099999","2010-03-09T18:00:00","4","16.8333333","-25.05","20.0","MINDELO, CV","FM-12","99999","V020","060,1,N,0123,1","22000,1,9,N","012000,1,N,1","+0260,1","+0176,1","10146,1",,,,"03,1,+00600,1,06,1",,,"03,99,1,03,1,05,1,00800,1,00,1,00,1","120,M,+0278,1","9,9,999,9,-002,1",,"SYN076AAXX  09184 08583 32562 30624 10260 20176 40146 83500 333 10278 59002 83620;",
"08583099999","2010-03-10T00:00:00","4","16.8333333","-25.05","20.0","MINDELO, CV","FM-12","99999","V020","060,1,N,0082,1","22000,1,9,N","012000,1,N,1","+0221,1","+0182,1","10165,1",,,,"01,1,+00540,1,06,1",,,"01,99,1,01,1,05,1,00450,1,00,1,00,1",,"9,9,999,9,-011,1",,"SYN070AAXX  10004 08583 32462 10616 10221 20182 40165 81500 333 59011 81618;",
"08583099999","2010-03-10T06:00:00","4","16.8333333","-25.05","20.0","MINDELO, CV","FM-12","99999","V020","050,1,N,0098,1","22000,1,9,N","010000,1,N,1","+0220,1","+0183,1","10143,1",,,,"01,1,+00540,1,08,1",,,"04,99,1,04,1,08,1,00450,1,00,1,00,1","999,N,+0215,1","9,9,999,9,-013,1",,"SYN082AAXX  10064 08583 32460 40519 10220 20183 40143 84800 333 20215 59013 81818 84620;",
"08583099999","2010-03-10T18:00:00","4","16.8333333","-25.05","20.0","MINDELO, CV","FM-12","99999","V020","060,1,N,0118,1","22000,1,9,N","018000,1,N,1","+0262,1","+0182,1","10129,1",,,,"01,1,+00600,1,08,1",,,"01,99,1,01,1,01,1,00800,1,00,1,00,1","120,M,+0283,1","9,9,999,9,-017,1",,"SYN076AAXX  10184 08583 32568 10623 10262 20182 40129 81100 333 10283 59017 81820;",
"08583099999","2010-03-11T00:00:00","4","16.8333333","-25.05","20.0","MINDELO, CV","FM-12","99999","V020","050,1,N,0082,1","22000,1,9,N","018000,1,N,1","+0223,1","+0180,1","10160,1",,,,"01,1,+00600,1,06,1",,,"01,99,1,01,1,05,1,00800,1,00,1,00,1",,"9,9,999,9,-005,1",,"SYN070AAXX  11004 08583 32568 10516 10223 20180 40160 81500 333 59005 81620;",
"08583099999","2010-03-11T06:00:00","4","16.8333333","-25.05","20.0","MINDELO, CV","FM-12","99999","V020","060,1,N,0087,1","22000,1,9,N","015000,1,N,1","+0215,1","+0173,1","10135,1",,,,"01,1,+00540,1,06,1",,,"01,99,1,01,1,05,1,00450,1,00,1,00,1","999,N,+0211,1","9,9,999,9,-008,1",,"SYN076AAXX  11064 08583 32465 10617 10215 20173 40135 81500 333 20211 59008 81618;",
"08583099999","2010-03-11T12:00:00","4","16.8333333","-25.05","20.0","MINDELO, CV","FM-12","99999","V020","060,1,N,0087,1","22000,1,9,N","020000,1,N,1","+0265,1","+0176,1","10155,1",,,,"01,1,+00600,1,08,1",,,"01,99,1,01,1,01,1,00800,1,00,1,00,1",,"9,9,999,9,-004,1",,"SYN070AAXX  11124 08583 32570 10617 10265 20176 40155 81100 333 59004 81820;",
"08583099999","2010-03-11T18:00:00","4","16.8333333","-25.05","20.0","MINDELO, CV","FM-12","99999","V020","060,1,N,0072,1","22000,1,9,N","020000,1,N,1","+0266,1","+0177,1","10126,1",,,,"01,1,+00540,1,06,1",,,"01,99,1,01,1,05,1,00450,1,00,1,00,1","120,M,+0282,1","9,9,999,9,-003,1",,"SYN076AAXX  11184 08583 32470 10614 10266 20177 40126 81500 333 10282 59003 81618;",
"08583099999","2010-03-12T00:00:00","4","16.8333333","-25.05","20.0","MINDELO, CV","FM-12","99999","V020","060,1,N,0098,1","22000,1,9,N","020000,1,N,1","+0223,1","+0181,1","10154,1",,,,"01,1,+00600,1,06,1",,,"01,99,1,01,1,05,1,00800,1,00,1,00,1",,"9,9,999,9,-006,1",,"SYN070AAXX  12004 08583 32570 10619 10223 20181 40154 81500 333 59006 81620;",
"08583099999","2010-03-12T06:00:00","4","16.8333333","-25.05","20.0","MINDELO, CV","FM-12","99999","V020","070,1,N,0082,1","22000,1,9,N","020000,1,N,1","+0215,1","+0181,1","10144,1",,,,"01,1,+00600,1,06,1",,,"01,99,1,01,1,05,1,00450,1,00,1,00,1","999,N,+0216,1","9,9,999,9,-010,1",,"SYN076AAXX  12064 08583 32470 10716 10215 20181 40144 81500 333 20216 59010 81620;",
"08583099999","2010-03-12T12:00:00","4","16.8333333","-25.05","20.0","MINDELO, CV","FM-12","99999","V020","070,1,N,0103,1","22000,1,9,N","020000,1,N,1","+0263,1","+0188,1","10166,1",,,,"01,1,+00600,1,06,1",,,"01,99,1,01,1,05,1,00450,1,00,1,00,1",,"9,9,999,9,+011,1",,"SYN070AAXX  12124 08583 32470 10720 10263 20188 40166 81500 333 58011 81620;",
"08583099999","2010-03-12T18:00:00","4","16.8333333","-25.05","20.0","MINDELO, CV","FM-12","99999","V020","050,1,N,0077,1","22000,1,9,N","025000,1,N,1","+0270,1","+0187,1","10147,1",,,,"01,1,+00540,1,06,1",,,"01,99,1,01,1,05,1,00450,1,00,1,00,1","120,M,+0291,1","9,9,999,9,+021,1",,"SYN076AAXX  12184 08583 32475 10515 10270 20187 40147 81500 333 10291 58021 81618;",
"08583099999","2010-03-13T06:00:00","4","16.8333333","-25.05","20.0","MINDELO, CV","FM-12","99999","V020","070,1,N,0072,1","22000,1,9,N","012000,1,N,1","+0212,1","+0187,1","10162,1",,,,"00,1,+99999,9,99,9",,,"00,99,1,00,1,00,1,99999,9,00,1,00,1","999,N,+9999,9","9,9,999,9,+018,1",,"SYN064AAXX  13064 08583 32962 00714 10212 20187 40162 333 20291 58018;","Q01 +02912ATMN  "
"08583099999","2010-03-13T12:00:00","4","16.8333333","-25.05","20.0","MINDELO, CV","FM-12","99999","V020","050,1,N,0087,1","22000,1,9,N","015000,1,N,1","+0270,1","+0186,1","10182,1",,,,"01,1,+00600,1,06,1",,,"01,99,1,01,1,05,1,00450,1,00,1,00,1",,"9,9,999,9,+016,1",,"SYN070AAXX  13124 08583 32465 10517 10270 20186 40182 81500 333 58016 81620;",
"08583099999","2010-03-14T06:00:00","4","16.8333333","-25.05","20.0","MINDELO, CV","FM-12","99999","V020","050,1,N,0077,1","22000,1,9,N","015000,1,N,1","+0215,1","+0185,1","10156,1",,,,"01,1,+00540,1,06,1",,,"01,99,1,01,1,05,1,00450,1,00,1,00,1","999,N,+0210,1","9,9,999,9,-006,1",,"SYN076AAXX  14064 08583 32465 10515 10215 20185 40156 81500 333 20210 59006 81618;",
"08583099999","2010-03-14T18:00:00","4","16.8333333","-25.05","20.0","MINDELO, CV","FM-12","99999","V020","070,1,N,0123,1","03000,1,9,N","020000,1,N,1","+0255,1","+0181,1","10146,1",,,,"01,1,+00510,1,06,1","04,1,+03000,1,03,1",,"07,99,1,01,1,05,1,00450,1,03,1,09,1","120,M,+0280,1","9,9,999,9,-016,1",,"SYN088AAXX  14184 08583 32470 70724 10255 20181 40146 81539 333 10280 59016 81617 84360 85170;",
"08583099999","2010-03-15T00:00:00","4","16.8333333","-25.05","20.0","MINDELO, CV","FM-12","99999","V020","060,1,N,0093,1","10500,1,C,N","020000,1,N,1","+0220,1","+0183,1","10169,1",,,,"01,1,+00510,1,06,1","03,1,+03000,1,03,1",,"05,99,1,01,1,05,1,00450,1,03,1,01,1",,"9,9,999,9,-012,1",,"SYN082AAXX  15004 08583 32470 50618 10220 20183 40169 81531 333 59012 81617 83360 85070;",
"08583099999","2010-03-15T06:00:00","4","16.8333333","-25.05","20.0","MINDELO, CV","FM-12","99999","V020","060,1,N,0057,1","22000,1,9,N","020000,1,N,1","+0206,1","+0178,1","10147,1",,,,"01,1,+00510,1,06,1",,,"01,99,1,01,1,05,1,00450,1,00,1,00,1","999,N,+0206,1","9,9,999,9,-009,1",,"SYN076AAXX  15064 08583 32470 10611 10206 20178 40147 81500 333 20206 59009 81617;",
"08583099999","2010-03-15T12:00:00","4","16.8333333","-25.05","20.0","MINDELO, CV","FM-12","99999","V020","060,1,N,0118,1","22000,1,9,N","020000,1,N,1","+0258,1","+0171,1","10167,1",,,,"01,1,+00600,1,06,1",,,"01,99,1,99,9,05,1,00800,1,00,1,00,1",,"9,9,999,9,-003,1",,"SYN070AAXX  15124 08583 32570 10623 10258 20171 40167 82500 333 59003 81620;","Q01+000022SCOTLC"
"08583099999","2010-03-15T18:00:00","4","16.8333333","-25.05","20.0","MINDELO, CV","FM-12","99999","V020","060,1,N,0098,1","22000,1,9,N","020000,1,N,1","+0253,1","+0175,1","10199,1",,,,"01,1,+00660,1,06,1",,,"01,99,1,01,1,05,1,00800,1,00,1,00,1","120,M,+0278,1","9,9,999,9,-017,1",,"SYN076AAXX  15184 08583 32570 10619 10253 20175 40199 81500 333 10278 59017 81622;",
"08583099999","2010-03-16T00:00:00","4","16.8333333","-25.05","20.0","MINDELO, CV","FM-12","99999","V020","060,1,N,0082,1","22000,1,9,N","020000,1,N,1","+0216,1","+0176,1","10161,1",,,,"02,1,+00600,1,06,1",,,"02,99,1,02,1,05,1,00800,1,00,1,01,1",,"9,9,999,9,-008,1",,"SYN070AAXX  16004 08583 32570 20616 10216 20176 40161 82501 333 59008 82620;",
"08583099999","2010-03-16T06:00:00","4","16.8333333","-25.05","20.0","MINDELO, CV","FM-12","99999","V020","070,1,N,0046,1","22000,1,9,N","020000,1,N,1","+0207,1","+0167,1","10152,1",,,,"01,1,+00600,1,06,1",,,"01,99,1,01,1,05,1,00800,1,00,1,00,1","999,N,+0207,1","9,9,999,9,+005,1",,"SYN076AAXX  16064 08583 32570 10709 10207 20167 40152 81500 333 20207 58005 81620;",
"08583099999","2010-03-16T12:00:00","4","16.8333333","-25.05","20.0","MINDELO, CV","FM-12","99999","V020","060,1,N,0098,1","22000,1,9,N","020000,1,N,1","+0257,1","+0165,1","10169,1",,,,"01,1,+00660,1,06,1",,,"01,99,1,01,1,05,1,00800,1,00,1,00,1",,"9,9,999,9,+002,1",,"SYN070AAXX  16124 08583 32570 10619 10257 20165 40169 81500 333 58002 81622;",
"08583099999","2010-03-16T18:00:00","4","16.8333333","-25.05","20.0","MINDELO, CV","FM-12","99999","V020","050,1,N,0108,1","22000,1,9,N","020000,1,N,1","+0258,1","+0175,1","10142,1",,,,"01,1,+00660,1,06,1",,,"01,99,1,01,1,01,1,00800,1,00,1,01,1","120,M,+0277,1","9,9,999,9,+013,1",,"SYN076AAXX  16184 08583 32570 10521 10258 20175 40142 81101 333 10277 58013 81622;",
"08583099999","2010-03-17T00:00:00","4","16.8333333","-25.05","20.0","MINDELO, CV","FM-12","99999","V020","060,1,N,0082,1","22000,1,9,N","020000,1,N,1","+0220,1","+0167,1","10170,1",,,,"01,1,+00600,1,06,1",,,"01,99,1,01,1,02,1,00800,1,00,1,01,1",,"9,9,999,9,+009,1",,"SYN070AAXX  17004 08583 32570 10616 10220 20167 40170 81201 333 58009 81620;",
"08583099999","2010-03-17T06:00:00","4","16.8333333","-25.05","20.0","MINDELO, CV","FM-12","99999","V020","070,1,N,0087,1","22000,1,9,N","020000,1,N,1","+0208,1","+0172,1","10152,1",,,,"01,1,+00600,1,06,1",,,"01,99,1,01,1,05,1,00800,1,00,1,00,1","999,N,+0207,1","9,9,999,9,+000,1",,"SYN076AAXX  17064 08583 32570 10717 10208 20172 40152 81500 333 20207 58000 81620;",
"08583099999","2010-03-17T12:00:00","4","16.8333333","-25.05","20.0","MINDELO, CV","FM-12","99999","V020","060,1,N,0118,1","22000,1,9,N","020000,1,N,1","+0261,1","+0171,1","10165,1",,,,"01,1,+00600,1,06,1",,,"01,99,1,01,1,01,1,00800,1,00,1,00,1",,"9,9,999,9,+004,1",,"SYN070AAXX  17124 08583 32570 10623 10261 20171 40165 81100 333 58004 81620;",
"08583099999","2010-03-17T18:00:00","4","16.8333333","-25.05","20.0","MINDELO, CV","FM-12","99999","V020","060,1,N,0123,1","22000,1,9,N","025000,1,N,1","+0261,1","+0176,1","10141,1",,,,"01,1,+00600,1,06,1",,,"01,99,1,01,1,02,1,00800,1,00,1,00,1","120,M,+0280,1","9,9,999,9,-001,1",,"SYN076AAXX  17184 08583 32575 10624 10261 20176 40141 81200 333 10280 59001 81620;",
"08583099999","2010-03-18T00:00:00","4","16.8333333","-25.05","20.0","MINDELO, CV","FM-12","99999","V020","060,1,N,0103,1","22000,1,9,N","025000,1,N,1","+0220,1","+0190,1","10168,1",,,,"02,1,+00600,1,06,1",,,"02,99,1,02,1,05,1,00450,1,00,1,00,1",,"9,9,999,9,+004,1",,"SYN070AAXX  18004 08583 32475 20620 10220 20190 40168 82500 333 58004 82620;",
"08583099999","2010-03-18T06:00:00","4","16.8333333","-25.05","20.0","MINDELO, CV","FM-12","99999","V020","070,1,N,0082,1","22000,1,9,N","018000,1,N,1","+0215,1","+0185,1","10158,1",,,,"01,1,+00600,1,06,1",,,"01,99,1,01,1,05,1,00800,1,00,1,00,1","999,N,+0213,1","9,9,999,9,+006,1",,"SYN076AAXX  18064 08583 32568 10716 10215 20185 40158 81500 333 20213 58006 81620;",
"08583099999","2010-03-18T12:00:00","4","16.8333333","-25.05","20.0","MINDELO, CV","FM-12","99999","V020","060,1,N,0087,1","22000,1,9,N","010000,1,N,1","+0263,1","+0190,1","10182,1",,,,"01,1,+00540,1,06,1",,,"01,99,1,01,1,05,1,00800,1,00,1,00,1",,"9,9,999,9,+017,1",,"SYN070AAXX  18124 08583 32560 10617 10263 20190 40182 81500 333 58017 81618;",
"08583099999","2010-03-18T18:00:00","4","16.8333333","-25.05","20.0","MINDELO, CV","FM-12","99999","V020","040,1,N,0072,1","22000,1,9,N","008000,1,N,1","+0263,1","+0185,1","10166,1",,"0,1,06,1","0,1,06,1","01,1,+00540,1,06,1",,,"01,99,1,01,1,05,1,00450,1,00,1,00,1","120,M,+0297,1","9,9,999,9,+025,1","06,1","SYN082AAXX  18184 08583 31458 10414 10263 20185 40166 70600 81500 333 10297 58025 81618;",
"08583099999","2010-03-19T00:00:00","4","16.8333333","-25.05","20.0","MINDELO, CV","FM-12","99999","V020","070,1,N,0072,1","22000,1,9,N","006000,1,N,1","+0226,1","+0191,1","10186,1",,"0,1,06,1","0,1,06,1","00,1,+99999,9,99,9",,,"00,99,1,00,1,00,1,99999,9,00,1,00,1",,"9,9,999,9,+018,1","06,1","SYN064AAXX  19004 08583 31956 00714 10226 20191 40186 70600 333 58018;",
"08583099999","2010-03-19T12:00:00","4","16.8333333","-25.05","20.0","MINDELO, CV","FM-12","99999","V020","070,1,N,0082,1","22000,1,9,N","007000,1,N,1","+0292,1","+0096,1","10185,1",,"0,1,06,1","0,1,06,1","00,1,+99999,9,99,9",,,"00,99,1,00,1,00,1,99999,9,00,1,00,1",,"9,9,999,9,+003,1","06,1","SYN064AAXX  19124 08583 31957 00716 10292 20096 40185 70600 333 58003;",
"08583099999","2010-03-19T18:00:00","4","16.8333333","-25.05","20.0","MINDELO, CV","FM-12","99999","V020","050,1,N,0103,1","22000,1,9,N","006000,1,N,1","+0288,1","+0110,1","10158,1",,"0,1,06,1","0,1,06,1","00,1,+99999,9,99,9",,,"00,99,1,00,1,00,1,99999,9,00,1,00,1","120,M,+0323,1","9,9,999,9,-008,1","06,1","SYN070AAXX  19184 08583 31956 00520 10288 20110 40158 70600 333 10323 59008;",
"08583099999","2010-03-20T00:00:00","4","16.8333333","-25.05","20.0","MINDELO, CV","FM-12","99999","V020","050,1,N,0103,1","22000,1,9,N","006000,1,N,1","+0236,1","+0171,1","10181,1",,"0,1,06,1","0,1,06,1","01,1,+00510,1,06,1",,,"01,99,1,99,9,99,9,00450,1,99,9,99,9",,"9,9,999,9,-005,1","06,1","SYN070AAXX  20004 08583 31456 10520 10236 20171 40181 70600 333 59005 81617;",
"08583099999","2010-03-20T06:00:00","4","16.8333333","-25.05","20.0","MINDELO, CV","FM-12","99999","V020","050,1,N,0108,1","22000,1,9,N","006000,1,N,1","+0230,1","+0155,1","10144,1",,"0,1,06,1","0,1,06,1","00,1,+99999,9,99,9",,,"00,99,1,00,1,00,1,99999,9,00,1,00,1","999,N,+0210,1","9,9,999,9,-027,1","06,1","SYN070AAXX  20064 08583 31956 00521 10230 20155 40144 70600 333 20210 59027;",
"08583099999","2010-03-20T12:00:00","4","16.8333333","-25.05","20.0","MINDELO, CV","FM-12","99999","V020","050,1,N,0134,1","22000,1,9,N","004800,1,N,1","+0267,1","+0190,1","10168,1",,"0,1,06,1","0,1,06,1","02,1,+00510,1,08,1",,,"02,99,1,02,1,01,1,00450,1,00,1,00,1",,"9,9,999,9,-017,1","05,1","SYN076AAXX  20124 08583 31448 20526 10267 20190 40168 70500 82100 333 59017 82817;",
"08583099999","2010-03-20T18:00:00","4","16.8333333","-25.05","20.0","MINDELO, CV","FM-12","99999","V020","050,1,N,0134,1","22000,1,9,N","020000,1,N,1","+0265,1","+0177,1","10140,1",,"0,1,06,1","0,1,06,1","01,1,+00540,1,08,1",,,"01,99,1,01,1,01,1,00450,1,00,1,00,1","120,M,+0285,1","9,9,999,9,-018,1","06,1","SYN082AAXX  20184 08583 31470 10526 10265 20177 40140 70600 81100 333 10285 59018 81818;",
"08583099999","2010-03-21T06:00:00","4","16.8333333","-25.05","20.0","MINDELO, CV","FM-12","99999","V020","060,1,N,0113,1","22000,1,9,N","006000,1,N,1","+0220,1","+0175,1","10145,1",,"0,1,06,1","0,1,06,1","01,1,+00510,1,06,1",,,"01,99,1,01,1,05,1,00450,1,00,1,00,1","999,N,+0220,1","9,9,999,9,+001,1","06,1","SYN082AAXX  21064 08583 31456 10622 10220 20175 40145 70600 81500 333 20220 58001 81617;",
"08583099999","2010-03-21T12:00:00","4","16.8333333","-25.05","20.0","MINDELO, CV","FM-12","99999","V020","060,1,N,0149,1","22000,1,9,N","007000,1,N,1","+0261,1","+0163,1","10163,1",,"0,1,06,1","0,1,06,1","01,1,+00600,1,08,1",,,"01,99,1,01,1,01,1,00800,1,00,1,00,1",,"9,9,999,9,-005,1","06,1","SYN076AAXX  21124 08583 31557 10629 10261 20163 40163 70600 81100 333 59005 81820;",
"08583099999","2010-03-21T18:00:00","4","16.8333333","-25.05","20.0","MINDELO, CV","FM-12","99999","V020","060,1,N,0144,1","22000,1,9,N","007000,1,N,1","+0253,1","+0172,1","10137,1",,"1,1,06,1","0,1,06,1","02,1,+03000,1,08,1",,,"04,99,1,02,1,02,1,00800,1,00,1,01,1","120,M,+0278,1","9,9,999,9,-003,1","06,1","SYN088AAXX  21184 08583 31557 40628 10253 20172 40137 70610 82201 333 10278 59003 82860 83070;",
"08583099999","2010-03-22T00:00:00","4","16.8333333","-25.05","20.0","MINDELO, CV","FM-12","99999","V020","060,1,N,0098,1","22000,1,9,N","008000,1,N,1","+0222,1","+0171,1","10157,1",,"1,1,06,1","0,1,06,1","02,1,+00600,1,06,1",,,"02,99,1,02,1,02,1,00800,1,00,1,01,1",,"9,9,999,9,-011,1","06,1","SYN076AAXX  22004 08583 31558 20619 10222 20171 40157 70610 82201 333 59011 82620;",
"08583099999","2010-03-22T06:00:00","4","16.8333333","-25.05","20.0","MINDELO, CV","FM-12","99999","V020","060,1,N,0087,1","22000,1,9,N","010000,1,N,1","+0215,1","+0160,1","10135,1",,,,"01,1,+00600,1,06,1",,,"01,99,1,01,1,05,1,00800,1,00,1,00,1","999,N,+0215,1","9,9,999,9,-010,1",,"SYN076AAXX  22064 08583 32560 10617 10215 20160 40135 81500 333 20215 59010 81620;",
"08583099999","2010-03-22T12:00:00","4","16.8333333","-25.05","20.0","MINDELO, CV","FM-12","99999","V020","060,1,N,0108,1","22000,1,9,N","012000,1,N,1","+0260,1","+0170,1","10160,1",,,,"02,1,+00600,1,08,1",,,"02,99,1,01,1,01,1,00800,1,00,1,01,1",,"9,9,999,9,-003,1",,"SYN070AAXX  22124 08583 32562 20621 10260 20170 40160 81101 333 59003 82820;",
"08583099999","2010-03-22T18:00:00","4","16.8333333","-25.05","20.0","MINDELO, CV","FM-12","99999","V020","060,1,N,0103,1","22000,1,9,N","012000,1,N,1","+0258,1","+0175,1","10126,1",,,,"01,1,+00600,1,06,1",,,"01,99,1,01,1,02,1,00800,1,00,1,00,1","120,M,+0276,1","9,9,999,9,-011,1",,"SYN076AAXX  22184 08583 32562 10620 10258 20175 40126 81200 333 10276 59011 81620;",
"08583099999","2010-03-23T00:00:00","4","16.8333333","-25.05","20.0","MINDELO, CV","FM-12","99999","V020","070,1,N,0103,1","22000,1,9,N","010000,1,N,1","+0220,1","+0171,1","10145,1",,,,"01,1,+00540,1,06,1",,,"01,99,1,01,1,02,1,00450,1,00,1,00,1",,"9,9,999,9,-012,1",,"SYN070AAXX  23004 08583 32460 10720 10220 20171 40145 81200 333 59012 81618;",
"08583099999","2010-03-23T06:00:00","4","16.8333333","-25.05","20.0","MINDELO, CV","FM-12","99999","V020","060,1,N,0093,1","22000,1,9,N","006000,1,N,1","+0216,1","+0168,1","10134,1",,"0,1,06,1","0,1,06,1","01,1,+00540,1,06,1",,,"02,99,1,01,1,05,1,00450,1,00,1,01,1","999,N,+0215,1","9,9,999,9,-001,1","06,1","SYN082AAXX  23064 08583 31456 20618 10216 20168 40134 70600 81501 333 20215 59001 81618;",
"08583099999","2010-03-23T12:00:00","4","16.8333333","-25.05","20.0","MINDELO, CV","FM-12","99999","V020","070,1,N,0108,1","22000,1,C,N","008000,1,N,1","+0261,1","+0168,1","10149,1",,"1,1,06,1","0,1,06,1","02,1,+00540,1,06,1",,,"05,99,1,02,1,05,1,00450,1,00,1,01,1",,"9,9,999,9,-011,1","06,1","SYN082AAXX  23124 08583 31458 50721 10261 20168 40149 70610 82501 333 59011 82618 84070;",
"08583099999","2010-03-23T18:00:00","4","16.8333333","-25.05","20.0","MINDELO, CV","FM-12","99999","V020","070,1,N,0098,1","22000,1,9,N","009000,1,N,1","+0256,1","+0170,1","10123,1",,"0,1,06,1","0,1,06,1","01,1,+00570,1,06,1",,,"03,99,1,01,1,05,1,00450,1,00,1,01,1","120,M,+0277,1","9,9,999,9,-003,1","06,1","SYN088AAXX  23184 08583 31459 30719 10256 20170 40123 70600 81501 333 10277 59003 81619 83070;",
"08583099999","2010-03-24T00:00:00","4","16.8333333","-25.05","20.0","MINDELO, CV","FM-12","99999","V020","070,1,N,0087,1","22000,1,C,N","010000,1,N,1","+0225,1","+0163,1","10148,1",,,,"01,1,+00600,1,06,1",,,"05,99,1,01,1,05,1,00800,1,00,1,01,1",,"9,9,999,9,+003,1",,"SYN076AAXX  24004 08583 32560 50717 10225 20163 40148 81501 333 58003 81620 85070;",
"08583099999","2010-03-24T06:00:00","4","16.8333333","-25.05","20.0","MINDELO, CV","FM-12","99999","V020","060,1,N,0093,1","22000,1,9,N","010000,1,N,1","+0216,1","+0157,1","10117,1",,,,"01,1,+00600,1,06,1",,,"01,99,1,01,1,05,1,00800,1,00,1,00,1",,"9,9,999,9,-017,1",,"SYN076AAXX  24064 08583 32560 10618 10216 20157 40117 81500 333 20/// 59017 81620;",
"08583099999","2010-03-24T12:00:00","4","16.8333333","-25.05","20.0","MINDELO, CV","FM-12","99999","V020","060,1,N,0129,1","22000,1,9,N","012000,1,N,1","+0263,1","+0146,1","10140,1",,,,"01,1,+00660,1,06,1",,,"01,99,1,01,1,05,1,00800,1,00,1,00,1",,"9,9,999,9,-009,1",,"SYN070AAXX  24124 08583 32562 10625 10263 20146 40140 81500 333 59009 81622;",
"08583099999","2010-03-24T18:00:00","4","16.8333333","-25.05","20.0","MINDELO, CV","FM-12","99999","V020","060,1,N,0134,1","22000,1,9,N","020000,1,N,1","+0256,1","+0153,1","10110,1",,,,"01,1,+00660,1,06,1",,,"01,99,1,01,1,05,1,00800,1,00,1,00,1","120,M,+0272,1","9,9,999,9,-013,1",,"SYN076AAXX  24184 08583 32570 10626 10256 20153 40110 81500 333 10272 59013 81622;",
"08583099999","2010-03-25T00:00:00","4","16.8333333","-25.05","20.0","MINDELO, CV","FM-12","99999","V020","060,1,N,0134,1","01200,1,C,N","020000,1,N,1","+0225,1","+0155,1","10137,1",,,,"02,1,+00660,1,06,1",,,"05,99,1,05,1,08,1,00800,1,00,1,00,1",,"9,9,999,9,-011,1",,"SYN076AAXX  25004 08583 32570 50626 10225 20155 40137 85800 333 59011 82622 84630;",
"08583099999","2010-03-25T06:00:00","4","16.8333333","-25.05","20.0","MINDELO, CV","FM-12","99999","V020","060,1,N,0103,1","22000,1,9,N","018000,1,N,1","+0220,1","+0145,1","10127,1",,,,"02,1,+00720,1,06,1",,,"02,99,1,02,1,05,1,00800,1,00,1,00,1","999,N,+0213,1","9,9,999,9,-007,1",,"SYN076AAXX  25064 08583 32568 20620 10220 20145 40127 82500 333 20213 59007 82624;",
"08583099999","2010-03-25T12:00:00","4","16.8333333","-25.05","20.0","MINDELO, CV","FM-12","99999","V020","060,1,N,0098,1","22000,1,9,N","020000,1,N,1","+0256,1","+0161,1","10153,1",,,,"03,1,+00690,1,08,1",,,"03,99,1,03,1,01,1,00800,1,00,1,00,1",,"9,9,999,9,+013,1",,"SYN070AAXX  25124 08583 32570 30619 10256 20161 40153 83100 333 58013 83823;",
"08583099999","2010-03-25T18:00:00","4","16.8333333","-25.05","20.0","MINDELO, CV","FM-12","99999","V020","060,1,N,0129,1","22000,1,9,N","020000,1,N,1","+0258,1","+0150,1","10115,1",,,,"01,1,+00720,1,08,1",,,"01,99,1,01,1,01,1,00800,1,00,1,00,1","120,M,+0273,1","9,9,999,9,+005,1",,"SYN076AAXX  25184 08583 32570 10625 10258 20150 40115 81100 333 10273 58005 81824;",
"08583099999","2010-03-26T00:00:00","4","16.8333333","-25.05","20.0","MINDELO, CV","FM-12","99999","V020","060,1,N,0123,1","22000,1,9,N","020000,1,N,1","+0225,1","+0165,1","10154,1",,,,"01,1,+00600,1,06,1",,,"01,99,1,01,1,05,1,00800,1,00,1,00,1",,"9,9,999,9,+017,1",,"SYN070AAXX  26004 08583 32570 10624 10225 20165 40154 81500 333 58017 81620;",
"08583099999","2010-03-26T06:00:00","4","16.8333333","-25.05","20.0","MINDELO, CV","FM-12","99999","V020","070,1,N,0062,1","22000,1,9,N","020000,1,N,1","+0215,1","+0162,1","10143,1",,,,"01,1,+00600,1,06,1",,,"01,99,1,01,1,05,1,00800,1,00,1,00,1","999,N,+0213,1","9,9,999,9,+016,1",,"SYN076AAXX  26064 08583 32570 10712 10215 20162 40143 81500 333 20213 58016 81620;",
"08583099999","2010-03-26T12:00:00","4","16.8333333","-25.05","20.0","MINDELO, CV","FM-12","99999","V020","060,1,N,0093,1","22000,1,9,N","020000,1,N,1","+0260,1","+0157,1","10160,1",,,,"01,1,+00750,1,08,1",,,"01,99,1,01,1,01,1,00800,1,00,1,00,1",,"9,9,999,9,+007,1",,"SYN070AAXX  26124 08583 32570 10618 10260 20157 40160 81100 333 58007 81825;",
"08583099999","2010-03-26T18:00:00","4","16.8333333","-25.05","20.0","MINDELO, CV","FM-12","99999","V020","050,1,N,0113,1","22000,1,9,N","015000,1,N,1","+0255,1","+0170,1","10136,1",,,,"01,1,+00750,1,08,1",,,"01,99,1,01,1,01,1,00800,1,00,1,00,1","120,M,+0272,1","9,9,999,9,+021,1",,"SYN076AAXX  26184 08583 32565 10522 10255 20170 40136 81100 333 10272 58021 81825;",
"08583099999","2010-03-27T00:00:00","4","16.8333333","-25.05","20.0","MINDELO, CV","FM-12","99999","V020","070,1,N,0082,1","22000,1,9,N","012000,1,N,1","+0222,1","+0176,1","10168,1",,,,"01,1,+00600,1,06,1",,,"01,99,1,01,1,02,1,00800,1,00,1,00,1",,"9,9,999,9,+014,1",,"SYN070AAXX  27004 08583 32562 10716 10222 20176 40168 81200 333 58014 81620;",
"08583099999","2010-03-27T06:00:00","4","16.8333333","-25.05","20.0","MINDELO, CV","FM-12","99999","V020","070,1,N,0051,1","22000,1,9,N","010000,1,N,1","+0213,1","+0170,1","10154,1",,,,"01,1,+00600,1,06,1",,,"01,99,1,01,1,05,1,00800,1,00,1,00,1","999,N,+0213,1","9,9,999,9,+011,1",,"SYN076AAXX  27064 08583 32560 10710 10213 20170 40154 81500 333 20213 58011 81620;",
"08583099999","2010-03-27T12:00:00","4","16.8333333","-25.05","20.0","MINDELO, CV","FM-12","99999","V020","070,1,N,0103,1","22000,1,9,N","010000,1,N,1","+0266,1","+0182,1","10166,1",,,,"01,1,+00600,1,06,1",,,"02,99,1,01,1,05,1,00800,1,00,1,01,1",,"9,9,999,9,+006,1",,"SYN070AAXX  27124 08583 32560 20720 10266 20182 40166 81501 333 58006 81620;",
"08583099999","2010-03-27T18:00:00","4","16.8333333","-25.05","20.0","MINDELO, CV","FM-12","99999","V020","050,1,N,0103,1","22000,1,9,N","010000,1,N,1","+0255,1","+0186,1","10141,1",,,,"01,1,+00600,1,06,1",,,"02,99,1,01,1,05,1,00800,1,00,1,01,1","120,M,+0277,1","9,9,999,9,+005,1",,"SYN076AAXX  27184 08583 32560 20520 10255 20186 40141 81501 333 10277 58005 81620;",
"08583099999","2010-03-28T00:00:00","4","16.8333333","-25.05","20.0","MINDELO, CV","FM-12","99999","V020","070,1,N,0093,1","22000,1,9,N","009000,1,N,1","+0225,1","+0185,1","10171,1",,"0,1,06,1","0,1,06,1","01,1,+00600,1,06,1",,,"01,99,1,01,1,05,1,00800,1,00,1,01,1",,"9,9,999,9,+003,1","06,1","SYN076AAXX  28004 08583 31559 10718 10225 20185 40171 70600 81501 333 58003 81620;",
"08583099999","2010-03-28T06:00:00","4","16.8333333","-25.05","20.0","MINDELO, CV","FM-12","99999","V020","060,1,N,0057,1","22000,1,9,N","009000,1,N,1","+0218,1","+0190,1","10150,1",,"1,1,06,1","0,1,06,1","01,1,+00600,1,06,1",,,"04,99,1,01,1,05,1,00800,1,03,1,01,1","999,N,+0213,1","9,9,999,9,-004,1","06,1","SYN088AAXX  28064 08583 31559 40611 10218 20190 40150 70610 81531 333 20213 59004 81620 84070;",
"08583099999","2010-03-28T12:00:00","4","16.8333333","-25.05","20.0","MINDELO, CV","FM-12","99999","V020","070,1,N,0113,1","22000,1,9,N","008000,1,N,1","+0272,1","+0186,1","10162,1",,"1,1,06,1","0,1,06,1","01,1,+00600,1,06,1",,,"03,99,1,01,1,05,1,00800,1,03,1,01,1",,"9,9,999,9,-004,1","06,1","SYN076AAXX  28124 08583 31558 30722 10272 20186 40162 70610 81531 333 59004 81620;",
"08583099999","2010-03-28T18:00:00","4","16.8333333","-25.05","20.0","MINDELO, CV","FM-12","99999","V020","070,1,N,0118,1","22000,1,C,N","007000,1,N,1","+0258,1","+0195,1","10139,1",,"1,1,06,1","0,1,06,1","01,1,+00600,1,06,1",,,"05,99,1,01,1,05,1,00800,1,00,1,01,1","120,M,+0281,1","9,9,999,9,-002,1","06,1","SYN088AAXX  28184 08583 31557 50723 10258 20195 40139 70610 81501 333 10281 59002 81620 84070;",
"08583099999","2010-03-29T00:00:00","4","16.8333333","-25.05","20.0","MINDELO, CV","FM-12","99999","V020","060,1,N,0139,1","22000,1,9,N","005000,1,N,1","+0228,1","+0198,1","10148,1",,"2,1,06,1","1,1,06,1","01,1,+00450,1,06,1",,,"03,99,1,01,1,05,1,00450,1,03,1,01,1",,"9,9,999,9,-023,1","05,1","SYN076AAXX  29004 08583 31450 30627 10228 20198 40148 70521 81531 333 59023 81615;",
"08583099999","2010-03-29T06:00:00","4","16.8333333","-25.05","20.0","MINDELO, CV","FM-12","99999","V020","080,1,N,0098,1","22000,1,9,N","006000,1,N,1","+0227,1","+0185,1","10130,1",,"1,1,06,1","0,1,06,1","01,1,+00510,1,06,1",,,"01,99,1,01,1,05,1,00450,1,00,1,00,1","999,N,+0217,1","9,9,999,9,-020,1","06,1","SYN082AAXX  29064 08583 31456 10819 10227 20185 40130 70610 81500 333 20217 59020 81617;",
"08583099999","2010-03-29T12:00:00","4","16.8333333","-25.05","20.0","MINDELO, CV","FM-12","99999","V020","060,1,N,0159,1","22000,1,9,N","008000,1,N,1","+0270,1","+0183,1","10147,1",,"0,1,06,1","0,1,06,1","01,1,+00600,1,06,1",,,"01,99,1,01,1,05,1,00800,1,00,1,00,1",,"9,9,999,9,-015,1","06,1","SYN076AAXX  29124 08583 31558 10631 10270 20183 40147 70600 81500 333 59015 81620;",
"08583099999","2010-03-30T00:00:00","4","16.8333333","-25.05","20.0","MINDELO, CV","FM-12","99999","V020","060,1,N,0113,1","22000,1,9,N","007000,1,N,1","+0230,1","+0198,1","10156,1",,"0,1,06,1","0,1,06,1","01,1,+00480,1,06,1",,,"01,99,1,01,1,05,1,00450,1,00,1,00,1",,"9,9,999,9,+008,1","06,1","SYN076AAXX  30004 08583 31457 10622 10230 20198 40156 70600 81500 333 58008 81616;",
"08583099999","2010-03-30T06:00:00","4","16.8333333","-25.05","20.0","MINDELO, CV","FM-12","99999","V020","060,1,N,0118,1","22000,1,9,N","007000,1,N,1","+0225,1","+0181,1","10135,1",,"0,1,06,1","0,1,06,1","01,1,+00480,1,06,1",,,"01,99,1,01,1,05,1,00450,1,00,1,00,1","999,N,+0222,1","9,9,999,9,+005,1","06,1","SYN082AAXX  30064 08583 31457 10623 10225 20181 40135 70600 81500 333 20222 58005 81616;",
"08583099999","2010-03-30T12:00:00","4","16.8333333","-25.05","20.0","MINDELO, CV","FM-12","99999","V020","060,1,N,0159,1","22000,1,9,N","007000,1,N,1","+0265,1","+0188,1","10147,1",,"0,1,06,1","0,1,06,1","02,1,+00510,1,08,1",,,"02,99,1,02,1,01,1,00450,1,00,1,00,1",,"9,9,999,9,+000,1","06,1","SYN076AAXX  30124 08583 31457 20631 10265 20188 40147 70600 82100 333 58000 82817;",
"08583099999","2010-03-30T18:00:00","4","16.8333333","-25.05","20.0","MINDELO, CV","FM-12","99999","V020","060,1,N,0144,1","22000,1,9,N","008000,1,N,1","+0270,1","+0163,1","10123,1",,"0,1,06,1","0,1,06,1",,,,"01,99,1,99,9,99,9,99999,9,99,9,99,9","120,M,+0292,1","9,9,999,9,-006,1","06,1","SYN070AAXX  30184 08583 31958 10628 10270 20163 40123 70600 333 10292 59006;",
"08583099999","2010-03-31T00:00:00","4","16.8333333","-25.05","20.0","MINDELO, CV","FM-12","99999","V020","060,1,N,0123,1","22000,1,9,N","007000,1,N,1","+0227,1","+0195,1","10147,1",,"0,1,06,1","0,1,06,1","01,1,+00480,1,06,1",,,"01,99,1,99,9,99,9,00450,1,99,9,99,9",,"9,9,999,9,-009,1","06,1","SYN070AAXX  31004 08583 31457 10624 10227 20195 40147 70600 333 59009 81616;",
"08583099999","2010-03-31T06:00:00","4","16.8333333","-25.05","20.0","MINDELO, CV","FM-12","99999","V020","070,1,N,0118,1","22000,1,9,N","006000,1,N,1","+0217,1","+0188,1","10125,1",,"0,1,06,1","0,1,06,1","01,1,+00480,1,06,1",,,"01,99,1,01,1,05,1,00450,1,00,1,00,1","999,N,+0217,1","9,9,999,9,-010,1","06,1","SYN082AAXX  31064 08583 31456 10723 10217 20188 40125 70600 81500 333 20217 59010 81616;",
"08583099999","2010-03-31T12:00:00","4","16.8333333","-25.05","20.0","MINDELO, CV","FM-12","99999","V020","060,1,N,0144,1","22000,1,9,N","009000,1,N,1","+0270,1","+0185,1","10141,1",,"0,1,06,1","0,1,06,1","01,1,+00510,1,06,1",,,"01,99,1,01,1,05,1,00450,1,00,1,00,1",,"9,9,999,9,-006,1","06,1","SYN076AAXX  31124 08583 31459 10628 10270 20185 40141 70600 81500 333 59006 81617;",
"08583099999","2010-03-31T18:00:00","4","16.8333333","-25.05","20.0","MINDELO, CV","FM-12","99999","V020","060,1,N,0149,1","22000,1,9,N","010000,1,N,1","+0260,1","+0187,1","10107,1",,,,"02,1,+00510,1,06,1",,,"02,99,1,02,1,02,1,00450,1,00,1,00,1","120,M,+0286,1","9,9,999,9,-016,1",,"SYN076AAXX  31184 08583 32460 20629 10260 20187 40107 82200 333 10286 59016 82617;",
"08583099999","2010-04-01T00:00:00","4","16.8333333","-25.05","20.0","MINDELO, CV","FM-12","99999","V020","060,1,N,0103,1","22000,1,9,N","008000,1,N,1","+0222,1","+0195,1","10132,1",,"0,1,06,1","0,1,06,1","01,1,+00540,1,06,1",,,"01,99,1,01,1,02,1,00450,1,00,1,00,1",,"9,9,999,9,-015,1","06,1","SYN076AAXX  01004 08583 31458 10620 10222 20195 40132 70600 81200 333 59015 81618;",
"08583099999","2010-04-01T06:00:00","4","16.8333333","-25.05","20.0","MINDELO, CV","FM-12","99999","V020","070,1,N,0113,1","22000,1,9,N","008000,1,N,1","+0215,1","+0190,1","10109,1",,"0,1,06,1","0,1,06,1","01,1,+00480,1,06,1",,,"01,99,1,01,1,05,1,00450,1,00,1,00,1","999,N,+0215,1","9,9,999,9,-016,1","06,1","SYN082AAXX  01064 08583 31458 10722 10215 20190 40109 70600 81500 333 20215 59016 81616;",
"08583099999","2010-04-01T12:00:00","4","16.8333333","-25.05","20.0","MINDELO, CV","FM-12","99999","V020","060,1,N,0144,1","22000,1,9,N","009000,1,N,1","+0267,1","+0185,1","10129,1",,"0,1,06,1","0,1,06,1","01,1,+00480,1,06,1",,,"01,99,1,01,1,01,1,00450,1,00,1,00,1",,"9,9,999,9,-012,1","06,1","SYN076AAXX  01124 08583 31459 10628 10267 20185 40129 70600 81100 333 59012 81616;",
"08583099999","2010-04-01T18:00:00","4","16.8333333","-25.05","20.0","MINDELO, CV","FM-12","99999","V020","060,1,N,0103,1","22000,1,9,N","010000,1,N,1","+0276,1","+0175,1","10105,1",,,,"01,1,+00480,1,06,1",,,"01,99,1,01,1,02,1,00450,1,00,1,00,1","120,M,+0288,1","9,9,999,9,-002,1",,"SYN076AAXX  01184 08583 32460 10620 10276 20175 40105 81200 333 10288 59002 81616;",
"08583099999","2010-04-02T00:00:00","4","16.8333333","-25.05","20.0","MINDELO, CV","FM-12","99999","V020","080,1,N,0036,1","22000,1,9,N","010000,1,N,1","+0221,1","+0195,1","10136,1",,,,"01,1,+00480,1,06,1",,,"01,99,1,01,1,02,1,00450,1,00,1,00,1",,"9,9,999,9,+004,1",,"SYN070AAXX  02004 08583 32460 10807 10221 20195 40136 81200 333 58004 81616;",
"08583099999","2010-04-02T06:00:00","4","16.8333333","-25.05","20.0","MINDELO, CV","FM-12","99999","V020","050,1,N,0072,1","22000,1,9,N","008000,1,N,1","+0211,1","+0188,1","10120,1",,"0,1,06,1","0,1,06,1","01,1,+00480,1,06,1",,,"01,99,1,01,1,05,1,00450,1,00,1,00,1","999,N,+0211,1","9,9,999,9,+011,1","06,1","SYN082AAXX  02064 08583 31458 10514 10211 20188 40120 70600 81500 333 20211 58011 81616;",
"08583099999","2010-04-02T12:00:00","4","16.8333333","-25.05","20.0","MINDELO, CV","FM-12","99999","V020","060,1,N,0129,1","22000,1,9,N","009000,1,N,1","+0270,1","+0185,1","10120,1",,"0,1,06,1","0,1,06,1","01,1,+00540,1,06,1",,,"01,99,1,01,1,05,1,00450,1,00,1,00,1",,"9,9,999,9,+002,1","06,1","SYN076AAXX  02124 08583 31459 10625 10270 20185 40120 70600 81500 333 58002 81618;",
"08583099999","2010-04-02T18:00:00","4","16.8333333","-25.05","20.0","MINDELO, CV","FM-12","99999","V020","060,1,N,0108,1","22000,1,9,N","010000,1,N,1","+0273,1","+0150,1","10115,1",,,,"01,1,+00600,1,06,1",,,"01,99,1,01,1,05,1,00800,1,00,1,00,1","120,M,+0290,1","9,9,999,9,+010,1",,"SYN076AAXX  02184 08583 32560 10621 10273 20150 40115 81500 333 10290 58010 81620;",
"08583099999","2010-04-03T00:00:00","4","16.8333333","-25.05","20.0","MINDELO, CV","FM-12","99999","V020","070,1,N,0077,1","22000,1,9,N","007000,1,N,1","+0223,1","+0190,1","10143,1",,"0,1,06,1","0,1,06,1","00,1,+99999,9,99,9",,,"00,99,1,00,1,00,1,99999,9,00,1,00,1",,"9,9,999,9,+007,1","06,1","SYN064AAXX  03004 08583 31957 00715 10223 20190 40143 70600 333 58007;",
"08583099999","2010-04-03T06:00:00","4","16.8333333","-25.05","20.0","MINDELO, CV","FM-12","99999","V020","060,1,N,0103,1","22000,1,9,N","009000,1,N,1","+0220,1","+0176,1","10128,1",,"0,1,06,1","0,1,06,1","01,1,+00600,1,06,1",,,"01,99,1,01,1,05,1,00800,1,00,1,00,1","999,N,+0210,1","9,9,999,9,+008,1","06,1","SYN082AAXX  03064 08583 31559 10620 10220 20176 40128 70600 81500 333 20210 58008 81620;",
"08583099999","2010-04-03T12:00:00","4","16.8333333","-25.05","20.0","MINDELO, CV","FM-12","99999","V020","060,1,N,0129,1","22000,1,9,N","010000,1,N,1","+0276,1","+0165,1","10139,1",,,,"01,1,+00600,1,06,1",,,"01,99,1,01,1,05,1,00800,1,00,1,00,1",,"9,9,999,9,+008,1",,"SYN070AAXX  03124 08583 32560 10625 10276 20165 40139 81500 333 58008 81620;",
"08583099999","2010-04-03T18:00:00","4","16.8333333","-25.05","20.0","MINDELO, CV","FM-12","99999","V020","060,1,N,0123,1","22000,1,9,N","008000,1,N,1","+0263,1","+0192,1","10118,1",,"0,1,06,1","0,1,06,1","01,1,+00480,1,06,1",,,"01,99,1,01,1,05,1,00450,1,00,1,00,1","120,M,+0285,1","9,9,999,9,+003,1","06,1","SYN082AAXX  03184 08583 31458 10624 10263 20192 40118 70600 81500 333 10285 58003 81616;",
"08583099999","2010-04-04T00:00:00","4","16.8333333","-25.05","20.0","MINDELO, CV","FM-12","99999","V020","070,1,N,0123,1","22000,1,9,N","008000,1,N,1","+0222,1","+0182,1","10145,1",,"0,1,06,1","0,1,06,1","02,1,+00480,1,06,1",,,"02,99,1,02,1,05,1,00450,1,00,1,00,1",,"9,9,999,9,+009,1","06,1","SYN076AAXX  04004 08583 31458 20724 10222 20182 40145 70600 82500 333 58009 82616;",
"08583099999","2010-04-04T06:00:00","4","16.8333333","-25.05","20.0","MINDELO, CV","FM-12","99999","V020","070,1,N,0118,1","22000,1,9,N","009000,1,N,1","+0215,1","+0175,1","10134,1",,"0,1,06,1","0,1,06,1","01,1,+00480,1,06,1",,,"01,99,1,01,1,05,1,00450,1,00,1,00,1","999,N,+0215,1","9,9,999,9,+007,1","06,1","SYN082AAXX  04064 08583 31459 10723 10215 20175 40134 70600 81500 333 20215 58007 81616;",
"08583099999","2010-04-04T12:00:00","4","16.8333333","-25.05","20.0","MINDELO, CV","FM-12","99999","V020","060,1,N,0134,1","22000,1,9,N","008000,1,N,1","+0261,1","+0175,1","10145,1",,"0,1,06,1","0,1,06,1","01,1,+00600,1,06,1",,,"01,99,1,01,1,05,1,00450,1,00,1,00,1",,"9,9,999,9,+006,1","06,1","SYN076AAXX  04124 08583 31458 10626 10261 20175 40145 70600 81500 333 58006 81620;",
"08583099999","2010-04-04T18:00:00","4","16.8333333","-25.05","20.0","MINDELO, CV","FM-12","99999","V020","060,1,N,0149,1","22000,1,9,N","012000,1,N,1","+0256,1","+0165,1","10116,1",,,,"02,1,+00600,1,06,1",,,"02,99,1,02,1,02,1,00800,1,00,1,00,1","120,M,+0277,1","9,9,999,9,-002,1",,"SYN076AAXX  04184 08583 32562 20629 10256 20165 40116 82200 333 10277 59002 82620;",
"08583099999","2010-04-05T00:00:00","4","16.8333333","-25.05","20.0","MINDELO, CV","FM-12","99999","V020","060,1,N,0108,1","22000,1,9,N","012000,1,N,1","+0225,1","+0161,1","10143,1",,,,"02,1,+00600,1,06,1",,,"02,99,1,02,1,05,1,00800,1,00,1,00,1",,"9,9,999,9,-002,1",,"SYN070AAXX  05004 08583 32562 20621 10225 20161 40143 82500 333 59002 82620;",
"08583099999","2010-04-05T06:00:00","4","16.8333333","-25.05","20.0","MINDELO, CV","FM-12","99999","V020","080,1,N,0057,1","22000,1,9,N","012000,1,N,1","+0221,1","+0160,1","10139,1",,,,"03,1,+00600,1,06,1",,,"03,99,1,03,1,05,1,00800,1,00,1,00,1","999,N,+0213,1","9,9,999,9,+005,1",,"SYN076AAXX  05064 08583 32562 30811 10221 20160 40139 83500 333 20213 58005 83620;",
"08583099999","2010-04-05T12:00:00","4","16.8333333","-25.05","20.0","MINDELO, CV","FM-12","99999","V020","040,1,N,0067,1","22000,1,9,N","020000,1,N,1","+0266,1","+0152,1","10156,1",,,,"02,1,+00750,1,08,1",,,"02,99,1,02,1,08,1,00800,1,00,1,00,1",,"9,9,999,9,+011,1",,"SYN070AAXX  05124 08583 32570 20413 10266 20152 40156 82800 333 58011 82825;",
"08583099999","2010-04-05T18:00:00","4","16.8333333","-25.05","20.0","MINDELO, CV","FM-12","99999","V020","070,1,N,0108,1","22000,1,9,N","020000,1,N,1","+0256,1","+0145,1","10132,1",,,,"02,1,+00690,1,06,1",,,"02,99,1,02,1,05,1,00800,1,00,1,00,1","120,M,+0278,1","9,9,999,9,+016,1",,"SYN076AAXX  05184 08583 32570 20721 10256 20145 40132 82500 333 10278 58016 82623;",
"08583099999","2010-04-06T00:00:00","4","16.8333333","-25.05","20.0","MINDELO, CV","FM-12","99999","V020","080,1,N,0067,1","22000,1,9,N","020000,1,N,1","+0222,1","+0156,1","10160,1",,,,"01,1,+00690,1,08,1",,,"02,99,1,01,1,01,1,00800,1,00,1,01,1",,"9,9,999,9,+017,1",,"SYN070AAXX  06004 08583 32570 20813 10222 20156 40160 81101 333 58017 81823;",
"08583099999","2010-04-06T06:00:00","4","16.8333333","-25.05","20.0","MINDELO, CV","FM-12","99999","V020","070,1,N,0046,1","22000,1,9,N","020000,1,N,1","+0218,1","+0140,1","10141,1",,,,"01,1,+00750,1,08,1",,,"02,99,1,02,1,08,1,00800,1,00,1,00,1","999,N,+0217,1","9,9,999,9,+002,1",,"SYN076AAXX  06064 08583 32570 20709 10218 20140 40141 82800 333 20217 58002 81825;",
"08583099999","2010-04-06T12:00:00","4","16.8333333","-25.05","20.0","MINDELO, CV","FM-12","99999","V020","070,1,N,0103,1","00690,1,9,N","020000,1,N,1","+0261,1","+0142,1","10153,1",,,,"05,1,+00690,1,06,1",,,"05,99,1,05,1,02,1,00800,1,00,1,00,1",,"9,9,999,9,+003,1",,"SYN070AAXX  06124 08583 32570 50720 10261 20142 40153 85200 333 58003 85623;",
"08583099999","2010-04-06T18:00:00","4","16.8333333","-25.05","20.0","MINDELO, CV","FM-12","99999","V020","050,1,N,0098,1","22000,1,9,N","025000,1,N,1","+0253,1","+0135,1","10123,1",,,,"02,1,+00690,1,06,1",,,"03,99,1,02,1,02,1,00800,1,00,1,01,1","120,M,+0273,1","9,9,999,9,-009,1",,"SYN082AAXX  06184 08583 32575 30519 10253 20135 40123 82201 333 10273 59009 82623 83070;",
"08583099999","2010-04-07T00:00:00","4","16.8333333","-25.05","20.0","MINDELO, CV","FM-12","99999","V020","070,1,N,0067,1","22000,1,9,N","020000,1,N,1","+0225,1","+0143,1","10142,1",,,,"02,1,+00660,1,06,1",,,"03,99,1,02,1,02,1,00800,1,00,1,01,1",,"9,9,999,9,-001,1",,"SYN070AAXX  07004 08583 32570 30713 10225 20143 40142 82201 333 59001 82622;",
"08583099999","2010-04-07T06:00:00","4","16.8333333","-25.05","20.0","MINDELO, CV","FM-12","99999","V020","060,1,N,0057,1","22000,1,9,N","020000,1,N,1","+0220,1","+0145,1","10122,1",,,,"02,1,+00660,1,06,1",,,"02,99,1,02,1,02,1,00800,1,00,1,01,1","120,M,+9999,9","9,9,999,9,-019,1",,"SYN076AAXX  07064 08583 32570 20611 10220 20145 40122 82201 333 10213 59019 82622;","Q01 +02132ATMX  "
"08583099999","2010-04-07T12:00:00","4","16.8333333","-25.05","20.0","MINDELO, CV","FM-12","99999","V020","050,1,N,0072,1","22000,1,9,N","020000,1,N,1","+0257,1","+0136,1","10139,1",,,,"01,1,+00660,1,06,1",,,"03,99,1,01,1,02,1,00800,1,00,1,01,1",,"9,9,999,9,-014,1",,"SYN076AAXX  07124 08583 32570 30514 10257 20136 40139 81201 333 59014 81622 83070;",
"08583099999","2010-04-07T18:00:00","4","16.8333333","-25.05","20.0","MINDELO, CV","FM-12","99999","V020","060,1,N,0057,1","22000,1,9,N","020000,1,N,1","+0262,1","+0145,1","10115,1",,,,"01,1,+00660,1,06,1",,,"02,99,1,01,1,05,1,00800,1,00,1,01,1","120,M,+0276,1","9,9,999,9,-008,1",,"SYN076AAXX  07184 08583 32570 20611 10262 20145 40115 81501 333 10276 59008 81622;",
"08583099999","2010-04-08T00:00:00","4","16.8333333","-25.05","20.0","MINDELO, CV","FM-12","99999","V020","070,1,N,0051,1","22000,1,9,N","015000,1,N,1","+0225,1","+0168,1","10138,1",,,,"01,1,+00600,1,06,1",,,"02,99,1,01,1,05,1,00800,1,00,1,01,1",,"9,9,999,9,-004,1",,"SYN070AAXX  08004 08583 32565 20710 10225 20168 40138 81501 333 59004 81620;",
"08583099999","2010-04-08T12:00:00","4","16.8333333","-25.05","20.0","MINDELO, CV","FM-12","99999","V020","050,1,N,0072,1","22000,1,9,N","020000,1,N,1","+0261,1","+0172,1","10146,1",,,,"02,1,+00660,1,06,1",,,"02,99,1,02,1,05,1,00800,1,00,1,01,1",,"9,9,999,9,-007,1",,"SYN070AAXX  08124 08583 32570 20514 10261 20172 40146 82501 333 59007 82622;",
"08583099999","2010-04-08T18:00:00","4","16.8333333","-25.05","20.0","MINDELO, CV","FM-12","99999","V020","060,1,N,0051,1","22000,1,9,N","018000,1,N,1","+0262,1","+0167,1","10120,1",,,,"01,1,+00690,1,06,1",,,"02,99,1,01,1,05,1,00800,1,00,1,01,1","120,M,+0277,1","9,9,999,9,+005,1",,"SYN076AAXX  08184 08583 32568 20610 10262 20167 40120 81501 333 10277 58005 81623;",
"08583099999","2010-04-09T00:00:00","4","16.8333333","-25.05","20.0","MINDELO, CV","FM-12","99999","V020","080,1,N,0051,1","22000,1,9,N","018000,1,N,1","+0225,1","+0165,1","10145,1",,,,"01,1,+06000,1,00,1",,,"01,99,1,00,1,00,1,99999,9,00,1,01,1",,"9,9,999,9,+007,1",,"SYN070AAXX  09004 08583 32568 10810 10225 20165 40145 80001 333 58007 81070;","Q01+008002SCOLCB"
"08583099999","2010-04-09T06:00:00","4","16.8333333","-25.05","20.0","MINDELO, CV","FM-12","99999","V020","060,1,N,0026,1","22000,1,9,N","018000,1,N,1","+0210,1","+0156,1","10127,1",,,,"02,1,+00720,1,06,1",,,"02,99,1,01,1,05,1,00800,1,00,1,00,1","999,N,+0206,1","9,9,999,9,-001,1",,"SYN076AAXX  09064 08583 32568 20605 10210 20156 40127 81500 333 20206 59001 82624;",
"08583099999","2010-04-09T12:00:00","4","16.8333333","-25.05","20.0","MINDELO, CV","FM-12","99999","V020","070,1,N,0026,1","22000,1,9,N","018000,1,N,1","+0260,1","+0155,1","10153,1",,,,"01,1,+00660,1,08,1",,,"03,99,1,01,1,01,1,00800,1,00,1,01,1",,"9,9,999,9,+006,1",,"SYN076AAXX  09124 08583 32568 30705 10260 20155 40153 81101 333 58006 81822 83070;",
"08583099999","2010-04-09T18:00:00","4","16.8333333","-25.05","20.0","MINDELO, CV","FM-12","99999","V020","070,1,N,0067,1","22000,1,9,N","020000,1,N,1","+0262,1","+0172,1","10128,1",,,,"01,1,+00690,1,08,1",,,"03,99,1,01,1,01,1,00800,1,00,1,01,1","120,M,+0280,1","9,9,999,9,+008,1",,"SYN082AAXX  09184 08583 32570 30713 10262 20172 40128 81101 333 10280 58008 81823 83070;",
"08583099999","2010-04-10T00:00:00","4","16.8333333","-25.05","20.0","MINDELO, CV","FM-12","99999","V020","070,1,N,0031,1","22000,1,9,N","018000,1,N,1","+0230,1","+0168,1","10162,1",,,,"01,1,+00690,1,06,1",,,"02,99,1,01,1,05,1,00800,1,00,1,01,1",,"9,9,999,9,+011,1",,"SYN070AAXX  10004 08583 32568 20706 10230 20168 40162 81501 333 58011 81623;",
"08583099999","2010-04-10T06:00:00","4","16.8333333","-25.05","20.0","MINDELO, CV","FM-12","99999","V020","070,1,N,0031,1","22000,1,C,N","020000,1,N,1","+0222,1","+0160,1","10138,1",,,,"03,1,+00750,1,06,1",,,"06,99,1,03,1,05,1,00800,1,00,1,01,1","999,N,+0201,1","9,9,999,9,+011,1",,"SYN082AAXX  10064 08583 32570 60706 10222 20160 40138 83501 333 20201 58011 83625 85070;",
"08583099999","2010-04-10T12:00:00","4","16.8333333","-25.05","20.0","MINDELO, CV","FM-12","99999","V020","040,1,N,0036,1","00900,1,9,N","020000,1,N,1","+0251,1","+0166,1","10159,1",,,,"02,1,+00750,1,08,1","05,1,+00900,1,06,1",,"07,99,1,05,1,08,1,00800,1,00,1,06,1",,"9,9,999,9,+006,1",,"SYN082AAXX  10124 08583 32570 70407 10251 20166 40159 85806 333 58006 82825 85630 86070;",
"08583099999","2010-04-10T18:00:00","4","16.8333333","-25.05","20.0","MINDELO, CV","FM-12","99999","V020","040,1,N,0082,1","00720,1,9,N","020000,1,N,1","+0258,1","+0180,1","10129,1",,,,"05,1,+00720,1,06,1",,,"06,99,1,05,1,02,1,00800,1,00,1,01,1","120,M,+0276,1","9,9,999,9,+010,1",,"SYN076AAXX  10184 08583 32570 60416 10258 20180 40129 85201 333 10276 58010 85624;",
"08583099999","2010-04-11T00:00:00","4","16.8333333","-25.05","20.0","MINDELO, CV","FM-12","99999","V020","060,1,N,0041,1","22000,1,C,N","020000,1,N,1","+0232,1","+0177,1","10151,1",,,,"03,1,+00720,1,06,1",,,"05,99,1,03,1,02,1,00800,1,00,1,01,1",,"9,9,999,9,-011,1",,"SYN076AAXX  11004 08583 32570 50608 10232 20177 40151 83201 333 59011 83624 83070;",
"08583099999","2010-04-11T06:00:00","4","16.8333333","-25.05","20.0","MINDELO, CV","FM-12","99999","V020","060,1,N,0041,1","04500,1,C,N","020000,1,N,1","+0231,1","+0165,1","10124,1",,,,"04,1,+00750,1,06,1",,,"06,99,1,03,1,05,1,00800,1,03,1,01,1","999,N,+0231,1","9,9,999,9,-014,1",,"SYN082AAXX  11064 08583 32570 60608 10231 20165 40124 83531 333 20231 59014 84625 83360;",
"08583099999","2010-04-11T18:00:00","4","16.8333333","-25.05","20.0","MINDELO, CV","FM-12","99999","V020","050,1,N,0057,1","04500,1,C,N","020000,1,N,1","+0257,1","+0170,1","10112,1",,,,"03,1,+00690,1,06,1",,,"05,99,1,03,1,05,1,00800,1,03,1,01,1","120,M,+0275,1","9,9,999,9,-017,1",,"SYN082AAXX  11184 08583 32570 50511 10257 20170 40112 83531 333 10275 59017 83623 83360;",
"08583099999","2010-04-12T00:00:00","4","16.8333333","-25.05","20.0","MINDELO, CV","FM-12","99999","V020","070,1,N,0057,1","22000,1,9,N","018000,1,N,1","+0227,1","+0165,1","10140,1",,,,"02,1,+00600,1,06,1",,,"02,99,1,02,1,05,1,00800,1,00,1,00,1",,"9,9,999,9,-011,1",,"SYN070AAXX  12004 08583 32568 20711 10227 20165 40140 82500 333 59011 82620;",
"08583099999","2010-04-12T06:00:00","4","16.8333333","-25.05","20.0","MINDELO, CV","FM-12","99999","V020","070,1,N,0036,1","22000,1,9,N","018000,1,N,1","+0218,1","+0153,1","10121,1",,,,"03,1,+00600,1,06,1",,,"03,99,1,03,1,05,1,00800,1,00,1,00,1","999,N,+0215,1","9,9,999,9,-003,1",,"SYN076AAXX  12064 08583 32568 30707 10218 20153 40121 83500 333 20215 59003 83620;",
"08583099999","2010-04-12T12:00:00","4","16.8333333","-25.05","20.0","MINDELO, CV","FM-12","99999","V020","050,1,N,0072,1","22000,1,9,N","025000,1,N,1","+0260,1","+0157,1","10139,1",,,,"03,1,+00600,1,08,1",,,"03,99,1,03,1,02,1,00800,1,00,1,00,1",,"9,9,999,9,-002,1",,"SYN070AAXX  12124 08583 32575 30514 10260 20157 40139 83200 333 59002 83820;",
"08583099999","2010-04-12T18:00:00","4","16.8333333","-25.05","20.0","MINDELO, CV","FM-12","99999","V020","060,1,N,0051,1","22000,1,9,N","025000,1,N,1","+0250,1","+0152,1","10112,1",,,,"01,1,+00660,1,06,1",,,"01,99,1,01,1,05,1,00800,1,00,1,00,1","120,M,+0277,1","9,9,999,9,+000,1",,"SYN076AAXX  12184 08583 32575 10610 10250 20152 40112 81500 333 10277 58000 81622;",
"08583099999","2010-04-13T00:00:00","4","16.8333333","-25.05","20.0","MINDELO, CV","FM-12","99999","V020","070,1,N,0036,1","22000,1,9,N","020000,1,N,1","+0225,1","+0158,1","10141,1",,,,"01,1,+00600,1,06,1",,,"01,99,1,01,1,05,1,00800,1,00,1,00,1",,"9,9,999,9,+001,1",,"SYN070AAXX  13004 08583 32570 10707 10225 20158 40141 81500 333 58001 81620;",
"08583099999","2010-04-13T06:00:00","4","16.8333333","-25.05","20.0","MINDELO, CV","FM-12","99999","V020","030,1,N,0015,1","22000,1,C,N","020000,1,N,1","+0208,1","+0158,1","10153,1",,,,"03,1,+00750,1,06,1",,,"06,99,1,03,1,05,1,00800,1,00,1,01,1","999,N,+0206,1","9,9,999,9,+004,1",,"SYN082AAXX  13064 08583 32570 60303 10208 20158 40153 83501 333 20206 58004 83625 84070;",
"08583099999","2010-04-13T12:00:00","4","16.8333333","-25.05","20.0","MINDELO, CV","FM-12","99999","V020","999,9,V,0010,1","04500,1,C,N","025000,1,N,1","+0250,1","+0162,1","10144,1",,,,"02,1,+00690,1,06,1",,,"06,99,1,02,1,05,1,00800,1,08,1,01,1",,"9,9,999,9,+005,1",,"SYN076AAXX  13124 08583 32575 69902 10250 20162 40144 82581 333 58005 82623 86360;",
"08583099999","2010-04-13T18:00:00","4","16.8333333","-25.05","20.0","MINDELO, CV","FM-12","99999","V020","220,1,N,0031,1","22000,1,9,N","025000,1,N,1","+0256,1","+0161,1","10125,1",,,,"02,1,+00690,1,08,1",,,"03,99,1,02,1,01,1,00800,1,08,1,01,1","120,M,+0267,1","9,9,999,9,+013,1",,"SYN076AAXX  13184 08583 32575 32206 10256 20161 40125 82181 333 10267 58013 82823;",
"08583099999","2010-04-14T00:00:00","4","16.8333333","-25.05","20.0","MINDELO, CV","FM-12","99999","V020","130,1,N,0015,1","22000,1,9,N","020000,1,N,1","+0231,1","+0167,1","10153,1",,,,"01,1,+00690,1,08,1",,,"01,99,1,01,1,01,1,00800,1,08,1,00,1",,"9,9,999,9,+012,1",,"SYN070AAXX  14004 08583 32570 11303 10231 20167 40153 81180 333 58012 81823;",
"08583099999","2010-04-14T06:00:00","4","16.8333333","-25.05","20.0","MINDELO, CV","FM-12","99999","V020","999,9,V,0010,1","22000,1,9,N","020000,1,N,1","+0207,1","+0150,1","10131,1",,,,"01,1,+00690,1,06,1",,,"02,99,1,01,1,05,1,00800,1,00,1,00,1","999,N,+0205,1","9,9,999,9,+006,1",,"SYN076AAXX  14064 08583 32570 29902 10207 20150 40131 81500 333 20205 58006 81623;",
"08583099999","2010-04-14T12:00:00","4","16.8333333","-25.05","20.0","MINDELO, CV","FM-12","99999","V020","220,1,N,0046,1","22000,1,9,N","025000,1,N,1","+0255,1","+0172,1","10147,1",,,,"01,1,+00600,1,08,1",,,"01,99,1,01,1,01,1,00800,1,00,1,00,1",,"9,9,999,9,+003,1",,"SYN070AAXX  14124 08583 32575 12209 10255 20172 40147 81100 333 58003 81820;",
"08583099999","2010-04-14T18:00:00","4","16.8333333","-25.05","20.0","MINDELO, CV","FM-12","99999","V020","050,1,N,0072,1","22000,1,9,N","030000,1,N,1","+0270,1","+0170,1","10128,1",,,,"03,1,+00660,1,08,1",,,"03,99,1,03,1,02,1,00800,1,00,1,01,1","120,M,+0281,1","9,9,999,9,+003,1",,"SYN076AAXX  14184 08583 32580 30514 10270 20170 40128 83201 333 10281 58003 83822;",
"08583099999","2010-04-15T00:00:00","4","16.8333333","-25.05","20.0","MINDELO, CV","FM-12","99999","V020","070,1,N,0036,1","22000,1,9,N","025000,1,N,1","+0233,1","+0177,1","10155,1",,,,"02,1,+00600,1,06,1",,,"04,99,1,02,1,05,1,00800,1,00,1,01,1",,"9,9,999,9,+002,1",,"SYN076AAXX  15004 08583 32575 40707 10233 20177 40155 82501 333 58002 82620 83070;",
"08583099999","2010-04-15T06:00:00","4","16.8333333","-25.05","20.0","MINDELO, CV","FM-12","99999","V020","050,1,N,0026,1","22000,1,9,N","020000,1,N,1","+0212,1","+0162,1","10139,1",,,,"01,1,+00600,1,06,1",,,"01,99,1,01,1,05,1,00800,1,00,1,00,1","999,N,+0200,1","9,9,999,9,+008,1",,"SYN076AAXX  15064 08583 32570 10505 10212 20162 40139 81500 333 20200 58008 81620;",
"08583099999","2010-04-15T12:00:00","4","16.8333333","-25.05","20.0","MINDELO, CV","FM-12","99999","V020","210,1,N,0031,1","22000,1,9,N","030000,1,N,1","+0250,1","+0170,1","10155,1",,,,"03,1,+00660,1,08,1",,,"04,99,1,03,1,02,1,00800,1,00,1,01,1",,"9,9,999,9,+008,1",,"SYN070AAXX  15124 08583 32580 42106 10250 20170 40155 83201 333 58008 83822;",
"08583099999","2010-04-15T18:00:00","4","16.8333333","-25.05","20.0","MINDELO, CV","FM-12","99999","V020","220,1,N,0031,1","22000,1,9,N","025000,1,N,1","+0257,1","+0158,1","10125,1",,,,"03,1,+00660,1,06,1",,,"03,99,1,03,1,05,1,00800,1,00,1,01,1","120,M,+0272,1","9,9,999,9,-003,1",,"SYN076AAXX  15184 08583 32575 32206 10257 20158 40125 83501 333 10272 59003 83622;",
"08583099999","2010-04-16T00:00:00","4","16.8333333","-25.05","20.0","MINDELO, CV","FM-12","99999","V020","080,1,N,0036,1","22000,1,9,N","020000,1,N,1","+0235,1","+0165,1","10152,1",,,,"01,1,+00660,1,06,1",,,"02,99,1,01,1,02,1,00800,1,00,1,01,1",,"9,9,999,9,-003,1",,"SYN070AAXX  16004 08583 32570 20807 10235 20165 40152 81201 333 59003 81622;",
"08583099999","2010-04-16T06:00:00","4","16.8333333","-25.05","20.0","MINDELO, CV","FM-12","99999","V020","060,1,N,0031,1","22000,1,9,N","025000,1,N,1","+0210,1","+0155,1","10135,1",,,,"01,1,+00660,1,06,1",,,"02,99,1,01,1,05,1,00800,1,00,1,01,1","999,N,+0210,1","9,9,999,9,-004,1",,"SYN076AAXX  16064 08583 32575 20606 10210 20155 40135 81501 333 20210 59004 81622;",
"08583099999","2010-04-16T12:00:00","4","16.8333333","-25.05","20.0","MINDELO, CV","FM-12","99999","V020","050,1,N,0046,1","22000,1,9,N","025000,1,N,1","+0270,1","+0156,1","10154,1",,,,"03,1,+00660,1,06,1",,,"03,99,1,03,1,05,1,00800,1,00,1,00,1",,"9,9,999,9,-001,1",,"SYN070AAXX  16124 08583 32575 30509 10270 20156 40154 83500 333 59001 83622;",
"08583099999","2010-04-16T18:00:00","4","16.8333333","-25.05","20.0","MINDELO, CV","FM-12","99999","V020","999,9,V,0015,1","00690,1,9,N","025000,1,N,1","+0257,1","+0166,1","10138,1",,,,"06,1,+00690,1,08,1",,,"06,99,1,06,1,08,1,00800,1,00,1,00,1","120,M,+0288,1","9,9,999,9,+001,1",,"SYN076AAXX  16184 08583 32575 69903 10257 20166 40138 86800 333 10288 58001 86823;",
"08583099999","2010-04-17T00:00:00","4","16.8333333","-25.05","20.0","MINDELO, CV","FM-12","99999","V020","070,1,N,0046,1","22000,1,9,N","020000,1,N,1","+0230,1","+0165,1","10164,1",,,,"03,1,+00660,1,06,1",,,"03,99,1,03,1,05,1,00800,1,00,1,00,1",,"9,9,999,9,+012,1",,"SYN070AAXX  17004 08583 32570 30709 10230 20165 40164 83500 333 58012 83622;",
"08583099999","2010-04-17T06:00:00","4","16.8333333","-25.05","20.0","MINDELO, CV","FM-12","99999","V020","070,1,N,0031,1","22000,1,9,N","020000,1,N,1","+0210,1","+0165,1","10147,1",,,,"02,1,+00660,1,06,1",,,"03,99,1,02,1,05,1,00800,1,00,1,01,1","999,N,+0210,1","9,9,999,9,+012,1",,"SYN076AAXX  17064 08583 32570 30706 10210 20165 40147 82501 333 20210 58012 82622;",
"08583099999","2010-04-17T12:00:00","4","16.8333333","-25.05","20.0","MINDELO, CV","FM-12","99999","V020","030,1,N,0072,1","22000,1,9,N","030000,1,N,1","+0265,1","+0161,1","10162,1",,,,"02,1,+00660,1,08,1",,,"03,99,1,02,1,02,1,00800,1,00,1,01,1",,"9,9,999,9,+008,1",,"SYN070AAXX  17124 08583 32580 30314 10265 20161 40162 82201 333 58008 82822;",
"08583099999","2010-04-17T18:00:00","4","16.8333333","-25.05","20.0","MINDELO, CV","FM-12","99999","V020","060,1,N,0072,1","01200,1,C,N","025000,1,N,1","+0256,1","+0160,1","10138,1",,,,"02,1,+00600,1,08,1",,,"06,99,1,06,1,08,1,00800,1,00,1,00,1","120,M,+0281,1","9,9,999,9,+000,1",,"SYN082AAXX  17184 08583 32575 60614 10256 20160 40138 86800 333 10281 58000 82820 85624;",
"08583099999","2010-04-18T00:00:00","4","16.8333333","-25.05","20.0","MINDELO, CV","FM-12","99999","V020","060,1,N,0051,1","22000,1,9,N","020000,1,N,1","+0228,1","+0171,1","10165,1",,,,"02,1,+00600,1,06,1",,,"02,99,1,02,1,05,1,00800,1,00,1,00,1",,"9,9,999,9,+001,1",,"SYN070AAXX  18004 08583 32570 20610 10228 20171 40165 82500 333 58001 82620;",
"08583099999","2010-04-18T06:00:00","4","16.8333333","-25.05","20.0","MINDELO, CV","FM-12","99999","V020","060,1,N,0051,1","22000,1,9,N","020000,1,N,1","+0210,1","+0162,1","10145,1",,,,"01,1,+00660,1,06,1",,,"04,99,1,01,1,05,1,00800,1,03,1,01,1","999,N,+0203,1","9,9,999,9,+002,1",,"SYN082AAXX  18064 08583 32570 40610 10210 20162 40145 81531 333 20203 58002 81622 84070;",
"08583099999","2010-04-18T12:00:00","4","16.8333333","-25.05","20.0","MINDELO, CV","FM-12","99999","V020","040,1,N,0051,1","22000,1,9,N","025000,1,N,1","+0263,1","+0162,1","10159,1",,,,"01,1,+00600,1,06,1",,,"01,99,1,01,1,05,1,00800,1,00,1,00,1",,"9,9,999,9,-003,1",,"SYN070AAXX  18124 08583 32575 10410 10263 20162 40159 81500 333 59003 81620;",
"08583099999","2010-04-18T18:00:00","4","16.8333333","-25.05","20.0","MINDELO, CV","FM-12","99999","V020","220,1,N,0031,1","22000,1,9,N","025000,1,N,1","+0252,1","+0175,1","10138,1",,,,"02,1,+00660,1,08,1",,,"02,99,1,02,1,01,1,00800,1,00,1,00,1","120,M,+0277,1","9,9,999,9,+000,1",,"SYN076AAXX  18184 08583 32575 22206 10252 20175 40138 82100 333 10277 58000 82822;",
"08583099999","2010-04-19T00:00:00","4","16.8333333","-25.05","20.0","MINDELO, CV","FM-12","99999","V020","060,1,N,0036,1","01200,1,C,N","025000,1,N,1","+0238,1","+0182,1","10169,1",,,,"02,1,+00660,1,06,1",,,"07,99,1,06,1,08,1,00800,1,99,9,99,9",,"9,9,999,9,+004,1",,"SYN076AAXX  19004 08583 32575 70607 10238 20182 40169 868// 333 58004 82622 86628;",
"08583099999","2010-04-19T06:00:00","4","16.8333333","-25.05","20.0","MINDELO, CV","FM-12","99999","V020","080,1,N,0041,1","22000,1,9,N","020000,1,N,1","+0227,1","+0178,1","10152,1",,,,"03,1,+00600,1,06,1",,,"03,99,1,03,1,05,1,00800,1,00,1,00,1","999,N,+0206,1","9,9,999,9,+005,1",,"SYN076AAXX  19064 08583 32570 30808 10227 20178 40152 83500 333 20206 58005 83620;",
"08583099999","2010-04-19T12:00:00","4","16.8333333","-25.05","20.0","MINDELO, CV","FM-12","99999","V020","220,1,N,0041,1","04500,1,C,N","025000,1,N,1","+0262,1","+0180,1","10163,1",,,,"02,1,+00660,1,08,1",,,"06,99,1,02,1,01,1,00800,1,03,1,09,1",,"9,9,999,9,+004,1",,"SYN076AAXX  19124 08583 32575 62208 10262 20180 40163 82139 333 58004 82822 85360;",
"08583099999","2010-04-19T18:00:00","4","16.8333333","-25.05","20.0","MINDELO, CV","FM-12","99999","V020","260,1,N,0036,1","22000,1,9,N","025000,1,N,1","+0263,1","+0188,1","10135,1",,,,"01,1,+00660,1,06,1",,,"01,99,1,01,1,05,1,00800,1,00,1,00,1","120,M,+0272,1","9,9,999,9,-003,1",,"SYN076AAXX  19184 08583 32575 12607 10263 20188 40135 81500 333 10272 59003 81622;",
"08583099999","2010-04-20T00:00:00","4","16.8333333","-25.05","20.0","MINDELO, CV","FM-12","99999","V020","080,1,N,0041,1","22000,1,9,N","025000,1,N,1","+0241,1","+0195,1","10161,1",,,,"03,1,+00660,1,06,1",,,"03,99,1,03,1,05,1,00800,1,00,1,01,1",,"9,9,999,9,-006,1",,"SYN070AAXX  20004 08583 32575 30808 10241 20195 40161 83501 333 59006 83622;",
"08583099999","2010-04-20T06:00:00","4","16.8333333","-25.05","20.0","MINDELO, CV","FM-12","99999","V020","060,1,N,0036,1","22000,1,9,N","020000,1,N,1","+0235,1","+0191,1","10138,1",,,,"01,1,+00510,1,06,1",,,"02,99,1,01,1,05,1,00450,1,00,1,01,1","999,N,+0223,1","9,9,999,9,-014,1",,"SYN076AAXX  20064 08583 32470 20607 10235 20191 40138 81501 333 20223 59014 81617;",
"08583099999","2010-04-20T12:00:00","4","16.8333333","-25.05","20.0","MINDELO, CV","FM-12","99999","V020","060,1,N,0046,1","22000,1,9,N","025000,1,N,1","+0273,1","+0192,1","10155,1",,,,"01,1,+00600,1,08,1",,,"01,99,1,01,1,01,1,00800,1,03,1,00,1",,"9,9,999,9,-008,1",,"SYN070AAXX  20124 08583 32575 10609 10273 20192 40155 81130 333 59008 81820;",
"08583099999","2010-04-20T18:00:00","4","16.8333333","-25.05","20.0","MINDELO, CV","FM-12","99999","V020","060,1,N,0067,1","22000,1,9,N","025000,1,N,1","+0271,1","+0185,1","10131,1",,,,"02,1,+00600,1,06,1",,,"04,99,1,02,1,05,1,00800,1,00,1,01,1","120,M,+0290,1","9,9,999,9,-004,1",,"SYN082AAXX  20184 08583 32575 40613 10271 20185 40131 82501 333 10290 59004 82620 83070;",
"08583099999","2010-04-21T00:00:00","4","16.8333333","-25.05","20.0","MINDELO, CV","FM-12","99999","V020","070,1,N,0082,1","22000,1,9,N","020000,1,N,1","+0240,1","+0193,1","10163,1",,,,"04,1,+00660,1,08,1",,,"04,99,1,04,1,02,1,00800,1,00,1,01,1",,"9,9,999,9,+002,1",,"SYN070AAXX  21004 08583 32570 40716 10240 20193 40163 84201 333 58002 84822;",
"08583099999","2010-04-21T06:00:00","4","16.8333333","-25.05","20.0","MINDELO, CV","FM-12","99999","V020","070,1,N,0046,1","22000,1,9,N","020000,1,N,1","+0231,1","+0191,1","10141,1",,,,"01,1,+00600,1,08,1",,,"02,99,1,01,1,01,1,00800,1,00,1,01,1","999,N,+0230,1","9,9,999,9,+002,1",,"SYN076AAXX  21064 08583 32570 20709 10231 20191 40141 81101 333 20230 58002 81820;",
"08583099999","2010-04-21T12:00:00","4","16.8333333","-25.05","20.0","MINDELO, CV","FM-12","99999","V020","060,1,N,0062,1","22000,1,9,N","020000,1,N,1","+0278,1","+0190,1","10165,1",,,,"01,1,+00600,1,06,1",,,"01,99,1,01,1,05,1,00800,1,00,1,01,1",,"9,9,999,9,+010,1",,"SYN070AAXX  21124 08583 32570 10612 10278 20190 40165 81501 333 58010 81620;",
"08583099999","2010-04-22T00:00:00","4","16.8333333","-25.05","20.0","MINDELO, CV","FM-12","99999","V020","060,1,N,0093,1","22000,1,9,N","020000,1,N,1","+0240,1","+0200,1","10165,1",,,,"01,1,+00540,1,06,1",,,"01,99,1,01,1,05,1,00450,1,00,1,00,1",,"9,9,999,9,+002,1",,"SYN070AAXX  22004 08583 32470 10618 10240 20200 40165 81500 333 58002 81618;",
"08583099999","2010-04-22T06:00:00","4","16.8333333","-25.05","20.0","MINDELO, CV","FM-12","99999","V020","060,1,N,0093,1","22000,1,9,N","020000,1,N,1","+0235,1","+0200,1","10148,1",,,,"01,1,+00600,1,06,1",,,"03,99,1,01,1,02,1,00800,1,00,1,01,1","999,N,+0230,1","9,9,999,9,+007,1",,"SYN082AAXX  22064 08583 32570 30618 10235 20200 40148 81201 333 20230 58007 81620 83070;",
"08583099999","2010-04-22T12:00:00","4","16.8333333","-25.05","20.0","MINDELO, CV","FM-12","99999","V020","060,1,N,0118,1","22000,1,9,N","020000,1,N,1","+0277,1","+0198,1","10165,1",,,,"01,1,+00600,1,06,1",,,"02,99,1,01,1,05,1,00800,1,00,1,01,1",,"9,9,999,9,+000,1",,"SYN070AAXX  22124 08583 32570 20623 10277 20198 40165 81501 333 58000 81620;",
"08583099999","2010-04-22T18:00:00","4","16.8333333","-25.05","20.0","MINDELO, CV","FM-12","99999","V020","060,1,N,0113,1","22000,1,9,N","020000,1,N,1","+0270,1","+0190,1","10141,1",,,,"01,1,+00600,1,06,1",,,"01,99,1,01,1,05,1,00800,1,00,1,00,1","120,M,+0293,1","9,9,999,9,-004,1",,"SYN076AAXX  22184 08583 32570 10622 10270 20190 40141 81500 333 10293 59004 81620;",
"08583099999","2010-04-23T00:00:00","4","16.8333333","-25.05","20.0","MINDELO, CV","FM-12","99999","V020","060,1,N,0098,1","22000,1,9,N","020000,1,N,1","+0238,1","+0197,1","10159,1",,,,"01,1,+00510,1,06,1",,,"01,99,1,01,1,05,1,00450,1,00,1,00,1",,"9,9,999,9,-006,1",,"SYN070AAXX  23004 08583 32470 10619 10238 20197 40159 81500 333 59006 81617;",
"08583099999","2010-04-23T06:00:00","4","16.8333333","-25.05","20.0","MINDELO, CV","FM-12","99999","V020","060,1,N,0093,1","22000,1,9,N","020000,1,N,1","+0230,1","+0187,1","10138,1",,,,"02,1,+00540,1,06,1",,,"03,99,1,02,1,02,1,00450,1,03,1,01,1","999,N,+0228,1","9,9,999,9,-010,1",,"SYN076AAXX  23064 08583 32470 30618 10230 20187 40138 82231 333 20228 59010 82618;",
"08583099999","2010-04-23T12:00:00","4","16.8333333","-25.05","20.0","MINDELO, CV","FM-12","99999","V020","060,1,N,0113,1","22000,1,9,N","020000,1,N,1","+0272,1","+0180,1","10157,1",,,,"01,1,+00600,1,06,1",,,"01,99,1,01,1,02,1,00800,1,00,1,00,1",,"9,9,999,9,-002,1",,"SYN070AAXX  23124 08583 32570 10622 10272 20180 40157 81200 333 59002 81620;",
"08583099999","2010-04-23T18:00:00","4","16.8333333","-25.05","20.0","MINDELO, CV","FM-12","99999","V020","060,1,N,0103,1","22000,1,9,N","020000,1,N,1","+0267,1","+0185,1","10139,1",,,,"01,1,+00660,1,06,1",,,"01,99,1,01,1,05,1,00800,1,00,1,00,1","120,M,+0285,1","9,9,999,9,-002,1",,"SYN076AAXX  23184 08583 32570 10620 10267 20185 40139 81500 333 10285 59002 81622;",
"08583099999","2010-04-24T00:00:00","4","16.8333333","-25.05","20.0","MINDELO, CV","FM-12","99999","V020","070,1,N,0077,1","22000,1,9,N","020000,1,N,1","+0233,1","+0182,1","10168,1",,,,"01,1,+00660,1,06,1",,,"01,99,1,01,1,05,1,00800,1,00,1,00,1",,"9,9,999,9,+009,1",,"SYN070AAXX  24004 08583 32570 10715 10233 20182 40168 81500 333 58009 81622;",
"08583099999","2010-04-24T12:00:00","4","16.8333333","-25.05","20.0","MINDELO, CV","FM-12","99999","V020","060,1,N,0098,1","22000,1,9,N","020000,1,N,1","+0272,1","+0175,1","10163,1",,,,"01,1,+00600,1,06,1",,,"01,99,1,01,1,05,1,00800,1,00,1,00,1",,"9,9,999,9,+006,1",,"SYN070AAXX  24124 08583 32570 10619 10272 20175 40163 81500 333 58006 81620;",
"08583099999","2010-04-24T18:00:00","4","16.8333333","-25.05","20.0","MINDELO, CV","FM-12","99999","V020","060,1,N,0098,1","22000,1,9,N","020000,1,N,1","+0267,1","+0183,1","10140,1",,,,"01,1,+00600,1,06,1",,,"01,99,1,01,1,05,1,00800,1,00,1,00,1","120,M,+0281,1","9,9,999,9,+001,1",,"SYN076AAXX  24184 08583 32570 10619 10267 20183 40140 81500 333 10281 58001 81620;",
"08583099999","2010-04-25T00:00:00","4","16.8333333","-25.05","20.0","MINDELO, CV","FM-12","99999","V020","070,1,N,0077,1","22000,1,9,N","020000,1,N,1","+0232,1","+0180,1","10163,1",,,,"02,1,+00600,1,06,1",,,"02,99,1,02,1,05,1,00800,1,00,1,00,1",,"9,9,999,9,-005,1",,"SYN070AAXX  25004 08583 32570 20715 10232 20180 40163 82500 333 59005 82620;",
"08583099999","2010-04-25T06:00:00","4","16.8333333","-25.05","20.0","MINDELO, CV","FM-12","99999","V020","060,1,N,0108,1","22000,1,9,N","020000,1,N,1","+0225,1","+0165,1","10145,1",,,,"03,1,+00690,1,06,1",,,"03,99,1,03,1,05,1,00800,1,00,1,00,1","999,N,+0222,1","9,9,999,9,-004,1",,"SYN076AAXX  25064 08583 32570 30621 10225 20165 40145 83500 333 20222 59004 83623;",
"08583099999","2010-04-25T12:00:00","4","16.8333333","-25.05","20.0","MINDELO, CV","FM-12","99999","V020","050,1,N,0103,1","22000,1,9,N","020000,1,N,1","+0268,1","+0162,1","10159,1",,,,"02,1,+00750,1,06,1",,,"02,99,1,02,1,04,1,00800,1,00,1,00,1",,"9,9,999,9,-004,1",,"SYN070AAXX  25124 08583 32570 20520 10268 20162 40159 82400 333 59004 82625;",
"08583099999","2010-04-25T18:00:00","4","16.8333333","-25.05","20.0","MINDELO, CV","FM-12","99999","V020","070,1,N,0118,1","22000,1,9,N","020000,1,N,1","+0261,1","+0172,1","10119,1",,,,"01,1,+00690,1,06,1",,,"01,99,1,01,1,05,1,00800,1,00,1,00,1",,"9,9,999,9,-021,1",,"SYN070AAXX  25184 08583 32570 10723 10261 20172 40119 81500 333 59021 81623;",
"08583099999","2010-04-26T00:00:00","4","16.8333333","-25.05","20.0","MINDELO, CV","FM-12","99999","V020","060,1,N,0108,1","10500,1,C,N","020000,1,N,1","+0231,1","+0176,1","10149,1",,,,"02,1,+00750,1,06,1",,,"06,99,1,02,1,02,1,00800,1,00,1,02,1",,"9,9,999,9,-014,1",,"SYN076AAXX  26004 08583 32570 60621 10231 20176 40149 82202 333 59014 82625 85070;",
"08583099999","2010-04-26T06:00:00","4","16.8333333","-25.05","20.0","MINDELO, CV","FM-12","99999","V020","060,1,N,0108,1","22000,1,9,N","020000,1,N,1","+0230,1","+0172,1","10139,1",,,,"02,1,+00660,1,06,1",,,"03,99,1,02,1,05,1,00800,1,00,1,01,1","999,N,+0228,1","9,9,999,9,-006,1",,"SYN076AAXX  26064 08583 32570 30621 10230 20172 40139 82501 333 20228 59006 82622;",
"08583099999","2010-04-26T12:00:00","4","16.8333333","-25.05","20.0","MINDELO, CV","FM-12","99999","V020","070,1,N,0108,1","22000,1,9,N","020000,1,N,1","+0271,1","+0181,1","10157,1",,,,"02,1,+00660,1,06,1",,,"03,99,1,02,1,05,1,00800,1,00,1,01,1",,"9,9,999,9,-002,1",,"SYN070AAXX  26124 08583 32570 30721 10271 20181 40157 82501 333 59002 82622;",
"08583099999","2010-04-26T18:00:00","4","16.8333333","-25.05","20.0","MINDELO, CV","FM-12","99999","V020","060,1,N,0154,1","10500,1,C,N","020000,1,N,1","+0265,1","+0183,1","10123,1",,,,"01,1,+00660,1,06,1",,,"07,99,1,01,1,05,1,00800,1,00,1,02,1","120,M,+0285,1","9,9,999,9,+004,1",,"SYN082AAXX  26184 08583 32570 70630 10265 20183 40123 81502 333 10285 58004 81622 87070;",
"08583099999","2010-04-27T00:00:00","4","16.8333333","-25.05","20.0","MINDELO, CV","FM-12","99999","V020","060,1,N,0113,1","10500,1,C,N","020000,1,N,1","+0230,1","+0186,1","10147,1",,,,"01,1,+00600,1,06,1",,,"06,99,1,01,1,05,1,00800,1,00,1,02,1",,"9,9,999,9,-002,1",,"SYN076AAXX  27004 08583 32570 60622 10230 20186 40147 81502 333 59002 81620 86070;",
"08583099999","2010-04-27T06:00:00","4","16.8333333","-25.05","20.0","MINDELO, CV","FM-12","99999","V020","060,1,N,0118,1","22000,1,C,N","020000,1,N,1","+0225,1","+0178,1","10126,1",,,,"02,1,+00540,1,06,1",,,"05,99,1,02,1,05,1,00800,1,00,1,01,1","999,N,+0222,1","9,9,999,9,-013,1",,"SYN082AAXX  27064 08583 32570 50623 10225 20178 40126 82501 333 20222 59013 82618 84070;",
"08583099999","2010-04-27T12:00:00","4","16.8333333","-25.05","20.0","MINDELO, CV","FM-12","99999","V020","060,1,N,0098,1","22000,1,C,N","025000,1,N,1","+0272,1","+0178,1","10161,1",,,,"03,1,+00660,1,06,1",,,"06,99,1,03,1,02,1,00800,1,00,1,01,1",,"9,9,999,9,+004,1",,"SYN076AAXX  27124 08583 32575 60619 10272 20178 40161 83201 333 58004 83622 85070;",
"08583099999","2010-04-27T18:00:00","4","16.8333333","-25.05","20.0","MINDELO, CV","FM-12","99999","V020","070,1,N,0118,1","10500,1,C,N","025000,1,N,1","+0266,1","+0175,1","10136,1",,,,"02,1,+00600,1,06,1",,,"07,99,1,02,1,02,1,00800,1,00,1,02,1","120,M,+0286,1","9,9,999,9,+013,1",,"SYN082AAXX  27184 08583 32575 70723 10266 20175 40136 82202 333 10286 58013 82620 87070;",
"08583099999","2010-04-28T00:00:00","4","16.8333333","-25.05","20.0","MINDELO, CV","FM-12","99999","V020","070,1,N,0103,1","10500,1,C,N","020000,1,N,1","+0235,1","+0180,1","10157,1",,,,"01,1,+00600,1,06,1",,,"07,99,1,01,1,05,1,00800,1,00,1,07,1",,"9,9,999,9,+010,1",,"SYN076AAXX  28004 08583 32570 70720 10235 20180 40157 81507 333 58010 81620 87270;",
"08583099999","2010-04-28T06:00:00","4","16.8333333","-25.05","20.0","MINDELO, CV","FM-12","99999","V020","060,1,N,0123,1","10500,1,C,N","020000,1,N,1","+0225,1","+0170,1","10125,1",,,,"01,1,+00600,1,06,1",,,"07,99,1,01,1,05,1,00800,1,00,1,07,1","999,N,+0222,1","9,9,999,9,-001,1",,"SYN082AAXX  28064 08583 32570 70624 10225 20170 40125 81507 333 20222 59001 81620 87270;",
"08583099999","2010-04-28T12:00:00","4","16.8333333","-25.05","20.0","MINDELO, CV","FM-12","99999","V020","070,1,N,0108,1","22000,1,9,N","025000,1,N,1","+0270,1","+0170,1","10163,1",,,,"03,1,+00600,1,06,1",,,"04,99,1,03,1,05,1,00800,1,03,1,01,1",,"9,9,999,9,+002,1",,"SYN070AAXX  28124 08583 32575 40721 10270 20170 40163 83531 333 58002 83620;",
"08583099999","2010-04-28T18:00:00","4","16.8333333","-25.05","20.0","MINDELO, CV","FM-12","99999","V020","060,1,N,0103,1","22000,1,9,N","025000,1,N,1","+0270,1","+0175,1","10130,1",,,,"01,1,+00600,1,06,1",,,"03,99,1,01,1,05,1,00800,1,03,1,01,1","120,M,+0283,1","9,9,999,9,-006,1",,"SYN082AAXX  28184 08583 32575 30620 10270 20175 40130 81531 333 10283 59006 81620 83070;",
"08583099999","2010-04-29T00:00:00","4","16.8333333","-25.05","20.0","MINDELO, CV","FM-12","99999","V020","060,1,N,0123,1","22000,1,9,N","020000,1,N,1","+0232,1","+0180,1","10180,1",,,,"02,1,+00600,1,06,1",,,"02,99,1,02,1,05,1,00800,1,03,1,00,1",,"9,9,999,9,-009,1",,"SYN076AAXX  29004 08583 32570 20624 10232 20180 40180 82530 333 59009 82620 83070;",
"08583099999","2010-04-29T06:00:00","4","16.8333333","-25.05","20.0","MINDELO, CV","FM-12","99999","V020","070,1,N,0072,1","22000,1,9,N","020000,1,N,1","+0227,1","+0183,1","10142,1",,,,"02,1,+00600,1,06,1",,,"04,99,1,02,1,05,1,00800,1,00,1,01,1","999,N,+0225,1","9,9,999,9,+017,1",,"SYN082AAXX  29064 08583 32570 40714 10227 20183 40142 82501 333 20225 58017 82620 84070;",
"08583099999","2010-04-29T12:00:00","4","16.8333333","-25.05","20.0","MINDELO, CV","FM-12","99999","V020","060,1,N,0082,1","22000,1,9,N","009000,1,N,1","+0273,1","+0188,1","10159,1",,"0,1,06,1","0,1,06,1","01,1,+00600,1,08,1",,,"01,99,1,01,1,01,1,00800,1,00,1,00,1",,"9,9,999,9,-004,1","06,1","SYN076AAXX  29124 08583 31559 10616 10273 20188 40159 70600 81100 333 59004 81820;",
"08583099999","2010-04-30T00:00:00","4","16.8333333","-25.05","20.0","MINDELO, CV","FM-12","99999","V020","060,1,N,0072,1","22000,1,9,N","008000,1,N,1","+0233,1","+0190,1","10150,1",,"0,1,06,1","0,1,06,1","02,1,+00600,1,06,1",,,"04,99,1,02,1,05,1,00800,1,00,1,01,1",,"9,9,999,9,+002,1","06,1","SYN082AAXX  30004 08583 31558 40614 10233 20190 40150 70600 82501 333 58002 82620 84070;",
"08583099999","2010-04-30T06:00:00","4","16.8333333","-25.05","20.0","MINDELO, CV","FM-12","99999","V020","060,1,N,0087,1","22000,1,9,N","007000,1,N,1","+0230,1","+0190,1","10130,1",,"0,1,06,1","0,1,06,1","01,1,+00600,1,06,1",,,"04,99,1,01,1,05,1,00800,1,00,1,01,1","999,N,+0227,1","9,9,999,9,-012,1","06,1","SYN088AAXX  30064 08583 31557 40617 10230 20190 40130 70600 81501 333 20227 59012 81620 84070;",
"08583099999","2010-04-30T18:00:00","4","16.8333333","-25.05","20.0","MINDELO, CV","FM-12","99999","V020","050,1,N,0087,1","10500,1,C,N","006000,1,N,1","+0256,1","+0183,1","10124,1",,"2,1,06,1","2,1,06,1","01,1,+00600,1,06,1",,,"07,99,1,01,1,05,1,00800,1,00,1,07,1","120,M,+0283,1","9,9,999,9,-004,1","06,1","SYN088AAXX  30184 08583 31556 70517 10256 20183 40124 70622 81507 333 10283 59004 81620 87270;",
"08583099999","2010-05-01T00:00:00","4","16.8333333","-25.05","20.0","MINDELO, CV","FM-12","99999","V020","060,1,N,0057,1","22000,1,C,N","010000,1,N,1","+0231,1","+0188,1","10154,1",,,,"01,1,+00600,1,06,1",,,"06,99,1,01,1,05,1,00800,1,00,1,06,1",,"9,9,999,9,+004,1",,"SYN076AAXX  01004 08583 32560 60611 10231 20188 40154 81506 333 58004 81620 86270;",
"08583099999","2010-05-01T12:00:00","4","16.8333333","-25.05","20.0","MINDELO, CV","FM-12","99999","V020","050,1,N,0077,1","22000,1,9,N","010000,1,N,1","+0277,1","+0172,1","10164,1",,,,"01,1,+00600,1,06,1",,,"03,99,1,01,1,05,1,00800,1,00,1,01,1",,"9,9,999,9,+017,1",,"SYN076AAXX  01124 08583 32560 30515 10277 20172 40164 81501 333 58017 81620 83070;",
"08583099999","2010-05-01T18:00:00","4","16.8333333","-25.05","20.0","MINDELO, CV","FM-12","99999","V020","040,1,N,0072,1","22000,1,9,N","012000,1,N,1","+0266,1","+0185,1","10134,1",,,,"01,1,+00660,1,06,1",,,"01,99,1,01,1,05,1,00450,1,00,1,00,1","120,M,+0286,1","9,9,999,9,+010,1",,"SYN076AAXX  01184 08583 32462 10414 10266 20185 40134 81500 333 10286 58010 81622;",
"08583099999","2010-05-02T00:00:00","4","16.8333333","-25.05","20.0","MINDELO, CV","FM-12","99999","V020","060,1,N,0062,1","22000,1,9,N","010000,1,N,1","+0233,1","+0172,1","10168,1",,,,"02,1,+00600,1,06,1",,,"04,99,1,02,1,05,1,00800,1,00,1,01,1",,"9,9,999,9,+014,1",,"SYN076AAXX  02004 08583 32560 40612 10233 20172 40168 82501 333 58014 82620 83070;",
"08583099999","2010-05-02T06:00:00","4","16.8333333","-25.05","20.0","MINDELO, CV","FM-12","99999","V020","080,1,N,0051,1","22000,1,9,N","010000,1,N,1","+0227,1","+0176,1","10156,1",,,,"02,1,+00600,1,06,1",,,"04,99,1,02,1,05,1,00800,1,00,1,01,1","999,N,+0221,1","9,9,999,9,+017,1",,"SYN082AAXX  02064 08583 32560 40810 10227 20176 40156 82501 333 20221 58017 82620 83070;",
"08583099999","2010-05-02T18:00:00","4","16.8333333","-25.05","20.0","MINDELO, CV","FM-12","99999","V020","070,1,N,0093,1","22000,1,9,N","010000,1,N,1","+0265,1","+0175,1","10144,1",,,,"01,1,+00660,1,06,1",,,"01,99,1,01,1,05,1,00800,1,00,1,00,1","120,M,+0285,1","9,9,999,9,+010,1",,"SYN076AAXX  02184 08583 32560 10718 10265 20175 40144 81500 333 10285 58010 81622;",
"08583099999","2010-05-03T00:00:00","4","16.8333333","-25.05","20.0","MINDELO, CV","FM-12","99999","V020","070,1,N,0051,1","22000,1,9,N","012000,1,N,1","+0231,1","+0173,1","10172,1",,,,"01,1,+00600,1,06,1",,,"01,99,1,01,1,05,1,00800,1,00,1,00,1",,"9,9,999,9,+004,1",,"SYN070AAXX  03004 08583 32562 10710 10231 20173 40172 81500 333 58004 81620;",
"08583099999","2010-05-03T06:00:00","4","16.8333333","-25.05","20.0","MINDELO, CV","FM-12","99999","V020","050,1,N,0062,1","22000,1,9,N","012000,1,N,1","+0226,1","+0175,1","10145,1",,,,"01,1,+00660,1,06,1",,,"01,99,1,99,9,05,1,00800,1,00,1,09,1","999,N,+0220,1","9,9,999,9,-011,1",,"SYN076AAXX  03064 08583 32562 10512 10226 20175 40145 82509 333 20220 59011 81622;","Q01+000022SCOTLC"
"08583099999","2010-05-03T12:00:00","4","16.8333333","-25.05","20.0","MINDELO, CV","FM-12","99999","V020","060,1,N,0072,1","22000,1,9,N","015000,1,N,1","+0267,1","+0170,1","10167,1",,,,"01,1,+00660,1,06,1",,,"01,99,1,01,1,05,1,00800,1,00,1,01,1",,"9,9,999,9,+003,1",,"SYN070AAXX  03124 08583 32565 10614 10267 20170 40167 81501 333 58003 81622;",
"08583099999","2010-05-03T18:00:00","4","16.8333333","-25.05","20.0","MINDELO, CV","FM-12","99999","V020","060,1,N,0067,1","22000,1,9,N","020000,1,N,1","+0266,1","+0177,1","10145,1",,,,"01,1,+00690,1,06,1",,,"01,99,1,01,1,05,1,00800,1,00,1,01,1","120,M,+0285,1","9,9,999,9,+001,1",,"SYN076AAXX  03184 08583 32570 10613 10266 20177 40145 81501 333 10285 58001 81623;",
"08583099999","2010-05-04T00:00:00","4","16.8333333","-25.05","20.0","MINDELO, CV","FM-12","99999","V020","060,1,N,0051,1","22000,1,9,N","018000,1,N,1","+0235,1","+0176,1","10173,1",,,,"02,1,+00690,1,06,1",,,"99,99,9,02,1,05,1,00800,1,00,1,00,1",,"9,9,999,9,+001,1",,"SYN070AAXX  04004 08583 32568 10610 10235 20176 40173 82500 333 58001 82623;","Q01+000012SCOTCV"
"08583099999","2010-05-04T06:00:00","4","16.8333333","-25.05","20.0","MINDELO, CV","FM-12","99999","V020","060,1,N,0046,1","22000,1,9,N","018000,1,N,1","+0230,1","+0176,1","10152,1",,,,"03,1,+00540,1,06,1",,,"04,99,1,03,1,05,1,00450,1,03,1,01,1","999,N,+0225,1","9,9,999,9,+014,1",,"SYN076AAXX  04064 08583 32468 40609 10230 20176 40152 83531 333 20225 58014 83618;",
"08583099999","2010-05-04T12:00:00","4","16.8333333","-25.05","20.0","MINDELO, CV","FM-12","99999","V020","060,1,N,0098,1","10500,1,C,N","018000,1,N,1","+0267,1","+0180,1","10149,1",,,,"01,1,+00540,1,06,1",,,"05,99,1,01,1,05,1,00450,1,03,1,01,1",,"9,9,999,9,+018,1",,"SYN076AAXX  04124 08583 32468 50619 10267 20180 40149 81531 333 58018 81618 85360;",
"08583099999","2010-05-04T18:00:00","4","16.8333333","-25.05","20.0","MINDELO, CV","FM-12","99999","V020","060,1,N,0098,1","22000,1,9,N","020000,1,N,1","+0263,1","+0185,1","10126,1",,,,"01,1,+00600,1,08,1",,,"03,99,1,01,1,01,1,00800,1,03,1,00,1","120,M,+0285,1","9,9,999,9,-019,1",,"SYN082AAXX  04184 08583 32570 30619 10263 20185 40126 81130 333 10285 59019 81820 83360;",
"08583099999","2010-05-05T00:00:00","4","16.8333333","-25.05","20.0","MINDELO, CV","FM-12","99999","V020","070,1,N,0062,1","22000,1,9,N","020000,1,N,1","+0236,1","+0182,1","10155,1",,,,"02,1,+00600,1,06,1",,,"04,99,1,02,1,05,1,00800,1,03,1,01,1",,"9,9,999,9,-018,1",,"SYN076AAXX  05004 08583 32570 40712 10236 20182 40155 82531 333 59018 82620 83360;",
"08583099999","2010-05-05T06:00:00","4","16.8333333","-25.05","20.0","MINDELO, CV","FM-12","99999","V020","060,1,N,0072,1","04500,1,C,N","018000,1,N,1","+0233,1","+0183,1","10137,1",,,,"02,1,+00600,1,06,1",,,"06,99,1,02,1,05,1,00800,1,03,1,01,1","999,N,+0226,1","9,9,999,9,-015,1",,"SYN082AAXX  05064 08583 32568 60614 10233 20183 40137 82531 333 20226 59015 82620 85360;",
"08583099999","2010-05-05T12:00:00","4","16.8333333","-25.05","20.0","MINDELO, CV","FM-12","99999","V020","050,1,N,0098,1","22000,1,9,N","020000,1,N,1","+0270,1","+0172,1","10148,1",,,,"01,1,+00660,1,08,1",,,"01,99,1,01,1,01,1,00800,1,00,1,01,1",,"9,9,999,9,-001,1",,"SYN070AAXX  05124 08583 32570 10519 10270 20172 40148 81101 333 59001 81822;",
"08583099999","2010-05-06T00:00:00","4","16.8333333","-25.05","20.0","MINDELO, CV","FM-12","99999","V020","050,1,N,0072,1","22000,1,9,N","020000,1,N,1","+0233,1","+0182,1","10129,1",,,,"01,1,+00600,1,06,1",,,"01,99,1,01,1,05,1,00450,1,00,1,00,1",,"9,9,999,9,-003,1",,"SYN070AAXX  06004 08583 32470 10514 10233 20182 40129 81500 333 59003 81620;",
"08583099999","2010-05-06T06:00:00","4","16.8333333","-25.05","20.0","MINDELO, CV","FM-12","99999","V020","020,1,N,0051,1","22000,1,9,N","020000,1,N,1","+0228,1","+0185,1","10119,1",,,,"03,1,+00540,1,06,1",,,"03,99,1,03,1,05,1,00450,1,00,1,00,1","999,N,+0225,1","9,9,999,9,-003,1",,"SYN076AAXX  06064 08583 32470 30210 10228 20185 40119 83500 333 20225 59003 83618;",
"08583099999","2010-05-06T12:00:00","4","16.8333333","-25.05","20.0","MINDELO, CV","FM-12","99999","V020","050,1,N,0113,1","22000,1,9,N","020000,1,N,1","+0270,1","+0176,1","10152,1",,,,"03,1,+00600,1,06,1",,,"03,99,1,03,1,05,1,00800,1,00,1,00,1",,"9,9,999,9,+004,1",,"SYN070AAXX  06124 08583 32570 30522 10270 20176 40152 83500 333 58004 83620;",
"08583099999","2010-05-06T18:00:00","4","16.8333333","-25.05","20.0","MINDELO, CV","FM-12","99999","V020","050,1,N,0082,1","22000,1,9,N","030000,1,N,1","+0263,1","+0175,1","10134,1",,,,"03,1,+00690,1,06,1",,,"03,99,1,03,1,05,1,00800,1,00,1,01,1","120,M,+0281,1","9,9,999,9,+012,1",,"SYN076AAXX  06184 08583 32580 30516 10263 20175 40134 83501 333 10281 58012 83623;",
"08583099999","2010-05-07T06:00:00","4","16.8333333","-25.05","20.0","MINDELO, CV","FM-12","99999","V020","060,1,N,0057,1","22000,1,9,N","020000,1,N,1","+0230,1","+0150,1","10149,1",,,,"04,1,+00660,1,06,1",,,"04,99,1,04,1,05,1,00800,1,00,1,00,1","999,N,+0226,1","9,9,999,9,+019,1",,"SYN076AAXX  07064 08583 32570 40611 10230 20150 40149 84500 333 20226 58019 84622;",
"08583099999","2010-05-07T12:00:00","4","16.8333333","-25.05","20.0","MINDELO, CV","FM-12","99999","V020","050,1,N,0082,1","22000,1,9,N","025000,1,N,1","+0270,1","+0160,1","10157,1",,,,"02,1,+00690,1,06,1",,,"04,99,1,02,1,05,1,00800,1,00,1,09,1",,"9,9,999,9,+005,1",,"SYN070AAXX  07124 08583 32575 40516 10270 20160 40157 82509 333 58005 82623;",
"08583099999","2010-05-07T18:00:00","4","16.8333333","-25.05","20.0","MINDELO, CV","FM-12","99999","V020","060,1,N,0098,1","22000,1,9,N","025000,1,N,1","+0262,1","+0157,1","10133,1",,,,"01,1,+00690,1,06,1",,,"01,99,1,01,1,05,1,00800,1,00,1,09,1","120,M,+0285,1","9,9,999,9,-001,1",,"SYN076AAXX  07184 08583 32575 10619 10262 20157 40133 81509 333 10285 59001 81623;",
"08583099999","2010-05-08T00:00:00","4","16.8333333","-25.05","20.0","MINDELO, CV","FM-12","99999","V020","060,1,N,0087,1","22000,1,9,N","020000,1,N,1","+0233,1","+0162,1","10157,1",,,,"01,1,+00690,1,06,1",,,"03,99,1,01,1,05,1,00800,1,03,1,01,1",,"9,9,999,9,-001,1",,"SYN076AAXX  08004 08583 32570 30617 10233 20162 40157 81531 333 59001 81623 83360;",
"08583099999","2010-05-08T06:00:00","4","16.8333333","-25.05","20.0","MINDELO, CV","FM-12","99999","V020","060,1,N,0051,1","22000,1,9,N","020000,1,N,1","+0215,1","+0152,1","10140,1",,,,"02,1,+00690,1,06,1",,,"02,99,1,02,1,05,1,00800,1,00,1,00,1","999,N,+0217,1","9,9,999,9,-009,1",,"SYN076AAXX  08064 08583 32570 20610 10215 20152 40140 82500 333 20217 59009 82623;",
"08583099999","2010-05-08T12:00:00","4","16.8333333","-25.05","20.0","MINDELO, CV","FM-12","99999","V020","050,1,N,0067,1","22000,1,9,N","025000,1,N,1","+0270,1","+0151,1","10159,1",,,,"01,1,+00690,1,06,1",,,"01,99,1,01,1,05,1,00800,1,00,1,00,1",,"9,9,999,9,+002,1",,"SYN070AAXX  08124 08583 32575 10513 10270 20151 40159 81500 333 58002 81623;",
"08583099999","2010-05-08T18:00:00","4","16.8333333","-25.05","20.0","MINDELO, CV","FM-12","99999","V020","060,1,N,0103,1","22000,1,9,N","025000,1,N,1","+0266,1","+0168,1","10128,1",,,,"01,1,+00660,1,06,1",,,"01,99,1,01,1,05,1,00800,1,00,1,00,1","120,M,+0281,1","9,9,999,9,-005,1",,"SYN076AAXX  08184 08583 32575 10620 10266 20168 40128 81500 333 10281 59005 81622;",
"08583099999","2010-05-09T00:00:00","4","16.8333333","-25.05","20.0","MINDELO, CV","FM-12","99999","V020","060,1,N,0062,1","22000,1,9,N","025000,1,N,1","+0232,1","+0175,1","10159,1",,,,"01,1,+00660,1,06,1",,,"01,99,1,01,1,05,1,00800,1,00,1,00,1",,"9,9,999,9,-002,1",,"SYN070AAXX  09004 08583 32575 10612 10232 20175 40159 81500 333 59002 81622;",
"08583099999","2010-05-09T06:00:00","4","16.8333333","-25.05","20.0","MINDELO, CV","FM-12","99999","V020","070,1,N,0046,1","22000,1,9,N","020000,1,N,1","+0216,1","+0170,1","10150,1",,,,"01,1,+00600,1,06,1",,,"01,99,1,01,1,05,1,00800,1,00,1,00,1","999,N,+0215,1","9,9,999,9,+010,1",,"SYN076AAXX  09064 08583 32570 10709 10216 20170 40150 81500 333 20215 58010 81620;",
"08583099999","2010-05-09T12:00:00","4","16.8333333","-25.05","20.0","MINDELO, CV","FM-12","99999","V020","040,1,N,0067,1","22000,1,9,N","025000,1,N,1","+0270,1","+0163,1","10157,1",,,,"02,1,+00660,1,06,1",,,"02,99,1,02,1,05,1,00800,1,00,1,00,1",,"9,9,999,9,-002,1",,"SYN070AAXX  09124 08583 32575 20413 10270 20163 40157 82500 333 59002 82622;",
"08583099999","2010-05-09T18:00:00","4","16.8333333","-25.05","20.0","MINDELO, CV","FM-12","99999","V020","060,1,N,0108,1","22000,1,9,N","025000,1,N,1","+0267,1","+0163,1","10127,1",,,,"01,1,+00660,1,08,1",,,"01,99,1,01,1,01,1,00800,1,00,1,01,1","120,M,+0282,1","9,9,999,9,-001,1",,"SYN076AAXX  09184 08583 32575 10621 10267 20163 40127 81101 333 10282 59001 81822;",
"08583099999","2010-05-10T00:00:00","4","16.8333333","-25.05","20.0","MINDELO, CV","FM-12","99999","V020","060,1,N,0062,1","22000,1,9,N","020000,1,N,1","+0233,1","+0176,1","10164,1",,,,"02,1,+00660,1,06,1",,,"02,99,1,02,1,05,1,00800,1,00,1,01,1",,"9,9,999,9,+005,1",,"SYN070AAXX  10004 08583 32570 20612 10233 20176 40164 82501 333 58005 82622;",
"08583099999","2010-05-10T06:00:00","4","16.8333333","-25.05","20.0","MINDELO, CV","FM-12","99999","V020","060,1,N,0057,1","22000,1,9,N","020000,1,N,1","+0227,1","+0170,1","10142,1",,,,"01,1,+00660,1,06,1",,,"02,99,1,01,1,05,1,00800,1,00,1,01,1","999,N,+0212,1","9,9,999,9,-008,1",,"SYN076AAXX  10064 08583 32570 20611 10227 20170 40142 81501 333 20212 59008 81622;",
"08583099999","2010-05-10T12:00:00","4","16.8333333","-25.05","20.0","MINDELO, CV","FM-12","99999","V020","050,1,N,0093,1","22000,1,C,N","025000,1,N,1","+0272,1","+0167,1","10158,1",,,,"02,1,+00750,1,08,1",,,"05,99,1,02,1,01,1,00800,1,00,1,01,1",,"9,9,999,9,+021,1",,"SYN076AAXX  10124 08583 32575 50518 10272 20167 40158 82101 333 58021 82825 85070;",
"08583099999","2010-05-10T18:00:00","4","16.8333333","-25.05","20.0","MINDELO, CV","FM-12","99999","V020","050,1,N,0093,1","22000,1,C,N","020000,1,N,1","+0267,1","+0173,1","10130,1",,,,"02,1,+00750,1,06,1",,,"05,99,1,02,1,05,1,00800,1,00,1,01,1","120,M,+0288,1","9,9,999,9,+003,1",,"SYN082AAXX  10184 08583 32570 50518 10267 20173 40130 82501 333 10288 58003 82625 85070;",
"08583099999","2010-05-11T00:00:00","4","16.8333333","-25.05","20.0","MINDELO, CV","FM-12","99999","V020","060,1,N,0062,1","22000,1,9,N","020000,1,N,1","+0235,1","+0176,1","10158,1",,,,"02,1,+00660,1,06,1",,,"04,99,1,02,1,05,1,00800,1,00,1,01,1",,"9,9,999,9,+013,1",,"SYN076AAXX  11004 08583 32570 40612 10235 20176 40158 82501 333 58013 82622 84070;",
"08583099999","2010-05-11T06:00:00","4","16.8333333","-25.05","20.0","MINDELO, CV","FM-12","99999","V020","070,1,N,0087,1","22000,1,9,N","020000,1,N,1","+0230,1","+0185,1","10135,1",,,,"02,1,+00660,1,06,1",,,"04,99,1,02,1,05,1,00800,1,00,1,01,1","999,N,+0230,1","9,9,999,9,-007,1",,"SYN082AAXX  11064 08583 32570 40717 10230 20185 40135 82501 333 20230 59007 82622 83070;",
"08583099999","2010-05-11T12:00:00","4","16.8333333","-25.05","20.0","MINDELO, CV","FM-12","99999","V020","070,1,N,0082,1","10500,1,C,N","020000,1,N,1","+0270,1","+0187,1","10161,1",,,,"02,1,+00600,1,06,1",,,"06,99,1,02,1,05,1,00800,1,00,1,02,1",,"9,9,999,9,+003,1",,"SYN076AAXX  11124 08583 32570 60716 10270 20187 40161 82502 333 58003 82620 86070;",
"08583099999","2010-05-11T18:00:00","4","16.8333333","-25.05","20.0","MINDELO, CV","FM-12","99999","V020","040,1,N,0108,1","10500,1,C,N","025000,1,N,1","+0271,1","+0181,1","10141,1",,,,"03,1,+00660,1,06,1",,,"06,99,1,03,1,05,1,00800,1,00,1,02,1","120,M,+0290,1","9,9,999,9,+011,1",,"SYN082AAXX  11184 08583 32575 60421 10271 20181 40141 83502 333 10290 58011 83622 86070;",
"08583099999","2010-05-12T00:00:00","4","16.8333333","-25.05","20.0","MINDELO, CV","FM-12","99999","V020","060,1,N,0103,1","22000,1,9,N","020000,1,N,1","+0237,1","+0186,1","10172,1",,,,"02,1,+00600,1,06,1",,,"03,99,1,02,1,05,1,00800,1,00,1,01,1",,"9,9,999,9,+014,1",,"SYN076AAXX  12004 08583 32570 30620 10237 20186 40172 82501 333 58014 82620 83070;",
"08583099999","2010-05-12T06:00:00","4","16.8333333","-25.05","20.0","MINDELO, CV","FM-12","99999","V020","060,1,N,0098,1","22000,1,9,N","020000,1,N,1","+0233,1","+0183,1","10148,1",,,,"02,1,+00600,1,06,1",,,"03,99,1,02,1,05,1,00800,1,00,1,01,1","999,N,+0228,1","9,9,999,9,+013,1",,"SYN082AAXX  12064 08583 32570 30619 10233 20183 40148 82501 333 20228 58013 82620 83070;",
"08583099999","2010-05-12T12:00:00","4","16.8333333","-25.05","20.0","MINDELO, CV","FM-12","99999","V020","050,1,N,0139,1","22000,1,9,N","025000,1,N,1","+0273,1","+0178,1","10165,1",,,,"03,1,+00600,1,06,1",,,"03,99,1,03,1,05,1,00450,1,00,1,01,1",,"9,9,999,9,+004,1",,"SYN070AAXX  12124 08583 32475 30527 10273 20178 40165 83501 333 58004 83620;",
"08583099999","2010-05-12T18:00:00","4","16.8333333","-25.05","20.0","MINDELO, CV","FM-12","99999","V020","060,1,N,0144,1","22000,1,9,N","025000,1,N,1","+0266,1","+0175,1","10140,1",,,,"01,1,+00600,1,08,1",,,"01,99,1,01,1,02,1,00800,1,00,1,00,1","120,M,+0286,1","9,9,999,9,-001,1",,"SYN076AAXX  12184 08583 32575 10628 10266 20175 40140 81200 333 10286 59001 81820;",
"08583099999","2010-05-13T00:00:00","4","16.8333333","-25.05","20.0","MINDELO, CV","FM-12","99999","V020","060,1,N,0129,1","22000,1,9,N","025000,1,N,1","+0233,1","+0177,1","10172,1",,,,"01,1,+00600,1,06,1",,,"01,99,1,01,1,05,1,00800,1,00,1,00,1",,"9,9,999,9,+000,1",,"SYN070AAXX  13004 08583 32575 10625 10233 20177 40172 81500 333 58000 81620;",
"08583099999","2010-05-13T06:00:00","4","16.8333333","-25.05","20.0","MINDELO, CV","FM-12","99999","V020","050,1,N,0144,1","22000,1,9,N","025000,1,N,1","+0231,1","+0183,1","10152,1",,,,"02,1,+00600,1,06,1",,,"02,99,1,02,1,05,1,00450,1,00,1,00,1","999,N,+0230,1","9,9,999,9,+004,1",,"SYN076AAXX  13064 08583 32475 20528 10231 20183 40152 82500 333 20230 58004 82620;",
"08583099999","2010-05-13T12:00:00","4","16.8333333","-25.05","20.0","MINDELO, CV","FM-12","99999","V020","060,1,N,0180,1","22000,1,9,N","012000,1,N,1","+0266,1","+0170,1","10168,1",,,,"01,1,+00600,1,06,1",,,"01,99,1,01,1,05,1,00800,1,00,1,00,1",,"9,9,999,9,+003,1",,"SYN070AAXX  13124 08583 32562 10635 10266 20170 40168 81500 333 58003 81620;",
"08583099999","2010-05-13T18:00:00","4","16.8333333","-25.05","20.0","MINDELO, CV","FM-12","99999","V020","060,1,N,0175,1","22000,1,9,N","010000,1,N,1","+0258,1","+0170,1","10159,1",,,,"02,1,+00600,1,06,1",,,"99,99,9,01,1,05,1,00800,1,00,1,01,1","120,M,+0281,1","9,9,999,9,+019,1",,"SYN082AAXX  13184 08583 32560 10634 10258 20170 40159 81501 333 10281 58019 82620 83070;","Q01+000012SCOTCV"
"08583099999","2010-05-14T00:00:00","4","16.8333333","-25.05","20.0","MINDELO, CV","FM-12","99999","V020","060,1,N,0144,1","22000,1,9,N","010000,1,N,1","+0230,1","+0165,1","10180,1",,,,"02,1,+00600,1,06,1",,,"03,99,1,02,1,05,1,00800,1,00,1,01,1",,"9,9,999,9,+008,1",,"SYN070AAXX  14004 08583 32560 30628 10230 20165 40180 82501 333 58008 82620;",
"08583099999","2010-05-14T06:00:00","4","16.8333333","-25.05","20.0","MINDELO, CV","FM-12","99999","V020","060,1,N,0113,1","22000,1,9,N","009000,1,N,1","+0227,1","+0165,1","10169,1",,"0,1,06,1","0,1,06,1","02,1,+00600,1,06,1",,,"04,99,1,02,1,05,1,00800,1,00,1,01,1","999,N,+0225,1","9,9,999,9,+017,1","06,1","SYN088AAXX  14064 08583 31559 40622 10227 20165 40169 70600 82501 333 20225 58017 82620 84070;",
"08583099999","2010-05-14T12:00:00","4","16.8333333","-25.05","20.0","MINDELO, CV","FM-12","99999","V020","060,1,N,0129,1","22000,1,9,N","009000,1,N,1","+0270,1","+0166,1","10184,1",,"2,1,06,1","1,1,06,1","03,1,+00660,1,06,1",,,"03,99,1,03,1,05,1,00800,1,00,1,01,1",,"9,9,999,9,+016,1","06,1","SYN076AAXX  14124 08583 31559 30625 10270 20166 40184 70621 83501 333 58016 83622;",
"08583099999","2010-05-14T18:00:00","4","16.8333333","-25.05","20.0","MINDELO, CV","FM-12","99999","V020","060,1,N,0149,1","22000,1,9,N","009000,1,N,1","+0255,1","+0165,1","10162,1",,"0,1,06,1","0,1,06,1","01,1,+00660,1,08,1",,,"01,99,1,01,1,01,1,00800,1,00,1,00,1","120,M,+0278,1","9,9,999,9,+003,1","06,1","SYN082AAXX  14184 08583 31559 10629 10255 20165 40162 70600 81100 333 10278 58003 81822;",
"08583099999","2010-05-15T00:00:00","4","16.8333333","-25.05","20.0","MINDELO, CV","FM-12","99999","V020","060,1,N,0129,1","22000,1,9,N","009000,1,N,1","+0230,1","+0176,1","10177,1",,"0,1,06,1","0,1,06,1","02,1,+00660,1,06,1",,,"02,99,1,02,1,05,1,00800,1,00,1,00,1",,"9,9,999,9,-003,1","06,1","SYN076AAXX  15004 08583 31559 20625 10230 20176 40177 70600 82500 333 59003 82622;",
"08583099999","2010-05-15T06:00:00","4","16.8333333","-25.05","20.0","MINDELO, CV","FM-12","99999","V020","060,1,N,0093,1","22000,1,9,N","009000,1,N,1","+0225,1","+0167,1","10158,1",,"0,1,06,1","0,1,06,1","02,1,+00660,1,06,1",,,"02,99,1,02,1,05,1,00800,1,00,1,01,1","999,N,+0225,1","9,9,999,9,-011,1","06,1","SYN082AAXX  15064 08583 31559 20618 10225 20167 40158 70600 82501 333 20225 59011 82622;",
"08583099999","2010-05-15T12:00:00","4","16.8333333","-25.05","20.0","MINDELO, CV","FM-12","99999","V020","060,1,N,0129,1","04500,1,9,N","010000,1,N,1","+0263,1","+0180,1","10168,1",,,,"04,1,+00690,1,06,1",,,"05,99,1,04,1,05,1,00800,1,08,1,00,1",,"9,9,999,9,-016,1",,"SYN070AAXX  15124 08583 32560 50625 10263 20180 40168 84580 333 59016 84623;",
"08583099999","2010-05-15T18:00:00","4","16.8333333","-25.05","20.0","MINDELO, CV","FM-12","99999","V020","060,1,N,0139,1","22000,1,9,N","010000,1,N,1","+0256,1","+0160,1","10140,1",,,,"02,1,+00690,1,06,1",,,"03,99,1,02,1,05,1,00800,1,03,1,01,1","120,M,+0275,1","9,9,999,9,-022,1",,"SYN076AAXX  15184 08583 32560 30627 10256 20160 40140 82531 333 10275 59022 82623;",
"08583099999","2010-05-16T00:00:00","4","16.8333333","-25.05","20.0","MINDELO, CV","FM-12","99999","V020","050,1,N,0134,1","22000,1,9,N","012000,1,N,1","+0227,1","+0165,1","10163,1",,,,"01,1,+00690,1,06,1",,,"03,99,1,01,1,05,1,00800,1,00,1,01,1",,"9,9,999,9,-014,1",,"SYN076AAXX  16004 08583 32562 30526 10227 20165 40163 81501 333 59014 81623 83070;",
"08583099999","2010-05-16T06:00:00","4","16.8333333","-25.05","20.0","MINDELO, CV","FM-12","99999","V020","060,1,N,0108,1","22000,1,9,N","012000,1,N,1","+0225,1","+0170,1","10155,1",,,,"01,1,+00660,1,06,1",,,"02,99,1,01,1,05,1,00800,1,00,1,01,1","999,N,+0225,1","9,9,999,9,-003,1",,"SYN076AAXX  16064 08583 32562 20621 10225 20170 40155 81501 333 20225 59003 81622;",
"08583099999","2010-05-16T12:00:00","4","16.8333333","-25.05","20.0","MINDELO, CV","FM-12","99999","V020","060,1,N,0118,1","22000,1,9,N","010000,1,N,1","+0265,1","+0185,1","10174,1",,,,"04,1,+00600,1,06,1",,,"04,99,1,04,1,05,1,00800,1,00,1,01,1",,"9,9,999,9,+006,1",,"SYN070AAXX  16124 08583 32560 40623 10265 20185 40174 84501 333 58006 84620;",
"08583099999","2010-05-16T18:00:00","4","16.8333333","-25.05","20.0","MINDELO, CV","FM-12","99999","V020","050,1,N,0144,1","22000,1,C,N","014000,1,N,1","+0255,1","+0168,1","10148,1",,,,"01,1,+00660,1,06,1",,,"06,99,1,01,1,05,1,00800,1,00,1,06,1","120,M,+0280,1","9,9,999,9,+008,1",,"SYN082AAXX  16184 08583 32564 60528 10255 20168 40148 81506 333 10280 58008 81622 86070;",
"08583099999","2010-05-17T00:00:00","4","16.8333333","-25.05","20.0","MINDELO, CV","FM-12","99999","V020","070,1,N,0118,1","10500,1,C,N","012000,1,N,1","+0230,1","+0173,1","10174,1",,,,"01,1,+00600,1,06,1",,,"07,99,1,01,1,05,1,00800,1,00,1,02,1",,"9,9,999,9,+011,1",,"SYN076AAXX  17004 08583 32562 70723 10230 20173 40174 81502 333 58011 81620 87070;",
"08583099999","2010-05-17T06:00:00","4","16.8333333","-25.05","20.0","MINDELO, CV","FM-12","99999","V020","070,1,N,0098,1","22000,1,9,N","012000,1,N,1","+0222,1","+0168,1","10151,1",,,,"02,1,+00600,1,06,1",,,"04,99,1,02,1,05,1,00800,1,00,1,01,1","999,N,+0221,1","9,9,999,9,-004,1",,"SYN082AAXX  17064 08583 32562 40719 10222 20168 40151 82501 333 20221 59004 82620 83070;",
"08583099999","2010-05-17T12:00:00","4","16.8333333","-25.05","20.0","MINDELO, CV","FM-12","99999","V020","050,1,N,0154,1","22000,1,9,N","014000,1,N,1","+0267,1","+0170,1","10159,1",,,,"02,1,+00660,1,06,1",,,"02,99,1,02,1,05,1,00800,1,00,1,00,1",,"9,9,999,9,-015,1",,"SYN070AAXX  17124 08583 32564 20530 10267 20170 40159 82500 333 59015 82622;",
"08583099999","2010-05-17T18:00:00","4","16.8333333","-25.05","20.0","MINDELO, CV","FM-12","99999","V020","060,1,N,0139,1","22000,1,9,N","012000,1,N,1","+0257,1","+0163,1","10135,1",,,,"02,1,+00600,1,06,1",,,"02,99,1,02,1,05,1,00800,1,00,1,00,1","120,M,+0277,1","9,9,999,9,-013,1",,"SYN076AAXX  17184 08583 32562 20627 10257 20163 40135 82500 333 10277 59013 82620;",
"08583099999","2010-05-18T00:00:00","4","16.8333333","-25.05","20.0","MINDELO, CV","FM-12","99999","V020","060,1,N,0154,1","22000,1,9,N","012000,1,N,1","+0230,1","+0177,1","10159,1",,,,"02,1,+00600,1,06,1",,,"02,99,1,02,1,05,1,00800,1,03,1,00,1",,"9,9,999,9,-015,1",,"SYN070AAXX  18004 08583 32562 20630 10230 20177 40159 82530 333 59015 82620;",
"08583099999","2010-05-18T06:00:00","4","16.8333333","-25.05","20.0","MINDELO, CV","FM-12","99999","V020","050,1,N,0149,1","22000,1,9,N","012000,1,N,1","+0225,1","+0181,1","10141,1",,,,"02,1,+00600,1,06,1",,,"02,99,1,02,1,05,1,00450,1,00,1,00,1","999,N,+0221,1","9,9,999,9,-014,1",,"SYN076AAXX  18064 08583 32462 20529 10225 20181 40141 82500 333 20221 59014 82620;",
"08583099999","2010-05-18T12:00:00","4","16.8333333","-25.05","20.0","MINDELO, CV","FM-12","99999","V020","070,1,N,0149,1","22000,1,9,N","009000,1,N,1","+0262,1","+0180,1","10153,1",,"0,1,06,1","0,1,06,1","02,1,+00600,1,06,1",,,"02,99,1,02,1,05,1,00800,1,03,1,00,1",,"9,9,999,9,-006,1","06,1","SYN076AAXX  18124 08583 31559 20729 10262 20180 40153 70600 82530 333 59006 82620;",
"08583099999","2010-05-18T18:00:00","4","16.8333333","-25.05","20.0","MINDELO, CV","FM-12","99999","V020","060,1,N,0159,1","22000,1,9,N","009000,1,N,1","+0253,1","+0185,1","10125,1",,"0,1,06,1","0,1,06,1","03,1,+00600,1,06,1",,,"03,99,1,03,1,05,1,00800,1,00,1,00,1","120,M,+0273,1","9,9,999,9,-010,1","06,1","SYN082AAXX  18184 08583 31559 30631 10253 20185 40125 70600 83500 333 10273 59010 83620;",
"08583099999","2010-05-19T00:00:00","4","16.8333333","-25.05","20.0","MINDELO, CV","FM-12","99999","V020","060,1,N,0159,1","22000,1,9,N","009000,1,N,1","+0231,1","+0190,1","10150,1",,"0,1,06,1","0,1,06,1","02,1,+00540,1,06,1",,,"02,99,1,02,1,05,1,00800,1,00,1,00,1",,"9,9,999,9,-009,1","06,1","SYN076AAXX  19004 08583 31559 20631 10231 20190 40150 70600 82500 333 59009 82618;",
"08583099999","2010-05-19T06:00:00","4","16.8333333","-25.05","20.0","MINDELO, CV","FM-12","99999","V020","060,1,N,0093,1","22000,1,9,N","009000,1,N,1","+0227,1","+0191,1","10139,1",,"0,1,06,1","0,1,06,1","03,1,+00540,1,06,1",,,"03,99,1,03,1,05,1,00800,1,00,1,00,1","999,N,+0223,1","9,9,999,9,-020,1","06,1","SYN082AAXX  19064 08583 31559 30618 10227 20191 40139 70600 83500 333 20223 59020 83618;",
"08583099999","2010-05-19T12:00:00","4","16.8333333","-25.05","20.0","MINDELO, CV","FM-12","99999","V020","060,1,N,0159,1","22000,1,9,N","008000,1,N,1","+0261,1","+0186,1","10137,1",,"0,1,06,1","0,1,06,1","02,1,+00600,1,06,1",,,"02,99,1,02,1,05,1,00800,1,00,1,00,1",,"9,9,999,9,-016,1","06,1","SYN076AAXX  19124 08583 31558 20631 10261 20186 40137 70600 82500 333 59016 82620;",
"08583099999","2010-05-19T18:00:00","4","16.8333333","-25.05","20.0","MINDELO, CV","FM-12","99999","V020","060,1,N,0139,1","22000,1,9,N","008000,1,N,1","+0255,1","+0188,1","10117,1",,"0,1,06,1","0,1,06,1","02,1,+00600,1,08,1",,,"04,99,1,02,1,01,1,00800,1,00,1,02,1","120,M,+0272,1","9,9,999,9,-012,1","06,1","SYN088AAXX  19184 08583 31558 40627 10255 20188 40117 70600 82102 333 10272 59012 82820 84070;",
"08583099999","2010-05-20T00:00:00","4","16.8333333","-25.05","20.0","MINDELO, CV","FM-12","99999","V020","060,1,N,0108,1","22000,1,9,N","009000,1,N,1","+0230,1","+0191,1","10148,1",,"0,1,06,1","0,1,06,1","02,1,+00600,1,06,1",,,"04,99,1,02,1,05,1,00450,1,00,1,01,1",,"9,9,999,9,-002,1","06,1","SYN082AAXX  20004 08583 31459 40621 10230 20191 40148 70600 82501 333 59002 82620 84070;",
"08583099999","2010-05-20T06:00:00","4","16.8333333","-25.05","20.0","MINDELO, CV","FM-12","99999","V020","060,1,N,0123,1","22000,1,9,N","009000,1,N,1","+0223,1","+0187,1","10124,1",,"0,1,06,1","0,1,06,1","02,1,+00600,1,06,1",,,"03,99,1,02,1,05,1,00450,1,00,1,01,1","999,N,+0222,1","9,9,999,9,-015,1","06,1","SYN082AAXX  20064 08583 31459 30624 10223 20187 40124 70600 82501 333 20222 59015 82620;",
"08583099999","2010-05-20T12:00:00","4","16.8333333","-25.05","20.0","MINDELO, CV","FM-12","99999","V020","060,1,N,0154,1","22000,1,9,N","010000,1,N,1","+0265,1","+0183,1","10136,1",,,,"01,1,+00540,1,08,1",,,"04,99,1,01,1,01,1,00450,1,03,1,01,1",,"9,9,999,9,-001,1",,"SYN076AAXX  20124 08583 32460 40630 10265 20183 40136 81131 333 59001 81818 83070;",
"08583099999","2010-05-20T18:00:00","4","16.8333333","-25.05","20.0","MINDELO, CV","FM-12","99999","V020","060,1,N,0129,1","03000,1,9,N","010000,1,N,1","+0260,1","+0182,1","10139,1",,,,"02,1,+00540,1,06,1","03,1,+03000,1,03,1",,"06,99,1,02,1,05,1,00450,1,03,1,02,1","120,M,+0281,1","9,9,999,9,+022,1",,"SYN088AAXX  20184 08583 32460 60625 10260 20182 40139 82532 333 10281 58022 82618 83360 85070;",
"08583099999","2010-05-21T00:00:00","4","16.8333333","-25.05","20.0","MINDELO, CV","FM-12","99999","V020","050,1,N,0072,1","22000,1,9,N","012000,1,N,1","+0225,1","+0177,1","10162,1",,,,"01,1,+00540,1,06,1",,,"02,99,1,01,1,05,1,00450,1,00,1,01,1",,"9,9,999,9,+014,1",,"SYN070AAXX  21004 08583 32462 20514 10225 20177 40162 81501 333 58014 81618;",
"08583099999","2010-05-21T06:00:00","4","16.8333333","-25.05","20.0","MINDELO, CV","FM-12","99999","V020","060,1,N,0072,1","22000,1,9,N","012000,1,N,1","+0218,1","+0182,1","10141,1",,,,"01,1,+00540,1,06,1",,,"02,99,1,01,1,05,1,00450,1,00,1,01,1","999,N,+0217,1","9,9,999,9,+021,1",,"SYN076AAXX  21064 08583 32462 20614 10218 20182 40141 81501 333 20217 58021 81618;",
"08583099999","2010-05-21T12:00:00","4","16.8333333","-25.05","20.0","MINDELO, CV","FM-12","99999","V020","070,1,N,0108,1","10500,1,C,N","012000,1,N,1","+0267,1","+0177,1","10158,1",,,,"02,1,+00540,1,06,1",,,"06,99,1,02,1,05,1,00450,1,00,1,02,1",,"9,9,999,9,+022,1",,"SYN076AAXX  21124 08583 32462 60721 10267 20177 40158 82502 333 58022 82618 85070;",
"08583099999","2010-05-21T18:00:00","4","16.8333333","-25.05","20.0","MINDELO, CV","FM-12","99999","V020","040,1,N,0098,1","10500,1,C,N","012000,1,N,1","+0257,1","+0176,1","10138,1",,,,"01,1,+00600,1,06,1",,,"07,99,1,01,1,05,1,00450,1,00,1,07,1","120,M,+0280,1","9,9,999,9,-001,1",,"SYN082AAXX  21184 08583 32462 70419 10257 20176 40138 81507 333 10280 59001 81620 87270;",
"08583099999","2010-05-22T00:00:00","4","16.8333333","-25.05","20.0","MINDELO, CV","FM-12","99999","V020","070,1,N,0072,1","10500,1,C,N","012000,1,N,1","+0226,1","+0186,1","10156,1",,,,"01,1,+00600,1,06,1",,,"06,99,1,01,1,05,1,00800,1,00,1,02,1",,"9,9,999,9,-006,1",,"SYN076AAXX  22004 08583 32562 60714 10226 20186 40156 81502 333 59006 81620 86070;",
"08583099999","2010-05-22T06:00:00","4","16.8333333","-25.05","20.0","MINDELO, CV","FM-12","99999","V020","080,1,N,0077,1","22000,1,9,N","012000,1,N,1","+0220,1","+0183,1","10136,1",,,,"02,1,+00600,1,06,1",,,"04,99,1,02,1,05,1,00800,1,00,1,01,1","999,N,+0216,1","9,9,999,9,-005,1",,"SYN082AAXX  22064 08583 32562 40815 10220 20183 40136 82501 333 20216 59005 82620 84070;",
"08583099999","2010-05-22T12:00:00","4","16.8333333","-25.05","20.0","MINDELO, CV","FM-12","99999","V020","060,1,N,0103,1","22000,1,9,N","012000,1,N,1","+0265,1","+0180,1","10151,1",,,,"03,1,+00600,1,06,1",,,"03,99,1,03,1,05,1,00450,1,00,1,01,1",,"9,9,999,9,-007,1",,"SYN070AAXX  22124 08583 32462 30620 10265 20180 40151 83501 333 59007 83620;",
"08583099999","2010-05-22T18:00:00","4","16.8333333","-25.05","20.0","MINDELO, CV","FM-12","99999","V020","060,1,N,0098,1","22000,1,9,N","012000,1,N,1","+0267,1","+0183,1","10134,1",,,,"02,1,+00600,1,06,1",,,"02,99,1,02,1,05,1,00800,1,00,1,01,1","120,M,+0281,1","9,9,999,9,-004,1",,"SYN076AAXX  22184 08583 32562 20619 10267 20183 40134 82501 333 10281 59004 82620;",
"08583099999","2010-05-23T00:00:00","4","16.8333333","-25.05","20.0","MINDELO, CV","FM-12","99999","V020","070,1,N,0067,1","22000,1,9,N","012000,1,N,1","+0231,1","+0187,1","10148,1",,,,"01,1,+00600,1,06,1",,,"02,99,1,01,1,05,1,00800,1,00,1,01,1",,"9,9,999,9,-008,1",,"SYN070AAXX  23004 08583 32562 20713 10231 20187 40148 81501 333 59008 81620;",
"08583099999","2010-05-23T06:00:00","4","16.8333333","-25.05","20.0","MINDELO, CV","FM-12","99999","V020","050,1,N,0093,1","22000,1,9,N","012000,1,N,1","+0226,1","+0186,1","10111,1",,,,"02,1,+00600,1,06,1",,,"04,99,1,02,1,05,1,00800,1,00,1,01,1","999,N,+0217,1","9,9,999,9,-017,1",,"SYN082AAXX  23064 08583 32562 40518 10226 20186 40111 82501 333 20217 59017 82620 83070;",
"08583099999","2010-05-23T18:00:00","4","16.8333333","-25.05","20.0","MINDELO, CV","FM-12","99999","V020","070,1,N,0118,1","04500,1,C,N","010000,1,N,1","+0255,1","+0180,1","10132,1",,,,"02,1,+00600,1,06,1",,,"06,99,1,02,1,05,1,00800,1,03,1,02,1","120,M,+0273,1","9,9,999,9,-002,1",,"SYN082AAXX  23184 08583 32560 60723 10255 20180 40132 82532 333 10273 59002 82620 86070;",
"08583099999","2010-05-24T00:00:00","4","16.8333333","-25.05","20.0","MINDELO, CV","FM-12","99999","V020","070,1,N,0087,1","22000,1,9,N","010000,1,N,1","+0228,1","+0190,1","10153,1",,,,"01,1,+00600,1,06,1",,,"01,99,1,01,1,05,1,00450,1,00,1,01,1",,"9,9,999,9,+005,1",,"SYN070AAXX  24004 08583 32460 10717 10228 20190 40153 81501 333 58005 81620;",
"08583099999","2010-05-24T06:00:00","4","16.8333333","-25.05","20.0","MINDELO, CV","FM-12","99999","V020","060,1,N,0087,1","22000,1,9,N","010000,1,N,1","+0221,1","+0185,1","10128,1",,,,"01,1,+00540,1,06,1",,,"02,99,1,01,1,05,1,00450,1,00,1,01,1","999,N,+0220,1","9,9,999,9,+009,1",,"SYN076AAXX  24064 08583 32460 20617 10221 20185 40128 81501 333 20220 58009 81618;",
"08583099999","2010-05-24T12:00:00","4","16.8333333","-25.05","20.0","MINDELO, CV","FM-12","99999","V020","070,1,N,0118,1","04500,1,C,N","010000,1,N,1","+0267,1","+0180,1","10148,1",,,,"01,1,+00540,1,06,1",,,"06,99,1,01,1,05,1,00450,1,03,1,02,1",,"9,9,999,9,+010,1",,"SYN076AAXX  24124 08583 32460 60723 10267 20180 40148 81532 333 58010 81618 86070;",
"08583099999","2010-05-24T18:00:00","4","16.8333333","-25.05","20.0","MINDELO, CV","FM-12","99999","V020","060,1,N,0129,1","22000,1,9,N","010000,1,N,1","+0256,1","+0175,1","10133,1",,,,"01,1,+00600,1,06,1",,,"03,99,1,01,1,05,1,00800,1,00,1,01,1","120,M,+0278,1","9,9,999,9,+001,1",,"SYN076AAXX  24184 08583 32560 30625 10256 20175 40133 81501 333 10278 58001 81620;",
"08583099999","2010-05-25T00:00:00","4","16.8333333","-25.05","20.0","MINDELO, CV","FM-12","99999","V020","060,1,N,0093,1","04500,1,C,N","010000,1,N,1","+0230,1","+0187,1","10162,1",,,,"02,1,+00600,1,06,1",,,"06,99,1,02,1,05,1,00800,1,03,1,02,1",,"9,9,999,9,+009,1",,"SYN076AAXX  25004 08583 32560 60618 10230 20187 40162 82532 333 58009 82620 85070;",
"08583099999","2010-05-25T06:00:00","4","16.8333333","-25.05","20.0","MINDELO, CV","FM-12","99999","V020","080,1,N,0087,1","10500,1,C,N","012000,1,N,1","+0222,1","+0183,1","10131,1",,,,"01,1,+00600,1,06,1",,,"05,99,1,01,1,05,1,00800,1,00,1,02,1","999,N,+0220,1","9,9,999,9,+003,1",,"SYN082AAXX  25064 08583 32562 50817 10222 20183 40131 81502 333 20220 58003 81620 85070;",
"08583099999","2010-05-25T12:00:00","4","16.8333333","-25.05","20.0","MINDELO, CV","FM-12","99999","V020","060,1,N,0108,1","04500,1,C,N","012000,1,N,1","+0266,1","+0186,1","10154,1",,,,"01,1,+00600,1,06,1","03,1,+03000,1,03,1",,"06,99,1,01,1,05,1,00800,1,05,1,01,1",,"9,9,999,9,+006,1",,"SYN082AAXX  25124 08583 32562 60621 10266 20186 40154 81551 333 58006 81620 83360 85070;",
"08583099999","2010-05-25T18:00:00","4","16.8333333","-25.05","20.0","MINDELO, CV","FM-12","99999","V020","060,1,N,0108,1","03000,1,9,N","012000,1,N,1","+0250,1","+0187,1","10138,1",,,,"02,1,+00600,1,06,1","04,1,+03000,1,03,1",,"06,99,1,02,1,03,1,00800,1,05,1,01,1","120,M,+0277,1","9,9,999,9,+005,1",,"SYN088AAXX  25184 08583 32562 60621 10250 20187 40138 82351 333 10277 58005 82620 84360 85070;",
"08583099999","2010-05-26T00:00:00","4","16.8333333","-25.05","20.0","MINDELO, CV","FM-12","99999","V020","050,1,N,0098,1","02700,1,9,N","012000,1,N,1","+0232,1","+0192,1","10160,1",,,,"02,1,+00600,1,06,1","05,1,+02700,1,03,1",,"07,99,1,02,1,05,1,00450,1,03,1,02,1",,"9,9,999,9,+002,1",,"SYN082AAXX  26004 08583 32462 70519 10232 20192 40160 82532 333 58002 82620 85359 86070;",
"08583099999","2010-05-26T06:00:00","4","16.8333333","-25.05","20.0","MINDELO, CV","FM-12","99999","V020","060,1,N,0093,1","02700,1,9,N","012000,1,N,1","+0227,1","+0192,1","10140,1",,,,"01,1,+00540,1,06,1","05,1,+02700,1,03,1",,"07,99,1,01,1,05,1,00450,1,03,1,02,1","999,N,+0227,1","9,9,999,9,+009,1",,"SYN088AAXX  26064 08583 32462 70618 10227 20192 40140 81532 333 20227 58009 81618 85359 85070;",
"08583099999","2010-05-26T12:00:00","4","16.8333333","-25.05","20.0","MINDELO, CV","FM-12","99999","V020","060,1,N,0139,1","04500,1,C,N","012000,1,N,1","+0268,1","+0183,1","10160,1",,,,"02,1,+00600,1,06,1",,,"06,99,1,02,1,05,1,00450,1,03,1,01,1",,"9,9,999,9,+006,1",,"SYN076AAXX  26124 08583 32462 60627 10268 20183 40160 82531 333 58006 82620 85070;",
"08583099999","2010-05-26T18:00:00","4","16.8333333","-25.05","20.0","MINDELO, CV","FM-12","99999","V020","050,1,N,0164,1","22000,1,9,N","012000,1,N,1","+0262,1","+0195,1","10131,1",,,,"02,1,+00600,1,06,1",,,"02,99,1,02,1,05,1,00450,1,00,1,00,1","120,M,+0283,1","9,9,999,9,-007,1",,"SYN076AAXX  26184 08583 32462 20532 10262 20195 40131 82500 333 10283 59007 82620;",
"08583099999","2010-05-27T00:00:00","4","16.8333333","-25.05","20.0","MINDELO, CV","FM-12","99999","V020","060,1,N,0154,1","22000,1,9,N","010000,1,N,1","+0233,1","+0185,1","10152,1",,,,"01,1,+00600,1,06,1",,,"01,99,1,01,1,05,1,00800,1,00,1,00,1",,"9,9,999,9,-008,1",,"SYN070AAXX  27004 08583 32560 10630 10233 20185 40152 81500 333 59008 81620;",
"08583099999","2010-05-27T06:00:00","4","16.8333333","-25.05","20.0","MINDELO, CV","FM-12","99999","V020","060,1,N,0098,1","22000,1,9,N","010000,1,N,1","+0225,1","+0181,1","10148,1",,,,"02,1,+00600,1,06,1",,,"03,99,1,02,1,05,1,00800,1,00,1,01,1","120,M,+0225,1","9,9,999,9,+008,1",,"SYN082AAXX  27064 08583 32560 30619 10225 20181 40148 82501 333 10225 58008 82620 83070;",
"08583099999","2010-05-27T12:00:00","4","16.8333333","-25.05","20.0","MINDELO, CV","FM-12","99999","V020","050,1,N,0154,1","22000,1,9,N","012000,1,N,1","+0268,1","+0190,1","10153,1",,,,"03,1,+00600,1,06,1",,,"03,99,1,03,1,05,1,00450,1,00,1,00,1",,"9,9,999,9,-007,1",,"SYN070AAXX  27124 08583 32462 30530 10268 20190 40153 83500 333 59007 83620;",
"08583099999","2010-05-27T18:00:00","4","16.8333333","-25.05","20.0","MINDELO, CV","FM-12","99999","V020","070,1,N,0164,1","22000,1,9,N","012000,1,N,1","+0258,1","+0188,1","10129,1",,,,"02,1,+00600,1,06,1",,,"02,99,1,02,1,05,1,00800,1,00,1,00,1","120,M,+0280,1","9,9,999,9,-002,1",,"SYN076AAXX  27184 08583 32562 20732 10258 20188 40129 82500 333 10280 59002 82620;",
"08583099999","2010-05-28T00:00:00","4","16.8333333","-25.05","20.0","MINDELO, CV","FM-12","99999","V020","060,1,N,0159,1","10500,1,C,N","012000,1,N,1","+0230,1","+0178,1","10151,1",,,,"02,1,+00600,1,06,1",,,"06,99,1,02,1,05,1,00800,1,00,1,02,1",,"9,9,999,9,-001,1",,"SYN076AAXX  28004 08583 32562 60631 10230 20178 40151 82502 333 59001 82620 86070;",
"08583099999","2010-05-28T06:00:00","4","16.8333333","-25.05","20.0","MINDELO, CV","FM-12","99999","V020","060,1,N,0129,1","22000,1,9,N","012000,1,N,1","+0225,1","+0178,1","10139,1",,,,"02,1,+00660,1,06,1",,,"02,99,1,02,1,05,1,00800,1,00,1,01,1","999,N,+0223,1","9,9,999,9,-009,1",,"SYN076AAXX  28064 08583 32562 20625 10225 20178 40139 82501 333 20223 59009 82622;",
"08583099999","2010-05-28T12:00:00","4","16.8333333","-25.05","20.0","MINDELO, CV","FM-12","99999","V020","070,1,N,0180,1","22000,1,9,N","012000,1,N,1","+0266,1","+0185,1","10140,1",,,,"02,1,+00600,1,06,1",,,"02,99,1,02,1,05,1,00800,1,00,1,00,1",,"9,9,999,9,-013,1",,"SYN070AAXX  28124 08583 32562 20735 10266 20185 40140 82500 333 59013 82620;",
"08583099999","2010-05-28T18:00:00","4","16.8333333","-25.05","20.0","MINDELO, CV","FM-12","99999","V020","060,1,N,0175,1","22000,1,9,N","012000,1,N,1","+0257,1","+0185,1","10119,1",,,,"01,1,+00540,1,06,1",,,"01,99,1,01,1,05,1,00450,1,00,1,00,1","120,M,+0278,1","9,9,999,9,-010,1",,"SYN076AAXX  28184 08583 32462 10634 10257 20185 40119 81500 333 10278 59010 81618;",
"08583099999","2010-05-29T00:00:00","4","16.8333333","-25.05","20.0","MINDELO, CV","FM-12","99999","V020","070,1,N,0154,1","22000,1,9,N","010000,1,N,1","+0230,1","+0190,1","10147,1",,,,"02,1,+00540,1,06,1",,,"02,99,1,02,1,05,1,00450,1,00,1,00,1",,"9,9,999,9,+004,1",,"SYN070AAXX  29004 08583 32460 20730 10230 20190 40147 82500 333 58004 82618;",
"08583099999","2010-05-29T06:00:00","4","16.8333333","-25.05","20.0","MINDELO, CV","FM-12","99999","V020","070,1,N,0077,1","22000,1,9,N","010000,1,N,1","+0222,1","+0190,1","10144,1",,,,"02,1,+00540,1,06,1",,,"02,99,1,02,1,05,1,00450,1,00,1,00,1","999,N,+0221,1","9,9,999,9,-005,1",,"SYN076AAXX  29064 08583 32460 20715 10222 20190 40144 82500 333 20221 59005 82618;",
"08583099999","2010-05-29T12:00:00","4","16.8333333","-25.05","20.0","MINDELO, CV","FM-12","99999","V020","060,1,N,0103,1","22000,1,9,N","010000,1,N,1","+0265,1","+0190,1","10165,1",,,,"02,1,+00540,1,06,1",,,"99,99,9,02,1,05,1,00450,1,00,1,00,1",,"9,9,999,9,+025,1",,"SYN070AAXX  29124 08583 32460 10620 10265 20190 40165 82500 333 58025 82618;","Q01+000012SCOTCV"
"08583099999","2010-05-29T18:00:00","4","16.8333333","-25.05","20.0","MINDELO, CV","FM-12","99999","V020","060,1,N,0103,1","22000,1,9,N","010000,1,N,1","+0257,1","+0190,1","10148,1",,,,"01,1,+00540,1,06,1",,,"01,99,1,01,1,05,1,00450,1,00,1,00,1","120,M,+0278,1","9,9,999,9,+029,1",,"SYN076AAXX  29184 08583 32460 10620 10257 20190 40148 81500 333 10278 58029 81618;",
"08583099999","2010-05-30T00:00:00","4","16.8333333","-25.05","20.0","MINDELO, CV","FM-12","99999","V020","070,1,N,0067,1","22000,1,9,N","010000,1,N,1","+0228,1","+0190,1","10168,1",,,,"02,1,+00540,1,06,1",,,"03,99,1,02,1,05,1,00450,1,00,1,01,1",,"9,9,999,9,+017,1",,"SYN070AAXX  30004 08583 32460 30713 10228 20190 40168 82501 333 58017 82618;",
"08583099999","2010-05-30T12:00:00","4","16.8333333","-25.05","20.0","MINDELO, CV","FM-12","99999","V020","070,1,N,0129,1","22000,1,9,N","010000,1,N,1","+0270,1","+0187,1","10175,1",,,,"01,1,+00540,1,06,1",,,"01,99,1,01,1,05,1,00450,1,00,1,00,1",,"9,9,999,9,+010,1",,"SYN070AAXX  30124 08583 32460 10725 10270 20187 40175 81500 333 58010 81618;",
"08583099999","2010-05-30T18:00:00","4","16.8333333","-25.05","20.0","MINDELO, CV","FM-12","99999","V020","060,1,N,0113,1","22000,1,9,N","010000,1,N,1","+0260,1","+0187,1","10185,1",,,,"02,1,+00540,1,06,1",,,"02,99,1,02,1,05,1,00450,1,00,1,00,1","120,M,+0285,1","9,9,999,9,+005,1",,"SYN076AAXX  30184 08583 32460 20622 10260 20187 40185 82500 333 10285 58005 82618;",
"08583099999","2010-05-31T00:00:00","4","16.8333333","-25.05","20.0","MINDELO, CV","FM-12","99999","V020","050,1,N,0082,1","22000,1,9,N","012000,1,N,1","+0228,1","+0187,1","10178,1",,,,"01,1,+00540,1,06,1",,,"04,99,1,01,1,05,1,00450,1,00,1,01,1",,"9,9,999,9,+006,1",,"SYN076AAXX  31004 08583 32462 40516 10228 20187 40178 81501 333 58006 81618 84070;",
"08583099999","2010-05-31T12:00:00","4","16.8333333","-25.05","20.0","MINDELO, CV","FM-12","99999","V020","070,1,N,0093,1","22000,1,9,N","012000,1,N,1","+0268,1","+0185,1","10172,1",,,,"02,1,+00540,1,06,1",,,"99,99,9,02,1,05,1,00450,1,00,1,01,1",,"9,9,999,9,-003,1",,"SYN070AAXX  31124 08583 32462 10718 10268 20185 40172 82501 333 59003 82618;","Q01+000012SCOTCV"
"08583099999","2010-06-01T00:00:00","4","16.8333333","-25.05","20.0","MINDELO, CV","FM-12","99999","V020","070,1,N,0046,1","22000,1,9,N","012000,1,N,1","+0228,1","+0185,1","10158,1",,,,"02,1,+00600,1,06,1",,,"02,99,1,02,1,05,1,00800,1,00,1,00,1",,"9,9,999,9,-020,1",,"SYN070AAXX  01004 08583 32562 20709 10228 20185 40158 82500 333 59020 82620;",
"08583099999","2010-06-01T06:00:00","4","16.8333333","-25.05","20.0","MINDELO, CV","FM-12","99999","V020","090,1,N,0051,1","22000,1,9,N","012000,1,N,1","+0225,1","+0190,1","10142,1",,,,"03,1,+00600,1,06,1",,,"03,99,1,03,1,05,1,00800,1,00,1,01,1",,"9,9,999,9,-023,1",,"SYN070AAXX  01064 08583 32562 30910 10225 20190 40142 83501 333 59023 83620;",
"08583099999","2010-06-01T12:00:00","4","16.8333333","-25.05","20.0","MINDELO, CV","FM-12","99999","V020","040,1,N,0046,1","22000,1,9,N","014000,1,N,1","+0270,1","+0183,1","10156,1",,,,"04,1,+00660,1,06,1",,,"04,99,1,04,1,05,1,00800,1,99,9,99,9",,"9,9,999,9,-016,1",,"SYN070AAXX  01124 08583 32564 40409 10270 20183 40156 845// 333 59016 84622;",
"08583099999","2010-06-01T18:00:00","4","16.8333333","-25.05","20.0","MINDELO, CV","FM-12","99999","V020","050,1,N,0051,1","22000,1,9,N","012000,1,N,1","+0260,1","+0182,1","10141,1",,,,"02,1,+00660,1,06,1",,,"02,99,1,02,1,05,1,00800,1,00,1,00,1","120,M,+0283,1","9,9,999,9,-006,1",,"SYN076AAXX  01184 08583 32562 20510 10260 20182 40141 82500 333 10283 59006 82622;",
"08583099999","2010-06-02T00:00:00","4","16.8333333","-25.05","20.0","MINDELO, CV","FM-12","99999","V020","060,1,N,0046,1","22000,1,9,N","012000,1,N,1","+0236,1","+0185,1","10169,1",,,,"02,1,+00660,1,06,1",,,"02,99,1,02,1,05,1,00800,1,00,1,00,1",,"9,9,999,9,+011,1",,"SYN070AAXX  02004 08583 32562 20609 10236 20185 40169 82500 333 58011 82622;",
"08583099999","2010-06-02T06:00:00","4","16.8333333","-25.05","20.0","MINDELO, CV","FM-12","99999","V020","060,1,N,0026,1","22000,1,9,N","015000,1,N,1","+0228,1","+0185,1","10144,1",,,,"02,1,+00690,1,06,1",,,"03,99,1,02,1,05,1,00800,1,00,1,01,1","999,N,+0225,1","9,9,999,9,+002,1",,"SYN076AAXX  02064 08583 32565 30605 10228 20185 40144 82501 333 20225 58002 82623;",
"08583099999","2010-06-02T12:00:00","4","16.8333333","-25.05","20.0","MINDELO, CV","FM-12","99999","V020","030,1,N,0026,1","01200,1,C,N","012000,1,N,1","+0265,1","+0185,1","10159,1",,,,"02,1,+00600,1,06,1",,,"07,99,1,07,1,08,1,00800,1,00,1,99,9",,"9,9,999,9,+003,1",,"SYN076AAXX  02124 08583 32562 70305 10265 20185 40159 8780/ 333 58003 82620 87624;",
"08583099999","2010-06-02T18:00:00","4","16.8333333","-25.05","20.0","MINDELO, CV","FM-12","99999","V020","050,1,N,0062,1","00600,1,9,N","015000,1,N,1","+0256,1","+0186,1","10151,1",,,,"05,1,+00600,1,06,1",,,"05,99,1,05,1,05,1,00800,1,00,1,00,1","120,M,+0278,1","9,9,999,9,+010,1",,"SYN076AAXX  02184 08583 32565 50512 10256 20186 40151 85500 333 10278 58010 85620;",
"08583099999","2010-06-03T00:00:00","4","16.8333333","-25.05","20.0","MINDELO, CV","FM-12","99999","V020","070,1,N,0057,1","00660,1,9,N","012000,1,N,1","+0240,1","+0191,1","10181,1",,,,"08,1,+00660,1,06,1",,,"08,99,1,08,1,05,1,00800,1,99,9,99,9",,"9,9,999,9,+012,1",,"SYN070AAXX  03004 08583 32562 80711 10240 20191 40181 885// 333 58012 88622;",
"08583099999","2010-06-03T06:00:00","4","16.8333333","-25.05","20.0","MINDELO, CV","FM-12","99999","V020","090,1,N,0026,1","00660,1,9,N","012000,1,N,1","+0225,1","+0186,1","10165,1",,,,"07,1,+00660,1,06,1",,,"07,99,1,07,1,05,1,00800,1,99,9,99,9","999,N,+0225,1","9,9,999,9,+021,1",,"SYN076AAXX  03064 08583 32562 70905 10225 20186 40165 875// 333 20225 58021 87622;",
"08583099999","2010-06-03T12:00:00","4","16.8333333","-25.05","20.0","MINDELO, CV","FM-12","99999","V020","230,1,N,0031,1","00660,1,9,N","012000,1,N,1","+0265,1","+0183,1","10185,1",,,,"07,1,+00660,1,06,1",,,"07,99,1,07,1,05,1,00800,1,99,9,99,9",,"9,9,999,9,+028,1",,"SYN070AAXX  03124 08583 32562 72306 10265 20183 40185 875// 333 58028 87622;",
"08583099999","2010-06-03T18:00:00","4","16.8333333","-25.05","20.0","MINDELO, CV","FM-12","99999","V020","060,1,N,0077,1","01200,1,C,N","018000,1,N,1","+0256,1","+0186,1","10165,1",,,,"01,1,+00660,1,08,1",,,"07,99,1,05,1,08,1,00800,1,03,1,99,9","120,M,+0271,1","9,9,999,9,+014,1",,"SYN082AAXX  03184 08583 32568 70615 10256 20186 40165 8583/ 333 10271 58014 81822 85630;",
"08583099999","2010-06-04T00:00:00","4","16.8333333","-25.05","20.0","MINDELO, CV","FM-12","99999","V020","070,1,N,0067,1","22000,1,9,N","018000,1,N,1","+0235,1","+0188,1","10180,1",,,,"03,1,+00660,1,06,1",,,"03,99,1,99,9,08,1,00800,1,03,1,99,9",,"9,9,999,9,-001,1",,"SYN070AAXX  04004 08583 32568 30713 10235 20188 40180 8583/ 333 59001 83622;","Q01+000052SCOTLC"
"08583099999","2010-06-04T06:00:00","4","16.8333333","-25.05","20.0","MINDELO, CV","FM-12","99999","V020","070,1,N,0036,1","22000,1,9,N","015000,1,N,1","+0223,1","+0185,1","10173,1",,,,"02,1,+00660,1,06,1",,,"02,99,1,02,1,05,1,00800,1,00,1,00,1","999,N,+0220,1","9,9,999,9,+008,1",,"SYN076AAXX  04064 08583 32565 20707 10223 20185 40173 82500 333 20220 58008 82622;",
"08583099999","2010-06-04T12:00:00","4","16.8333333","-25.05","20.0","MINDELO, CV","FM-12","99999","V020","070,1,N,0046,1","22000,1,9,N","018000,1,N,1","+0266,1","+0185,1","10186,1",,,,"04,1,+00660,1,06,1",,,"04,99,1,04,1,05,1,00800,1,00,1,00,1",,"9,9,999,9,+001,1",,"SYN070AAXX  04124 08583 32568 40709 10266 20185 40186 84500 333 58001 84622;",
"08583099999","2010-06-04T18:00:00","4","16.8333333","-25.05","20.0","MINDELO, CV","FM-12","99999","V020","070,1,N,0093,1","22000,1,9,N","018000,1,N,1","+0265,1","+0190,1","10163,1",,,,"02,1,+00690,1,06,1",,,"02,99,1,02,1,05,1,00800,1,00,1,00,1","120,M,+0265,1","9,9,999,9,-002,1",,"SYN076AAXX  04184 08583 32568 20718 10265 20190 40163 82500 333 10265 59002 82623;",
"08583099999","2010-06-05T00:00:00","4","16.8333333","-25.05","20.0","MINDELO, CV","FM-12","99999","V020","060,1,N,0062,1","22000,1,9,N","015000,1,N,1","+0235,1","+0185,1","10188,1",,,,"03,1,+00690,1,06,1",,,"03,99,1,03,1,05,1,00800,1,00,1,00,1",,"9,9,999,9,+008,1",,"SYN070AAXX  05004 08583 32565 30612 10235 20185 40188 83500 333 58008 83623;",
"08583099999","2010-06-05T06:00:00","4","16.8333333","-25.05","20.0","MINDELO, CV","FM-12","99999","V020","080,1,N,0031,1","22000,1,9,N","015000,1,N,1","+0225,1","+0178,1","10172,1",,,,"01,1,+00600,1,06,1",,,"01,99,1,01,1,05,1,00800,1,00,1,00,1","999,N,+0225,1","9,9,999,9,-001,1",,"SYN076AAXX  05064 08583 32565 10806 10225 20178 40172 81500 333 20225 59001 81620;",
"08583099999","2010-06-05T12:00:00","4","16.8333333","-25.05","20.0","MINDELO, CV","FM-12","99999","V020","050,1,N,0046,1","22000,1,9,N","015000,1,N,1","+0271,1","+0182,1","10184,1",,,,"01,1,+00660,1,06,1",,,"01,99,1,01,1,05,1,00800,1,00,1,00,1",,"9,9,999,9,-002,1",,"SYN070AAXX  05124 08583 32565 10509 10271 20182 40184 81500 333 59002 81622;",
"08583099999","2010-06-05T18:00:00","4","16.8333333","-25.05","20.0","MINDELO, CV","FM-12","99999","V020","050,1,N,0098,1","22000,1,9,N","020000,1,N,1","+0265,1","+0188,1","10163,1",,,,"02,1,+00660,1,06,1",,,"02,99,1,02,1,05,1,00800,1,00,1,00,1","120,M,+0288,1","9,9,999,9,+000,1",,"SYN076AAXX  05184 08583 32570 20519 10265 20188 40163 82500 333 10288 58000 82622;",
"08583099999","2010-06-06T00:00:00","4","16.8333333","-25.05","20.0","MINDELO, CV","FM-12","99999","V020","070,1,N,0072,1","22000,1,9,N","015000,1,N,1","+0233,1","+0197,1","10185,1",,,,"02,1,+00660,1,06,1",,,"02,99,1,02,1,05,1,00800,1,00,1,00,1",,"9,9,999,9,-003,1",,"SYN070AAXX  06004 08583 32565 20714 10233 20197 40185 82500 333 59003 82622;",
"08583099999","2010-06-06T06:00:00","4","16.8333333","-25.05","20.0","MINDELO, CV","FM-12","99999","V020","070,1,N,0062,1","22000,1,9,N","015000,1,N,1","+0221,1","+0191,1","10169,1",,,,"02,1,+00660,1,06,1",,,"02,99,1,02,1,05,1,00800,1,00,1,00,1","999,N,+0220,1","9,9,999,9,-003,1",,"SYN076AAXX  06064 08583 32565 20712 10221 20191 40169 82500 333 20220 59003 82622;",
"08583099999","2010-06-06T12:00:00","4","16.8333333","-25.05","20.0","MINDELO, CV","FM-12","99999","V020","060,1,N,0118,1","22000,1,9,N","015000,1,N,1","+0280,1","+0168,1","10168,1",,,,"01,1,+00510,1,06,1",,,"01,99,1,01,1,05,1,00450,1,00,1,00,1",,"9,9,999,9,-016,1",,"SYN070AAXX  06124 08583 32465 10623 10280 20168 40168 81500 333 59016 81617;",
"08583099999","2010-06-06T18:00:00","4","16.8333333","-25.05","20.0","MINDELO, CV","FM-12","99999","V020","070,1,N,0108,1","22000,1,9,N","015000,1,N,1","+0285,1","+0181,1","10152,1",,,,"01,1,+00540,1,06,1",,,"01,99,1,01,1,05,1,00450,1,00,1,00,1","120,M,+0295,1","9,9,999,9,-011,1",,"SYN076AAXX  06184 08583 32465 10721 10285 20181 40152 81500 333 10295 59011 81618;",
"08583099999","2010-06-07T00:00:00","4","16.8333333","-25.05","20.0","MINDELO, CV","FM-12","99999","V020","060,1,N,0103,1","22000,1,9,N","012000,1,N,1","+0236,1","+0200,1","10175,1",,,,"01,1,+00600,1,06,1",,,"01,99,1,01,1,05,1,00800,1,00,1,00,1",,"9,9,999,9,-010,1",,"SYN070AAXX  07004 08583 32562 10620 10236 20200 40175 81500 333 59010 81620;",
"08583099999","2010-06-07T06:00:00","4","16.8333333","-25.05","20.0","MINDELO, CV","FM-12","99999","V020","060,1,N,0123,1","22000,1,9,N","012000,1,N,1","+0227,1","+0192,1","10150,1",,,,"02,1,+00600,1,06,1",,,"03,99,1,02,1,05,1,00450,1,03,1,01,1","999,N,+0220,1","9,9,999,9,-019,1",,"SYN076AAXX  07064 08583 32462 30624 10227 20192 40150 82531 333 20220 59019 82620;",
"08583099999","2010-06-07T12:00:00","4","16.8333333","-25.05","20.0","MINDELO, CV","FM-12","99999","V020","060,1,N,0175,1","22000,1,9,N","012000,1,N,1","+0270,1","+0185,1","10162,1",,,,"02,1,+00540,1,06,1",,,"02,99,1,02,1,05,1,00450,1,00,1,00,1",,"9,9,999,9,-006,1",,"SYN070AAXX  07124 08583 32462 20634 10270 20185 40162 82500 333 59006 82618;",
"08583099999","2010-06-07T18:00:00","4","16.8333333","-25.05","20.0","MINDELO, CV","FM-12","99999","V020","060,1,N,0123,1","22000,1,9,N","012000,1,N,1","+0261,1","+0182,1","10155,1",,,,"02,1,+00540,1,06,1",,,"02,99,1,02,1,05,1,00450,1,03,1,00,1","120,M,+0285,1","9,9,999,9,+003,1",,"SYN076AAXX  07184 08583 32462 20624 10261 20182 40155 82530 333 10285 58003 82618;",
"08583099999","2010-06-08T00:00:00","4","16.8333333","-25.05","20.0","MINDELO, CV","FM-12","99999","V020","070,1,N,0062,1","22000,1,9,N","015000,1,N,1","+0231,1","+0172,1","10183,1",,,,"02,1,+00660,1,06,1",,,"04,99,1,02,1,05,1,00800,1,08,1,01,1",,"9,9,999,9,+008,1",,"SYN070AAXX  08004 08583 32565 40712 10231 20172 40183 82581 333 58008 82622;",
"08583099999","2010-06-08T06:00:00","4","16.8333333","-25.05","20.0","MINDELO, CV","FM-12","99999","V020","050,1,N,0072,1","22000,1,9,N","015000,1,N,1","+0230,1","+0172,1","10165,1",,,,"03,1,+00600,1,06,1",,,"03,99,1,03,1,05,1,00800,1,03,1,00,1","999,N,+0225,1","9,9,999,9,+015,1",,"SYN076AAXX  08064 08583 32565 30514 10230 20172 40165 83530 333 20225 58015 83620;",
"08583099999","2010-06-08T12:00:00","4","16.8333333","-25.05","20.0","MINDELO, CV","FM-12","99999","V020","050,1,N,0098,1","22000,1,9,N","015000,1,N,1","+0271,1","+0171,1","10178,1",,,,"02,1,+00600,1,06,1",,,"02,99,1,02,1,05,1,00800,1,00,1,00,1",,"9,9,999,9,+016,1",,"SYN070AAXX  08123 08583 32565 20519 10271 20171 40178 82500 333 58016 82620;",
"08583099999","2010-06-08T18:00:00","4","16.8333333","-25.05","20.0","MINDELO, CV","FM-12","99999","V020","070,1,N,0108,1","22000,1,9,N","015000,1,N,1","+0263,1","+0173,1","10152,1",,,,"02,1,+00660,1,08,1",,,"02,99,1,02,1,01,1,00800,1,00,1,00,1","120,M,+0281,1","9,9,999,9,-003,1",,"SYN076AAXX  08184 08583 32565 20721 10263 20173 40152 82100 333 10281 59003 82822;",
"08583099999","2010-06-09T00:00:00","4","16.8333333","-25.05","20.0","MINDELO, CV","FM-12","99999","V020","060,1,N,0077,1","22000,1,9,N","015000,1,N,1","+0233,1","+0185,1","10176,1",,,,"03,1,+00600,1,06,1",,,"03,99,1,03,1,05,1,00800,1,00,1,00,1",,"9,9,999,9,-007,1",,"SYN070AAXX  09004 08583 32565 30615 10233 20185 40176 83500 333 59007 83620;",
"08583099999","2010-06-09T06:00:00","4","16.8333333","-25.05","20.0","MINDELO, CV","FM-12","99999","V020","060,1,N,0036,1","22000,1,9,N","015000,1,N,1","+0227,1","+0190,1","10157,1",,,,"04,1,+00600,1,06,1",,,"04,99,1,04,1,05,1,00800,1,00,1,00,1","999,N,+0225,1","9,9,999,9,-008,1",,"SYN076AAXX  09064 08583 32565 40607 10227 20190 40157 84500 333 20225 59008 84620;",
"08583099999","2010-06-09T12:00:00","4","16.8333333","-25.05","20.0","MINDELO, CV","FM-12","99999","V020","050,1,N,0067,1","04500,1,9,N","015000,1,N,1","+0271,1","+0182,1","10169,1",,"5,1,06,1","2,1,06,1","02,1,+00600,1,08,1",,,"05,99,1,04,1,08,1,00800,1,03,1,00,1",,"9,9,999,9,-009,1","02,1","SYN082AAXX  09124 08583 32565 50513 10271 20182 40169 70252 84830 333 59009 82820 84625;",
"08583099999","2010-06-09T18:00:00","4","16.8333333","-25.05","20.0","MINDELO, CV","FM-12","99999","V020","050,1,N,0062,1","00900,1,C,N","015000,1,N,1","+0256,1","+0182,1","10147,1",,,,"03,1,+00600,1,08,1",,,"07,99,1,07,1,08,1,00450,1,99,9,99,9","120,M,+0282,1","9,9,999,9,-005,1",,"SYN082AAXX  09184 08583 32465 70512 10256 20182 40147 878// 333 10282 59005 83820 87625;",
"08583099999","2010-06-10T00:00:00","4","16.8333333","-25.05","20.0","MINDELO, CV","FM-12","99999","V020","060,1,N,0067,1","22000,1,9,N","015000,1,N,1","+0233,1","+0187,1","10169,1",,,,"01,1,+00540,1,08,1",,,"03,99,1,03,1,08,1,00450,1,00,1,00,1",,"9,9,999,9,-007,1",,"SYN076AAXX  10004 08583 32465 30613 10233 20187 40169 83800 333 59007 81818 83625;",
"08583099999","2010-06-10T06:00:00","4","16.8333333","-25.05","20.0","MINDELO, CV","FM-12","99999","V020","080,1,N,0036,1","22000,1,9,N","015000,1,N,1","+0226,1","+0186,1","10152,1",,,,"01,1,+00540,1,08,1",,,"04,99,1,04,1,08,1,00450,1,00,1,00,1","999,N,+0221,1","9,9,999,9,-005,1",,"SYN082AAXX  10064 08583 32465 40807 10226 20186 40152 84800 333 20221 59005 81818 84625;",
"08583099999","2010-06-10T12:00:00","4","16.8333333","-25.05","20.0","MINDELO, CV","FM-12","99999","V020","070,1,N,0067,1","22000,1,9,N","015000,1,N,1","+0270,1","+0181,1","10161,1",,,,"02,1,+00600,1,06,1",,,"02,99,1,02,1,05,1,00450,1,00,1,00,1",,"9,9,999,9,-009,1",,"SYN070AAXX  10124 08583 32465 20713 10270 20181 40161 82500 333 59009 82620;",
"08583099999","2010-06-10T18:00:00","4","16.8333333","-25.05","20.0","MINDELO, CV","FM-12","99999","V020","040,1,N,0082,1","22000,1,9,N","018000,1,N,1","+0267,1","+0190,1","10151,1",,,,"04,1,+00660,1,06,1",,,"04,99,1,04,1,05,1,00450,1,00,1,00,1","120,M,+0282,1","9,9,999,9,+004,1",,"SYN076AAXX  10184 08583 32468 40416 10267 20190 40151 84500 333 10282 58004 84622;",
"08583099999","2010-06-11T00:00:00","4","16.8333333","-25.05","20.0","MINDELO, CV","FM-12","99999","V020","070,1,N,0062,1","22000,1,9,N","015000,1,N,1","+0235,1","+0191,1","10177,1",,,,"03,1,+00600,1,06,1",,,"03,99,1,03,1,05,1,00800,1,00,1,00,1",,"9,9,999,9,+008,1",,"SYN070AAXX  11004 08583 32565 30712 10235 20191 40177 83500 333 58008 83620;",
"08583099999","2010-06-11T06:00:00","4","16.8333333","-25.05","20.0","MINDELO, CV","FM-12","99999","V020","070,1,N,0062,1","22000,1,9,N","015000,1,N,1","+0228,1","+0191,1","10157,1",,,,"02,1,+00600,1,06,1",,,"02,99,1,99,9,05,1,00800,1,00,1,00,1","999,N,+0217,1","9,9,999,9,+005,1",,"SYN076AAXX  11064 08583 32565 20712 10228 20191 40157 83500 333 20217 58005 82620;","Q01+000032SCOTLC"
"08583099999","2010-06-11T12:00:00","4","16.8333333","-25.05","20.0","MINDELO, CV","FM-12","99999","V020","060,1,N,0098,1","22000,1,9,N","020000,1,N,1","+0278,1","+0193,1","10175,1",,,,"03,1,+00570,1,06,1",,,"03,99,1,03,1,05,1,00450,1,00,1,00,1",,"9,9,999,9,+014,1",,"SYN070AAXX  11124 08583 32470 30619 10278 20193 40175 83500 333 58014 83619;",
"08583099999","2010-06-11T18:00:00","4","16.8333333","-25.05","20.0","MINDELO, CV","FM-12","99999","V020","060,1,N,0113,1","22000,1,9,N","018000,1,N,1","+0267,1","+0188,1","10156,1",,,,"02,1,+00600,1,06,1",,,"04,99,1,02,1,05,1,00800,1,00,1,01,1","120,M,+0287,1","9,9,999,9,+005,1",,"SYN082AAXX  11184 08583 32568 40622 10267 20188 40156 82501 333 10287 58005 82620 83070;",
"08583099999","2010-06-12T00:00:00","4","16.8333333","-25.05","20.0","MINDELO, CV","FM-12","99999","V020","050,1,N,0077,1","22000,1,9,N","015000,1,N,1","+0238,1","+0201,1","10171,1",,,,"02,1,+00600,1,06,1",,,"02,99,1,02,1,05,1,00800,1,00,1,01,1",,"9,9,999,9,-006,1",,"SYN070AAXX  12004 08583 32565 20515 10238 20201 40171 82501 333 59006 82620;",
"08583099999","2010-06-12T06:00:00","4","16.8333333","-25.05","20.0","MINDELO, CV","FM-12","99999","V020","060,1,N,0062,1","22000,1,9,N","018000,1,N,1","+0232,1","+0193,1","10152,1",,,,"02,1,+00600,1,08,1",,,"02,99,1,02,1,01,1,00450,1,00,1,00,1","999,N,+0227,1","9,9,999,9,-005,1",,"SYN076AAXX  12064 08583 32468 20612 10232 20193 40152 82100 333 20227 59005 82820;",
"08583099999","2010-06-12T12:00:00","4","16.8333333","-25.05","20.0","MINDELO, CV","FM-12","99999","V020","060,1,N,0108,1","00510,1,9,N","018000,1,N,1","+0270,1","+0200,1","10169,1",,,,"05,1,+00510,1,06,1",,,"05,99,1,05,1,05,1,00450,1,00,1,00,1",,"9,9,999,9,-006,1",,"SYN070AAXX  12124 08583 32468 50621 10270 20200 40169 85500 333 59006 85617;",
"08583099999","2010-06-12T18:00:00","4","16.8333333","-25.05","20.0","MINDELO, CV","FM-12","99999","V020","060,1,N,0123,1","00540,1,9,N","015000,1,N,1","+0258,1","+0203,1","10145,1",,,,"05,1,+00540,1,06,1",,,"06,99,1,05,1,05,1,00450,1,03,1,00,1","120,M,+0283,1","9,9,999,9,-011,1",,"SYN076AAXX  12184 08583 32465 60624 10258 20203 40145 85530 333 10283 59011 85618;",
"08583099999","2010-06-13T00:00:00","4","16.8333333","-25.05","20.0","MINDELO, CV","FM-12","99999","V020","060,1,N,0108,1","22000,1,9,N","012000,1,N,1","+0237,1","+0197,1","10160,1",,,,"03,1,+00510,1,06,1",,,"03,99,1,03,1,05,1,00450,1,00,1,00,1",,"9,9,999,9,-011,1",,"SYN070AAXX  13004 08583 32462 30621 10237 20197 40160 83500 333 59011 83617;",
"08583099999","2010-06-13T06:00:00","4","16.8333333","-25.05","20.0","MINDELO, CV","FM-12","99999","V020","070,1,N,0098,1","22000,1,9,N","012000,1,N,1","+0232,1","+0198,1","10156,1",,,,"03,1,+00510,1,06,1",,,"03,99,1,03,1,05,1,00450,1,00,1,00,1","999,N,+0231,1","9,9,999,9,+004,1",,"SYN076AAXX  13064 08583 32462 30719 10232 20198 40156 83500 333 20231 58004 83617;",
"08583099999","2010-06-13T12:00:00","4","16.8333333","-25.05","20.0","MINDELO, CV","FM-12","99999","V020","060,1,N,0093,1","00900,1,C,N","012000,1,N,1","+0266,1","+0191,1","10169,1",,,,"03,1,+00510,1,06,1",,,"05,99,1,05,1,08,1,00450,1,00,1,00,1",,"9,9,999,9,+000,1",,"SYN076AAXX  13124 08583 32462 50618 10266 20191 40169 85800 333 58000 83617 83622;",
"08583099999","2010-06-13T18:00:00","4","16.8333333","-25.05","20.0","MINDELO, CV","FM-12","99999","V020","060,1,N,0082,1","00540,1,9,N","012000,1,N,1","+0270,1","+0193,1","10150,1",,,,"05,1,+00540,1,08,1",,,"05,99,1,05,1,02,1,00450,1,00,1,00,1","120,M,+0285,1","9,9,999,9,+005,1",,"SYN076AAXX  13184 08583 32462 50616 10270 20193 40150 85200 333 10285 58005 85818;",
"08583099999","2010-06-14T00:00:00","4","16.8333333","-25.05","20.0","MINDELO, CV","FM-12","99999","V020","060,1,N,0093,1","22000,1,9,N","012000,1,N,1","+0233,1","+0191,1","10172,1",,,,"04,1,+00540,1,06,1",,,"05,99,1,04,1,02,1,00450,1,00,1,01,1",,"9,9,999,9,+012,1",,"SYN070AAXX  14004 08583 32462 50618 10233 20191 40172 84201 333 58012 84618;",
"08583099999","2010-06-14T06:00:00","4","16.8333333","-25.05","20.0","MINDELO, CV","FM-12","99999","V020","070,1,N,0057,1","22000,1,9,N","012000,1,N,1","+0228,1","+0185,1","10170,1",,,,"02,1,+00600,1,06,1",,,"02,99,1,02,1,02,1,00800,1,00,1,01,1","999,N,+0227,1","9,9,999,9,+014,1",,"SYN076AAXX  14064 08583 32562 20711 10228 20185 40170 82201 333 20227 58014 82620;",
"08583099999","2010-06-14T12:00:00","4","16.8333333","-25.05","20.0","MINDELO, CV","FM-12","99999","V020","060,1,N,0108,1","22000,1,9,N","012000,1,N,1","+0270,1","+0180,1","10178,1",,,,"01,1,+00600,1,08,1",,,"01,99,1,01,1,01,1,00800,1,03,1,00,1",,"9,9,999,9,+009,1",,"SYN070AAXX  14124 08583 32562 10621 10270 20180 40178 81130 333 58009 81820;",
"08583099999","2010-06-14T18:00:00","4","16.8333333","-25.05","20.0","MINDELO, CV","FM-12","99999","V020","060,1,N,0098,1","22000,1,9,N","015000,1,N,1","+0263,1","+0180,1","10164,1",,,,"02,1,+00600,1,06,1",,,"04,99,1,02,1,05,1,00800,1,00,1,01,1","120,M,+0285,1","9,9,999,9,+014,1",,"SYN082AAXX  14184 08583 32565 40619 10263 20180 40164 82501 333 10285 58014 82620 84070;",
"08583099999","2010-06-15T00:00:00","4","16.8333333","-25.05","20.0","MINDELO, CV","FM-12","99999","V020","050,1,N,0067,1","22000,1,9,N","015000,1,N,1","+0230,1","+0177,1","10184,1",,,,"03,1,+00600,1,06,1",,,"03,99,1,03,1,05,1,00450,1,00,1,01,1",,"9,9,999,9,+012,1",,"SYN070AAXX  15004 08583 32465 30513 10230 20177 40184 83501 333 58012 83620;",
"08583099999","2010-06-15T06:00:00","4","16.8333333","-25.05","20.0","MINDELO, CV","FM-12","99999","V020","080,1,N,0087,1","22000,1,9,N","015000,1,N,1","+0222,1","+0178,1","10171,1",,,,"02,1,+00600,1,06,1",,,"02,99,1,02,1,05,1,00800,1,00,1,00,1","999,N,+0222,1","9,9,999,9,+001,1",,"SYN076AAXX  15064 08583 32565 20817 10222 20178 40171 82500 333 20222 58001 82620;",
"08583099999","2010-06-15T12:00:00","4","16.8333333","-25.05","20.0","MINDELO, CV","FM-12","99999","V020","050,1,N,0108,1","22000,1,9,N","015000,1,N,1","+0267,1","+0171,1","10183,1",,,,"02,1,+00600,1,06,1",,,"04,99,1,02,1,05,1,00800,1,00,1,01,1",,"9,9,999,9,+005,1",,"SYN076AAXX  15124 08583 32565 40521 10267 20171 40183 82501 333 58005 82620 84070;",
"08583099999","2010-06-15T18:00:00","4","16.8333333","-25.05","20.0","MINDELO, CV","FM-12","99999","V020","050,1,N,0098,1","22000,1,9,N","020000,1,N,1","+0266,1","+0175,1","10170,1",,,,"02,1,+00660,1,06,1",,,"02,99,1,02,1,05,1,00800,1,00,1,00,1","120,M,+0282,1","9,9,999,9,+006,1",,"SYN076AAXX  15184 08583 32570 20519 10266 20175 40170 82500 333 10282 58006 82622;",
"08583099999","2010-06-16T00:00:00","4","16.8333333","-25.05","20.0","MINDELO, CV","FM-12","99999","V020","070,1,N,0067,1","22000,1,9,N","018000,1,N,1","+0231,1","+0180,1","10187,1",,,,"02,1,+00600,1,06,1",,,"02,99,1,02,1,05,1,00800,1,00,1,00,1",,"9,9,999,9,+003,1",,"SYN070AAXX  16004 08583 32568 20713 10231 20180 40187 82500 333 58003 82620;",
"08583099999","2010-06-16T06:00:00","4","16.8333333","-25.05","20.0","MINDELO, CV","FM-12","99999","V020","060,1,N,0067,1","22000,1,9,N","015000,1,N,1","+0230,1","+0181,1","10168,1",,,,"02,1,+00600,1,06,1",,,"03,99,1,02,1,05,1,00800,1,00,1,01,1","999,N,+0222,1","9,9,999,9,-003,1",,"SYN076AAXX  16064 08583 32565 30613 10230 20181 40168 82501 333 20222 59003 82620;",
"08583099999","2010-06-16T12:00:00","4","16.8333333","-25.05","20.0","MINDELO, CV","FM-12","99999","V020","050,1,N,0087,1","22000,1,9,N","020000,1,N,1","+0270,1","+0168,1","10181,1",,,,"04,1,+00660,1,06,1",,,"04,99,1,04,1,05,1,00800,1,00,1,00,1",,"9,9,999,9,-002,1",,"SYN070AAXX  16124 08583 32570 40517 10270 20168 40181 84500 333 59002 84622;",
"08583099999","2010-06-16T18:00:00","4","16.8333333","-25.05","20.0","MINDELO, CV","FM-12","99999","V020","060,1,N,0082,1","22000,1,9,N","025000,1,N,1","+0263,1","+0165,1","10168,1",,,,"02,1,+00660,1,06,1",,,"02,99,1,02,1,05,1,00800,1,00,1,00,1","120,M,+0281,1","9,9,999,9,-002,1",,"SYN076AAXX  16184 08583 32575 20616 10263 20165 40168 82500 333 10281 59002 82622;",
"08583099999","2010-06-17T00:00:00","4","16.8333333","-25.05","20.0","MINDELO, CV","FM-12","99999","V020","060,1,N,0072,1","22000,1,9,N","020000,1,N,1","+0227,1","+0170,1","10180,1",,,,"01,1,+00600,1,06,1",,,"01,99,1,01,1,05,1,00800,1,00,1,00,1",,"9,9,999,9,-007,1",,"SYN070AAXX  17004 08583 32570 10614 10227 20170 40180 81500 333 59007 81620;",
"08583099999","2010-06-17T06:00:00","4","16.8333333","-25.05","20.0","MINDELO, CV","FM-12","99999","V020","040,1,N,0072,1","22000,1,9,N","020000,1,N,1","+0225,1","+0177,1","10165,1",,,,"02,1,+00600,1,06,1",,,"02,99,1,02,1,05,1,00450,1,00,1,00,1","999,N,+0220,1","9,9,999,9,-003,1",,"SYN076AAXX  17064 08583 32470 20414 10225 20177 40165 82500 333 20220 59003 82620;",
"08583099999","2010-06-17T12:00:00","4","16.8333333","-25.05","20.0","MINDELO, CV","FM-12","99999","V020","070,1,N,0082,1","22000,1,9,N","020000,1,N,1","+0263,1","+0171,1","10176,1",,,,"04,1,+00660,1,06,1",,,"04,99,1,04,1,05,1,00800,1,00,1,00,1",,"9,9,999,9,-005,1",,"SYN070AAXX  17124 08583 32570 40716 10263 20171 40176 84500 333 59005 84622;",
"08583099999","2010-06-17T18:00:00","4","16.8333333","-25.05","20.0","MINDELO, CV","FM-12","99999","V020","060,1,N,0118,1","22000,1,9,N","025000,1,N,1","+0263,1","+0172,1","10146,1",,,,"02,1,+00660,1,06,1",,,"02,99,1,02,1,05,1,00800,1,00,1,00,1","120,M,+0278,1","9,9,999,9,-022,1",,"SYN076AAXX  17184 08583 32575 20623 10263 20172 40146 82500 333 10278 59022 82622;",
"08583099999","2010-06-18T00:00:00","4","16.8333333","-25.05","20.0","MINDELO, CV","FM-12","99999","V020","070,1,N,0057,1","22000,1,9,N","025000,1,N,1","+0228,1","+0173,1","10176,1",,,,"03,1,+00660,1,06,1",,,"03,99,1,03,1,05,1,00800,1,00,1,00,1",,"9,9,999,9,-004,1",,"SYN070AAXX  18004 08583 32575 30711 10228 20173 40176 83500 333 59004 83622;",
"08583099999","2010-06-18T12:00:00","4","16.8333333","-25.05","20.0","MINDELO, CV","FM-12","99999","V020","060,1,N,0108,1","22000,1,9,N","020000,1,N,1","+0270,1","+0176,1","10176,1",,,,"02,1,+00660,1,06,1",,,"02,99,1,02,1,05,1,00800,1,00,1,00,1",,"9,9,999,9,+000,1",,"SYN070AAXX  18124 08583 32570 20621 10270 20176 40176 82500 333 58000 82622;",
"08583099999","2010-06-18T18:00:00","4","16.8333333","-25.05","20.0","MINDELO, CV","FM-12","99999","V020","060,1,N,0118,1","22000,1,9,N","020000,1,N,1","+0265,1","+0168,1","10156,1",,,,"01,1,+00660,1,08,1",,,"01,99,1,01,1,08,1,00800,1,00,1,00,1","120,M,+0280,1","9,9,999,9,+010,1",,"SYN076AAXX  18184 08583 32570 10623 10265 20168 40156 81800 333 10280 58010 81822;",
"08583099999","2010-06-19T00:00:00","4","16.8333333","-25.05","20.0","MINDELO, CV","FM-12","99999","V020","070,1,N,0103,1","22000,1,9,N","018000,1,N,1","+0230,1","+0180,1","10161,1",,,,"02,1,+00600,1,06,1",,,"02,99,1,02,1,05,1,00800,1,00,1,00,1",,"9,9,999,9,-015,1",,"SYN070AAXX  19004 08583 32568 20720 10230 20180 40161 82500 333 59015 82620;",
"08583099999","2010-06-19T06:00:00","4","16.8333333","-25.05","20.0","MINDELO, CV","FM-12","99999","V020","060,1,N,0077,1","22000,1,9,N","018000,1,N,1","+0227,1","+0190,1","10137,1",,,,"02,1,+00600,1,06,1",,,"02,99,1,02,1,05,1,00800,1,00,1,00,1","999,N,+0220,1","9,9,999,9,-026,1",,"SYN076AAXX  19064 08583 32568 20615 10227 20190 40137 82500 333 20220 59026 82620;",
"08583099999","2010-06-19T12:00:00","4","16.8333333","-25.05","20.0","MINDELO, CV","FM-12","99999","V020","060,1,N,0144,1","22000,1,9,N","015000,1,N,1","+0272,1","+0182,1","10140,1",,,,"01,1,+00600,1,08,1",,,"01,99,1,01,1,01,1,00800,1,00,1,00,1",,"9,9,999,9,-036,1",,"SYN070AAXX  19124 08583 32565 10628 10272 20182 40140 81100 333 59036 81820;",
"08583099999","2010-06-19T18:00:00","4","16.8333333","-25.05","20.0","MINDELO, CV","FM-12","99999","V020","060,1,N,0108,1","22000,1,9,N","015000,1,N,1","+0266,1","+0193,1","10128,1",,,,"02,1,+00600,1,06,1",,,"02,99,1,02,1,05,1,00800,1,00,1,00,1","120,M,+0285,1","9,9,999,9,-028,1",,"SYN076AAXX  19184 08583 32565 20621 10266 20193 40128 82500 333 10285 59028 82620;",
"08583099999","2010-06-20T00:00:00","4","16.8333333","-25.05","20.0","MINDELO, CV","FM-12","99999","V020","060,1,N,0113,1","22000,1,9,N","010000,1,N,1","+0235,1","+0195,1","10138,1",,,,"01,1,+00600,1,06,1",,,"01,99,1,01,1,05,1,00800,1,00,1,00,1",,"9,9,999,9,-023,1",,"SYN070AAXX  20004 08583 32560 10622 10235 20195 40138 81500 333 59023 81620;",
"08583099999","2010-06-20T06:00:00","4","16.8333333","-25.05","20.0","MINDELO, CV","FM-12","99999","V020","070,1,N,0098,1","22000,1,9,N","010000,1,N,1","+0231,1","+0191,1","10123,1",,,,"01,1,+00540,1,06,1",,,"01,99,1,01,1,05,1,00450,1,00,1,00,1","999,N,+0230,1","9,9,999,9,-037,1",,"SYN076AAXX  20064 08583 32460 10719 10231 20191 40123 81500 333 20230 59037 81618;",
"08583099999","2010-06-20T12:00:00","4","16.8333333","-25.05","20.0","MINDELO, CV","FM-12","99999","V020","070,1,N,0129,1","22000,1,9,N","012000,1,N,1","+0300,1","+0105,1","10129,1",,,,"02,1,+00600,1,06,1",,,"02,99,1,02,1,05,1,00800,1,00,1,00,1",,"9,9,999,9,-011,1",,"SYN070AAXX  20124 08583 32562 20725 10300 20105 40129 82500 333 59011 82620;",
"08583099999","2010-06-20T18:00:00","4","16.8333333","-25.05","20.0","MINDELO, CV","FM-12","99999","V020","050,1,N,0149,1","22000,1,9,N","008000,1,N,1","+0267,1","+0193,1","10105,1",,"1,1,06,1","0,1,06,1","03,1,+00510,1,06,1",,,"04,99,1,03,1,05,1,00450,1,00,1,02,1","120,M,+0310,1","9,9,999,9,-023,1","06,1","SYN088AAXX  20184 08583 31458 40529 10267 20193 40105 70610 83502 333 10310 59023 83617 84070;",
"08583099999","2010-06-21T00:00:00","4","16.8333333","-25.05","20.0","MINDELO, CV","FM-12","99999","V020","050,1,N,0185,1","22000,1,9,N","007000,1,N,1","+0238,1","+0203,1","10119,1",,"1,1,06,1","1,1,06,1","03,1,+00510,1,06,1",,,"03,99,1,03,1,05,1,00450,1,00,1,01,1",,"9,9,999,9,-019,1","06,1","SYN076AAXX  21004 08583 31457 30536 10238 20203 40119 70611 83501 333 59019 83617;",
"08583099999","2010-06-21T06:00:00","4","16.8333333","-25.05","20.0","MINDELO, CV","FM-12","99999","V020","060,1,N,0123,1","22000,1,9,N","007000,1,N,1","+0232,1","+0195,1","10130,1",,"2,1,06,1","2,1,06,1","03,1,+00510,1,06,1",,,"04,99,1,03,1,05,1,00450,1,00,1,01,1","999,N,+0230,1","9,9,999,9,+007,1","06,1","SYN082AAXX  21064 08583 31457 40624 10232 20195 40130 70622 83501 333 20230 58007 83617;",
"08583099999","2010-06-21T12:00:00","4","16.8333333","-25.05","20.0","MINDELO, CV","FM-12","99999","V020","050,1,N,0118,1","22000,1,9,N","007000,1,N,1","+0275,1","+0202,1","10151,1",,"2,1,06,1","1,1,06,1","03,1,+00540,1,06,1",,,"03,99,1,03,1,05,1,00450,1,00,1,00,1",,"9,9,999,9,+007,1","06,1","SYN076AAXX  21124 08583 31457 30523 10275 20202 40151 70621 83500 333 58007 83618;",
"08583099999","2010-06-21T18:00:00","4","16.8333333","-25.05","20.0","MINDELO, CV","FM-12","99999","V020","050,1,N,0113,1","22000,1,9,N","008000,1,N,1","+0273,1","+0205,1","10143,1",,"0,1,06,1","0,1,06,1","01,1,+00540,1,06,1",,,"03,99,1,01,1,05,1,00450,1,03,1,00,1","120,M,+0291,1","9,9,999,9,+038,1","06,1","SYN088AAXX  21184 08583 31458 30522 10273 20205 40143 70600 81530 333 10291 58038 81618 83360;",
"08583099999","2010-06-22T00:00:00","4","16.8333333","-25.05","20.0","MINDELO, CV","FM-12","99999","V020","060,1,N,0087,1","22000,1,9,N","008000,1,N,1","+0238,1","+0203,1","10166,1",,"0,1,06,1","0,1,06,1","01,1,+00510,1,06,1",,,"02,99,1,01,1,05,1,00450,1,03,1,00,1",,"9,9,999,9,+047,1","06,1","SYN076AAXX  22004 08583 31458 20617 10238 20203 40166 70600 81530 333 58047 81617;",
"08583099999","2010-06-22T06:00:00","4","16.8333333","-25.05","20.0","MINDELO, CV","FM-12","99999","V020","050,1,N,0103,1","22000,1,9,N","008000,1,N,1","+0231,1","+0196,1","10145,1",,"0,1,06,1","0,1,06,1","02,1,+00510,1,06,1",,,"02,99,1,02,1,05,1,00450,1,00,1,00,1","999,N,+0230,1","9,9,999,9,+015,1","06,1","SYN082AAXX  22064 08583 31458 20520 10231 20196 40145 70600 82500 333 20230 58015 82617;",
"08583099999","2010-06-22T12:00:00","4","16.8333333","-25.05","20.0","MINDELO, CV","FM-12","99999","V020","070,1,N,0144,1","04500,1,C,N","009000,1,N,1","+0265,1","+0190,1","10161,1",,"2,1,06,1","2,1,06,1","02,1,+00510,1,06,1",,,"07,99,1,02,1,05,1,00450,1,03,1,00,1",,"9,9,999,9,+010,1","06,1","SYN082AAXX  22124 08583 31459 70728 10265 20190 40161 70622 82530 333 58010 82617 86360;",
"08583099999","2010-06-22T18:00:00","4","16.8333333","-25.05","20.0","MINDELO, CV","FM-12","99999","V020","060,1,N,0129,1","22000,1,9,N","010000,1,N,1","+0262,1","+0182,1","10141,1",,,,"02,1,+00540,1,06,1",,,"02,99,1,02,1,05,1,00450,1,00,1,00,1","120,M,+0282,1","9,9,999,9,-002,1",,"SYN076AAXX  22184 08583 32460 20625 10262 20182 40141 82500 333 10282 59002 82618;",
"08583099999","2010-06-23T00:00:00","4","16.8333333","-25.05","20.0","MINDELO, CV","FM-12","99999","V020","060,1,N,0098,1","22000,1,9,N","010000,1,N,1","+0232,1","+0177,1","10171,1",,,,"02,1,+00540,1,06,1",,,"02,99,1,02,1,05,1,00450,1,00,1,00,1",,"9,9,999,9,+005,1",,"SYN070AAXX  23004 08583 32460 20619 10232 20177 40171 82500 333 58005 82618;",
"08583099999","2010-06-23T06:00:00","4","16.8333333","-25.05","20.0","MINDELO, CV","FM-12","99999","V020","060,1,N,0098,1","22000,1,9,N","010000,1,N,1","+0227,1","+0170,1","10140,1",,,,"03,1,+00540,1,06,1",,,"03,99,1,03,1,05,1,00450,1,00,1,00,1","999,N,+0225,1","9,9,999,9,-005,1",,"SYN076AAXX  23064 08583 32460 30619 10227 20170 40140 83500 333 20225 59005 83618;",
"08583099999","2010-06-23T12:00:00","4","16.8333333","-25.05","20.0","MINDELO, CV","FM-12","99999","V020","060,1,N,0118,1","22000,1,9,N","012000,1,N,1","+0266,1","+0170,1","10156,1",,,,"01,1,+00600,1,06,1",,,"01,99,1,01,1,05,1,00800,1,00,1,00,1",,"9,9,999,9,-005,1",,"SYN070AAXX  23124 08583 32562 10623 10266 20170 40156 81500 333 59005 81620;",
"08583099999","2010-06-23T18:00:00","4","16.8333333","-25.05","20.0","MINDELO, CV","FM-12","99999","V020","060,1,N,0118,1","22000,1,9,N","012000,1,N,1","+0266,1","+0170,1","10156,1",,,,"01,1,+00600,1,06,1",,,"01,99,1,01,1,05,1,00800,1,00,1,00,1",,"9,9,999,9,-005,1",,"SYN070AAXX  23184 08583 32562 10623 10266 20170 40156 81500 333 59005 81620;",
"08583099999","2010-06-24T00:00:00","4","16.8333333","-25.05","20.0","MINDELO, CV","FM-12","99999","V020","060,1,N,0103,1","22000,1,9,N","015000,1,N,1","+0228,1","+0177,1","10162,1",,,,"02,1,+00600,1,06,1",,,"03,99,1,02,1,05,1,00800,1,00,1,01,1",,"9,9,999,9,-009,1",,"SYN070AAXX  24004 08583 32565 30620 10228 20177 40162 82501 333 59009 82620;",
"08583099999","2010-06-24T12:00:00","4","16.8333333","-25.05","20.0","MINDELO, CV","FM-12","99999","V020","070,1,N,0118,1","22000,1,9,N","018000,1,N,1","+0270,1","+0163,1","10175,1",,,,"01,1,+00660,1,08,1",,,"03,99,1,01,1,01,1,00800,1,03,1,01,1",,"9,9,999,9,+009,1",,"SYN070AAXX  24124 08583 32568 30723 10270 20163 40175 81131 333 58009 81822;",
"08583099999","2010-06-24T18:00:00","4","16.8333333","-25.05","20.0","MINDELO, CV","FM-12","99999","V020","060,1,N,0098,1","22000,1,C,N","018000,1,N,1","+0265,1","+0165,1","10145,1",,,,"02,1,+00660,1,06,1",,,"06,99,1,02,1,05,1,00800,1,00,1,01,1","120,M,+0278,1","9,9,999,9,+002,1",,"SYN082AAXX  24184 08583 32568 60619 10265 20165 40145 82501 333 10278 58002 82622 85070;",
"08583099999","2010-06-25T00:00:00","4","16.8333333","-25.05","20.0","MINDELO, CV","FM-12","99999","V020","070,1,N,0082,1","99999,9,9,N","015000,1,N,1","+0231,1","+0187,1","10165,1",,,,"03,1,+00690,1,06,1",,,"06,99,1,03,1,05,1,00800,1,00,1,00,1",,"9,9,999,9,+003,1",,"SYN070AAXX  25004 08583 32565 60716 10231 20187 40165 83500 333 58003 83623;",
"08583099999","2010-06-25T12:00:00","4","16.8333333","-25.05","20.0","MINDELO, CV","FM-12","99999","V020","080,1,N,0062,1","01200,1,C,N","012000,1,N,1","+0263,1","+0185,1","10171,1",,,,"04,1,+00510,1,08,1",,,"05,99,1,05,1,08,1,00800,1,00,1,00,1",,"9,9,999,9,-004,1",,"SYN076AAXX  25124 08583 32562 50812 10263 20185 40171 85800 333 59004 84817 84624;",
"08583099999","2010-06-25T18:00:00","4","16.8333333","-25.05","20.0","MINDELO, CV","FM-12","99999","V020","030,1,N,0077,1","22000,1,9,N","012000,1,N,1","+0263,1","+0195,1","10152,1",,,,"04,1,+00660,1,08,1",,,"04,99,1,04,1,08,1,00800,1,00,1,00,1","120,M,+0286,1","9,9,999,9,+005,1",,"SYN076AAXX  25184 08583 32562 40315 10263 20195 40152 84800 333 10286 58005 84822;",
"08583099999","2010-06-26T00:00:00","4","16.8333333","-25.05","20.0","MINDELO, CV","FM-12","99999","V020","060,1,N,0051,1","22000,1,9,N","010000,1,N,1","+0236,1","+0200,1","10168,1",,,,"03,1,+00540,1,06,1",,,"03,99,1,03,1,05,1,00450,1,00,1,00,1",,"9,9,999,9,+003,1",,"SYN070AAXX  26004 08583 32460 30610 10236 20200 40168 83500 333 58003 83618;",
"08583099999","2010-06-26T06:00:00","4","16.8333333","-25.05","20.0","MINDELO, CV","FM-12","99999","V020","060,1,N,0046,1","22000,1,9,N","010000,1,N,1","+0228,1","+0201,1","10140,1",,,,"02,1,+00540,1,06,1",,,"02,99,1,02,1,05,1,00450,1,00,1,00,1","999,N,+0225,1","9,9,999,9,-013,1",,"SYN076AAXX  26064 08583 32460 20609 10228 20201 40140 82500 333 20225 59013 82618;",
"08583099999","2010-06-26T12:00:00","4","16.8333333","-25.05","20.0","MINDELO, CV","FM-12","99999","V020","040,1,N,0067,1","00900,1,C,N","012000,1,N,1","+0266,1","+0192,1","10162,1",,,,"01,1,+00540,1,08,1",,,"05,99,1,05,1,08,1,00450,1,00,1,00,1",,"9,9,999,9,-007,1",,"SYN076AAXX  26124 08583 32462 50413 10266 20192 40162 85800 333 59007 81818 85622;",
"08583099999","2010-06-26T18:00:00","4","16.8333333","-25.05","20.0","MINDELO, CV","FM-12","99999","V020","060,1,N,0093,1","22000,1,9,N","012000,1,N,1","+0265,1","+0187,1","10143,1",,,,"02,1,+00600,1,06,1",,,"02,99,1,02,1,05,1,00800,1,00,1,00,1","120,M,+0285,1","9,9,999,9,-009,1",,"SYN076AAXX  26184 08583 32562 20618 10265 20187 40143 82500 333 10285 59009 82620;",
"08583099999","2010-06-27T00:00:00","4","16.8333333","-25.05","20.0","MINDELO, CV","FM-12","99999","V020","060,1,N,0057,1","22000,1,9,N","010000,1,N,1","+0235,1","+0195,1","10169,1",,,,"03,1,+00540,1,06,1",,,"03,99,1,03,1,05,1,00450,1,00,1,00,1",,"9,9,999,9,+001,1",,"SYN070AAXX  27004 08583 32460 30611 10235 20195 40169 83500 333 58001 83618;",
"08583099999","2010-06-27T06:00:00","4","16.8333333","-25.05","20.0","MINDELO, CV","FM-12","99999","V020","050,1,N,0051,1","22000,1,9,N","012000,1,N,1","+0230,1","+0196,1","10143,1",,,,"02,1,+00540,1,06,1",,,"03,99,1,02,1,05,1,00450,1,00,1,01,1","999,N,+0225,1","9,9,999,9,+003,1",,"SYN076AAXX  27064 08583 32462 30510 10230 20196 40143 82501 333 20225 58003 82618;",
"08583099999","2010-06-27T12:00:00","4","16.8333333","-25.05","20.0","MINDELO, CV","FM-12","99999","V020","060,1,N,0103,1","22000,1,9,N","012000,1,N,1","+0271,1","+0195,1","10151,1",,,,"02,1,+00540,1,06,1",,,"03,99,1,02,1,05,1,00450,1,00,1,01,1",,"9,9,999,9,-011,1",,"SYN070AAXX  27124 08583 32462 30620 10271 20195 40151 82501 333 59011 82618;",
"08583099999","2010-06-27T18:00:00","4","16.8333333","-25.05","20.0","MINDELO, CV","FM-12","99999","V020","060,1,N,0144,1","22000,1,9,N","012000,1,N,1","+0266,1","+0196,1","10130,1",,,,"02,1,+00540,1,06,1",,,"03,99,1,02,1,05,1,00450,1,00,1,01,1","120,M,+0283,1","9,9,999,9,-013,1",,"SYN076AAXX  27184 08583 32462 30628 10266 20196 40130 82501 333 10283 59013 82618;",
"08583099999","2010-06-28T00:00:00","4","16.8333333","-25.05","20.0","MINDELO, CV","FM-12","99999","V020","060,1,N,0129,1","10500,1,C,N","010000,1,N,1","+0236,1","+0193,1","10155,1",,,,"02,1,+00540,1,06,1",,,"05,99,1,02,1,05,1,00450,1,03,1,01,1",,"9,9,999,9,-014,1",,"SYN076AAXX  28004 08583 32460 50625 10236 20193 40155 82531 333 59014 82618 85360;",
"08583099999","2010-06-28T06:00:00","4","16.8333333","-25.05","20.0","MINDELO, CV","FM-12","99999","V020","060,1,N,0159,1","00900,1,C,N","010000,1,N,1","+0231,1","+0195,1","10127,1",,,,"03,1,+00540,1,06,1",,,"07,99,1,07,1,08,1,00450,1,99,9,99,9","999,N,+0227,1","9,9,999,9,-006,1",,"SYN082AAXX  28064 08583 32460 70631 10231 20195 40127 878// 333 20227 59006 83618 86622;",
"08583099999","2010-06-28T12:00:00","4","16.8333333","-25.05","20.0","MINDELO, CV","FM-12","99999","V020","060,1,N,0175,1","22000,1,9,N","010000,1,N,1","+0263,1","+0196,1","10131,1",,,,"02,1,+00540,1,06,1",,,"04,99,1,03,1,08,1,00450,1,03,1,01,1",,"9,9,999,9,-020,1",,"SYN070AAXX  28124 08583 32460 40634 10263 20196 40131 83831 333 59020 82618;",
"08583099999","2010-06-28T18:00:00","4","16.8333333","-25.05","20.0","MINDELO, CV","FM-12","99999","V020","060,1,N,0170,1","22000,1,9,N","010000,1,N,1","+0260,1","+0195,1","10117,1",,,,"02,1,+00540,1,08,1",,,"02,99,1,02,1,02,1,00450,1,00,1,00,1","120,M,+0283,1","9,9,999,9,-013,1",,"SYN076AAXX  28184 08583 32460 20633 10260 20195 40117 82200 333 10283 59013 82818;",
"08583099999","2010-06-29T00:00:00","4","16.8333333","-25.05","20.0","MINDELO, CV","FM-12","99999","V020","060,1,N,0154,1","22000,1,9,N","010000,1,N,1","+0235,1","+0191,1","10151,1",,,,"02,1,+00510,1,06,1",,,"04,99,1,02,1,05,1,00450,1,03,1,01,1",,"9,9,999,9,-004,1",,"SYN070AAXX  29004 08583 32460 40630 10235 20191 40151 82531 333 59004 82617;",
"08583099999","2010-06-29T12:00:00","4","16.8333333","-25.05","20.0","MINDELO, CV","FM-12","99999","V020","060,1,N,0139,1","22000,1,9,N","010000,1,N,1","+0268,1","+0188,1","10149,1",,,,"01,1,+00540,1,08,1",,,"01,99,1,01,1,01,1,00450,1,00,1,00,1",,"9,9,999,9,+018,1",,"SYN070AAXX  29124 08583 32460 10627 10268 20188 40149 81100 333 58018 81818;",
"08583099999","2010-06-29T18:00:00","4","16.8333333","-25.05","20.0","MINDELO, CV","FM-12","99999","V020","070,1,N,0118,1","22000,1,9,N","010000,1,N,1","+0265,1","+0198,1","10144,1",,,,"03,1,+00540,1,06,1",,,"03,99,1,03,1,05,1,00450,1,00,1,00,1","120,M,+0280,1","9,9,999,9,+027,1",,"SYN076AAXX  29184 08583 32460 30723 10265 20198 40144 83500 333 10280 58027 83618;",
"08583099999","2010-06-30T00:00:00","4","16.8333333","-25.05","20.0","MINDELO, CV","FM-12","99999","V020","060,1,N,0098,1","22000,1,9,N","012000,1,N,1","+0236,1","+0201,1","10171,1",,,,"03,1,+00480,1,06,1",,,"04,99,1,03,1,05,1,00450,1,03,1,01,1",,"9,9,999,9,+020,1",,"SYN076AAXX  30004 08583 32462 40619 10236 20201 40171 83531 333 58020 83616 83360;",
"08583099999","2010-06-30T06:00:00","4","16.8333333","-25.05","20.0","MINDELO, CV","FM-12","99999","V020","060,1,N,0077,1","04500,1,C,N","010000,1,N,1","+0231,1","+0202,1","10159,1",,,,"02,1,+00480,1,06,1",,,"06,99,1,02,1,05,1,00450,1,03,1,99,9","999,N,+0231,1","9,9,999,9,+023,1",,"SYN082AAXX  30064 08583 32460 60615 10231 20202 40159 8253/ 333 20231 58023 82616 86360;",
"08583099999","2010-06-30T12:00:00","4","16.8333333","-25.05","20.0","MINDELO, CV","FM-12","99999","V020","050,1,N,0098,1","04500,1,C,N","009000,1,N,1","+0270,1","+0203,1","10175,1",,"2,1,06,1","2,1,06,1","03,1,+00510,1,06,1",,,"06,99,1,03,1,05,1,00450,1,03,1,00,1",,"9,9,999,9,+026,1","06,1","SYN082AAXX  30124 08583 31459 60519 10270 20203 40175 70622 83530 333 58026 83617 85360;",
"08583099999","2010-06-30T18:00:00","4","16.8333333","-25.05","20.0","MINDELO, CV","FM-12","99999","V020","040,1,N,0072,1","10500,1,9,N","011000,1,N,1","+0277,1","+0203,1","10155,1",,,,"01,1,+00510,1,06,1",,,"05,99,1,01,1,05,1,00450,1,03,1,02,1","120,M,+0295,1","9,9,999,9,+009,1",,"SYN082AAXX  30184 08583 32461 50414 10277 20203 40155 81532 333 10295 58009 81617 83360;",
"08583099999","2010-07-01T00:00:00","4","16.8333333","-25.05","20.0","MINDELO, CV","FM-12","99999","V020","060,1,N,0082,1","22000,1,9,N","010000,1,N,1","+0241,1","+0205,1","10173,1",,,,"02,1,+00480,1,06,1",,,"04,99,1,02,1,05,1,00450,1,00,1,01,1",,"9,9,999,9,+002,1",,"SYN076AAXX  01004 08583 32460 40616 10241 20205 40173 82501 333 58002 82616 83070;",
"08583099999","2010-07-01T06:00:00","4","16.8333333","-25.05","20.0","MINDELO, CV","FM-12","99999","V020","050,1,N,0087,1","04500,1,C,N","010000,1,N,1","+0237,1","+0200,1","10157,1",,,,"03,1,+00510,1,06,1",,,"06,99,1,03,1,05,1,00450,1,03,1,01,1","999,N,+0231,1","9,9,999,9,-002,1",,"SYN082AAXX  01064 08583 32460 60517 10237 20200 40157 83531 333 20231 59002 83617 84360;",
"08583099999","2010-07-01T12:00:00","4","16.8333333","-25.05","20.0","MINDELO, CV","FM-12","99999","V020","050,1,N,0108,1","22000,1,9,N","012000,1,N,1","+0277,1","+0198,1","10169,1",,,,"01,1,+00480,1,06,1",,,"03,99,1,01,1,05,1,00450,1,03,1,00,1",,"9,9,999,9,-006,1",,"SYN076AAXX  01124 08583 32462 30521 10277 20198 40169 81530 333 59006 81616 83360;",
"08583099999","2010-07-01T18:00:00","4","16.8333333","-25.05","20.0","MINDELO, CV","FM-12","99999","V020","070,1,N,0103,1","22000,1,9,N","012000,1,N,1","+0270,1","+0201,1","10145,1",,,,"02,1,+00480,1,06,1",,,"04,99,1,02,1,05,1,00450,1,03,1,01,1","120,M,+0298,1","9,9,999,9,-010,1",,"SYN082AAXX  01184 08583 32462 40720 10270 20201 40145 82531 333 10298 59010 82616 84360;",
"08583099999","2010-07-02T00:00:00","4","16.8333333","-25.05","20.0","MINDELO, CV","FM-12","99999","V020","060,1,N,0098,1","22000,1,9,N","010000,1,N,1","+0240,1","+0208,1","10160,1",,,,"02,1,+00480,1,06,1",,,"02,99,1,02,1,05,1,00450,1,00,1,00,1",,"9,9,999,9,-013,1",,"SYN070AAXX  02004 08583 32460 20619 10240 20208 40160 82500 333 59013 82616;",
"08583099999","2010-07-02T06:00:00","4","16.8333333","-25.05","20.0","MINDELO, CV","FM-12","99999","V020","060,1,N,0123,1","22000,1,9,N","010000,1,N,1","+0238,1","+0208,1","10126,1",,,,"01,1,+00510,1,06,1",,,"01,99,1,01,1,05,1,00450,1,00,1,00,1","999,N,+0235,1","9,9,999,9,-031,1",,"SYN076AAXX  02064 08583 32460 10624 10238 20208 40126 81500 333 20235 59031 81617;",
"08583099999","2010-07-02T12:00:00","4","16.8333333","-25.05","20.0","MINDELO, CV","FM-12","99999","V020","060,1,N,0123,1","22000,1,9,N","010000,1,N,1","+0273,1","+0202,1","10143,1",,,,"02,1,+00480,1,06,1",,,"02,99,1,02,1,05,1,00450,1,00,1,00,1",,"9,9,999,9,-001,1",,"SYN070AAXX  02124 08583 32460 20624 10273 20202 40143 82500 333 59001 82616;",
"08583099999","2010-07-02T18:00:00","4","16.8333333","-25.05","20.0","MINDELO, CV","FM-12","99999","V020","060,1,N,0149,1","22000,1,9,N","009000,1,N,1","+0266,1","+0203,1","10120,1",,"0,1,06,1","0,1,06,1","02,1,+00510,1,06,1",,,"02,99,1,02,1,05,1,00450,1,00,1,00,1","120,M,+0295,1","9,9,999,9,-025,1","06,1","SYN082AAXX  02184 08583 31459 20629 10266 20203 40120 70600 82500 333 10295 59025 82617;",
"08583099999","2010-07-03T00:00:00","4","16.8333333","-25.05","20.0","MINDELO, CV","FM-12","99999","V020","060,1,N,0139,1","22000,1,9,N","010000,1,N,1","+0238,1","+0202,1","10138,1",,,,"02,1,+00480,1,06,1",,,"02,99,1,02,1,05,1,00450,1,00,1,00,1",,"9,9,999,9,-022,1",,"SYN070AAXX  03004 08583 32460 20627 10238 20202 40138 82500 333 59022 82616;",
"08583099999","2010-07-03T06:00:00","4","16.8333333","-25.05","20.0","MINDELO, CV","FM-12","99999","V020","080,1,N,0082,1","22000,1,9,N","010000,1,N,1","+0233,1","+0200,1","10150,1",,,,"03,1,+00480,1,06,1",,,"03,99,1,03,1,05,1,00450,1,00,1,01,1","999,N,+0231,1","9,9,999,9,-024,1",,"SYN076AAXX  03064 08583 32460 30816 10233 20200 40150 83501 333 20231 59024 83616;",
"08583099999","2010-07-03T12:00:00","4","16.8333333","-25.05","20.0","MINDELO, CV","FM-12","99999","V020","050,1,N,0072,1","22000,1,9,N","010000,1,N,1","+0270,1","+0193,1","10159,1",,,,"02,1,+00480,1,06,1",,,"02,99,1,02,1,05,1,00450,1,00,1,00,1",,"9,9,999,9,+016,1",,"SYN070AAXX  03124 08583 32460 20514 10270 20193 40159 82500 333 58016 82616;",
"08583099999","2010-07-03T18:00:00","4","16.8333333","-25.05","20.0","MINDELO, CV","FM-12","99999","V020","070,1,N,0118,1","22000,1,9,N","010000,1,N,1","+0270,1","+0191,1","10137,1",,,,"01,1,+00510,1,08,1",,,"03,99,1,01,1,01,1,00450,1,00,1,09,1","120,M,+0286,1","9,9,999,9,+013,1",,"SYN082AAXX  03184 08583 32460 30723 10270 20191 40137 81109 333 10286 58013 81817 83170;",
"08583099999","2010-07-04T00:00:00","4","16.8333333","-25.05","20.0","MINDELO, CV","FM-12","99999","V020","070,1,N,0093,1","04500,1,9,N","010000,1,N,1","+0237,1","+0190,1","10173,1",,,,"03,1,+00510,1,06,1",,,"05,99,1,03,1,05,1,00450,1,03,1,01,1",,"9,9,999,9,+035,1",,"SYN070AAXX  04004 08583 32460 50718 10237 20190 40173 83531 333 58035 83617;",
"08583099999","2010-07-04T06:00:00","4","16.8333333","-25.05","20.0","MINDELO, CV","FM-12","99999","V020","070,1,N,0072,1","22000,1,9,N","010000,1,N,1","+0227,1","+0187,1","10139,1",,,,"02,1,+00540,1,06,1",,,"03,99,1,03,1,08,1,00450,1,00,1,00,1","999,N,+0225,1","9,9,999,9,-011,1",,"SYN076AAXX  04064 08583 32460 30714 10227 20187 40139 83800 333 20225 59011 82618;",
"08583099999","2010-07-04T12:00:00","4","16.8333333","-25.05","20.0","MINDELO, CV","FM-12","99999","V020","070,1,N,0113,1","22000,1,9,N","012000,1,N,1","+0267,1","+0180,1","10158,1",,,,"02,1,+00600,1,08,1",,,"02,99,1,02,1,01,1,00800,1,03,1,00,1",,"9,9,999,9,+001,1",,"SYN070AAXX  04124 08583 32562 20722 10267 20180 40158 82130 333 58001 82820;",
"08583099999","2010-07-04T18:00:00","4","16.8333333","-25.05","20.0","MINDELO, CV","FM-12","99999","V020","060,1,N,0118,1","04500,1,C,N","015000,1,N,1","+0255,1","+0175,1","10144,1",,,,"03,1,+00600,1,06,1",,,"06,99,1,03,1,05,1,00800,1,03,1,00,1","120,M,+0277,1","9,9,999,9,+007,1",,"SYN082AAXX  04184 08583 32565 60623 10255 20175 40144 83530 333 10277 58007 83620 85360;",
"08583099999","2010-07-05T00:00:00","4","16.8333333","-25.05","20.0","MINDELO, CV","FM-12","99999","V020","060,1,N,0072,1","22000,1,9,N","015000,1,N,1","+0228,1","+0183,1","10163,1",,,,"01,1,+00540,1,06,1",,,"01,99,1,01,1,05,1,00450,1,00,1,00,1",,"9,9,999,9,-010,1",,"SYN070AAXX  05004 08583 32465 10614 10228 20183 40163 81500 333 59010 81618;",
"08583099999","2010-07-05T06:00:00","4","16.8333333","-25.05","20.0","MINDELO, CV","FM-12","99999","V020","060,1,N,0072,1","04500,1,C,N","015000,1,N,1","+0227,1","+0186,1","10143,1",,,,"01,1,+00540,1,06,1",,,"07,99,1,01,1,05,1,00450,1,07,1,99,9","999,N,+0225,1","9,9,999,9,+004,1",,"SYN082AAXX  05064 08583 32465 70614 10227 20186 40143 8157/ 333 20225 58004 81618 87360;",
"08583099999","2010-07-05T12:00:00","4","16.8333333","-25.05","20.0","MINDELO, CV","FM-12","99999","V020","060,1,N,0093,1","22000,1,9,N","018000,1,N,1","+0272,1","+0186,1","10165,1",,,,"03,1,+00600,1,06,1",,,"03,99,1,03,1,05,1,00800,1,00,1,00,1",,"9,9,999,9,+007,1",,"SYN070AAXX  05124 08583 32568 30618 10272 20186 40165 83500 333 58007 83620;",
"08583099999","2010-07-05T18:00:00","4","16.8333333","-25.05","20.0","MINDELO, CV","FM-12","99999","V020","030,1,N,0082,1","22000,1,C,N","018000,1,N,1","+0270,1","+0190,1","10147,1",,,,"02,1,+00660,1,06,1",,,"05,99,1,02,1,05,1,00800,1,03,1,09,1","120,M,+0286,1","9,9,999,9,+003,1",,"SYN082AAXX  05184 08583 32568 50316 10270 20190 40147 82539 333 10286 58003 82622 85360;",
"08583099999","2010-07-06T00:00:00","4","16.8333333","-25.05","20.0","MINDELO, CV","FM-12","99999","V020","060,1,N,0062,1","22000,1,9,N","018000,1,N,1","+0236,1","+0200,1","10170,1",,,,"02,1,+00600,1,06,1",,,"02,99,1,02,1,05,1,00800,1,00,1,00,1",,"9,9,999,9,+007,1",,"SYN070AAXX  06004 08583 32568 20612 10236 20200 40170 82500 333 58007 82620;",
"08583099999","2010-07-06T06:00:00","4","16.8333333","-25.05","20.0","MINDELO, CV","FM-12","99999","V020","060,1,N,0077,1","22000,1,9,N","018000,1,N,1","+0230,1","+0193,1","10156,1",,,,"02,1,+00600,1,06,1",,,"02,99,1,02,1,05,1,00800,1,00,1,00,1","999,N,+0226,1","9,9,999,9,+013,1",,"SYN076AAXX  06064 08583 32568 20615 10230 20193 40156 82500 333 20226 58013 82620;",
"08583099999","2010-07-06T12:00:00","4","16.8333333","-25.05","20.0","MINDELO, CV","FM-12","99999","V020","050,1,N,0093,1","22000,1,9,N","016000,1,N,1","+0272,1","+0195,1","10170,1",,,,"02,1,+00600,1,06,1",,,"02,99,1,02,1,05,1,00450,1,00,1,00,1",,"9,9,999,9,+005,1",,"SYN070AAXX  06124 08583 32466 20518 10272 20195 40170 82500 333 58005 82620;",
"08583099999","2010-07-06T18:00:00","4","16.8333333","-25.05","20.0","MINDELO, CV","FM-12","99999","V020","060,1,N,0087,1","22000,1,9,N","015000,1,N,1","+0270,1","+0193,1","10143,1",,,,"01,1,+00540,1,08,1",,,"01,99,1,01,1,01,1,00450,1,00,1,00,1","120,M,+0295,1","9,9,999,9,-004,1",,"SYN076AAXX  06184 08583 32465 10617 10270 20193 40143 81100 333 10295 59004 81818;",
"08583099999","2010-07-07T00:00:00","4","16.8333333","-25.05","20.0","MINDELO, CV","FM-12","99999","V020","060,1,N,0077,1","22000,1,9,N","015000,1,N,1","+0237,1","+0200,1","10161,1",,,,"01,1,+00600,1,06,1",,,"01,99,1,01,1,05,1,00800,1,00,1,00,1",,"9,9,999,9,-009,1",,"SYN070AAXX  07004 08583 32565 10615 10237 20200 40161 81500 333 59009 81620;",
"08583099999","2010-07-07T06:00:00","4","16.8333333","-25.05","20.0","MINDELO, CV","FM-12","99999","V020","060,1,N,0041,1","22000,1,9,N","015000,1,N,1","+0230,1","+0198,1","10136,1",,,,"02,1,+00600,1,06,1",,,"02,99,1,02,1,05,1,00450,1,00,1,00,1","999,N,+0228,1","9,9,999,9,-020,1",,"SYN076AAXX  07064 08583 32465 20608 10230 20198 40136 82500 333 20228 59020 82620;",
"08583099999","2010-07-07T12:00:00","4","16.8333333","-25.05","20.0","MINDELO, CV","FM-12","99999","V020","050,1,N,0093,1","22000,1,9,N","015000,1,N,1","+0278,1","+0186,1","10147,1",,,,"01,1,+00600,1,06,1",,,"01,99,1,01,1,05,1,00800,1,00,1,00,1",,"9,9,999,9,-023,1",,"SYN070AAXX  07124 08583 32565 10518 10278 20186 40147 81500 333 59023 81620;",
"08583099999","2010-07-07T18:00:00","4","16.8333333","-25.05","20.0","MINDELO, CV","FM-12","99999","V020","060,1,N,0108,1","22000,1,9,N","015000,1,N,1","+0267,1","+0193,1","10118,1",,,,"01,1,+00600,1,06,1",,,"01,99,1,01,1,05,1,00800,1,00,1,00,1","120,M,+0285,1","9,9,999,9,-025,1",,"SYN076AAXX  07184 08583 32565 10621 10267 20193 40118 81500 333 10285 59025 81620;",
"08583099999","2010-07-08T00:00:00","4","16.8333333","-25.05","20.0","MINDELO, CV","FM-12","99999","V020","080,1,N,0077,1","22000,1,9,N","012000,1,N,1","+0236,1","+0188,1","10110,1",,,,"01,1,+00540,1,06,1",,,"01,99,1,01,1,05,1,00450,1,00,1,01,1",,"9,9,999,9,-032,1",,"SYN070AAXX  08004 08583 32462 10815 10236 20188 40110 81501 333 59032 81618;",
"08583099999","2010-07-08T06:00:00","4","16.8333333","-25.05","20.0","MINDELO, CV","FM-12","99999","V020","060,1,N,0108,1","22000,1,9,N","012000,1,N,1","+0235,1","+0185,1","10118,1",,,,"02,1,+00540,1,06,1",,,"99,99,9,02,1,05,1,00450,1,00,1,00,1","999,N,+0227,1","9,9,999,9,-018,1",,"SYN076AAXX  08064 08583 32462 10621 10235 20185 40118 82500 333 20227 59018 82618;","Q01+000012SCOTCV"
"08583099999","2010-07-08T12:00:00","4","16.8333333","-25.05","20.0","MINDELO, CV","FM-12","99999","V020","060,1,N,0062,1","00540,1,9,N","012000,1,N,1","+0261,1","+0178,1","10146,1",,,,"06,1,+00540,1,06,1",,,"06,99,1,06,1,05,1,00450,1,00,1,00,1",,"9,9,999,9,-001,1",,"SYN070AAXX  08124 08583 32462 60612 10261 20178 40146 86500 333 59001 86618;",
"08583099999","2010-07-08T18:00:00","4","16.8333333","-25.05","20.0","MINDELO, CV","FM-12","99999","V020","070,1,N,0072,1","22000,1,9,N","012000,1,N,1","+0267,1","+0175,1","10128,1",,,,"03,1,+00660,1,06,1",,,"03,99,1,03,1,05,1,00800,1,00,1,00,1","120,M,+0285,1","9,9,999,9,+010,1",,"SYN076AAXX  08184 08583 32562 30714 10267 20175 40128 83500 333 10285 58010 83622;",
"08583099999","2010-07-09T00:00:00","4","16.8333333","-25.05","20.0","MINDELO, CV","FM-12","99999","V020","050,1,N,0046,1","22000,1,9,N","009000,1,N,1","+0242,1","+0195,1","10164,1",,"1,1,06,1","0,1,06,1","03,1,+00600,1,06,1",,,"04,99,1,03,1,05,1,00800,1,03,1,01,1",,"9,9,999,9,+031,1","06,1","SYN076AAXX  09004 08583 31559 40509 10242 20195 40164 70610 83531 333 58031 83620;",
"08583099999","2010-07-09T06:00:00","4","16.8333333","-25.05","20.0","MINDELO, CV","FM-12","99999","V020","060,1,N,0026,1","22000,1,9,N","009000,1,N,1","+0235,1","+0198,1","10148,1",,"0,1,06,1","0,1,06,1","03,1,+00600,1,06,1",,,"03,99,1,03,1,05,1,00800,1,00,1,01,1","999,N,+0232,1","9,9,999,9,+030,1","06,1","SYN082AAXX  09064 08583 31559 30605 10235 20198 40148 70600 83501 333 20232 58030 83620;",
"08583099999","2010-07-09T12:00:00","4","16.8333333","-25.05","20.0","MINDELO, CV","FM-12","99999","V020","070,1,N,0036,1","22000,1,9,N","009000,1,N,1","+0278,1","+0191,1","10164,1",,"1,1,06,1","0,1,06,1","04,1,+00540,1,06,1",,,"04,99,1,04,1,05,1,00450,1,00,1,00,1",,"9,9,999,9,+018,1","06,1","SYN076AAXX  09124 08583 31459 40707 10278 20191 40164 70610 84500 333 58018 84618;",
"08583099999","2010-07-09T18:00:00","4","16.8333333","-25.05","20.0","MINDELO, CV","FM-12","99999","V020","200,1,N,0041,1","01200,1,C,N","010000,1,N,1","+0255,1","+0215,1","10145,1",,,,"04,1,+00510,1,08,1",,,"07,99,1,07,1,08,1,00800,1,99,9,99,9","120,M,+0283,1","9,9,999,9,+017,1",,"SYN082AAXX  09184 08583 32560 72008 10255 20215 40145 878// 333 10283 58017 84817 86623;",
"08583099999","2010-07-10T00:00:00","4","16.8333333","-25.05","20.0","MINDELO, CV","FM-12","99999","V020","050,1,N,0036,1","22000,1,9,N","010000,1,N,1","+0242,1","+0211,1","10170,1",,,,"03,1,+00480,1,06,1",,,"03,99,1,03,1,05,1,00800,1,00,1,00,1",,"9,9,999,9,+006,1",,"SYN070AAXX  10004 08583 32560 30507 10242 20211 40170 83500 333 58006 83616;",
"08583099999","2010-07-10T06:00:00","4","16.8333333","-25.05","20.0","MINDELO, CV","FM-12","99999","V020","070,1,N,0046,1","22000,1,9,N","012000,1,N,1","+0233,1","+0201,1","10140,1",,,,"02,1,+00600,1,06,1",,,"02,99,1,02,1,05,1,00800,1,00,1,00,1","999,N,+0233,1","9,9,999,9,+022,1",,"SYN076AAXX  10064 08583 32562 20709 10233 20201 40140 82500 333 20233 58022 82620;",
"08583099999","2010-07-10T12:00:00","4","16.8333333","-25.05","20.0","MINDELO, CV","FM-12","99999","V020","060,1,N,0072,1","00540,1,9,N","010000,1,N,1","+0275,1","+0198,1","10154,1",,,,"05,1,+00540,1,06,1",,,"05,99,1,05,1,02,1,00450,1,00,1,00,1",,"9,9,999,9,-010,1",,"SYN070AAXX  10124 08583 32460 50614 10275 20198 40154 85200 333 59010 85618;",
"08583099999","2010-07-10T18:00:00","4","16.8333333","-25.05","20.0","MINDELO, CV","FM-12","99999","V020","230,1,N,0036,1","22000,1,9,N","010000,1,N,1","+0275,1","+0198,1","10114,1",,,,"03,1,+00660,1,06,1",,,"03,99,1,03,1,05,1,00800,1,00,1,00,1","120,M,+0292,1","9,9,999,9,-009,1",,"SYN076AAXX  10184 08583 32560 32307 10275 20198 40114 83500 333 10292 59009 83622;",
"08583099999","2010-07-11T00:00:00","4","16.8333333","-25.05","20.0","MINDELO, CV","FM-12","99999","V020","070,1,N,0051,1","22000,1,9,N","010000,1,N,1","+0250,1","+0206,1","10135,1",,,,"04,1,+00540,1,06,1",,,"04,99,1,04,1,05,1,00450,1,00,1,00,1",,"9,9,999,9,-035,1",,"SYN070AAXX  11004 08583 32460 40710 10250 20206 40135 84500 333 59035 84618;",
"08583099999","2010-07-11T06:00:00","4","16.8333333","-25.05","20.0","MINDELO, CV","FM-12","99999","V020","070,1,N,0031,1","22000,1,9,N","010000,1,N,1","+0245,1","+0219,1","10114,1",,,,"04,1,+00540,1,06,1",,,"05,99,1,04,1,05,1,00450,1,00,1,01,1","999,N,+0230,1","9,9,999,9,-026,1",,"SYN076AAXX  11064 08583 32460 50706 10245 20219 40114 84501 333 20230 59026 84618;",
"08583099999","2010-07-11T12:00:00","4","16.8333333","-25.05","20.0","MINDELO, CV","FM-12","99999","V020","210,1,N,0026,1","00720,1,9,N","011000,1,N,1","+0272,1","+0195,1","10119,1",,,,"05,1,+00720,1,06,1",,,"05,99,1,05,1,05,1,00450,1,00,1,00,1",,"9,9,999,9,-035,1",,"SYN070AAXX  11124 08583 32461 52105 10272 20195 40119 85500 333 59035 85624;",
"08583099999","2010-07-11T18:00:00","4","16.8333333","-25.05","20.0","MINDELO, CV","FM-12","99999","V020","250,1,N,0031,1","00600,1,9,N","012000,1,N,1","+0267,1","+0192,1","10102,1",,,,"05,1,+00600,1,06,1",,,"05,99,1,05,1,05,1,00800,1,00,1,00,1","120,M,+0288,1","9,9,999,9,-017,1",,"SYN076AAXX  11184 08583 32562 52506 10267 20192 40102 85500 333 10288 59017 85620;",
"08583099999","2010-07-12T06:00:00","4","16.8333333","-25.05","20.0","MINDELO, CV","FM-12","99999","V020","050,1,N,0026,1","01200,1,C,N","012000,1,N,1","+0245,1","+0195,1","10114,1",,,,"01,1,+00600,1,08,1",,,"06,99,1,06,1,08,1,00800,1,99,9,99,9","999,N,+0238,1","9,9,999,9,+000,1",,"SYN082AAXX  12064 08583 32562 60505 10245 20195 40114 868// 333 20238 58000 81820 86624;",
"08583099999","2010-07-12T12:00:00","4","16.8333333","-25.05","20.0","MINDELO, CV","FM-12","99999","V020","210,1,N,0026,1","00900,1,C,N","010000,1,N,1","+0272,1","+0175,1","10137,1",,,,"02,1,+00540,1,06,1",,,"07,99,1,07,1,08,1,00450,1,99,9,99,9",,"9,9,999,9,+018,1",,"SYN076AAXX  12124 08583 32460 72105 10272 20175 40137 878// 333 58018 82618 86625;",
"08583099999","2010-07-12T18:00:00","4","16.8333333","-25.05","20.0","MINDELO, CV","FM-12","99999","V020","210,1,N,0031,1","22000,1,9,N","015000,1,N,1","+0277,1","+0180,1","10126,1",,,,"01,1,+00660,1,06,1",,,"04,99,1,01,1,05,1,00800,1,03,1,00,1","120,M,+0291,1","9,9,999,9,+024,1",,"SYN082AAXX  12184 08583 32565 42106 10277 20180 40126 81530 333 10291 58024 81622 84360;",
"08583099999","2010-07-13T00:00:00","4","16.8333333","-25.05","20.0","MINDELO, CV","FM-12","99999","V020","060,1,N,0026,1","04500,1,C,N","015000,1,N,1","+0256,1","+0206,1","10148,1",,,,"02,1,+00660,1,06,1",,,"06,99,1,02,1,05,1,00800,1,03,1,99,9",,"9,9,999,9,+024,1",,"SYN076AAXX  13004 08583 32565 60605 10256 20206 40148 8253/ 333 58024 82622 86360;",
"08583099999","2010-07-13T06:00:00","4","16.8333333","-25.05","20.0","MINDELO, CV","FM-12","99999","V020","060,1,N,0026,1","22000,1,9,N","012000,1,N,1","+0247,1","+0215,1","10143,1",,,,"02,1,+00660,1,06,1",,,"02,99,1,02,1,05,1,00800,1,00,1,00,1","999,N,+0245,1","9,9,999,9,+029,1",,"SYN076AAXX  13064 08583 32562 20605 10247 20215 40143 82500 333 20245 58029 82622;",
"08583099999","2010-07-13T12:00:00","4","16.8333333","-25.05","20.0","MINDELO, CV","FM-12","99999","V020","210,1,N,0031,1","04500,1,C,N","010000,1,N,1","+0267,1","+0221,1","10150,1",,,,"03,1,+00540,1,06,1",,,"06,99,1,03,1,05,1,00450,1,03,1,01,1",,"9,9,999,9,+013,1",,"SYN076AAXX  13124 08583 32460 62106 10267 20221 40150 83531 333 58013 83618 85360;",
"08583099999","2010-07-13T18:00:00","4","16.8333333","-25.05","20.0","MINDELO, CV","FM-12","99999","V020","210,1,N,0036,1","22000,1,C,N","010000,1,N,1","+0270,1","+0217,1","10128,1",,,,"02,1,+00660,1,08,1",,,"05,99,1,02,1,01,1,00800,1,03,1,09,1","120,M,+0287,1","9,9,999,9,+002,1",,"SYN082AAXX  13184 08583 32560 52107 10270 20217 40128 82139 333 10287 58002 82822 84360;",
"08583099999","2010-07-14T00:00:00","4","16.8333333","-25.05","20.0","MINDELO, CV","FM-12","99999","V020","080,1,N,0057,1","04500,1,9,N","010000,1,N,1","+0256,1","+0216,1","10142,1",,,,"04,1,+00540,1,06,1",,,"05,99,1,04,1,02,1,00800,1,03,1,01,1",,"9,9,999,9,+006,1",,"SYN070AAXX  14004 08583 32560 50811 10256 20216 40142 84231 333 58006 84618;",
"08583099999","2010-07-14T06:00:00","4","16.8333333","-25.05","20.0","MINDELO, CV","FM-12","99999","V020","999,9,C,0000,1","00900,1,C,N","010000,1,N,1","+0253,1","+0211,1","10116,1",,,,"03,1,+00540,1,06,1",,,"05,99,1,05,1,08,1,00450,1,03,1,00,1","999,N,+0246,1","9,9,999,9,-027,1",,"SYN082AAXX  14064 08583 32460 50000 10253 20211 40116 85830 333 20246 59027 83618 84622;",
"08583099999","2010-07-14T12:00:00","4","16.8333333","-25.05","20.0","MINDELO, CV","FM-12","99999","V020","999,9,V,0015,1","00900,1,C,N","010000,1,N,1","+0270,1","+0207,1","10131,1",,"5,1,06,1","2,1,06,1","04,1,+00480,1,08,1",,,"07,99,1,07,1,08,1,00450,1,99,9,99,9",,"9,9,999,9,-019,1","02,1","SYN082AAXX  14124 08583 31460 79903 10270 20207 40131 70252 878// 333 59019 84816 87622;",
"08583099999","2010-07-14T18:00:00","4","16.8333333","-25.05","20.0","MINDELO, CV","FM-12","99999","V020","180,1,N,0036,1","00900,1,C,N","010000,1,N,1","+0282,1","+0202,1","10121,1",,,,"03,1,+00480,1,08,1",,,"07,99,1,07,1,08,1,00450,1,99,9,99,9","120,M,+0290,1","9,9,999,9,-007,1",,"SYN082AAXX  14184 08583 32460 71807 10282 20202 40121 878// 333 10290 59007 83816 86625;",
"08583099999","2010-07-15T00:00:00","4","16.8333333","-25.05","20.0","MINDELO, CV","FM-12","99999","V020","999,9,V,0005,1","00900,1,C,N","010000,1,N,1","+0262,1","+0210,1","10150,1",,,,"02,1,+00540,1,08,1",,,"06,99,1,06,1,08,1,00450,1,99,9,99,9",,"9,9,999,9,+008,1",,"SYN076AAXX  15004 08583 32460 69901 10262 20210 40150 868// 333 58008 82818 86622;",
"08583099999","2010-07-15T06:00:00","4","16.8333333","-25.05","20.0","MINDELO, CV","FM-12","99999","V020","050,1,N,0021,1","22000,1,9,N","010000,1,N,1","+0255,1","+0212,1","10142,1",,,,"01,1,+00540,1,08,1",,,"02,99,1,01,1,01,1,00450,1,00,1,01,1",,"9,9,999,9,+026,1",,"SYN070AAXX  15064 08583 32460 20504 10255 20212 40142 81101 333 58026 81818;",
"08583099999","2010-07-15T12:00:00","4","16.8333333","-25.05","20.0","MINDELO, CV","FM-12","99999","V020","060,1,N,0041,1","00900,1,C,N","010000,1,N,1","+0295,1","+0217,1","10165,1",,,,"02,1,+00420,1,08,1",,,"07,99,1,06,1,08,1,00450,1,00,1,01,1",,"9,9,999,9,+034,1",,"SYN076AAXX  15124 08583 32460 70608 10295 20217 40165 86801 333 58034 82814 85622;",
"08583099999","2010-07-15T18:00:00","4","16.8333333","-25.05","20.0","MINDELO, CV","FM-12","99999","V020","999,9,V,0015,1","00480,1,9,N","020000,1,N,1","+0290,1","+0225,1","10157,1",,,,"06,1,+00480,1,08,1",,,"06,99,1,06,1,08,1,00450,1,00,1,00,1","120,M,+0311,1","9,9,999,9,+036,1",,"SYN076AAXX  15184 08583 32470 69903 10290 20225 40157 86800 333 10311 58036 86816;",
"08583099999","2010-07-16T00:00:00","4","16.8333333","-25.05","20.0","MINDELO, CV","FM-12","99999","V020","050,1,N,0041,1","04500,1,C,N","015000,1,N,1","+0258,1","+0230,1","10183,1",,,,"03,1,+00540,1,08,1",,,"05,99,1,03,1,05,1,00450,1,03,1,00,1",,"9,9,999,9,+033,1",,"SYN076AAXX  16004 08583 32465 50508 10258 20230 40183 83530 333 58033 83818 84360;",
"08583099999","2010-07-16T06:00:00","4","16.8333333","-25.05","20.0","MINDELO, CV","FM-12","99999","V020","070,1,N,0051,1","22000,1,9,N","015000,1,N,1","+0247,1","+0225,1","10166,1",,,,"03,1,+00540,1,08,1",,,"03,99,1,03,1,02,1,00450,1,03,1,00,1","999,N,+0246,1","9,9,999,9,+024,1",,"SYN076AAXX  16064 08583 32465 30710 10247 20225 40166 83230 333 20246 58024 83818;",
"08583099999","2010-07-16T12:00:00","4","16.8333333","-25.05","20.0","MINDELO, CV","FM-12","99999","V020","050,1,N,0087,1","00480,1,9,N","017000,1,N,1","+0280,1","+0213,1","10176,1",,,,"05,1,+00480,1,08,1",,,"05,99,1,05,1,08,1,00450,1,00,1,00,1",,"9,9,999,9,+011,1",,"SYN070AAXX  16124 08583 32467 50517 10280 20213 40176 85800 333 58011 85816;",
"08583099999","2010-07-16T18:00:00","4","16.8333333","-25.05","20.0","MINDELO, CV","FM-12","99999","V020","060,1,N,0113,1","22000,1,9,N","020000,1,N,1","+0278,1","+0205,1","10146,1",,,,"02,1,+00480,1,08,1",,,"02,99,1,02,1,02,1,00450,1,00,1,00,1","120,M,+0297,1","9,9,999,9,-011,1",,"SYN076AAXX  16184 08583 32470 20622 10278 20205 40146 82200 333 10297 59011 82816;",
"08583099999","2010-07-17T06:00:00","4","16.8333333","-25.05","20.0","MINDELO, CV","FM-12","99999","V020","050,1,N,0062,1","22000,1,9,N","015000,1,N,1","+0236,1","+0190,1","10145,1",,,,"01,1,+00540,1,06,1",,,"01,99,1,01,1,05,1,00450,1,00,1,00,1","999,N,+0235,1","9,9,999,9,-021,1",,"SYN076AAXX  17064 08583 32465 10512 10236 20190 40145 81500 333 20235 59021 81618;",
"08583099999","2010-07-17T18:00:00","4","16.8333333","-25.05","20.0","MINDELO, CV","FM-12","99999","V020","060,1,N,0108,1","22000,1,9,N","025000,1,N,1","+0275,1","+0187,1","10132,1",,,,"02,1,+00600,1,06,1",,,"02,99,1,02,1,05,1,00800,1,00,1,00,1","120,M,+0290,1","9,9,999,9,-014,1",,"SYN076AAXX  17184 08583 32575 20621 10275 20187 40132 82500 333 10290 59014 82620;",
"08583099999","2010-07-18T00:00:00","4","16.8333333","-25.05","20.0","MINDELO, CV","FM-12","99999","V020","040,1,N,0087,1","00540,1,9,N","018000,1,N,1","+0241,1","+0188,1","10153,1",,,,"06,1,+00540,1,06,1",,,"06,99,1,06,1,02,1,00450,1,00,1,01,1",,"9,9,999,9,-007,1",,"SYN070AAXX  18004 08583 32468 60417 10241 20188 40153 86201 333 59007 86618;",
"08583099999","2010-07-18T06:00:00","4","16.8333333","-25.05","20.0","MINDELO, CV","FM-12","99999","V020","070,1,N,0057,1","22000,1,9,N","015000,1,N,1","+0231,1","+0185,1","10126,1",,,,"03,1,+00540,1,06,1",,,"03,99,1,03,1,05,1,00450,1,00,1,00,1","999,N,+0231,1","9,9,999,9,-019,1",,"SYN076AAXX  18064 08583 32465 30711 10231 20185 40126 83500 333 20231 59019 83618;",
"08583099999","2010-07-18T12:00:00","4","16.8333333","-25.05","20.0","MINDELO, CV","FM-12","99999","V020","300,1,N,0046,1","22000,1,9,N","015000,1,N,1","+0276,1","+0191,1","10138,1",,,,"03,1,+00600,1,06,1",,,"03,99,1,03,1,05,1,00800,1,00,1,00,1",,"9,9,999,9,-019,1",,"SYN070AAXX  18124 08583 32565 33009 10276 20191 40138 83500 333 59019 83620;",
"08583099999","2010-07-18T18:00:00","4","16.8333333","-25.05","20.0","MINDELO, CV","FM-12","99999","V020","050,1,N,0098,1","04500,1,C,N","018000,1,N,1","+0270,1","+0186,1","10123,1",,,,"02,1,+00600,1,06,1",,,"06,99,1,02,1,05,1,00800,1,03,1,09,1","120,M,+0292,1","9,9,999,9,-009,1",,"SYN082AAXX  18184 08583 32568 60519 10270 20186 40123 82539 333 10292 59009 82620 84360;",
"08583099999","2010-07-19T00:00:00","4","16.8333333","-25.05","20.0","MINDELO, CV","FM-12","99999","V020","060,1,N,0057,1","04500,1,C,N","012000,1,N,1","+0242,1","+0185,1","10147,1",,,,"03,1,+00600,1,06,1",,,"07,99,1,03,1,02,1,00800,1,03,1,02,1",,"9,9,999,9,-006,1",,"SYN076AAXX  19004 08583 32562 70611 10242 20185 40147 83232 333 59006 83620 85360;",
"08583099999","2010-07-19T06:00:00","4","16.8333333","-25.05","20.0","MINDELO, CV","FM-12","99999","V020","060,1,N,0057,1","04500,1,C,N","012000,1,N,1","+0242,1","+0195,1","10132,1",,,,"03,1,+00600,1,06,1",,,"07,99,1,03,1,02,1,00800,1,03,1,99,9","120,M,+9999,9","9,9,999,9,+006,1",,"SYN082AAXX  19064 08583 32562 70611 10242 20195 40132 8323/ 333 10227 58006 83620 86360;","Q01 +02272ATMX  "
"08583099999","2010-07-19T12:00:00","4","16.8333333","-25.05","20.0","MINDELO, CV","FM-12","99999","V020","050,1,N,0062,1","00900,1,C,N","008000,1,N,1","+0261,1","+0212,1","10151,1",,"2,1,06,1","2,1,06,1","04,1,+00420,1,08,1",,,"07,99,1,07,1,08,1,00450,1,99,9,99,9",,"9,9,999,9,+013,1","06,1","SYN082AAXX  19124 08583 31458 70512 10261 20212 40151 70622 878// 333 58013 84814 85620;",
"08583099999","2010-07-19T18:00:00","4","16.8333333","-25.05","20.0","MINDELO, CV","FM-12","99999","V020","060,1,N,0062,1","00420,1,9,N","008000,1,N,1","+0276,1","+0215,1","10146,1",,"2,1,06,1","2,1,06,1","05,1,+00420,1,08,1",,,"07,99,1,07,1,08,1,00450,1,03,1,99,9","120,M,+0286,1","9,9,999,9,+023,1","06,1","SYN088AAXX  19184 08583 31458 70612 10276 20215 40146 70622 8783/ 333 10286 58023 85814 86625;",
"08583099999","2010-07-20T00:00:00","4","16.8333333","-25.05","20.0","MINDELO, CV","FM-12","99999","V020","050,1,N,0021,1","00900,1,C,N","009000,1,N,1","+0258,1","+0223,1","10171,1",,"2,1,06,1","2,1,06,1","04,1,+00600,1,08,1",,,"05,99,1,05,1,08,1,00450,1,99,9,99,9",,"9,9,999,9,+024,1","06,1","SYN076AAXX  20004 08583 31459 50504 10258 20223 40171 70622 858// 333 58024 84820;",
"08583099999","2010-07-20T06:00:00","4","16.8333333","-25.05","20.0","MINDELO, CV","FM-12","99999","V020","060,1,N,0021,1","22000,1,9,N","008000,1,N,1","+0236,1","+0213,1","10164,1",,"1,1,06,1","0,1,06,1","01,1,+00420,1,08,1",,,"01,99,1,01,1,01,1,00450,1,00,1,00,1","999,N,+0235,1","9,9,999,9,+032,1","06,1","SYN082AAXX  20064 08583 31458 10604 10236 20213 40164 70610 81100 333 20235 58032 81814;",
"08583099999","2010-07-20T12:00:00","4","16.8333333","-25.05","20.0","MINDELO, CV","FM-12","99999","V020","050,1,N,0062,1","22000,1,9,N","012000,1,N,1","+0292,1","+0218,1","10182,1",,,,"01,1,+00420,1,08,1",,,"03,99,1,03,1,08,1,00450,1,00,1,00,1",,"9,9,999,9,+031,1",,"SYN076AAXX  20124 08583 32462 30512 10292 20218 40182 83800 333 58031 81814 83622;",
"08583099999","2010-07-20T18:00:00","4","16.8333333","-25.05","20.0","MINDELO, CV","FM-12","99999","V020","200,1,N,0046,1","22000,1,9,N","015000,1,N,1","+0275,1","+0231,1","10158,1",,,,"02,1,+00540,1,06,1",,,"03,99,1,03,1,05,1,00450,1,00,1,01,1","120,M,+0310,1","9,9,999,9,+012,1",,"SYN076AAXX  20184 08583 32465 32009 10275 20231 40158 83501 333 10310 58012 82618;",
"08583099999","2010-07-21T00:00:00","4","16.8333333","-25.05","20.0","MINDELO, CV","FM-12","99999","V020","070,1,N,0036,1","10500,1,C,N","012000,1,N,1","+0255,1","+0221,1","10183,1",,,,"02,1,+00510,1,06,1",,,"06,99,1,02,1,05,1,00450,1,00,1,02,1",,"9,9,999,9,+012,1",,"SYN076AAXX  21004 08583 32462 60707 10255 20221 40183 82502 333 58012 82617 85070;",
"08583099999","2010-07-21T06:00:00","4","16.8333333","-25.05","20.0","MINDELO, CV","FM-12","99999","V020","090,1,N,0026,1","04500,1,C,N","012000,1,N,1","+0252,1","+0212,1","10155,1",,,,"02,1,+00540,1,06,1",,,"08,99,1,02,1,02,1,00450,1,03,1,02,1","999,N,+0250,1","9,9,999,9,+011,1",,"SYN082AAXX  21064 08583 32462 80905 10252 20212 40155 82232 333 20250 58011 82618 87070;",
"08583099999","2010-07-21T12:00:00","4","16.8333333","-25.05","20.0","MINDELO, CV","FM-12","99999","V020","230,1,N,0015,1","00900,1,C,N","012000,1,N,1","+0277,1","+0206,1","10163,1",,,,"04,1,+00540,1,06,1",,,"06,99,1,06,1,08,1,00450,1,00,1,00,1",,"9,9,999,9,+005,1",,"SYN076AAXX  21124 08583 32462 62303 10277 20206 40163 86800 333 58005 84618 85626;",
"08583099999","2010-07-21T18:00:00","4","16.8333333","-25.05","20.0","MINDELO, CV","FM-12","99999","V020","060,1,N,0051,1","22000,1,9,N","012000,1,N,1","+0275,1","+0186,1","10140,1",,,,"02,1,+00600,1,06,1",,,"02,99,1,02,1,05,1,00800,1,00,1,00,1","120,M,+0296,1","9,9,999,9,+018,1",,"SYN076AAXX  21184 08583 32562 20610 10275 20186 40140 82500 333 10296 58018 82620;",
"08583099999","2010-07-22T00:00:00","4","16.8333333","-25.05","20.0","MINDELO, CV","FM-12","99999","V020","060,1,N,0062,1","22000,1,9,N","012000,1,N,1","+0238,1","+0181,1","10166,1",,,,"02,1,+00540,1,06,1",,,"02,99,1,02,1,05,1,00450,1,00,1,00,1",,"9,9,999,9,-017,1",,"SYN070AAXX  22004 08583 32462 20612 10238 20181 40166 82500 333 59017 82618;",
"08583099999","2010-07-22T06:00:00","4","16.8333333","-25.05","20.0","MINDELO, CV","FM-12","99999","V020","060,1,N,0036,1","00900,1,C,N","012000,1,N,1","+0233,1","+0185,1","10149,1",,,,"02,1,+00540,1,08,1",,,"06,99,1,06,1,08,1,00450,1,00,1,00,1","999,N,+0232,1","9,9,999,9,-004,1",,"SYN082AAXX  22064 08583 32462 60607 10233 20185 40149 86800 333 20232 59004 82818 86623;",
"08583099999","2010-07-22T12:00:00","4","16.8333333","-25.05","20.0","MINDELO, CV","FM-12","99999","V020","050,1,N,0057,1","99999,9,9,N","018000,1,N,1","+0268,1","+0170,1","10171,1",,,,"03,1,+00600,1,06,1",,,"06,99,1,03,1,05,1,00800,1,00,1,00,1",,"9,9,999,9,+008,1",,"SYN070AAXX  22124 08583 32568 60511 10268 20170 40171 83500 333 58008 83620;",
"08583099999","2010-07-22T18:00:00","4","16.8333333","-25.05","20.0","MINDELO, CV","FM-12","99999","V020","060,1,N,0057,1","22000,1,9,N","025000,1,N,1","+0278,1","+0180,1","10152,1",,,,"01,1,+00720,1,08,1",,,"01,99,1,01,1,02,1,00800,1,00,1,00,1","120,M,+0292,1","9,9,999,9,+012,1",,"SYN076AAXX  22184 08583 32575 10611 10278 20180 40152 81200 333 10292 58012 81824;",
"08583099999","2010-07-23T00:00:00","4","16.8333333","-25.05","20.0","MINDELO, CV","FM-12","99999","V020","070,1,N,0072,1","22000,1,9,N","015000,1,N,1","+0241,1","+0193,1","10175,1",,,,"01,1,+00660,1,06,1",,,"01,99,1,01,1,05,1,00800,1,00,1,00,1",,"9,9,999,9,+009,1",,"SYN070AAXX  23004 08583 32565 10714 10241 20193 40175 81500 333 58009 81622;",
"08583099999","2010-07-23T06:00:00","4","16.8333333","-25.05","20.0","MINDELO, CV","FM-12","99999","V020","060,1,N,0041,1","22000,1,9,N","015000,1,N,1","+0231,1","+0191,1","10154,1",,,,"02,1,+00660,1,06,1",,,"02,99,1,02,1,05,1,00800,1,00,1,00,1","999,N,+0230,1","9,9,999,9,+005,1",,"SYN076AAXX  23064 08583 32565 20608 10231 20191 40154 82500 333 20230 58005 82622;",
"08583099999","2010-07-23T12:00:00","4","16.8333333","-25.05","20.0","MINDELO, CV","FM-12","99999","V020","080,1,N,0026,1","04500,1,C,N","015000,1,N,1","+0278,1","+0195,1","10174,1",,,,"01,1,+00540,1,06,1",,,"06,99,1,02,1,08,1,00450,1,03,1,00,1",,"9,9,999,9,+003,1",,"SYN076AAXX  23124 08583 32465 60805 10278 20195 40174 82830 333 58003 81618 85360;",
"08583099999","2010-07-23T18:00:00","4","16.8333333","-25.05","20.0","MINDELO, CV","FM-12","99999","V020","050,1,N,0072,1","22000,1,9,N","020000,1,N,1","+0273,1","+0195,1","10153,1",,,,,,,"01,99,1,01,1,08,1,00450,1,00,1,00,1","120,M,+0297,1","9,9,999,9,+001,1",,"SYN076AAXX  23184 08583 32470 10514 10273 20195 40153 81800 333 58001 10297 81818;",
"08583099999","2010-07-24T00:00:00","4","16.8333333","-25.05","20.0","MINDELO, CV","FM-12","99999","V020","060,1,N,0077,1","22000,1,9,N","020000,1,N,1","+0241,1","+0190,1","10178,1",,,,"01,1,+00540,1,06,1",,,"01,99,1,01,1,05,1,00450,1,00,1,00,1",,"9,9,999,9,+003,1",,"SYN070AAXX  24004 08583 32470 10615 10241 20190 40178 81500 333 58003 81618;",
"08583099999","2010-07-24T06:00:00","4","16.8333333","-25.05","20.0","MINDELO, CV","FM-12","99999","V020","060,1,N,0041,1","22000,1,9,N","020000,1,N,1","+0233,1","+0190,1","10154,1",,,,"03,1,+00600,1,06,1",,,"03,99,1,03,1,05,1,00800,1,03,1,00,1","999,N,+0230,1","9,9,999,9,+000,1",,"SYN076AAXX  24064 08583 32570 30608 10233 20190 40154 83530 333 20230 58000 83620;",
"08583099999","2010-07-24T12:00:00","4","16.8333333","-25.05","20.0","MINDELO, CV","FM-12","99999","V020","060,1,N,0103,1","22000,1,9,N","020000,1,N,1","+0271,1","+0185,1","10162,1",,,,"02,1,+00600,1,06,1",,,"02,99,1,02,1,05,1,00800,1,00,1,00,1",,"9,9,999,9,-012,1",,"SYN070AAXX  24124 08583 32570 20620 10271 20185 40162 82500 333 59012 82620;",
"08583099999","2010-07-24T18:00:00","4","16.8333333","-25.05","20.0","MINDELO, CV","FM-12","99999","V020","050,1,N,0108,1","22000,1,9,N","025000,1,N,1","+0271,1","+0195,1","10130,1",,,,"02,1,+00600,1,08,1",,,"02,99,1,02,1,01,1,00800,1,00,1,00,1","120,M,+0291,1","9,9,999,9,-023,1",,"SYN076AAXX  24184 08583 32575 20521 10271 20195 40130 82100 333 10291 59023 82820;",
"08583099999","2010-07-25T00:00:00","4","16.8333333","-25.05","20.0","MINDELO, CV","FM-12","99999","V020","050,1,N,0067,1","22000,1,9,N","020000,1,N,1","+0250,1","+0196,1","10153,1",,,,"02,1,+00600,1,08,1",,,"04,99,1,03,1,08,1,00800,1,03,1,00,1",,"9,9,999,9,-025,1",,"SYN076AAXX  25004 08583 32570 40513 10250 20196 40153 83830 333 59025 82820 83628;",
"08583099999","2010-07-25T12:00:00","4","16.8333333","-25.05","20.0","MINDELO, CV","FM-12","99999","V020","050,1,N,0087,1","00900,1,C,N","009000,1,N,1","+0265,1","+0202,1","10138,1",,"2,1,06,1","2,1,06,1","04,1,+00540,1,08,1",,,"07,99,1,07,1,08,1,00450,1,99,9,99,9",,"9,9,999,9,-024,1","06,1","SYN082AAXX  25124 08583 31459 70517 10265 20202 40138 70622 878// 333 59024 84818 86626;",
"08583099999","2010-07-25T18:00:00","4","16.8333333","-25.05","20.0","MINDELO, CV","FM-12","99999","V020","050,1,N,0098,1","22000,1,9,N","009000,1,N,1","+0276,1","+0202,1","10119,1",,"0,1,06,1","0,1,06,1","03,1,+00480,1,08,1",,,"03,99,1,03,1,05,1,00450,1,00,1,01,1","120,M,+0296,1","9,9,999,9,-011,1","06,1","SYN082AAXX  25184 08583 31459 30519 10276 20202 40119 70600 83501 333 10296 59011 83816;",
"08583099999","2010-07-26T00:00:00","4","16.8333333","-25.05","20.0","MINDELO, CV","FM-12","99999","V020","060,1,N,0051,1","00900,1,C,N","008000,1,N,1","+0248,1","+0215,1","10142,1",,"2,1,06,1","2,1,06,1","03,1,+00480,1,08,1",,,"07,99,1,07,1,08,1,00450,1,99,9,99,9",,"9,9,999,9,-011,1","06,1","SYN082AAXX  26004 08583 31458 70610 10248 20215 40142 70622 878// 333 59011 83816 87623;",
"08583099999","2010-07-26T06:00:00","4","16.8333333","-25.05","20.0","MINDELO, CV","FM-12","99999","V020","060,1,N,0046,1","00450,1,9,N","006000,1,N,1","+0245,1","+0218,1","10127,1",,"2,1,06,1","2,1,06,1","05,1,+00450,1,08,1",,,"08,99,1,08,1,08,1,00450,1,99,9,99,9","999,N,+0241,1","9,9,999,9,-005,1","52,1","SYN094AAXX  26064 08583 11456 80609 10245 20218 40127 6///4 75222 888// 333 20241 59005 85815 87626;",
"08583099999","2010-07-26T12:00:00","4","16.8333333","-25.05","20.0","MINDELO, CV","FM-12","99999","V020","060,1,N,0026,1","00600,1,9,N","008000,1,N,1","+0290,1","+0203,1","10144,1","12,9999,9,9","5,1,06,1","2,1,06,1","06,1,+00600,1,08,1",,,"06,99,1,06,1,02,1,00450,1,00,1,00,1",,"9,9,999,9,+006,1","06,1","SYN082AAXX  26124 08583 31458 60605 10290 20203 40144 6///2 70652 86200 333 58006 86820;",
"08583099999","2010-07-26T18:00:00","4","16.8333333","-25.05","20.0","MINDELO, CV","FM-12","99999","V020","300,1,N,0026,1","00480,1,9,N","008000,1,N,1","+0281,1","+0210,1","10129,1",,"2,1,06,1","2,1,06,1","06,1,+00480,1,06,1",,,"99,99,9,05,1,06,1,00450,1,00,1,00,1","120,M,+0292,1","9,9,999,9,+011,1","06,1","SYN082AAXX  26184 08583 31458 53005 10281 20210 40129 70622 85600 333 10292 58011 86616;","Q01+000052SCOTCV"
"08583099999","2010-07-27T00:00:00","4","16.8333333","-25.05","20.0","MINDELO, CV","FM-12","99999","V020","070,1,N,0031,1","22000,1,9,N","010000,1,N,1","+0255,1","+0220,1","10156,1",,,,"02,1,+00510,1,06,1",,,"02,99,1,02,1,05,1,00450,1,00,1,00,1",,"9,9,999,9,+014,1",,"SYN070AAXX  27004 08583 32460 20706 10255 20220 40156 82500 333 58014 82617;",
"08583099999","2010-07-27T06:00:00","4","16.8333333","-25.05","20.0","MINDELO, CV","FM-12","99999","V020","050,1,N,0031,1","22000,1,9,N","010000,1,N,1","+0237,1","+0217,1","10143,1",,,,"01,1,+00480,1,08,1",,,"02,99,1,02,1,08,1,00450,1,00,1,00,1","999,N,+0235,1","9,9,999,9,+016,1",,"SYN076AAXX  27064 08583 32460 20506 10237 20217 40143 82800 333 20235 58016 81816;",
"08583099999","2010-07-27T12:00:00","4","16.8333333","-25.05","20.0","MINDELO, CV","FM-12","99999","V020","050,1,N,0051,1","22000,1,9,N","012000,1,N,1","+0290,1","+0212,1","10153,1",,,,"02,1,+00480,1,08,1",,,"02,99,1,02,1,01,1,00450,1,03,1,00,1",,"9,9,999,9,+009,1",,"SYN070AAXX  27124 08583 32462 20510 10290 20212 40153 82130 333 58009 82816;",
"08583099999","2010-07-27T18:00:00","4","16.8333333","-25.05","20.0","MINDELO, CV","FM-12","99999","V020","220,1,N,0021,1","22000,1,9,N","012000,1,N,1","+0280,1","+0220,1","10134,1",,,,"01,1,+00480,1,08,1",,,"04,99,1,04,1,08,1,00450,1,00,1,01,1","120,M,+0310,1","9,9,999,9,+005,1",,"SYN082AAXX  27184 08583 32462 42204 10280 20220 40134 84801 333 10310 58005 81816 84620;",
"08583099999","2010-07-28T06:00:00","4","16.8333333","-25.05","20.0","MINDELO, CV","FM-12","99999","V020","070,1,N,0057,1","00540,1,9,N","010000,1,N,1","+0245,1","+0205,1","10147,1",,,,"05,1,+00540,1,06,1",,,"05,99,1,05,1,05,1,00450,1,00,1,00,1","999,N,+0235,1","9,9,999,9,+004,1",,"SYN076AAXX  28064 08583 32460 50711 10245 20205 40147 85500 333 20235 58004 85618;",
"08583099999","2010-07-28T12:00:00","4","16.8333333","-25.05","20.0","MINDELO, CV","FM-12","99999","V020","050,1,N,0067,1","22000,1,9,N","012000,1,N,1","+0281,1","+0200,1","10157,1",,,,"02,1,+00510,1,06,1",,,"02,99,1,02,1,05,1,00450,1,00,1,00,1",,"9,9,999,9,+008,1",,"SYN070AAXX  28124 08583 32462 20513 10281 20200 40157 82500 333 58008 82617;",
"08583099999","2010-07-28T18:00:00","4","16.8333333","-25.05","20.0","MINDELO, CV","FM-12","99999","V020","070,1,N,0103,1","22000,1,9,N","012000,1,N,1","+0277,1","+0207,1","10135,1",,,,"02,1,+00450,1,06,1",,,"02,99,1,02,1,05,1,00450,1,00,1,00,1","120,M,+0297,1","9,9,999,9,+001,1",,"SYN076AAXX  28184 08583 32462 20720 10277 20207 40135 82500 333 10297 58001 82615;",
"08583099999","2010-07-29T00:00:00","4","16.8333333","-25.05","20.0","MINDELO, CV","FM-12","99999","V020","040,1,N,0072,1","00900,1,C,N","010000,1,N,1","+0248,1","+0200,1","10157,1",,,,"04,1,+00540,1,08,1",,,"07,99,1,07,1,08,1,00450,1,99,9,99,9",,"9,9,999,9,-001,1",,"SYN076AAXX  29004 08583 32460 70414 10248 20200 40157 878// 333 59001 84818 86626;",
"08583099999","2010-07-29T06:00:00","4","16.8333333","-25.05","20.0","MINDELO, CV","FM-12","99999","V020","070,1,N,0067,1","04500,1,C,N","010000,1,N,1","+0240,1","+0197,1","10136,1",,,,"02,1,+00540,1,08,1",,,"06,99,1,02,1,02,1,00450,1,03,1,99,9","999,N,+0238,1","9,9,999,9,-011,1",,"SYN082AAXX  29064 08583 32460 60713 10240 20197 40136 8223/ 333 20238 59011 82818 86360;",
"08583099999","2010-07-29T12:00:00","4","16.8333333","-25.05","20.0","MINDELO, CV","FM-12","99999","V020","060,1,N,0077,1","00900,1,C,N","010000,1,N,1","+0273,1","+0205,1","10153,1",,,,"02,1,+00450,1,08,1",,,"05,99,1,05,1,08,1,00450,1,99,9,99,9",,"9,9,999,9,-004,1",,"SYN076AAXX  29124 08583 32460 50615 10273 20205 40153 858// 333 59004 82815 85618;",
"08583099999","2010-07-29T18:00:00","4","16.8333333","-25.05","20.0","MINDELO, CV","FM-12","99999","V020","060,1,N,0087,1","04500,1,C,N","012000,1,N,1","+0270,1","+0193,1","10128,1",,,,"04,1,+00540,1,08,1",,,"06,99,1,04,1,02,1,00450,1,03,1,09,1","120,M,+0290,1","9,9,999,9,-007,1",,"SYN082AAXX  29184 08583 32462 60617 10270 20193 40128 84239 333 10290 59007 84818 84360;",
"08583099999","2010-07-30T00:00:00","4","16.8333333","-25.05","20.0","MINDELO, CV","FM-12","99999","V020","060,1,N,0051,1","00900,1,C,N","012000,1,N,1","+0245,1","+0188,1","10148,1",,,,"02,1,+00540,1,08,1",,,"05,99,1,05,1,08,1,00450,1,00,1,00,1",,"9,9,999,9,-009,1",,"SYN076AAXX  30004 08583 32462 50610 10245 20188 40148 85800 333 59009 82818 85626;",
"08583099999","2010-07-30T06:00:00","4","16.8333333","-25.05","20.0","MINDELO, CV","FM-12","99999","V020","070,1,N,0051,1","00900,1,C,N","015000,1,N,1","+0240,1","+0188,1","10130,1",,,,"02,1,+00510,1,08,1",,,"06,99,1,06,1,08,1,00450,1,99,9,99,9","999,N,+0238,1","9,9,999,9,-006,1",,"SYN082AAXX  30064 08583 32465 60710 10240 20188 40130 868// 333 20238 59006 82817 86625;",
"08583099999","2010-07-30T12:00:00","4","16.8333333","-25.05","20.0","MINDELO, CV","FM-12","99999","V020","050,1,N,0082,1","22000,1,C,N","018000,1,N,1","+0280,1","+0173,1","10134,1",,,,"03,1,+00750,1,08,1",,,"05,99,1,03,1,02,1,00800,1,00,1,01,1",,"9,9,999,9,-019,1",,"SYN076AAXX  30124 08583 32568 50516 10280 20173 40134 83201 333 59019 83825 84070;",
"08583099999","2010-07-31T12:00:00","4","16.8333333","-25.05","20.0","MINDELO, CV","FM-12","99999","V020","020,1,N,0051,1","10500,1,9,N","020000,1,N,1","+0281,1","+0202,1","10132,1",,,,"04,1,+00570,1,08,1",,,"05,99,1,04,1,02,1,00450,1,00,1,09,1",,"9,9,999,9,-002,1",,"SYN070AAXX  31124 08583 32470 50210 10281 20202 40132 84209 333 59002 84819;",
"08583099999","2010-07-31T18:00:00","4","16.8333333","-25.05","20.0","MINDELO, CV","FM-12","99999","V020","050,1,N,0067,1","22000,1,9,N","018000,1,N,1","+0286,1","+0206,1","10107,1",,,,"01,1,+00660,1,08,1",,,"01,99,1,01,1,01,1,00800,1,00,1,00,1","120,M,+0302,1","9,9,999,9,-008,1",,"SYN076AAXX  31184 08583 32568 10513 10286 20206 40107 81100 333 10302 59008 81822;",
"08583099999","2010-08-01T00:00:00","4","16.8333333","-25.05","20.0","MINDELO, CV","FM-12","99999","V020","070,1,N,0046,1","22000,1,9,N","012000,1,N,1","+0250,1","+0216,1","10133,1",,,,"01,1,+00450,1,06,1",,,"01,99,1,01,1,05,1,00450,1,00,1,00,1",,"9,9,999,9,-003,1",,"SYN070AAXX  01004 08583 32462 10709 10250 20216 40133 81500 333 59003 81615;",
"08583099999","2010-08-01T06:00:00","4","16.8333333","-25.05","20.0","MINDELO, CV","FM-12","99999","V020","070,1,N,0046,1","22000,1,9,N","012000,1,N,1","+0242,1","+0213,1","10116,1",,,,"01,1,+00450,1,08,1",,,"03,99,1,01,1,01,1,00450,1,03,1,00,1","999,N,+0230,1","9,9,999,9,-004,1",,"SYN082AAXX  01064 08583 32462 30709 10242 20213 40116 81130 333 20230 59004 81815 83359;",
"08583099999","2010-08-01T12:00:00","4","16.8333333","-25.05","20.0","MINDELO, CV","FM-12","99999","V020","060,1,N,0036,1","22000,1,9,N","010000,1,N,1","+0286,1","+0185,1","10124,1",,,,"01,1,+00600,1,06,1",,,"01,99,1,01,1,05,1,00800,1,00,1,00,1",,"9,9,999,9,-008,1",,"SYN070AAXX  01124 08583 32560 10607 10286 20185 40124 81500 333 59008 81620;",
"08583099999","2010-08-01T18:00:00","4","16.8333333","-25.05","20.0","MINDELO, CV","FM-12","99999","V020","070,1,N,0077,1","22000,1,9,N","010000,1,N,1","+0298,1","+0185,1","10103,1",,,,"01,1,+00540,1,08,1",,,"01,99,1,01,1,01,1,00450,1,00,1,00,1","120,M,+0311,1","9,9,999,9,-004,1",,"SYN076AAXX  01184 08583 32460 10715 10298 20185 40103 81100 333 10311 59004 81818;",
"08583099999","2010-08-02T00:00:00","4","16.8333333","-25.05","20.0","MINDELO, CV","FM-12","99999","V020","070,1,N,0077,1","22000,1,9,N","008000,1,N,1","+0252,1","+0212,1","10132,1",,"0,1,06,1","0,1,06,1","01,1,+00540,1,08,1",,,"01,99,1,01,1,01,1,00450,1,00,1,00,1",,"9,9,999,9,-001,1","06,1","SYN076AAXX  02004 08583 31458 10715 10252 20212 40132 70600 81100 333 59001 81818;",
"08583099999","2010-08-02T06:00:00","4","16.8333333","-25.05","20.0","MINDELO, CV","FM-12","99999","V020","050,1,N,0103,1","22000,1,C,N","008000,1,N,1","+0246,1","+0211,1","10111,1",,"2,1,06,1","1,1,06,1","04,1,+00540,1,06,1",,,"06,99,1,04,1,05,1,00450,1,00,1,01,1","999,N,+0241,1","9,9,999,9,-005,1","06,1","SYN088AAXX  02064 08583 31458 60520 10246 20211 40111 70621 84501 333 20241 59005 84618 83070;",
"08583099999","2010-08-02T12:00:00","4","16.8333333","-25.05","20.0","MINDELO, CV","FM-12","99999","V020","050,1,N,0118,1","22000,1,9,N","009000,1,N,1","+0286,1","+0211,1","10127,1",,"2,1,06,1","1,1,06,1","04,1,+00510,1,08,1",,,"04,99,1,04,1,01,1,00450,1,00,1,00,1",,"9,9,999,9,+003,1","06,1","SYN076AAXX  02124 08583 31459 40523 10286 20211 40127 70621 84100 333 58003 84817;",
"08583099999","2010-08-02T18:00:00","4","16.8333333","-25.05","20.0","MINDELO, CV","FM-12","99999","V020","070,1,N,0098,1","22000,1,9,N","008000,1,N,1","+0280,1","+0211,1","10120,1",,"1,1,06,1","0,1,06,1","04,1,+00600,1,08,1",,,"04,99,1,04,1,01,1,00450,1,00,1,00,1","120,M,+0300,1","9,9,999,9,+017,1","06,1","SYN082AAXX  02184 08583 31458 40719 10280 20211 40120 70610 84100 333 10300 58017 84820;",
"08583099999","2010-08-03T00:00:00","4","16.8333333","-25.05","20.0","MINDELO, CV","FM-12","99999","V020","050,1,N,0057,1","00900,1,C,N","009000,1,N,1","+0253,1","+0207,1","10147,1",,"2,1,06,1","1,1,06,1","04,1,+00540,1,08,1",,,"07,99,1,07,1,08,1,00450,1,99,9,99,9",,"9,9,999,9,+015,1","06,1","SYN082AAXX  03004 08583 31459 70511 10253 20207 40147 70621 878// 333 58015 84818 86626;",
"08583099999","2010-08-03T06:00:00","4","16.8333333","-25.05","20.0","MINDELO, CV","FM-12","99999","V020","070,1,N,0046,1","22000,1,9,N","010000,1,N,1","+0251,1","+0190,1","10131,1",,,,"01,1,+00600,1,08,1",,,"03,99,1,03,1,08,1,00800,1,00,1,00,1","999,N,+0251,1","9,9,999,9,+020,1",,"SYN082AAXX  03064 08583 32560 30709 10251 20190 40131 83800 333 20251 58020 81820 83630;",
"08583099999","2010-08-03T12:00:00","4","16.8333333","-25.05","20.0","MINDELO, CV","FM-12","99999","V020","050,1,N,0082,1","22000,1,9,N","009000,1,N,1","+0278,1","+0192,1","10140,1",,"2,1,06,1","1,1,06,1","03,1,+00600,1,08,1",,,"04,99,1,03,1,02,1,00800,1,00,1,01,1",,"9,9,999,9,+013,1","06,1","SYN076AAXX  03124 08583 31559 40516 10278 20192 40140 70621 83201 333 58013 83820;",
"08583099999","2010-08-03T18:00:00","4","16.8333333","-25.05","20.0","MINDELO, CV","FM-12","99999","V020","050,1,N,0098,1","22000,1,9,N","012000,1,N,1","+0275,1","+0195,1","10120,1",,,,"04,1,+00600,1,08,1",,,"04,99,1,04,1,08,1,00800,1,00,1,01,1","120,M,+0302,1","9,9,999,9,+000,1",,"SYN076AAXX  03184 08583 32562 40519 10275 20195 40120 84801 333 10302 58000 84820;",
"08583099999","2010-08-04T00:00:00","4","16.8333333","-25.05","20.0","MINDELO, CV","FM-12","99999","V020","050,1,N,0062,1","22000,1,9,N","012000,1,N,1","+0245,1","+0210,1","10141,1",,,,"02,1,+00600,1,06,1",,,"03,99,1,02,1,05,1,00800,1,00,1,01,1",,"9,9,999,9,-006,1",,"SYN070AAXX  04004 08583 32562 30512 10245 20210 40141 82501 333 59006 82620;",
"08583099999","2010-08-04T06:00:00","4","16.8333333","-25.05","20.0","MINDELO, CV","FM-12","99999","V020","060,1,N,0062,1","04500,1,9,N","010000,1,N,1","+0247,1","+0210,1","10132,1",,,,"02,1,+00510,1,08,1",,,"06,99,1,04,1,08,1,00450,1,03,1,01,1","999,N,+0242,1","9,9,999,9,+001,1",,"SYN082AAXX  04064 08583 32460 60612 10247 20210 40132 84831 333 20242 58001 82817 84625;",
"08583099999","2010-08-04T12:00:00","4","16.8333333","-25.05","20.0","MINDELO, CV","FM-12","99999","V020","050,1,N,0067,1","00900,1,9,N","009000,1,N,1","+0290,1","+0220,1","10143,1",,"2,1,06,1","2,1,06,1","03,1,+00450,1,08,1","05,1,+00900,1,06,1",,"07,99,1,05,1,04,1,00450,1,08,1,03,1",,"9,9,999,9,+003,1","06,1","SYN088AAXX  04124 08583 31459 70513 10290 20220 40143 70622 85483 333 58003 83815 85630 86360;",
"08583099999","2010-08-04T18:00:00","4","16.8333333","-25.05","20.0","MINDELO, CV","FM-12","99999","V020","040,1,N,0067,1","10500,1,9,N","010000,1,N,1","+0290,1","+0221,1","10118,1",,,,"02,1,+00480,1,08,1",,,"06,99,1,04,1,08,1,00450,1,00,1,02,1","120,M,+0308,1","9,9,999,9,-002,1",,"SYN082AAXX  04184 08583 32460 60413 10290 20221 40118 84802 333 10308 59002 82816 84624;",
"08583099999","2010-08-05T00:00:00","4","16.8333333","-25.05","20.0","MINDELO, CV","FM-12","99999","V020","060,1,N,0062,1","10500,1,C,N","009000,1,N,1","+0257,1","+0223,1","10147,1",,"2,1,06,1","1,1,06,1","03,1,+00480,1,08,1",,,"06,99,1,03,1,02,1,00450,1,00,1,02,1",,"9,9,999,9,+006,1","06,1","SYN082AAXX  05004 08583 31459 60612 10257 20223 40147 70621 83202 333 58006 83816 85070;",
"08583099999","2010-08-05T06:00:00","4","16.8333333","-25.05","20.0","MINDELO, CV","FM-12","99999","V020","050,1,N,0057,1","10500,1,C,N","009000,1,N,1","+0253,1","+0222,1","10133,1",,"2,1,06,1","2,1,06,1","03,1,+00540,1,08,1",,,"07,99,1,03,1,02,1,00450,1,00,1,06,1","999,N,+0245,1","9,9,999,9,+001,1","06,1","SYN088AAXX  05064 08583 31459 70511 10253 20222 40133 70622 83206 333 20245 58001 83818 87070;",
"08583099999","2010-08-05T12:00:00","4","16.8333333","-25.05","20.0","MINDELO, CV","FM-12","99999","V020","050,1,N,0072,1","22000,1,9,N","012000,1,N,1","+0298,1","+0218,1","10149,1",,,,"03,1,+00510,1,08,1",,,"03,99,1,03,1,08,1,00450,1,00,1,09,1",,"9,9,999,9,+006,1",,"SYN070AAXX  05124 08583 32462 30514 10298 20218 40149 83809 333 58006 83817;",
"08583099999","2010-08-05T18:00:00","4","16.8333333","-25.05","20.0","MINDELO, CV","FM-12","99999","V020","200,1,N,0051,1","00300,1,9,N","010000,1,N,1","+0245,1","+0226,1","10140,1",,,,"05,1,+00300,1,08,1",,,"07,99,1,07,1,08,1,00250,1,99,9,99,9","120,M,+0320,1","9,9,999,9,+022,1",,"SYN082AAXX  05184 08583 32360 72010 10245 20226 40140 878// 333 10320 58022 85810 86623;",
"08583099999","2010-08-06T00:00:00","4","16.8333333","-25.05","20.0","MINDELO, CV","FM-12","99999","V020","290,1,N,0010,1","04500,1,9,N","010000,1,N,1","+0256,1","+0225,1","10160,1",,"5,1,06,1","2,1,06,1","02,1,+00480,1,08,1",,,"05,99,1,04,1,08,1,00450,1,03,1,00,1",,"9,9,999,9,+013,1","01,1","SYN082AAXX  06004 08583 31460 52902 10256 20225 40160 70152 84830 333 58013 82816 83625;",
"08583099999","2010-08-06T12:00:00","4","16.8333333","-25.05","20.0","MINDELO, CV","FM-12","99999","V020","070,1,N,0087,1","22000,1,9,N","012000,1,N,1","+0295,1","+0220,1","10149,1",,,,"03,1,+00450,1,08,1",,,"03,99,1,03,1,02,1,00450,1,03,1,01,1",,"9,9,999,9,+000,1",,"SYN070AAXX  06124 08583 32462 30717 10295 20220 40149 83231 333 58000 83815;",
"08583099999","2010-08-06T18:00:00","4","16.8333333","-25.05","20.0","MINDELO, CV","FM-12","99999","V020","080,1,N,0026,1","00900,1,C,N","018000,1,N,1","+0286,1","+0222,1","10134,1",,,,"02,1,+00480,1,08,1",,,"07,99,1,06,1,08,1,00450,1,99,9,99,9","120,M,+0305,1","9,9,999,9,-006,1",,"SYN082AAXX  06184 08583 32468 70805 10286 20222 40134 868// 333 10305 59006 82816 86620;",
"08583099999","2010-08-07T00:00:00","4","16.8333333","-25.05","20.0","MINDELO, CV","FM-12","99999","V020","090,1,N,0036,1","00900,1,C,N","015000,1,N,1","+0260,1","+0220,1","10152,1",,,,"02,1,+00450,1,08,1",,,"06,99,1,06,1,08,1,00450,1,99,9,99,9",,"9,9,999,9,-008,1",,"SYN076AAXX  07004 08583 32465 60907 10260 20220 40152 868// 333 59008 82815 86625;",
"08583099999","2010-08-07T06:00:00","4","16.8333333","-25.05","20.0","MINDELO, CV","FM-12","99999","V020","070,1,N,0026,1","22000,1,9,N","012000,1,N,1","+0247,1","+0206,1","10134,1",,,,"03,1,+00480,1,06,1",,,"03,99,1,03,1,05,1,00450,1,00,1,01,1","999,N,+0245,1","9,9,999,9,-008,1",,"SYN076AAXX  07064 08583 32462 30705 10247 20206 40134 83501 333 20245 59008 83616;",
"08583099999","2010-08-07T12:00:00","4","16.8333333","-25.05","20.0","MINDELO, CV","FM-12","99999","V020","050,1,N,0077,1","22000,1,9,N","015000,1,N,1","+0290,1","+0200,1","10153,1",,,,"02,1,+00600,1,06,1",,,"03,99,1,02,1,08,1,00800,1,00,1,00,1",,"9,9,999,9,+004,1",,"SYN070AAXX  07124 08583 32565 30515 10290 20200 40153 82800 333 58004 82620;",
"08583099999","2010-08-07T18:00:00","4","16.8333333","-25.05","20.0","MINDELO, CV","FM-12","99999","V020","050,1,N,0072,1","22000,1,9,N","012000,1,N,1","+0285,1","+0193,1","10137,1",,,,"01,1,+00660,1,08,1",,,"02,99,1,01,1,01,1,00800,1,00,1,01,1","120,M,+0300,1","9,9,999,9,+003,1",,"SYN076AAXX  07184 08583 32562 20514 10285 20193 40137 81101 333 10300 58003 81822;",
"08583099999","2010-08-08T00:00:00","4","16.8333333","-25.05","20.0","MINDELO, CV","FM-12","99999","V020","070,1,N,0051,1","22000,1,9,N","012000,1,N,1","+0246,1","+0203,1","10160,1",,,,"02,1,+00660,1,08,1",,,"04,99,1,02,1,02,1,00800,1,00,1,01,1",,"9,9,999,9,+021,1",,"SYN076AAXX  08004 08583 32562 40710 10246 20203 40160 82201 333 58021 82822 84070;",
"08583099999","2010-08-08T06:00:00","4","16.8333333","-25.05","20.0","MINDELO, CV","FM-12","99999","V020","060,1,N,0026,1","22000,1,9,N","015000,1,N,1","+0235,1","+0195,1","10142,1",,,,"01,1,+00600,1,06,1",,,"01,99,1,01,1,05,1,00800,1,00,1,00,1","999,N,+0233,1","9,9,999,9,+008,1",,"SYN076AAXX  08064 08583 32565 10605 10235 20195 40142 81500 333 20233 58008 81620;",
"08583099999","2010-08-08T12:00:00","4","16.8333333","-25.05","20.0","MINDELO, CV","FM-12","99999","V020","080,1,N,0062,1","22000,1,9,N","015000,1,N,1","+0285,1","+0190,1","10159,1",,,,"02,1,+00600,1,08,1",,,"02,99,1,02,1,01,1,00800,1,00,1,00,1",,"9,9,999,9,+006,1",,"SYN070AAXX  08124 08583 32565 20812 10285 20190 40159 82100 333 58006 82820;",
"08583099999","2010-08-09T06:00:00","4","16.8333333","-25.05","20.0","MINDELO, CV","FM-12","99999","V020","070,1,N,0021,1","22000,1,9,N","020000,1,N,1","+0227,1","+0186,1","10137,1",,,,"01,1,+00540,1,08,1",,,"01,99,1,01,1,01,1,00450,1,00,1,00,1","999,N,+0226,1","9,9,999,9,-005,1",,"SYN076AAXX  09064 08583 32470 10704 10227 20186 40137 81100 333 20226 59005 81818;",
"08583099999","2010-08-09T18:00:00","4","16.8333333","-25.05","20.0","MINDELO, CV","FM-12","99999","V020","230,1,N,0031,1","00690,1,9,N","035000,1,N,1","+0267,1","+0190,1","10135,1",,,,"05,1,+00690,1,08,1",,,"06,99,1,06,1,08,1,00800,1,00,1,00,1","120,M,+0287,1","9,9,999,9,-002,1",,"SYN076AAXX  09184 08583 32581 62306 10267 20190 40135 86800 333 10287 59002 85823;",
"08583099999","2010-08-10T00:00:00","4","16.8333333","-25.05","20.0","MINDELO, CV","FM-12","99999","V020","060,1,N,0031,1","00900,1,C,N","020000,1,N,1","+0255,1","+0190,1","10162,1",,,,"03,1,+00540,1,08,1",,,"06,99,1,06,1,08,1,00450,1,00,1,00,1",,"9,9,999,9,+002,1",,"SYN076AAXX  10004 08583 32470 60606 10255 20190 40162 86800 333 58002 83818 86624;",
"08583099999","2010-08-10T06:00:00","4","16.8333333","-25.05","20.0","MINDELO, CV","FM-12","99999","V020","060,1,N,0021,1","00900,1,9,N","020000,1,N,1","+0240,1","+0181,1","10145,1",,,,"02,1,+00540,1,08,1",,,"07,99,1,07,1,08,1,00450,1,99,9,99,9","999,N,+0235,1","9,9,999,9,+008,1",,"SYN082AAXX  10064 08583 32470 70604 10240 20181 40145 878// 333 20235 58008 82818 86630;",
"08583099999","2010-08-10T12:00:00","4","16.8333333","-25.05","20.0","MINDELO, CV","FM-12","99999","V020","210,1,N,0041,1","00690,1,9,N","035000,1,N,1","+0262,1","+0191,1","10161,1",,,,"06,1,+00690,1,08,1",,,"07,99,1,06,1,08,1,00800,1,00,1,02,1",,"9,9,999,9,+004,1",,"SYN070AAXX  10124 08583 32581 72108 10262 20191 40161 86802 333 58004 86823;",
"08583099999","2010-08-10T18:00:00","4","16.8333333","-25.05","20.0","MINDELO, CV","FM-12","99999","V020","230,1,N,0026,1","01200,1,C,N","025000,1,N,1","+0265,1","+0192,1","10143,1",,,,"03,1,+00600,1,08,1",,,"07,99,1,07,1,08,1,00800,1,99,9,99,9","120,M,+0283,1","9,9,999,9,+008,1",,"SYN082AAXX  10184 08583 32575 72305 10265 20192 40143 878// 333 10283 58008 83820 86624;",
"08583099999","2010-08-11T00:00:00","4","16.8333333","-25.05","20.0","MINDELO, CV","FM-12","99999","V020","060,1,N,0041,1","01200,1,C,N","020000,1,N,1","+0253,1","+0195,1","10175,1",,,,"01,1,+00660,1,06,1",,,"05,99,1,05,1,08,1,00800,1,00,1,00,1",,"9,9,999,9,+013,1",,"SYN076AAXX  11004 08583 32570 50608 10253 20195 40175 85800 333 58013 81622 85628;",
"08583099999","2010-08-11T06:00:00","4","16.8333333","-25.05","20.0","MINDELO, CV","FM-12","99999","V020","050,1,N,0026,1","22000,1,9,N","020000,1,N,1","+0236,1","+0180,1","10155,1",,,,"01,1,+00660,1,06,1",,,"01,99,1,01,1,05,1,00800,1,00,1,00,1","999,N,+0230,1","9,9,999,9,+010,1",,"SYN076AAXX  11064 08583 32570 10505 10236 20180 40155 81500 333 20230 58010 81622;",
"08583099999","2010-08-11T12:00:00","4","16.8333333","-25.05","20.0","MINDELO, CV","FM-12","99999","V020","060,1,N,0051,1","22000,1,9,N","025000,1,N,1","+0277,1","+0192,1","10167,1",,,,"02,1,+00600,1,06,1",,,"03,99,1,02,1,05,1,00800,1,03,1,01,1",,"9,9,999,9,+006,1",,"SYN070AAXX  11124 08583 32575 30610 10277 20192 40167 82531 333 58006 82620;",
"08583099999","2010-08-11T18:00:00","4","16.8333333","-25.05","20.0","MINDELO, CV","FM-12","99999","V020","060,1,N,0072,1","04500,1,C,N","030000,1,N,1","+0266,1","+0192,1","10192,1",,,,"01,1,+00600,1,08,1",,,"05,99,1,01,1,01,1,00800,1,08,1,00,1","120,M,+0290,1","9,9,999,9,+002,1",,"SYN082AAXX  11184 08583 32580 50614 10266 20192 40192 81180 333 10290 58002 81820 85359;",
"08583099999","2010-08-12T00:00:00","4","16.8333333","-25.05","20.0","MINDELO, CV","FM-12","99999","V020","060,1,N,0036,1","22000,1,9,N","020000,1,N,1","+0241,1","+0200,1","10160,1",,,,"01,1,+00600,1,08,1",,,"01,99,1,01,1,01,1,00800,1,00,1,00,1",,"9,9,999,9,-015,1",,"SYN070AAXX  12004 08583 32570 10607 10241 20200 40160 81100 333 59015 81820;",
"08583099999","2010-08-12T06:00:00","4","16.8333333","-25.05","20.0","MINDELO, CV","FM-12","99999","V020","050,1,N,0015,1","22000,1,9,N","020000,1,N,1","+0236,1","+0198,1","10148,1",,,,"01,1,+00600,1,08,1",,,"02,99,1,02,1,01,1,00800,1,00,1,00,1","999,N,+0231,1","9,9,999,9,-007,1",,"SYN076AAXX  12064 08583 32570 20503 10236 20198 40148 82100 333 20231 59007 81820;",
"08583099999","2010-08-12T12:00:00","4","16.8333333","-25.05","20.0","MINDELO, CV","FM-12","99999","V020","070,1,N,0036,1","22000,1,9,N","025000,1,N,1","+0288,1","+0186,1","10151,1",,,,"01,1,+00660,1,08,1",,,"01,99,1,01,1,01,1,00800,1,00,1,00,1",,"9,9,999,9,-016,1",,"SYN070AAXX  12124 08583 32575 10707 10288 20186 40151 81100 333 59016 81822;",
"08583099999","2010-08-12T18:00:00","4","16.8333333","-25.05","20.0","MINDELO, CV","FM-12","99999","V020","150,1,N,0031,1","22000,1,9,N","025000,1,N,1","+0286,1","+0205,1","10120,1",,,,"01,1,+00600,1,06,1",,,"01,99,1,01,1,05,1,00800,1,00,1,00,1","120,M,+0302,1","9,9,999,9,-025,1",,"SYN076AAXX  12184 08583 32575 11506 10286 20205 40120 81500 333 10302 59025 81620;",
"08583099999","2010-08-13T06:00:00","4","16.8333333","-25.05","20.0","MINDELO, CV","FM-12","99999","V020","080,1,N,0051,1","22000,1,9,N","020000,1,N,1","+0250,1","+0210,1","10122,1",,,,"01,1,+00540,1,08,1",,,"03,99,1,03,1,08,1,00450,1,00,1,00,1","999,N,+0250,1","9,9,999,9,-026,1",,"SYN082AAXX  13064 08583 32470 30810 10250 20210 40122 83800 333 20250 59026 81818 83635;",
"08583099999","2010-08-13T12:00:00","4","16.8333333","-25.05","20.0","MINDELO, CV","FM-12","99999","V020","200,1,N,0046,1","22000,1,9,N","015000,1,N,1","+0278,1","+0200,1","10134,1",,,,"02,1,+00660,1,06,1",,,"02,99,1,02,1,05,1,00800,1,00,1,00,1",,"9,9,999,9,-017,1",,"SYN070AAXX  13124 08583 32565 22009 10278 20200 40134 82500 333 59017 82622;",
"08583099999","2010-08-14T00:00:00","4","16.8333333","-25.05","20.0","MINDELO, CV","FM-12","99999","V020","999,9,V,0010,1","22000,1,9,N","010000,1,N,1","+0255,1","+0220,1","10132,1",,,,"02,1,+00660,1,06,1",,,"02,99,1,02,1,05,1,00800,1,00,1,00,1",,"9,9,999,9,-015,1",,"SYN070AAXX  14004 08583 32560 29902 10255 20220 40132 82500 333 59015 82622;",
"08583099999","2010-08-14T06:00:00","4","16.8333333","-25.05","20.0","MINDELO, CV","FM-12","99999","V020","090,1,N,0026,1","00660,1,9,N","009000,1,N,1","+0260,1","+0210,1","10115,1",,"1,1,06,1","0,1,06,1","06,1,+00660,1,06,1",,,"06,99,1,06,1,05,1,00800,1,99,9,99,9","999,N,+0242,1","9,9,999,9,-007,1","06,1","SYN082AAXX  14064 08583 31559 60905 10260 20210 40115 70610 865// 333 20242 59007 86622;",
"08583099999","2010-08-14T12:00:00","4","16.8333333","-25.05","20.0","MINDELO, CV","FM-12","99999","V020","220,1,N,0036,1","00660,1,9,N","009000,1,N,1","+0285,1","+0215,1","10121,1",,"2,1,06,1","2,1,06,1","05,1,+00660,1,06,1",,,"05,99,1,02,1,05,1,00800,1,00,1,00,1",,"9,9,999,9,-013,1","06,1","SYN076AAXX  14124 08583 31559 52207 10285 20215 40121 70622 82500 333 59013 85622;",
"08583099999","2010-08-14T18:00:00","4","16.8333333","-25.05","20.0","MINDELO, CV","FM-12","99999","V020","050,1,N,0190,1","22000,1,9,N","009000,1,N,1","+0285,1","+0206,1","10084,1",,"1,1,06,1","0,1,06,1","01,1,+00600,1,08,1",,,"03,99,1,03,1,08,1,00800,1,00,1,00,1","120,M,+0311,1","9,9,999,9,-027,1","06,1","SYN088AAXX  14180 08583 31559 30519 10285 20206 40084 70610 83800 333 10311 59027 81820 83622;",
"08583099999","2010-08-15T00:00:00","4","16.8333333","-25.05","20.0","MINDELO, CV","FM-12","99999","V020","080,1,N,0051,1","22000,1,9,N","009000,1,N,1","+0253,1","+0200,1","10122,1",,"0,1,06,1","0,1,06,1","03,1,+00600,1,06,1",,,"03,99,1,03,1,05,1,00800,1,00,1,00,1",,"9,9,999,9,-010,1","06,1","SYN076AAXX  15004 08583 31559 30810 10253 20200 40122 70600 83500 333 59010 83620;",
"08583099999","2010-08-15T06:00:00","4","16.8333333","-25.05","20.0","MINDELO, CV","FM-12","99999","V020","060,1,N,0051,1","22000,1,9,N","009000,1,N,1","+0245,1","+0165,1","10105,1",,"0,1,06,1","0,1,06,1","01,1,+00600,1,06,1",,,"02,99,1,01,1,05,1,00800,1,00,1,01,1","999,N,+0240,1","9,9,999,9,-010,1","06,1","SYN082AAXX  15064 08583 31559 20610 10245 20165 40105 70600 81501 333 20240 59010 81620;",
"08583099999","2010-08-15T12:00:00","4","16.8333333","-25.05","20.0","MINDELO, CV","FM-12","99999","V020","050,1,N,0046,1","01200,1,C,N","014000,1,N,1","+0276,1","+0180,1","10126,1",,,,"04,1,+00720,1,08,1",,,"07,99,1,07,1,08,1,00800,1,99,9,99,9",,"9,9,999,9,+015,1",,"SYN076AAXX  15124 08583 32564 70509 10276 20180 40126 878// 333 58015 84824 87626;",
"08583099999","2010-08-16T00:00:00","4","16.8333333","-25.05","20.0","MINDELO, CV","FM-12","99999","V020","070,1,N,0031,1","22000,1,9,N","012000,1,N,1","+0250,1","+0202,1","10136,1",,,,"01,1,+00660,1,06,1",,,"03,99,1,01,1,05,1,00800,1,03,1,01,1",,"9,9,999,9,+014,1",,"SYN076AAXX  16004 08583 32562 30706 10250 20202 40136 81531 333 58014 81622 83070;",
"08583099999","2010-08-16T06:00:00","4","16.8333333","-25.05","20.0","MINDELO, CV","FM-12","99999","V020","050,1,N,0015,1","22000,1,9,N","012000,1,N,1","+0230,1","+0198,1","10123,1",,,,"01,1,+00660,1,06,1",,,"01,99,1,01,1,05,1,00800,1,00,1,00,1","999,N,+0227,1","9,9,999,9,+018,1",,"SYN076AAXX  16064 08583 32562 10503 10230 20198 40123 81500 333 20227 58018 81622;",
"08583099999","2010-08-16T12:00:00","4","16.8333333","-25.05","20.0","MINDELO, CV","FM-12","99999","V020","230,1,N,0031,1","22000,1,9,N","012000,1,N,1","+0280,1","+0203,1","10141,1",,,,"01,1,+00720,1,06,1",,,"01,99,1,01,1,05,1,00800,1,03,1,00,1",,"9,9,999,9,+015,1",,"SYN070AAXX  16124 08583 32562 12306 10280 20203 40141 81530 333 58015 81624;",
"08583099999","2010-08-16T18:00:00","4","16.8333333","-25.05","20.0","MINDELO, CV","FM-12","99999","V020","250,1,N,0031,1","10500,1,C,N","012000,1,N,1","+0286,1","+0197,1","10130,1",,,,"01,1,+00720,1,08,1",,,"06,99,1,01,1,01,1,00800,1,00,1,07,1","120,M,+0302,1","9,9,999,9,+015,1",,"SYN082AAXX  16184 08583 32562 62506 10286 20197 40130 81107 333 10302 58015 81824 86270;",
"08583099999","2010-08-17T00:00:00","4","16.8333333","-25.05","20.0","MINDELO, CV","FM-12","99999","V020","060,1,N,0031,1","10500,1,C,N","009000,1,N,1","+0267,1","+0211,1","10151,1",,"2,1,06,1","2,1,06,1","02,1,+00600,1,06,1",,,"07,99,1,02,1,05,1,00800,1,00,1,06,1",,"9,9,999,9,+015,1","06,1","SYN082AAXX  17004 08583 31559 70606 10267 20211 40151 70622 82506 333 58015 82620 87070;",
"08583099999","2010-08-17T06:00:00","4","16.8333333","-25.05","20.0","MINDELO, CV","FM-12","99999","V020","060,1,N,0031,1","10500,1,C,N","007000,1,N,1","+0260,1","+0235,1","10141,1",,"2,1,06,1","2,1,06,1","02,1,+00600,1,06,1",,,"07,99,1,02,1,05,1,00800,1,00,1,06,1","999,N,+0227,1","9,9,999,9,+018,1","06,1","SYN088AAXX  17064 08583 31557 70606 10260 20235 40141 70622 82506 333 20227 58018 82620 87070;",
"08583099999","2010-08-17T18:00:00","4","16.8333333","-25.05","20.0","MINDELO, CV","FM-12","99999","V020","060,1,N,0093,1","04500,1,C,N","012000,1,N,1","+0285,1","+0222,1","10125,1","12,0201,9,1",,,"03,1,+00420,1,08,1",,,"05,99,1,03,1,02,1,00450,1,03,1,01,1","120,M,+0300,1","9,9,999,9,-005,1",,"SYN088AAXX  17184 08583 12462 50618 10285 20222 40125 60202 83231 333 10300 59005 83814 83070;",
"08583099999","2010-08-18T06:00:00","4","16.8333333","-25.05","20.0","MINDELO, CV","FM-12","99999","V020","080,1,N,0015,1","22000,1,9,N","018000,1,N,1","+0245,1","+0223,1","10134,1",,,,"01,1,+00510,1,06,1",,,"02,99,1,01,1,05,1,00450,1,00,1,01,1","999,N,+0245,1","9,9,999,9,-007,1",,"SYN082AAXX  18064 08583 12468 20803 10245 20223 40134 6///4 81501 333 20245 59007 81617;",
"08583099999","2010-08-18T12:00:00","4","16.8333333","-25.05","20.0","MINDELO, CV","FM-12","99999","V020","240,1,N,0036,1","00600,1,9,N","020000,1,N,1","+0278,1","+0231,1","10135,1",,,,"05,1,+00600,1,08,1",,,"05,99,1,05,1,02,1,00800,1,99,9,99,9",,"9,9,999,9,-027,1",,"SYN070AAXX  18124 08583 32570 52407 10278 20231 40135 852// 333 59027 85820;",
"08583099999","2010-08-18T18:00:00","4","16.8333333","-25.05","20.0","MINDELO, CV","FM-12","99999","V020","060,1,N,0051,1","00900,1,C,N","025000,1,N,1","+0296,1","+0212,1","10116,1",,,,"02,1,+00450,1,08,1",,,"06,99,1,05,1,08,1,00450,1,03,1,01,1","120,M,+0297,1","9,9,999,9,-009,1",,"SYN082AAXX  18184 08583 32475 60610 10296 20212 40116 85831 333 10297 59009 82815 85625;",
"08583099999","2010-08-19T00:00:00","4","16.8333333","-25.05","20.0","MINDELO, CV","FM-12","99999","V020","050,1,N,0051,1","22000,1,9,N","025000,1,N,1","+0265,1","+0225,1","10133,1",,,,"02,1,+00660,1,08,1",,,"02,99,1,02,1,01,1,00800,1,00,1,00,1",,"9,9,999,9,-018,1",,"SYN070AAXX  19004 08583 32575 20510 10265 20225 40133 82100 333 59018 82822;",
"08583099999","2010-08-19T12:00:00","4","16.8333333","-25.05","20.0","MINDELO, CV","FM-12","99999","V020","060,1,N,0113,1","22000,1,9,N","015000,1,N,1","+9999,9","+9999,9","10117,1",,,,"03,1,+00510,1,08,1",,,"03,99,1,03,1,02,1,00450,1,00,1,00,1",,"9,9,999,9,-018,1",,"SYN070AAXX  19124 08583 32465 30622 10/// 20/// 40117 83200 333 59018 83817;",
"08583099999","2010-08-19T18:00:00","4","16.8333333","-25.05","20.0","MINDELO, CV","FM-12","99999","V020","030,1,N,0067,1","00900,1,C,N","013000,1,N,1","+9999,9","+9999,9","10106,1",,,,"02,1,+00510,1,08,1",,,"06,99,1,06,1,08,1,00450,1,00,1,00,1",,"9,9,999,9,-010,1",,"SYN082AAXX  19184 08583 32463 60313 10/// 20/// 40106 86800 333 10/// 59010 82817 86620;",
"08583099999","2010-08-20T00:00:00","4","16.8333333","-25.05","20.0","MINDELO, CV","FM-12","99999","V020","050,1,N,0051,1","22000,1,C,N","010000,1,N,1","+9999,9","+9999,9","10137,1",,,,"03,1,+00420,1,08,1",,,"05,99,1,03,1,02,1,00450,1,00,1,01,1",,"9,9,999,9,+004,1",,"SYN076AAXX  20004 08583 32460 50510 10/// 20/// 40137 83201 333 58004 83814 83070;",
"08583099999","2010-08-20T12:00:00","4","16.8333333","-25.05","20.0","MINDELO, CV","FM-12","99999","V020","040,1,N,0093,1","22000,1,9,N","012000,1,N,1","+0291,1","+0230,1","10141,1",,,,"04,1,+00450,1,08,1",,,"04,99,1,04,1,02,1,00450,1,00,1,00,1",,"9,9,999,9,+024,1",,"SYN070AAXX  20124 08583 32462 40418 10291 20230 40141 84200 333 58024 84815;",
"08583099999","2010-08-20T18:00:00","4","16.8333333","-25.05","20.0","MINDELO, CV","FM-12","99999","V020","060,1,N,0093,1","22000,1,9,N","012000,1,N,1","+0287,1","+0217,1","10121,1",,,,"04,1,+00450,1,08,1",,,"04,99,1,04,1,02,1,00450,1,03,1,01,1","120,M,+0307,1","9,9,999,9,+015,1",,"SYN076AAXX  20184 08583 32462 40618 10287 20217 40121 84231 333 10307 58015 84815;",
"08583099999","2010-08-21T00:00:00","4","16.8333333","-25.05","20.0","MINDELO, CV","FM-12","99999","V020","060,1,N,0113,1","10500,1,C,N","012000,1,N,1","+0257,1","+0213,1","10140,1",,,,"02,1,+00450,1,06,1",,,"05,99,1,02,1,05,1,00450,1,03,1,01,1",,"9,9,999,9,+003,1",,"SYN076AAXX  21004 08583 32462 50622 10257 20213 40140 82531 333 58003 82615 83360;",
"08583099999","2010-08-21T06:00:00","4","16.8333333","-25.05","20.0","MINDELO, CV","FM-12","99999","V020","070,1,N,0108,1","10500,1,C,N","012000,1,N,1","+0253,1","+0213,1","10128,1",,,,"02,1,+00510,1,06,1",,,"05,99,1,02,1,05,1,00450,1,00,1,02,1","999,N,+0252,1","9,9,999,9,+012,1",,"SYN082AAXX  21064 08583 32462 50721 10253 20213 40128 82502 333 20252 58012 82617 85070;",
"08583099999","2010-08-21T12:00:00","4","16.8333333","-25.05","20.0","MINDELO, CV","FM-12","99999","V020","050,1,N,0093,1","00420,1,9,N","010000,1,N,1","+0291,1","+0223,1","10158,1",,"5,1,06,1","2,1,06,1","05,1,+00420,1,08,1",,,"07,99,1,06,1,08,1,00450,1,03,1,99,9",,"9,9,999,9,+017,1","03,1","SYN082AAXX  21124 08583 31460 70518 10291 20223 40158 70352 8683/ 333 58017 85814 85618;",
"08583099999","2010-08-21T18:00:00","4","16.8333333","-25.05","20.0","MINDELO, CV","FM-12","99999","V020","060,1,N,0082,1","00900,1,C,N","007000,1,N,1","+0250,1","+0236,1","10135,1","12,9999,9,9","6,1,06,1","5,1,06,1","04,1,+00420,1,08,1",,,"08,99,1,08,1,08,1,00450,1,99,9,99,9","120,M,+0303,1","9,9,999,9,+024,1","60,1","SYN094AAXX  21184 08583 11457 80616 10250 20236 40135 6///2 76065 888// 333 10303 58024 84814 88620;",
"08583099999","2010-08-22T00:00:00","4","16.8333333","-25.05","20.0","MINDELO, CV","FM-12","99999","V020","060,1,N,0057,1","00600,1,9,N","003200,1,N,1","+0253,1","+0245,1","10159,1",,"6,1,06,1","5,1,06,1","02,1,+00420,1,07,1","05,1,+00600,1,08,1",,"08,99,1,05,1,08,1,00450,1,02,1,99,9",,"9,9,999,9,+019,1","61,1","SYN094AAXX  22004 08583 11432 80611 10253 20245 40159 6///1 76165 8582/ 333 58019 82714 85820 85460;",
"08583099999","2010-08-22T06:00:00","4","16.8333333","-25.05","20.0","MINDELO, CV","FM-12","99999","V020","020,1,N,0010,1","00900,1,C,N","010000,1,N,1","+0251,1","+0238,1","10157,1",,"6,1,06,1","2,1,06,1","02,1,+00420,1,08,1",,,"05,99,1,05,1,08,1,00450,1,03,1,01,1","999,N,+0242,1","9,9,999,9,+029,1","01,1","SYN094AAXX  22064 08583 11460 50202 10251 20238 40157 6///4 70162 85831 333 20242 58029 82814 85618;",
"08583099999","2010-08-22T12:00:00","4","16.8333333","-25.05","20.0","MINDELO, CV","FM-12","99999","V020","160,1,N,0026,1","22000,1,9,N","025000,1,N,1","+0290,1","+0230,1","10180,1",,,,"03,1,+00510,1,08,1",,,"04,99,1,03,1,02,1,00450,1,00,1,01,1",,"9,9,999,9,+022,1",,"SYN076AAXX  22124 08583 32475 41605 10290 20230 40180 83201 333 58022 83817 83070;",
"08583099999","2010-08-22T18:00:00","4","16.8333333","-25.05","20.0","MINDELO, CV","FM-12","99999","V020","230,1,N,0021,1","22000,1,C,N","025000,1,N,1","+0287,1","+0238,1","10155,1",,,,"02,1,+00600,1,08,1",,,"06,99,1,02,1,02,1,00800,1,00,1,01,1","120,M,+0301,1","9,9,999,9,+020,1",,"SYN082AAXX  22184 08583 32575 62304 10287 20238 40155 82201 333 10301 58020 82820 86070;",
"08583099999","2010-08-23T00:00:00","4","16.8333333","-25.05","20.0","MINDELO, CV","FM-12","99999","V020","080,1,N,0046,1","04500,1,C,N","015000,1,N,1","+0266,1","+0242,1","10171,1",,,,"02,1,+00480,1,08,1",,,"05,99,1,03,1,08,1,00450,1,03,1,01,1",,"9,9,999,9,+012,1",,"SYN076AAXX  23004 08583 32465 50809 10266 20242 40171 83831 333 58012 82816 84360;",
"08583099999","2010-08-23T06:00:00","4","16.8333333","-25.05","20.0","MINDELO, CV","FM-12","99999","V020","999,9,V,0010,1","10500,1,9,N","012000,1,N,1","+0255,1","+0240,1","10139,1",,,,"01,1,+00450,1,06,1",,,"05,99,1,01,1,05,1,00450,1,08,1,01,1","999,N,+0255,1","9,9,999,9,-018,1",,"SYN082AAXX  23064 08583 32462 59902 10255 20240 40139 81581 333 20255 59018 81615 83360;",
"08583099999","2010-08-23T12:00:00","4","16.8333333","-25.05","20.0","MINDELO, CV","FM-12","99999","V020","220,1,N,0031,1","22000,1,9,N","010000,1,N,1","+0283,1","+0240,1","10138,1",,,,"01,1,+00420,1,06,1",,,"01,99,1,01,1,05,1,00450,1,00,1,00,1",,"9,9,999,9,-042,1",,"SYN070AAXX  23124 08583 32460 12206 10283 20240 40138 81500 333 59042 81614;",
"08583099999","2010-08-23T18:00:00","4","16.8333333","-25.05","20.0","MINDELO, CV","FM-12","99999","V020","060,1,N,0103,1","22000,1,9,N","012000,1,N,1","+0346,1","+0100,1","10097,1",,,,"01,1,+00360,1,08,1",,,"02,99,1,01,1,02,1,00450,1,00,1,01,1","120,M,+0360,1","9,9,999,9,-058,1",,"SYN076AAXX  23184 08583 32462 20620 10346 20100 40097 81201 333 10360 59058 81812;",
"08583099999","2010-08-24T00:00:00","4","16.8333333","-25.05","20.0","MINDELO, CV","FM-12","99999","V020","050,1,N,0062,1","00900,1,C,N","010000,1,N,1","+0266,1","+0215,1","10139,1",,,,"02,1,+00480,1,08,1",,,"07,99,1,07,1,08,1,00450,1,99,9,99,9",,"9,9,999,9,-032,1",,"SYN076AAXX  24004 08583 32460 70512 10266 20215 40139 878// 333 59032 82816 87626;",
"08583099999","2010-08-24T06:00:00","4","16.8333333","-25.05","20.0","MINDELO, CV","FM-12","99999","V020","050,1,N,0072,1","04500,1,C,N","008000,1,N,1","+0258,1","+0223,1","10110,1",,"2,1,06,1","2,1,06,1","01,1,+00450,1,08,1","03,1,+00780,1,06,1",,"07,99,1,03,1,08,1,00450,1,03,1,99,9","999,N,+0252,1","9,9,999,9,-029,1","06,1","SYN094AAXX  24064 08583 31458 70514 10258 20223 40110 70622 8383/ 333 20252 59029 81815 83626 86360;",
"08583099999","2010-08-24T12:00:00","4","16.8333333","-25.05","20.0","MINDELO, CV","FM-12","99999","V020","050,1,N,0118,1","04500,1,C,N","008000,1,N,1","+0300,1","+0223,1","10119,1",,"2,1,06,1","2,1,06,1","04,1,+00480,1,08,1",,,"07,99,1,04,1,08,1,00450,1,03,1,02,1",,"9,9,999,9,-019,1","06,1","SYN082AAXX  24124 08583 31458 70523 10300 20223 40119 70622 84832 333 59019 84816 86360;",
"08583099999","2010-08-24T18:00:00","4","16.8333333","-25.05","20.0","MINDELO, CV","FM-12","99999","V020","050,1,N,0093,1","00600,1,9,N","006000,1,N,1","+0270,1","+0231,1","10113,1",,"2,1,06,1","2,1,06,1","03,1,+00450,1,08,1","05,1,+00600,1,06,1",,"08,99,1,05,1,08,1,00450,1,07,1,99,9","120,M,+0337,1","9,9,999,9,+013,1","06,1","SYN094AAXX  24184 08583 31456 80518 10270 20231 40113 70622 8587/ 333 10337 58013 83815 85620 88260;",
"08583099999","2010-08-25T00:00:00","4","16.8333333","-25.05","20.0","MINDELO, CV","FM-12","99999","V020","050,1,N,0062,1","00600,1,9,N","006000,1,N,1","+0265,1","+0241,1","10131,1",,"5,1,06,1","2,1,06,1","02,1,+00450,1,08,1","05,1,+00600,1,06,1",,"08,99,1,06,1,08,1,00450,1,07,1,99,9",,"9,9,999,9,-008,1","06,1","SYN088AAXX  25004 08583 31456 80512 10265 20241 40131 70652 8687/ 333 59008 82815 85620 87460;",
"08583099999","2010-08-25T12:00:00","4","16.8333333","-25.05","20.0","MINDELO, CV","FM-12","99999","V020","060,1,N,0051,1","00900,1,C,N","017000,1,N,1","+0303,1","+0235,1","10149,1",,,,"03,1,+00450,1,08,1",,,"07,99,1,06,1,08,1,00450,1,03,1,99,9",,"9,9,999,9,+030,1",,"SYN076AAXX  25124 08583 32467 70610 10303 20235 40149 8683/ 333 58030 83815 85818;",
"08583099999","2010-08-25T18:00:00","4","16.8333333","-25.05","20.0","MINDELO, CV","FM-12","99999","V020","160,1,N,0057,1","22000,1,9,N","025000,1,N,1","+0303,1","+0220,1","10130,1",,,,"03,1,+00510,1,08,1",,,"04,99,1,03,1,02,1,00450,1,00,1,01,1","120,M,+0320,1","9,9,999,9,+017,1",,"SYN076AAXX  25184 08583 32475 41611 10303 20220 40130 83201 333 10320 58017 83817;",
"08583099999","2010-08-26T00:00:00","4","16.8333333","-25.05","20.0","MINDELO, CV","FM-12","99999","V020","999,9,C,0000,1","06000,1,9,N","025000,1,N,1","+0272,1","+0223,1","10153,1",,,,"05,1,+06000,1,00,1",,,"05,99,1,00,1,00,1,99999,9,00,1,01,1",,"9,9,999,9,+022,1",,"SYN070AAXX  26004 08583 32975 50000 10272 20223 40153 80001 333 58022 85070;",
"08583099999","2010-08-26T06:00:00","4","16.8333333","-25.05","20.0","MINDELO, CV","FM-12","99999","V020","080,1,N,0015,1","22000,1,9,N","025000,1,N,1","+0253,1","+0238,1","10146,1",,,,"01,1,+06000,1,00,1",,,"01,99,1,00,1,00,1,99999,9,00,1,01,1","999,N,+0253,1","9,9,999,9,+025,1",,"SYN076AAXX  26064 08583 32975 10803 10253 20238 40146 80001 333 20253 58025 81070;",
"08583099999","2010-08-26T12:00:00","4","16.8333333","-25.05","20.0","MINDELO, CV","FM-12","99999","V020","220,1,N,0031,1","00900,1,C,N","015000,1,N,1","+0273,1","+0241,1","10159,1",,,,"04,1,+00480,1,08,1",,,"07,99,1,07,1,08,1,00450,1,99,9,99,9",,"9,9,999,9,+010,1",,"SYN076AAXX  26124 08583 32465 72206 10273 20241 40159 878// 333 58010 84816 87620;",
"08583099999","2010-08-26T18:00:00","4","16.8333333","-25.05","20.0","MINDELO, CV","FM-12","99999","V020","050,1,N,0046,1","22000,1,9,N","018000,1,N,1","+0297,1","+0223,1","10133,1",,,,"03,1,+00540,1,08,1",,,"03,99,1,03,1,02,1,00450,1,00,1,00,1","120,M,+0305,1","9,9,999,9,+003,1",,"SYN076AAXX  26184 08583 32468 30509 10297 20223 40133 83200 333 10305 58003 83818;",
"08583099999","2010-08-27T00:00:00","4","16.8333333","-25.05","20.0","MINDELO, CV","FM-12","99999","V020","070,1,N,0067,1","22000,1,C,N","012000,1,N,1","+0261,1","+0225,1","10153,1",,,,"02,1,+00420,1,08,1",,,"06,99,1,04,1,08,1,00450,1,00,1,01,1",,"9,9,999,9,+000,1",,"SYN076AAXX  27004 08583 32462 60713 10261 20225 40153 84801 333 58000 82814 85620;",
"08583099999","2010-08-27T06:00:00","4","16.8333333","-25.05","20.0","MINDELO, CV","FM-12","99999","V020","060,1,N,0067,1","00900,1,C,N","012000,1,N,1","+0251,1","+0211,1","10129,1",,,,"02,1,+00450,1,08,1",,,"06,99,1,06,1,08,1,00450,1,00,1,00,1","999,N,+0250,1","9,9,999,9,-017,1",,"SYN082AAXX  27064 08583 32462 60613 10251 20211 40129 86800 333 20250 59017 82815 85620;",
"08583099999","2010-08-27T12:00:00","4","16.8333333","-25.05","20.0","MINDELO, CV","FM-12","99999","V020","060,1,N,0098,1","22000,1,C,N","018000,1,N,1","+0292,1","+0215,1","10138,1",,,,"04,1,+00540,1,08,1",,,"05,99,1,04,1,02,1,00450,1,00,1,01,1",,"9,9,999,9,-021,1",,"SYN076AAXX  27124 08583 32468 50619 10292 20215 40138 84201 333 59021 84818 84070;",
"08583099999","2010-08-27T18:00:00","4","16.8333333","-25.05","20.0","MINDELO, CV","FM-12","99999","V020","050,1,N,0087,1","00540,1,9,N","020000,1,N,1","+0297,1","+0225,1","10114,1",,,,"05,1,+00540,1,08,1",,,"05,99,1,05,1,02,1,00450,1,00,1,01,1","120,M,+0310,1","9,9,999,9,-019,1",,"SYN076AAXX  27184 08583 32470 50517 10297 20225 40114 85201 333 10310 59019 85818;",
"08583099999","2010-08-28T00:00:00","4","16.8333333","-25.05","20.0","MINDELO, CV","FM-12","99999","V020","040,1,N,0067,1","00600,1,9,N","012000,1,N,1","+0266,1","+0240,1","10145,1",,,,"03,1,+00420,1,07,1","03,1,+00600,1,08,1",,"07,99,1,07,1,08,1,00450,1,99,9,99,9",,"9,9,999,9,-008,1",,"SYN082AAXX  28004 08583 32462 70413 10266 20240 40145 878// 333 59008 83714 83820 86625;",
"08583099999","2010-08-28T06:00:00","4","16.8333333","-25.05","20.0","MINDELO, CV","FM-12","99999","V020","060,1,N,0057,1","00900,1,C,N","012000,1,N,1","+0263,1","+0240,1","10121,1",,"6,1,06,1","5,1,06,1","04,1,+00480,1,08,1",,,"06,99,1,06,1,08,1,00450,1,99,9,99,9","999,N,+0263,1","9,9,999,9,-008,1","03,1","SYN094AAXX  28064 08583 11462 60611 10263 20240 40121 6///4 70365 868// 333 20263 59008 84816 85622;",
"08583099999","2010-08-28T12:00:00","4","16.8333333","-25.05","20.0","MINDELO, CV","FM-12","99999","V020","050,1,N,0072,1","22000,1,9,N","012000,1,N,1","+0295,1","+0233,1","10136,1","06,0000,9,1","5,1,06,1","1,1,06,1","04,1,+00510,1,08,1",,,"04,99,1,04,1,02,1,00450,1,00,1,00,1",,"9,9,999,9,-002,1","02,1","SYN082AAXX  28124 08583 11462 40514 10295 20233 40136 69901 70251 84200 333 59002 84817;","Q01  00002PRCP06"
"08583099999","2010-08-28T18:00:00","4","16.8333333","-25.05","20.0","MINDELO, CV","FM-12","99999","V020","040,1,N,0072,1","22000,1,9,N","012000,1,N,1","+0297,1","+0236,1","10117,1",,,,"03,1,+00450,1,08,1",,,"04,99,1,04,1,02,1,00450,1,00,1,09,1","120,M,+0318,1","9,9,999,9,+003,1",,"SYN076AAXX  28184 08583 32462 40414 10297 20236 40117 84209 333 10318 58003 83815;",
"08583099999","2010-08-29T00:00:00","4","16.8333333","-25.05","20.0","MINDELO, CV","FM-12","99999","V020","060,1,N,0051,1","22000,1,9,N","012000,1,N,1","+0265,1","+0237,1","10131,1",,,,"01,1,+00450,1,08,1",,,"02,99,1,01,1,01,1,00450,1,00,1,04,1",,"9,9,999,9,+014,1",,"SYN070AAXX  29004 08583 32462 20610 10265 20237 40131 81104 333 58014 81815;",
"08583099999","2010-08-29T18:00:00","4","16.8333333","-25.05","20.0","MINDELO, CV","FM-12","99999","V020","200,1,N,0051,1","22000,1,9,N","012000,1,N,1","+0292,1","+0232,1","10085,1",,,,,,,"02,99,1,99,9,99,9,99999,9,99,9,99,9","120,M,+0292,1","9,9,999,9,-032,1",,"SYN064AAXX  29184 08583 32962 22010 10292 20232 40085 333 10292 59032;",
"08583099999","2010-08-30T00:00:00","4","16.8333333","-25.05","20.0","MINDELO, CV","FM-12","99999","V020","060,1,N,0057,1","22000,1,9,N","012000,1,N,1","+0270,1","+0215,1","10112,1",,,,"01,1,+00540,1,06,1",,,"01,99,1,01,1,05,1,00450,1,00,1,00,1",,"9,9,999,9,-019,1",,"SYN070AAXX  30004 08583 32462 10611 10270 20215 40112 81500 333 59019 81618;",
"08583099999","2010-08-30T12:00:00","4","16.8333333","-25.05","20.0","MINDELO, CV","FM-12","99999","V020","030,1,N,0026,1","22000,1,9,N","010000,1,N,1","+0295,1","+0220,1","10114,1",,,,"03,1,+00660,1,06,1",,,"03,99,1,03,1,05,1,00800,1,00,1,01,1",,"9,9,999,9,-001,1",,"SYN070AAXX  30124 08583 32560 30305 10295 20220 40114 83501 333 59001 83622;",
"08583099999","2010-08-30T18:00:00","4","16.8333333","-25.05","20.0","MINDELO, CV","FM-12","99999","V020","220,1,N,0036,1","22000,1,9,N","009000,1,N,1","+0287,1","+0225,1","10090,1",,"0,1,06,1","0,1,06,1","01,1,+00690,1,06,1",,,"01,99,1,01,1,05,1,00800,1,00,1,01,1","120,M,+0307,1","9,9,999,9,+005,1","06,1","SYN082AAXX  30184 08583 31559 12207 10287 20225 40090 70600 81501 333 10307 58005 81623;",
"08583099999","2010-08-31T00:00:00","4","16.8333333","-25.05","20.0","MINDELO, CV","FM-12","99999","V020","070,1,N,0036,1","00540,1,9,N","009000,1,N,1","+0275,1","+0215,1","10118,1",,"2,1,06,1","2,1,06,1","05,1,+00540,1,06,1",,,"05,99,1,05,1,05,1,00450,1,00,1,01,1",,"9,9,999,9,+006,1","06,1","SYN076AAXX  31004 08583 31459 50707 10275 20215 40118 70622 85501 333 58006 85618;",
"08583099999","2010-08-31T06:00:00","4","16.8333333","-25.05","20.0","MINDELO, CV","FM-12","99999","V020","030,1,N,0015,1","22000,1,9,N","010000,1,N,1","+0253,1","+0206,1","10102,1",,,,"00,1,+99999,9,99,9",,,"00,99,1,00,1,00,1,99999,9,00,1,00,1","999,N,+0252,1","9,9,999,9,+004,1",,"SYN064AAXX  31064 08583 32960 00303 10253 20206 40102 333 20252 58004;",
"08583099999","2010-08-31T12:00:00","4","16.8333333","-25.05","20.0","MINDELO, CV","FM-12","99999","V020","230,1,N,0041,1","22000,1,9,N","009000,1,N,1","+0295,1","+0215,1","10122,1",,"0,1,06,1","0,1,06,1","01,1,+00600,1,06,1",,,"01,99,1,01,1,05,1,00800,1,00,1,00,1",,"9,9,999,9,+008,1","06,1","SYN076AAXX  31124 08583 31559 12308 10295 20215 40122 70600 81500 333 58008 81620;",
"08583099999","2010-08-31T18:00:00","4","16.8333333","-25.05","20.0","MINDELO, CV","FM-12","99999","V020","250,1,N,0051,1","00600,1,9,N","009000,1,N,1","+0290,1","+0223,1","10100,1",,"1,1,06,1","0,1,06,1","05,1,+00600,1,06,1",,,"05,99,1,05,1,05,1,00800,1,00,1,00,1","120,M,+0305,1","9,9,999,9,+010,1","06,1","SYN082AAXX  31184 08583 31559 52510 10290 20223 40100 70610 85500 333 10305 58010 85620;",
"08583099999","2010-09-01T00:00:00","4","16.8333333","-25.05","20.0","MINDELO, CV","FM-12","99999","V020","230,1,N,0021,1","22000,1,C,N","009000,1,N,1","+0270,1","+0223,1","10124,1",,"1,1,06,1","0,1,06,1","03,1,+00660,1,06,1",,,"06,99,1,03,1,05,1,00800,1,00,1,01,1",,"9,9,999,9,+006,1","06,1","SYN082AAXX  01004 08583 31559 62304 10270 20223 40124 70610 83501 333 58006 83622 84070;",
"08583099999","2010-09-01T06:00:00","4","16.8333333","-25.05","20.0","MINDELO, CV","FM-12","99999","V020","280,1,N,0031,1","22000,1,9,N","009000,1,N,1","+0260,1","+0207,1","10104,1",,"1,1,06,1","0,1,06,1","02,1,+00660,1,06,1",,,"04,99,1,02,1,05,1,00800,1,00,1,01,1","999,N,+0250,1","9,9,999,9,+010,1","06,1","SYN088AAXX  01064 08583 31559 42806 10260 20207 40104 70610 82501 333 20250 58010 82622 83070;",
"08583099999","2010-09-01T12:00:00","4","16.8333333","-25.05","20.0","MINDELO, CV","FM-12","99999","V020","250,1,N,0051,1","22000,1,9,N","012000,1,N,1","+0297,1","+0216,1","10123,1",,,,"02,1,+00660,1,06,1",,,"02,99,1,02,1,05,1,00800,1,00,1,01,1",,"9,9,999,9,+001,1",,"SYN070AAXX  01124 08583 32562 22510 10297 20216 40123 82501 333 58001 82622;",
"08583099999","2010-09-02T06:00:00","4","16.8333333","-25.05","20.0","MINDELO, CV","FM-12","99999","V020","080,1,N,0010,1","22000,1,9,N","010000,1,N,1","+0250,1","+0216,1","10108,1",,,,"02,1,+00600,1,06,1",,,"03,99,1,02,1,05,1,00800,1,00,1,01,1","999,N,+0248,1","9,9,999,9,+004,1",,"SYN076AAXX  02064 08583 32560 30802 10250 20216 40108 82501 333 20248 58004 82620;",
"08583099999","2010-09-03T00:00:00","4","16.8333333","-25.05","20.0","MINDELO, CV","FM-12","99999","V020","070,1,N,0057,1","22000,1,C,N","018000,1,N,1","+0266,1","+0217,1","10121,1",,,,"02,1,+00540,1,08,1",,,"06,99,1,02,1,05,1,00450,1,00,1,06,1",,"9,9,999,9,-003,1",,"SYN076AAXX  03004 08583 32468 60711 10266 20217 40121 82506 333 59003 82818 86070;",
"08583099999","2010-09-03T06:00:00","4","16.8333333","-25.05","20.0","MINDELO, CV","FM-12","99999","V020","070,1,N,0072,1","00900,1,C,N","015000,1,N,1","+0260,1","+0210,1","10109,1",,,,"01,1,+00540,1,08,1",,,"07,99,1,06,1,08,1,00450,1,03,1,99,9","999,N,+0247,1","9,9,999,9,+001,1",,"SYN082AAXX  03064 08583 32465 70714 10260 20210 40109 8683/ 333 20247 58001 81818 86622;",
"08583099999","2010-09-03T18:00:00","4","16.8333333","-25.05","20.0","MINDELO, CV","FM-12","99999","V020","070,1,N,0118,1","22000,1,C,N","020000,1,N,1","+0296,1","+0211,1","10097,1",,,,"02,1,+00600,1,08,1",,,"05,99,1,02,1,01,1,00450,1,03,1,09,1","120,M,+0315,1","9,9,999,9,+001,1",,"SYN082AAXX  03184 08583 32470 50723 10296 20211 40097 82139 333 10315 58001 82820 83170;",
"08583099999","2010-09-04T00:00:00","4","16.8333333","-25.05","20.0","MINDELO, CV","FM-12","99999","V020","080,1,N,0067,1","04500,1,C,N","020000,1,N,1","+0260,1","+0205,1","10124,1",,,,"03,1,+00540,1,08,1",,,"06,99,1,03,1,01,1,00450,1,03,1,01,1",,"9,9,999,9,+003,1",,"SYN076AAXX  04004 08583 32470 60813 10260 20205 40124 83131 333 58003 83818 83360;",
"08583099999","2010-09-04T06:00:00","4","16.8333333","-25.05","20.0","MINDELO, CV","FM-12","99999","V020","040,1,N,0082,1","04500,1,C,N","015000,1,N,1","+0256,1","+0210,1","10105,1",,,,"03,1,+00540,1,08,1",,,"08,99,1,03,1,02,1,00450,1,03,1,99,9","999,N,+0255,1","9,9,999,9,-004,1",,"SYN082AAXX  04064 08583 32465 80416 10256 20210 40105 8323/ 333 20255 59004 83818 88359;",
"08583099999","2010-09-04T12:00:00","4","16.8333333","-25.05","20.0","MINDELO, CV","FM-12","99999","V020","060,1,N,0093,1","04500,1,C,N","018000,1,N,1","+0280,1","+0206,1","10113,1",,,,"03,1,+00600,1,08,1",,,"07,99,1,03,1,02,1,00450,1,08,1,99,9",,"9,9,999,9,-009,1",,"SYN076AAXX  04124 08583 32468 70618 10280 20206 40113 8328/ 333 59009 83820 87359;",
"08583099999","2010-09-04T18:00:00","4","16.8333333","-25.05","20.0","MINDELO, CV","FM-12","99999","V020","060,1,N,0098,1","04500,1,C,N","020000,1,N,1","+0287,1","+0195,1","10089,1",,,,"02,1,+00600,1,08,1",,,"07,99,1,02,1,02,1,00800,1,03,1,02,1","120,M,+0310,1","9,9,999,9,-008,1",,"SYN082AAXX  04184 08583 32570 70619 10287 20195 40089 82232 333 10310 59008 82820 87070;",
"08583099999","2010-09-05T00:00:00","4","16.8333333","-25.05","20.0","MINDELO, CV","FM-12","99999","V020","060,1,N,0046,1","10500,1,C,N","015000,1,N,1","+0258,1","+0212,1","10116,1",,,,"02,1,+00600,1,08,1",,,"05,99,1,02,1,02,1,00800,1,03,1,01,1",,"9,9,999,9,-008,1",,"SYN076AAXX  05004 08583 32565 50609 10258 20212 40116 82231 333 59008 82820 84360;",
"08583099999","2010-09-05T06:00:00","4","16.8333333","-25.05","20.0","MINDELO, CV","FM-12","99999","V020","060,1,N,0046,1","04500,1,C,N","012000,1,N,1","+0255,1","+0216,1","10096,1",,,,"02,1,+00660,1,08,1",,,"06,99,1,02,1,01,1,00800,1,03,1,02,1","999,N,+0253,1","9,9,999,9,-009,1",,"SYN082AAXX  05064 08583 32562 60609 10255 20216 40096 82132 333 20253 59009 82822 86070;",
"08583099999","2010-09-05T12:00:00","4","16.8333333","-25.05","20.0","MINDELO, CV","FM-12","99999","V020","230,1,N,0031,1","04500,1,C,N","018000,1,N,1","+0295,1","+0208,1","10120,1",,,,"04,1,+00540,1,08,1",,,"05,99,1,04,1,02,1,00450,1,03,1,01,1",,"9,9,999,9,+007,1",,"SYN076AAXX  05124 08583 32468 52306 10295 20208 40120 84231 333 58007 84818 83359;",
"08583099999","2010-09-05T18:00:00","4","16.8333333","-25.05","20.0","MINDELO, CV","FM-12","99999","V020","230,1,N,0036,1","00900,1,C,N","012000,1,N,1","+0290,1","+0221,1","10099,1",,,,"03,1,+00450,1,08,1",,,"06,99,1,06,1,08,1,00450,1,03,1,99,9","120,M,+0315,1","9,9,999,9,+010,1",,"SYN082AAXX  05184 08583 32462 62307 10290 20221 40099 8683/ 333 10315 58010 83815 85618;",
"08583099999","2010-09-06T00:00:00","4","16.8333333","-25.05","20.0","MINDELO, CV","FM-12","99999","V020","210,1,N,0015,1","22000,1,9,N","010000,1,N,1","+0265,1","+0225,1","10129,1",,,,"02,1,+00600,1,08,1",,,"03,99,1,02,1,02,1,00800,1,00,1,01,1",,"9,9,999,9,+013,1",,"SYN076AAXX  06004 08583 32560 32103 10265 20225 40129 82201 333 58013 82820 83070;",
"08583099999","2010-09-06T06:00:00","4","16.8333333","-25.05","20.0","MINDELO, CV","FM-12","99999","V020","230,1,N,0021,1","10500,1,C,N","009000,1,N,1","+0260,1","+0225,1","10113,1",,"2,1,06,1","2,1,06,1","04,1,+00600,1,08,1",,,"07,99,1,04,1,02,1,00800,1,00,1,02,1","999,N,+0260,1","9,9,999,9,+017,1","06,1","SYN088AAXX  06064 08583 31559 72304 10260 20225 40113 70622 84202 333 20260 58017 84820 86070;",
"08583099999","2010-09-06T12:00:00","4","16.8333333","-25.05","20.0","MINDELO, CV","FM-12","99999","V020","220,1,N,0036,1","10500,1,C,N","012000,1,N,1","+0303,1","+0223,1","10139,1",,,,"02,1,+00600,1,06,1",,,"05,99,1,02,1,02,1,00800,1,00,1,02,1",,"9,9,999,9,+019,1",,"SYN076AAXX  06124 08583 32562 52207 10303 20223 40139 82202 333 58019 82620 85070;",
"08583099999","2010-09-06T18:00:00","4","16.8333333","-25.05","20.0","MINDELO, CV","FM-12","99999","V020","160,1,N,0051,1","22000,1,C,N","020000,1,N,1","+0300,1","+0221,1","10126,1",,,,"02,1,+00660,1,08,1",,,"06,99,1,02,1,02,1,00800,1,00,1,01,1","120,M,+0315,1","9,9,999,9,+027,1",,"SYN082AAXX  06184 08583 32570 61610 10300 20221 40126 82201 333 10315 58027 82822 86070;",
"08583099999","2010-09-07T00:00:00","4","16.8333333","-25.05","20.0","MINDELO, CV","FM-12","99999","V020","999,9,V,0010,1","04500,1,C,N","015000,1,N,1","+0266,1","+0228,1","10143,1",,,,"03,1,+00600,1,08,1",,,"06,99,1,03,1,02,1,00800,1,03,1,01,1",,"9,9,999,9,+014,1",,"SYN076AAXX  07004 08583 32565 69902 10266 20228 40143 83231 333 58014 83820 84360;",
"08583099999","2010-09-07T06:00:00","4","16.8333333","-25.05","20.0","MINDELO, CV","FM-12","99999","V020","080,1,N,0021,1","22000,1,C,N","012000,1,N,1","+0261,1","+0227,1","10132,1",,,,"03,1,+00600,1,08,1",,,"05,99,1,03,1,02,1,00800,1,00,1,01,1","999,N,+0257,1","9,9,999,9,+019,1",,"SYN082AAXX  07064 08583 32562 50804 10261 20227 40132 83201 333 20257 58019 83820 83070;",
"08583099999","2010-09-07T12:00:00","4","16.8333333","-25.05","20.0","MINDELO, CV","FM-12","99999","V020","050,1,N,0051,1","04500,1,C,N","015000,1,N,1","+0303,1","+0207,1","10148,1",,,,"01,1,+00660,1,08,1","03,1,+03000,1,03,1",,"07,99,1,01,1,01,1,00800,1,03,1,07,1",,"9,9,999,9,+009,1",,"SYN082AAXX  07124 08583 32565 70510 10303 20207 40148 81137 333 58009 81822 83360 87270;",
"08583099999","2010-09-08T00:00:00","4","16.8333333","-25.05","20.0","MINDELO, CV","FM-12","99999","V020","040,1,N,0062,1","10500,1,C,N","012000,1,N,1","+0275,1","+0232,1","10140,1",,,,"03,1,+00480,1,08,1",,,"07,99,1,03,1,02,1,00450,1,00,1,06,1",,"9,9,999,9,-003,1",,"SYN076AAXX  08004 08583 32462 70412 10275 20232 40140 83206 333 59003 83816 87270;",
"08583099999","2010-09-08T12:00:00","4","16.8333333","-25.05","20.0","MINDELO, CV","FM-12","99999","V020","060,1,N,0123,1","00540,1,9,N","012000,1,N,1","+0300,1","+0236,1","99999,9",,,,"03,1,+00420,1,08,1","04,1,+00540,1,06,1",,"07,99,1,05,1,08,1,00450,1,03,1,02,1",,"9,9,999,9,-024,1",,"SYN076AAXX  08124 08583 32462 70624 10300 20236 85832 333 59024 83814 84618 85070;",
"08583099999","2010-09-08T18:00:00","4","16.8333333","-25.05","20.0","MINDELO, CV","FM-12","99999","V020","040,1,N,0093,1","00390,1,9,N","012000,1,N,1","+0271,1","+0237,1","10105,1","12,9999,9,9","6,1,06,1","5,1,06,1","05,1,+00390,1,08,1",,,"07,99,1,05,1,02,1,00450,1,03,1,02,1","120,M,+0310,1","9,9,999,9,-011,1","02,1","SYN094AAXX  08184 08583 11462 70418 10271 20237 40105 6///2 70265 85232 333 10310 59011 85813 84360;",
"08583099999","2010-09-09T00:00:00","4","16.8333333","-25.05","20.0","MINDELO, CV","FM-12","99999","V020","040,1,N,0087,1","00540,1,9,N","010000,1,N,1","+0265,1","+0226,1","10118,1",,,,"03,1,+00420,1,08,1","05,1,+00540,1,06,1",,"07,99,1,06,1,08,1,00450,1,00,1,02,1",,"9,9,999,9,-022,1",,"SYN082AAXX  09004 08583 32460 70417 10265 20226 40118 86802 333 59022 83814 85618 85070;",
"08583099999","2010-09-09T06:00:00","4","16.8333333","-25.05","20.0","MINDELO, CV","FM-12","99999","V020","050,1,N,0123,1","00540,1,9,N","007000,1,N,1","+0247,1","+0231,1","10090,1",,"6,1,06,1","6,1,06,1","03,1,+00390,1,08,1","05,1,+00540,1,06,1",,"07,99,1,06,1,08,1,00450,1,03,1,99,9","999,N,+0238,1","9,9,999,9,-008,1","51,1","SYN100AAXX  09064 08583 11457 70524 10247 20231 40090 6///4 75166 8683/ 333 20238 59008 83813 85618 85360;",
"08583099999","2010-09-09T12:00:00","4","16.8333333","-25.05","20.0","MINDELO, CV","FM-12","99999","V020","060,1,N,0103,1","00360,1,9,N","010000,1,N,1","+0262,1","+0250,1","10112,1","12,9999,9,9","6,1,06,1","6,1,06,1","06,1,+00360,1,07,1","04,1,+00600,1,08,1",,"07,99,1,06,1,08,1,00450,1,03,1,99,9",,"9,9,999,9,-012,1","50,1","SYN094AAXX  09124 08583 11460 70620 10262 20250 40112 6///2 75066 8683/ 333 59012 86712 84820 85360;",
"08583099999","2010-09-09T18:00:00","4","16.8333333","-25.05","20.0","MINDELO, CV","FM-12","99999","V020","090,1,N,0103,1","00900,1,C,N","015000,1,N,1","+0278,1","+0238,1","10090,1","12,9999,9,9",,,"04,1,+00390,1,08,1",,,"07,99,1,06,1,08,1,00450,1,00,1,01,1","120,M,+0300,1","9,9,999,9,-015,1",,"SYN088AAXX  09184 08583 12465 70920 10278 20238 40090 6///2 86801 333 10300 59015 84813 86620;",
"08583099999","2010-09-10T00:00:00","4","16.8333333","-25.05","20.0","MINDELO, CV","FM-12","99999","V020","100,1,N,0046,1","00900,1,C,N","006000,1,N,1","+0270,1","+0235,1","10124,1",,"2,1,06,1","2,1,06,1","04,1,+00390,1,08,1",,,"07,99,1,06,1,08,1,00450,1,03,1,99,9",,"9,9,999,9,+006,1","52,1","SYN082AAXX  10004 08583 31456 71009 10270 20235 40124 75222 8683/ 333 58006 84813 86618;",
"08583099999","2010-09-10T06:00:00","4","16.8333333","-25.05","20.0","MINDELO, CV","FM-12","99999","V020","999,9,V,0015,1","00450,1,9,N","015000,1,N,1","+0266,1","+0235,1","10124,1",,"6,1,06,1","5,1,06,1","06,1,+00450,1,08,1",,,"06,99,1,06,1,02,1,00450,1,00,1,00,1","999,N,+0245,1","9,9,999,9,+034,1","02,1","SYN088AAXX  10064 08583 11465 69903 10266 20235 40124 6///4 70265 86200 333 20245 58034 86815;",
"08583099999","2010-09-10T12:00:00","4","16.8333333","-25.05","20.0","MINDELO, CV","FM-12","99999","V020","090,1,N,0041,1","00900,1,C,N","015000,1,N,1","+0295,1","+0230,1","10151,1","12,9999,9,9",,,"03,1,+00450,1,08,1",,,"05,99,1,05,1,08,1,00450,1,00,1,01,1",,"9,9,999,9,+039,1",,"SYN082AAXX  10124 08583 12465 50908 10295 20230 40151 6///2 85801 333 58039 83815 84820;",
"08583099999","2010-09-10T18:00:00","4","16.8333333","-25.05","20.0","MINDELO, CV","FM-12","99999","V020","160,1,N,0046,1","10500,1,C,N","020000,1,N,1","+0290,1","+0225,1","10131,1","12,9999,9,9",,,"01,1,+00600,1,08,1",,,"07,99,1,01,1,01,1,00800,1,00,1,03,1","120,M,+0300,1","9,9,999,9,+041,1",,"SYN088AAXX  10184 08583 12570 71609 10290 20225 40131 6///2 81103 333 10300 58041 81820 87070;",
"08583099999","2010-09-11T00:00:00","4","16.8333333","-25.05","20.0","MINDELO, CV","FM-12","99999","V020","999,9,C,0000,1","22000,1,9,N","020000,1,N,1","+0266,1","+0237,1","10157,1",,,,"01,1,+00510,1,08,1",,,"02,99,1,01,1,01,1,00450,1,03,1,00,1",,"9,9,999,9,+033,1",,"SYN070AAXX  11004 08583 32470 20000 10266 20237 40157 81130 333 58033 81817;",
"08583099999","2010-09-11T06:00:00","4","16.8333333","-25.05","20.0","MINDELO, CV","FM-12","99999","V020","070,1,N,0031,1","10500,1,C,N","020000,1,N,1","+0256,1","+0243,1","10135,1",,,,"02,1,+00510,1,08,1",,,"05,99,1,02,1,01,1,00450,1,03,1,01,1","999,N,+0256,1","9,9,999,9,+011,1",,"SYN082AAXX  11064 08583 32470 50706 10256 20243 40135 82131 333 20256 58011 82817 83360;",
"08583099999","2010-09-11T12:00:00","4","16.8333333","-25.05","20.0","MINDELO, CV","FM-12","99999","V020","060,1,N,0072,1","00900,1,C,N","018000,1,N,1","+0288,1","+0235,1","10124,1",,,,"02,1,+00420,1,06,1",,,"05,99,1,05,1,08,1,00450,1,00,1,00,1",,"9,9,999,9,-004,1",,"SYN076AAXX  11124 08583 32468 50614 10288 20235 40124 85800 333 59004 82614 84618;",
"08583099999","2010-09-11T18:00:00","4","16.8333333","-25.05","20.0","MINDELO, CV","FM-12","99999","V020","060,1,N,0072,1","00600,1,9,N","020000,1,N,1","+0297,1","+0233,1","10124,1",,,,"06,1,+00600,1,08,1",,,"06,99,1,06,1,02,1,00800,1,99,9,99,9","120,M,+0312,1","9,9,999,9,-007,1",,"SYN076AAXX  11184 08583 32570 60614 10297 20233 40124 862// 333 10312 59007 86820;",
"08583099999","2010-09-12T00:00:00","4","16.8333333","-25.05","20.0","MINDELO, CV","FM-12","99999","V020","070,1,N,0129,1","10500,1,C,N","018000,1,N,1","+0263,1","+0220,1","10126,1",,,,"03,1,+00660,1,08,1",,,"07,99,1,03,1,02,1,00800,1,00,1,02,1",,"9,9,999,9,-031,1",,"SYN076AAXX  12004 08583 32568 70725 10263 20220 40126 83202 333 59031 83822 86070;",
"08583099999","2010-09-12T06:00:00","4","16.8333333","-25.05","20.0","MINDELO, CV","FM-12","99999","V020","070,1,N,0046,1","22000,1,9,N","012000,1,N,1","+0257,1","+0226,1","10113,1",,,,"03,1,+00600,1,06,1",,,"04,99,1,03,1,02,1,00800,1,00,1,01,1",,"9,9,999,9,-022,1",,"SYN076AAXX  12064 08583 32562 40709 10257 20226 40113 83201 333 59022 83620 83070;",
"08583099999","2010-09-12T12:00:00","4","16.8333333","-25.05","20.0","MINDELO, CV","FM-12","99999","V020","060,1,N,0139,1","10500,1,C,N","015000,1,N,1","+0285,1","+0216,1","10121,1",,,,"02,1,+00600,1,08,1",,,"07,99,1,02,1,01,1,00800,1,00,1,07,1",,"9,9,999,9,-021,1",,"SYN076AAXX  12124 08583 32565 70627 10285 20216 40121 82107 333 59021 82820 87270;",
"08583099999","2010-09-12T18:00:00","4","16.8333333","-25.05","20.0","MINDELO, CV","FM-12","99999","V020","040,1,N,0139,1","10500,1,C,N","012000,1,N,1","+0286,1","+0215,1","10091,1",,,,"01,1,+00600,1,08,1","04,1,+01050,1,06,1",,"07,99,1,04,1,08,1,00800,1,00,1,07,1","120,M,+0301,1","9,9,999,9,-033,1",,"SYN088AAXX  12184 08583 32562 70427 10286 20215 40091 84807 333 10301 59033 81820 84635 87270;",
"08583099999","2010-09-13T00:00:00","4","16.8333333","-25.05","20.0","MINDELO, CV","FM-12","99999","V020","050,1,N,0113,1","00600,1,9,N","010000,1,N,1","+0261,1","+0226,1","10103,1",,,,"06,1,+00600,1,08,1",,,"07,99,1,06,1,02,1,00800,1,00,1,06,1",,"9,9,999,9,-023,1",,"SYN076AAXX  13004 08583 32560 70522 10261 20226 40103 86206 333 59023 86820 85070;",
"08583099999","2010-09-13T12:00:00","4","16.8333333","-25.05","20.0","MINDELO, CV","FM-12","99999","V020","050,1,N,0134,1","00450,1,9,N","000700,1,N,1","+0261,1","+0240,1","10086,1","12,9999,9,9","6,1,06,1","5,1,06,1","03,1,+00360,1,07,1","06,1,+00450,1,08,1",,"08,99,1,06,1,08,1,00450,1,03,1,99,9",,"9,9,999,9,-035,1","63,1","SYN094AAXX  13124 08583 11407 80526 10261 20240 40086 6///2 76365 8683/ 333 59035 83712 86815 87360;",
"08583099999","2010-09-13T18:00:00","4","16.8333333","-25.05","20.0","MINDELO, CV","FM-12","99999","V020","070,1,N,0123,1","00420,1,9,N","012000,1,N,1","+0265,1","+0233,1","10072,1","12,9999,9,9","6,1,06,1","5,1,06,1","06,1,+00420,1,08,1","04,1,+00660,1,08,1",,"08,99,1,06,1,08,1,00450,1,03,1,99,9","120,M,+0278,1","9,9,999,9,-019,1","60,1","SYN100AAXX  13184 08583 11462 80724 10265 20233 40072 6///2 76065 8683/ 333 10278 59019 86814 84822 87360;",
"08583099999","2010-09-14T00:00:00","4","16.8333333","-25.05","20.0","MINDELO, CV","FM-12","99999","V020","130,1,N,0072,1","04500,1,C,N","012000,1,N,1","+0266,1","+0230,1","10114,1",,"5,1,06,1","2,1,06,1","04,1,+00480,1,08,1",,,"06,99,1,03,1,02,1,00450,1,03,1,00,1",,"9,9,999,9,-011,1","01,1","SYN088AAXX  14004 08583 11462 61314 10266 20230 40114 6///1 70152 83230 333 59011 84816 85360;",
"08583099999","2010-09-14T06:00:00","4","16.8333333","-25.05","20.0","MINDELO, CV","FM-12","99999","V020","999,9,V,0051,1","00900,1,C,N","012000,1,N,1","+0265,1","+0231,1","10104,1",,"6,1,06,1","2,1,06,1","03,1,+00480,1,08,1",,,"07,99,1,06,1,08,1,00450,1,03,1,99,9","999,N,+0258,1","9,9,999,9,+025,1","02,1","SYN094AAXX  14064 08583 11462 79910 10265 20231 40104 6///4 70262 8683/ 333 20258 58025 83816 86625;",
"08583099999","2010-09-14T12:00:00","4","16.8333333","-25.05","20.0","MINDELO, CV","FM-12","99999","V020","100,1,N,0036,1","00900,1,C,N","012000,1,N,1","+0280,1","+0238,1","10133,1","12,9999,9,9","6,1,06,1","5,1,06,1","04,1,+00450,1,08,1",,,"07,99,1,06,1,08,1,00450,1,03,1,02,1",,"9,9,999,9,+047,1","02,1","SYN088AAXX  14124 08583 11462 71007 10280 20238 40133 6///2 70265 86832 333 58047 84815 85360;",
"08583099999","2010-09-14T18:00:00","4","16.8333333","-25.05","20.0","MINDELO, CV","FM-12","99999","V020","140,1,N,0036,1","03000,1,9,N","012000,1,N,1","+0297,1","+0227,1","10123,1","12,9999,9,9",,,"03,1,+00510,1,08,1","03,1,+03000,1,03,1",,"07,99,1,03,1,01,1,00450,1,03,1,02,1","120,M,+0300,1","9,9,999,9,+051,1",,"SYN094AAXX  14184 08583 12462 71407 10297 20227 40123 6///2 83132 333 10300 58051 83817 83360 87070;",
"08583099999","2010-09-15T00:00:00","4","16.8333333","-25.05","20.0","MINDELO, CV","FM-12","99999","V020","050,1,N,0026,1","04500,1,C,N","010000,1,N,1","+0258,1","+0240,1","10135,1",,,,"02,1,+00510,1,06,1",,,"06,99,1,02,1,02,1,00450,1,03,1,02,1",,"9,9,999,9,+009,1",,"SYN076AAXX  15004 08583 32460 60505 10258 20240 40135 82232 333 58009 82617 86070;",
"08583099999","2010-09-15T12:00:00","4","16.8333333","-25.05","20.0","MINDELO, CV","FM-12","99999","V020","999,9,V,0010,1","10500,1,C,N","012000,1,N,1","+0280,1","+0236,1","10140,1",,,,"01,1,+00420,1,06,1","03,1,+00600,1,06,1",,"06,99,1,03,1,08,1,00450,1,00,1,02,1",,"9,9,999,9,+007,1",,"SYN082AAXX  15124 08583 32462 69902 10280 20236 40140 83802 333 58007 81614 83620 85070;",
"08583099999","2010-09-15T18:00:00","4","16.8333333","-25.05","20.0","MINDELO, CV","FM-12","99999","V020","240,1,N,0041,1","10500,1,C,N","015000,1,N,1","+0291,1","+0230,1","10117,1",,,,"04,1,+00510,1,06,1",,,"05,99,1,04,1,02,1,00450,1,00,1,02,1","120,M,+0305,1","9,9,999,9,-006,1",,"SYN082AAXX  15184 08583 32465 52408 10291 20230 40117 84202 333 10305 59006 84617 84070;",
"08583099999","2010-09-16T00:00:00","4","16.8333333","-25.05","20.0","MINDELO, CV","FM-12","99999","V020","080,1,N,0026,1","22000,1,9,N","010000,1,N,1","+0261,1","+0238,1","10128,1",,,,"01,1,+00510,1,06,1",,,"02,99,1,01,1,05,1,00450,1,00,1,01,1",,"9,9,999,9,-007,1",,"SYN070AAXX  16004 08583 32460 20805 10261 20238 40128 81501 333 59007 81617;",
"08583099999","2010-09-16T06:00:00","4","16.8333333","-25.05","20.0","MINDELO, CV","FM-12","99999","V020","070,1,N,0046,1","22000,1,9,N","010000,1,N,1","+0255,1","+0231,1","10098,1",,,,"01,1,+00510,1,06,1",,,"02,99,1,01,1,05,1,00450,1,00,1,01,1","999,N,+0250,1",,,"SYN076AAXX  16064 08583 32460 20709 10255 20231 40098 81501 333 20250 5//// 81617;",
"08583099999","2010-09-16T12:00:00","4","16.8333333","-25.05","20.0","MINDELO, CV","FM-12","99999","V020","220,1,N,0026,1","00900,1,C,N","010000,1,N,1","+0285,1","+0216,1","10122,1",,,,"03,1,+00450,1,08,1",,,"07,99,1,07,1,08,1,00450,1,99,9,99,9",,"9,9,999,9,-018,1",,"SYN076AAXX  16124 08583 32460 72205 10285 20216 40122 878// 333 59018 83815 86618;",
"08583099999","2010-09-16T18:00:00","4","16.8333333","-25.05","20.0","MINDELO, CV","FM-12","99999","V020","170,1,N,0031,1","01200,1,C,N","009000,1,N,1","+0290,1","+0231,1","10099,1",,"1,1,06,1","0,1,06,1","01,1,+00600,1,08,1",,,"06,99,1,06,1,08,1,00800,1,00,1,01,1","120,M,+0305,1","9,9,999,9,-018,1","06,1","SYN088AAXX  16184 08583 31559 61706 10290 20231 40099 70610 86801 333 10305 59018 81820 86623;",
"08583099999","2010-09-17T00:00:00","4","16.8333333","-25.05","20.0","MINDELO, CV","FM-12","99999","V020","060,1,N,0036,1","01200,1,C,N","008000,1,N,1","+0270,1","+0232,1","10124,1",,"2,1,06,1","1,1,06,1","04,1,+00600,1,08,1",,,"07,99,1,07,1,08,1,00800,1,99,9,99,9",,"9,9,999,9,-004,1","06,1","SYN082AAXX  17004 08583 31558 70607 10270 20232 40124 70621 878// 333 59004 84820 86635;",
"08583099999","2010-09-17T06:00:00","4","16.8333333","-25.05","20.0","MINDELO, CV","FM-12","99999","V020","070,1,N,0015,1","10500,1,C,N","007000,1,N,1","+0251,1","+0230,1","10108,1",,"2,1,06,1","2,1,06,1","03,1,+00600,1,06,1",,,"06,99,1,03,1,02,1,00800,1,00,1,02,1","999,N,+0250,1","9,9,999,9,+010,1","06,1","SYN088AAXX  17064 08583 31557 60703 10251 20230 40108 70622 83202 333 20250 58010 83620 85070;",
"08583099999","2010-09-17T12:00:00","4","16.8333333","-25.05","20.0","MINDELO, CV","FM-12","99999","V020","050,1,N,0046,1","22000,1,9,N","007000,1,N,1","+0300,1","+0231,1","10126,1",,"1,1,06,1","0,1,06,1","04,1,+00540,1,08,1",,,"04,99,1,04,1,02,1,00450,1,00,1,00,1",,"9,9,999,9,+004,1","06,1","SYN076AAXX  17124 08583 31457 40509 10300 20231 40126 70610 84200 333 58004 84818;",
"08583099999","2010-09-17T18:00:00","4","16.8333333","-25.05","20.0","MINDELO, CV","FM-12","99999","V020","999,9,V,0031,1","22000,1,C,N","007000,1,N,1","+0310,1","+0228,1","10110,1",,"1,1,06,1","0,1,06,1","04,1,+00540,1,06,1",,,"05,99,1,04,1,02,1,00450,1,00,1,01,1","120,M,+0328,1","9,9,999,9,+011,1","06,1","SYN088AAXX  17184 08583 31457 59906 10310 20228 40110 70610 84201 333 10328 58011 84618 83070;",
"08583099999","2010-09-18T00:00:00","4","16.8333333","-25.05","20.0","MINDELO, CV","FM-12","99999","V020","050,1,N,0041,1","22000,1,9,N","008000,1,N,1","+0267,1","+0237,1","10132,1",,"2,1,06,1","1,1,06,1","01,1,+00540,1,06,1",,,"02,99,1,01,1,05,1,00450,1,00,1,01,1",,"9,9,999,9,+011,1","06,1","SYN076AAXX  18004 08583 31458 20508 10267 20237 40132 70621 81501 333 58011 81618;",
"08583099999","2010-09-18T06:00:00","4","16.8333333","-25.05","20.0","MINDELO, CV","FM-12","99999","V020","060,1,N,0062,1","22000,1,9,N","006000,1,N,1","+0265,1","+0243,1","10112,1",,"0,1,06,1","0,1,06,1","01,1,+00420,1,08,1",,,"04,99,1,04,1,08,1,00450,1,00,1,00,1","999,N,+0250,1","9,9,999,9,+004,1","06,1","SYN088AAXX  18064 08583 31456 40612 10265 20243 40112 70600 84800 333 20250 58004 81814 84620;",
"08583099999","2010-09-18T12:00:00","4","16.8333333","-25.05","20.0","MINDELO, CV","FM-12","99999","V020","050,1,N,0077,1","00600,1,9,N","006000,1,N,1","+0278,1","+0250,1","10129,1",,"5,1,06,1","2,1,06,1","03,1,+00390,1,07,1","05,1,+00600,1,08,1",,"07,99,1,05,1,08,1,00450,1,03,1,02,1",,"9,9,999,9,+004,1","06,1","SYN088AAXX  18124 08583 31456 70515 10278 20250 40129 70652 85832 333 58004 83713 85820 85360;",
"08583099999","2010-09-18T18:00:00","4","16.8333333","-25.05","20.0","MINDELO, CV","FM-12","99999","V020","050,1,N,0067,1","00420,1,9,N","006000,1,N,1","+0272,1","+0247,1","10107,1","12,9999,9,9","6,1,06,1","5,1,06,1","05,1,+00420,1,07,1",,,"07,99,1,07,1,08,1,00450,1,99,9,99,9","120,M,+0310,1","9,9,999,9,+003,1","58,1","SYN094AAXX  18184 08583 11456 70513 10272 20247 40107 6///2 75865 878// 333 10310 58003 85714 86818;",
"08583099999","2010-09-19T00:00:00","4","16.8333333","-25.05","20.0","MINDELO, CV","FM-12","99999","V020","070,1,N,0046,1","00540,1,9,N","007000,1,N,1","+0252,1","+0241,1","10121,1",,"6,1,06,1","5,1,06,1","03,1,+00390,1,07,1","05,1,+00540,1,08,1",,"07,99,1,06,1,08,1,00450,1,03,1,07,1",,"9,9,999,9,-011,1","06,1","SYN094AAXX  19004 08583 11457 70709 10252 20241 40121 6///1 70665 86837 333 59011 83713 85818 87359;",
"08583099999","2010-09-19T06:00:00","4","16.8333333","-25.05","20.0","MINDELO, CV","FM-12","99999","V020","080,1,N,0026,1","04500,1,C,N","009000,1,N,1","+0252,1","+0245,1","10105,1",,"9,1,06,1","5,1,06,1","04,1,+00450,1,08,1","03,1,+00540,1,09,1",,"07,99,1,04,1,09,1,00450,1,03,1,02,1","999,N,+0248,1","9,9,999,9,-007,1","13,1","SYN100AAXX  19064 08583 11459 70805 10252 20245 40105 6///4 71395 84932 333 20248 59007 84815 83918 86070;",
"08583099999","2010-09-19T12:00:00","4","16.8333333","-25.05","20.0","MINDELO, CV","FM-12","99999","V020","160,1,N,0036,1","00480,1,9,N","012000,1,N,1","+0285,1","+0241,1","10108,1","12,0010,9,1","9,1,06,1","5,1,06,1","06,1,+00480,1,08,1",,,"06,99,1,06,1,08,1,00450,1,03,1,09,1",,"9,9,999,9,-002,1","15,1","SYN082AAXX  19124 08583 11462 61607 10285 20241 40108 69992 71595 86839 333 59002 86816;",
"08583099999","2010-09-19T18:00:00","4","16.8333333","-25.05","20.0","MINDELO, CV","FM-12","99999","V020","170,1,N,0046,1","04500,1,C,N","025000,1,N,1","+0298,1","+0215,1","10110,1","12,9999,9,9",,,"01,1,+00390,1,08,1",,,"06,99,1,02,1,08,1,00450,1,03,1,02,1","120,M,+0311,1","9,9,999,9,+003,1",,"SYN088AAXX  19184 08583 12475 61709 10298 20215 40110 6///2 82832 333 10311 58003 81813 86070;",
"08583099999","2010-09-20T00:00:00","4","16.8333333","-25.05","20.0","MINDELO, CV","FM-12","99999","V020","040,1,N,0021,1","00480,1,9,N","020000,1,N,1","+0267,1","+0233,1","10133,1",,,,"05,1,+00480,1,06,1",,,"06,99,1,05,1,02,1,00450,1,00,1,01,1",,"9,9,999,9,+012,1",,"SYN070AAXX  20004 08583 32470 60404 10267 20233 40133 85201 333 58012 85616;",
"08583099999","2010-09-20T06:00:00","4","16.8333333","-25.05","20.0","MINDELO, CV","FM-12","99999","V020","999,9,V,0010,1","22000,1,9,N","020000,1,N,1","+0251,1","+0235,1","10115,1",,"5,1,06,1","2,1,06,1","02,1,+00480,1,08,1",,,"04,99,1,03,1,08,1,00450,1,00,1,01,1","999,N,+0251,1","9,9,999,9,+010,1","01,1","SYN088AAXX  20064 08583 31470 49902 10251 20235 40115 70152 83801 333 20251 58010 82816 83623;",
"08583099999","2010-09-20T12:00:00","4","16.8333333","-25.05","20.0","MINDELO, CV","FM-12","99999","V020","210,1,N,0036,1","00510,1,9,N","020000,1,N,1","+0291,1","+0233,1","10127,1",,,,"01,1,+00360,1,08,1","05,1,+00510,1,08,1",,"06,99,1,05,1,08,1,00450,1,00,1,02,1",,"9,9,999,9,+000,1",,"SYN082AAXX  20124 08583 32470 62107 10291 20233 40127 85802 333 58000 81812 85817 85070;",
"08583099999","2010-09-20T18:00:00","4","16.8333333","-25.05","20.0","MINDELO, CV","FM-12","99999","V020","170,1,N,0046,1","99999,9,9,N","020000,1,N,1","+9999,9","+9999,9","99999,9",,,,,,,"06,99,1,99,9,99,9,00450,1,99,9,99,9",,,,"SYN088AAXX  20184 08583 32470 61709 10/30 20240 40108 86801 333 10318 59002 81812 85816 85620;",
"08583099999","2010-09-21T06:00:00","4","16.8333333","-25.05","20.0","MINDELO, CV","FM-12","99999","V020","999,9,C,0000,1","22000,1,9,N","020000,1,N,1","+0250,1","+0232,1","10106,1",,,,"01,1,+00420,1,08,1",,,"03,99,1,01,1,01,1,00450,1,00,1,01,1","999,N,+0247,1","9,9,999,9,-009,1",,"SYN088AAXX  21064 08583 12470 30000 10250 20232 40106 6///4 81101 333 20247 59009 81814 83070;",
"08583099999","2010-09-21T12:00:00","4","16.8333333","-25.05","20.0","MINDELO, CV","FM-12","99999","V020","210,1,N,0031,1","10500,1,C,N","020000,1,N,1","+0305,1","+0220,1","10125,1",,,,"03,1,+00540,1,06,1",,,"07,99,1,03,1,02,1,00450,1,00,1,02,1",,"9,9,999,9,-002,1",,"SYN076AAXX  21124 08583 32470 72106 10305 20220 40125 83202 333 59002 83618 86070;",
"08583099999","2010-09-21T18:00:00","4","16.8333333","-25.05","20.0","MINDELO, CV","FM-12","99999","V020","220,1,N,0041,1","04500,1,C,N","020000,1,N,1","+0295,1","+0231,1","10096,1",,,,"01,1,+00600,1,08,1",,,"06,99,1,01,1,02,1,00800,1,03,1,01,1","120,M,+0311,1","9,9,999,9,-012,1",,"SYN082AAXX  21184 08583 32570 62208 10295 20231 40096 81231 333 10311 59012 81820 85360;",
"08583099999","2010-09-22T00:00:00","4","16.8333333","-25.05","20.0","MINDELO, CV","FM-12","99999","V020","070,1,N,0021,1","10500,1,C,N","020000,1,N,1","+0270,1","+0231,1","10112,1",,,,"02,1,+00510,1,08,1",,,"07,99,1,02,1,08,1,00450,1,00,1,07,1",,"9,9,999,9,-017,1",,"SYN076AAXX  22004 08583 32470 70704 10270 20231 40112 82807 333 59017 82817 87270;",
"08583099999","2010-09-22T06:00:00","4","16.8333333","-25.05","20.0","MINDELO, CV","FM-12","99999","V020","080,1,N,0010,1","10500,1,C,N","010000,1,N,1","+0245,1","+0235,1","10096,1","24,0000,9,1",,,"02,1,+00450,1,08,1","04,1,+00540,1,06,1",,"07,99,1,04,1,08,1,00450,1,00,1,07,1","999,N,+0241,1","9,9,999,9,-010,1",,"SYN094AAXX  22064 08583 11460 70802 10245 20235 40096 69904 84807 333 20241 59010 82815 84618 87270;","Q01  00002PRCP24"
"08583099999","2010-09-22T12:00:00","4","16.8333333","-25.05","20.0","MINDELO, CV","FM-12","99999","V020","999,9,V,0031,1","00600,1,9,N","015000,1,N,1","+0285,1","+0231,1","10114,1","12,0020,9,1",,,"03,1,+00510,1,08,1","03,1,+00600,1,06,1",,"07,99,1,05,1,08,1,00450,1,03,1,02,1",,"9,9,999,9,-011,1",,"SYN088AAXX  22124 08583 12465 79906 10285 20231 40114 60022 85832 333 59011 83817 83620 85070;",
"08583099999","2010-09-22T18:00:00","4","16.8333333","-25.05","20.0","MINDELO, CV","FM-12","99999","V020","160,1,N,0041,1","00540,1,9,N","012000,1,N,1","+0275,1","+0240,1","10090,1","12,9999,9,9","6,1,06,1","2,1,06,1","03,1,+00450,1,07,1","02,1,+00540,1,08,1","06,1,+00750,1,06,1","08,99,1,06,1,08,1,00450,1,07,1,99,9","120,M,+0302,1","9,9,999,9,-006,1","15,1","SYN106AAXX  22184 08583 11462 81608 10275 20240 40090 6///2 71562 8687/ 333 10302 59006 83715 82818 86625 86359;",
"08583099999","2010-09-23T00:00:00","4","16.8333333","-25.05","20.0","MINDELO, CV","FM-12","99999","V020","160,1,N,0026,1","00660,1,9,N","010000,1,N,1","+0260,1","+0245,1","10100,1",,"6,1,06,1","5,1,06,1","04,1,+00390,1,08,1","05,1,+00660,1,08,1",,"07,99,1,06,1,08,1,00450,1,03,1,02,1",,"9,9,999,9,-007,1","01,1","SYN094AAXX  23004 08583 11460 71605 10260 20245 40100 6///1 70165 86832 333 59007 84813 85822 86359;",
"08583099999","2010-09-23T06:00:00","4","16.8333333","-25.05","20.0","MINDELO, CV","FM-12","99999","V020","200,1,N,0041,1","00450,1,9,N","010000,1,N,1","+0263,1","+0245,1","10090,1",,,,"03,1,+00390,1,08,1","04,1,+00450,1,08,1",,"07,99,1,05,1,08,1,00450,1,00,1,02,1","999,N,+0235,1","9,9,999,9,-006,1",,"SYN094AAXX  23064 08583 12460 72008 10263 20245 40090 6///4 85802 333 20235 59006 83813 84815 86070;",
"08583099999","2010-09-23T12:00:00","4","16.8333333","-25.05","20.0","MINDELO, CV","FM-12","99999","V020","190,1,N,0093,1","00390,1,9,N","000500,1,N,1","+0272,1","+0240,1","10110,1",,"2,1,06,1","5,1,06,1","05,1,+00390,1,07,1","04,1,+00540,1,08,1",,"08,99,1,06,1,08,1,00450,1,03,1,99,9",,"9,9,999,9,-004,1","59,1","SYN094AAXX  23124 08583 11405 81918 10272 20240 40110 6///1 75925 8683/ 333 59004 85713 84818 86259;",
"08583099999","2010-09-23T18:00:00","4","16.8333333","-25.05","20.0","MINDELO, CV","FM-12","99999","V020","190,1,N,0051,1","00270,1,9,N","012000,1,N,1","+0273,1","+0247,1","10091,1","12,9999,9,9","6,1,06,1","5,1,06,1","05,1,+00270,1,07,1",,,"07,99,1,05,1,06,1,00450,1,03,1,02,1","120,M,+0300,1","9,9,999,9,+001,1","50,1","SYN094AAXX  23184 08583 11462 71910 10273 20247 40091 6///2 75065 85632 333 10300 58001 85709 87070;",
"08583099999","2010-09-24T00:00:00","4","16.8333333","-25.05","20.0","MINDELO, CV","FM-12","99999","V020","170,1,N,0046,1","00510,1,9,N","010000,1,N,1","+0270,1","+0246,1","10115,1",,"5,1,06,1","2,1,06,1","03,1,+00450,1,08,1","04,1,+00510,1,08,1",,"07,99,1,05,1,08,1,00450,1,03,1,99,9",,"9,9,999,9,+010,1","02,1","SYN094AAXX  24004 08583 11460 71709 10270 20246 40115 6///1 70252 8583/ 333 58010 83815 84817 87360;",
"08583099999","2010-09-24T06:00:00","4","16.8333333","-25.05","20.0","MINDELO, CV","FM-12","99999","V020","999,9,V,0051,1","00450,1,9,N","012000,1,N,1","+0266,1","+0245,1","10099,1",,"6,1,06,1","5,1,06,1","03,1,+00300,1,07,1","04,1,+00450,1,08,1",,"07,99,1,06,1,08,1,00250,1,00,1,00,1","999,N,+0261,1","9,9,999,9,+009,1","02,1","SYN100AAXX  24064 08583 11362 79910 10266 20245 40099 6///4 70265 86800 333 20261 58009 83710 84815 85618;",
"08583099999","2010-09-24T12:00:00","4","16.8333333","-25.05","20.0","MINDELO, CV","FM-12","99999","V020","190,1,N,0057,1","00300,1,9,N","003000,1,N,1","+0256,1","+0234,1","10122,1","12,9999,9,9","6,1,06,1","5,1,06,1","06,1,+00300,1,07,1",,,"07,99,1,06,1,08,1,00250,1,99,9,99,9",,"9,9,999,9,+012,1","58,1","SYN088AAXX  24124 08583 11330 71911 10256 20234 40122 6///2 75865 868// 333 58012 86710 84817;",
"08583099999","2010-09-24T18:00:00","4","16.8333333","-25.05","20.0","MINDELO, CV","FM-12","99999","V020","210,1,N,0046,1","00900,1,C,N","018000,1,N,1","+0275,1","+0250,1","10106,1","12,9999,9,9","6,1,06,1","2,1,06,1","03,1,+00360,1,07,1",,,"06,99,1,06,1,08,1,00450,1,00,1,00,1","120,M,+0305,1","9,9,999,9,+015,1","02,1","SYN094AAXX  24184 08583 11468 62109 10275 20250 40106 6///2 70262 86800 333 10305 58015 83712 85817;",
"08583099999","2010-09-25T00:00:00","4","16.8333333","-25.05","20.0","MINDELO, CV","FM-12","99999","V020","280,1,N,0015,1","00900,1,C,N","010000,1,N,1","+0256,1","+0256,1","10129,1",,,,"03,1,+00360,1,06,1",,,"06,99,1,06,1,08,1,00450,1,00,1,00,1",,"9,9,999,9,+014,1",,"SYN076AAXX  25004 08583 32460 62803 10256 20256 40129 86800 333 58014 83612 84818;",
"08583099999","2010-09-25T06:00:00","4","16.8333333","-25.05","20.0","MINDELO, CV","FM-12","99999","V020","080,1,N,0010,1","00900,1,C,N","012000,1,N,1","+0246,1","+0238,1","10113,1",,"6,1,06,1","5,1,06,1","03,1,+00540,1,08,1",,,"06,99,1,06,1,08,1,00450,1,00,1,00,1",,"9,9,999,9,+014,1","03,1","SYN088AAXX  25064 08583 11462 60802 10246 20238 40113 6///4 70365 86800 333 58014 83818 86824;",
"08583099999","2010-09-25T18:00:00","4","16.8333333","-25.05","20.0","MINDELO, CV","FM-12","99999","V020","230,1,N,0031,1","22000,1,9,N","020000,1,N,1","+0298,1","+0250,1","10118,1",,,,"03,1,+00480,1,08,1",,,"03,99,1,03,1,08,1,00450,1,00,1,00,1","120,M,+0310,1","9,9,999,9,+012,1",,"SYN076AAXX  25184 08583 32470 32306 10298 20250 40118 83800 333 10310 58012 83816;",
"08583099999","2010-09-26T00:00:00","4","16.8333333","-25.05","20.0","MINDELO, CV","FM-12","99999","V020","999,9,C,0000,1","22000,1,9,N","020000,1,N,1","+0263,1","+0240,1","10140,1",,,,"01,1,+00510,1,08,1",,,"01,99,1,01,1,01,1,00450,1,00,1,00,1",,"9,9,999,9,+011,1",,"SYN070AAXX  26004 08583 32470 10000 10263 20240 40140 81100 333 58011 81817;",
"08583099999","2010-09-26T06:00:00","4","16.8333333","-25.05","20.0","MINDELO, CV","FM-12","99999","V020","999,9,V,0010,1","22000,1,9,N","020000,1,N,1","+0245,1","+0232,1","10125,1",,,,"01,1,+00510,1,08,1",,,"01,99,1,01,1,01,1,00450,1,00,1,01,1","999,N,+0245,1","9,9,999,9,+012,1",,"SYN076AAXX  26064 08583 32470 19902 10245 20232 40125 81101 333 20245 58012 81817;",
"08583099999","2010-09-26T18:00:00","4","16.8333333","-25.05","20.0","MINDELO, CV","FM-12","99999","V020","220,1,N,0031,1","00600,1,9,N","020000,1,N,1","+0305,1","+0235,1","10121,1",,,,"05,1,+00600,1,08,1",,,"05,99,1,05,1,02,1,00800,1,00,1,00,1","120,M,+0315,1","9,9,999,9,+003,1",,"SYN076AAXX  26184 08583 32570 52206 10305 20235 40121 85200 333 10315 58003 85820;",
"08583099999","2010-09-27T06:00:00","4","16.8333333","-25.05","20.0","MINDELO, CV","FM-12","99999","V020","060,1,N,0021,1","22000,1,9,N","015000,1,N,1","+0261,1","+0243,1","10132,1",,,,"02,1,+00600,1,08,1",,,"03,99,1,02,1,02,1,00800,1,00,1,01,1","999,N,+0241,1","9,9,999,9,+007,1",,"SYN076AAXX  27064 08583 32565 30604 10261 20243 40132 82201 333 20241 58007 82820;",
"08583099999","2010-09-27T12:00:00","4","16.8333333","-25.05","20.0","MINDELO, CV","FM-12","99999","V020","060,1,N,0082,1","22000,1,9,N","020000,1,N,1","+0308,1","+0235,1","10151,1",,,,"02,1,+00510,1,08,1",,,"02,99,1,02,1,01,1,00450,1,00,1,00,1",,"9,9,999,9,+007,1",,"SYN070AAXX  27124 08583 32470 20616 10308 20235 40151 82100 333 58007 82817;",
"08583099999","2010-09-27T18:00:00","4","16.8333333","-25.05","20.0","MINDELO, CV","FM-12","99999","V020","040,1,N,0113,1","22000,1,9,N","020000,1,N,1","+0300,1","+0221,1","10113,1",,,,"01,1,+00600,1,08,1",,,"01,99,1,01,1,01,1,00800,1,00,1,00,1","120,M,+0323,1","9,9,999,9,-008,1",,"SYN076AAXX  27184 08583 32570 10422 10300 20221 40113 81100 333 10323 59008 81820;",
"08583099999","2010-09-28T00:00:00","4","16.8333333","-25.05","20.0","MINDELO, CV","FM-12","99999","V020","040,1,N,0093,1","22000,1,9,N","020000,1,N,1","+0282,1","+0186,1","10129,1",,,,"01,1,+00600,1,06,1",,,"01,99,1,01,1,05,1,00800,1,00,1,00,1",,"9,9,999,9,-016,1",,"SYN070AAXX  28004 08583 32570 10418 10282 20186 40129 81500 333 59016 81620;",
"08583099999","2010-09-28T06:00:00","4","16.8333333","-25.05","20.0","MINDELO, CV","FM-12","99999","V020","060,1,N,0113,1","22000,1,9,N","015000,1,N,1","+0265,1","+0230,1","10113,1",,,,"03,1,+00600,1,06,1",,,"03,99,1,03,1,05,1,00450,1,00,1,00,1","999,N,+0258,1","9,9,999,9,-019,1",,"SYN076AAXX  28064 08583 32465 30622 10265 20230 40113 83500 333 20258 59019 83620;",
"08583099999","2010-09-28T12:00:00","4","16.8333333","-25.05","20.0","MINDELO, CV","FM-12","99999","V020","060,1,N,0108,1","22000,1,9,N","009000,1,N,1","+0310,1","+0237,1","10132,1",,"0,1,06,1","0,1,06,1","04,1,+00600,1,08,1",,,"04,99,1,04,1,02,1,00800,1,00,1,00,1",,"9,9,999,9,-019,1","06,1","SYN076AAXX  28124 08583 31559 40621 10310 20237 40132 70600 84200 333 59019 84820;",
"08583099999","2010-09-28T18:00:00","4","16.8333333","-25.05","20.0","MINDELO, CV","FM-12","99999","V020","030,1,N,0072,1","22000,1,9,N","010000,1,N,1","+0298,1","+0243,1","10120,1",,,,"03,1,+00510,1,06,1",,,"03,99,1,03,1,05,1,00450,1,00,1,00,1","120,M,+0328,1","9,9,999,9,-031,1",,"SYN076AAXX  28184 08583 32460 30314 10298 20243 40120 83500 333 10328 59031 83617;",
"08583099999","2010-09-29T00:00:00","4","16.8333333","-25.05","20.0","MINDELO, CV","FM-12","99999","V020","060,1,N,0077,1","22000,1,9,N","009000,1,N,1","+0270,1","+0238,1","10139,1",,"0,1,06,1","0,1,06,1","03,1,+00510,1,06,1",,,"03,99,1,03,1,05,1,00450,1,00,1,00,1",,"9,9,999,9,+010,1","06,1","SYN076AAXX  29004 08583 31459 30615 10270 20238 40139 70600 83500 333 58010 83617;",
"08583099999","2010-09-29T12:00:00","4","16.8333333","-25.05","20.0","MINDELO, CV","FM-12","99999","V020","060,1,N,0093,1","22000,1,9,N","012000,1,N,1","+0300,1","+0233,1","10149,1",,,,"01,1,+00540,1,06,1",,,"04,99,1,04,1,08,1,00450,1,00,1,00,1",,"9,9,999,9,+017,1",,"SYN076AAXX  29124 08583 32462 40618 10300 20233 40149 84800 333 58017 81618 84860;",
"08583099999","2010-09-29T18:00:00","4","16.8333333","-25.05","20.0","MINDELO, CV","FM-12","99999","V020","060,1,N,0098,1","22000,1,9,N","010000,1,N,1","+0290,1","+0230,1","10128,1",,,,"04,1,+00540,1,06,1",,,"04,99,1,04,1,05,1,00450,1,00,1,00,1","120,M,+0315,1","9,9,999,9,+021,1",,"SYN076AAXX  29184 08583 32460 40619 10290 20230 40128 84500 333 10315 58021 84618;",
"08583099999","2010-09-30T00:00:00","4","16.8333333","-25.05","20.0","MINDELO, CV","FM-12","99999","V020","060,1,N,0093,1","22000,1,9,N","010000,1,N,1","+0265,1","+0225,1","10148,1",,,,"04,1,+00540,1,06,1",,,"04,99,1,04,1,05,1,00450,1,00,1,00,1",,"9,9,999,9,+009,1",,"SYN070AAXX  30004 08583 32460 40618 10265 20225 40148 84500 333 58009 84618;",
"08583099999","2010-09-30T06:00:00","4","16.8333333","-25.05","20.0","MINDELO, CV","FM-12","99999","V020","050,1,N,0144,1","04500,1,C,N","012000,1,N,1","+0260,1","+0207,1","10126,1",,,,"03,1,+00540,1,08,1",,,"05,99,1,03,1,05,1,00450,1,03,1,00,1","999,N,+0258,1","9,9,999,9,-013,1",,"SYN082AAXX  30064 08583 32462 50528 10260 20207 40126 83530 333 20258 59013 83818 83359;",
"08583099999","2010-09-30T12:00:00","4","16.8333333","-25.05","20.0","MINDELO, CV","FM-12","99999","V020","060,1,N,0154,1","22000,1,9,N","012000,1,N,1","+0293,1","+0210,1","10143,1",,,,"02,1,+00510,1,06,1",,,"03,99,1,03,1,08,1,00450,1,00,1,00,1",,"9,9,999,9,-006,1",,"SYN070AAXX  30124 08583 32462 30630 10293 20210 40143 83800 333 59006 82617;",
"08583099999","2010-09-30T18:00:00","4","16.8333333","-25.05","20.0","MINDELO, CV","FM-12","99999","V020","060,1,N,0144,1","22000,1,9,N","012000,1,N,1","+0288,1","+0206,1","10128,1",,,,"02,1,+00510,1,06,1",,,"03,99,1,03,1,08,1,00450,1,00,1,00,1","120,M,+0305,1","9,9,999,9,+000,1",,"SYN082AAXX  30184 08583 32462 30628 10288 20206 40128 83800 333 10305 58000 82617 83622;",
"08583099999","2010-10-01T00:00:00","4","16.8333333","-25.05","20.0","MINDELO, CV","FM-12","99999","V020","060,1,N,0098,1","22000,1,9,N","012000,1,N,1","+0255,1","+0197,1","10150,1",,,,"02,1,+00600,1,06,1",,,"02,99,1,02,1,05,1,00800,1,00,1,00,1",,"9,9,999,9,+002,1",,"SYN070AAXX  01004 08583 32562 20619 10255 20197 40150 82500 333 58002 82620;",
"08583099999","2010-10-01T06:00:00","4","16.8333333","-25.05","20.0","MINDELO, CV","FM-12","99999","V020","070,1,N,0082,1","22000,1,9,N","012000,1,N,1","+0252,1","+0193,1","10130,1",,,,"02,1,+00600,1,06,1",,,"02,99,1,02,1,05,1,00800,1,00,1,00,1","999,N,+0250,1","9,9,999,9,+004,1",,"SYN076AAXX  01064 08583 32562 20716 10252 20193 40130 82500 333 20250 58004 82620;",
"08583099999","2010-10-01T12:00:00","4","16.8333333","-25.05","20.0","MINDELO, CV","FM-12","99999","V020","080,1,N,0108,1","22000,1,9,N","015000,1,N,1","+0295,1","+0183,1","10143,1",,,,"02,1,+00600,1,06,1",,,"02,99,1,02,1,05,1,00800,1,00,1,00,1",,"9,9,999,9,+000,1",,"SYN070AAXX  01124 08583 32565 20821 10295 20183 40143 82500 333 58000 82620;",
"08583099999","2010-10-01T18:00:00","4","16.8333333","-25.05","20.0","MINDELO, CV","FM-12","99999","V020","070,1,N,0113,1","22000,1,9,N","020000,1,N,1","+0292,1","+0175,1","10111,1",,,,"01,1,+00720,1,06,1",,,"01,99,1,01,1,05,1,00800,1,00,1,00,1","120,M,+0303,1","9,9,999,9,-017,1",,"SYN076AAXX  01184 08583 32570 10722 10292 20175 40111 81500 333 10303 59017 81624;",
"08583099999","2010-10-02T00:00:00","4","16.8333333","-25.05","20.0","MINDELO, CV","FM-12","99999","V020","060,1,N,0077,1","22000,1,9,N","020000,1,N,1","+0256,1","+0185,1","10132,1",,,,"02,1,+00720,1,06,1",,,"04,99,1,02,1,02,1,00800,1,00,1,01,1",,"9,9,999,9,-018,1",,"SYN076AAXX  02004 08583 32570 40615 10256 20185 40132 82201 333 59018 82624 84070;",
"08583099999","2010-10-02T06:00:00","4","16.8333333","-25.05","20.0","MINDELO, CV","FM-12","99999","V020","060,1,N,0041,1","22000,1,9,N","018000,1,N,1","+0245,1","+0200,1","10124,1",,,,"02,1,+00690,1,06,1",,,"04,99,1,02,1,02,1,00800,1,00,1,01,1","999,N,+0240,1","9,9,999,9,-006,1",,"SYN082AAXX  02064 08583 32568 40608 10245 20200 40124 82201 333 20240 59006 82623 83070;",
"08583099999","2010-10-02T12:00:00","4","16.8333333","-25.05","20.0","MINDELO, CV","FM-12","99999","V020","060,1,N,0067,1","04500,1,C,N","020000,1,N,1","+0291,1","+0193,1","10141,1",,,,"01,1,+00720,1,06,1",,,"07,99,1,01,1,05,1,00800,1,03,1,08,1",,"9,9,999,9,-002,1",,"SYN076AAXX  02124 08583 32570 70613 10291 20193 40141 81538 333 59002 81624 87270;",
"08583099999","2010-10-02T18:00:00","4","16.8333333","-25.05","20.0","MINDELO, CV","FM-12","99999","V020","050,1,N,0051,1","04500,1,C,N","020000,1,N,1","+0278,1","+0187,1","10122,1",,,,"02,1,+00480,1,08,1","04,1,+00720,1,06,1",,"07,99,1,04,1,08,1,00450,1,03,1,04,1","120,M,+0306,1","9,9,999,9,+011,1",,"SYN088AAXX  02184 08583 32470 70510 10278 20187 40122 84834 333 10306 58011 82816 84624 87070;",
"08583099999","2010-10-03T00:00:00","4","16.8333333","-25.05","20.0","MINDELO, CV","FM-12","99999","V020","050,1,N,0046,1","22000,1,9,N","020000,1,N,1","+0256,1","+0202,1","10145,1",,,,"02,1,+00540,1,08,1",,,"04,99,1,04,1,08,1,00450,1,00,1,00,1",,"9,9,999,9,+013,1",,"SYN076AAXX  03004 08583 32470 40509 10256 20202 40145 84800 333 58013 82818 84626;",
"08583099999","2010-10-03T06:00:00","4","16.8333333","-25.05","20.0","MINDELO, CV","FM-12","99999","V020","070,1,N,0072,1","22000,1,9,N","020000,1,N,1","+0250,1","+0200,1","10120,1",,,,"01,1,+00720,1,06,1",,,"03,99,1,01,1,05,1,00800,1,03,1,00,1","999,N,+0238,1","9,9,999,9,-004,1",,"SYN082AAXX  03064 08583 32570 30714 10250 20200 40120 81530 333 20238 59004 81624 83360;",
"08583099999","2010-10-03T12:00:00","4","16.8333333","-25.05","20.0","MINDELO, CV","FM-12","99999","V020","060,1,N,0123,1","03000,1,9,N","025000,1,N,1","+0295,1","+0200,1","10146,1",,,,"02,1,+00540,1,08,1","05,1,+03000,1,03,1",,"07,99,1,02,1,02,1,00450,1,03,1,09,1",,"9,9,999,9,+005,1",,"SYN082AAXX  03124 08583 32475 70624 10295 20200 40146 82239 333 58005 82818 85360 85170;",
"08583099999","2010-10-03T18:00:00","4","16.8333333","-25.05","20.0","MINDELO, CV","FM-12","99999","V020","050,1,N,0077,1","22000,1,9,N","025000,1,N,1","+0288,1","+0215,1","10134,1",,,,"02,1,+00540,1,06,1",,,"02,99,1,02,1,05,1,00450,1,00,1,09,1","120,M,+0305,1","9,9,999,9,+012,1",,"SYN076AAXX  03184 08583 32475 20515 10288 20215 40134 82509 333 10305 58012 82618;",
"08583099999","2010-10-04T00:00:00","4","16.8333333","-25.05","20.0","MINDELO, CV","FM-12","99999","V020","060,1,N,0067,1","22000,1,9,N","020000,1,N,1","+0260,1","+0221,1","10154,1",,,,"01,1,+00540,1,06,1",,,"01,99,1,01,1,05,1,00450,1,00,1,01,1",,"9,9,999,9,+009,1",,"SYN070AAXX  04004 08583 32470 10613 10260 20221 40154 81501 333 58009 81618;",
"08583099999","2010-10-04T06:00:00","4","16.8333333","-25.05","20.0","MINDELO, CV","FM-12","99999","V020","050,1,N,0046,1","22000,1,9,N","015000,1,N,1","+0256,1","+0225,1","10140,1",,,,"04,1,+00540,1,06,1",,,"04,99,1,04,1,02,1,00450,1,00,1,01,1","999,N,+0256,1","9,9,999,9,+020,1",,"SYN076AAXX  04064 08583 32465 40509 10256 20225 40140 84201 333 20256 58020 84618;",
"08583099999","2010-10-04T12:00:00","4","16.8333333","-25.05","20.0","MINDELO, CV","FM-12","99999","V020","070,1,N,0118,1","22000,1,9,N","013000,1,N,1","+0303,1","+0221,1","10151,1",,,,"02,1,+00540,1,06,1",,,"02,99,1,02,1,05,1,00450,1,00,1,00,1",,"9,9,999,9,+005,1",,"SYN070AAXX  04124 08583 32463 20723 10303 20221 40151 82500 333 58005 82618;",
"08583099999","2010-10-04T18:00:00","4","16.8333333","-25.05","20.0","MINDELO, CV","FM-12","99999","V020","060,1,N,0134,1","22000,1,9,N","009000,1,N,1","+0288,1","+0230,1","10116,1",,,,"02,1,+00510,1,06,1",,,"02,99,1,02,1,05,1,00450,1,00,1,00,1","120,M,+0315,1","9,9,999,9,-018,1",,"SYN076AAXX  04184 08583 32459 20626 10288 20230 40116 82500 333 10315 59018 82617;",
"08583099999","2010-10-05T00:00:00","4","16.8333333","-25.05","20.0","MINDELO, CV","FM-12","99999","V020","060,1,N,0134,1","22000,1,9,N","008000,1,N,1","+0265,1","+0230,1","10143,1",,"0,1,06,1","0,1,06,1","02,1,+00510,1,06,1",,,"02,99,1,02,1,05,1,00450,1,00,1,00,1",,"9,9,999,9,-011,1","06,1","SYN076AAXX  05004 08583 32458 20626 10265 20230 40143 70600 82500 333 59011 82617;",
"08583099999","2010-10-05T12:00:00","4","16.8333333","-25.05","20.0","MINDELO, CV","FM-12","99999","V020","070,1,N,0108,1","22000,1,9,N","009000,1,N,1","+0302,1","+0232,1","10145,1",,"0,1,06,1","0,1,06,1","03,1,+00510,1,06,1",,,"03,99,1,03,1,05,1,00450,1,00,1,00,1",,"9,9,999,9,-006,1","06,1","SYN076AAXX  05124 08583 31459 30721 10302 20232 40145 70600 83500 333 59006 83617;",
"08583099999","2010-10-05T18:00:00","4","16.8333333","-25.05","20.0","MINDELO, CV","FM-12","99999","V020","050,1,N,0113,1","22000,1,9,N","009000,1,N,1","+0292,1","+0227,1","10122,1",,"0,1,06,1","0,1,06,1","03,1,+00540,1,06,1",,,"03,99,1,03,1,05,1,00450,1,00,1,00,1","120,M,+0313,1","9,9,999,9,+006,1","06,1","SYN082AAXX  05184 08583 31459 30522 10292 20227 40122 70600 83500 333 10313 58006 83618;",
"08583099999","2010-10-06T06:00:00","4","16.8333333","-25.05","20.0","MINDELO, CV","FM-12","99999","V020","060,1,N,0103,1","22000,1,9,N","010000,1,N,1","+0253,1","+0210,1","10124,1",,,,"01,1,+00540,1,06,1",,,"01,99,1,01,1,05,1,00450,1,00,1,00,1","999,N,+0252,1","9,9,999,9,-006,1",,"SYN076AAXX  06064 08583 32460 10620 10253 20210 40124 81500 333 20252 59006 81618;",
"08583099999","2010-10-06T12:00:00","4","16.8333333","-25.05","20.0","MINDELO, CV","FM-12","99999","V020","070,1,N,0108,1","22000,1,9,N","010000,1,N,1","+0290,1","+0213,1","10151,1",,,,"03,1,+00540,1,06,1",,,"03,99,1,03,1,05,1,00450,1,00,1,01,1",,"9,9,999,9,+006,1",,"SYN070AAXX  06124 08583 32460 30721 10290 20213 40151 83501 333 58006 83618;",
"08583099999","2010-10-06T18:00:00","4","16.8333333","-25.05","20.0","MINDELO, CV","FM-12","99999","V020","070,1,N,0113,1","22000,1,9,N","015000,1,N,1","+0290,1","+0208,1","10116,1",,,,"01,1,+00660,1,06,1",,,"01,99,1,01,1,05,1,00800,1,00,1,00,1","120,M,+0305,1","9,9,999,9,-006,1",,"SYN076AAXX  06184 08583 32565 10722 10290 20208 40116 81500 333 10305 59006 81622;",
"08583099999","2010-10-07T00:00:00","4","16.8333333","-25.05","20.0","MINDELO, CV","FM-12","99999","V020","060,1,N,0057,1","22000,1,9,N","012000,1,N,1","+0261,1","+0203,1","10146,1",,,,"02,1,+00660,1,06,1",,,"03,99,1,02,1,05,1,00800,1,00,1,01,1",,"9,9,999,9,-003,1",,"SYN070AAXX  07004 08583 32562 30611 10261 20203 40146 82501 333 59003 82622;",
"08583099999","2010-10-07T06:00:00","4","16.8333333","-25.05","20.0","MINDELO, CV","FM-12","99999","V020","060,1,N,0041,1","22000,1,9,N","012000,1,N,1","+0255,1","+0193,1","10137,1",,,,"02,1,+00600,1,06,1",,,"03,99,1,02,1,05,1,00800,1,00,1,01,1","999,N,+0251,1","9,9,999,9,-013,1",,"SYN076AAXX  07064 08583 32562 30608 10255 20193 40137 82501 333 20251 59013 82620;",
"08583099999","2010-10-07T12:00:00","4","16.8333333","-25.05","20.0","MINDELO, CV","FM-12","99999","V020","050,1,N,0046,1","22000,1,9,N","020000,1,N,1","+0297,1","+0195,1","10165,1",,,,"02,1,+00600,1,06,1",,,"02,99,1,02,1,05,1,00800,1,00,1,00,1",,"9,9,999,9,+014,1",,"SYN070AAXX  07124 08583 32570 20509 10297 20195 40165 82500 333 58014 82620;",
"08583099999","2010-10-07T18:00:00","4","16.8333333","-25.05","20.0","MINDELO, CV","FM-12","99999","V020","240,1,N,0036,1","00900,1,9,N","020000,1,N,1","+0285,1","+0210,1","10146,1",,,,"02,1,+00720,1,08,1","04,1,+00900,1,06,1",,"07,99,1,07,1,08,1,00800,1,99,9,99,9","120,M,+0310,1","9,9,999,9,+030,1",,"SYN088AAXX  07184 08583 32570 72407 10285 20210 40146 878// 333 10310 58030 82824 84630 85640;",
"08583099999","2010-10-08T00:00:00","4","16.8333333","-25.05","20.0","MINDELO, CV","FM-12","99999","V020","050,1,N,0031,1","22000,1,9,N","020000,1,N,1","+0261,1","+0208,1","10173,1",,,,"01,1,+00720,1,08,1",,,"03,99,1,03,1,08,1,00800,1,00,1,00,1",,"9,9,999,9,+027,1",,"SYN076AAXX  08004 08583 32570 30506 10261 20208 40173 83800 333 58027 81824 83630;",
"08583099999","2010-10-08T06:00:00","4","16.8333333","-25.05","20.0","MINDELO, CV","FM-12","99999","V020","040,1,N,0021,1","22000,1,9,N","015000,1,N,1","+0236,1","+0205,1","10152,1",,,,"01,1,+00720,1,06,1",,,"02,99,1,01,1,02,1,00800,1,00,1,01,1","999,N,+0236,1","9,9,999,9,+015,1",,"SYN076AAXX  08064 08583 32565 20404 10236 20205 40152 81201 333 20236 58015 81624;",
"08583099999","2010-10-08T12:00:00","4","16.8333333","-25.05","20.0","MINDELO, CV","FM-12","99999","V020","050,1,N,0041,1","22000,1,9,N","020000,1,N,1","+0280,1","+0206,1","10172,1",,,,"03,1,+00690,1,08,1",,,"03,99,1,03,1,02,1,00800,1,00,1,00,1",,"9,9,999,9,+007,1",,"SYN070AAXX  08124 08583 32570 30508 10280 20206 40172 83200 333 58007 83823;",
"08583099999","2010-10-08T18:00:00","4","16.8333333","-25.05","20.0","MINDELO, CV","FM-12","99999","V020","040,1,N,0057,1","01200,1,C,N","020000,1,N,1","+0280,1","+0202,1","10146,1",,,,"02,1,+00600,1,08,1",,,"05,99,1,05,1,08,1,00800,1,00,1,00,1","120,M,+0300,1","9,9,999,9,+000,1",,"SYN082AAXX  08184 08583 32570 50411 10280 20202 40146 85800 333 10300 58000 82820 85822;",
"08583099999","2010-10-09T00:00:00","4","16.8333333","-25.05","20.0","MINDELO, CV","FM-12","99999","V020","070,1,N,0036,1","22000,1,9,N","020000,1,N,1","+0253,1","+0203,1","10171,1",,,,"02,1,+00660,1,06,1",,,"02,99,1,02,1,05,1,00800,1,00,1,00,1",,"9,9,999,9,-002,1",,"SYN070AAXX  09004 08583 32570 20707 10253 20203 40171 82500 333 59002 82622;",
"08583099999","2010-10-09T06:00:00","4","16.8333333","-25.05","20.0","MINDELO, CV","FM-12","99999","V020","999,9,V,0010,1","01200,1,C,N","020000,1,N,1","+0250,1","+0203,1","10155,1",,,,"03,1,+00660,1,08,1",,,"05,99,1,05,1,08,1,00800,1,00,1,00,1","999,N,+0242,1","9,9,999,9,+003,1",,"SYN082AAXX  09064 08583 32570 59902 10250 20203 40155 85800 333 20242 58003 83822 84628;",
"08583099999","2010-10-09T18:00:00","4","16.8333333","-25.05","20.0","MINDELO, CV","FM-12","99999","V020","050,1,N,0077,1","22000,1,9,N","025000,1,N,1","+0280,1","+0200,1","10159,1","12,9999,9,9","6,1,06,1","2,1,06,1","03,1,+00600,1,08,1",,,"03,99,1,03,1,02,1,00800,1,00,1,00,1","120,M,+0300,1","9,9,999,9,+013,1","01,1","SYN088AAXX  09184 08583 11575 30515 10280 20200 40159 6///2 70162 83200 333 10300 58013 83820;",
"08583099999","2010-10-10T00:00:00","4","16.8333333","-25.05","20.0","MINDELO, CV","FM-12","99999","V020","080,1,N,0046,1","22000,1,9,N","020000,1,N,1","+0252,1","+0200,1","10172,1",,,,"02,1,+00660,1,06,1",,,"02,99,1,02,1,02,1,00800,1,00,1,00,1",,"9,9,999,9,+002,1",,"SYN070AAXX  10004 08583 32570 20809 10252 20200 40172 82200 333 58002 82622;",
"08583099999","2010-10-10T06:00:00","4","16.8333333","-25.05","20.0","MINDELO, CV","FM-12","99999","V020","050,1,N,0036,1","22000,1,9,N","025000,1,N,1","+0236,1","+0201,1","10157,1",,,,"01,1,+00600,1,08,1",,,"01,99,1,01,1,01,1,00800,1,00,1,00,1","999,N,+0236,1","9,9,999,9,+002,1",,"SYN082AAXX  10064 08583 12575 10507 10236 20201 40157 6///4 81100 333 20236 58002 81820;",
"08583099999","2010-10-10T12:00:00","4","16.8333333","-25.05","20.0","MINDELO, CV","FM-12","99999","V020","050,1,N,0062,1","22000,1,9,N","025000,1,N,1","+0300,1","+0198,1","10176,1",,,,"03,1,+00660,1,08,1",,,"03,99,1,03,1,01,1,00800,1,00,1,00,1",,"9,9,999,9,-003,1",,"SYN070AAXX  10124 08583 32575 30512 10300 20198 40176 83100 333 59003 83822;",
"08583099999","2010-10-10T18:00:00","4","16.8333333","-25.05","20.0","MINDELO, CV","FM-12","99999","V020","050,1,N,0113,1","22000,1,9,N","025000,1,N,1","+0291,1","+0201,1","10143,1",,,,"03,1,+00660,1,06,1",,,"03,99,1,03,1,01,1,00800,1,00,1,00,1","120,M,+0310,1","9,9,999,9,-016,1",,"SYN076AAXX  10184 08583 32575 30522 10291 20201 40143 83100 333 10310 59016 83622;",
"08583099999","2010-10-11T00:00:00","4","16.8333333","-25.05","20.0","MINDELO, CV","FM-12","99999","V020","060,1,N,0067,1","22000,1,9,N","020000,1,N,1","+0255,1","+0208,1","10157,1",,,,"01,1,+00600,1,08,1",,,"01,99,1,01,1,01,1,00800,1,00,1,00,1",,"9,9,999,9,-015,1",,"SYN070AAXX  11004 08583 32570 10613 10255 20208 40157 81100 333 59015 81820;",
"08583099999","2010-10-11T06:00:00","4","16.8333333","-25.05","20.0","MINDELO, CV","FM-12","99999","V020","060,1,N,0057,1","22000,1,9,N","020000,1,N,1","+0253,1","+0215,1","10140,1",,,,"02,1,+00600,1,08,1",,,"02,99,1,02,1,01,1,00800,1,00,1,00,1","120,M,+0310,1","9,9,999,9,-017,1",,"SYN076AAXX  11064 08583 32570 20611 10253 20215 40140 82100 333 10310 59017 82820;",
"08583099999","2010-10-11T12:00:00","4","16.8333333","-25.05","20.0","MINDELO, CV","FM-12","99999","V020","050,1,N,0087,1","22000,1,9,N","020000,1,N,1","+0290,1","+0201,1","10151,1",,,,"02,1,+00600,1,06,1",,,"02,99,1,02,1,02,1,00800,1,00,1,00,1",,"9,9,999,9,-025,1",,"SYN070AAXX  11124 08583 32570 20517 10290 20201 40151 82200 333 59025 82620;",
"08583099999","2010-10-11T18:00:00","4","16.8333333","-25.05","20.0","MINDELO, CV","FM-12","99999","V020","060,1,N,0103,1","01200,1,C,N","025000,1,N,1","+0281,1","+0207,1","10119,1",,,,"02,1,+00660,1,06,1",,,"05,99,1,05,1,08,1,00800,1,00,1,00,1","120,M,+0310,1","9,9,999,9,-024,1",,"SYN082AAXX  11184 08583 32575 50620 10281 20207 40119 85800 333 10310 59024 82622 83627;",
"08583099999","2010-10-12T00:00:00","4","16.8333333","-25.05","20.0","MINDELO, CV","FM-12","99999","V020","060,1,N,0082,1","22000,1,9,N","020000,1,N,1","+0253,1","+0193,1","10148,1",,,,"02,1,+00660,1,06,1",,,"02,99,1,02,1,02,1,00800,1,00,1,01,1",,"9,9,999,9,-010,1",,"SYN070AAXX  12004 08583 32570 20616 10253 20193 40148 82201 333 59010 82622;",
"08583099999","2010-10-12T06:00:00","4","16.8333333","-25.05","20.0","MINDELO, CV","FM-12","99999","V020","070,1,N,0051,1","22000,1,9,N","018000,1,N,1","+0245,1","+0186,1","10134,1",,,,"02,1,+00660,1,06,1",,,"02,99,1,02,1,02,1,00800,1,00,1,01,1","999,N,+0243,1","9,9,999,9,-006,1",,"SYN076AAXX  12064 08583 32568 20710 10245 20186 40134 82201 333 20243 59006 82622;",
"08583099999","2010-10-12T12:00:00","4","16.8333333","-25.05","20.0","MINDELO, CV","FM-12","99999","V020","070,1,N,0067,1","22000,1,9,N","025000,1,N,1","+0293,1","+0177,1","10147,1",,,,"01,1,+00720,1,08,1",,,"01,99,1,01,1,01,1,00450,1,00,1,00,1",,"9,9,999,9,-004,1",,"SYN070AAXX  12124 08583 32475 10713 10293 20177 40147 81100 333 59004 81824;",
"08583099999","2010-10-12T18:00:00","4","16.8333333","-25.05","20.0","MINDELO, CV","FM-12","99999","V020","050,1,N,0077,1","22000,1,9,N","035000,1,N,1","+0281,1","+0191,1","10127,1",,,,"04,1,+00720,1,08,1",,,"04,99,1,04,1,02,1,00800,1,00,1,00,1","120,M,+0310,1","9,9,999,9,+008,1",,"SYN076AAXX  12184 08583 32581 40515 10281 20191 40127 84200 333 10310 58008 84824;",
"08583099999","2010-10-13T00:00:00","4","16.8333333","-25.05","20.0","MINDELO, CV","FM-12","99999","V020","070,1,N,0041,1","22000,1,9,N","025000,1,N,1","+0252,1","+0191,1","10149,1",,,,"01,1,+00660,1,06,1",,,"01,99,1,01,1,05,1,00800,1,00,1,00,1",,"9,9,999,9,+001,1",,"SYN070AAXX  13004 08583 32575 10708 10252 20191 40149 81500 333 58001 81622;",
"08583099999","2010-10-13T06:00:00","4","16.8333333","-25.05","20.0","MINDELO, CV","FM-12","99999","V020","070,1,N,0031,1","22000,1,9,N","020000,1,N,1","+0228,1","+0195,1","10136,1",,,,"01,1,+00720,1,06,1",,,"01,99,1,01,1,05,1,00800,1,00,1,00,1","999,N,+0227,1","9,9,999,9,+002,1",,"SYN076AAXX  13064 08583 32570 10706 10228 20195 40136 81500 333 20227 58002 81624;",
"08583099999","2010-10-13T12:00:00","4","16.8333333","-25.05","20.0","MINDELO, CV","FM-12","99999","V020","060,1,N,0062,1","22000,1,9,N","035000,1,N,1","+0288,1","+0198,1","10150,1",,,,"03,1,+00600,1,08,1",,,"03,99,1,03,1,08,1,00800,1,00,1,00,1",,"9,9,999,9,+004,1",,"SYN070AAXX  13124 08583 32581 30612 10288 20198 40150 83800 333 58004 83820;",
"08583099999","2010-10-13T18:00:00","4","16.8333333","-25.05","20.0","MINDELO, CV","FM-12","99999","V020","040,1,N,0067,1","22000,1,9,N","035000,1,N,1","+0280,1","+0195,1","10129,1",,,,"03,1,+00660,1,08,1",,,"03,99,1,03,1,01,1,00800,1,00,1,00,1","120,M,+0305,1","9,9,999,9,+002,1",,"SYN076AAXX  13184 08583 32581 30413 10280 20195 40129 83100 333 10305 58002 83822;",
"08583099999","2010-10-14T00:00:00","4","16.8333333","-25.05","20.0","MINDELO, CV","FM-12","99999","V020","070,1,N,0026,1","22000,1,9,N","030000,1,N,1","+0247,1","+0196,1","10146,1",,,,"01,1,+00660,1,08,1",,,"01,99,1,01,1,02,1,00800,1,00,1,00,1",,"9,9,999,9,-003,1",,"SYN070AAXX  14004 08583 32580 10705 10247 20196 40146 81200 333 59003 81822;",
"08583099999","2010-10-14T06:00:00","4","16.8333333","-25.05","20.0","MINDELO, CV","FM-12","99999","V020","030,1,N,0015,1","22000,1,9,N","030000,1,N,1","+0233,1","+0197,1","10136,1",,,,"01,1,+00540,1,08,1",,,"01,99,1,01,1,01,1,00800,1,00,1,01,1","999,N,+0228,1","9,9,999,9,+000,1",,"SYN076AAXX  14064 08583 32580 10303 10233 20197 40136 81101 333 20228 58000 81818;",
"08583099999","2010-10-14T12:00:00","4","16.8333333","-25.05","20.0","MINDELO, CV","FM-12","99999","V020","100,1,N,0031,1","22000,1,9,N","030000,1,N,1","+0295,1","+0193,1","10153,1",,,,"02,1,+00540,1,08,1",,,"02,99,1,01,1,01,1,00800,1,00,1,00,1",,"9,9,999,9,+003,1",,"SYN070AAXX  14124 08583 32580 21006 10295 20193 40153 81100 333 58003 82818;",
"08583099999","2010-10-14T18:00:00","4","16.8333333","-25.05","20.0","MINDELO, CV","FM-12","99999","V020","230,1,N,0031,1","00660,1,9,N","030000,1,N,1","+0288,1","+0210,1","10132,1",,,,"05,1,+00660,1,08,1",,,"05,99,1,05,1,02,1,00800,1,00,1,00,1","120,M,+0305,1","9,9,999,9,+004,1",,"SYN076AAXX  14184 08583 32580 52306 10288 20210 40132 85200 333 10305 58004 85822;",
"08583099999","2010-10-15T00:00:00","4","16.8333333","-25.05","20.0","MINDELO, CV","FM-12","99999","V020","060,1,N,0057,1","22000,1,9,N","018000,1,N,1","+0257,1","+0225,1","10150,1",,,,"02,1,+00540,1,06,1",,,"03,99,1,02,1,02,1,00450,1,00,1,01,1",,"9,9,999,9,+004,1",,"SYN076AAXX  15004 08583 32468 30611 10257 20225 40150 82201 333 58004 82618 83070;",
"08583099999","2010-10-15T06:00:00","4","16.8333333","-25.05","20.0","MINDELO, CV","FM-12","99999","V020","070,1,N,0021,1","22000,1,9,N","020000,1,N,1","+0247,1","+0220,1","10135,1",,,,"02,1,+00600,1,06,1",,,"02,99,1,02,1,05,1,00450,1,00,1,00,1","999,N,+0226,1","9,9,999,9,-002,1",,"SYN076AAXX  15064 08583 32470 20704 10247 20220 40135 82500 333 20226 59002 82620;",
"08583099999","2010-10-15T12:00:00","4","16.8333333","-25.05","20.0","MINDELO, CV","FM-12","99999","V020","070,1,N,0072,1","22000,1,9,N","020000,1,N,1","+0308,1","+0210,1","10140,1",,,,"03,1,+00600,1,08,1",,,"03,99,1,03,1,02,1,00800,1,03,1,00,1",,"9,9,999,9,-013,1",,"SYN070AAXX  15124 08583 32570 30714 10308 20210 40140 83230 333 59013 83820;",
"08583099999","2010-10-15T18:00:00","4","16.8333333","-25.05","20.0","MINDELO, CV","FM-12","99999","V020","050,1,N,0082,1","00540,1,9,N","020000,1,N,1","+0291,1","+0217,1","10114,1",,,,"05,1,+00540,1,08,1",,,"05,99,1,05,1,02,1,00450,1,00,1,00,1","120,M,+0313,1","9,9,999,9,-018,1",,"SYN076AAXX  15184 08583 32470 50516 10291 20217 40114 85200 333 10313 59018 85818;",
"08583099999","2010-10-16T00:00:00","4","16.8333333","-25.05","20.0","MINDELO, CV","FM-12","99999","V020","080,1,N,0046,1","00900,1,C,N","020000,1,N,1","+0253,1","+0220,1","10140,1",,,,"03,1,+00540,1,08,1",,,"06,99,1,06,1,08,1,00450,1,99,9,99,9",,"9,9,999,9,-011,1",,"SYN076AAXX  16004 08583 32470 60809 10253 20220 40140 868// 333 59011 83818 84623;",
"08583099999","2010-10-16T06:00:00","4","16.8333333","-25.05","20.0","MINDELO, CV","FM-12","99999","V020","060,1,N,0041,1","22000,1,9,N","010000,1,N,1","+0225,1","+0217,1","10122,1",,"6,1,06,1","2,1,06,1","03,1,+00600,1,08,1",,,"03,99,1,03,1,01,1,00800,1,03,1,00,1","999,N,+0223,1","9,9,999,9,-014,1","01,1","SYN088AAXX  16064 08583 11560 30608 10225 20217 40122 6///4 70162 83130 333 20223 59014 83820;",
"08583099999","2010-10-16T12:00:00","4","16.8333333","-25.05","20.0","MINDELO, CV","FM-12","99999","V020","040,1,N,0057,1","00600,1,9,N","018000,1,N,1","+0291,1","+0225,1","10133,1",,,,"05,1,+00600,1,06,1",,,"05,99,1,05,1,02,1,00800,1,00,1,00,1",,"9,9,999,9,-006,1",,"SYN070AAXX  16124 08583 32568 50411 10291 20225 40133 85200 333 59006 85620;",
"08583099999","2010-10-16T18:00:00","4","16.8333333","-25.05","20.0","MINDELO, CV","FM-12","99999","V020","050,1,N,0067,1","22000,1,9,N","020000,1,N,1","+0288,1","+0218,1","10105,1","12,9999,9,9",,,"02,1,+00690,1,08,1",,,"02,99,1,02,1,02,1,00800,1,00,1,00,1","120,M,+0305,1","9,9,999,9,-007,1",,"SYN082AAXX  16184 08583 12570 20513 10288 20218 40105 6///2 82200 333 10305 59007 82823;",
"08583099999","2010-10-17T06:00:00","4","16.8333333","-25.05","20.0","MINDELO, CV","FM-12","99999","V020","010,1,N,0154,1","22000,1,9,N","020000,1,N,1","+0238,1","+0220,1","10121,1",,,,"02,1,+00540,1,08,1",,,"03,99,1,02,1,02,1,00450,1,00,1,01,1","999,N,+0222,1","9,9,999,9,-001,1",,"SYN082AAXX  17064 08583 32470 30130 10238 20220 40121 82201 333 20222 59001 82818 83070;",
"08583099999","2010-10-17T12:00:00","4","16.8333333","-25.05","20.0","MINDELO, CV","FM-12","99999","V020","050,1,N,0051,1","04500,1,C,N","020000,1,N,1","+0292,1","+0215,1","10138,1",,,,"02,1,+00540,1,08,1",,,"07,99,1,02,1,02,1,00450,1,03,1,01,1",,"9,9,999,9,+004,1",,"SYN076AAXX  17124 08583 32470 70510 10292 20215 40138 82231 333 58004 82818 85360;",
"08583099999","2010-10-17T18:00:00","4","16.8333333","-25.05","20.0","MINDELO, CV","FM-12","99999","V020","040,1,N,0062,1","04500,1,C,N","025000,1,N,1","+0277,1","+0213,1","10106,1",,,,"02,1,+00600,1,08,1",,,"07,99,1,02,1,02,1,00800,1,07,1,99,9","120,M,+0315,1","9,9,999,9,+000,1",,"SYN082AAXX  17184 08583 32575 70412 10277 20213 40106 8227/ 333 10315 58000 82820 87359;",
"08583099999","2010-10-18T00:00:00","4","16.8333333","-25.05","20.0","MINDELO, CV","FM-12","99999","V020","070,1,N,0021,1","22000,1,9,N","020000,1,N,1","+0250,1","+0220,1","10136,1",,,,"01,1,+00510,1,08,1",,,"03,99,1,01,1,01,1,00800,1,03,1,09,1",,"9,9,999,9,+009,1",,"SYN076AAXX  18004 08583 32570 30704 10250 20220 40136 81139 333 58009 81817 83170;",
"08583099999","2010-10-18T06:00:00","4","16.8333333","-25.05","20.0","MINDELO, CV","FM-12","99999","V020","999,9,C,0000,1","22000,1,9,N","015000,1,N,1","+0232,1","+0218,1","10122,1",,,,"02,1,+00510,1,06,1",,,"02,99,1,02,1,05,1,00450,1,00,1,00,1","999,N,+0232,1","9,9,999,9,+000,1",,"SYN076AAXX  18064 08583 32465 20000 10232 20218 40122 82500 333 20232 58000 82617;",
"08583099999","2010-10-18T18:00:00","4","16.8333333","-25.05","20.0","MINDELO, CV","FM-12","99999","V020","060,1,N,0062,1","22000,1,9,N","025000,1,N,1","+0285,1","+0210,1","10124,1",,,,"01,1,+00540,1,08,1",,,"04,99,1,01,1,01,1,00450,1,08,1,01,1","120,M,+0306,1","9,9,999,9,+017,1",,"SYN082AAXX  18184 08583 32475 40612 10285 20210 40124 81181 333 10306 58017 81818 83360;",
"08583099999","2010-10-19T00:00:00","4","16.8333333","-25.05","20.0","MINDELO, CV","FM-12","99999","V020","060,1,N,0072,1","22000,1,9,N","025000,1,N,1","+0257,1","+0210,1","10147,1",,,,"01,1,+00600,1,08,1",,,"02,99,1,01,1,02,1,00800,1,08,1,00,1",,"9,9,999,9,+010,1",,"SYN070AAXX  19004 08583 32575 20614 10257 20210 40147 81280 333 58010 81820;",
"08583099999","2010-10-19T06:00:00","4","16.8333333","-25.05","20.0","MINDELO, CV","FM-12","99999","V020","050,1,N,0046,1","03000,1,9,N","020000,1,N,1","+0247,1","+0205,1","10130,1",,,,"01,1,+00600,1,08,1","04,1,+03000,1,03,1",,"07,99,1,01,1,01,1,00800,1,03,1,02,1","999,N,+0245,1","9,9,999,9,+009,1",,"SYN088AAXX  19064 08583 32570 70509 10247 20205 40130 81132 333 20245 58009 81820 84360 86070;",
"08583099999","2010-10-19T12:00:00","4","16.8333333","-25.05","20.0","MINDELO, CV","FM-12","99999","V020","060,1,N,0072,1","22000,1,9,N","025000,1,N,1","+0287,1","+0203,1","10150,1",,,,"01,1,+00690,1,08,1",,,"01,99,1,01,1,01,1,00800,1,00,1,00,1",,"9,9,999,9,+002,1",,"SYN070AAXX  19124 08583 32575 10614 10287 20203 40150 81100 333 58002 81823;",
"08583099999","2010-10-19T18:00:00","4","16.8333333","-25.05","20.0","MINDELO, CV","FM-12","99999","V020","060,1,N,0072,1","01200,1,C,N","030000,1,N,1","+0280,1","+0210,1","10129,1",,,,"03,1,+00600,1,08,1",,,"05,99,1,05,1,08,1,00800,1,00,1,00,1","120,M,+0395,1","9,9,999,9,+008,1",,"SYN082AAXX  19184 08583 32580 50614 10280 20210 40129 85800 333 10395 58008 83820 84624;",
"08583099999","2010-10-20T00:00:00","4","16.8333333","-25.05","20.0","MINDELO, CV","FM-12","99999","V020","070,1,N,0041,1","22000,1,9,N","020000,1,N,1","+0257,1","+0213,1","10158,1",,,,"02,1,+00600,1,06,1",,,"02,99,1,02,1,02,1,00800,1,00,1,01,1",,"9,9,999,9,+013,1",,"SYN070AAXX  20004 08583 32570 20708 10257 20213 40158 82201 333 58013 82620;",
"08583099999","2010-10-20T06:00:00","4","16.8333333","-25.05","20.0","MINDELO, CV","FM-12","99999","V020","070,1,N,0041,1","22000,1,9,N","025000,1,N,1","+0246,1","+0212,1","10135,1",,,,"01,1,+00600,1,08,1",,,"02,99,1,01,1,01,1,00800,1,03,1,00,1","999,N,+0246,1","9,9,999,9,+005,1",,"SYN076AAXX  20064 08583 32575 20708 10246 20212 40135 81130 333 20246 58005 81820;",
"08583099999","2010-10-20T12:00:00","4","16.8333333","-25.05","20.0","MINDELO, CV","FM-12","99999","V020","060,1,N,0077,1","22000,1,9,N","025000,1,N,1","+0292,1","+0208,1","10151,1",,,,"01,1,+00540,1,08,1",,,"02,99,1,02,1,08,1,00450,1,00,1,00,1",,"9,9,999,9,+002,1",,"SYN070AAXX  20124 08583 32475 20615 10292 20208 40151 82800 333 58002 81818;",
"08583099999","2010-10-20T18:00:00","4","16.8333333","-25.05","20.0","MINDELO, CV","FM-12","99999","V020","060,1,N,0077,1","22000,1,9,N","020000,1,N,1","+0290,1","+0217,1","10124,1",,,,"03,1,+00600,1,06,1",,,"03,99,1,03,1,02,1,00800,1,00,1,00,1","120,M,+0308,1","9,9,999,9,-004,1",,"SYN076AAXX  20184 08583 32570 30615 10290 20217 40124 83200 333 10308 59004 83620;",
"08583099999","2010-10-21T00:00:00","4","16.8333333","-25.05","20.0","MINDELO, CV","FM-12","99999","V020","070,1,N,0051,1","22000,1,9,N","020000,1,N,1","+0261,1","+0223,1","10153,1",,,,"02,1,+00540,1,06,1",,,"02,99,1,02,1,05,1,00450,1,00,1,01,1",,"9,9,999,9,-006,1",,"SYN070AAXX  21004 08583 32470 20710 10261 20223 40153 82501 333 59006 82618;",
"08583099999","2010-10-21T06:00:00","4","16.8333333","-25.05","20.0","MINDELO, CV","FM-12","99999","V020","060,1,N,0062,1","22000,1,9,N","020000,1,N,1","+0255,1","+0213,1","10128,1",,,,"02,1,+00540,1,08,1",,,"02,99,1,02,1,02,1,00450,1,00,1,01,1","999,N,+0240,1","9,9,999,9,-007,1",,"SYN076AAXX  21064 08583 32470 20612 10255 20213 40128 82201 333 20240 59007 82818;",
"08583099999","2010-10-21T12:00:00","4","16.8333333","-25.05","20.0","MINDELO, CV","FM-12","99999","V020","080,1,N,0103,1","22000,1,9,N","020000,1,N,1","+0301,1","+0200,1","10144,1",,,,"02,1,+00600,1,06,1",,,"04,99,1,02,1,02,1,00800,1,00,1,01,1",,"9,9,999,9,-007,1",,"SYN076AAXX  21124 08583 32570 40820 10301 20200 40144 82201 333 59007 82620 84070;",
"08583099999","2010-10-21T18:00:00","4","16.8333333","-25.05","20.0","MINDELO, CV","FM-12","99999","V020","090,1,N,0077,1","00720,1,9,N","025000,1,N,1","+0287,1","+0206,1","10136,1",,,,"05,1,+00720,1,08,1",,,"05,99,1,05,1,02,1,00800,1,00,1,01,1","120,M,+0307,1","9,9,999,9,+011,1",,"SYN076AAXX  21184 08583 32575 50915 10287 20206 40136 85201 333 10307 58011 85824;",
"08583099999","2010-10-22T00:00:00","4","16.8333333","-25.05","20.0","MINDELO, CV","FM-12","99999","V020","060,1,N,0046,1","01200,1,9,N","018000,1,N,1","+0260,1","+0226,1","10146,1",,,,"02,1,+00750,1,08,1","05,1,+01200,1,06,1",,"08,99,1,05,1,08,1,00800,1,00,1,07,1",,"9,9,999,9,-006,1",,"SYN082AAXX  22004 08583 32568 80609 10260 20226 40146 85807 333 59006 82825 85640 87270;",
"08583099999","2010-10-22T06:00:00","4","16.8333333","-25.05","20.0","MINDELO, CV","FM-12","99999","V020","060,1,N,0093,1","10500,1,C,N","015000,1,N,1","+0258,1","+0217,1","10124,1",,,,"03,1,+00600,1,08,1","03,1,+00660,1,06,1",,"06,99,1,04,1,08,1,00450,1,00,1,02,1","999,N,+0250,1","9,9,999,9,-005,1",,"SYN088AAXX  22064 08583 32465 60618 10258 20217 40124 84802 333 20250 59005 83820 83622 85070;",
"08583099999","2010-10-22T12:00:00","4","16.8333333","-25.05","20.0","MINDELO, CV","FM-12","99999","V020","060,1,N,0098,1","00540,1,9,N","018000,1,N,1","+0286,1","+0226,1","10142,1",,,,"05,1,+00540,1,08,1",,,"07,99,1,05,1,02,1,00450,1,03,1,06,1",,"9,9,999,9,-003,1",,"SYN076AAXX  22124 08583 32468 70619 10286 20226 40142 85236 333 59003 85818 85070;",
"08583099999","2010-10-22T18:00:00","4","16.8333333","-25.05","20.0","MINDELO, CV","FM-12","99999","V020","060,1,N,0103,1","00660,1,9,N","006000,1,N,1","+0235,1","+0218,1","10116,1","12,0010,9,1","6,1,06,1","6,1,06,1","02,1,+00450,1,07,1","05,1,+00660,1,06,1",,"08,99,1,06,1,08,1,00450,1,07,1,99,9","120,M,+0288,1","9,9,999,9,-020,1","60,1","SYN100AAXX  22184 08583 11456 80620 10235 20218 40116 60012 76066 8687/ 333 10288 59020 82715 85622 88360;",
"08583099999","2010-10-23T12:00:00","4","16.8333333","-25.05","20.0","MINDELO, CV","FM-12","99999","V020","080,1,N,0062,1","00450,1,9,N","015000,1,N,1","+0252,1","+0222,1","10147,1","06,0130,9,1","6,1,06,1","6,1,06,1","02,1,+00240,1,07,1","04,1,+00450,1,08,1",,"08,99,1,07,1,08,1,00250,1,07,1,99,9",,"9,9,999,9,+006,1","50,1","SYN094AAXX  23124 08583 11365 80812 10252 20222 40147 60131 75066 8787/ 333 58006 82708 84815 86622;",
"08583099999","2010-10-23T18:00:00","4","16.8333333","-25.05","20.0","MINDELO, CV","FM-12","99999","V020","060,1,N,0103,1","00510,1,9,N","012000,1,N,1","+0270,1","+0231,1","10118,1","12,9999,9,9","5,1,06,1","2,1,06,1","03,1,+00450,1,07,1","04,1,+00510,1,08,1",,"07,99,1,05,1,08,1,00450,1,07,1,02,1","120,M,+0280,1","9,9,999,9,+002,1","02,1","SYN100AAXX  23184 08583 11462 70620 10270 20231 40118 6///2 70252 85872 333 10280 58002 83715 84817 86360;",
"08583099999","2010-10-24T00:00:00","4","16.8333333","-25.05","20.0","MINDELO, CV","FM-12","99999","V020","050,1,N,0103,1","00540,1,9,N","010000,1,N,1","+0256,1","+0223,1","10146,1",,"5,1,06,1","2,1,06,1","02,1,+00480,1,08,1","05,1,+00540,1,06,1",,"07,99,1,05,1,08,1,00450,1,03,1,99,9",,"9,9,999,9,+016,1","02,1","SYN094AAXX  24004 08583 11460 70520 10256 20223 40146 6///1 70252 8583/ 333 58016 82816 85618 87360;",
"08583099999","2010-10-24T06:00:00","4","16.8333333","-25.05","20.0","MINDELO, CV","FM-12","99999","V020","060,1,N,0123,1","04500,1,C,N","012000,1,N,1","+0255,1","+0220,1","10118,1",,"6,1,06,1","5,1,06,1","03,1,+00660,1,06,1",,,"07,99,1,03,1,02,1,00800,1,03,1,02,1","999,N,+0253,1","9,9,999,9,+002,1","02,1","SYN094AAXX  24064 08583 11562 70624 10255 20220 40118 6///4 70265 83232 333 20253 58002 83622 87070;",
"08583099999","2010-10-24T12:00:00","4","16.8333333","-25.05","20.0","MINDELO, CV","FM-12","99999","V020","060,1,N,0123,1","22000,1,9,N","012000,1,N,1","+0286,1","+0230,1","10136,1",,,,"02,1,+00540,1,08,1",,,"03,99,1,02,1,02,1,00450,1,03,1,09,1",,"9,9,999,9,-009,1",,"SYN070AAXX  24124 08583 32462 30624 10286 20230 40136 82239 333 59009 82818;",
"08583099999","2010-10-24T18:00:00","4","16.8333333","-25.05","20.0","MINDELO, CV","FM-12","99999","V020","040,1,N,0113,1","22000,1,9,N","012000,1,N,1","+0277,1","+0227,1","10112,1",,,,"02,1,+00540,1,08,1",,,"04,99,1,02,1,02,1,00450,1,00,1,01,1","120,M,+0300,1","9,9,999,9,+006,1",,"SYN082AAXX  24184 08583 32462 40422 10277 20227 40112 82201 333 10300 58006 82818 84070;",
"08583099999","2010-10-25T00:00:00","4","16.8333333","-25.05","20.0","MINDELO, CV","FM-12","99999","V020","060,1,N,0108,1","22000,1,9,N","010000,1,N,1","+0253,1","+0222,1","10135,1",,,,"02,1,+00540,1,06,1",,,"04,99,1,02,1,02,1,00450,1,00,1,01,1",,"9,9,999,9,-011,1",,"SYN076AAXX  25004 08583 32460 40621 10253 20222 40135 82201 333 59011 82618 84070;",
"08583099999","2010-10-25T06:00:00","4","16.8333333","-25.05","20.0","MINDELO, CV","FM-12","99999","V020","050,1,N,0077,1","04500,1,C,N","010000,1,N,1","+0250,1","+0220,1","10132,1",,,,"01,1,+00540,1,06,1","03,1,+03000,1,03,1",,"07,99,1,01,1,05,1,00450,1,03,1,07,1","999,N,+0250,1","9,9,999,9,+014,1",,"SYN088AAXX  25064 08583 32460 70515 10250 20220 40132 81537 333 20250 58014 81618 83360 86270;",
"08583099999","2010-10-25T12:00:00","4","16.8333333","-25.05","20.0","MINDELO, CV","FM-12","99999","V020","050,1,N,0129,1","10500,1,C,N","012000,1,N,1","+0285,1","+0217,1","10139,1",,,,"02,1,+00540,1,06,1",,,"05,99,1,02,1,02,1,00450,1,00,1,02,1",,"9,9,999,9,+003,1",,"SYN076AAXX  25124 08583 32462 50525 10285 20217 40139 82202 333 58003 82618 85070;",
"08583099999","2010-10-25T18:00:00","4","16.8333333","-25.05","20.0","MINDELO, CV","FM-12","99999","V020","060,1,N,0098,1","10500,1,C,N","015000,1,N,1","+0271,1","+0211,1","10126,1",,,,"03,1,+00600,1,06,1",,,"07,99,1,02,1,02,1,00450,1,00,1,02,1","120,M,+0295,1","9,9,999,9,+013,1",,"SYN082AAXX  25184 08583 32465 70619 10271 20211 40126 82202 333 10295 58013 83620 86070;",
"08583099999","2010-10-26T00:00:00","4","16.8333333","-25.05","20.0","MINDELO, CV","FM-12","99999","V020","080,1,N,0057,1","04500,1,C,N","015000,1,N,1","+0252,1","+0210,1","10149,1",,,,"02,1,+00540,1,06,1",,,"07,99,1,02,1,05,1,00450,1,03,1,06,1",,"9,9,999,9,+014,1",,"SYN076AAXX  26004 08583 32465 70811 10252 20210 40149 82536 333 58014 82618 86270;",
"08583099999","2010-10-26T06:00:00","4","16.8333333","-25.05","20.0","MINDELO, CV","FM-12","99999","V020","060,1,N,0062,1","10500,1,C,N","015000,1,N,1","+0245,1","+0200,1","10136,1",,,,"02,1,+00600,1,06,1",,,"07,99,1,02,1,02,1,00800,1,00,1,02,1","999,N,+0245,1","9,9,999,9,+014,1",,"SYN082AAXX  26064 08583 32565 70612 10245 20200 40136 82202 333 20245 58014 82620 87070;",
"08583099999","2010-10-26T12:00:00","4","16.8333333","-25.05","20.0","MINDELO, CV","FM-12","99999","V020","070,1,N,0144,1","10500,1,C,N","015000,1,N,1","+0281,1","+0180,1","10152,1",,,,"02,1,+00600,1,06,1",,,"06,99,1,02,1,02,1,00800,1,00,1,02,1",,"9,9,999,9,+013,1",,"SYN076AAXX  26124 08583 32565 60728 10281 20180 40152 82202 333 58013 82620 86070;",
"08583099999","2010-10-26T18:00:00","4","16.8333333","-25.05","20.0","MINDELO, CV","FM-12","99999","V020","060,1,N,0093,1","10500,1,C,N","020000,1,N,1","+0270,1","+0185,1","10130,1",,,,"02,1,+00600,1,06,1",,,"05,99,1,02,1,05,1,00800,1,00,1,02,1","120,M,+0292,1","9,9,999,9,+004,1",,"SYN082AAXX  26184 08583 32570 50618 10270 20185 40130 82502 333 10292 58004 82620 85070;",
"08583099999","2010-10-27T00:00:00","4","16.8333333","-25.05","20.0","MINDELO, CV","FM-12","99999","V020","050,1,N,0077,1","01200,1,C,N","015000,1,N,1","+0248,1","+0187,1","10152,1",,,,"04,1,+00600,1,08,1",,,"07,99,1,06,1,08,1,00800,1,00,1,01,1",,"9,9,999,9,+003,1",,"SYN076AAXX  27004 08583 32565 70515 10248 20187 40152 86801 333 58003 84820 86626;",
"08583099999","2010-10-27T06:00:00","4","16.8333333","-25.05","20.0","MINDELO, CV","FM-12","99999","V020","080,1,N,0046,1","22000,1,C,N","012000,1,N,1","+0241,1","+0183,1","10133,1",,,,"03,1,+00600,1,06,1",,,"05,99,1,03,1,02,1,00800,1,00,1,01,1","999,N,+0235,1","9,9,999,9,-003,1",,"SYN082AAXX  27064 08583 32562 50809 10241 20183 40133 83201 333 20235 59003 83620 83070;",
"08583099999","2010-10-27T12:00:00","4","16.8333333","-25.05","20.0","MINDELO, CV","FM-12","99999","V020","060,1,N,0103,1","22000,1,9,N","015000,1,N,1","+0275,1","+0192,1","10148,1",,,,"04,1,+00720,1,08,1",,,"04,99,1,04,1,01,1,00800,1,00,1,00,1",,"9,9,999,9,-004,1",,"SYN070AAXX  27124 08583 32565 40620 10275 20192 40148 84100 333 59004 84824;",
"08583099999","2010-10-27T18:00:00","4","16.8333333","-25.05","20.0","MINDELO, CV","FM-12","99999","V020","060,1,N,0103,1","00720,1,9,N","012000,1,N,1","+0277,1","+0205,1","10117,1",,,,"05,1,+00720,1,08,1",,,"05,99,1,05,1,02,1,00800,1,00,1,00,1","120,M,+0291,1","9,9,999,9,-012,1",,"SYN076AAXX  27184 08583 32562 50620 10277 20205 40117 85200 333 10291 59012 85824;",
"08583099999","2010-10-28T00:00:00","4","16.8333333","-25.05","20.0","MINDELO, CV","FM-12","99999","V020","060,1,N,0067,1","22000,1,9,N","010000,1,N,1","+0248,1","+0205,1","10135,1",,,,"01,1,+00660,1,06,1",,,"01,99,1,01,1,05,1,00800,1,00,1,00,1",,"9,9,999,9,-017,1",,"SYN070AAXX  28004 08583 32560 10613 10248 20205 40135 81500 333 59017 81622;",
"08583099999","2010-10-28T06:00:00","4","16.8333333","-25.05","20.0","MINDELO, CV","FM-12","99999","V020","060,1,N,0057,1","22000,1,9,N","009000,1,N,1","+0241,1","+0205,1","10132,1",,"0,1,06,1","0,1,06,1","01,1,+00660,1,08,1",,,"01,99,1,01,1,01,1,00800,1,00,1,00,1","999,N,+0236,1","9,9,999,9,-001,1","06,1","SYN082AAXX  28064 08583 31559 10611 10241 20205 40132 70600 81100 333 20236 59001 81822;",
"08583099999","2010-10-28T12:00:00","4","16.8333333","-25.05","20.0","MINDELO, CV","FM-12","99999","V020","050,1,N,0077,1","22000,1,9,N","012000,1,N,1","+0281,1","+0205,1","10144,1",,,,"01,1,+00540,1,06,1",,,"01,99,1,01,1,05,1,00450,1,00,1,00,1",,"9,9,999,9,-004,1",,"SYN070AAXX  28124 08583 32462 10515 10281 20205 40144 81500 333 59004 81618;",
"08583099999","2010-10-28T18:00:00","4","16.8333333","-25.05","20.0","MINDELO, CV","FM-12","99999","V020","060,1,N,0072,1","22000,1,9,N","012000,1,N,1","+0278,1","+0210,1","10121,1",,,,"01,1,+00540,1,08,1",,,"01,99,1,01,1,01,1,00450,1,00,1,00,1","120,M,+0298,1","9,9,999,9,+003,1",,"SYN076AAXX  28184 08583 32462 10614 10278 20210 40121 81100 333 10298 58003 81818;",
"08583099999","2010-10-29T00:00:00","4","16.8333333","-25.05","20.0","MINDELO, CV","FM-12","99999","V020","060,1,N,0103,1","22000,1,9,N","010000,1,N,1","+0250,1","+0215,1","10143,1",,,,"02,1,+00540,1,06,1",,,"02,99,1,02,1,05,1,00450,1,00,1,00,1",,"9,9,999,9,+008,1",,"SYN070AAXX  29004 08583 32460 20620 10250 20215 40143 82500 333 58008 82618;",
"08583099999","2010-10-29T12:00:00","4","16.8333333","-25.05","20.0","MINDELO, CV","FM-12","99999","V020","070,1,N,0098,1","22000,1,9,N","012000,1,N,1","+0300,1","+0200,1","10140,1",,,,"01,1,+00480,1,08,1",,,"01,99,1,01,1,01,1,00450,1,00,1,00,1",,"9,9,999,9,-004,1",,"SYN070AAXX  29124 08583 32462 10719 10300 20200 40140 81100 333 59004 81816;",
"08583099999","2010-10-29T18:00:00","4","16.8333333","-25.05","20.0","MINDELO, CV","FM-12","99999","V020","050,1,N,0129,1","22000,1,9,N","009000,1,N,1","+0278,1","+0216,1","10122,1",,"0,1,06,1","0,1,06,1","01,1,+00480,1,08,1",,,"02,99,1,02,1,08,1,00450,1,00,1,00,1","120,M,+0310,1","9,9,999,9,+002,1","06,1","SYN082AAXX  29184 08583 31459 20525 10278 20216 40122 70600 82800 333 10310 58002 81816;",
"08583099999","2010-10-30T00:00:00","4","16.8333333","-25.05","20.0","MINDELO, CV","FM-12","99999","V020","060,1,N,0082,1","22000,1,9,N","009000,1,N,1","+0257,1","+0180,1","10143,1",,"0,1,06,1","0,1,06,1","02,1,+00540,1,06,1",,,"02,99,1,02,1,05,1,00450,1,00,1,00,1",,"9,9,999,9,+000,1","06,1","SYN076AAXX  30004 08583 31459 20616 10257 20180 40143 70600 82500 333 58000 82618;",
"08583099999","2010-10-30T06:00:00","4","16.8333333","-25.05","20.0","MINDELO, CV","FM-12","99999","V020","060,1,N,0093,1","22000,1,9,N","009000,1,N,1","+0252,1","+0226,1","10129,1",,"0,1,06,1","0,1,06,1","01,1,+00510,1,06,1",,,"01,99,1,01,1,05,1,00450,1,00,1,00,1","999,N,+0251,1","9,9,999,9,+007,1","06,1","SYN082AAXX  30064 08583 31459 10618 10252 20226 40129 70600 81500 333 20251 58007 81617;",
"08583099999","2010-10-30T12:00:00","4","16.8333333","-25.05","20.0","MINDELO, CV","FM-12","99999","V020","050,1,N,0098,1","10500,1,C,N","009000,1,N,1","+0286,1","+0230,1","10157,1",,"1,1,06,1","0,1,06,1","02,1,+00480,1,06,1",,,"06,99,1,02,1,05,1,00450,1,00,1,02,1",,"9,9,999,9,+017,1","06,1","SYN082AAXX  30124 08583 31459 60519 10286 20230 40157 70610 82502 333 58017 82616 86070;",
"08583099999","2010-10-30T18:00:00","4","16.8333333","-25.05","20.0","MINDELO, CV","FM-12","99999","V020","060,1,N,0103,1","10500,1,C,N","008000,1,N,1","+0283,1","+0231,1","10131,1",,"2,1,06,1","2,1,06,1","02,1,+00480,1,06,1","04,1,+00720,1,06,1",,"06,99,1,04,1,08,1,00450,1,00,1,02,1","120,M,+0300,1","9,9,999,9,+010,1","06,1","SYN094AAXX  30184 08583 31458 60620 10283 20231 40131 70622 84802 333 10300 58010 82616 84624 85070;",
"08583099999","2010-10-31T00:00:00","4","16.8333333","-25.05","20.0","MINDELO, CV","FM-12","99999","V020","060,1,N,0082,1","22000,1,C,N","006000,1,N,1","+0260,1","+0227,1","10156,1",,"2,1,06,1","1,1,06,1","02,1,+00660,1,06,1",,,"05,99,1,02,1,05,1,00800,1,00,1,01,1",,"9,9,999,9,+013,1","06,1","SYN082AAXX  31004 08583 31556 50616 10260 20227 40156 70621 82501 333 58013 82622 85070;",
"08583099999","2010-10-31T06:00:00","4","16.8333333","-25.05","20.0","MINDELO, CV","FM-12","99999","V020","050,1,N,0087,1","00780,1,9,N","006000,1,N,1","+0255,1","+0225,1","10139,1",,"2,1,06,1","1,1,06,1","02,1,+00600,1,08,1","04,1,+00780,1,06,1",,"07,99,1,05,1,08,1,00800,1,00,1,02,1","999,N,+0250,1","9,9,999,9,+009,1","06,1","SYN094AAXX  31064 08583 31556 70517 10255 20225 40139 70621 85802 333 20250 58009 82820 84626 85070;",
"08583099999","2010-10-31T12:00:00","4","16.8333333","-25.05","20.0","MINDELO, CV","FM-12","99999","V020","050,1,N,0113,1","00750,1,9,N","007000,1,N,1","+0281,1","+0227,1","10166,1",,"2,1,06,1","2,1,06,1","02,1,+00600,1,08,1","04,1,+00750,1,06,1",,"07,99,1,05,1,08,1,00800,1,03,1,02,1",,"9,9,999,9,+009,1","06,1","SYN088AAXX  31124 08583 31557 70522 10281 20227 40166 70622 85832 333 58009 82820 84625 86070;",
"08583099999","2010-10-31T18:00:00","4","16.8333333","-25.05","20.0","MINDELO, CV","FM-12","99999","V020","050,1,N,0103,1","03000,1,9,N","007000,1,N,1","+0273,1","+0223,1","10147,1",,"2,1,06,1","2,1,06,1","01,1,+00660,1,08,1","05,1,+03000,1,03,1",,"08,99,1,01,1,02,1,00800,1,03,1,06,1","120,M,+0297,1","9,9,999,9,+016,1","06,1","SYN094AAXX  31184 08583 31557 80520 10273 20223 40147 70622 81236 333 10297 58016 81822 85360 85070;",
"08583099999","2010-11-01T00:00:00","4","16.8333333","-25.05","20.0","MINDELO, CV","FM-12","99999","V020","060,1,N,0087,1","04500,1,C,N","007000,1,N,1","+0253,1","+0221,1","10171,1",,"2,1,06,1","2,1,06,1","01,1,+00600,1,06,1",,,"07,99,1,01,1,02,1,00800,1,03,1,02,1",,"9,9,999,9,+016,1","06,1","SYN082AAXX  01004 08583 31557 70617 10253 20221 40171 70622 81232 333 58016 81620 87070;",
"08583099999","2010-11-01T06:00:00","4","16.8333333","-25.05","20.0","MINDELO, CV","FM-12","99999","V020","070,1,N,0082,1","04500,1,C,N","007000,1,N,1","+0250,1","+0216,1","10154,1",,"2,1,06,1","2,1,06,1","02,1,+00600,1,06,1",,,"06,99,1,02,1,02,1,00800,1,03,1,02,1","999,N,+0248,1","9,9,999,9,+015,1","06,1","SYN088AAXX  01064 08583 31557 60716 10250 20216 40154 70622 82232 333 20248 58015 82620 86070;",
"08583099999","2010-11-01T12:00:00","4","16.8333333","-25.05","20.0","MINDELO, CV","FM-12","99999","V020","070,1,N,0103,1","04500,1,C,N","009000,1,N,1","+0286,1","+0208,1","10168,1",,"2,1,06,1","2,1,06,1","03,1,+00600,1,08,1",,,"07,99,1,03,1,01,1,00800,1,03,1,02,1",,"9,9,999,9,+002,1","06,1","SYN082AAXX  01124 08583 31559 70720 10286 20208 40168 70622 83132 333 58002 83820 87070;",
"08583099999","2010-11-01T18:00:00","4","16.8333333","-25.05","20.0","MINDELO, CV","FM-12","99999","V020","070,1,N,0123,1","03000,1,9,N","009000,1,N,1","+0266,1","+0205,1","10133,1",,"2,1,06,1","2,1,06,1","04,1,+00660,1,06,1","05,1,+03000,1,03,1",,"07,99,1,04,1,02,1,00800,1,03,1,09,1","120,M,+0290,1","9,9,999,9,-014,1","06,1","SYN094AAXX  01184 08583 31559 70724 10266 20205 40133 70622 84239 333 10290 59014 84622 85360 86070;",
"08583099999","2010-11-02T00:00:00","4","16.8333333","-25.05","20.0","MINDELO, CV","FM-12","99999","V020","070,1,N,0108,1","10500,1,C,N","012000,1,N,1","+0248,1","+0200,1","10145,1",,,,"01,1,+00660,1,06,1","03,1,+03000,1,03,1",,"05,99,1,01,1,05,1,00800,1,03,1,01,1",,"9,9,999,9,-026,1",,"SYN082AAXX  02004 08583 32562 50721 10248 20200 40145 81531 333 59026 81622 83360 85070;",
"08583099999","2010-11-02T06:00:00","4","16.8333333","-25.05","20.0","MINDELO, CV","FM-12","99999","V020","070,1,N,0067,1","22000,1,9,N","012000,1,N,1","+0237,1","+0190,1","10130,1",,,,"01,1,+00660,1,08,1",,,"02,99,1,01,1,01,1,00800,1,03,1,00,1","999,N,+0236,1","9,9,999,9,-025,1",,"SYN076AAXX  02064 08583 32562 20713 10237 20190 40130 81130 333 20236 59025 81822;",
"08583099999","2010-11-02T12:00:00","4","16.8333333","-25.05","20.0","MINDELO, CV","FM-12","99999","V020","040,1,N,0103,1","22000,1,9,N","020000,1,N,1","+0277,1","+0187,1","10138,1",,,,"01,1,+00600,1,08,1",,,"01,99,1,01,1,02,1,00800,1,00,1,00,1",,"9,9,999,9,-030,1",,"SYN070AAXX  02124 08583 32570 10420 10277 20187 40138 81200 333 59030 81820;",
"08583099999","2010-11-02T18:00:00","4","16.8333333","-25.05","20.0","MINDELO, CV","FM-12","99999","V020","060,1,N,0108,1","22000,1,9,N","020000,1,N,1","+0267,1","+0185,1","10108,1",,,,"01,1,+00690,1,08,1",,,"01,99,1,01,1,01,1,00800,1,00,1,00,1","120,M,+0292,1","9,9,999,9,-025,1",,"SYN076AAXX  02184 08583 32570 10621 10267 20185 40108 81100 333 10292 59025 81823;",
"08583099999","2010-11-03T00:00:00","4","16.8333333","-25.05","20.0","MINDELO, CV","FM-12","99999","V020","070,1,N,0057,1","22000,1,9,N","020000,1,N,1","+0241,1","+0181,1","10138,1",,,,"01,1,+00690,1,08,1",,,"01,99,1,01,1,02,1,00800,1,00,1,00,1",,"9,9,999,9,-008,1",,"SYN070AAXX  03004 08583 32570 10711 10241 20181 40138 81200 333 59008 81823;",
"08583099999","2010-11-03T06:00:00","4","16.8333333","-25.05","20.0","MINDELO, CV","FM-12","99999","V020","060,1,N,0036,1","10500,1,C,N","020000,1,N,1","+0222,1","+0183,1","10117,1",,,,"01,1,+00540,1,08,1",,,"05,99,1,01,1,01,1,00450,1,00,1,02,1","999,N,+0221,1","9,9,999,9,-012,1",,"SYN082AAXX  03064 08583 32470 50607 10222 20183 40117 81102 333 20221 59012 81818 85070;",
"08583099999","2010-11-03T12:00:00","4","16.8333333","-25.05","20.0","MINDELO, CV","FM-12","99999","V020","070,1,N,0087,1","22000,1,C,N","015000,1,N,1","+0272,1","+0180,1","10140,1",,,,"01,1,+00660,1,06,1",,,"06,99,1,01,1,05,1,00800,1,00,1,06,1",,"9,9,999,9,+001,1",,"SYN076AAXX  03124 08583 32565 60717 10272 20180 40140 81506 333 58001 81622 86070;",
"08583099999","2010-11-03T18:00:00","4","16.8333333","-25.05","20.0","MINDELO, CV","FM-12","99999","V020","050,1,N,0087,1","03000,1,9,N","015000,1,N,1","+0260,1","+0185,1","10118,1",,,,"01,1,+00600,1,06,1","04,1,+03000,1,03,1",,"07,99,1,01,1,05,1,00800,1,03,1,06,1","120,M,+0288,1","9,9,999,9,+009,1",,"SYN088AAXX  03184 08583 32565 70517 10260 20185 40118 81536 333 10288 58009 81620 84360 86070;",
"08583099999","2010-11-04T00:00:00","4","16.8333333","-25.05","20.0","MINDELO, CV","FM-12","99999","V020","070,1,N,0046,1","10500,1,C,N","015000,1,N,1","+0241,1","+0191,1","10152,1",,,,"02,1,+00600,1,06,1",,,"05,99,1,02,1,05,1,00800,1,00,1,02,1",,"9,9,999,9,+014,1",,"SYN076AAXX  04004 08583 32565 50709 10241 20191 40152 82502 333 58014 82620 85070;",
"08583099999","2010-11-04T06:00:00","4","16.8333333","-25.05","20.0","MINDELO, CV","FM-12","99999","V020","070,1,N,0041,1","22000,1,C,N","015000,1,N,1","+0238,1","+0193,1","10133,1",,,,"01,1,+00600,1,06,1",,,"06,99,1,01,1,05,1,00800,1,00,1,06,1","999,N,+0235,1","9,9,999,9,+016,1",,"SYN082AAXX  04064 08583 32565 60708 10238 20193 40133 81506 333 20235 58016 81620 86070;",
"08583099999","2010-11-04T12:00:00","4","16.8333333","-25.05","20.0","MINDELO, CV","FM-12","99999","V020","050,1,N,0082,1","03000,1,9,N","020000,1,N,1","+0277,1","+0192,1","10150,1",,,,"01,1,+00600,1,08,1","04,1,+03000,1,03,1",,"07,99,1,01,1,02,1,00800,1,03,1,02,1",,"9,9,999,9,+011,1",,"SYN082AAXX  04124 08583 32570 70516 10277 20192 40150 81232 333 58011 81820 84360 87070;",
"08583099999","2010-11-04T18:00:00","4","16.8333333","-25.05","20.0","MINDELO, CV","FM-12","99999","V020","060,1,N,0103,1","10500,1,C,N","020000,1,N,1","+0261,1","+0200,1","10130,1",,,,"02,1,+00600,1,08,1",,,"07,99,1,02,1,02,1,00800,1,00,1,02,1","120,M,+0290,1","9,9,999,9,+013,1",,"SYN082AAXX  04184 08583 32570 70620 10261 20200 40130 82202 333 10290 58013 82820 87070;",
"08583099999","2010-11-05T00:00:00","4","16.8333333","-25.05","20.0","MINDELO, CV","FM-12","99999","V020","060,1,N,0077,1","22000,1,9,N","020000,1,N,1","+0247,1","+0200,1","10159,1",,,,"01,1,+00600,1,06,1",,,"04,99,1,02,1,08,1,00800,1,00,1,01,1",,"9,9,999,9,+006,1",,"SYN076AAXX  05004 08583 32570 40615 10247 20200 40159 82801 333 58006 81620 84070;",
"08583099999","2010-11-05T06:00:00","4","16.8333333","-25.05","20.0","MINDELO, CV","FM-12","99999","V020","060,1,N,0072,1","10500,1,C,N","015000,1,N,1","+0245,1","+0207,1","10137,1",,,,"02,1,+00600,1,08,1",,,"05,99,1,02,1,02,1,00800,1,03,1,01,1","999,N,+0231,1","9,9,999,9,+004,1",,"SYN082AAXX  05064 08583 32565 50614 10245 20207 40137 82231 333 20231 58004 82820 84070;",
"08583099999","2010-11-05T12:00:00","4","16.8333333","-25.05","20.0","MINDELO, CV","FM-12","99999","V020","060,1,N,0077,1","04500,1,C,N","018000,1,N,1","+0287,1","+0206,1","10152,1",,,,"02,1,+00600,1,08,1",,,"06,99,1,02,1,02,1,00800,1,03,1,02,1",,"9,9,999,9,+001,1",,"SYN076AAXX  05124 08583 32568 60615 10287 20206 40152 82232 333 58001 82820 85070;",
"08583099999","2010-11-05T18:00:00","4","16.8333333","-25.05","20.0","MINDELO, CV","FM-12","99999","V020","060,1,N,0098,1","04500,1,C,N","020000,1,N,1","+0270,1","+0205,1","10130,1",,,,"01,1,+00660,1,08,1",,,"07,99,1,01,1,01,1,00800,1,03,1,06,1","120,M,+0295,1","9,9,999,9,-001,1",,"SYN082AAXX  05184 08583 32570 70619 10270 20205 40130 81136 333 10295 59001 81822 87270;",
"08583099999","2010-11-06T00:00:00","4","16.8333333","-25.05","20.0","MINDELO, CV","FM-12","99999","V020","070,1,N,0082,1","04500,1,C,N","018000,1,N,1","+0251,1","+0213,1","10153,1",,,,"01,1,+00600,1,08,1",,,"07,99,1,01,1,01,1,00800,1,03,1,06,1",,"9,9,999,9,-006,1",,"SYN076AAXX  06004 08583 32568 70716 10251 20213 40153 81136 333 59006 81820 87270;",
"08583099999","2010-11-06T12:00:00","4","16.8333333","-25.05","20.0","MINDELO, CV","FM-12","99999","V020","050,1,N,0103,1","22000,1,9,N","015000,1,N,1","+0282,1","+0211,1","10162,1",,,,"02,1,+00600,1,08,1",,,"02,99,1,02,1,01,1,00800,1,00,1,00,1",,"9,9,999,9,+010,1",,"SYN070AAXX  06124 08583 32565 20520 10282 20211 40162 82100 333 58010 82820;",
"08583099999","2010-11-06T18:00:00","4","16.8333333","-25.05","20.0","MINDELO, CV","FM-12","99999","V020","050,1,N,0082,1","10500,1,C,N","015000,1,N,1","+0270,1","+0210,1","10142,1",,,,"01,1,+00540,1,08,1",,,"07,99,1,01,1,02,1,00450,1,00,1,06,1","120,M,+0295,1","9,9,999,9,+013,1",,"SYN082AAXX  06184 08583 32465 70516 10270 20210 40142 81206 333 10295 58013 81818 87070;",
"08583099999","2010-11-07T00:00:00","4","16.8333333","-25.05","20.0","MINDELO, CV","FM-12","99999","V020","060,1,N,0067,1","22000,1,C,N","009000,1,N,1","+0250,1","+0215,1","10163,1",,"2,1,06,1","2,1,06,1","01,1,+00540,1,06,1",,,"06,99,1,01,1,05,1,00450,1,00,1,06,1",,"9,9,999,9,+010,1","06,1","SYN082AAXX  07004 08583 31459 60613 10250 20215 40163 70622 81506 333 58010 81618 86070;",
"08583099999","2010-11-07T06:00:00","4","16.8333333","-25.05","20.0","MINDELO, CV","FM-12","99999","V020","060,1,N,0046,1","22000,1,9,N","008000,1,N,1","+0242,1","+0210,1","10148,1",,"0,1,06,1","0,1,06,1","01,1,+00540,1,06,1",,,"01,99,1,01,1,05,1,00450,1,00,1,00,1","999,N,+0240,1","9,9,999,9,+016,1","06,1","SYN082AAXX  07064 08583 31458 10609 10242 20210 40148 70600 81500 333 20240 58016 81618;",
"08583099999","2010-11-07T12:00:00","4","16.8333333","-25.05","20.0","MINDELO, CV","FM-12","99999","V020","060,1,N,0113,1","22000,1,9,N","009000,1,N,1","+0286,1","+0200,1","10161,1",,"0,1,06,1","0,1,06,1","02,1,+00540,1,08,1",,,"02,99,1,02,1,02,1,00450,1,00,1,01,1",,"9,9,999,9,+000,1","06,1","SYN076AAXX  07124 08583 31459 20622 10286 20200 40161 70600 82201 333 58000 82818;",
"08583099999","2010-11-07T18:00:00","4","16.8333333","-25.05","20.0","MINDELO, CV","FM-12","99999","V020","060,1,N,0098,1","22000,1,9,N","010000,1,N,1","+0270,1","+0205,1","10124,1",,,,"01,1,+00540,1,08,1",,,"01,99,1,01,1,01,1,00450,1,00,1,00,1","120,M,+0295,1","9,9,999,9,-018,1",,"SYN076AAXX  07184 08583 32460 10619 10270 20205 40124 81100 333 10295 59018 81818;",
"08583099999","2010-11-08T00:00:00","4","16.8333333","-25.05","20.0","MINDELO, CV","FM-12","99999","V020","060,1,N,0072,1","22000,1,9,N","010000,1,N,1","+0243,1","+0200,1","10141,1",,,,"01,1,+00600,1,08,1",,,"01,99,1,01,1,02,1,00800,1,00,1,00,1",,"9,9,999,9,-022,1",,"SYN070AAXX  08004 08583 32560 10614 10243 20200 40141 81200 333 59022 81820;",
"08583099999","2010-11-08T06:00:00","4","16.8333333","-25.05","20.0","MINDELO, CV","FM-12","99999","V020","050,1,N,0062,1","22000,1,9,N","010000,1,N,1","+0235,1","+0197,1","10120,1",,,,"02,1,+00600,1,06,1",,,"03,99,1,02,1,02,1,00800,1,00,1,01,1","999,N,+0233,1","9,9,999,9,-027,1",,"SYN082AAXX  08064 08583 32560 30512 10235 20197 40120 82201 333 20233 59027 82620 83070;",
"08583099999","2010-11-08T12:00:00","4","16.8333333","-25.05","20.0","MINDELO, CV","FM-12","99999","V020","060,1,N,0057,1","22000,1,9,N","015000,1,N,1","+0280,1","+0188,1","10133,1",,,,"01,1,+00660,1,08,1",,,"01,99,1,01,1,01,1,00800,1,00,1,00,1",,"9,9,999,9,-028,1",,"SYN070AAXX  08124 08583 32565 10611 10280 20188 40133 81100 333 59028 81822;",
"08583099999","2010-11-08T18:00:00","4","16.8333333","-25.05","20.0","MINDELO, CV","FM-12","99999","V020","050,1,N,0036,1","00660,1,9,N","015000,1,N,1","+0261,1","+0188,1","10105,1",,,,"05,1,+00660,1,06,1",,,"05,99,1,05,1,02,1,00800,1,00,1,00,1","120,M,+0290,1","9,9,999,9,-019,1",,"SYN076AAXX  08184 08583 32565 50507 10261 20188 40105 85200 333 10290 59019 85622;",
"08583099999","2010-11-09T00:00:00","4","16.8333333","-25.05","20.0","MINDELO, CV","FM-12","99999","V020","060,1,N,0026,1","22000,1,9,N","010000,1,N,1","+0225,1","+0190,1","10118,1",,,,"04,1,+00600,1,06,1",,,"04,99,1,04,1,02,1,00800,1,00,1,00,1",,"9,9,999,9,-023,1",,"SYN070AAXX  09004 08583 32560 40605 10225 20190 40118 84200 333 59023 84620;",
"08583099999","2010-11-09T06:00:00","4","16.8333333","-25.05","20.0","MINDELO, CV","FM-12","99999","V020","070,1,N,0015,1","22000,1,9,N","012000,1,N,1","+0208,1","+0185,1","10101,1",,,,"01,1,+00540,1,06,1",,,"01,99,1,01,1,05,1,00800,1,00,1,00,1","999,N,+0203,1","9,9,999,9,-020,1",,"SYN082AAXX  09064 08583 12562 10703 10208 20185 40101 6///4 81500 333 20203 59020 81618;",
"08583099999","2010-11-09T12:00:00","4","16.8333333","-25.05","20.0","MINDELO, CV","FM-12","99999","V020","050,1,N,0041,1","22000,1,9,N","018000,1,N,1","+0273,1","+0181,1","10120,1",,,,"02,1,+00540,1,08,1",,,"02,99,1,02,1,02,1,00450,1,00,1,01,1",,"9,9,999,9,-013,1",,"SYN070AAXX  09124 08583 32468 20508 10273 20181 40120 82201 333 59013 82818;",
"08583099999","2010-11-09T18:00:00","4","16.8333333","-25.05","20.0","MINDELO, CV","FM-12","99999","V020","060,1,N,0046,1","00900,1,C,N","020000,1,N,1","+0265,1","+0176,1","10093,1",,,,"02,1,+00480,1,08,1",,,"05,99,1,05,1,08,1,00450,1,00,1,00,1","120,M,+0278,1","9,9,999,9,-012,1",,"SYN082AAXX  09184 08583 32470 50609 10265 20176 40093 85800 333 10278 59012 82816 84622;",
"08583099999","2010-11-10T00:00:00","4","16.8333333","-25.05","20.0","MINDELO, CV","FM-12","99999","V020","060,1,N,0031,1","22000,1,9,N","018000,1,N,1","+0226,1","+0178,1","10123,1",,,,"01,1,+00600,1,06,1",,,"01,99,1,01,1,05,1,00800,1,00,1,00,1",,"9,9,999,9,+006,1",,"SYN070AAXX  10004 08583 32568 10606 10226 20178 40123 81500 333 58006 81620;",
"08583099999","2010-11-10T06:00:00","4","16.8333333","-25.05","20.0","MINDELO, CV","FM-12","99999","V020","040,1,N,0026,1","22000,1,9,N","012000,1,N,1","+0205,1","+0181,1","10115,1",,,,"01,1,+00540,1,06,1",,,"01,99,1,01,1,05,1,00450,1,00,1,00,1","999,N,+0200,1","9,9,999,9,+015,1",,"SYN076AAXX  10064 08583 32462 10405 10205 20181 40115 81500 333 20200 58015 81618;",
"08583099999","2010-11-10T18:00:00","4","16.8333333","-25.05","20.0","MINDELO, CV","FM-12","99999","V020","080,1,N,0031,1","22000,1,C,N","020000,1,N,1","+0263,1","+0178,1","10122,1",,,,"03,1,+00690,1,08,1",,,"06,99,1,03,1,02,1,00800,1,00,1,06,1","120,M,+0285,1","9,9,999,9,+029,1",,"SYN082AAXX  10184 08583 32570 60806 10263 20178 40122 83206 333 10285 58029 83823 86270;",
"08583099999","2010-11-11T00:00:00","4","16.8333333","-25.05","20.0","MINDELO, CV","FM-12","99999","V020","070,1,N,0026,1","10500,1,C,N","015000,1,N,1","+0222,1","+0187,1","10162,1",,,,"01,1,+00480,1,08,1",,,"06,99,1,01,1,01,1,00450,1,00,1,02,1",,"9,9,999,9,+039,1",,"SYN076AAXX  11004 08583 32465 60705 10222 20187 40162 81102 333 58039 81816 86070;",
"08583099999","2010-11-11T06:00:00","4","16.8333333","-25.05","20.0","MINDELO, CV","FM-12","99999","V020","060,1,N,0031,1","10500,1,C,N","015000,1,N,1","+0221,1","+0202,1","10150,1",,,,"02,1,+00600,1,08,1",,,"05,99,1,02,1,01,1,00800,1,00,1,02,1","999,N,+0197,1","9,9,999,9,+035,1",,"SYN082AAXX  11064 08583 32565 50606 10221 20202 40150 82102 333 20197 58035 82820 85070;",
"08583099999","2010-11-11T12:00:00","4","16.8333333","-25.05","20.0","MINDELO, CV","FM-12","99999","V020","070,1,N,0051,1","22000,1,9,N","010000,1,N,1","+0292,1","+0207,1","10172,1",,,,"02,1,+00480,1,08,1",,,"04,99,1,04,1,08,1,00450,1,00,1,01,1",,"9,9,999,9,+034,1",,"SYN076AAXX  11124 08583 32460 40710 10292 20207 40172 84801 333 58034 82816 83820;",
"08583099999","2010-11-11T18:00:00","4","16.8333333","-25.05","20.0","MINDELO, CV","FM-12","99999","V020","060,1,N,0046,1","04500,1,C,N","015000,1,N,1","+0277,1","+0210,1","10160,1",,,,"02,1,+00750,1,08,1",,,"07,99,1,02,1,02,1,00800,1,03,1,04,1","120,M,+0297,1","9,9,999,9,+038,1",,"SYN082AAXX  11184 08583 32565 70609 10277 20210 40160 82234 333 10297 58038 82825 87070;",
"08583099999","2010-11-12T00:00:00","4","16.8333333","-25.05","20.0","MINDELO, CV","FM-12","99999","V020","070,1,N,0041,1","22000,1,C,N","012000,1,N,1","+0250,1","+0227,1","10187,1",,,,"02,1,+00750,1,08,1",,,"06,99,1,01,1,05,1,00450,1,00,1,06,1",,"9,9,999,9,+025,1",,"SYN076AAXX  12004 08583 32462 60708 10250 20227 40187 81506 333 58025 82825 86070;",
"08583099999","2010-11-12T06:00:00","4","16.8333333","-25.05","20.0","MINDELO, CV","FM-12","99999","V020","060,1,N,0051,1","03000,1,9,N","010000,1,N,1","+0250,1","+0227,1","10166,1",,,,"01,1,+00540,1,06,1","04,1,+03000,1,03,1",,"07,99,1,01,1,05,1,00450,1,03,1,06,1","999,N,+0217,1","9,9,999,9,+015,1",,"SYN088AAXX  12064 08583 32460 70610 10250 20227 40166 81536 333 20217 58015 81618 84360 85270;",
"08583099999","2010-11-12T12:00:00","4","16.8333333","-25.05","20.0","MINDELO, CV","FM-12","99999","V020","040,1,N,0082,1","04500,1,C,N","012000,1,N,1","+0280,1","+0216,1","10178,1",,,,"02,1,+00540,1,06,1",,,"07,99,1,02,1,02,1,00450,1,03,1,06,1",,"9,9,999,9,+006,1",,"SYN076AAXX  12124 08583 32462 70416 10280 20216 40178 82236 333 58006 82618 87270;",
"08583099999","2010-11-12T18:00:00","4","16.8333333","-25.05","20.0","MINDELO, CV","FM-12","99999","V020","060,1,N,0082,1","04500,1,C,N","012000,1,N,1","+0268,1","+0223,1","10150,1",,,,"01,1,+00450,1,08,1",,,"08,99,1,02,1,08,1,00450,1,03,1,07,1","120,M,+0285,1","9,9,999,9,-010,1",,"SYN082AAXX  12184 08583 32462 80616 10268 20223 40150 82837 333 10285 59010 81815 88270;",
"08583099999","2010-11-13T00:00:00","4","16.8333333","-25.05","20.0","MINDELO, CV","FM-12","99999","V020","050,1,N,0087,1","04500,1,C,N","012000,1,N,1","+0260,1","+0211,1","10164,1",,,,"01,1,+00540,1,08,1",,,"07,99,1,01,1,02,1,00450,1,03,1,07,1",,"9,9,999,9,-023,1",,"SYN076AAXX  13004 08583 32462 70517 10260 20211 40164 81237 333 59023 81818 87270;",
"08583099999","2010-11-13T12:00:00","4","16.8333333","-25.05","20.0","MINDELO, CV","FM-12","99999","V020","060,1,N,0093,1","03000,1,9,N","012000,1,N,1","+0275,1","+0222,1","10152,1",,"6,1,06,1","5,1,06,1","02,1,+00540,1,08,1","03,1,+03000,1,03,1",,"07,99,1,02,1,01,1,00450,1,03,1,06,1",,"9,9,999,9,-026,1","02,1","SYN094AAXX  13124 08583 11462 70618 10275 20222 40152 6///1 70265 82136 333 59026 82818 83360 87070;",
"08583099999","2010-11-13T18:00:00","4","16.8333333","-25.05","20.0","MINDELO, CV","FM-12","99999","V020","060,1,N,0123,1","22000,1,9,N","018000,1,N,1","+0275,1","+0205,1","10118,1",,,,"02,1,+00540,1,08,1",,,"02,99,1,02,1,02,1,00450,1,03,1,01,1","120,M,+0298,1","9,9,999,9,-032,1",,"SYN076AAXX  13184 08583 32468 20624 10275 20205 40118 82231 333 10298 59032 82818;",
"08583099999","2010-11-14T00:00:00","4","16.8333333","-25.05","20.0","MINDELO, CV","FM-12","99999","V020","060,1,N,0082,1","22000,1,9,N","012000,1,N,1","+0247,1","+0201,1","10135,1",,,,"02,1,+00510,1,08,1",,,"03,99,1,02,1,02,1,00450,1,03,1,01,1",,"9,9,999,9,-029,1",,"SYN070AAXX  14004 08583 32462 30616 10247 20201 40135 82231 333 59029 82817;",
"08583099999","2010-11-14T06:00:00","4","16.8333333","-25.05","20.0","MINDELO, CV","FM-12","99999","V020","060,1,N,0057,1","22000,1,9,N","012000,1,N,1","+0241,1","+0202,1","10122,1",,,,"01,1,+00510,1,06,1",,,"03,99,1,01,1,05,1,00450,1,00,1,00,1","999,N,+0241,1","9,9,999,9,-020,1",,"SYN076AAXX  14064 08583 32462 30611 10241 20202 40122 81500 333 20241 59020 81617;",
"08583099999","2010-11-14T12:00:00","4","16.8333333","-25.05","20.0","MINDELO, CV","FM-12","99999","V020","060,1,N,0118,1","22000,1,9,N","015000,1,N,1","+0280,1","+0198,1","10133,1",,,,"01,1,+00540,1,08,1",,,"02,99,1,02,1,08,1,00450,1,00,1,00,1",,"9,9,999,9,-019,1",,"SYN070AAXX  14124 08583 32465 20623 10280 20198 40133 82800 333 59019 81818;",
"08583099999","2010-11-14T18:00:00","4","16.8333333","-25.05","20.0","MINDELO, CV","FM-12","99999","V020","060,1,N,0077,1","22000,1,9,N","015000,1,N,1","+0270,1","+0192,1","10112,1",,,,"02,1,+00540,1,08,1",,,"02,99,1,02,1,08,1,00450,1,00,1,00,1","120,M,+0291,1","9,9,999,9,-005,1",,"SYN076AAXX  14184 08583 32465 20615 10270 20192 40112 82800 333 10291 59005 82818;",
"08583099999","2010-11-15T00:00:00","4","16.8333333","-25.05","20.0","MINDELO, CV","FM-12","99999","V020","070,1,N,0046,1","22000,1,9,N","015000,1,N,1","+0243,1","+0193,1","10148,1",,,,"02,1,+00600,1,06,1",,,"02,99,1,02,1,05,1,00800,1,00,1,00,1",,"9,9,999,9,+009,1",,"SYN070AAXX  15004 08583 32565 20709 10243 20193 40148 82500 333 58009 82620;",
"08583099999","2010-11-15T06:00:00","4","16.8333333","-25.05","20.0","MINDELO, CV","FM-12","99999","V020","060,1,N,0031,1","22000,1,9,N","015000,1,N,1","+0220,1","+0186,1","10136,1",,,,"01,1,+00600,1,06,1",,,"01,99,1,01,1,05,1,00800,1,00,1,00,1","999,N,+0220,1","9,9,999,9,+014,1",,"SYN076AAXX  15064 08583 32565 10606 10220 20186 40136 81500 333 20220 58014 81620;",
"08583099999","2010-11-15T12:00:00","4","16.8333333","-25.05","20.0","MINDELO, CV","FM-12","99999","V020","060,1,N,0093,1","22000,1,9,N","015000,1,N,1","+0278,1","+0177,1","10154,1",,,,"02,1,+00600,1,06,1",,,"02,99,1,02,1,05,1,00800,1,00,1,00,1",,"9,9,999,9,+021,1",,"SYN070AAXX  15124 08583 32565 20618 10278 20177 40154 82500 333 58021 82620;",
"08583099999","2010-11-15T18:00:00","4","16.8333333","-25.05","20.0","MINDELO, CV","FM-12","99999","V020","060,1,N,0087,1","22000,1,9,N","025000,1,N,1","+0267,1","+0167,1","10136,1",,,,"01,1,+00570,1,06,1",,,"02,99,1,01,1,05,1,00450,1,03,1,00,1","120,M,+0292,1","9,9,999,9,+024,1",,"SYN076AAXX  15184 08583 32475 20617 10267 20167 40136 81530 333 10292 58024 81619;",
"08583099999","2010-11-16T00:00:00","4","16.8333333","-25.05","20.0","MINDELO, CV","FM-12","99999","V020","060,1,N,0036,1","22000,1,9,N","025000,1,N,1","+0231,1","+0175,1","10170,1",,,,"02,1,+00600,1,06,1",,,"03,99,1,02,1,02,1,00800,1,00,1,01,1",,"9,9,999,9,+022,1",,"SYN070AAXX  16004 08583 32575 30607 10231 20175 40170 82201 333 58022 82620;",
"08583099999","2010-11-16T06:00:00","4","16.8333333","-25.05","20.0","MINDELO, CV","FM-12","99999","V020","070,1,N,0036,1","22000,1,9,N","020000,1,N,1","+0225,1","+0170,1","10161,1",,,,"02,1,+00600,1,06,1",,,"03,99,1,02,1,02,1,00800,1,00,1,01,1","999,N,+0216,1","9,9,999,9,+025,1",,"SYN076AAXX  16064 08583 32570 30707 10225 20170 40161 82201 333 20216 58025 82620;",
"08583099999","2010-11-16T12:00:00","4","16.8333333","-25.05","20.0","MINDELO, CV","FM-12","99999","V020","080,1,N,0087,1","22000,1,9,N","025000,1,N,1","+0275,1","+0171,1","10173,1",,,,"02,1,+00720,1,08,1",,,"02,99,1,02,1,01,1,00800,1,00,1,00,1",,"9,9,999,9,+019,1",,"SYN070AAXX  16124 08583 32575 20817 10275 20171 40173 82100 333 58019 82824;",
"08583099999","2010-11-16T18:00:00","4","16.8333333","-25.05","20.0","MINDELO, CV","FM-12","99999","V020","060,1,N,0087,1","22000,1,9,N","025000,1,N,1","+0265,1","+0167,1","10150,1",,,,"01,1,+00750,1,08,1",,,"02,99,1,01,1,01,1,00800,1,03,1,00,1","120,M,+0287,1","9,9,999,9,+014,1",,"SYN076AAXX  16184 08583 32575 20617 10265 20167 40150 81130 333 10287 58014 81825;",
"08583099999","2010-11-17T00:00:00","4","16.8333333","-25.05","20.0","MINDELO, CV","FM-12","99999","V020","060,1,N,0051,1","22000,1,9,N","025000,1,N,1","+0241,1","+0177,1","10168,1",,,,"02,1,+00600,1,08,1",,,"02,99,1,02,1,01,1,00800,1,00,1,00,1",,"9,9,999,9,-002,1",,"SYN070AAXX  17004 08583 32575 20610 10241 20177 40168 82100 333 59002 82820;",
"08583099999","2010-11-17T06:00:00","4","16.8333333","-25.05","20.0","MINDELO, CV","FM-12","99999","V020","070,1,N,0036,1","22000,1,9,N","020000,1,N,1","+0228,1","+0172,1","10147,1",,,,"01,1,+00600,1,06,1",,,"01,99,1,01,1,05,1,00800,1,00,1,00,1","999,N,+0216,1","9,9,999,9,-014,1",,"SYN076AAXX  17064 08583 32570 10707 10228 20172 40147 81500 333 20216 59014 81620;",
"08583099999","2010-11-17T18:00:00","4","16.8333333","-25.05","20.0","MINDELO, CV","FM-12","99999","V020","050,1,N,0067,1","22000,1,9,N","025000,1,N,1","+0270,1","+0175,1","10135,1",,,,"01,1,+00600,1,08,1",,,"01,99,1,01,1,01,1,00800,1,00,1,00,1","120,M,+0290,1","9,9,999,9,-015,1",,"SYN076AAXX  17184 08583 32575 10513 10270 20175 40135 81100 333 10290 59015 81820;",
"08583099999","2010-11-18T00:00:00","4","16.8333333","-25.05","20.0","MINDELO, CV","FM-12","99999","V020","070,1,N,0051,1","22000,1,9,N","020000,1,N,1","+0240,1","+0195,1","10145,1",,,,"01,1,+00600,1,08,1",,,"01,99,1,01,1,02,1,00800,1,00,1,00,1",,"9,9,999,9,-023,1",,"SYN070AAXX  18004 08583 32570 10710 10240 20195 40145 81200 333 59023 81820;",
"08583099999","2010-11-18T06:00:00","4","16.8333333","-25.05","20.0","MINDELO, CV","FM-12","99999","V020","070,1,N,0046,1","22000,1,9,N","020000,1,N,1","+0233,1","+0191,1","10121,1",,,,"02,1,+00600,1,08,1",,,"02,99,1,02,1,02,1,00800,1,00,1,00,1","999,N,+0225,1","9,9,999,9,-013,1",,"SYN076AAXX  18064 08583 32570 20709 10233 20191 40121 82200 333 20225 59013 82820;",
"08583099999","2010-11-18T12:00:00","4","16.8333333","-25.05","20.0","MINDELO, CV","FM-12","99999","V020","060,1,N,0072,1","22000,1,9,N","018000,1,N,1","+0280,1","+0188,1","10136,1",,,,"01,1,+00600,1,08,1",,,"02,99,1,01,1,01,1,00800,1,00,1,01,1",,"9,9,999,9,+001,1",,"SYN070AAXX  18124 08583 32568 20614 10280 20188 40136 81101 333 58001 81820;",
"08583099999","2010-11-18T18:00:00","4","16.8333333","-25.05","20.0","MINDELO, CV","FM-12","99999","V020","070,1,N,0093,1","22000,1,9,N","018000,1,N,1","+0270,1","+0196,1","10111,1",,,,"01,1,+00600,1,08,1",,,"02,99,1,01,1,02,1,00800,1,00,1,01,1","120,M,+0290,1","9,9,999,9,-024,1",,"SYN076AAXX  18184 08583 32568 20718 10270 20196 40111 81201 333 10290 59024 81820;",
"08583099999","2010-11-19T00:00:00","4","16.8333333","-25.05","20.0","MINDELO, CV","FM-12","99999","V020","040,1,N,0067,1","22000,1,9,N","015000,1,N,1","+0242,1","+0205,1","10135,1",,,,"02,1,+00600,1,08,1",,,"04,99,1,02,1,02,1,00800,1,00,1,01,1",,"9,9,999,9,-010,1",,"SYN076AAXX  19004 08583 32565 40413 10242 20205 40135 82201 333 59010 82820 83070;",
"08583099999","2010-11-19T06:00:00","4","16.8333333","-25.05","20.0","MINDELO, CV","FM-12","99999","V020","080,1,N,0036,1","22000,1,9,N","015000,1,N,1","+0230,1","+0206,1","10117,1",,,,"01,1,+00540,1,06,1",,,"01,99,1,01,1,05,1,00450,1,00,1,01,1","999,N,+0228,1","9,9,999,9,-004,1",,"SYN076AAXX  19064 08583 32465 10807 10230 20206 40117 81501 333 20228 59004 81618;",
"08583099999","2010-11-19T12:00:00","4","16.8333333","-25.05","20.0","MINDELO, CV","FM-12","99999","V020","060,1,N,0082,1","10500,1,C,N","018000,1,N,1","+0281,1","+0202,1","10136,1",,,,"02,1,+00600,1,06,1",,,"05,99,1,01,1,05,1,00800,1,00,1,02,1",,"9,9,999,9,+000,1",,"SYN076AAXX  19124 08583 32568 50616 10281 20202 40136 81502 333 58000 82620 85070;",
"08583099999","2010-11-19T18:00:00","4","16.8333333","-25.05","20.0","MINDELO, CV","FM-12","99999","V020","050,1,N,0103,1","10500,1,C,N","018000,1,N,1","+0270,1","+0206,1","10122,1",,,,"02,1,+00600,1,06,1",,,"06,99,1,02,1,05,1,00800,1,00,1,02,1","120,M,+0292,1","9,9,999,9,+011,1",,"SYN082AAXX  19184 08583 32568 60520 10270 20206 40122 82502 333 10292 58011 82620 86070;",
"08583099999","2010-11-20T00:00:00","4","16.8333333","-25.05","20.0","MINDELO, CV","FM-12","99999","V020","050,1,N,0067,1","22000,1,9,N","015000,1,N,1","+0245,1","+0213,1","10156,1",,,,"01,1,+00660,1,06,1",,,"02,99,1,01,1,05,1,00800,1,00,1,01,1",,"9,9,999,9,+021,1",,"SYN070AAXX  20004 08583 32565 20513 10245 20213 40156 81501 333 58021 81622;",
"08583099999","2010-11-20T06:00:00","4","16.8333333","-25.05","20.0","MINDELO, CV","FM-12","99999","V020","070,1,N,0026,1","10500,1,C,N","012000,1,N,1","+0231,1","+0211,1","10142,1",,,,"01,1,+00600,1,06,1",,,"05,99,1,01,1,02,1,00800,1,00,1,02,1","999,N,+0227,1","9,9,999,9,+025,1",,"SYN082AAXX  20064 08583 32562 50705 10231 20211 40142 81202 333 20227 58025 81620 85070;",
"08583099999","2010-11-20T12:00:00","4","16.8333333","-25.05","20.0","MINDELO, CV","FM-12","99999","V020","060,1,N,0051,1","22000,1,9,N","018000,1,N,1","+0291,1","+0195,1","10164,1",,,,"01,1,+00600,1,06,1",,,"04,99,1,01,1,05,1,00800,1,00,1,02,1",,"9,9,999,9,+028,1",,"SYN076AAXX  20124 08583 32568 40610 10291 20195 40164 81502 333 58028 81620 84070;",
"08583099999","2010-11-20T18:00:00","4","16.8333333","-25.05","20.0","MINDELO, CV","FM-12","99999","V020","050,1,N,0046,1","06000,1,9,N","025000,1,N,1","+0283,1","+0180,1","10146,1",,,,"06,1,+06000,1,02,1",,,"06,99,1,00,1,00,1,99999,9,00,1,06,1","120,M,+0317,1","9,9,999,9,+022,1",,"SYN076AAXX  20184 08583 32975 60509 10283 20180 40146 80006 333 10317 58022 86270;",
"08583099999","2010-11-21T00:00:00","4","16.8333333","-25.05","20.0","MINDELO, CV","FM-12","99999","V020","999,9,V,0021,1","10500,1,C,N","025000,1,N,1","+0236,1","+0207,1","10162,1",,,,"02,1,+00540,1,08,1",,,"06,99,1,02,1,02,1,00450,1,00,1,02,1",,"9,9,999,9,+007,1",,"SYN076AAXX  21004 08583 32475 69904 10236 20207 40162 82202 333 58007 82818 86070;",
"08583099999","2010-11-21T06:00:00","4","16.8333333","-25.05","20.0","MINDELO, CV","FM-12","99999","V020","060,1,N,0041,1","10500,1,C,N","020000,1,N,1","+0215,1","+0195,1","10138,1",,,,"02,1,+00540,1,08,1",,,"06,99,1,02,1,02,1,00450,1,00,1,02,1","999,N,+0215,1","9,9,999,9,-004,1",,"SYN082AAXX  21064 08583 32470 60608 10215 20195 40138 82202 333 20215 59004 82818 86070;",
"08583099999","2010-11-21T12:00:00","4","16.8333333","-25.05","20.0","MINDELO, CV","FM-12","99999","V020","060,1,N,0057,1","22000,1,9,N","025000,1,N,1","+0283,1","+0185,1","10154,1",,,,"01,1,+00720,1,08,1",,,"04,99,1,01,1,01,1,00800,1,00,1,01,1",,"9,9,999,9,-010,1",,"SYN076AAXX  21124 08583 32575 40611 10283 20185 40154 81101 333 59010 81824 84070;",
"08583099999","2010-11-21T18:00:00","4","16.8333333","-25.05","20.0","MINDELO, CV","FM-12","99999","V020","050,1,N,0057,1","22000,1,C,N","030000,1,N,1","+0265,1","+0158,1","10123,1",,,,"01,1,+00540,1,06,1",,,"06,99,1,01,1,05,1,00450,1,00,1,04,1","120,M,+0292,1","9,9,999,9,-023,1",,"SYN082AAXX  21184 08583 32480 60511 10265 20158 40123 81504 333 10292 59023 81618 86070;",
"08583099999","2010-11-22T00:00:00","4","16.8333333","-25.05","20.0","MINDELO, CV","FM-12","99999","V020","060,1,N,0062,1","22000,1,9,N","025000,1,N,1","+0235,1","+0186,1","10134,1",,,,"01,1,+00540,1,06,1",,,"03,99,1,01,1,05,1,00450,1,00,1,01,1",,"9,9,999,9,-028,1",,"SYN076AAXX  22004 08583 32475 30612 10235 20186 40134 81501 333 59028 81618 83070;",
"08583099999","2010-11-22T06:00:00","4","16.8333333","-25.05","20.0","MINDELO, CV","FM-12","99999","V020","040,1,N,0010,1","22000,1,9,N","025000,1,N,1","+0216,1","+0180,1","10118,1",,,,"02,1,+06000,1,00,1",,,"02,99,1,00,1,00,1,99999,9,00,1,01,1","999,N,+0213,1","9,9,999,9,-020,1",,"SYN076AAXX  22064 08583 32975 20402 10216 20180 40118 80001 333 20213 59020 82070;",
"08583099999","2010-11-22T12:00:00","4","16.8333333","-25.05","20.0","MINDELO, CV","FM-12","99999","V020","999,9,V,0036,1","22000,1,9,N","035000,1,N,1","+0278,1","+0172,1","10126,1",,,,"01,1,+00450,1,06,1",,,"01,99,1,01,1,05,1,00450,1,00,1,00,1",,"9,9,999,9,-025,1",,"SYN070AAXX  22124 08583 32481 19907 10278 20172 40126 81500 333 59025 81615;",
"08583099999","2010-11-22T18:00:00","4","16.8333333","-25.05","20.0","MINDELO, CV","FM-12","99999","V020","060,1,N,0067,1","22000,1,9,N","025000,1,N,1","+0266,1","+0166,1","10092,1",,,,"01,1,+00660,1,06,1",,,"01,99,1,01,1,05,1,00800,1,00,1,00,1","120,M,+0281,1","9,9,999,9,-031,1",,"SYN076AAXX  22184 08583 32575 10613 10266 20166 40092 81500 333 10281 59031 81622;",
"08583099999","2010-11-23T00:00:00","4","16.8333333","-25.05","20.0","MINDELO, CV","FM-12","99999","V020","060,1,N,0041,1","22000,1,9,N","025000,1,N,1","+0230,1","+0173,1","10124,1",,,,"01,1,+00600,1,06,1",,,"01,99,1,01,1,02,1,00800,1,00,1,00,1",,"9,9,999,9,-010,1",,"SYN070AAXX  23004 08583 32575 10608 10230 20173 40124 81200 333 59010 81620;",
"08583099999","2010-11-23T12:00:00","4","16.8333333","-25.05","20.0","MINDELO, CV","FM-12","99999","V020","060,1,N,0051,1","22000,1,9,N","025000,1,N,1","+0272,1","+0180,1","10115,1",,,,"00,1,+99999,9,99,9",,,"00,99,1,00,1,00,1,99999,9,00,1,00,1",,"9,9,999,9,-011,1",,"SYN058AAXX  23124 08583 32975 00610 10272 20180 40115 333 59011;",
"08583099999","2010-11-23T18:00:00","4","16.8333333","-25.05","20.0","MINDELO, CV","FM-12","99999","V020","060,1,N,0041,1","22000,1,9,N","025000,1,N,1","+0270,1","+0176,1","10089,1",,,,"00,1,+99999,9,99,9",,,"00,99,1,00,1,00,1,99999,9,00,1,00,1","120,M,+0290,1","9,9,999,9,-003,1",,"SYN064AAXX  23184 08583 32975 00608 10270 20176 40089 333 10290 59003;",
"08583099999","2010-11-24T00:00:00","4","16.8333333","-25.05","20.0","MINDELO, CV","FM-12","99999","V020","080,1,N,0041,1","22000,1,9,N","025000,1,N,1","+9999,9","+9999,9","10123,1",,,,"01,1,+00660,1,06,1",,,"02,99,1,01,1,05,1,00800,1,00,1,01,1",,"9,9,999,9,-001,1",,"SYN070AAXX  24004 08583 32575 20808 12235 20186 40123 81501 333 59001 81622;",
"08583099999","2010-11-24T12:00:00","4","16.8333333","-25.05","20.0","MINDELO, CV","FM-12","99999","V020","060,1,N,0046,1","10500,1,C,N","020000,1,N,1","+0265,1","+0195,1","10133,1",,,,"01,1,+00510,1,06,1",,,"07,99,1,01,1,05,1,00450,1,00,1,02,1",,"9,9,999,9,-002,1",,"SYN076AAXX  24124 08583 32470 70609 10265 20195 40133 81502 333 59002 81617 87070;",
"08583099999","2010-11-24T18:00:00","4","16.8333333","-25.05","20.0","MINDELO, CV","FM-12","99999","V020","250,1,N,0026,1","10500,1,C,N","025000,1,N,1","+0266,1","+0203,1","10114,1",,,,"01,1,+00510,1,06,1",,,"06,99,1,01,1,05,1,00450,1,00,1,02,1","120,M,+0278,1","9,9,999,9,+025,1",,"SYN082AAXX  24184 08583 32475 62505 10266 20203 40114 81502 333 10278 58025 81617 86070;",
"08583099999","2010-11-25T00:00:00","4","16.8333333","-25.05","20.0","MINDELO, CV","FM-12","99999","V020","090,1,N,0031,1","04500,1,C,N","020000,1,N,1","+0238,1","+0211,1","10145,1",,,,"01,1,+00480,1,08,1",,,"07,99,1,01,1,01,1,00450,1,03,1,06,1",,"9,9,999,9,+022,1",,"SYN076AAXX  25004 08583 32470 70906 10238 20211 40145 81136 333 58022 81816 87270;",
"08583099999","2010-11-25T06:00:00","4","16.8333333","-25.05","20.0","MINDELO, CV","FM-12","99999","V020","100,1,N,0031,1","04500,1,C,N","020000,1,N,1","+0228,1","+0210,1","10128,1",,,,"01,1,+00480,1,08,1",,,"06,99,1,01,1,01,1,00450,1,03,1,02,1","999,N,+0208,1","9,9,999,9,+014,1",,"SYN082AAXX  25064 08583 32470 61006 10228 20210 40128 81132 333 20208 58014 81816 86070;",
"08583099999","2010-11-25T12:00:00","4","16.8333333","-25.05","20.0","MINDELO, CV","FM-12","99999","V020","070,1,N,0057,1","04500,1,C,N","020000,1,N,1","+0272,1","+0207,1","10145,1",,,,"01,1,+00450,1,08,1",,,"06,99,1,01,1,01,1,00450,1,03,1,02,1",,"9,9,999,9,+014,1",,"SYN076AAXX  25124 08583 32470 60711 10272 20207 40145 81132 333 58014 81815 86070;",
"08583099999","2010-11-25T18:00:00","4","16.8333333","-25.05","20.0","MINDELO, CV","FM-12","99999","V020","070,1,N,0051,1","03000,1,9,N","025000,1,N,1","+0272,1","+0195,1","10124,1",,,,"05,1,+03000,1,03,1",,,"05,99,1,05,1,00,1,99999,9,03,1,01,1","120,M,+0295,1","9,9,999,9,+010,1",,"SYN076AAXX  25184 08583 32975 50710 10272 20195 40124 85031 333 10295 58010 85360;",
"08583099999","2010-11-26T00:00:00","4","16.8333333","-25.05","20.0","MINDELO, CV","FM-12","99999","V020","070,1,N,0082,1","04500,1,C,N","025000,1,N,1","+0240,1","+0205,1","10143,1",,,,"01,1,+00540,1,08,1",,,"07,99,1,01,1,01,1,00450,1,03,1,06,1",,"9,9,999,9,-002,1",,"SYN076AAXX  26004 08583 32475 70716 10240 20205 40143 81136 333 59002 81818 87070;",
"08583099999","2010-11-26T06:00:00","4","16.8333333","-25.05","20.0","MINDELO, CV","FM-12","99999","V020","070,1,N,0072,1","10500,1,C,N","025000,1,N,1","+0232,1","+0197,1","10124,1",,,,"01,1,+00540,1,08,1",,,"06,99,1,01,1,01,1,00450,1,00,1,02,1","999,N,+0217,1","9,9,999,9,-002,1",,"SYN082AAXX  26064 08583 32475 60714 10232 20197 40124 81102 333 20217 59002 81818 86070;",
"08583099999","2010-11-26T12:00:00","4","16.8333333","-25.05","20.0","MINDELO, CV","FM-12","99999","V020","060,1,N,0067,1","22000,1,9,N","025000,1,N,1","+0278,1","+0202,1","10138,1",,,,"01,1,+00660,1,06,1",,,"04,99,1,01,1,05,1,00800,1,00,1,01,1",,"9,9,999,9,-007,1",,"SYN076AAXX  26124 08583 32575 40613 10278 20202 40138 81501 333 59007 81622 84070;",
"08583099999","2010-11-26T18:00:00","4","16.8333333","-25.05","20.0","MINDELO, CV","FM-12","99999","V020","050,1,N,0062,1","22000,1,9,N","030000,1,N,1","+0267,1","+0201,1","10110,1",,,,"02,1,+00540,1,06,1",,,"04,99,1,02,1,02,1,00450,1,00,1,01,1","120,M,+0295,1","9,9,999,9,-013,1",,"SYN082AAXX  26184 08583 32480 40512 10267 20201 40110 82201 333 10295 59013 82618 84070;",
"08583099999","2010-11-27T00:00:00","4","16.8333333","-25.05","20.0","MINDELO, CV","FM-12","99999","V020","070,1,N,0036,1","22000,1,C,N","025000,1,N,1","+0240,1","+0200,1","10133,1",,,,"01,1,+00540,1,08,1",,,"05,99,1,01,1,01,1,00450,1,00,1,04,1",,"9,9,999,9,-010,1",,"SYN076AAXX  27004 08583 32475 50707 10240 20200 40133 81104 333 59010 81818 85070;",
"08583099999","2010-11-27T06:00:00","4","16.8333333","-25.05","20.0","MINDELO, CV","FM-12","99999","V020","080,1,N,0026,1","04500,1,C,N","020000,1,N,1","+0226,1","+0202,1","10125,1",,,,"01,1,+00600,1,06,1",,,"06,99,1,01,1,05,1,00800,1,03,1,01,1","999,N,+0215,1","9,9,999,9,-001,1",,"SYN082AAXX  27064 08583 32570 60805 10226 20202 40125 81531 333 20215 59001 81620 85360;",
"08583099999","2010-11-27T18:00:00","4","16.8333333","-25.05","20.0","MINDELO, CV","FM-12","99999","V020","220,1,N,0026,1","99999,9,9,N","025000,1,N,1","+0256,1","+0215,1","10110,1",,,,"04,1,+03000,1,03,1",,,"08,99,1,04,1,00,1,99999,9,03,1,07,1","120,M,+0276,1","9,9,999,9,+000,1",,"SYN082AAXX  27184 08583 32975 82205 10256 20215 40110 84037 333 10276 58000 84360 88070;",
"08583099999","2010-11-28T00:00:00","4","16.8333333","-25.05","20.0","MINDELO, CV","FM-12","99999","V020","999,9,V,0005,1","03000,1,9,N","025000,1,N,1","+0245,1","+0216,1","10126,1",,,,"02,1,+00600,1,06,1","03,1,+03000,1,03,1",,"06,99,1,02,1,02,1,00800,1,03,1,02,1",,"9,9,999,9,-006,1",,"SYN082AAXX  28004 08583 32575 69901 10245 20216 40126 82232 333 59006 82620 83360 86070;",
"08583099999","2010-11-28T06:00:00","4","16.8333333","-25.05","20.0","MINDELO, CV","FM-12","99999","V020","999,9,V,0010,1","03000,1,9,N","020000,1,N,1","+0233,1","+0210,1","10105,1",,,,"02,1,+00600,1,06,1","03,1,+03000,1,03,1",,"07,99,1,02,1,02,1,00800,1,03,1,06,1","999,N,+0232,1","9,9,999,9,-020,1",,"SYN088AAXX  28064 08583 32570 79902 10233 20210 40105 82236 333 20232 59020 82620 83360 87270;",
"08583099999","2010-11-28T12:00:00","4","16.8333333","-25.05","20.0","MINDELO, CV","FM-12","99999","V020","200,1,N,0031,1","22000,1,9,N","020000,1,N,1","+0268,1","+0225,1","10129,1",,,,"02,1,+00600,1,08,1","03,1,+03000,1,03,1",,"99,99,9,02,1,01,1,00800,1,08,1,06,1",,"9,9,999,9,-006,1",,"SYN082AAXX  28124 08583 32570 22006 10268 20225 40129 82186 333 59006 82820 83360 86070;","Q01+000022SCOTCV"
"08583099999","2010-11-28T18:00:00","4","16.8333333","-25.05","20.0","MINDELO, CV","FM-12","99999","V020","220,1,N,0026,1","03000,1,9,N","020000,1,N,1","+0260,1","+0215,1","10106,1",,,,"02,1,+00600,1,06,1","03,1,+03000,1,03,1",,"07,99,1,02,1,02,1,00800,1,03,1,06,1","120,M,+0280,1","9,9,999,9,-004,1",,"SYN088AAXX  28184 08583 32570 72205 10260 20215 40106 82236 333 10280 59004 82620 83360 87070;",
"08583099999","2010-11-29T06:00:00","4","16.8333333","-25.05","20.0","MINDELO, CV","FM-12","99999","V020","210,1,N,0036,1","10500,1,C,N","020000,1,N,1","+0250,1","+0227,1","10096,1",,,,"03,1,+00540,1,06,1",,,"07,99,1,03,1,05,1,00450,1,00,1,07,1","999,N,+0247,1","9,9,999,9,-009,1",,"SYN082AAXX  29064 08583 32470 72107 10250 20227 40096 83507 333 20247 59009 83618 87270;",
"08583099999","2010-11-29T12:00:00","4","16.8333333","-25.05","20.0","MINDELO, CV","FM-12","99999","V020","210,1,N,0046,1","00450,1,9,N","018000,1,N,1","+0270,1","+0235,1","10117,1",,,,"05,1,+00450,1,06,1",,,"07,99,1,05,1,05,1,00450,1,00,1,06,1",,"9,9,999,9,-012,1",,"SYN076AAXX  29124 08583 32468 72109 10270 20235 40117 85506 333 59012 85615 86070;",
"08583099999","2010-11-29T18:00:00","4","16.8333333","-25.05","20.0","MINDELO, CV","FM-12","99999","V020","230,1,N,0046,1","00480,1,9,N","015000,1,N,1","+0266,1","+0237,1","10098,1",,,,"05,1,+00480,1,06,1",,,"07,99,1,05,1,05,1,00450,1,00,1,06,1","120,M,+0276,1",,,"SYN076AAXX  29184 08583 32465 72309 10266 20237 40098 85506 333 10276 85616 86070;",
"08583099999","2010-11-30T00:00:00","4","16.8333333","-25.05","20.0","MINDELO, CV","FM-12","99999","V020","270,1,N,0057,1","22000,1,C,N","010000,1,N,1","+0260,1","+0223,1","10127,1",,,,"02,1,+00480,1,08,1",,,"05,99,1,02,1,02,1,00450,1,00,1,01,1",,"9,9,999,9,+006,1",,"SYN076AAXX  30004 08583 32460 52711 10260 20223 40127 82201 333 58006 82816 85070;",
"08583099999","2010-11-30T06:00:00","4","16.8333333","-25.05","20.0","MINDELO, CV","FM-12","99999","V020","240,1,N,0046,1","22000,1,9,N","015000,1,N,1","+0252,1","+0235,1","10118,1",,,,"01,1,+00540,1,08,1",,,"02,99,1,01,1,02,1,00450,1,00,1,01,1","999,N,+0252,1","9,9,999,9,+022,1",,"SYN076AAXX  30064 08583 32465 22409 10252 20235 40118 81201 333 20252 58022 81818;",
"08583099999","2010-11-30T12:00:00","4","16.8333333","-25.05","20.0","MINDELO, CV","FM-12","99999","V020","230,1,N,0031,1","04500,1,C,N","015000,1,N,1","+0283,1","+0225,1","10139,1",,,,"02,1,+00600,1,08,1",,,"06,99,1,02,1,02,1,00450,1,03,1,02,1",,"9,9,999,9,+022,1",,"SYN076AAXX  30124 08583 32465 62306 10283 20225 40139 82232 333 58022 82820 85070;",
"08583099999","2010-11-30T18:00:00","4","16.8333333","-25.05","20.0","MINDELO, CV","FM-12","99999","V020","220,1,N,0026,1","04500,1,C,N","020000,1,N,1","+0268,1","+0230,1","10116,1",,,,"02,1,+00600,1,08,1",,,"07,99,1,02,1,02,1,00800,1,01,1,07,1","120,M,+0295,1","9,9,999,9,+018,1",,"SYN082AAXX  30184 08583 32570 72205 10268 20230 40116 82217 333 10295 58018 82820 87270;",
"08583099999","2010-12-01T00:00:00","4","16.8333333","-25.05","20.0","MINDELO, CV","FM-12","99999","V020","050,1,N,0026,1","04500,1,C,N","015000,1,N,1","+0251,1","+0218,1","10143,1",,,,"02,1,+00600,1,08,1",,,"07,99,1,02,1,02,1,00450,1,03,1,07,1",,"9,9,999,9,+017,1",,"SYN076AAXX  01004 08583 32465 70505 10251 20218 40143 82237 333 58017 82820 87270;",
"08583099999","2010-12-01T06:00:00","4","16.8333333","-25.05","20.0","MINDELO, CV","FM-12","99999","V020","080,1,N,0021,1","04500,1,C,N","015000,1,N,1","+0245,1","+0221,1","10128,1",,,,"02,1,+00540,1,08,1",,,"06,99,1,02,1,02,1,00450,1,03,1,02,1","999,N,+0240,1","9,9,999,9,+010,1",,"SYN082AAXX  01064 08583 32465 60804 10245 20221 40128 82232 333 20240 58010 82818 85070;",
"08583099999","2010-12-01T12:00:00","4","16.8333333","-25.05","20.0","MINDELO, CV","FM-12","99999","V020","040,1,N,0031,1","04500,1,C,N","020000,1,N,1","+0286,1","+0197,1","10144,1",,,,"01,1,+00480,1,08,1",,,"07,99,1,01,1,01,1,00450,1,03,1,99,9",,"9,9,999,9,+005,1",,"SYN076AAXX  01124 08583 32470 70406 10286 20197 40144 8113/ 333 58005 81816 87360;",
"08583099999","2010-12-01T18:00:00","4","16.8333333","-25.05","20.0","MINDELO, CV","FM-12","99999","V020","050,1,N,0067,1","22000,1,9,N","035000,1,N,1","+0285,1","+0197,1","10114,1",,,,"01,1,+00480,1,08,1",,,"04,99,1,01,1,01,1,00450,1,03,1,01,1","120,M,+0306,1","9,9,999,9,-002,1",,"SYN082AAXX  01184 08583 32481 40513 10285 20197 40114 81131 333 10306 59002 81816 84070;",
"08583099999","2010-12-02T00:00:00","4","16.8333333","-25.05","20.0","MINDELO, CV","FM-12","99999","V020","080,1,N,0021,1","22000,1,C,N","025000,1,N,1","+0250,1","+0215,1","10138,1",,,,"01,1,+00510,1,08,1",,,"05,99,1,01,1,01,1,00450,1,00,1,01,1",,"9,9,999,9,-005,1",,"SYN076AAXX  02004 08583 32475 50804 10250 20215 40138 81101 333 59005 81817 85070;",
"08583099999","2010-12-02T06:00:00","4","16.8333333","-25.05","20.0","MINDELO, CV","FM-12","99999","V020","080,1,N,0026,1","22000,1,9,N","020000,1,N,1","+0242,1","+0215,1","10116,1",,,,"02,1,+00510,1,08,1",,,"02,99,1,01,1,01,1,00450,1,00,1,00,1","999,N,+0240,1","9,9,999,9,-003,1",,"SYN076AAXX  02064 08583 32470 20805 10242 20215 40116 81100 333 20240 59003 82817;",
"08583099999","2010-12-02T12:00:00","4","16.8333333","-25.05","20.0","MINDELO, CV","FM-12","99999","V020","030,1,N,0062,1","00900,1,C,N","025000,1,N,1","+0281,1","+0217,1","10136,1",,,,"03,1,+00510,1,08,1",,,"07,99,1,06,1,08,1,00450,1,03,1,01,1",,"9,9,999,9,-015,1",,"SYN076AAXX  02124 08583 32475 70312 10281 20217 40136 86831 333 59015 83817 86623;",
"08583099999","2010-12-02T18:00:00","4","16.8333333","-25.05","20.0","MINDELO, CV","FM-12","99999","V020","050,1,N,0062,1","10500,1,C,N","025000,1,N,1","+0273,1","+0205,1","10122,1",,,,"01,1,+00540,1,08,1",,,"05,99,1,01,1,01,1,00450,1,03,1,01,1","120,M,+0301,1","9,9,999,9,+008,1",,"SYN082AAXX  02184 08583 32475 50512 10273 20205 40122 81131 333 10301 58008 81818 84070;",
"08583099999","2010-12-03T00:00:00","4","16.8333333","-25.05","20.0","MINDELO, CV","FM-12","99999","V020","070,1,N,0087,1","04500,1,C,N","020000,1,N,1","+0248,1","+0207,1","10137,1",,,,"01,1,+00600,1,08,1",,,"06,99,1,01,1,02,1,00800,1,03,1,02,1",,"9,9,999,9,-001,1",,"SYN076AAXX  03004 08583 32570 60717 10248 20207 40137 81232 333 59001 81820 86070;",
"08583099999","2010-12-03T06:00:00","4","16.8333333","-25.05","20.0","MINDELO, CV","FM-12","99999","V020","060,1,N,0067,1","04500,1,C,N","020000,1,N,1","+0241,1","+0206,1","10119,1",,,,"01,1,+00600,1,08,1","03,1,+03000,1,03,1",,"07,99,1,01,1,02,1,00800,1,03,1,02,1","999,N,+0240,1","9,9,999,9,+003,1",,"SYN088AAXX  03064 08583 32570 70613 10241 20206 40119 81232 333 20240 58003 81820 83360 86070;",
"08583099999","2010-12-03T12:00:00","4","16.8333333","-25.05","20.0","MINDELO, CV","FM-12","99999","V020","999,9,V,0021,1","99999,9,9,N","025000,1,N,1","+0280,1","+0208,1","10138,1",,,,"01,1,+03000,1,03,1",,,"07,99,1,01,1,00,1,99999,9,03,1,06,1",,"9,9,999,9,+002,1",,"SYN076AAXX  03124 08583 32975 79904 10280 20208 40138 81036 333 58002 81360 87270;",
"08583099999","2010-12-03T18:00:00","4","16.8333333","-25.05","20.0","MINDELO, CV","FM-12","99999","V020","230,1,N,0031,1","04500,1,C,N","025000,1,N,1","+0267,1","+0223,1","10114,1",,,,"01,1,+00600,1,08,1",,,"06,99,1,01,1,02,1,00800,1,03,1,02,1","120,M,+0300,1","9,9,999,9,-008,1",,"SYN082AAXX  03184 08583 32575 62306 10267 20223 40114 81232 333 10300 59008 81820 85070;",
"08583099999","2010-12-04T00:00:00","4","16.8333333","-25.05","20.0","MINDELO, CV","FM-12","99999","V020","030,1,N,0010,1","04500,1,C,N","020000,1,N,1","+0230,1","+0210,1","10137,1",,,,"02,1,+00600,1,08,1",,,"06,99,1,02,1,02,1,00800,1,03,1,02,1",,"9,9,999,9,+000,1",,"SYN076AAXX  04004 08583 32570 60302 10230 20210 40137 82232 333 58000 82820 86070;",
"08583099999","2010-12-04T06:00:00","4","16.8333333","-25.05","20.0","MINDELO, CV","FM-12","99999","V020","999,9,V,0010,1","22000,1,9,N","015000,1,N,1","+0216,1","+0210,1","10121,1",,,,"02,1,+00600,1,08,1",,,"04,99,1,02,1,02,1,00800,1,00,1,01,1","999,N,+0215,1","9,9,999,9,+002,1",,"SYN082AAXX  04064 08583 32565 49902 10216 20210 40121 82201 333 20215 58002 82820 84070;",
"08583099999","2010-12-04T12:00:00","4","16.8333333","-25.05","20.0","MINDELO, CV","FM-12","99999","V020","070,1,N,0062,1","22000,1,C,N","015000,1,N,1","+0281,1","+0207,1","10139,1",,,,"01,1,+00540,1,08,1",,,"06,99,1,01,1,02,1,00450,1,00,1,04,1",,"9,9,999,9,+001,1",,"SYN076AAXX  04124 08583 32465 60712 10281 20207 40139 81204 333 58001 81818 86070;",
"08583099999","2010-12-04T18:00:00","4","16.8333333","-25.05","20.0","MINDELO, CV","FM-12","99999","V020","060,1,N,0051,1","22000,1,9,N","018000,1,N,1","+0280,1","+0198,1","10110,1",,,,"02,1,+00540,1,06,1",,,"03,99,1,01,1,05,1,00450,1,00,1,01,1","120,M,+0298,1","9,9,999,9,+004,1",,"SYN082AAXX  04184 08583 32468 30610 10280 20198 40110 81501 333 10298 58004 82618 83070;",
"08583099999","2010-12-05T00:00:00","4","16.8333333","-25.05","20.0","MINDELO, CV","FM-12","99999","V020","050,1,N,0010,1","22000,1,9,N","018000,1,N,1","+0227,1","+0202,1","10143,1",,,,"02,1,+00540,1,06,1",,,"02,99,1,02,1,05,1,00450,1,00,1,00,1",,"9,9,999,9,+006,1",,"SYN070AAXX  05004 08583 32468 20502 10227 20202 40143 82500 333 58006 82618;",
"08583099999","2010-12-05T06:00:00","4","16.8333333","-25.05","20.0","MINDELO, CV","FM-12","99999","V020","040,1,N,0021,1","22000,1,9,N","018000,1,N,1","+0205,1","+0182,1","10135,1",,,,"02,1,+00540,1,06,1",,,"02,99,1,02,1,05,1,00450,1,00,1,01,1","999,N,+0195,1","9,9,999,9,+014,1",,"SYN076AAXX  05064 08583 32468 20404 10205 20182 40135 82501 333 20195 58014 82618;",
"08583099999","2010-12-05T12:00:00","4","16.8333333","-25.05","20.0","MINDELO, CV","FM-12","99999","V020","070,1,N,0036,1","22000,1,9,N","018000,1,N,1","+0280,1","+0182,1","10150,1",,,,"01,1,+00480,1,06,1",,,"01,99,1,01,1,05,1,00450,1,00,1,00,1",,"9,9,999,9,+011,1",,"SYN070AAXX  05124 08583 32468 10707 10280 20182 40150 81500 333 58011 81616;",
"08583099999","2010-12-05T18:00:00","4","16.8333333","-25.05","20.0","MINDELO, CV","FM-12","99999","V020","060,1,N,0062,1","22000,1,9,N","025000,1,N,1","+0275,1","+0200,1","10129,1",,,,"01,1,+00600,1,08,1",,,"01,99,1,01,1,01,1,00800,1,00,1,00,1","120,M,+0292,1","9,9,999,9,+018,1",,"SYN076AAXX  05184 08583 32575 10612 10275 20200 40129 81100 333 10292 58018 81820;",
"08583099999","2010-12-06T00:00:00","4","16.8333333","-25.05","20.0","MINDELO, CV","FM-12","99999","V020","060,1,N,0062,1","22000,1,9,N","025000,1,N,1","+0245,1","+0205,1","10157,1",,,,"01,1,+00540,1,06,1",,,"01,99,1,01,1,02,1,00450,1,00,1,00,1",,"9,9,999,9,+015,1",,"SYN070AAXX  06004 08583 32475 10612 10245 20205 40157 81200 333 58015 81618;",
"08583099999","2010-12-06T06:00:00","4","16.8333333","-25.05","20.0","MINDELO, CV","FM-12","99999","V020","060,1,N,0031,1","22000,1,9,N","020000,1,N,1","+0228,1","+0200,1","10139,1",,,,"02,1,+00540,1,06,1",,,"02,99,1,02,1,05,1,00450,1,00,1,01,1","999,N,+0195,1","9,9,999,9,+004,1",,"SYN076AAXX  06064 08583 32470 20606 10228 20200 40139 82501 333 20195 58004 82618;",
"08583099999","2010-12-07T00:00:00","4","16.8333333","-25.05","20.0","MINDELO, CV","FM-12","99999","V020","070,1,N,0031,1","22000,1,9,N","025000,1,N,1","+0236,1","+0201,1","10155,1",,,,"02,1,+00600,1,06,1",,,"02,99,1,02,1,05,1,00800,1,00,1,00,1",,"9,9,999,9,-002,1",,"SYN070AAXX  07004 08583 32575 20706 10236 20201 40155 82500 333 59002 82620;",
"08583099999","2010-12-07T06:00:00","4","16.8333333","-25.05","20.0","MINDELO, CV","FM-12","99999","V020","060,1,N,0031,1","22000,1,9,N","020000,1,N,1","+0227,1","+0195,1","10137,1",,,,"01,1,+00540,1,06,1",,,"01,99,1,01,1,05,1,00450,1,00,1,00,1","999,N,+0222,1","9,9,999,9,-002,1",,"SYN076AAXX  07064 08583 32470 10606 10227 20195 40137 81500 333 20222 59002 81618;",
"08583099999","2010-12-07T12:00:00","4","16.8333333","-25.05","20.0","MINDELO, CV","FM-12","99999","V020","050,1,N,0057,1","22000,1,9,N","025000,1,N,1","+0275,1","+0190,1","10143,1",,,,"02,1,+00600,1,08,1",,,"02,99,1,02,1,02,1,00800,1,00,1,00,1",,"9,9,999,9,-014,1",,"SYN070AAXX  07124 08583 32575 20511 10275 20190 40143 82200 333 59014 82820;",
"08583099999","2010-12-07T18:00:00","4","16.8333333","-25.05","20.0","MINDELO, CV","FM-12","99999","V020","070,1,N,0026,1","04500,1,C,N","025000,1,N,1","+0267,1","+0191,1","10123,1",,,,"03,1,+00510,1,08,1",,,"06,99,1,03,1,02,1,00450,1,03,1,01,1","120,M,+0288,1","9,9,999,9,-002,1",,"SYN082AAXX  07184 08583 32475 60705 10267 20191 40123 83231 333 10288 59002 83817 84070;",
"08583099999","2010-12-08T00:00:00","4","16.8333333","-25.05","20.0","MINDELO, CV","FM-12","99999","V020","040,1,N,0010,1","22000,1,9,N","020000,1,N,1","+0230,1","+0190,1","10140,1",,,,"02,1,+00540,1,08,1",,,"02,99,1,02,1,02,1,00450,1,00,1,01,1",,"9,9,999,9,-015,1",,"SYN070AAXX  08004 08583 32470 20402 10230 20190 40140 82201 333 59015 82818;",
"08583099999","2010-12-08T06:00:00","4","16.8333333","-25.05","20.0","MINDELO, CV","FM-12","99999","V020","040,1,N,0021,1","22000,1,9,N","020000,1,N,1","+0210,1","+0180,1","10124,1",,,,"02,1,+00750,1,06,1",,,"04,99,1,02,1,05,1,00800,1,03,1,01,1","999,N,+0205,1","9,9,999,9,-014,1",,"SYN082AAXX  08064 08583 32570 40404 10210 20180 40124 82531 333 20205 59014 82625 84070;",
"08583099999","2010-12-08T12:00:00","4","16.8333333","-25.05","20.0","MINDELO, CV","FM-12","99999","V020","240,1,N,0036,1","22000,1,9,N","025000,1,N,1","+0265,1","+0185,1","10135,1",,,,"02,1,+00600,1,06,1",,,"02,99,1,02,1,05,1,00800,1,00,1,00,1",,"9,9,999,9,-008,1",,"SYN070AAXX  08124 08583 32575 22407 10265 20185 40135 82500 333 59008 82620;",
"08583099999","2010-12-08T18:00:00","4","16.8333333","-25.05","20.0","MINDELO, CV","FM-12","99999","V020","230,1,N,0036,1","22000,1,9,N","025000,1,N,1","+0261,1","+0180,1","10116,1",,,,"03,1,+00600,1,08,1",,,"03,99,1,03,1,02,1,00800,1,00,1,00,1","120,M,+0282,1","9,9,999,9,-007,1",,"SYN076AAXX  08184 08583 32575 32307 10261 20180 40116 83200 333 10282 59007 83820;",
"08583099999","2010-12-09T00:00:00","4","16.8333333","-25.05","20.0","MINDELO, CV","FM-12","99999","V020","050,1,N,0031,1","22000,1,9,N","020000,1,N,1","+0228,1","+0175,1","10137,1",,,,"03,1,+00600,1,08,1",,,"03,99,1,03,1,02,1,00800,1,00,1,00,1",,"9,9,999,9,-003,1",,"SYN070AAXX  09004 08583 32570 30506 10228 20175 40137 83200 333 59003 83820;",
"08583099999","2010-12-09T12:00:00","4","16.8333333","-25.05","20.0","MINDELO, CV","FM-12","99999","V020","060,1,N,0046,1","22000,1,9,N","020000,1,N,1","+0267,1","+0175,1","10138,1",,,,"02,1,+00540,1,08,1",,,"04,99,1,04,1,08,1,00450,1,00,1,00,1",,"9,9,999,9,+003,1",,"SYN076AAXX  09124 08583 32470 40609 10267 20175 40138 84800 333 58003 82818 83626;",
"08583099999","2010-12-09T18:00:00","4","16.8333333","-25.05","20.0","MINDELO, CV","FM-12","99999","V020","080,1,N,0093,1","22000,1,9,N","020000,1,N,1","+0261,1","+0158,1","10124,1",,,,"03,1,+00600,1,08,1",,,"03,99,1,03,1,02,1,00800,1,00,1,00,1","120,M,+0278,1","9,9,999,9,+008,1",,"SYN076AAXX  09184 08583 32570 30818 10261 20158 40124 83200 333 10278 58008 83820;",
"08583099999","2010-12-10T00:00:00","4","16.8333333","-25.05","20.0","MINDELO, CV","FM-12","99999","V020","060,1,N,0062,1","22000,1,9,N","020000,1,N,1","+0225,1","+0180,1","10148,1",,,,"01,1,+00750,1,06,1",,,"03,99,1,01,1,05,1,00800,1,00,1,01,1",,"9,9,999,9,+011,1",,"SYN076AAXX  10004 08583 32570 30612 10225 20180 40148 81501 333 58011 81625 83070;",
"08583099999","2010-12-10T06:00:00","4","16.8333333","-25.05","20.0","MINDELO, CV","FM-12","99999","V020","040,1,N,0031,1","00900,1,C,N","010000,1,N,1","+0210,1","+0193,1","10136,1",,"6,1,06,1","5,1,06,1","02,1,+00480,1,08,1",,,"05,99,1,05,1,08,1,00450,1,00,1,01,1","999,N,+0195,1","9,9,999,9,+017,1","20,1","SYN094AAXX  10064 08583 11460 50406 10210 20193 40136 6///4 72065 85801 333 20195 58017 82816 84622;",
"08583099999","2010-12-10T12:00:00","4","16.8333333","-25.05","20.0","MINDELO, CV","FM-12","99999","V020","040,1,N,0103,1","22000,1,9,N","015000,1,N,1","+0260,1","+0170,1","10152,1",,,,"02,1,+00480,1,08,1",,,"04,99,1,04,1,08,1,00450,1,00,1,01,1",,"9,9,999,9,+014,1",,"SYN076AAXX  10124 08583 32465 40420 10260 20170 40152 84801 333 58014 82816 83620;",
"08583099999","2010-12-10T18:00:00","4","16.8333333","-25.05","20.0","MINDELO, CV","FM-12","99999","V020","060,1,N,0093,1","22000,1,9,N","025000,1,N,1","+0255,1","+0156,1","10138,1",,,,"02,1,+00750,1,08,1",,,"02,99,1,02,1,01,1,00800,1,00,1,00,1","120,M,+0275,1","9,9,999,9,+014,1",,"SYN076AAXX  10184 08583 32575 20618 10255 20156 40138 82100 333 10275 58014 82825;",
"08583099999","2010-12-11T00:00:00","4","16.8333333","-25.05","20.0","MINDELO, CV","FM-12","99999","V020","050,1,N,0072,1","22000,1,9,N","020000,1,N,1","+0231,1","+0153,1","10168,1",,,,"01,1,+00750,1,06,1",,,"02,99,1,01,1,02,1,00800,1,00,1,01,1",,"9,9,999,9,+020,1",,"SYN070AAXX  11004 08583 32570 20514 10231 20153 40168 81201 333 58020 81625;",
"08583099999","2010-12-11T06:00:00","4","16.8333333","-25.05","20.0","MINDELO, CV","FM-12","99999","V020","070,1,N,0067,1","22000,1,9,N","020000,1,N,1","+0222,1","+0156,1","10150,1",,,,"02,1,+00510,1,06,1",,,"03,99,1,03,1,08,1,00800,1,00,1,01,1","999,N,+0203,1","9,9,999,9,+014,1",,"SYN082AAXX  11064 08583 32570 30713 10222 20156 40150 83801 333 20203 58014 82617 83622;",
"08583099999","2010-12-11T12:00:00","4","16.8333333","-25.05","20.0","MINDELO, CV","FM-12","99999","V020","060,1,N,0077,1","22000,1,C,N","025000,1,N,1","+0261,1","+0160,1","10162,1",,,,"03,1,+00720,1,08,1",,,"05,99,1,03,1,01,1,00800,1,00,1,01,1",,"9,9,999,9,+010,1",,"SYN076AAXX  11124 08583 32575 50615 10261 20160 40162 83101 333 58010 83824 84070;",
"08583099999","2010-12-11T18:00:00","4","16.8333333","-25.05","20.0","MINDELO, CV","FM-12","99999","V020","050,1,N,0093,1","22000,1,9,N","025000,1,N,1","+0257,1","+0155,1","10146,1",,,,"03,1,+00720,1,08,1",,,"03,99,1,03,1,02,1,00800,1,03,1,00,1","120,M,+0278,1","9,9,999,9,+008,1",,"SYN076AAXX  11184 08583 32575 30518 10257 20155 40146 83230 333 10278 58008 83824;",
"08583099999","2010-12-12T06:00:00","4","16.8333333","-25.05","20.0","MINDELO, CV","FM-12","99999","V020","060,1,N,0077,1","22000,1,9,N","020000,1,N,1","+0220,1","+0125,1","10142,1",,,,"01,1,+00600,1,06,1",,,"01,99,1,01,1,05,1,00800,1,00,1,00,1","999,N,+0213,1","9,9,999,9,-008,1",,"SYN076AAXX  12064 08583 32570 10615 10220 20125 40142 81500 333 20213 59008 81620;",
"08583099999","2010-12-12T12:00:00","4","16.8333333","-25.05","20.0","MINDELO, CV","FM-12","99999","V020","050,1,N,0103,1","22000,1,9,N","030000,1,N,1","+0270,1","+0123,1","10141,1",,,,"01,1,+00540,1,08,1",,,"01,99,1,01,1,01,1,00450,1,00,1,00,1",,"9,9,999,9,-021,1",,"SYN070AAXX  12124 08583 32480 10520 10270 20123 40141 81100 333 59021 81818;",
"08583099999","2010-12-12T18:00:00","4","16.8333333","-25.05","20.0","MINDELO, CV","FM-12","99999","V020","060,1,N,0093,1","22000,1,9,N","025000,1,N,1","+0251,1","+0136,1","10110,1",,,,"03,1,+00510,1,08,1",,,"99,99,9,03,1,01,1,00450,1,03,1,00,1","120,M,+0272,1","9,9,999,9,-036,1",,"SYN076AAXX  12184 08583 32475 10618 10251 20136 40110 83130 333 10272 59036 83817;","Q01+000012SCOTCV"
"08583099999","2010-12-13T00:00:00","4","16.8333333","-25.05","20.0","MINDELO, CV","FM-12","99999","V020","060,1,N,0072,1","22000,1,9,N","025000,1,N,1","+0231,1","+0165,1","10122,1",,,,"03,1,+00540,1,06,1",,,"03,99,1,03,1,05,1,00450,1,00,1,00,1",,"9,9,999,9,-041,1",,"SYN070AAXX  13004 08583 32475 30614 10231 20165 40122 83500 333 59041 83618;",
"08583099999","2010-12-13T06:00:00","4","16.8333333","-25.05","20.0","MINDELO, CV","FM-12","99999","V020","999,9,V,0036,1","00900,1,C,N","025000,1,N,1","+0226,1","+0140,1","10106,1",,,,"02,1,+00540,1,08,1",,,"06,99,1,05,1,08,1,00450,1,00,1,01,1","999,N,+0222,1","9,9,999,9,-036,1",,"SYN082AAXX  13064 08583 32475 69907 10226 20140 40106 85801 333 20222 59036 82818 85625;",
"08583099999","2010-12-13T12:00:00","4","16.8333333","-25.05","20.0","MINDELO, CV","FM-12","99999","V020","050,1,N,0051,1","22000,1,9,N","025000,1,N,1","+0262,1","+0130,1","10109,1",,,,"02,1,+00540,1,06,1",,,"02,99,1,99,9,99,9,00450,1,00,1,01,1",,"9,9,999,9,-032,1",,"SYN070AAXX  13124 08583 32475 20510 10262 20130 40109 85001 333 59032 82618;",
"08583099999","2010-12-13T18:00:00","4","16.8333333","-25.05","20.0","MINDELO, CV","FM-12","99999","V020","080,1,N,0067,1","22000,1,9,N","030000,1,N,1","+0256,1","+0155,1","10085,1",,,,"03,1,+00600,1,08,1",,,"03,99,1,03,1,01,1,00450,1,00,1,00,1","120,M,+0278,1","9,9,999,9,-026,1",,"SYN076AAXX  13184 08583 32480 30813 10256 20155 40085 83100 333 10278 59026 83820;",
"08583099999","2010-12-14T00:00:00","4","16.8333333","-25.05","20.0","MINDELO, CV","FM-12","99999","V020","060,1,N,0026,1","22000,1,9,N","030000,1,N,1","+0211,1","+0155,1","10108,1",,,,"03,1,+00600,1,08,1",,,"03,99,1,03,1,01,1,00450,1,00,1,00,1",,"9,9,999,9,-014,1",,"SYN070AAXX  14004 08583 32480 30605 10211 20155 40108 83100 333 59014 83820;",
"08583099999","2010-12-14T06:00:00","4","16.8333333","-25.05","20.0","MINDELO, CV","FM-12","99999","V020","060,1,N,0015,1","22000,1,9,N","020000,1,N,1","+0183,1","+0151,1","10090,1",,,,"02,1,+00600,1,08,1",,,"02,99,1,02,1,01,1,00800,1,00,1,00,1","999,N,+0183,1","9,9,999,9,-016,1",,"SYN076AAXX  14064 08583 32570 20603 10183 20151 40090 82100 333 20183 59016 82820;",
"08583099999","2010-12-14T12:00:00","4","16.8333333","-25.05","20.0","MINDELO, CV","FM-12","99999","V020","180,1,N,0021,1","22000,1,9,N","030000,1,N,1","+0263,1","+0165,1","10111,1",,,,"01,1,+00600,1,08,1",,,"04,99,1,01,1,01,1,00450,1,00,1,01,1",,"9,9,999,9,+001,1",,"SYN076AAXX  14124 08583 32480 41804 10263 20165 40111 81101 333 58001 81820 84070;",
"08583099999","2010-12-14T18:00:00","4","16.8333333","-25.05","20.0","MINDELO, CV","FM-12","99999","V020","180,1,N,0051,1","22000,1,C,N","030000,1,N,1","+0252,1","+0190,1","10092,1",,,,"01,1,+00600,1,08,1",,,"05,99,1,02,1,01,1,00800,1,00,1,01,1","120,M,+0275,1","9,9,999,9,+007,1",,"SYN082AAXX  14184 08583 32580 51810 10252 20190 40092 82101 333 10275 58007 81820 85070;",
"08583099999","2010-12-15T00:00:00","4","16.8333333","-25.05","20.0","MINDELO, CV","FM-12","99999","V020","210,1,N,0015,1","10500,1,C,N","020000,1,N,1","+0241,1","+0195,1","10132,1",,,,"01,1,+00600,1,08,1",,,"05,99,1,01,1,01,1,00800,1,00,1,07,1",,"9,9,999,9,+024,1",,"SYN076AAXX  15004 08583 32570 52103 10241 20195 40132 81107 333 58024 81820 85270;",
"08583099999","2010-12-15T12:00:00","4","16.8333333","-25.05","20.0","MINDELO, CV","FM-12","99999","V020","220,1,N,0031,1","22000,1,9,N","020000,1,N,1","+0267,1","+0202,1","10144,1",,,,"04,1,+00600,1,06,1",,,"04,99,1,04,1,05,1,00800,1,00,1,01,1",,"9,9,999,9,+034,1",,"SYN070AAXX  15124 08583 32570 42206 10267 20202 40144 84501 333 58034 84620;",
"08583099999","2010-12-15T18:00:00","4","16.8333333","-25.05","20.0","MINDELO, CV","FM-12","99999","V020","150,1,N,0036,1","22000,1,9,N","025000,1,N,1","+0266,1","+0187,1","10117,1",,,,"02,1,+00720,1,08,1",,,"02,99,1,02,1,02,1,00800,1,00,1,00,1","120,M,+0280,1","9,9,999,9,+025,1",,"SYN076AAXX  15184 08583 32575 21507 10266 20187 40117 82200 333 10280 58025 82824;",
"08583099999","2010-12-16T00:00:00","4","16.8333333","-25.05","20.0","MINDELO, CV","FM-12","99999","V020","060,1,N,0031,1","22000,1,9,N","025000,1,N,1","+0225,1","+0187,1","10151,1",,,,"01,1,+00540,1,06,1",,,"01,99,1,01,1,05,1,00450,1,00,1,00,1",,"9,9,999,9,+018,1",,"SYN070AAXX  16004 08583 32475 10606 10225 20187 40151 81500 333 58018 81618;",
"08583099999","2010-12-16T06:00:00","4","16.8333333","-25.05","20.0","MINDELO, CV","FM-12","99999","V020","070,1,N,0051,1","22000,1,9,N","020000,1,N,1","+0226,1","+0181,1","10122,1",,,,"02,1,+00540,1,06,1",,,"02,99,1,02,1,08,1,00450,1,00,1,00,1","999,N,+0202,1","9,9,999,9,+002,1",,"SYN076AAXX  16064 08583 32470 20710 10226 20181 40122 82800 333 20202 58002 82618;",
"08583099999","2010-12-16T12:00:00","4","16.8333333","-25.05","20.0","MINDELO, CV","FM-12","99999","V020","050,1,N,0051,1","22000,1,9,N","025000,1,N,1","+0267,1","+0158,1","10142,1",,,,"02,1,+00750,1,08,1",,,"02,99,1,02,1,01,1,00800,1,00,1,00,1",,"9,9,999,9,-002,1",,"SYN070AAXX  16124 08583 32575 20510 10267 20158 40142 82100 333 59002 82825;",
"08583099999","2010-12-16T18:00:00","4","16.8333333","-25.05","20.0","MINDELO, CV","FM-12","99999","V020","040,1,N,0051,1","00750,1,9,N","030000,1,N,1","+0260,1","+0168,1","10109,1",,,,"05,1,+00750,1,06,1",,,"05,99,1,05,1,02,1,00800,1,00,1,00,1","120,M,+0281,1","9,9,999,9,-008,1",,"SYN076AAXX  16184 08583 32580 50410 10260 20168 40109 85200 333 10281 59008 85625;",
"08583099999","2010-12-17T00:00:00","4","16.8333333","-25.05","20.0","MINDELO, CV","FM-12","99999","V020","060,1,N,0031,1","22000,1,9,N","025000,1,N,1","+0220,1","+0155,1","10135,1",,,,"02,1,+00720,1,06,1",,,"04,99,1,02,1,05,1,00800,1,00,1,01,1",,"9,9,999,9,-016,1",,"SYN076AAXX  17004 08583 32575 40606 10220 20155 40135 82501 333 59016 82624 83070;",
"08583099999","2010-12-17T06:00:00","4","16.8333333","-25.05","20.0","MINDELO, CV","FM-12","99999","V020","050,1,N,0026,1","22000,1,9,N","025000,1,N,1","+0206,1","+0147,1","10115,1",,,,"01,1,+00720,1,06,1",,,"01,99,1,01,1,05,1,00800,1,00,1,00,1","999,N,+0201,1","9,9,999,9,-007,1",,"SYN076AAXX  17064 08583 32575 10505 10206 20147 40115 81500 333 20201 59007 81624;",
"08583099999","2010-12-17T12:00:00","4","16.8333333","-25.05","20.0","MINDELO, CV","FM-12","99999","V020","230,1,N,0031,1","22000,1,9,N","035000,1,N,1","+0255,1","+0148,1","10122,1",,,,"01,1,+00660,1,06,1",,,"02,99,1,01,1,05,1,00800,1,00,1,01,1",,"9,9,999,9,-020,1",,"SYN070AAXX  17124 08583 32581 22306 10255 20148 40122 81501 333 59020 81622;",
"08583099999","2010-12-17T18:00:00","4","16.8333333","-25.05","20.0","MINDELO, CV","FM-12","99999","V020","050,1,N,0031,1","04500,1,C,N","030000,1,N,1","+0258,1","+0152,1","10096,1",,,,"03,1,+00660,1,06,1",,,"06,99,1,03,1,05,1,00800,1,03,1,01,1","120,M,+0270,1","9,9,999,9,-013,1",,"SYN082AAXX  17184 08583 32580 60506 10258 20152 40096 83531 333 10270 59013 83622 85070;",
"08583099999","2010-12-18T00:00:00","4","16.8333333","-25.05","20.0","MINDELO, CV","FM-12","99999","V020","999,9,V,0005,1","22000,1,9,N","025000,1,N,1","+0222,1","+0143,1","10121,1",,,,"01,1,+00690,1,06,1",,,"01,99,1,01,1,05,1,00800,1,00,1,00,1",,"9,9,999,9,-015,1",,"SYN070AAXX  18004 08583 32575 19901 10222 20143 40121 81500 333 59015 81623;",
"08583099999","2010-12-18T06:00:00","4","16.8333333","-25.05","20.0","MINDELO, CV","FM-12","99999","V020","050,1,N,0015,1","22000,1,C,N","025000,1,N,1","+0201,1","+0148,1","10111,1",,,,"04,1,+00750,1,06,1",,,"05,99,1,04,1,05,1,00800,1,00,1,01,1","999,N,+0190,1","9,9,999,9,-004,1",,"SYN082AAXX  18064 08583 32575 50503 10201 20148 40111 84501 333 20190 59004 84625 83070;",
"08583099999","2010-12-18T12:00:00","4","16.8333333","-25.05","20.0","MINDELO, CV","FM-12","99999","V020","220,1,N,0031,1","22000,1,9,N","025000,1,N,1","+0253,1","+0160,1","10128,1",,,,"01,1,+00720,1,06,1",,,"02,99,1,01,1,05,1,00800,1,00,1,01,1",,"9,9,999,9,+006,1",,"SYN070AAXX  18124 08583 32575 22206 10253 20160 40128 81501 333 58006 81624;",
"08583099999","2010-12-18T18:00:00","4","16.8333333","-25.05","20.0","MINDELO, CV","FM-12","99999","V020","220,1,N,0021,1","00750,1,9,N","030000,1,N,1","+0250,1","+0171,1","10105,1",,,,"05,1,+00750,1,08,1",,,"06,99,1,06,1,08,1,00800,1,00,1,00,1","120,M,+0266,1","9,9,999,9,+008,1",,"SYN082AAXX  18184 08583 32580 62204 10250 20171 40105 86800 333 10266 58008 85825 83632;",
"08583099999","2010-12-19T00:00:00","4","16.8333333","-25.05","20.0","MINDELO, CV","FM-12","99999","V020","070,1,N,0021,1","22000,1,9,N","020000,1,N,1","+0225,1","+0167,1","10131,1",,,,"02,1,+00600,1,08,1",,,"04,99,1,04,1,08,1,00800,1,00,1,01,1",,"9,9,999,9,+011,1",,"SYN076AAXX  19004 08583 32570 40704 10225 20167 40131 84801 333 58011 82820 83625;",
"08583099999","2010-12-19T06:00:00","4","16.8333333","-25.05","20.0","MINDELO, CV","FM-12","99999","V020","060,1,N,0021,1","04500,1,C,N","020000,1,N,1","+0200,1","+0161,1","10123,1",,,,"02,1,+00600,1,06,1",,,"06,99,1,02,1,05,1,00800,1,03,1,01,1","999,N,+0182,1","9,9,999,9,+012,1",,"SYN082AAXX  19064 08583 32570 60604 10200 20161 40123 82531 333 20182 58012 82620 85070;",
"08583099999","2010-12-19T12:00:00","4","16.8333333","-25.05","20.0","MINDELO, CV","FM-12","99999","V020","070,1,N,0026,1","04500,1,C,N","035000,1,N,1","+0250,1","+0166,1","10147,1",,,,"03,1,+00720,1,08,1",,,"06,99,1,03,1,05,1,00800,1,03,1,02,1",,"9,9,999,9,+018,1",,"SYN076AAXX  19124 08583 32581 60705 10250 20166 40147 83532 333 58018 83824 85070;",
"08583099999","2010-12-19T18:00:00","4","16.8333333","-25.05","20.0","MINDELO, CV","FM-12","99999","V020","240,1,N,0026,1","03000,1,9,N","025000,1,N,1","+0252,1","+0175,1","10132,1",,,,"03,1,+00720,1,08,1","03,1,+03000,1,03,1",,"06,99,1,03,1,05,1,00800,1,03,1,02,1","120,M,+0267,1","9,9,999,9,+028,1",,"SYN088AAXX  19184 08583 32575 62405 10252 20175 40132 83532 333 10267 58028 83824 83360 85070;",
"08583099999","2010-12-20T00:00:00","4","16.8333333","-25.05","20.0","MINDELO, CV","FM-12","99999","V020","040,1,N,0015,1","04500,1,C,N","020000,1,N,1","+0237,1","+0185,1","10163,1",,,,"02,1,+00720,1,06,1",,,"07,99,1,02,1,05,1,00800,1,03,1,01,1",,"9,9,999,9,+032,1",,"SYN076AAXX  20004 08583 32570 70403 10237 20185 40163 82531 333 58032 82624 87359;",
"08583099999","2010-12-20T12:00:00","4","16.8333333","-25.05","20.0","MINDELO, CV","FM-12","99999","V020","030,1,N,0046,1","04500,1,C,N","020000,1,N,1","+0265,1","+0188,1","10181,1",,,,"02,1,+00510,1,08,1","04,1,+00720,1,06,1",,"07,99,1,04,1,08,1,00800,1,03,1,02,1",,"9,9,999,9,+035,1",,"SYN082AAXX  20124 08583 32570 70309 10265 20188 40181 84832 333 58035 82817 84624 85070;",
"08583099999","2010-12-20T18:00:00","4","16.8333333","-25.05","20.0","MINDELO, CV","FM-12","99999","V020","060,1,N,0082,1","04500,1,C,N","025000,1,N,1","+0251,1","+0190,1","10159,1",,,,"01,1,+00660,1,08,1",,,"08,99,1,01,1,01,1,00800,1,03,1,07,1","120,M,+0280,1","9,9,999,9,+027,1",,"SYN082AAXX  20184 08583 32575 80616 10251 20190 40159 81137 333 10280 58027 81822 87270;",
"08583099999","2010-12-21T00:00:00","4","16.8333333","-25.05","20.0","MINDELO, CV","FM-12","99999","V020","060,1,N,0082,1","04500,1,C,N","020000,1,N,1","+0240,1","+0182,1","10176,1",,,,"02,1,+00660,1,08,1",,,"07,99,1,02,1,02,1,00800,1,03,1,99,9",,"9,9,999,9,+013,1",,"SYN076AAXX  21004 08583 32570 70616 10240 20182 40176 8223/ 333 58013 82822 87360;",
"08583099999","2010-12-21T12:00:00","4","16.8333333","-25.05","20.0","MINDELO, CV","FM-12","99999","V020","060,1,N,0103,1","10500,1,C,N","025000,1,N,1","+0263,1","+0191,1","10172,1",,,,"01,1,+00600,1,08,1",,,"06,99,1,01,1,01,1,00800,1,03,1,06,1",,"9,9,999,9,-011,1",,"SYN076AAXX  21124 08583 32575 60620 10263 20191 40172 81136 333 59011 81820 86070;",
"08583099999","2010-12-21T18:00:00","4","16.8333333","-25.05","20.0","MINDELO, CV","FM-12","99999","V020","050,1,N,0103,1","04500,1,C,N","025000,1,N,1","+0265,1","+0191,1","10136,1",,,,"02,1,+00600,1,08,1",,,"07,99,1,02,1,02,1,00800,1,03,1,02,1","120,M,+0285,1","9,9,999,9,-022,1",,"SYN082AAXX  21184 08583 32575 70520 10265 20191 40136 82232 333 10285 59022 82820 87070;",
"08583099999","2010-12-22T00:00:00","4","16.8333333","-25.05","20.0","MINDELO, CV","FM-12","99999","V020","060,1,N,0082,1","22000,1,9,N","025000,1,N,1","+0235,1","+0185,1","10152,1",,,,"02,1,+00600,1,08,1",,,"02,99,1,02,1,02,1,00800,1,00,1,01,1",,"9,9,999,9,-024,1",,"SYN070AAXX  22004 08583 32575 20616 10235 20185 40152 82201 333 59024 82820;",
"08583099999","2010-12-22T06:00:00","4","16.8333333","-25.05","20.0","MINDELO, CV","FM-12","99999","V020","060,1,N,0077,1","22000,1,9,N","025000,1,N,1","+0227,1","+0165,1","10140,1",,,,"01,1,+00660,1,06,1",,,"01,99,1,01,1,05,1,00800,1,00,1,00,1","999,N,+0226,1","9,9,999,9,-020,1",,"SYN076AAXX  22064 08583 32575 10615 10227 20165 40140 81500 333 20226 59020 81622;",
"08583099999","2010-12-22T12:00:00","4","16.8333333","-25.05","20.0","MINDELO, CV","FM-12","99999","V020","060,1,N,0134,1","22000,1,9,N","025000,1,N,1","+0263,1","+0165,1","10153,1",,,,"01,1,+00660,1,06,1",,,"01,99,1,01,1,05,1,00800,1,00,1,00,1",,"9,9,999,9,-019,1",,"SYN070AAXX  22124 08583 32575 10626 10263 20165 40153 81500 333 59019 81622;",
"08583099999","2010-12-22T18:00:00","4","16.8333333","-25.05","20.0","MINDELO, CV","FM-12","99999","V020","070,1,N,0108,1","22000,1,9,N","025000,1,N,1","+0255,1","+0162,1","10127,1",,,,"01,1,+00660,1,06,1",,,"01,99,1,01,1,05,1,00800,1,00,1,00,1","120,M,+0275,1","9,9,999,9,-009,1",,"SYN076AAXX  22184 08583 32575 10721 10255 20162 40127 81500 333 10275 59009 81622;",
"08583099999","2010-12-23T00:00:00","4","16.8333333","-25.05","20.0","MINDELO, CV","FM-12","99999","V020","070,1,N,0062,1","01200,1,C,N","025000,1,N,1","+0235,1","+0173,1","10152,1",,,,"01,1,+00600,1,08,1",,,"05,99,1,05,1,08,1,00800,1,00,1,00,1",,"9,9,999,9,+000,1",,"SYN076AAXX  23004 08583 32575 50712 10235 20173 40152 85800 333 58000 81820 85622;",
"08583099999","2010-12-23T06:00:00","4","16.8333333","-25.05","20.0","MINDELO, CV","FM-12","99999","V020","060,1,N,0046,1","22000,1,9,N","025000,1,N,1","+0227,1","+0166,1","10135,1",,,,"04,1,+00600,1,06,1",,,"04,99,1,04,1,02,1,00800,1,00,1,00,1","999,N,+9999,9","9,9,999,9,-005,1",,"SYN076AAXX  23064 08583 32575 40609 10227 20166 40135 84200 333 20235 59005 84620;","Q01 +02352ATMN  "
"08583099999","2010-12-23T12:00:00","4","16.8333333","-25.05","20.0","MINDELO, CV","FM-12","99999","V020","060,1,N,0082,1","22000,1,9,N","025000,1,N,1","+0258,1","+0170,1","10149,1",,,,"03,1,+00600,1,06,1",,,"03,99,1,03,1,05,1,00800,1,00,1,00,1",,"9,9,999,9,-004,1",,"SYN070AAXX  23124 08583 32575 30616 10258 20170 40149 83500 333 59004 83620;",
"08583099999","2010-12-23T18:00:00","4","16.8333333","-25.05","20.0","MINDELO, CV","FM-12","99999","V020","050,1,N,0077,1","22000,1,9,N","030000,1,N,1","+0258,1","+0167,1","10125,1",,,,"02,1,+00660,1,06,1",,,"02,99,1,02,1,05,1,00800,1,00,1,00,1","120,M,+0280,1","9,9,999,9,-002,1",,"SYN076AAXX  23184 08583 32580 20515 10258 20167 40125 82500 333 10280 59002 82622;",
"08583099999","2010-12-24T00:00:00","4","16.8333333","-25.05","20.0","MINDELO, CV","FM-12","99999","V020","070,1,N,0072,1","22000,1,9,N","025000,1,N,1","+0236,1","+0165,1","10151,1",,,,"02,1,+00660,1,06,1",,,"02,99,1,02,1,05,1,00800,1,00,1,00,1",,"9,9,999,9,-001,1",,"SYN070AAXX  24004 08583 32575 20714 10236 20165 40151 82500 333 59001 82622;",
"08583099999","2010-12-24T06:00:00","4","16.8333333","-25.05","20.0","MINDELO, CV","FM-12","99999","V020","040,1,N,0067,1","00480,1,9,N","025000,1,N,1","+0230,1","+0177,1","10126,1",,,,"05,1,+00480,1,06,1",,,"05,99,1,99,9,02,1,00450,1,00,1,00,1","999,N,+0226,1","9,9,999,9,+006,1",,"SYN076AAXX  24064 08583 32475 50413 10230 20177 40126 87200 333 20226 58006 85616;","Q01+000072SCOTLC"
"08583099999","2010-12-24T12:00:00","4","16.8333333","-25.05","20.0","MINDELO, CV","FM-12","99999","V020","060,1,N,0077,1","22000,1,9,N","035000,1,N,1","+0268,1","+0167,1","10160,1",,,,"03,1,+00600,1,08,1",,,"03,99,1,03,1,02,1,00800,1,00,1,00,1",,"9,9,999,9,+011,1",,"SYN070AAXX  24124 08583 32581 30615 10268 20167 40160 83200 333 58011 83820;",
"08583099999","2010-12-24T18:00:00","4","16.8333333","-25.05","20.0","MINDELO, CV","FM-12","99999","V020","050,1,N,0103,1","22000,1,9,N","025000,1,N,1","+0260,1","+0160,1","10131,1",,,,"02,1,+00660,1,06,1",,,"02,99,1,02,1,02,1,00800,1,00,1,00,1","120,M,+0281,1","9,9,999,9,+006,1",,"SYN076AAXX  24184 08583 32575 20520 10260 20160 40131 82200 333 10281 58006 82622;",
"08583099999","2010-12-25T00:00:00","4","16.8333333","-25.05","20.0","MINDELO, CV","FM-12","99999","V020","050,1,N,0087,1","22000,1,9,N","025000,1,N,1","+0232,1","+0166,1","10154,1",,,,"01,1,+00660,1,06,1",,,"01,99,1,01,1,05,1,00800,1,00,1,00,1",,"9,9,999,9,+003,1",,"SYN070AAXX  25004 08583 32575 10517 10232 20166 40154 81500 333 58003 81622;",
"08583099999","2010-12-25T06:00:00","4","16.8333333","-25.05","20.0","MINDELO, CV","FM-12","99999","V020","070,1,N,0057,1","00660,1,9,N","025000,1,N,1","+0226,1","+0160,1","10149,1",,,,"05,1,+00660,1,06,1",,,"05,99,1,05,1,05,1,00800,1,00,1,00,1","999,N,+0225,1","9,9,999,9,+009,1",,"SYN076AAXX  25064 08583 32575 50711 10226 20160 40149 85500 333 20225 58009 85622;",
"08583099999","2010-12-25T12:00:00","4","16.8333333","-25.05","20.0","MINDELO, CV","FM-12","99999","V020","070,1,N,0082,1","22000,1,9,N","020000,1,N,1","+0265,1","+0156,1","10162,1",,,,"02,1,+00600,1,08,1",,,"04,99,1,04,1,08,1,00800,1,00,1,00,1",,"9,9,999,9,+002,1",,"SYN076AAXX  25124 08583 32570 40716 10265 20156 40162 84800 333 58002 82820 84623;",
"08583099999","2010-12-25T18:00:00","4","16.8333333","-25.05","20.0","MINDELO, CV","FM-12","99999","V020","060,1,N,0087,1","01200,1,C,N","020000,1,N,1","+0265,1","+0163,1","10138,1",,,,"04,1,+00690,1,08,1",,,"05,99,1,05,1,08,1,00800,1,00,1,00,1","120,M,+0275,1","9,9,999,9,+007,1",,"SYN076AAXX  25184 08583 32570 50617 10265 20163 40138 85800 333 10275 58007 84823;",
"08583099999","2010-12-26T00:00:00","4","16.8333333","-25.05","20.0","MINDELO, CV","FM-12","99999","V020","070,1,N,0046,1","01200,1,C,N","020000,1,N,1","+0238,1","+0156,1","10164,1",,,,"03,1,+00660,1,08,1",,,"07,99,1,07,1,08,1,00800,1,99,9,99,9",,"9,9,999,9,+010,1",,"SYN076AAXX  26004 08583 32570 70709 10238 20156 40164 878// 333 58010 83822 86628;",
"08583099999","2010-12-26T06:00:00","4","16.8333333","-25.05","20.0","MINDELO, CV","FM-12","99999","V020","060,1,N,0062,1","01200,1,C,N","020000,1,N,1","+0231,1","+0167,1","10148,1",,,,"03,1,+00660,1,08,1",,,"06,99,1,06,1,08,1,00800,1,99,9,99,9","999,N,+0225,1","9,9,999,9,-001,1",,"SYN082AAXX  26064 08583 32570 60612 10231 20167 40148 868// 333 20225 59001 83822 85628;",
"08583099999","2010-12-26T12:00:00","4","16.8333333","-25.05","20.0","MINDELO, CV","FM-12","99999","V020","080,1,N,0067,1","01200,1,C,N","020000,1,N,1","+0247,1","+0165,1","10163,1",,,,"03,1,+00750,1,08,1",,,"07,99,1,07,1,08,1,00800,1,99,9,99,9",,"9,9,999,9,+001,1",,"SYN076AAXX  26124 08583 32570 70813 10247 20165 40163 878// 333 58001 83825 86630;",
"08583099999","2010-12-27T00:00:00","4","16.8333333","-25.05","20.0","MINDELO, CV","FM-12","99999","V020","070,1,N,0036,1","22000,1,9,N","020000,1,N,1","+0228,1","+0165,1","10156,1",,,,"02,1,+00600,1,06,1",,,"99,99,9,01,1,05,1,00800,1,00,1,00,1",,"9,9,999,9,-008,1",,"SYN070AAXX  27004 08583 32570 10707 10228 20165 40156 81500 333 59008 82620;","Q01+000012SCOTCV"
"08583099999","2010-12-27T18:00:00","4","16.8333333","-25.05","20.0","MINDELO, CV","FM-12","99999","V020","060,1,N,0072,1","22000,1,9,N","020000,1,N,1","+0255,1","+0162,1","10125,1",,,,"02,1,+00690,1,06,1",,,"02,99,1,02,1,05,1,00800,1,00,1,00,1","120,M,+0280,1","9,9,999,9,-004,1",,"SYN076AAXX  27184 08583 32570 20614 10255 20162 40125 82500 333 10280 59004 82623;",
"08583099999","2010-12-28T00:00:00","4","16.8333333","-25.05","20.0","MINDELO, CV","FM-12","99999","V020","060,1,N,0036,1","22000,1,9,N","020000,1,N,1","+0228,1","+0171,1","10147,1",,,,"02,1,+00690,1,06,1",,,"02,99,1,02,1,05,1,00800,1,00,1,00,1",,"9,9,999,9,-009,1",,"SYN070AAXX  28004 08583 32570 20607 10228 20171 40147 82500 333 59009 82623;",
"08583099999","2010-12-28T06:00:00","4","16.8333333","-25.05","20.0","MINDELO, CV","FM-12","99999","V020","060,1,N,0090,1","22000,1,9,N","020000,1,N,1","+0225,1","+0167,1","10127,1",,,,"02,1,+00660,1,08,1",,,"02,99,1,02,1,02,1,00800,1,00,1,00,1","999,N,+0218,1","9,9,999,9,-005,1",,"SYN076AAXX  28060 08583 32570 20609 10225 20167 40127 82200 333 20218 59005 82822;",
"08583099999","2010-12-28T12:00:00","4","16.8333333","-25.05","20.0","MINDELO, CV","FM-12","99999","V020","060,1,N,0103,1","22000,1,9,N","025000,1,N,1","+0261,1","+0150,1","10135,1",,,,"01,1,+00690,1,06,1",,,"01,99,1,01,1,05,1,00800,1,00,1,00,1",,"9,9,999,9,-016,1",,"SYN070AAXX  28124 08583 32575 10620 10261 20150 40135 81500 333 59016 81623;",
"08583099999","2010-12-28T18:00:00","4","16.8333333","-25.05","20.0","MINDELO, CV","FM-12","99999","V020","070,1,N,0108,1","22000,1,9,N","025000,1,N,1","+0252,1","+0147,1","10112,1",,,,"01,1,+00720,1,08,1",,,"01,99,1,01,1,01,1,00450,1,00,1,00,1","120,M,+0276,1","9,9,999,9,-013,1",,"SYN076AAXX  28184 08583 32475 10721 10252 20147 40112 81100 333 10276 59013 81824;",
"08583099999","2010-12-29T06:00:00","4","16.8333333","-25.05","20.0","MINDELO, CV","FM-12","99999","V020","070,1,N,0051,1","22000,1,9,N","020000,1,N,1","+0217,1","+0161,1","10128,1",,,,"02,1,+00720,1,06,1",,,"02,99,1,02,1,05,1,00800,1,00,1,00,1","999,N,+0208,1","9,9,999,9,+001,1",,"SYN076AAXX  29064 08583 32570 20710 10217 20161 40128 82500 333 20208 58001 82624;",
"08583099999","2010-12-29T12:00:00","4","16.8333333","-25.05","20.0","MINDELO, CV","FM-12","99999","V020","050,1,N,0082,1","22000,1,9,N","030000,1,N,1","+0257,1","+0156,1","10140,1",,,,"01,1,+00690,1,08,1",,,"01,99,1,01,1,01,1,00800,1,00,1,00,1",,"9,9,999,9,+005,1",,"SYN070AAXX  29124 08583 32580 10516 10257 20156 40140 81100 333 58005 81823;",
"08583099999","2010-12-29T18:00:00","4","16.8333333","-25.05","20.0","MINDELO, CV","FM-12","99999","V020","070,1,N,0082,1","22000,1,9,N","025000,1,N,1","+0255,1","+0161,1","10110,1",,,,"02,1,+00690,1,06,1",,,"02,99,1,02,1,01,1,00800,1,00,1,00,1","120,M,+0271,1","9,9,999,9,+001,1",,"SYN076AAXX  29184 08583 32575 20716 10255 20161 40110 82100 333 10271 58001 82623;",
"08583099999","2010-12-30T00:00:00","4","16.8333333","-25.05","20.0","MINDELO, CV","FM-12","99999","V020","070,1,N,0067,1","22000,1,9,N","020000,1,N,1","+0222,1","+0155,1","10142,1",,,,"01,1,+00750,1,06,1",,,"01,99,1,01,1,05,1,00800,1,00,1,00,1",,"9,9,999,9,+000,1",,"SYN070AAXX  30004 08583 32570 10713 10222 20155 40142 81500 333 58000 81625;",
"08583099999","2010-12-30T06:00:00","4","16.8333333","-25.05","20.0","MINDELO, CV","FM-12","99999","V020","070,1,N,0067,1","22000,1,9,N","020000,1,N,1","+0217,1","+0157,1","10129,1",,,,"02,1,+00750,1,06,1",,,"02,99,1,02,1,05,1,00800,1,00,1,00,1","999,N,+0211,1","9,9,999,9,+001,1",,"SYN076AAXX  30064 08583 32570 20713 10217 20157 40129 82500 333 20211 58001 82625;",
"08583099999","2010-12-30T12:00:00","4","16.8333333","-25.05","20.0","MINDELO, CV","FM-12","99999","V020","060,1,N,0098,1","22000,1,9,N","020000,1,N,1","+0260,1","+0163,1","10146,1",,,,"02,1,+00660,1,06,1",,,"02,99,1,02,1,05,1,00800,1,00,1,00,1",,"9,9,999,9,+006,1",,"SYN070AAXX  30124 08583 32570 20619 10260 20163 40146 82500 333 58006 82622;",
"08583099999","2010-12-30T18:00:00","4","16.8333333","-25.05","20.0","MINDELO, CV","FM-12","99999","V020","060,1,N,0103,1","22000,1,9,N","020000,1,N,1","+0250,1","+0172,1","10123,1",,,,"01,1,+00720,1,06,1",,,"01,99,1,01,1,05,1,00800,1,00,1,00,1","120,M,+0270,1","9,9,999,9,+023,1",,"SYN076AAXX  30184 08583 32570 10620 10250 20172 40123 81500 333 10270 58023 81624;",
"08583099999","2010-12-31T00:00:00","4","16.8333333","-25.05","20.0","MINDELO, CV","FM-12","99999","V020","060,1,N,0108,1","22000,1,9,N","020000,1,N,1","+0230,1","+0180,1","10151,1",,,,"02,1,+00600,1,08,1",,,"02,99,1,02,1,02,1,00800,1,00,1,00,1",,"9,9,999,9,+010,1",,"SYN070AAXX  31004 08583 32570 20621 10230 20180 40151 82200 333 58010 82820;",
"08583099999","2010-12-31T06:00:00","4","16.8333333","-25.05","20.0","MINDELO, CV","FM-12","99999","V020","060,1,N,0062,1","22000,1,9,N","020000,1,N,1","+0225,1","+0180,1","10136,1",,,,"02,1,+00660,1,06,1",,,"03,99,1,02,1,05,1,00800,1,00,1,01,1","999,N,+0213,1","9,9,999,9,+007,1",,"SYN076AAXX  31064 08583 32570 30612 10225 20180 40136 82501 333 20213 58007 82622;",
"08583099999","2010-12-31T12:00:00","4","16.8333333","-25.05","20.0","MINDELO, CV","FM-12","99999","V020","060,1,N,0123,1","22000,1,9,N","018000,1,N,1","+0257,1","+0175,1","10150,1",,,,"01,1,+00660,1,08,1",,,"01,99,1,01,1,01,1,00800,1,00,1,00,1",,"9,9,999,9,+004,1",,"SYN070AAXX  31124 08583 32568 10624 10257 20175 40150 81100 333 58004 81822;",
"08583099999","2010-12-31T18:00:00","4","16.8333333","-25.05","20.0","MINDELO, CV","FM-12","99999","V020","060,1,N,0139,1","22000,1,9,N","015000,1,N,1","+0250,1","+0180,1","10121,1",,,,"02,1,+00600,1,08,1",,,"02,99,1,02,1,02,1,00800,1,00,1,00,1","120,M,+0272,1","9,9,999,9,-002,1",,"SYN076AAXX  31184 08583 32565 20627 10250 20180 40121 82200 333 10272 59002 82820;",
