"STATION","DATE","SOURCE","LATITUDE","LONGITUDE","ELEVATION","NAME","REPORT_TYPE","CALL_SIGN","QUALITY_CONTROL","WND","CIG","VIS","TMP","DEW","SLP","GA1","GA2","GA3","GF1","MA1","MW1","MW2","OC1","REM","EQD"
"08594499999","2010-01-01T13:00:00","4","16.136531","-22.888897","21.03","BOA VISTA RABIL, CV","FM-15","GVBA ","V020","050,1,N,0087,1","22000,1,9,N","011265,1,N,1","+0260,1","+0190,1","99999,9","04,5,+00450,1,99,9",,,"04,99,1,99,9,99,9,99999,9,99,9,99,9","10139,1,99999,9",,,,"MET057METAR GVBA 011300Z 05017KT 9999 SCT015 26/19 Q1014 NOSIG;",
"08594499999","2010-02-14T17:00:00","4","16.136531","-22.888897","21.03","BOA VISTA RABIL, CV","FM-15","GVBA ","V020","320,1,N,0046,1","22000,1,9,N","011265,1,N,1","+0260,1","+0190,1","99999,9","02,5,+00420,1,99,9",,,"02,99,1,99,9,99,9,99999,9,99,9,99,9","10119,1,99999,9",,,,"MET057METAR GVBA 141700Z 32009KT 9999 FEW014 26/19 Q1012 NOSIG;",
"08594499999","2010-02-23T17:00:00","4","16.136531","-22.888897","21.03","BOA VISTA RABIL, CV","FM-15","GVBA ","V020","020,1,N,0082,1","22000,1,9,N","011265,1,N,1","+0270,1","+0200,1","99999,9","02,5,+00450,1,99,9",,,"02,99,1,99,9,99,9,99999,9,99,9,99,9","10129,1,99999,9",,,,"MET057METAR GVBA 231700Z 02016KT 9999 FEW015 27/20 Q1013 NOSIG;",
"08594499999","2010-03-05T15:00:00","4","16.136531","-22.888897","21.03","BOA VISTA RABIL, CV","FM-15","GVBA ","V020","050,1,N,0093,1","00450,1,C,N","011265,1,N,1","+0260,1","+0170,1","99999,9","07,5,+00450,1,99,9",,,"07,99,1,99,9,99,9,99999,9,99,9,99,9","10139,1,99999,9",,,,"MET057METAR GVBA 051500Z 05018KT 9999 BKN015 26/17 Q1014 NOSIG;",
"08594499999","2010-04-06T14:00:00","4","16.136531","-22.888897","21.03","BOA VISTA RABIL, CV","FM-15","GVBA ","V020","030,1,N,0067,1","00450,1,C,N","011265,1,N,1","+0270,1","+0180,1","99999,9","07,5,+00450,1,99,9",,,"07,99,1,99,9,99,9,99999,9,99,9,99,9","10129,1,99999,9",,,,"MET057METAR GVBA 061400Z 03013KT 9999 BKN015 27/18 Q1013 NOSIG;",
"08594499999","2010-04-15T16:00:00","4","16.136531","-22.888897","21.03","BOA VISTA RABIL, CV","FM-15","GVBA ","V020","020,1,N,0051,1","99999,9,C,N","011265,1,N,1","+0280,1","+0160,1","99999,9","02,5,+00450,1,99,9","04,5,+06000,1,99,9",,"04,99,1,99,9,99,9,99999,9,99,9,99,9","10119,1,99999,9",,,,"MET064METAR GVBA 151600Z 02010KT 9999 FEW015 SCT200 28/16 Q1012 NOSIG;","P01 060003SCOCIG"
"08594499999","2010-04-16T13:00:00","4","16.136531","-22.888897","21.03","BOA VISTA RABIL, CV","FM-15","GVBA ","V020","040,1,N,0072,1","22000,1,9,N","011265,1,N,1","+0290,1","+0160,1","99999,9","04,5,+00450,1,99,9",,,"04,99,1,99,9,99,9,99999,9,99,9,99,9","10139,1,99999,9",,,,"MET057METAR GVBA 161300Z 04014KT 9999 SCT015 29/16 Q1014 NOSIG;",
"08594499999","2010-04-30T18:00:00","4","16.136531","-22.888897","21.03","BOA VISTA RABIL, CV","FM-15","GVBA ","V020","030,1,N,0072,1","06000,1,C,N","011265,1,N,1","+0270,1","+0200,1","99999,9","02,5,+00450,1,99,9","07,5,+06000,1,99,9",,"07,99,1,99,9,99,9,99999,9,99,9,99,9","10108,1,99999,9",,,,"MET064METAR GVBA 301800Z 03014KT 9999 FEW015 BKN200 27/20 Q1011 NOSIG;",
"08594499999","2010-05-01T17:00:00","4","16.136531","-22.888897","21.03","BOA VISTA RABIL, CV","FM-15","GVBA ","V020","030,1,N,0062,1","22000,1,9,N","011265,1,N,1","+0270,1","+0190,1","99999,9","04,5,+00450,1,99,9",,,"04,99,1,99,9,99,9,99999,9,99,9,99,9","10129,1,99999,9",,,,"MET057METAR GVBA 011700Z 03012KT 9999 SCT015 27/19 Q1013 NOSIG;",
"08594499999","2010-05-02T08:00:00","4","16.136531","-22.888897","21.03","BOA VISTA RABIL, CV","FM-15","GVBA ","V020","040,1,N,0041,1","00450,1,C,N","011265,1,N,1","+0240,1","+0180,1","99999,9","07,5,+00450,1,99,9",,,"07,99,1,99,9,99,9,99999,9,99,9,99,9","10159,1,99999,9",,,,"MET057METAR GVBA 020800Z 04008KT 9999 BKN015 24/18 Q1016 NOSIG;",
"08594499999","2010-05-12T19:00:00","4","16.136531","-22.888897","21.03","BOA VISTA RABIL, CV","FM-15","GVBA ","V020","050,1,N,0087,1","00450,1,C,N","011265,1,N,1","+0260,1","+0190,1","99999,9","07,5,+00450,1,99,9",,,"07,99,1,99,9,99,9,99999,9,99,9,99,9","10139,1,99999,9",,,,"MET057METAR GVBA 121900Z 05017KT 9999 BKN015 26/19 Q1014 NOSIG;",
"08594499999","2010-05-15T14:00:00","4","16.136531","-22.888897","21.03","BOA VISTA RABIL, CV","FM-15","GVBA ","V020","040,1,N,0103,1","22000,1,9,N","011265,1,N,1","+0270,1","+0180,1","99999,9","04,5,+00450,1,99,9",,,"04,99,1,99,9,99,9,99999,9,99,9,99,9","10149,1,99999,9",,,,"MET057METAR GVBA 151400Z 04020KT 9999 SCT015 27/18 Q1015 NOSIG;",
"08594499999","2010-05-21T16:00:00","4","16.136531","-22.888897","21.03","BOA VISTA RABIL, CV","FM-15","GVBA ","V020","030,1,N,0087,1","99999,9,9,Y","009900,1,N,1","+0270,1","+0190,1","99999,9",,,,,"10129,1,99999,9",,,,"MET051METAR GVBA 211600Z 03017KT CAVOK 27/19 Q1013 NOSIG;",
"08594499999","2010-05-22T13:00:00","4","16.136531","-22.888897","21.03","BOA VISTA RABIL, CV","FM-15","GVBA ","V020","030,1,N,0067,1","22000,1,9,N","011265,1,N,1","+0270,1","+0200,1","99999,9","02,5,+00450,1,99,9",,,"02,99,1,99,9,99,9,99999,9,99,9,99,9","10129,1,99999,9",,,,"MET057METAR GVBA 221300Z 03013KT 9999 FEW015 27/20 Q1013 NOSIG;",
"08594499999","2010-06-01T11:00:00","4","16.136531","-22.888897","21.03","BOA VISTA RABIL, CV","FM-15","GVBA ","V020","360,1,N,0057,1","00450,1,C,N","011265,1,N,1","+0260,1","+0190,1","99999,9","07,5,+00450,1,99,9",,,"07,99,1,99,9,99,9,99999,9,99,9,99,9","10149,1,99999,9",,,,"MET057METAR GVBA 011100Z 36011KT 9999 BKN015 26/19 Q1015 NOSIG;",
"08594499999","2010-06-20T11:00:00","4","16.136531","-22.888897","21.03","BOA VISTA RABIL, CV","FM-15","GVBA ","V020","020,1,N,0082,1","00450,1,C,N","008000,1,N,1","+0270,1","+0220,1","99999,9","07,5,+00450,1,99,9",,,"07,99,1,99,9,99,9,99999,9,99,9,99,9","10119,1,99999,9",,,,"MET057METAR GVBA 201100Z 02016KT 8000 BKN015 27/22 Q1012 NOSIG;",
"08594499999","2010-07-07T10:00:00","4","16.136531","-22.888897","21.03","BOA VISTA RABIL, CV","FM-15","GVBA ","V020","030,1,N,0093,1","00450,1,C,N","011265,1,N,1","+0260,1","+0200,1","99999,9","07,5,+00450,1,99,9",,,"07,99,1,99,9,99,9,99999,9,99,9,99,9","10129,1,99999,9",,,,"MET057METAR GVBA 071000Z 03018KT 9999 BKN015 26/20 Q1013 NOSIG;",
"08594499999","2010-07-07T11:00:00","4","16.136531","-22.888897","21.03","BOA VISTA RABIL, CV","FM-15","GVBA ","V020","020,1,N,0103,1","00450,1,C,N","011265,1,N,1","+0270,1","+0200,1","99999,9","07,5,+00450,1,99,9",,,"07,99,1,99,9,99,9,99999,9,99,9,99,9","10129,1,99999,9",,,,"MET057METAR GVBA 071100Z 02020KT 9999 BKN015 27/20 Q1013 NOSIG;",
"08594499999","2010-07-07T12:00:00","4","16.136531","-22.888897","21.03","BOA VISTA RABIL, CV","FM-15","GVBA ","V020","020,1,N,0093,1","00450,1,C,N","011265,1,N,1","+0270,1","+0200,1","99999,9","07,5,+00450,1,99,9",,,"07,99,1,99,9,99,9,99999,9,99,9,99,9","10129,1,99999,9",,,,"MET057METAR GVBA 071200Z 02018KT 9999 BKN015 27/20 Q1013 NOSIG;",
"08594499999","2010-07-07T13:00:00","4","16.136531","-22.888897","21.03","BOA VISTA RABIL, CV","FM-15","GVBA ","V020","020,1,N,0093,1","00450,1,C,N","011265,1,N,1","+0280,1","+0210,1","99999,9","07,5,+00450,1,99,9",,,"07,99,1,99,9,99,9,99999,9,99,9,99,9","10119,1,99999,9",,,,"MET057METAR GVBA 071300Z 02018KT 9999 BKN015 28/21 Q1012 NOSIG;",
"08594499999","2010-07-07T14:00:00","4","16.136531","-22.888897","21.03","BOA VISTA RABIL, CV","FM-15","GVBA ","V020","010,1,N,0098,1","22000,1,9,N","011265,1,N,1","+0280,1","+0200,1","99999,9","04,5,+00450,1,99,9",,,"04,99,1,99,9,99,9,99999,9,99,9,99,9","10119,1,99999,9",,,,"MET057METAR GVBA 071400Z 01019KT 9999 SCT015 28/20 Q1012 NOSIG;",
"08594499999","2010-07-07T15:00:00","4","16.136531","-22.888897","21.03","BOA VISTA RABIL, CV","FM-15","GVBA ","V020","360,1,N,0098,1","22000,1,9,N","011265,1,N,1","+0280,1","+0210,1","99999,9","04,5,+00450,1,99,9",,,"04,99,1,99,9,99,9,99999,9,99,9,99,9","10108,1,99999,9",,,,"MET057METAR GVBA 071500Z 36019KT 9999 SCT015 28/21 Q1011 NOSIG;",
"08594499999","2010-07-07T16:00:00","4","16.136531","-22.888897","21.03","BOA VISTA RABIL, CV","FM-15","GVBA ","V020","020,1,N,0103,1","22000,1,9,N","011265,1,N,1","+0280,1","+0210,1","99999,9","04,5,+00450,1,99,9",,,"04,99,1,99,9,99,9,99999,9,99,9,99,9","10108,1,99999,9",,,,"MET057METAR GVBA 071600Z 02020KT 9999 SCT015 28/21 Q1011 NOSIG;",
"08594499999","2010-07-07T17:00:00","4","16.136531","-22.888897","21.03","BOA VISTA RABIL, CV","FM-15","GVBA ","V020","010,1,N,0103,1","22000,1,9,N","011265,1,N,1","+0270,1","+0210,1","99999,9","04,5,+00450,1,99,9",,,"04,99,1,99,9,99,9,99999,9,99,9,99,9","10102,1,99999,9",,,,"MET057METAR GVBA 071700Z 01020KT 9999 SCT015 27/21 Q1010 NOSIG;",
"08594499999","2010-07-07T18:00:00","4","16.136531","-22.888897","21.03","BOA VISTA RABIL, CV","FM-15","GVBA ","V020","020,1,N,0103,1","22000,1,9,N","011265,1,N,1","+0270,1","+0210,1","99999,9","04,5,+00450,1,99,9",,,"04,99,1,99,9,99,9,99999,9,99,9,99,9","10102,1,99999,9",,,,"MET057METAR GVBA 071800Z 02020KT 9999 SCT015 27/21 Q1010 NOSIG;",
"08594499999","2010-07-07T19:00:00","4","16.136531","-22.888897","21.03","BOA VISTA RABIL, CV","FM-15","GVBA ","V020","010,1,N,0108,1","22000,1,9,N","011265,1,N,1","+0260,1","+0210,1","99999,9","04,5,+00450,1,99,9",,,"04,99,1,99,9,99,9,99999,9,99,9,99,9","10102,1,99999,9",,,,"MET057METAR GVBA 071900Z 01021KT 9999 SCT015 26/21 Q1010 NOSIG;",
"08594499999","2010-07-08T08:00:00","4","16.136531","-22.888897","21.03","BOA VISTA RABIL, CV","FM-15","GVBA ","V020","020,1,N,0062,1","00450,1,C,N","011265,1,N,1","+0250,1","+0200,1","99999,9","07,5,+00450,1,99,9",,,"07,99,1,99,9,99,9,99999,9,99,9,99,9","10119,1,99999,9",,,,"MET057METAR GVBA 080800Z 02012KT 9999 BKN015 25/20 Q1012 NOSIG;",
"08594499999","2010-07-08T09:00:00","4","16.136531","-22.888897","21.03","BOA VISTA RABIL, CV","FM-15","GVBA ","V020","010,1,N,0051,1","00450,1,C,N","011265,1,N,1","+0250,1","+0200,1","99999,9","07,5,+00450,1,99,9",,,"07,99,1,99,9,99,9,99999,9,99,9,99,9","10129,1,99999,9",,,,"MET057METAR GVBA 080900Z 01010KT 9999 BKN015 25/20 Q1013 NOSIG;",
"08594499999","2010-07-08T10:00:00","4","16.136531","-22.888897","21.03","BOA VISTA RABIL, CV","FM-15","GVBA ","V020","030,1,N,0051,1","00510,1,C,N","011265,1,N,1","+0260,1","+0200,1","99999,9","04,5,+00450,1,99,9","07,5,+00510,1,99,9",,"07,99,1,99,9,99,9,99999,9,99,9,99,9","10129,1,99999,9",,,,"MET064METAR GVBA 081000Z 03010KT 9999 SCT015 BKN017 26/20 Q1013 NOSIG;",
"08594499999","2010-07-08T11:00:00","4","16.136531","-22.888897","21.03","BOA VISTA RABIL, CV","FM-15","GVBA ","V020","020,1,N,0057,1","00450,1,C,N","011265,1,N,1","+0260,1","+0200,1","99999,9","07,5,+00450,1,99,9","07,5,+03000,1,99,9",,"07,99,1,99,9,99,9,99999,9,99,9,99,9","10139,1,99999,9",,,,"MET064METAR GVBA 081100Z 02011KT 9999 BKN015 BKN100 26/20 Q1014 NOSIG;",
"08594499999","2010-07-08T12:00:00","4","16.136531","-22.888897","21.03","BOA VISTA RABIL, CV","FM-15","GVBA ","V020","030,1,N,0041,1","00450,1,C,N","011265,1,N,1","+0260,1","+0200,1","99999,9","07,5,+00450,1,99,9","07,5,+03000,1,99,9",,"07,99,1,99,9,99,9,99999,9,99,9,99,9","10139,1,99999,9",,,,"MET064METAR GVBA 081200Z 03008KT 9999 BKN015 BKN100 26/20 Q1014 NOSIG;",
"08594499999","2010-07-08T13:00:00","4","16.136531","-22.888897","21.03","BOA VISTA RABIL, CV","FM-15","GVBA ","V020","030,1,N,0036,1","00450,1,C,N","011265,1,N,1","+0270,1","+0200,1","99999,9","07,5,+00450,1,99,9","07,5,+03000,1,99,9",,"07,99,1,99,9,99,9,99999,9,99,9,99,9","10129,1,99999,9",,,,"MET064METAR GVBA 081300Z 03007KT 9999 BKN015 BKN100 27/20 Q1013 NOSIG;",
"08594499999","2010-07-08T14:00:00","4","16.136531","-22.888897","21.03","BOA VISTA RABIL, CV","FM-15","GVBA ","V020","040,1,N,0041,1","00450,1,C,N","011265,1,N,1","+0280,1","+0200,1","99999,9","07,5,+00450,1,99,9",,,"07,99,1,99,9,99,9,99999,9,99,9,99,9","10129,1,99999,9",,,,"MET057METAR GVBA 081400Z 04008KT 9999 BKN015 28/20 Q1013 NOSIG;",
"08594499999","2010-07-08T15:00:00","4","16.136531","-22.888897","21.03","BOA VISTA RABIL, CV","FM-15","GVBA ","V020","040,1,N,0062,1","00450,1,C,N","011265,1,N,1","+0280,1","+0200,1","99999,9","07,5,+00450,1,99,9",,,"07,99,1,99,9,99,9,99999,9,99,9,99,9","10119,1,99999,9",,,,"MET057METAR GVBA 081500Z 04012KT 9999 BKN015 28/20 Q1012 NOSIG;",
"08594499999","2010-07-08T16:00:00","4","16.136531","-22.888897","21.03","BOA VISTA RABIL, CV","FM-15","GVBA ","V020","040,1,N,0077,1","00450,1,C,N","011265,1,N,1","+0270,1","+0200,1","99999,9","07,5,+00450,1,99,9",,,"07,99,1,99,9,99,9,99999,9,99,9,99,9","10119,1,99999,9",,,,"MET057METAR GVBA 081600Z 04015KT 9999 BKN015 27/20 Q1012 NOSIG;",
"08594499999","2010-07-08T17:00:00","4","16.136531","-22.888897","21.03","BOA VISTA RABIL, CV","FM-15","GVBA ","V020","050,1,N,0051,1","00450,1,C,N","011265,1,N,1","+0280,1","+0200,1","99999,9","07,5,+00450,1,99,9",,,"07,99,1,99,9,99,9,99999,9,99,9,99,9","10119,1,99999,9",,,,"MET057METAR GVBA 081700Z 05010KT 9999 BKN015 28/20 Q1012 NOSIG;",
"08594499999","2010-07-08T19:00:00","4","16.136531","-22.888897","21.03","BOA VISTA RABIL, CV","FM-15","GVBA ","V020","060,1,N,0046,1","00450,1,C,N","011265,1,N,1","+0260,1","+0200,1","99999,9","08,5,+00450,1,99,9",,,"08,99,1,99,9,99,9,99999,9,99,9,99,9","10119,1,99999,9",,,,"MET057METAR GVBA 081900Z 06009KT 9999 OVC015 26/20 Q1012 NOSIG;",
"08594499999","2010-07-09T08:00:00","4","16.136531","-22.888897","21.03","BOA VISTA RABIL, CV","FM-15","GVBA ","V020","999,9,V,0015,1","22000,1,9,N","009000,1,N,1","+0230,1","+0220,1","99999,9","02,5,+00390,1,99,9",,,"02,99,1,99,9,99,9,99999,9,99,9,99,9","10149,1,99999,9",,,,"MET057METAR GVBA 090800Z VRB03KT 9000 FEW013 23/22 Q1015 NOSIG;",
"08594499999","2010-07-09T09:00:00","4","16.136531","-22.888897","21.03","BOA VISTA RABIL, CV","FM-15","GVBA ","V020","999,9,V,0010,1","22000,1,9,N","011265,1,N,1","+0250,1","+0220,1","99999,9","02,5,+00390,1,99,9",,,"02,99,1,99,9,99,9,99999,9,99,9,99,9","10149,1,99999,9",,,,"MET057METAR GVBA 090900Z VRB02KT 9999 FEW013 25/22 Q1015 NOSIG;",
"08594499999","2010-07-09T10:00:00","4","16.136531","-22.888897","21.03","BOA VISTA RABIL, CV","FM-15","GVBA ","V020","080,1,N,0036,1","00420,1,C,N","011265,1,N,1","+0270,1","+0220,1","99999,9","07,5,+00420,1,99,9",,,"07,99,1,99,9,99,9,99999,9,99,9,99,9","10159,1,99999,9",,,,"MET057METAR GVBA 091000Z 08007KT 9999 BKN014 27/22 Q1016 NOSIG;",
"08594499999","2010-07-09T12:00:00","4","16.136531","-22.888897","21.03","BOA VISTA RABIL, CV","FM-15","GVBA ","V020","999,9,9,9999,9","00420,5,9,N","011265,1,N,1","+0290,1","+0220,1","99999,9","07,5,+00420,5,99,9",,,,"10160,1,99999,9",,,,"MET056METAR GVBA 091200Z 06012T 9999 BKN014 29/22 Q1016 NOSIG;",
"08594499999","2010-07-09T13:00:00","4","16.136531","-22.888897","21.03","BOA VISTA RABIL, CV","FM-15","GVBA ","V020","999,9,9,9999,9","00420,5,9,N","011265,1,N,1","+0300,1","+0220,1","99999,9","07,5,+00420,5,99,9",,,,"10160,1,99999,9",,,,"MET056METAR GVBA 091300Z 08008T 9999 BKN014 30/22 Q1016 NOSIG;",
"08594499999","2010-07-09T14:00:00","4","16.136531","-22.888897","21.03","BOA VISTA RABIL, CV","FM-15","GVBA ","V020","070,1,N,0031,1","00450,1,C,N","011265,1,N,1","+0310,1","+0210,1","99999,9","07,5,+00450,1,99,9",,,"07,99,1,99,9,99,9,99999,9,99,9,99,9","10149,1,99999,9",,,,"MET057METAR GVBA 091400Z 07006KT 9999 BKN015 31/21 Q1015 NOSIG;",
"08594499999","2010-07-09T15:00:00","4","16.136531","-22.888897","21.03","BOA VISTA RABIL, CV","FM-15","GVBA ","V020","270,1,N,0067,1","22000,1,9,N","011265,1,N,1","+0300,1","+0220,1","99999,9","04,5,+00450,1,99,9",,,"04,99,1,99,9,99,9,99999,9,99,9,99,9","10139,1,99999,9",,,,"MET057METAR GVBA 091500Z 27013KT 9999 SCT015 30/22 Q1014 NOSIG;",
"08594499999","2010-07-09T16:00:00","4","16.136531","-22.888897","21.03","BOA VISTA RABIL, CV","FM-15","GVBA ","V020","290,1,N,0062,1","22000,1,9,N","011265,1,N,1","+0300,1","+0230,1","99999,9","04,5,+00450,1,99,9",,,"04,99,1,99,9,99,9,99999,9,99,9,99,9","10129,1,99999,9",,,,"MET057METAR GVBA 091600Z 29012KT 9999 SCT015 30/23 Q1013 NOSIG;",
"08594499999","2010-07-09T17:00:00","4","16.136531","-22.888897","21.03","BOA VISTA RABIL, CV","FM-15","GVBA ","V020","310,1,N,0062,1","22000,1,9,N","011265,1,N,1","+0290,1","+0230,1","99999,9","04,5,+00450,1,99,9",,,"04,99,1,99,9,99,9,99999,9,99,9,99,9","10129,1,99999,9",,,,"MET057METAR GVBA 091700Z 31012KT 9999 SCT015 29/23 Q1013 NOSIG;",
"08594499999","2010-07-09T18:00:00","4","16.136531","-22.888897","21.03","BOA VISTA RABIL, CV","FM-15","GVBA ","V020","320,1,N,0051,1","22000,1,9,N","011265,1,N,1","+0280,1","+0220,1","99999,9","04,5,+00450,1,99,9",,,"04,99,1,99,9,99,9,99999,9,99,9,99,9","10139,1,99999,9",,,,"MET057METAR GVBA 091800Z 32010KT 9999 SCT015 28/22 Q1014 NOSIG;",
"08594499999","2010-07-09T19:00:00","4","16.136531","-22.888897","21.03","BOA VISTA RABIL, CV","FM-15","GVBA ","V020","290,1,N,0067,1","06000,1,C,N","011265,1,N,1","+0270,1","+0220,1","99999,9","04,5,+00450,1,99,9","07,5,+06000,1,99,9",,"07,99,1,99,9,99,9,99999,9,99,9,99,9","10139,1,99999,9",,,,"MET064METAR GVBA 091900Z 29013KT 9999 SCT015 BKN200 27/22 Q1014 NOSIG;",
"08594499999","2010-07-10T07:00:00","4","16.136531","-22.888897","21.03","BOA VISTA RABIL, CV","FM-15","GVBA ","V020","010,1,N,0021,1","03000,1,C,N","009000,1,N,1","+0240,1","+0220,1","99999,9","02,5,+00450,1,99,9","07,5,+03000,1,99,9",,"07,99,1,99,9,99,9,99999,9,99,9,99,9","10129,1,99999,9",,,,"MET064METAR GVBA 100700Z 01004KT 9000 FEW015 BKN100 24/22 Q1013 NOSIG;",
"08594499999","2010-07-10T08:00:00","4","16.136531","-22.888897","21.03","BOA VISTA RABIL, CV","FM-15","GVBA ","V020","010,1,N,0031,1","99999,9,C,N","009000,1,N,1","+0240,1","+0220,1","99999,9","04,5,+00450,1,99,9","04,5,+03000,1,99,9",,"04,99,1,99,9,99,9,99999,9,99,9,99,9","10139,1,99999,9",,,,"MET064METAR GVBA 100800Z 01006KT 9000 SCT015 SCT100 24/22 Q1014 NOSIG;","P01 030003SCOCIG"
"08594499999","2010-07-10T09:00:00","4","16.136531","-22.888897","21.03","BOA VISTA RABIL, CV","FM-15","GVBA ","V020","020,1,N,0041,1","00450,1,C,N","011265,1,N,1","+0250,1","+0220,1","99999,9","07,5,+00450,1,99,9",,,"07,99,1,99,9,99,9,99999,9,99,9,99,9","10139,1,99999,9",,,,"MET057METAR GVBA 100900Z 02008KT 9999 BKN015 25/22 Q1014 NOSIG;",
"08594499999","2010-07-10T10:00:00","4","16.136531","-22.888897","21.03","BOA VISTA RABIL, CV","FM-15","GVBA ","V020","020,1,N,0051,1","00600,1,C,N","011265,1,N,1","+0260,1","+0210,1","99999,9","04,5,+00450,1,99,9","07,5,+00600,1,99,9",,"07,99,1,99,9,99,9,99999,9,99,9,99,9","10139,1,99999,9",,,,"MET064METAR GVBA 101000Z 02010KT 9999 SCT015 BKN020 26/21 Q1014 NOSIG;",
"08594499999","2010-07-10T11:00:00","4","16.136531","-22.888897","21.03","BOA VISTA RABIL, CV","FM-15","GVBA ","V020","010,1,N,0051,1","00600,1,C,N","011265,1,N,1","+0270,1","+0210,1","99999,9","04,5,+00450,1,99,9","07,5,+00600,1,99,9",,"07,99,1,99,9,99,9,99999,9,99,9,99,9","10139,1,99999,9",,,,"MET064METAR GVBA 101100Z 01010KT 9999 SCT015 BKN020 27/21 Q1014 NOSIG;",
"08594499999","2010-07-10T12:00:00","4","16.136531","-22.888897","21.03","BOA VISTA RABIL, CV","FM-15","GVBA ","V020","010,1,N,0051,1","00510,1,C,N","011265,1,N,1","+0280,1","+0210,1","99999,9","04,5,+00450,1,99,9","07,5,+00510,1,99,9",,"07,99,1,99,9,99,9,99999,9,99,9,99,9","10139,1,99999,9",,,,"MET064METAR GVBA 101200Z 01010KT 9999 SCT015 BKN017 28/21 Q1014 NOSIG;",
"08594499999","2010-07-10T13:00:00","4","16.136531","-22.888897","21.03","BOA VISTA RABIL, CV","FM-15","GVBA ","V020","360,1,N,0041,1","00450,1,C,N","011265,1,N,1","+0290,1","+0210,1","99999,9","07,5,+00450,1,99,9",,,"07,99,1,99,9,99,9,99999,9,99,9,99,9","10139,1,99999,9",,,,"MET057METAR GVBA 101300Z 36008KT 9999 BKN015 29/21 Q1014 NOSIG;",
"08594499999","2010-07-10T14:00:00","4","16.136531","-22.888897","21.03","BOA VISTA RABIL, CV","FM-15","GVBA ","V020","320,1,N,0062,1","00450,1,C,N","011265,1,N,1","+0280,1","+0220,1","99999,9","07,5,+00450,1,99,9",,,"07,99,1,99,9,99,9,99999,9,99,9,99,9","10129,1,99999,9",,,,"MET057METAR GVBA 101400Z 32012KT 9999 BKN015 28/22 Q1013 NOSIG;",
"08594499999","2010-07-10T15:00:00","4","16.136531","-22.888897","21.03","BOA VISTA RABIL, CV","FM-15","GVBA ","V020","310,1,N,0062,1","00450,1,C,N","011265,1,N,1","+0290,1","+0210,1","99999,9","07,5,+00450,1,99,9",,,"07,99,1,99,9,99,9,99999,9,99,9,99,9","10119,1,99999,9",,,,"MET057METAR GVBA 101500Z 31012KT 9999 BKN015 29/21 Q1012 NOSIG;",
"08594499999","2010-07-10T16:00:00","4","16.136531","-22.888897","21.03","BOA VISTA RABIL, CV","FM-15","GVBA ","V020","290,1,N,0072,1","22000,1,9,N","011265,1,N,1","+0280,1","+0210,1","99999,9","04,5,+00450,1,99,9",,,"04,99,1,99,9,99,9,99999,9,99,9,99,9","10108,1,99999,9",,,,"MET057METAR GVBA 101600Z 29014KT 9999 SCT015 28/21 Q1011 NOSIG;",
"08594499999","2010-07-10T17:00:00","4","16.136531","-22.888897","21.03","BOA VISTA RABIL, CV","FM-15","GVBA ","V020","300,1,N,0062,1","22000,1,9,N","011265,1,N,1","+0280,1","+0210,1","99999,9","02,5,+00450,1,99,9",,,"02,99,1,99,9,99,9,99999,9,99,9,99,9","10108,1,99999,9",,,,"MET057METAR GVBA 101700Z 30012KT 9999 FEW015 28/21 Q1011 NOSIG;",
"08594499999","2010-07-10T18:00:00","4","16.136531","-22.888897","21.03","BOA VISTA RABIL, CV","FM-15","GVBA ","V020","290,1,N,0062,1","22000,1,9,N","011265,1,N,1","+0280,1","+0210,1","99999,9","04,5,+00450,1,99,9",,,"04,99,1,99,9,99,9,99999,9,99,9,99,9","10108,1,99999,9",,,,"MET057METAR GVBA 101800Z 29012KT 9999 SCT015 28/21 Q1011 NOSIG;",
"08594499999","2010-07-10T19:00:00","4","16.136531","-22.888897","21.03","BOA VISTA RABIL, CV","FM-15","GVBA ","V020","310,1,N,0067,1","00450,1,C,N","011265,1,N,1","+0270,1","+0210,1","99999,9","07,5,+00450,1,99,9",,,"07,99,1,99,9,99,9,99999,9,99,9,99,9","10108,1,99999,9",,,,"MET057METAR GVBA 101900Z 31013KT 9999 BKN015 27/21 Q1011 NOSIG;",
"08594499999","2010-07-11T08:00:00","4","16.136531","-22.888897","21.03","BOA VISTA RABIL, CV","FM-15","GVBA ","V020","360,1,N,0026,1","00510,1,C,N","011265,1,N,1","+0240,1","+0190,1","99999,9","04,5,+00450,1,99,9","07,5,+00510,1,99,9",,"07,99,1,99,9,99,9,99999,9,99,9,99,9","10102,1,99999,9",,,,"MET064METAR GVBA 110800Z 36005KT 9999 SCT015 BKN017 24/19 Q1010 NOSIG;",
"08594499999","2010-07-11T09:00:00","4","16.136531","-22.888897","21.03","BOA VISTA RABIL, CV","FM-15","GVBA ","V020","010,1,N,0036,1","00480,1,C,N","011265,1,N,1","+0260,1","+0200,1","99999,9","07,5,+00480,1,99,9",,,"07,99,1,99,9,99,9,99999,9,99,9,99,9","10102,1,99999,9",,,,"MET057METAR GVBA 110900Z 01007KT 9999 BKN016 26/20 Q1010 NOSIG;",
"08594499999","2010-07-11T10:00:00","4","16.136531","-22.888897","21.03","BOA VISTA RABIL, CV","FM-15","GVBA ","V020","350,1,N,0036,1","00450,1,C,N","011265,1,N,1","+0270,1","+0200,1","99999,9","07,5,+00450,1,99,9",,,"07,99,1,99,9,99,9,99999,9,99,9,99,9","10108,1,99999,9",,,,"MET057METAR GVBA 111000Z 35007KT 9999 BKN015 27/20 Q1011 NOSIG;",
"08594499999","2010-07-11T11:00:00","4","16.136531","-22.888897","21.03","BOA VISTA RABIL, CV","FM-15","GVBA ","V020","320,1,N,0036,1","00450,1,C,N","011265,1,N,1","+0270,1","+0200,1","99999,9","07,5,+00450,1,99,9",,,"07,99,1,99,9,99,9,99999,9,99,9,99,9","10108,1,99999,9",,,,"MET057METAR GVBA 111100Z 32007KT 9999 BKN015 27/20 Q1011 NOSIG;",
"08594499999","2010-07-11T12:00:00","4","16.136531","-22.888897","21.03","BOA VISTA RABIL, CV","FM-15","GVBA ","V020","320,1,N,0036,1","22000,1,9,N","011265,1,N,1","+0280,1","+0190,1","99999,9","04,5,+00450,1,99,9",,,"04,99,1,99,9,99,9,99999,9,99,9,99,9","10108,1,99999,9",,,,"MET057METAR GVBA 111200Z 32007KT 9999 SCT015 28/19 Q1011 NOSIG;",
"08594499999","2010-07-11T13:00:00","4","16.136531","-22.888897","21.03","BOA VISTA RABIL, CV","FM-15","GVBA ","V020","020,1,N,0021,1","00450,1,C,N","011265,1,N,1","+0290,1","+0200,1","99999,9","07,5,+00450,1,99,9",,,"07,99,1,99,9,99,9,99999,9,99,9,99,9","10119,1,99999,9",,,,"MET057METAR GVBA 111300Z 02004KT 9999 BKN015 29/20 Q1012 NOSIG;",
"08594499999","2010-07-11T14:00:00","4","16.136531","-22.888897","21.03","BOA VISTA RABIL, CV","FM-15","GVBA ","V020","320,1,N,0041,1","00450,1,C,N","011265,1,N,1","+0290,1","+0210,1","99999,9","07,5,+00450,1,99,9",,,"07,99,1,99,9,99,9,99999,9,99,9,99,9","10108,1,99999,9",,,,"MET057METAR GVBA 111400Z 32008KT 9999 BKN015 29/21 Q1011 NOSIG;",
"08594499999","2010-07-11T15:00:00","4","16.136531","-22.888897","21.03","BOA VISTA RABIL, CV","FM-15","GVBA ","V020","330,1,N,0041,1","00450,1,C,N","011265,1,N,1","+0290,1","+0210,1","99999,9","07,5,+00450,1,99,9",,,"07,99,1,99,9,99,9,99999,9,99,9,99,9","10102,1,99999,9",,,,"MET057METAR GVBA 111500Z 33008KT 9999 BKN015 29/21 Q1010 NOSIG;",
"08594499999","2010-07-11T16:00:00","4","16.136531","-22.888897","21.03","BOA VISTA RABIL, CV","FM-15","GVBA ","V020","050,1,N,0021,1","00450,1,C,N","011265,1,N,1","+0290,1","+0200,1","99999,9","08,5,+00450,1,99,9",,,"08,99,1,99,9,99,9,99999,9,99,9,99,9","10102,1,99999,9",,,,"MET057METAR GVBA 111600Z 05004KT 9999 OVC015 29/20 Q1010 NOSIG;",
"08594499999","2010-07-11T17:00:00","4","16.136531","-22.888897","21.03","BOA VISTA RABIL, CV","FM-15","GVBA ","V020","330,1,N,0031,1","00450,1,C,N","011265,1,N,1","+0280,1","+0210,1","99999,9","07,5,+00450,1,99,9",,,"07,99,1,99,9,99,9,99999,9,99,9,99,9","10091,1,99999,9",,,,"MET057METAR GVBA 111700Z 33006KT 9999 BKN015 28/21 Q1009 NOSIG;",
"08594499999","2010-07-11T18:00:00","4","16.136531","-22.888897","21.03","BOA VISTA RABIL, CV","FM-15","GVBA ","V020","330,1,N,0041,1","00450,1,C,N","011265,1,N,1","+0280,1","+0210,1","99999,9","07,5,+00450,1,99,9",,,"07,99,1,99,9,99,9,99999,9,99,9,99,9","10091,1,99999,9",,,,"MET057METAR GVBA 111800Z 33008KT 9999 BKN015 28/21 Q1009 NOSIG;",
"08594499999","2010-07-11T19:00:00","4","16.136531","-22.888897","21.03","BOA VISTA RABIL, CV","FM-15","GVBA ","V020","310,1,N,0041,1","00450,1,C,N","011265,1,N,1","+0270,1","+0210,1","99999,9","07,5,+00450,1,99,9",,,"07,99,1,99,9,99,9,99999,9,99,9,99,9","10091,1,99999,9",,,,"MET057METAR GVBA 111900Z 31008KT 9999 BKN015 27/21 Q1009 NOSIG;",
"08594499999","2010-07-12T08:00:00","4","16.136531","-22.888897","21.03","BOA VISTA RABIL, CV","FM-15","GVBA ","V020","999,9,C,0000,1","22000,1,9,N","009000,1,N,1","+0240,1","+0210,1","99999,9","02,5,+00420,1,99,9",,,"02,99,1,99,9,99,9,99999,9,99,9,99,9","10119,1,99999,9",,,,"MET057METAR GVBA 120800Z 00000KT 9000 FEW014 24/21 Q1012 NOSIG;",
"08594499999","2010-07-12T09:00:00","4","16.136531","-22.888897","21.03","BOA VISTA RABIL, CV","FM-15","GVBA ","V020","999,9,V,0015,1","22000,1,9,N","011265,1,N,1","+0270,1","+0220,1","99999,9","02,5,+00420,1,99,9",,,"02,99,1,99,9,99,9,99999,9,99,9,99,9","10119,1,99999,9",,,,"MET057METAR GVBA 120900Z VRB03KT 9999 FEW014 27/22 Q1012 NOSIG;",
"08594499999","2010-07-12T10:00:00","4","16.136531","-22.888897","21.03","BOA VISTA RABIL, CV","FM-15","GVBA ","V020","120,1,N,0021,1","22000,1,9,N","011265,1,N,1","+0280,1","+0210,1","99999,9","04,5,+00420,1,99,9",,,"04,99,1,99,9,99,9,99999,9,99,9,99,9","10129,1,99999,9",,,,"MET057METAR GVBA 121000Z 12004KT 9999 SCT014 28/21 Q1013 NOSIG;",
"08594499999","2010-07-12T11:00:00","4","16.136531","-22.888897","21.03","BOA VISTA RABIL, CV","FM-15","GVBA ","V020","090,1,N,0021,1","99999,9,C,N","011265,1,N,1","+0280,1","+0210,1","99999,9","02,5,+00420,1,99,9","04,5,+00450,1,99,9",,"04,99,1,99,9,99,9,99999,9,99,9,99,9","10129,1,99999,9",,,,"MET064METAR GVBA 121100Z 09004KT 9999 FEW014 SCT015 28/21 Q1013 NOSIG;","P01 004503SCOCIG"
"08594499999","2010-07-12T12:00:00","4","16.136531","-22.888897","21.03","BOA VISTA RABIL, CV","FM-15","GVBA ","V020","150,1,N,0021,1","00450,1,C,N","011265,1,N,1","+0310,1","+0210,1","99999,9","07,5,+00450,1,99,9","04,5,+03000,1,99,9",,,"10129,1,99999,9",,,,"MET064METAR GVBA 121200Z 15004KT 9999 BKN015 SCT100 31/21 Q1013 NOSIG;","Q01+000042SCOTCV"
"08594499999","2010-07-12T13:00:00","4","16.136531","-22.888897","21.03","BOA VISTA RABIL, CV","FM-15","GVBA ","V020","260,1,N,0062,1","99999,9,C,N","011265,1,N,1","+0300,1","+0220,1","99999,9","02,5,+00450,1,99,9","04,5,+03000,1,99,9",,"04,99,1,99,9,99,9,99999,9,99,9,99,9","10129,1,99999,9",,,,"MET064METAR GVBA 121300Z 26012KT 9999 FEW015 SCT100 30/22 Q1013 NOSIG;","P01 030003SCOCIG"
"08594499999","2010-07-12T14:00:00","4","16.136531","-22.888897","21.03","BOA VISTA RABIL, CV","FM-15","GVBA ","V020","290,1,N,0051,1","03000,1,C,N","011265,1,N,1","+0300,1","+0220,1","99999,9","02,5,+00450,1,99,9","07,5,+03000,1,99,9",,"07,99,1,99,9,99,9,99999,9,99,9,99,9","10119,1,99999,9",,,,"MET064METAR GVBA 121400Z 29010KT 9999 FEW015 BKN100 30/22 Q1012 NOSIG;",
"08594499999","2010-07-12T15:00:00","4","16.136531","-22.888897","21.03","BOA VISTA RABIL, CV","FM-15","GVBA ","V020","300,1,N,0036,1","03000,1,C,N","011265,1,N,1","+0290,1","+0220,1","99999,9","02,5,+00450,1,99,9","07,5,+03000,1,99,9",,"07,99,1,99,9,99,9,99999,9,99,9,99,9","10119,1,99999,9",,,,"MET064METAR GVBA 121500Z 30007KT 9999 FEW015 BKN100 29/22 Q1012 NOSIG;",
"08594499999","2010-07-12T16:00:00","4","16.136531","-22.888897","21.03","BOA VISTA RABIL, CV","FM-15","GVBA ","V020","300,1,N,0031,1","03000,1,C,N","011265,1,N,1","+0290,1","+0220,1","99999,9","02,5,+00450,1,99,9","07,5,+03000,1,99,9",,"07,99,1,99,9,99,9,99999,9,99,9,99,9","10119,1,99999,9",,,,"MET064METAR GVBA 121600Z 30006KT 9999 FEW015 BKN100 29/22 Q1012 NOSIG;",
"08594499999","2010-07-12T17:00:00","4","16.136531","-22.888897","21.03","BOA VISTA RABIL, CV","FM-15","GVBA ","V020","300,1,N,0031,1","99999,9,C,N","011265,1,N,1","+0300,1","+0220,1","99999,9","04,5,+00450,1,99,9","04,5,+03000,1,99,9",,"04,99,1,99,9,99,9,99999,9,99,9,99,9","10119,1,99999,9",,,,"MET064METAR GVBA 121700Z 30006KT 9999 SCT015 SCT100 30/22 Q1012 NOSIG;","P01 030003SCOCIG"
"08594499999","2010-07-12T18:00:00","4","16.136531","-22.888897","21.03","BOA VISTA RABIL, CV","FM-15","GVBA ","V020","100,1,N,0021,1","22000,1,9,N","011265,1,N,1","+0300,1","+0210,1","99999,9","04,5,+00450,1,99,9",,,"04,99,1,99,9,99,9,99999,9,99,9,99,9","10119,1,99999,9",,,,"MET057METAR GVBA 121800Z 10004KT 9999 SCT015 30/21 Q1012 NOSIG;",
"08594499999","2010-07-12T19:00:00","4","16.136531","-22.888897","21.03","BOA VISTA RABIL, CV","FM-15","GVBA ","V020","170,1,N,0021,1","00450,1,C,N","011265,1,N,1","+0290,1","+0210,1","99999,9","07,5,+00450,1,99,9","07,5,+03000,1,99,9",,"07,99,1,99,9,99,9,99999,9,99,9,99,9","10119,1,99999,9",,,,"MET064METAR GVBA 121900Z 17004KT 9999 BKN015 BKN100 29/21 Q1012 NOSIG;",
"08594499999","2010-07-13T08:00:00","4","16.136531","-22.888897","21.03","BOA VISTA RABIL, CV","FM-15","GVBA ","V020","999,9,C,0000,1","03000,1,C,N","011265,1,N,1","+0250,1","+0220,1","99999,9","02,5,+00450,1,99,9","08,5,+03000,1,99,9",,"08,99,1,99,9,99,9,99999,9,99,9,99,9","10139,1,99999,9",,,,"MET064METAR GVBA 130800Z 00000KT 9999 FEW015 OVC100 25/22 Q1014 NOSIG;",
"08594499999","2010-07-13T09:00:00","4","16.136531","-22.888897","21.03","BOA VISTA RABIL, CV","FM-15","GVBA ","V020","999,9,C,0000,1","03000,1,C,N","011265,1,N,1","+0270,1","+0230,1","99999,9","02,5,+00420,1,99,9","07,5,+03000,1,99,9",,"07,99,1,99,9,99,9,99999,9,99,9,99,9","10139,1,99999,9",,,,"MET064METAR GVBA 130900Z 00000KT 9999 FEW014 BKN100 27/23 Q1014 NOSIG;",
"08594499999","2010-07-13T10:00:00","4","16.136531","-22.888897","21.03","BOA VISTA RABIL, CV","FM-15","GVBA ","V020","330,1,N,0015,1","03000,1,C,N","011265,1,N,1","+0270,1","+0230,1","99999,9","02,5,+00420,1,99,9","07,5,+03000,1,99,9",,"07,99,1,99,9,99,9,99999,9,99,9,99,9","10129,1,99999,9",,,,"MET064METAR GVBA 131000Z 33003KT 9999 FEW014 BKN100 27/23 Q1013 NOSIG;",
"08594499999","2010-07-13T11:00:00","4","16.136531","-22.888897","21.03","BOA VISTA RABIL, CV","FM-15","GVBA ","V020","320,1,N,0021,1","99999,9,C,N","011265,1,N,1","+0290,1","+0230,1","99999,9","04,5,+00420,1,99,9","04,5,+03000,1,99,9",,"04,99,1,99,9,99,9,99999,9,99,9,99,9","10139,1,99999,9",,,,"MET064METAR GVBA 131100Z 32004KT 9999 SCT014 SCT100 29/23 Q1014 NOSIG;","P01 030003SCOCIG"
"08594499999","2010-07-13T12:00:00","4","16.136531","-22.888897","21.03","BOA VISTA RABIL, CV","FM-15","GVBA ","V020","030,1,N,0051,1","22000,1,9,N","011265,1,N,1","+0300,1","+0220,1","99999,9","04,5,+00420,1,99,9",,,"04,99,1,99,9,99,9,99999,9,99,9,99,9","10139,1,99999,9",,,,"MET057METAR GVBA 131200Z 03010KT 9999 SCT014 30/22 Q1014 NOSIG;",
"08594499999","2010-07-13T13:00:00","4","16.136531","-22.888897","21.03","BOA VISTA RABIL, CV","FM-15","GVBA ","V020","360,1,N,0031,1","99999,9,C,N","011265,1,N,1","+0310,1","+0220,1","99999,9","04,5,+00420,1,99,9","04,5,+03000,1,99,9",,"04,99,1,99,9,99,9,99999,9,99,9,99,9","10139,1,99999,9",,,,"MET064METAR GVBA 131300Z 36006KT 9999 SCT014 SCT100 31/22 Q1014 NOSIG;","P01 030003SCOCIG"
"08594499999","2010-07-13T14:00:00","4","16.136531","-22.888897","21.03","BOA VISTA RABIL, CV","FM-15","GVBA ","V020","300,1,N,0041,1","99999,9,C,N","011265,1,N,1","+0310,1","+0230,1","99999,9","02,5,+00420,1,99,9","04,5,+03000,1,99,9",,"04,99,1,99,9,99,9,99999,9,99,9,99,9","10129,1,99999,9",,,,"MET064METAR GVBA 131400Z 30008KT 9999 FEW014 SCT100 31/23 Q1013 NOSIG;","P01 030003SCOCIG"
"08594499999","2010-07-13T15:00:00","4","16.136531","-22.888897","21.03","BOA VISTA RABIL, CV","FM-15","GVBA ","V020","310,1,N,0041,1","22000,1,9,N","011265,1,N,1","+0310,1","+0220,1","99999,9","02,5,+00420,1,99,9",,,"02,99,1,99,9,99,9,99999,9,99,9,99,9","10129,1,99999,9",,,,"MET057METAR GVBA 131500Z 31008KT 9999 FEW014 31/22 Q1013 NOSIG;",
"08594499999","2010-07-13T16:00:00","4","16.136531","-22.888897","21.03","BOA VISTA RABIL, CV","FM-15","GVBA ","V020","290,1,N,0051,1","22000,1,9,N","011265,1,N,1","+0310,1","+0230,1","99999,9","02,5,+00420,1,99,9",,,"02,99,1,99,9,99,9,99999,9,99,9,99,9","10119,1,99999,9",,,,"MET057METAR GVBA 131600Z 29010KT 9999 FEW014 31/23 Q1012 NOSIG;",
"08594499999","2010-07-13T17:00:00","4","16.136531","-22.888897","21.03","BOA VISTA RABIL, CV","FM-15","GVBA ","V020","310,1,N,0051,1","22000,1,9,N","011265,1,N,1","+9999,9","+9999,9","99999,9","02,5,+00420,1,99,9",,,"02,99,1,99,9,99,9,99999,9,99,9,99,9",,,,,"MET057METAR GVBA 131700Z 31010KT 9999 FEW014 XX/XX Q//// NOSIG;",
"08594499999","2010-07-13T18:00:00","4","16.136531","-22.888897","21.03","BOA VISTA RABIL, CV","FM-15","GVBA ","V020","290,1,N,0051,1","22000,1,9,N","011265,1,N,1","+9999,9","+9999,9","99999,9","04,5,+00420,1,99,9",,,"04,99,1,99,9,99,9,99999,9,99,9,99,9",,,,,"MET057METAR GVBA 131800Z 29010KT 9999 SCT014 XX/XX Q//// NOSIG;",
"08594499999","2010-07-13T19:00:00","4","16.136531","-22.888897","21.03","BOA VISTA RABIL, CV","FM-15","GVBA ","V020","310,1,N,0051,1","99999,9,C,N","011265,1,N,1","+0280,1","+0230,1","99999,9","02,5,+00420,1,99,9","04,5,+06000,1,99,9",,"04,99,1,99,9,99,9,99999,9,99,9,99,9","10108,1,99999,9",,,,"MET064METAR GVBA 131900Z 31010KT 9999 FEW014 SCT200 28/23 Q1011 NOSIG;","P01 060003SCOCIG"
"08594499999","2010-07-14T08:00:00","4","16.136531","-22.888897","21.03","BOA VISTA RABIL, CV","FM-15","GVBA ","V020","999,9,C,0000,1","03000,1,C,N","011265,1,N,1","+0250,1","+0230,1","99999,9","02,5,+00420,1,99,9","07,5,+03000,1,99,9",,"07,99,1,99,9,99,9,99999,9,99,9,99,9","10119,1,99999,9",,,,"MET064METAR GVBA 140800Z 00000KT 9999 FEW014 BKN100 25/23 Q1012 NOSIG;",
"08594499999","2010-07-14T09:00:00","4","16.136531","-22.888897","21.03","BOA VISTA RABIL, CV","FM-15","GVBA ","V020","320,1,N,0026,1","03000,1,C,N","011265,1,N,1","+0260,1","+0230,1","99999,9","04,5,+00450,1,99,9","07,5,+03000,1,99,9",,"07,99,1,99,9,99,9,99999,9,99,9,99,9","10119,1,99999,9",,,,"MET064METAR GVBA 140900Z 32005KT 9999 SCT015 BKN100 26/23 Q1012 NOSIG;",
"08594499999","2010-07-14T10:00:00","4","16.136531","-22.888897","21.03","BOA VISTA RABIL, CV","FM-15","GVBA ","V020","310,1,N,0026,1","03000,1,C,N","011265,1,N,1","+0260,1","+0230,1","99999,9","04,5,+00450,1,99,9","07,5,+03000,1,99,9",,"07,99,1,99,9,99,9,99999,9,99,9,99,9","10119,1,99999,9",,,,"MET064METAR GVBA 141000Z 31005KT 9999 SCT015 BKN100 26/23 Q1012 NOSIG;",
"08594499999","2010-07-14T11:00:00","4","16.136531","-22.888897","21.03","BOA VISTA RABIL, CV","FM-15","GVBA ","V020","310,1,N,0041,1","99999,9,C,N","011265,1,N,1","+0280,1","+0230,1","99999,9","04,5,+00450,1,99,9","04,5,+06000,1,99,9",,"04,99,1,99,9,99,9,99999,9,99,9,99,9","10119,1,99999,9",,,,"MET064METAR GVBA 141100Z 31008KT 9999 SCT015 SCT200 28/23 Q1012 NOSIG;","P01 060003SCOCIG"
"08594499999","2010-07-14T12:00:00","4","16.136531","-22.888897","21.03","BOA VISTA RABIL, CV","FM-15","GVBA ","V020","300,1,N,0026,1","99999,9,C,N","011265,1,N,1","+0300,1","+0220,1","99999,9","04,5,+00450,1,99,9","04,5,+06000,1,99,9",,"04,99,1,99,9,99,9,99999,9,99,9,99,9","10119,1,99999,9",,,,"MET064METAR GVBA 141200Z 30005KT 9999 SCT015 SCT200 30/22 Q1012 NOSIG;","P01 060003SCOCIG"
"08594499999","2010-07-14T14:00:00","4","16.136531","-22.888897","21.03","BOA VISTA RABIL, CV","FM-15","GVBA ","V020","070,1,N,0031,1","00450,1,C,N","011265,1,N,1","+0280,1","+0220,1","99999,9","07,5,+00450,1,99,9",,,"07,99,1,99,9,99,9,99999,9,99,9,99,9","10119,1,99999,9",,,,"MET057METAR GVBA 141400Z 07006KT 9999 BKN015 28/22 Q1012 NOSIG;",
"08594499999","2010-07-14T15:00:00","4","16.136531","-22.888897","21.03","BOA VISTA RABIL, CV","FM-15","GVBA ","V020","999,9,V,0015,1","00450,1,C,N","011265,1,N,1","+0290,1","+0220,1","99999,9","02,5,+00390,1,99,9","07,5,+00450,1,99,9",,"07,99,1,99,9,99,9,99999,9,99,9,99,9","10119,1,99999,9",,,,"MET064METAR GVBA 141500Z VRB03KT 9999 FEW013 BKN015 29/22 Q1012 NOSIG;",
"08594499999","2010-07-14T16:00:00","4","16.136531","-22.888897","21.03","BOA VISTA RABIL, CV","FM-15","GVBA ","V020","250,1,N,0031,1","00450,1,C,N","011265,1,N,1","+0290,1","+0230,1","99999,9","07,5,+00450,1,99,9","07,5,+03000,1,99,9",,"07,99,1,99,9,99,9,99999,9,99,9,99,9","10119,1,99999,9",,,,"MET064METAR GVBA 141600Z 25006KT 9999 BKN015 BKN100 29/23 Q1012 NOSIG;",
"08594499999","2010-07-14T17:00:00","4","16.136531","-22.888897","21.03","BOA VISTA RABIL, CV","FM-15","GVBA ","V020","150,1,N,0031,1","00450,1,C,N","011265,1,N,1","+0300,1","+0220,1","99999,9","07,5,+00450,1,99,9",,,"07,99,1,99,9,99,9,99999,9,99,9,99,9","10119,1,99999,9",,,,"MET057METAR GVBA 141700Z 15006KT 9999 BKN015 30/22 Q1012 NOSIG;",
"08594499999","2010-07-14T18:00:00","4","16.136531","-22.888897","21.03","BOA VISTA RABIL, CV","FM-15","GVBA ","V020","040,1,N,0041,1","00450,1,C,N","011265,1,N,1","+0300,1","+0220,1","99999,9","07,5,+00450,1,99,9","07,5,+03000,1,99,9",,"07,99,1,99,9,99,9,99999,9,99,9,99,9","10108,1,99999,9",,,,"MET064METAR GVBA 141800Z 04008KT 9999 BKN015 BKN100 30/22 Q1011 NOSIG;",
"08594499999","2010-07-14T19:00:00","4","16.136531","-22.888897","21.03","BOA VISTA RABIL, CV","FM-15","GVBA ","V020","140,1,N,0041,1","03000,1,C,N","011265,1,N,1","+0290,1","+0230,1","99999,9","04,5,+00450,1,99,9","07,5,+03000,1,99,9",,"07,99,1,99,9,99,9,99999,9,99,9,99,9","10119,1,99999,9",,,,"MET064METAR GVBA 141900Z 14008KT 9999 SCT015 BKN100 29/23 Q1012 NOSIG;",
"08594499999","2010-07-15T08:00:00","4","16.136531","-22.888897","21.03","BOA VISTA RABIL, CV","FM-15","GVBA ","V020","100,1,N,0021,1","02700,1,C,N","011265,1,N,1","+0260,1","+0240,1","99999,9","02,5,+00390,1,99,9","07,5,+02700,1,99,9",,"07,99,1,99,9,99,9,99999,9,99,9,99,9","10139,1,99999,9",,,,"MET064METAR GVBA 150800Z 10004KT 9999 FEW013 BKN090 26/24 Q1014 NOSIG;",
"08594499999","2010-07-15T09:00:00","4","16.136531","-22.888897","21.03","BOA VISTA RABIL, CV","FM-15","GVBA ","V020","100,1,N,0031,1","03000,1,C,N","011265,1,N,1","+0270,1","+0240,1","99999,9","02,5,+00390,1,99,9","07,5,+03000,1,99,9",,"07,99,1,99,9,99,9,99999,9,99,9,99,9","10149,1,99999,9",,,,"MET064METAR GVBA 150900Z 10006KT 9999 FEW013 BKN100 27/24 Q1015 NOSIG;",
"08594499999","2010-07-15T12:00:00","4","16.136531","-22.888897","21.03","BOA VISTA RABIL, CV","FM-15","GVBA ","V020","080,1,N,0041,1","99999,9,C,N","011265,1,N,1","+0320,1","+0230,1","99999,9","02,5,+00390,1,99,9","04,5,+00450,1,99,9",,"04,99,1,99,9,99,9,99999,9,99,9,99,9","10159,1,99999,9",,,,"MET064METAR GVBA 151200Z 08008KT 9999 FEW013 SCT015 32/23 Q1016 NOSIG;","P01 004503SCOCIG"
"08594499999","2010-07-15T16:00:00","4","16.136531","-22.888897","21.03","BOA VISTA RABIL, CV","FM-15","GVBA ","V020","220,1,N,0041,1","00450,1,C,N","011265,1,N,1","+0300,1","+0240,1","99999,9","07,5,+00450,1,99,9",,,"07,99,1,99,9,99,9,99999,9,99,9,99,9","10149,1,99999,9",,,,"MET057METAR GVBA 151600Z 22008KT 9999 BKN015 30/24 Q1015 NOSIG;",
"08594499999","2010-07-16T08:00:00","4","16.136531","-22.888897","21.03","BOA VISTA RABIL, CV","FM-15","GVBA ","V020","010,1,N,0041,1","99999,9,C,N","011265,1,N,1","+0250,1","+0240,1","99999,9","02,5,+00360,1,99,9","04,5,+00450,1,99,9","04,5,+03000,1,99,9","04,99,1,99,9,99,9,99999,9,99,9,99,9","10169,1,99999,9",,,,"MET071METAR GVBA 160800Z 01008KT 9999 FEW012 SCT015 SCT100 25/24 Q1017 NOSIG;","P01 004503SCOCIG"
"08594499999","2010-07-16T09:00:00","4","16.136531","-22.888897","21.03","BOA VISTA RABIL, CV","FM-15","GVBA ","V020","360,1,N,0067,1","22000,1,9,N","011265,1,N,1","+0270,1","+0230,1","99999,9","04,5,+00450,1,99,9",,,"04,99,1,99,9,99,9,99999,9,99,9,99,9","10169,1,99999,9",,,,"MET057METAR GVBA 160900Z 36013KT 9999 SCT015 27/23 Q1017 NOSIG;",
"08594499999","2010-07-16T10:00:00","4","16.136531","-22.888897","21.03","BOA VISTA RABIL, CV","FM-15","GVBA ","V020","010,1,N,0077,1","99999,9,C,N","011265,1,N,1","+0280,1","+0220,1","99999,9","04,5,+00450,1,99,9","04,5,+03000,1,99,9",,"04,99,1,99,9,99,9,99999,9,99,9,99,9","10169,1,99999,9",,,,"MET064METAR GVBA 161000Z 01015KT 9999 SCT015 SCT100 28/22 Q1017 NOSIG;","P01 030003SCOCIG"
"08594499999","2010-07-16T11:00:00","4","16.136531","-22.888897","21.03","BOA VISTA RABIL, CV","FM-15","GVBA ","V020","020,1,N,0082,1","00450,1,C,N","011265,1,N,1","+0280,1","+0220,1","99999,9","07,5,+00450,1,99,9",,,"07,99,1,99,9,99,9,99999,9,99,9,99,9","10169,1,99999,9",,,,"MET057METAR GVBA 161100Z 02016KT 9999 BKN015 28/22 Q1017 NOSIG;",
"08594499999","2010-07-16T12:00:00","4","16.136531","-22.888897","21.03","BOA VISTA RABIL, CV","FM-15","GVBA ","V020","020,1,N,0082,1","00450,1,C,N","011265,1,N,1","+0290,1","+0210,1","99999,9","07,5,+00450,1,99,9",,,"07,99,1,99,9,99,9,99999,9,99,9,99,9","10169,1,99999,9",,,,"MET057METAR GVBA 161200Z 02016KT 9999 BKN015 29/21 Q1017 NOSIG;",
"08594499999","2010-07-16T13:00:00","4","16.136531","-22.888897","21.03","BOA VISTA RABIL, CV","FM-15","GVBA ","V020","010,1,N,0077,1","00450,1,C,N","011265,1,N,1","+0300,1","+0220,1","99999,9","07,5,+00450,1,99,9",,,"07,99,1,99,9,99,9,99999,9,99,9,99,9","10159,1,99999,9",,,,"MET057METAR GVBA 161300Z 01015KT 9999 BKN015 30/22 Q1016 NOSIG;",
"08594499999","2010-07-16T14:00:00","4","16.136531","-22.888897","21.03","BOA VISTA RABIL, CV","FM-15","GVBA ","V020","030,1,N,0087,1","00450,1,C,N","011265,1,N,1","+0300,1","+0220,1","99999,9","07,5,+00450,1,99,9",,,"07,99,1,99,9,99,9,99999,9,99,9,99,9","10149,1,99999,9",,,,"MET057METAR GVBA 161400Z 03017KT 9999 BKN015 30/22 Q1015 NOSIG;",
"08594499999","2010-07-16T15:00:00","4","16.136531","-22.888897","21.03","BOA VISTA RABIL, CV","FM-15","GVBA ","V020","040,1,N,0082,1","00450,1,C,N","011265,1,N,1","+0290,1","+0220,1","99999,9","07,5,+00450,1,99,9",,,"07,99,1,99,9,99,9,99999,9,99,9,99,9","10149,1,99999,9",,,,"MET057METAR GVBA 161500Z 04016KT 9999 BKN015 29/22 Q1015 NOSIG;",
"08594499999","2010-07-16T16:00:00","4","16.136531","-22.888897","21.03","BOA VISTA RABIL, CV","FM-15","GVBA ","V020","040,1,N,0077,1","00450,1,C,N","011265,1,N,1","+0280,1","+0220,1","99999,9","07,5,+00450,1,99,9",,,"07,99,1,99,9,99,9,99999,9,99,9,99,9","10149,1,99999,9",,,,"MET057METAR GVBA 161600Z 04015KT 9999 BKN015 28/22 Q1015 NOSIG;",
"08594499999","2010-07-16T17:00:00","4","16.136531","-22.888897","21.03","BOA VISTA RABIL, CV","FM-15","GVBA ","V020","050,1,N,0067,1","00450,1,C,N","011265,1,N,1","+0260,1","+0220,1","99999,9","07,5,+00450,1,99,9",,,"07,99,1,99,9,99,9,99999,9,99,9,99,9","10149,1,99999,9",,,,"MET057METAR GVBA 161700Z 05013KT 9999 BKN015 26/22 Q1015 NOSIG;",
"08594499999","2010-07-16T18:00:00","4","16.136531","-22.888897","21.03","BOA VISTA RABIL, CV","FM-15","GVBA ","V020","999,9,9,9999,9","00450,5,9,N","011265,1,N,1","+0260,1","+0220,1","99999,9","07,5,+00450,5,99,9","07,5,+00600,5,99,9",,,"10150,1,99999,9",,,,"MET063METAR GVBA 161800Z 2014KT 9999 BKN015 BKN020 26/22 Q1015 NOSIG;",
"08594499999","2010-07-16T19:00:00","4","16.136531","-22.888897","21.03","BOA VISTA RABIL, CV","FM-15","GVBA ","V020","030,1,N,0072,1","00450,1,C,N","011265,1,N,1","+0260,1","+0220,1","99999,9","07,5,+00450,1,99,9","07,5,+00600,1,99,9",,"07,99,1,99,9,99,9,99999,9,99,9,99,9","10139,1,99999,9",,,,"MET064METAR GVBA 161900Z 03014KT 9999 BKN015 BKN020 26/22 Q1014 NOSIG;",
"08594499999","2010-07-17T08:00:00","4","16.136531","-22.888897","21.03","BOA VISTA RABIL, CV","FM-15","GVBA ","V020","010,1,N,0062,1","00450,1,C,N","011265,1,N,1","+0250,1","+0200,1","99999,9","07,5,+00450,1,99,9",,,"07,99,1,99,9,99,9,99999,9,99,9,99,9","10139,1,99999,9",,,,"MET057METAR GVBA 170800Z 01012KT 9999 BKN015 25/20 Q1014 NOSIG;",
"08594499999","2010-07-17T09:00:00","4","16.136531","-22.888897","21.03","BOA VISTA RABIL, CV","FM-15","GVBA ","V020","020,1,N,0072,1","00450,1,C,N","011265,1,N,1","+0250,1","+0200,1","99999,9","07,5,+00450,1,99,9",,,"07,99,1,99,9,99,9,99999,9,99,9,99,9","10139,1,99999,9",,,,"MET057METAR GVBA 170900Z 02014KT 9999 BKN015 25/20 Q1014 NOSIG;",
"08594499999","2010-07-17T10:00:00","4","16.136531","-22.888897","21.03","BOA VISTA RABIL, CV","FM-15","GVBA ","V020","020,1,N,0082,1","00450,1,C,N","011265,1,N,1","+0260,1","+0200,1","99999,9","07,5,+00450,1,99,9",,,"07,99,1,99,9,99,9,99999,9,99,9,99,9","10139,1,99999,9",,,,"MET057METAR GVBA 171000Z 02016KT 9999 BKN015 26/20 Q1014 NOSIG;",
"08594499999","2010-07-17T11:00:00","4","16.136531","-22.888897","21.03","BOA VISTA RABIL, CV","FM-15","GVBA ","V020","030,1,N,0087,1","00450,1,C,N","011265,1,N,1","+0270,1","+0200,1","99999,9","07,5,+00450,1,99,9",,,"07,99,1,99,9,99,9,99999,9,99,9,99,9","10139,1,99999,9",,,,"MET057METAR GVBA 171100Z 03017KT 9999 BKN015 27/20 Q1014 NOSIG;",
"08594499999","2010-07-17T12:00:00","4","16.136531","-22.888897","21.03","BOA VISTA RABIL, CV","FM-15","GVBA ","V020","030,1,N,0082,1","00450,1,C,N","011265,1,N,1","+0270,1","+0200,1","99999,9","07,5,+00450,1,99,9",,,"07,99,1,99,9,99,9,99999,9,99,9,99,9","10139,1,99999,9",,,,"MET057METAR GVBA 171200Z 03016KT 9999 BKN015 27/20 Q1014 NOSIG;",
"08594499999","2010-07-17T13:00:00","4","16.136531","-22.888897","21.03","BOA VISTA RABIL, CV","FM-15","GVBA ","V020","020,1,N,0082,1","00450,1,C,N","011265,1,N,1","+0280,1","+0210,1","99999,9","07,5,+00450,1,99,9",,,"07,99,1,99,9,99,9,99999,9,99,9,99,9","10139,1,99999,9",,,,"MET057METAR GVBA 171300Z 02016KT 9999 BKN015 28/21 Q1014 NOSIG;",
"08594499999","2010-07-17T14:00:00","4","16.136531","-22.888897","21.03","BOA VISTA RABIL, CV","FM-15","GVBA ","V020","020,1,N,0087,1","00450,1,C,N","011265,1,N,1","+0280,1","+0200,1","99999,9","07,5,+00450,1,99,9",,,"07,99,1,99,9,99,9,99999,9,99,9,99,9","10129,1,99999,9",,,,"MET057METAR GVBA 171400Z 02017KT 9999 BKN015 28/20 Q1013 NOSIG;",
"08594499999","2010-07-17T15:00:00","4","16.136531","-22.888897","21.03","BOA VISTA RABIL, CV","FM-15","GVBA ","V020","020,1,N,0093,1","00450,1,C,N","011265,1,N,1","+0290,1","+0200,1","99999,9","07,5,+00450,1,99,9",,,"07,99,1,99,9,99,9,99999,9,99,9,99,9","10119,1,99999,9",,,,"MET057METAR GVBA 171500Z 02018KT 9999 BKN015 29/20 Q1012 NOSIG;",
"08594499999","2010-07-17T16:00:00","4","16.136531","-22.888897","21.03","BOA VISTA RABIL, CV","FM-15","GVBA ","V020","040,1,N,0093,1","00450,1,C,N","011265,1,N,1","+0280,1","+0200,1","99999,9","07,5,+00450,1,99,9",,,"07,99,1,99,9,99,9,99999,9,99,9,99,9","10129,1,99999,9",,,,"MET057METAR GVBA 171600Z 04018KT 9999 BKN015 28/20 Q1013 NOSIG;",
"08594499999","2010-07-17T17:00:00","4","16.136531","-22.888897","21.03","BOA VISTA RABIL, CV","FM-15","GVBA ","V020","030,1,N,0082,1","00450,1,C,N","011265,1,N,1","+0280,1","+0200,1","99999,9","07,5,+00450,1,99,9",,,"07,99,1,99,9,99,9,99999,9,99,9,99,9","10129,1,99999,9",,,,"MET057METAR GVBA 171700Z 03016KT 9999 BKN015 28/20 Q1013 NOSIG;",
"08594499999","2010-07-18T08:00:00","4","16.136531","-22.888897","21.03","BOA VISTA RABIL, CV","FM-15","GVBA ","V020","010,1,N,0057,1","00450,1,C,N","011265,1,N,1","+0240,1","+0200,1","99999,9","07,5,+00450,1,99,9",,,"07,99,1,99,9,99,9,99999,9,99,9,99,9","10119,1,99999,9",,,,"MET057METAR GVBA 180800Z 01011KT 9999 BKN015 24/20 Q1012 NOSIG;",
"08594499999","2010-07-18T09:00:00","4","16.136531","-22.888897","21.03","BOA VISTA RABIL, CV","FM-15","GVBA ","V020","360,1,N,0077,1","00450,1,C,N","011265,1,N,1","+0250,1","+0190,1","99999,9","07,5,+00450,1,99,9",,,"07,99,1,99,9,99,9,99999,9,99,9,99,9","10108,1,99999,9",,,,"MET057METAR GVBA 180900Z 36015KT 9999 BKN015 25/19 Q1011 NOSIG;",
"08594499999","2010-07-18T10:00:00","4","16.136531","-22.888897","21.03","BOA VISTA RABIL, CV","FM-15","GVBA ","V020","010,1,N,0082,1","00450,1,C,N","011265,1,N,1","+0260,1","+0190,1","99999,9","07,5,+00450,1,99,9",,,"07,99,1,99,9,99,9,99999,9,99,9,99,9","10119,1,99999,9",,,,"MET057METAR GVBA 181000Z 01016KT 9999 BKN015 26/19 Q1012 NOSIG;",
"08594499999","2010-07-18T11:00:00","4","16.136531","-22.888897","21.03","BOA VISTA RABIL, CV","FM-15","GVBA ","V020","010,1,N,0093,1","00450,1,C,N","011265,1,N,1","+0270,1","+0190,1","99999,9","07,5,+00450,1,99,9",,,"07,99,1,99,9,99,9,99999,9,99,9,99,9","10119,1,99999,9",,,,"MET057METAR GVBA 181100Z 01018KT 9999 BKN015 27/19 Q1012 NOSIG;",
"08594499999","2010-07-18T12:00:00","4","16.136531","-22.888897","21.03","BOA VISTA RABIL, CV","FM-15","GVBA ","V020","020,1,N,0082,1","00450,1,C,N","011265,1,N,1","+0280,1","+0190,1","99999,9","07,5,+00450,1,99,9",,,"07,99,1,99,9,99,9,99999,9,99,9,99,9","10129,1,99999,9",,,,"MET057METAR GVBA 181200Z 02016KT 9999 BKN015 28/19 Q1013 NOSIG;",
"08594499999","2010-07-18T13:00:00","4","16.136531","-22.888897","21.03","BOA VISTA RABIL, CV","FM-15","GVBA ","V020","020,1,N,0087,1","00450,1,C,N","011265,1,N,1","+0280,1","+0190,1","99999,9","07,5,+00450,1,99,9",,,"07,99,1,99,9,99,9,99999,9,99,9,99,9","10129,1,99999,9",,,,"MET057METAR GVBA 181300Z 02017KT 9999 BKN015 28/19 Q1013 NOSIG;",
"08594499999","2010-07-18T14:00:00","4","16.136531","-22.888897","21.03","BOA VISTA RABIL, CV","FM-15","GVBA ","V020","030,1,N,0077,1","00510,1,C,N","011265,1,N,1","+0270,1","+0200,1","99999,9","04,5,+00450,1,99,9","07,5,+00510,1,99,9",,"07,99,1,99,9,99,9,99999,9,99,9,99,9","10129,1,99999,9",,,,"MET064METAR GVBA 181400Z 03015KT 9999 SCT015 BKN017 27/20 Q1013 NOSIG;",
"08594499999","2010-07-18T15:00:00","4","16.136531","-22.888897","21.03","BOA VISTA RABIL, CV","FM-15","GVBA ","V020","040,1,N,0067,1","00510,1,C,N","011265,1,N,1","+0260,1","+0200,1","99999,9","04,5,+00450,1,99,9","07,5,+00510,1,99,9",,"07,99,1,99,9,99,9,99999,9,99,9,99,9","10129,1,99999,9",,,,"MET064METAR GVBA 181500Z 04013KT 9999 SCT015 BKN017 26/20 Q1013 NOSIG;",
"08594499999","2010-07-18T16:00:00","4","16.136531","-22.888897","21.03","BOA VISTA RABIL, CV","FM-15","GVBA ","V020","010,1,N,0072,1","00510,1,C,N","011265,1,N,1","+0270,1","+0200,1","99999,9","04,5,+00450,1,99,9","07,5,+00510,1,99,9",,"07,99,1,99,9,99,9,99999,9,99,9,99,9","10119,1,99999,9",,,,"MET064METAR GVBA 181600Z 01014KT 9999 SCT015 BKN017 27/20 Q1012 NOSIG;",
"08594499999","2010-07-18T17:00:00","4","16.136531","-22.888897","21.03","BOA VISTA RABIL, CV","FM-15","GVBA ","V020","020,1,N,0062,1","00450,1,C,N","011265,1,N,1","+0260,1","+0210,1","99999,9","07,5,+00450,1,99,9","07,5,+03000,1,99,9",,"07,99,1,99,9,99,9,99999,9,99,9,99,9","10108,1,99999,9",,,,"MET064METAR GVBA 181700Z 02012KT 9999 BKN015 BKN100 26/21 Q1011 NOSIG;",
"08594499999","2010-07-18T18:00:00","4","16.136531","-22.888897","21.03","BOA VISTA RABIL, CV","FM-15","GVBA ","V020","010,1,N,0041,1","00450,1,C,N","011265,1,N,1","+0260,1","+0200,1","99999,9","07,5,+00450,1,99,9","07,5,+03000,1,99,9",,"07,99,1,99,9,99,9,99999,9,99,9,99,9","10119,1,99999,9",,,,"MET064METAR GVBA 181800Z 01008KT 9999 BKN015 BKN100 26/20 Q1012 NOSIG;",
"08594499999","2010-07-19T10:00:00","4","16.136531","-22.888897","21.03","BOA VISTA RABIL, CV","FM-15","GVBA ","V020","100,1,N,0051,1","03000,1,C,N","011265,1,N,1","+0260,1","+0230,1","99999,9","04,5,+00420,1,99,9","07,5,+03000,1,99,9",,"07,99,1,99,9,99,9,99999,9,99,9,99,9","10139,1,99999,9",,,,"MET064METAR GVBA 191000Z 10010KT 9999 SCT014 BKN100 26/23 Q1014 NOSIG;",
"08594499999","2010-07-19T12:00:00","4","16.136531","-22.888897","21.03","BOA VISTA RABIL, CV","FM-15","GVBA ","V020","130,1,N,0031,1","00510,1,C,N","011265,1,N,1","+0270,1","+0230,1","99999,9","02,5,+00420,1,99,9","07,5,+00510,1,99,9",,"07,99,1,99,9,99,9,99999,9,99,9,99,9","10139,1,99999,9",,,,"MET064METAR GVBA 191200Z 13006KT 9999 FEW014 BKN017 27/23 Q1014 NOSIG;",
"08594499999","2010-07-19T13:00:00","4","16.136531","-22.888897","21.03","BOA VISTA RABIL, CV","FM-15","GVBA ","V020","080,1,N,0051,1","00450,1,C,N","011265,1,N,1","+0300,1","+0240,1","99999,9","07,5,+00450,1,99,9",,,"07,99,1,99,9,99,9,99999,9,99,9,99,9","10139,1,99999,9",,,,"MET057METAR GVBA 191300Z 08010KT 9999 BKN015 30/24 Q1014 NOSIG;",
"08594499999","2010-07-19T14:00:00","4","16.136531","-22.888897","21.03","BOA VISTA RABIL, CV","FM-15","GVBA ","V020","100,1,N,0062,1","00450,1,C,N","011265,1,N,1","+0300,1","+0240,1","99999,9","07,5,+00450,1,99,9",,,"07,99,1,99,9,99,9,99999,9,99,9,99,9","10139,1,99999,9",,,,"MET057METAR GVBA 191400Z 10012KT 9999 BKN015 30/24 Q1014 NOSIG;",
"08594499999","2010-07-19T15:00:00","4","16.136531","-22.888897","21.03","BOA VISTA RABIL, CV","FM-15","GVBA ","V020","110,1,N,0062,1","00450,1,C,N","011265,1,N,1","+0310,1","+0230,1","99999,9","07,5,+00450,1,99,9",,,"07,99,1,99,9,99,9,99999,9,99,9,99,9","10139,1,99999,9",,,,"MET057METAR GVBA 191500Z 11012KT 9999 BKN015 31/23 Q1014 NOSIG;",
"08594499999","2010-07-19T16:00:00","4","16.136531","-22.888897","21.03","BOA VISTA RABIL, CV","FM-15","GVBA ","V020","130,1,N,0067,1","00450,1,C,N","011265,1,N,1","+0320,1","+0220,1","99999,9","07,5,+00450,1,99,9",,,"07,99,1,99,9,99,9,99999,9,99,9,99,9","10139,1,99999,9",,,,"MET057METAR GVBA 191600Z 13013KT 9999 BKN015 32/22 Q1014 NOSIG;",
"08594499999","2010-07-19T17:00:00","4","16.136531","-22.888897","21.03","BOA VISTA RABIL, CV","FM-15","GVBA ","V020","140,1,N,0062,1","00450,1,C,N","011265,1,N,1","+0310,1","+0220,1","99999,9","07,5,+00450,1,99,9",,,"07,99,1,99,9,99,9,99999,9,99,9,99,9","10139,1,99999,9",,,,"MET057METAR GVBA 191700Z 14012KT 9999 BKN015 31/22 Q1014 NOSIG;",
"08594499999","2010-07-19T18:00:00","4","16.136531","-22.888897","21.03","BOA VISTA RABIL, CV","FM-15","GVBA ","V020","150,1,N,0072,1","00450,1,C,N","011265,1,N,1","+0300,1","+0220,1","99999,9","07,5,+00450,1,99,9",,,"07,99,1,99,9,99,9,99999,9,99,9,99,9","10139,1,99999,9",,,,"MET057METAR GVBA 191800Z 15014KT 9999 BKN015 30/22 Q1014 NOSIG;",
"08594499999","2010-07-19T19:00:00","4","16.136531","-22.888897","21.03","BOA VISTA RABIL, CV","FM-15","GVBA ","V020","140,1,N,0062,1","22000,1,9,N","011265,1,N,1","+0290,1","+0220,1","99999,9","04,5,+00450,1,99,9",,,"04,99,1,99,9,99,9,99999,9,99,9,99,9","10139,1,99999,9",,,,"MET057METAR GVBA 191900Z 14012KT 9999 SCT015 29/22 Q1014 NOSIG;",
"08594499999","2010-07-20T08:00:00","4","16.136531","-22.888897","21.03","BOA VISTA RABIL, CV","FM-15","GVBA ","V020","050,1,N,0026,1","22000,1,9,N","011265,1,N,1","+0240,1","+0230,1","99999,9","02,5,+00390,1,99,9",,,"02,99,1,99,9,99,9,99999,9,99,9,99,9","10159,1,99999,9",,,,"MET057METAR GVBA 200800Z 05005KT 9999 FEW013 24/23 Q1016 NOSIG;",
"08594499999","2010-07-20T09:00:00","4","16.136531","-22.888897","21.03","BOA VISTA RABIL, CV","FM-15","GVBA ","V020","050,1,N,0041,1","22000,1,9,N","011265,1,N,1","+0260,1","+0240,1","99999,9","02,5,+00390,1,99,9",,,"02,99,1,99,9,99,9,99999,9,99,9,99,9","10169,1,99999,9",,,,"MET057METAR GVBA 200900Z 05008KT 9999 FEW013 26/24 Q1017 NOSIG;",
"08594499999","2010-07-20T10:00:00","4","16.136531","-22.888897","21.03","BOA VISTA RABIL, CV","FM-15","GVBA ","V020","050,1,N,0041,1","22000,1,9,N","011265,1,N,1","+0280,1","+0230,1","99999,9","04,5,+00420,1,99,9",,,"04,99,1,99,9,99,9,99999,9,99,9,99,9","10180,1,99999,9",,,,"MET057METAR GVBA 201000Z 05008KT 9999 SCT014 28/23 Q1018 NOSIG;",
"08594499999","2010-07-20T11:00:00","4","16.136531","-22.888897","21.03","BOA VISTA RABIL, CV","FM-15","GVBA ","V020","030,1,N,0051,1","22000,1,9,N","011265,1,N,1","+0290,1","+0230,1","99999,9","04,5,+00420,1,99,9",,,"04,99,1,99,9,99,9,99999,9,99,9,99,9","10180,1,99999,9",,,,"MET057METAR GVBA 201100Z 03010KT 9999 SCT014 29/23 Q1018 NOSIG;",
"08594499999","2010-07-20T12:00:00","4","16.136531","-22.888897","21.03","BOA VISTA RABIL, CV","FM-15","GVBA ","V020","020,1,N,0051,1","22000,1,9,N","011265,1,N,1","+0300,1","+0230,1","99999,9","04,5,+00450,1,99,9",,,"04,99,1,99,9,99,9,99999,9,99,9,99,9","10169,1,99999,9",,,,"MET057METAR GVBA 201200Z 02010KT 9999 SCT015 30/23 Q1017 NOSIG;",
"08594499999","2010-07-20T13:00:00","4","16.136531","-22.888897","21.03","BOA VISTA RABIL, CV","FM-15","GVBA ","V020","020,1,N,0046,1","22000,1,9,N","011265,1,N,1","+0310,1","+0230,1","99999,9","02,5,+00450,1,99,9",,,"02,99,1,99,9,99,9,99999,9,99,9,99,9","10169,1,99999,9",,,,"MET057METAR GVBA 201300Z 02009KT 9999 FEW015 31/23 Q1017 NOSIG;",
"08594499999","2010-07-20T14:00:00","4","16.136531","-22.888897","21.03","BOA VISTA RABIL, CV","FM-15","GVBA ","V020","360,1,N,0031,1","99999,9,C,N","011265,1,N,1","+0310,1","+0230,1","99999,9","02,5,+00420,1,99,9","04,5,+06000,1,99,9",,"04,99,1,99,9,99,9,99999,9,99,9,99,9","10159,1,99999,9",,,,"MET064METAR GVBA 201400Z 36006KT 9999 FEW014 SCT200 31/23 Q1016 NOSIG;","P01 060003SCOCIG"
"08594499999","2010-07-20T15:00:00","4","16.136531","-22.888897","21.03","BOA VISTA RABIL, CV","FM-15","GVBA ","V020","320,1,N,0041,1","99999,9,9,Y","009900,1,N,1","+0320,1","+0230,1","99999,9",,,,,"10149,1,99999,9",,,,"MET051METAR GVBA 201500Z 32008KT CAVOK 32/23 Q1015 NOSIG;",
"08594499999","2010-07-20T16:00:00","4","16.136531","-22.888897","21.03","BOA VISTA RABIL, CV","FM-15","GVBA ","V020","350,1,N,0051,1","06000,1,C,N","011265,1,N,1","+0310,1","+0230,1","99999,9","02,5,+00420,1,99,9","07,5,+06000,1,99,9",,"07,99,1,99,9,99,9,99999,9,99,9,99,9","10149,1,99999,9",,,,"MET064METAR GVBA 201600Z 35010KT 9999 FEW014 BKN200 31/23 Q1015 NOSIG;",
"08594499999","2010-07-20T17:00:00","4","16.136531","-22.888897","21.03","BOA VISTA RABIL, CV","FM-15","GVBA ","V020","350,1,N,0041,1","06000,1,C,N","011265,1,N,1","+0300,1","+0240,1","99999,9","02,5,+00420,1,99,9","07,5,+06000,1,99,9",,"07,99,1,99,9,99,9,99999,9,99,9,99,9","10149,1,99999,9",,,,"MET064METAR GVBA 201700Z 35008KT 9999 FEW014 BKN200 30/24 Q1015 NOSIG;",
"08594499999","2010-07-20T18:00:00","4","16.136531","-22.888897","21.03","BOA VISTA RABIL, CV","FM-15","GVBA ","V020","360,1,N,0031,1","06000,1,C,N","011265,1,N,1","+0290,1","+0230,1","99999,9","02,5,+00420,1,99,9","07,5,+06000,1,99,9",,"07,99,1,99,9,99,9,99999,9,99,9,99,9","10149,1,99999,9",,,,"MET064METAR GVBA 201800Z 36006KT 9999 FEW014 BKN200 29/23 Q1015 NOSIG;",
"08594499999","2010-07-20T19:00:00","4","16.136531","-22.888897","21.03","BOA VISTA RABIL, CV","FM-15","GVBA ","V020","010,1,N,0026,1","99999,9,C,N","011265,1,N,1","+0290,1","+0230,1","99999,9","02,5,+00420,1,99,9","04,5,+03000,1,99,9",,"04,99,1,99,9,99,9,99999,9,99,9,99,9","10149,1,99999,9",,,,"MET064METAR GVBA 201900Z 01005KT 9999 FEW014 SCT100 29/23 Q1015 NOSIG;","P01 030003SCOCIG"
"08594499999","2010-07-21T08:00:00","4","16.136531","-22.888897","21.03","BOA VISTA RABIL, CV","FM-15","GVBA ","V020","360,1,N,0021,1","00450,1,C,N","011265,1,N,1","+0250,1","+0220,1","99999,9","07,5,+00450,1,99,9",,,"07,99,1,99,9,99,9,99999,9,99,9,99,9","10149,1,99999,9",,,,"MET057METAR GVBA 210800Z 36004KT 9999 BKN015 25/22 Q1015 NOSIG;",
"08594499999","2010-07-21T09:00:00","4","16.136531","-22.888897","21.03","BOA VISTA RABIL, CV","FM-15","GVBA ","V020","360,1,N,0031,1","00450,1,C,N","011265,1,N,1","+0260,1","+0220,1","99999,9","07,5,+00450,1,99,9",,,"07,99,1,99,9,99,9,99999,9,99,9,99,9","10149,1,99999,9",,,,"MET057METAR GVBA 210900Z 36006KT 9999 BKN015 26/22 Q1015 NOSIG;",
"08594499999","2010-07-21T10:00:00","4","16.136531","-22.888897","21.03","BOA VISTA RABIL, CV","FM-15","GVBA ","V020","350,1,N,0051,1","00450,1,C,N","011265,1,N,1","+0270,1","+0230,1","99999,9","07,5,+00450,1,99,9",,,"07,99,1,99,9,99,9,99999,9,99,9,99,9","10149,1,99999,9",,,,"MET057METAR GVBA 211000Z 35010KT 9999 BKN015 27/23 Q1015 NOSIG;",
"08594499999","2010-07-21T11:00:00","4","16.136531","-22.888897","21.03","BOA VISTA RABIL, CV","FM-15","GVBA ","V020","320,1,N,0062,1","03000,1,C,N","011265,1,N,1","+0280,1","+0220,1","99999,9","04,5,+00420,1,99,9","07,5,+03000,1,99,9",,"07,99,1,99,9,99,9,99999,9,99,9,99,9","10149,1,99999,9",,,,"MET064METAR GVBA 211100Z 32012KT 9999 SCT014 BKN100 28/22 Q1015 NOSIG;",
"08594499999","2010-07-21T12:00:00","4","16.136531","-22.888897","21.03","BOA VISTA RABIL, CV","FM-15","GVBA ","V020","320,1,N,0051,1","00450,1,C,N","011265,1,N,1","+0290,1","+0220,1","99999,9","07,5,+00450,1,99,9","07,5,+03000,1,99,9",,"07,99,1,99,9,99,9,99999,9,99,9,99,9","10149,1,99999,9",,,,"MET064METAR GVBA 211200Z 32010KT 9999 BKN015 BKN100 29/22 Q1015 NOSIG;",
"08594499999","2010-07-21T13:00:00","4","16.136531","-22.888897","21.03","BOA VISTA RABIL, CV","FM-15","GVBA ","V020","310,1,N,0057,1","00450,1,C,N","011265,1,N,1","+0280,1","+0210,1","99999,9","07,5,+00450,1,99,9",,,"07,99,1,99,9,99,9,99999,9,99,9,99,9","10149,1,99999,9",,,,"MET057METAR GVBA 211300Z 31011KT 9999 BKN015 28/21 Q1015 NOSIG;",
"08594499999","2010-07-21T14:00:00","4","16.136531","-22.888897","21.03","BOA VISTA RABIL, CV","FM-15","GVBA ","V020","330,1,N,0051,1","00450,1,C,N","011265,1,N,1","+0290,1","+0200,1","99999,9","07,5,+00450,1,99,9",,,"07,99,1,99,9,99,9,99999,9,99,9,99,9","10139,1,99999,9",,,,"MET057METAR GVBA 211400Z 33010KT 9999 BKN015 29/20 Q1014 NOSIG;",
"08594499999","2010-07-21T15:00:00","4","16.136531","-22.888897","21.03","BOA VISTA RABIL, CV","FM-15","GVBA ","V020","330,1,N,0041,1","00450,1,C,N","011265,1,N,1","+0290,1","+0200,1","99999,9","07,5,+00450,1,99,9",,,"07,99,1,99,9,99,9,99999,9,99,9,99,9","10139,1,99999,9",,,,"MET057METAR GVBA 211500Z 33008KT 9999 BKN015 29/20 Q1014 NOSIG;",
"08594499999","2010-07-21T16:00:00","4","16.136531","-22.888897","21.03","BOA VISTA RABIL, CV","FM-15","GVBA ","V020","320,1,N,0046,1","22000,1,9,N","011265,1,N,1","+0290,1","+0190,1","99999,9","02,5,+00450,1,99,9",,,"02,99,1,99,9,99,9,99999,9,99,9,99,9","10139,1,99999,9",,,,"MET057METAR GVBA 211600Z 32009KT 9999 FEW015 29/19 Q1014 NOSIG;",
"08594499999","2010-07-21T17:00:00","4","16.136531","-22.888897","21.03","BOA VISTA RABIL, CV","FM-15","GVBA ","V020","320,1,N,0041,1","22000,1,9,N","011265,1,N,1","+0290,1","+0200,1","99999,9","04,5,+00450,1,99,9",,,"04,99,1,99,9,99,9,99999,9,99,9,99,9","10129,1,99999,9",,,,"MET057METAR GVBA 211700Z 32008KT 9999 SCT015 29/20 Q1013 NOSIG;",
"08594499999","2010-07-21T19:00:00","4","16.136531","-22.888897","21.03","BOA VISTA RABIL, CV","FM-15","GVBA ","V020","020,1,N,0077,1","00450,1,C,N","011265,1,N,1","+0270,1","+0200,1","99999,9","07,5,+00450,1,99,9",,,"07,99,1,99,9,99,9,99999,9,99,9,99,9","10129,1,99999,9",,,,"MET057METAR GVBA 211900Z 02015KT 9999 BKN015 27/20 Q1013 NOSIG;",
"08594499999","2010-07-22T08:00:00","4","16.136531","-22.888897","21.03","BOA VISTA RABIL, CV","FM-15","GVBA ","V020","160,1,N,0015,1","22000,1,9,N","011265,1,N,1","+0220,1","+0190,1","99999,9","04,5,+00420,1,99,9",,,"04,99,1,99,9,99,9,99999,9,99,9,99,9","10149,1,99999,9",,,,"MET057METAR GVBA 220800Z 16003KT 9999 SCT014 22/19 Q1015 NOSIG;",
"08594499999","2010-07-22T09:00:00","4","16.136531","-22.888897","21.03","BOA VISTA RABIL, CV","FM-15","GVBA ","V020","999,9,C,0000,1","99999,9,C,N","011265,1,N,1","+0250,1","+0200,1","99999,9","02,5,+00390,1,99,9","04,5,+00450,1,99,9",,"04,99,1,99,9,99,9,99999,9,99,9,99,9","10159,1,99999,9",,,,"MET064METAR GVBA 220900Z 00000KT 9999 FEW013 SCT015 25/20 Q1016 NOSIG;","P01 004503SCOCIG"
"08594499999","2010-07-22T10:00:00","4","16.136531","-22.888897","21.03","BOA VISTA RABIL, CV","FM-15","GVBA ","V020","310,1,N,0021,1","00450,1,C,N","011265,1,N,1","+0260,1","+0200,1","99999,9","02,5,+00390,1,99,9","07,5,+00450,1,99,9",,"07,99,1,99,9,99,9,99999,9,99,9,99,9","10159,1,99999,9",,,,"MET064METAR GVBA 221000Z 31004KT 9999 FEW013 BKN015 26/20 Q1016 NOSIG;",
"08594499999","2010-07-22T11:00:00","4","16.136531","-22.888897","21.03","BOA VISTA RABIL, CV","FM-15","GVBA ","V020","320,1,N,0026,1","00450,1,C,N","011265,1,N,1","+0270,1","+0200,1","99999,9","02,5,+00390,1,99,9","07,5,+00450,1,99,9",,"07,99,1,99,9,99,9,99999,9,99,9,99,9","10159,1,99999,9",,,,"MET064METAR GVBA 221100Z 32005KT 9999 FEW013 BKN015 27/20 Q1016 NOSIG;",
"08594499999","2010-07-22T12:00:00","4","16.136531","-22.888897","21.03","BOA VISTA RABIL, CV","FM-15","GVBA ","V020","360,1,N,0041,1","22000,1,9,N","011265,1,N,1","+0280,1","+0200,1","99999,9","04,5,+00450,1,99,9",,,"04,99,1,99,9,99,9,99999,9,99,9,99,9","10159,1,99999,9",,,,"MET057METAR GVBA 221200Z 36008KT 9999 SCT015 28/20 Q1016 NOSIG;",
"08594499999","2010-07-22T13:00:00","4","16.136531","-22.888897","21.03","BOA VISTA RABIL, CV","FM-15","GVBA ","V020","010,1,N,0041,1","22000,1,9,N","011265,1,N,1","+0290,1","+0200,1","99999,9","02,5,+00450,1,99,9",,,"02,99,1,99,9,99,9,99999,9,99,9,99,9","10159,1,99999,9",,,,"MET057METAR GVBA 221300Z 01008KT 9999 FEW015 29/20 Q1016 NOSIG;",
"08594499999","2010-07-22T14:00:00","4","16.136531","-22.888897","21.03","BOA VISTA RABIL, CV","FM-15","GVBA ","V020","350,1,N,0031,1","22000,1,9,N","011265,1,N,1","+0300,1","+0190,1","99999,9","02,5,+00420,1,99,9",,,"02,99,1,99,9,99,9,99999,9,99,9,99,9","10149,1,99999,9",,,,"MET057METAR GVBA 221400Z 35006KT 9999 FEW014 30/19 Q1015 NOSIG;",
"08594499999","2010-07-22T15:00:00","4","16.136531","-22.888897","21.03","BOA VISTA RABIL, CV","FM-15","GVBA ","V020","020,1,N,0041,1","22000,1,9,N","011265,1,N,1","+0300,1","+0190,1","99999,9","02,5,+00420,1,99,9",,,"02,99,1,99,9,99,9,99999,9,99,9,99,9","10149,1,99999,9",,,,"MET057METAR GVBA 221500Z 02008KT 9999 FEW014 30/19 Q1015 NOSIG;",
"08594499999","2010-07-22T16:00:00","4","16.136531","-22.888897","21.03","BOA VISTA RABIL, CV","FM-15","GVBA ","V020","010,1,N,0051,1","22000,1,9,N","011265,1,N,1","+0300,1","+0190,1","99999,9","02,5,+00420,1,99,9",,,"02,99,1,99,9,99,9,99999,9,99,9,99,9","10149,1,99999,9",,,,"MET057METAR GVBA 221600Z 01010KT 9999 FEW014 30/19 Q1015 NOSIG;",
"08594499999","2010-07-22T17:00:00","4","16.136531","-22.888897","21.03","BOA VISTA RABIL, CV","FM-15","GVBA ","V020","010,1,N,0046,1","22000,1,9,N","011265,1,N,1","+0300,1","+0200,1","99999,9","02,5,+00420,1,99,9",,,"02,99,1,99,9,99,9,99999,9,99,9,99,9","10149,1,99999,9",,,,"MET057METAR GVBA 221700Z 01009KT 9999 FEW014 30/20 Q1015 NOSIG;",
"08594499999","2010-07-22T18:00:00","4","16.136531","-22.888897","21.03","BOA VISTA RABIL, CV","FM-15","GVBA ","V020","320,1,N,0046,1","22000,1,9,N","011265,1,N,1","+0290,1","+0200,1","99999,9","02,5,+00420,1,99,9",,,"02,99,1,99,9,99,9,99999,9,99,9,99,9","10139,1,99999,9",,,,"MET057METAR GVBA 221800Z 32009KT 9999 FEW014 29/20 Q1014 NOSIG;",
"08594499999","2010-07-22T19:00:00","4","16.136531","-22.888897","21.03","BOA VISTA RABIL, CV","FM-15","GVBA ","V020","010,1,N,0041,1","22000,1,9,N","011265,1,N,1","+0280,1","+0200,1","99999,9","02,5,+00420,1,99,9",,,"02,99,1,99,9,99,9,99999,9,99,9,99,9","10139,1,99999,9",,,,"MET057METAR GVBA 221900Z 01008KT 9999 FEW014 28/20 Q1014 NOSIG;",
"08594499999","2010-07-23T08:00:00","4","16.136531","-22.888897","21.03","BOA VISTA RABIL, CV","FM-15","GVBA ","V020","010,1,N,0021,1","99999,9,C,N","011265,1,N,1","+0240,1","+0210,1","99999,9","02,5,+00420,1,99,9","04,5,+03000,1,99,9",,"04,99,1,99,9,99,9,99999,9,99,9,99,9","10149,1,99999,9",,,,"MET064METAR GVBA 230800Z 01004KT 9999 FEW014 SCT100 24/21 Q1015 NOSIG;","P01 030003SCOCIG"
"08594499999","2010-07-23T09:00:00","4","16.136531","-22.888897","21.03","BOA VISTA RABIL, CV","FM-15","GVBA ","V020","020,1,N,0031,1","22000,1,9,N","011265,1,N,1","+0270,1","+0210,1","99999,9","02,5,+00420,1,99,9",,,"02,99,1,99,9,99,9,99999,9,99,9,99,9","10159,1,99999,9",,,,"MET057METAR GVBA 230900Z 02006KT 9999 FEW014 27/21 Q1016 NOSIG;",
"08594499999","2010-07-23T10:00:00","4","16.136531","-22.888897","21.03","BOA VISTA RABIL, CV","FM-15","GVBA ","V020","010,1,N,0031,1","22000,1,9,N","011265,1,N,1","+0280,1","+0200,1","99999,9","02,5,+00420,1,99,9",,,"02,99,1,99,9,99,9,99999,9,99,9,99,9","10159,1,99999,9",,,,"MET057METAR GVBA 231000Z 01006KT 9999 FEW014 28/20 Q1016 NOSIG;",
"08594499999","2010-07-23T11:00:00","4","16.136531","-22.888897","21.03","BOA VISTA RABIL, CV","FM-15","GVBA ","V020","040,1,N,0041,1","22000,1,9,N","011265,1,N,1","+0280,1","+0210,1","99999,9","02,5,+00420,1,99,9",,,"02,99,1,99,9,99,9,99999,9,99,9,99,9","10159,1,99999,9",,,,"MET057METAR GVBA 231100Z 04008KT 9999 FEW014 28/21 Q1016 NOSIG;",
"08594499999","2010-07-23T12:00:00","4","16.136531","-22.888897","21.03","BOA VISTA RABIL, CV","FM-15","GVBA ","V020","040,1,N,0051,1","22000,1,9,N","011265,1,N,1","+0300,1","+0210,1","99999,9","04,5,+00420,1,99,9",,,"04,99,1,99,9,99,9,99999,9,99,9,99,9","10159,1,99999,9",,,,"MET057METAR GVBA 231200Z 04010KT 9999 SCT014 30/21 Q1016 NOSIG;",
"08594499999","2010-07-23T13:00:00","4","16.136531","-22.888897","21.03","BOA VISTA RABIL, CV","FM-15","GVBA ","V020","010,1,N,0041,1","22000,1,9,N","011265,1,N,1","+0300,1","+0210,1","99999,9","04,5,+00420,1,99,9",,,"04,99,1,99,9,99,9,99999,9,99,9,99,9","10159,1,99999,9",,,,"MET057METAR GVBA 231300Z 01008KT 9999 SCT014 30/21 Q1016 NOSIG;",
"08594499999","2010-07-23T14:00:00","4","16.136531","-22.888897","21.03","BOA VISTA RABIL, CV","FM-15","GVBA ","V020","020,1,N,0041,1","22000,1,9,N","011265,1,N,1","+0300,1","+0210,1","99999,9","02,5,+00450,1,99,9",,,"02,99,1,99,9,99,9,99999,9,99,9,99,9","10159,1,99999,9",,,,"MET057METAR GVBA 231400Z 02008KT 9999 FEW015 30/21 Q1016 NOSIG;",
"08594499999","2010-07-23T15:00:00","4","16.136531","-22.888897","21.03","BOA VISTA RABIL, CV","FM-15","GVBA ","V020","020,1,N,0046,1","22000,1,9,N","011265,1,N,1","+0300,1","+0210,1","99999,9","02,5,+00450,1,99,9",,,"02,99,1,99,9,99,9,99999,9,99,9,99,9","10149,1,99999,9",,,,"MET057METAR GVBA 231500Z 02009KT 9999 FEW015 30/21 Q1015 NOSIG;",
"08594499999","2010-07-23T16:00:00","4","16.136531","-22.888897","21.03","BOA VISTA RABIL, CV","FM-15","GVBA ","V020","020,1,N,0041,1","22000,1,9,N","011265,1,N,1","+0290,1","+0210,1","99999,9","02,5,+00450,1,99,9",,,"02,99,1,99,9,99,9,99999,9,99,9,99,9","10149,1,99999,9",,,,"MET057METAR GVBA 231600Z 02008KT 9999 FEW015 29/21 Q1015 NOSIG;",
"08594499999","2010-07-23T18:00:00","4","16.136531","-22.888897","21.03","BOA VISTA RABIL, CV","FM-15","GVBA ","V020","020,1,N,0051,1","22000,1,9,N","011265,1,N,1","+0290,1","+0200,1","99999,9","02,5,+00450,1,99,9",,,"02,99,1,99,9,99,9,99999,9,99,9,99,9","10139,1,99999,9",,,,"MET057METAR GVBA 231800Z 02010KT 9999 FEW015 29/20 Q1014 NOSIG;",
"08594499999","2010-07-23T19:00:00","4","16.136531","-22.888897","21.03","BOA VISTA RABIL, CV","FM-15","GVBA ","V020","020,1,N,0051,1","22000,1,9,N","011265,1,N,1","+0270,1","+0200,1","99999,9","02,5,+00450,1,99,9",,,"02,99,1,99,9,99,9,99999,9,99,9,99,9","10139,1,99999,9",,,,"MET057METAR GVBA 231900Z 02010KT 9999 FEW015 27/20 Q1014 NOSIG;",
"08594499999","2010-07-23T20:00:00","4","16.136531","-22.888897","21.03","BOA VISTA RABIL, CV","FM-15","GVBA ","V020","040,1,N,0051,1","22000,1,9,N","011265,1,N,1","+0260,1","+0200,1","99999,9","02,5,+00450,1,99,9",,,"02,99,1,99,9,99,9,99999,9,99,9,99,9","10149,1,99999,9",,,,"MET057METAR GVBA 232000Z 04010KT 9999 FEW015 26/20 Q1015 NOSIG;",
"08594499999","2010-07-24T08:00:00","4","16.136531","-22.888897","21.03","BOA VISTA RABIL, CV","FM-15","GVBA ","V020","010,1,N,0051,1","00450,1,C,N","011265,1,N,1","+0240,1","+0200,1","99999,9","02,5,+00390,1,99,9","07,5,+00450,1,99,9",,"07,99,1,99,9,99,9,99999,9,99,9,99,9","10149,1,99999,9",,,,"MET064METAR GVBA 240800Z 01010KT 9999 FEW013 BKN015 24/20 Q1015 NOSIG;",
"08594499999","2010-07-24T09:00:00","4","16.136531","-22.888897","21.03","BOA VISTA RABIL, CV","FM-15","GVBA ","V020","020,1,N,0072,1","00450,1,C,N","011265,1,N,1","+0250,1","+0200,1","99999,9","02,5,+00390,1,99,9","07,5,+00450,1,99,9",,"07,99,1,99,9,99,9,99999,9,99,9,99,9","10149,1,99999,9",,,,"MET064METAR GVBA 240900Z 02014KT 9999 FEW013 BKN015 25/20 Q1015 NOSIG;",
"08594499999","2010-07-24T10:00:00","4","16.136531","-22.888897","21.03","BOA VISTA RABIL, CV","FM-15","GVBA ","V020","020,1,N,0062,1","00450,1,C,N","011265,1,N,1","+0260,1","+0200,1","99999,9","07,5,+00450,1,99,9",,,"07,99,1,99,9,99,9,99999,9,99,9,99,9","10149,1,99999,9",,,,"MET057METAR GVBA 241000Z 02012KT 9999 BKN015 26/20 Q1015 NOSIG;",
"08594499999","2010-07-24T11:00:00","4","16.136531","-22.888897","21.03","BOA VISTA RABIL, CV","FM-15","GVBA ","V020","020,1,N,0067,1","00450,1,C,N","011265,1,N,1","+0270,1","+0200,1","99999,9","07,5,+00450,1,99,9",,,"07,99,1,99,9,99,9,99999,9,99,9,99,9","10149,1,99999,9",,,,"MET057METAR GVBA 241100Z 02013KT 9999 BKN015 27/20 Q1015 NOSIG;",
"08594499999","2010-07-24T13:00:00","4","16.136531","-22.888897","21.03","BOA VISTA RABIL, CV","FM-15","GVBA ","V020","030,1,N,0067,1","00450,1,C,N","011265,1,N,1","+0290,1","+0190,1","99999,9","07,5,+00450,1,99,9",,,"07,99,1,99,9,99,9,99999,9,99,9,99,9","10139,1,99999,9",,,,"MET057METAR GVBA 241300Z 03013KT 9999 BKN015 29/19 Q1014 NOSIG;",
"08594499999","2010-07-24T14:00:00","4","16.136531","-22.888897","21.03","BOA VISTA RABIL, CV","FM-15","GVBA ","V020","040,1,N,0072,1","00450,1,C,N","011265,1,N,1","+0290,1","+0200,1","99999,9","07,5,+00450,1,99,9",,,"07,99,1,99,9,99,9,99999,9,99,9,99,9","10139,1,99999,9",,,,"MET057METAR GVBA 241400Z 04014KT 9999 BKN015 29/20 Q1014 NOSIG;",
"08594499999","2010-07-24T15:00:00","4","16.136531","-22.888897","21.03","BOA VISTA RABIL, CV","FM-15","GVBA ","V020","050,1,N,0077,1","00450,1,C,N","011265,1,N,1","+0290,1","+0200,1","99999,9","07,5,+00450,1,99,9",,,"07,99,1,99,9,99,9,99999,9,99,9,99,9","10129,1,99999,9",,,,"MET057METAR GVBA 241500Z 05015KT 9999 BKN015 29/20 Q1013 NOSIG;",
"08594499999","2010-07-24T16:00:00","4","16.136531","-22.888897","21.03","BOA VISTA RABIL, CV","FM-15","GVBA ","V020","010,1,N,0077,1","00450,1,C,N","011265,1,N,1","+0290,1","+0210,1","99999,9","07,5,+00450,1,99,9",,,"07,99,1,99,9,99,9,99999,9,99,9,99,9","10119,1,99999,9",,,,"MET057METAR GVBA 241600Z 01015KT 9999 BKN015 29/21 Q1012 NOSIG;",
"08594499999","2010-07-24T17:00:00","4","16.136531","-22.888897","21.03","BOA VISTA RABIL, CV","FM-15","GVBA ","V020","020,1,N,0077,1","00450,1,C,N","011265,1,N,1","+0280,1","+0210,1","99999,9","07,5,+00450,1,99,9",,,"07,99,1,99,9,99,9,99999,9,99,9,99,9","10119,1,99999,9",,,,"MET057METAR GVBA 241700Z 02015KT 9999 BKN015 28/21 Q1012 NOSIG;",
"08594499999","2010-07-24T18:00:00","4","16.136531","-22.888897","21.03","BOA VISTA RABIL, CV","FM-15","GVBA ","V020","350,1,N,0067,1","00450,1,C,N","011265,1,N,1","+0270,1","+0200,1","99999,9","07,5,+00450,1,99,9",,,"07,99,1,99,9,99,9,99999,9,99,9,99,9","10108,1,99999,9",,,,"MET057METAR GVBA 241800Z 35013KT 9999 BKN015 27/20 Q1011 NOSIG;",
"08594499999","2010-07-24T19:00:00","4","16.136531","-22.888897","21.03","BOA VISTA RABIL, CV","FM-15","GVBA ","V020","360,1,N,0062,1","00450,1,C,N","011265,1,N,1","+0260,1","+0200,1","99999,9","07,5,+00450,1,99,9",,,"07,99,1,99,9,99,9,99999,9,99,9,99,9","10108,1,99999,9",,,,"MET057METAR GVBA 241900Z 36012KT 9999 BKN015 26/20 Q1011 NOSIG;",
"08594499999","2010-07-25T08:00:00","4","16.136531","-22.888897","21.03","BOA VISTA RABIL, CV","FM-15","GVBA ","V020","020,1,N,0041,1","00420,1,C,N","011265,1,N,1","+0240,1","+0220,1","99999,9","04,5,+00360,1,99,9","07,5,+00420,1,99,9",,"07,99,1,99,9,99,9,99999,9,99,9,99,9","10129,1,99999,9",,,,"MET064METAR GVBA 250800Z 02008KT 9999 SCT012 BKN014 24/22 Q1013 NOSIG;",
"08594499999","2010-07-25T09:00:00","4","16.136531","-22.888897","21.03","BOA VISTA RABIL, CV","FM-15","GVBA ","V020","360,1,N,0041,1","00420,1,C,N","011265,1,N,1","+0240,1","+0220,1","99999,9","04,5,+00360,1,99,9","07,5,+00420,1,99,9",,"07,99,1,99,9,99,9,99999,9,99,9,99,9","10129,1,99999,9",,,,"MET064METAR GVBA 250900Z 36008KT 9999 SCT012 BKN014 24/22 Q1013 NOSIG;",
"08594499999","2010-07-25T10:00:00","4","16.136531","-22.888897","21.03","BOA VISTA RABIL, CV","FM-15","GVBA ","V020","010,1,N,0051,1","00450,1,C,N","011265,1,N,1","+0250,1","+0220,1","99999,9","04,5,+00390,1,99,9","07,5,+00450,1,99,9",,"07,99,1,99,9,99,9,99999,9,99,9,99,9","10119,1,99999,9",,,,"MET064METAR GVBA 251000Z 01010KT 9999 SCT013 BKN015 25/22 Q1012 NOSIG;",
"08594499999","2010-07-25T11:00:00","4","16.136531","-22.888897","21.03","BOA VISTA RABIL, CV","FM-15","GVBA ","V020","020,1,N,0041,1","00450,1,C,N","011265,1,N,1","+0270,1","+0220,1","99999,9","04,5,+00390,1,99,9","07,5,+00450,1,99,9",,"07,99,1,99,9,99,9,99999,9,99,9,99,9","10129,1,99999,9",,,,"MET064METAR GVBA 251100Z 02008KT 9999 SCT013 BKN015 27/22 Q1013 NOSIG;",
"08594499999","2010-07-25T12:00:00","4","16.136531","-22.888897","21.03","BOA VISTA RABIL, CV","FM-15","GVBA ","V020","020,1,N,0046,1","00480,1,C,N","011265,1,N,1","+0280,1","+0220,1","99999,9","04,5,+00420,1,99,9","07,5,+00480,1,99,9",,"07,99,1,99,9,99,9,99999,9,99,9,99,9","10129,1,99999,9",,,,"MET064METAR GVBA 251200Z 02009KT 9999 SCT014 BKN016 28/22 Q1013 NOSIG;",
"08594499999","2010-07-25T13:00:00","4","16.136531","-22.888897","21.03","BOA VISTA RABIL, CV","FM-15","GVBA ","V020","010,1,N,0051,1","00480,1,C,N","011265,1,N,1","+0290,1","+0220,1","99999,9","02,5,+00420,1,99,9","07,5,+00480,1,99,9",,"07,99,1,99,9,99,9,99999,9,99,9,99,9","10119,1,99999,9",,,,"MET064METAR GVBA 251300Z 01010KT 9999 FEW014 BKN016 29/22 Q1012 NOSIG;",
"08594499999","2010-07-25T14:00:00","4","16.136531","-22.888897","21.03","BOA VISTA RABIL, CV","FM-15","GVBA ","V020","020,1,N,0051,1","00480,1,C,N","011265,1,N,1","+0300,1","+0210,1","99999,9","02,5,+00420,1,99,9","07,5,+00480,1,99,9",,"07,99,1,99,9,99,9,99999,9,99,9,99,9","10119,1,99999,9",,,,"MET064METAR GVBA 251400Z 02010KT 9999 FEW014 BKN016 30/21 Q1012 NOSIG;",
"08594499999","2010-07-25T15:00:00","4","16.136531","-22.888897","21.03","BOA VISTA RABIL, CV","FM-15","GVBA ","V020","040,1,N,0062,1","00480,1,C,N","011265,1,N,1","+0300,1","+0210,1","99999,9","07,5,+00480,1,99,9",,,"07,99,1,99,9,99,9,99999,9,99,9,99,9","10108,1,99999,9",,,,"MET057METAR GVBA 251500Z 04012KT 9999 BKN016 30/21 Q1011 NOSIG;",
"08594499999","2010-07-25T16:00:00","4","16.136531","-22.888897","21.03","BOA VISTA RABIL, CV","FM-15","GVBA ","V020","050,1,N,0072,1","22000,1,9,N","011265,1,N,1","+0300,1","+0210,1","99999,9","04,5,+00480,1,99,9",,,"04,99,1,99,9,99,9,99999,9,99,9,99,9","10108,1,99999,9",,,,"MET057METAR GVBA 251600Z 05014KT 9999 SCT016 30/21 Q1011 NOSIG;",
"08594499999","2010-07-25T17:00:00","4","16.136531","-22.888897","21.03","BOA VISTA RABIL, CV","FM-15","GVBA ","V020","070,1,N,0062,1","00480,1,C,N","011265,1,N,1","+0300,1","+0210,1","99999,9","07,5,+00480,1,99,9",,,"07,99,1,99,9,99,9,99999,9,99,9,99,9","10108,1,99999,9",,,,"MET057METAR GVBA 251700Z 07012KT 9999 BKN016 30/21 Q1011 NOSIG;",
"08594499999","2010-07-25T18:00:00","4","16.136531","-22.888897","21.03","BOA VISTA RABIL, CV","FM-15","GVBA ","V020","090,1,N,0051,1","00480,1,C,N","011265,1,N,1","+0290,1","+0210,1","99999,9","07,5,+00480,1,99,9",,,"07,99,1,99,9,99,9,99999,9,99,9,99,9","10108,1,99999,9",,,,"MET057METAR GVBA 251800Z 09010KT 9999 BKN016 29/21 Q1011 NOSIG;",
"08594499999","2010-07-25T19:00:00","4","16.136531","-22.888897","21.03","BOA VISTA RABIL, CV","FM-15","GVBA ","V020","080,1,N,0031,1","00480,1,C,N","011265,1,N,1","+0280,1","+0210,1","99999,9","07,5,+00480,1,99,9",,,"07,99,1,99,9,99,9,99999,9,99,9,99,9","10108,1,99999,9",,,,"MET057METAR GVBA 251900Z 08006KT 9999 BKN016 28/21 Q1011 NOSIG;",
"08594499999","2010-07-26T08:00:00","4","16.136531","-22.888897","21.03","BOA VISTA RABIL, CV","FM-15","GVBA ","V020","999,9,C,0000,1","99999,9,C,N","011265,1,N,1","+0240,1","+0220,1","99999,9","02,5,+00300,1,99,9","04,5,+00450,1,99,9",,"04,99,1,99,9,99,9,99999,9,99,9,99,9","10129,1,99999,9",,,,"MET064METAR GVBA 260800Z 00000KT 9999 FEW010 SCT015 24/22 Q1013 NOSIG;","P01 004503SCOCIG"
"08594499999","2010-07-26T09:00:00","4","16.136531","-22.888897","21.03","BOA VISTA RABIL, CV","FM-15","GVBA ","V020","090,1,N,0021,1","22000,1,9,N","011265,1,N,1","+0260,1","+0230,1","99999,9","02,5,+00390,1,99,9",,,"02,99,1,99,9,99,9,99999,9,99,9,99,9","10129,1,99999,9",,,,"MET057METAR GVBA 260900Z 09004KT 9999 FEW013 26/23 Q1013 NOSIG;",
"08594499999","2010-07-26T10:00:00","4","16.136531","-22.888897","21.03","BOA VISTA RABIL, CV","FM-15","GVBA ","V020","090,1,N,0041,1","00450,1,C,N","011265,1,N,1","+0290,1","+0220,1","99999,9","07,5,+00450,1,99,9",,,"07,99,1,99,9,99,9,99999,9,99,9,99,9","10129,1,99999,9",,,,"MET057METAR GVBA 261000Z 09008KT 9999 BKN015 29/22 Q1013 NOSIG;",
"08594499999","2010-07-26T11:00:00","4","16.136531","-22.888897","21.03","BOA VISTA RABIL, CV","FM-15","GVBA ","V020","150,1,N,0051,1","00450,1,C,N","011265,1,N,1","+9999,9","+0210,1","99999,9","07,5,+00450,1,99,9",,,"07,99,1,99,9,99,9,99999,9,99,9,99,9","10139,1,99999,9",,,,"MET057METAR GVBA 261100Z 15010KT 9999 BKN015 21/21 Q1014 NOSIG;","Q01+002103ATOT  Q02 +02103ATOT  "
"08594499999","2010-07-26T12:00:00","4","16.136531","-22.888897","21.03","BOA VISTA RABIL, CV","FM-15","GVBA ","V020","160,1,N,0051,1","00450,1,C,N","011265,1,N,1","+0300,1","+0220,1","99999,9","07,5,+00450,1,99,9",,,"07,99,1,99,9,99,9,99999,9,99,9,99,9","10139,1,99999,9",,,,"MET057METAR GVBA 261200Z 16010KT 9999 BKN015 30/22 Q1014 NOSIG;",
"08594499999","2010-07-26T13:00:00","4","16.136531","-22.888897","21.03","BOA VISTA RABIL, CV","FM-15","GVBA ","V020","160,1,N,0067,1","00450,1,C,N","011265,1,N,1","+0320,1","+0220,1","99999,9","07,5,+00450,1,99,9",,,"07,99,1,99,9,99,9,99999,9,99,9,99,9","10129,1,99999,9",,,,"MET057METAR GVBA 261300Z 16013KT 9999 BKN015 32/22 Q1013 NOSIG;",
"08594499999","2010-07-26T14:00:00","4","16.136531","-22.888897","21.03","BOA VISTA RABIL, CV","FM-15","GVBA ","V020","999,9,V,0031,1","00450,1,C,N","011265,1,N,1","+0320,1","+0230,1","99999,9","07,5,+00450,1,99,9",,,"07,99,1,99,9,99,9,99999,9,99,9,99,9","10129,1,99999,9",,,,"MET057METAR GVBA 261400Z VRB06KT 9999 BKN015 32/23 Q1013 NOSIG;",
"08594499999","2010-07-26T15:00:00","4","16.136531","-22.888897","21.03","BOA VISTA RABIL, CV","FM-15","GVBA ","V020","320,1,N,0051,1","00450,1,C,N","011265,1,N,1","+0300,1","+0230,1","99999,9","07,5,+00450,1,99,9",,,"07,99,1,99,9,99,9,99999,9,99,9,99,9","10129,1,99999,9",,,,"MET057METAR GVBA 261500Z 32010KT 9999 BKN015 30/23 Q1013 NOSIG;",
"08594499999","2010-07-26T16:00:00","4","16.136531","-22.888897","21.03","BOA VISTA RABIL, CV","FM-15","GVBA ","V020","330,1,N,0057,1","00450,1,C,N","011265,1,N,1","+0290,1","+0230,1","99999,9","07,5,+00450,1,99,9",,,"07,99,1,99,9,99,9,99999,9,99,9,99,9","10119,1,99999,9",,,,"MET057METAR GVBA 261600Z 33011KT 9999 BKN015 29/23 Q1012 NOSIG;",
"08594499999","2010-07-26T17:00:00","4","16.136531","-22.888897","21.03","BOA VISTA RABIL, CV","FM-15","GVBA ","V020","320,1,N,0046,1","00450,1,C,N","011265,1,N,1","+0300,1","+0230,1","99999,9","07,5,+00450,1,99,9",,,"07,99,1,99,9,99,9,99999,9,99,9,99,9","10119,1,99999,9",,,,"MET057METAR GVBA 261700Z 32009KT 9999 BKN015 30/23 Q1012 NOSIG;",
"08594499999","2010-07-26T18:00:00","4","16.136531","-22.888897","21.03","BOA VISTA RABIL, CV","FM-15","GVBA ","V020","320,1,N,0041,1","00450,1,C,N","011265,1,N,1","+0290,1","+0230,1","99999,9","07,5,+00450,1,99,9",,,"07,99,1,99,9,99,9,99999,9,99,9,99,9","10119,1,99999,9",,,,"MET057METAR GVBA 261800Z 32008KT 9999 BKN015 29/23 Q1012 NOSIG;",
"08594499999","2010-07-27T08:00:00","4","16.136531","-22.888897","21.03","BOA VISTA RABIL, CV","FM-15","GVBA ","V020","050,1,N,0015,1","22000,1,9,N","011265,1,N,1","+0250,1","+0230,1","99999,9","02,5,+00330,1,99,9",,,"02,99,1,99,9,99,9,99999,9,99,9,99,9","10139,1,99999,9",,,,"MET057METAR GVBA 270800Z 05003KT 9999 FEW011 25/23 Q1014 NOSIG;",
"08594499999","2010-07-27T09:00:00","4","16.136531","-22.888897","21.03","BOA VISTA RABIL, CV","FM-15","GVBA ","V020","050,1,N,0041,1","22000,1,9,N","011265,1,N,1","+9999,9","+0240,1","99999,9","02,5,+00390,1,99,9",,,"02,99,1,99,9,99,9,99999,9,99,9,99,9","10139,1,99999,9",,,,"MET058METAR GVBA 270900Z 05008KT 9999 FEW013 270/24 Q1014 NOSIG;",
"08594499999","2010-07-27T10:00:00","4","16.136531","-22.888897","21.03","BOA VISTA RABIL, CV","FM-15","GVBA ","V020","040,1,N,0051,1","22000,1,9,N","011265,1,N,1","+0290,1","+0230,1","99999,9","04,5,+00420,1,99,9",,,"04,99,1,99,9,99,9,99999,9,99,9,99,9","10149,1,99999,9",,,,"MET057METAR GVBA 271000Z 04010KT 9999 SCT014 29/23 Q1015 NOSIG;",
"08594499999","2010-07-27T11:00:00","4","16.136531","-22.888897","21.03","BOA VISTA RABIL, CV","FM-15","GVBA ","V020","050,1,N,0046,1","00450,1,C,N","011265,1,N,1","+0300,1","+0230,1","99999,9","07,5,+00450,1,99,9",,,"07,99,1,99,9,99,9,99999,9,99,9,99,9","10149,1,99999,9",,,,"MET057METAR GVBA 271100Z 05009KT 9999 BKN015 30/23 Q1015 NOSIG;",
"08594499999","2010-07-27T13:00:00","4","16.136531","-22.888897","21.03","BOA VISTA RABIL, CV","FM-15","GVBA ","V020","020,1,N,0051,1","06000,1,C,N","011265,1,N,1","+0310,1","+0220,1","99999,9","02,5,+00450,1,99,9","07,5,+06000,1,99,9",,"07,99,1,99,9,99,9,99999,9,99,9,99,9","10139,1,99999,9",,,,"MET064METAR GVBA 271300Z 02010KT 9999 FEW015 BKN200 31/22 Q1014 NOSIG;",
"08594499999","2010-07-27T14:00:00","4","16.136531","-22.888897","21.03","BOA VISTA RABIL, CV","FM-15","GVBA ","V020","040,1,N,0051,1","99999,9,C,N","011265,1,N,1","+0310,1","+0220,1","99999,9","04,5,+00450,1,99,9","04,5,+06000,1,99,9",,"04,99,1,99,9,99,9,99999,9,99,9,99,9","10139,1,99999,9",,,,"MET064METAR GVBA 271400Z 04010KT 9999 SCT015 SCT200 31/22 Q1014 NOSIG;","P01 060003SCOCIG"
"08594499999","2010-07-27T15:00:00","4","16.136531","-22.888897","21.03","BOA VISTA RABIL, CV","FM-15","GVBA ","V020","020,1,N,0062,1","99999,9,C,N","011265,1,N,1","+0310,1","+0220,1","99999,9","04,5,+00450,1,99,9","04,5,+06000,1,99,9",,"04,99,1,99,9,99,9,99999,9,99,9,99,9","10129,1,99999,9",,,,"MET064METAR GVBA 271500Z 02012KT 9999 SCT015 SCT200 31/22 Q1013 NOSIG;","P01 060003SCOCIG"
"08594499999","2010-07-27T16:00:00","4","16.136531","-22.888897","21.03","BOA VISTA RABIL, CV","FM-15","GVBA ","V020","010,1,N,0057,1","99999,9,C,N","011265,1,N,1","+0310,1","+0220,1","99999,9","04,5,+00450,1,99,9","04,5,+06000,1,99,9",,"04,99,1,99,9,99,9,99999,9,99,9,99,9","10129,1,99999,9",,,,"MET064METAR GVBA 271600Z 01011KT 9999 SCT015 SCT200 31/22 Q1013 NOSIG;","P01 060003SCOCIG"
"08594499999","2010-07-27T17:00:00","4","16.136531","-22.888897","21.03","BOA VISTA RABIL, CV","FM-15","GVBA ","V020","030,1,N,0051,1","99999,9,C,N","011265,1,N,1","+0310,1","+0220,1","99999,9","02,5,+00450,1,99,9","04,5,+06000,1,99,9",,"04,99,1,99,9,99,9,99999,9,99,9,99,9","10119,1,99999,9",,,,"MET064METAR GVBA 271700Z 03010KT 9999 FEW015 SCT200 31/22 Q1012 NOSIG;","P01 060003SCOCIG"
"08594499999","2010-07-27T18:00:00","4","16.136531","-22.888897","21.03","BOA VISTA RABIL, CV","FM-15","GVBA ","V020","020,1,N,0051,1","22000,1,9,N","011265,1,N,1","+0300,1","+0210,1","99999,9","02,5,+00450,1,99,9",,,"02,99,1,99,9,99,9,99999,9,99,9,99,9","10119,1,99999,9",,,,"MET057METAR GVBA 271800Z 02010KT 9999 FEW015 30/21 Q1012 NOSIG;",
"08594499999","2010-07-27T19:00:00","4","16.136531","-22.888897","21.03","BOA VISTA RABIL, CV","FM-15","GVBA ","V020","010,1,N,0041,1","22000,1,9,N","011265,1,N,1","+0290,1","+0220,1","99999,9","02,5,+00450,1,99,9",,,"02,99,1,99,9,99,9,99999,9,99,9,99,9","10129,1,99999,9",,,,"MET057METAR GVBA 271900Z 01008KT 9999 FEW015 29/22 Q1013 NOSIG;",
"08594499999","2010-07-28T08:00:00","4","16.136531","-22.888897","21.03","BOA VISTA RABIL, CV","FM-15","GVBA ","V020","360,1,N,0041,1","00450,1,C,N","011265,1,N,1","+0260,1","+0220,1","99999,9","07,5,+00450,1,99,9",,,"07,99,1,99,9,99,9,99999,9,99,9,99,9","10139,1,99999,9",,,,"MET057METAR GVBA 280800Z 36008KT 9999 BKN015 26/22 Q1014 NOSIG;",
"08594499999","2010-07-28T09:00:00","4","16.136531","-22.888897","21.03","BOA VISTA RABIL, CV","FM-15","GVBA ","V020","010,1,N,0062,1","00450,1,C,N","011265,1,N,1","+0260,1","+0220,1","99999,9","07,5,+00450,1,99,9",,,"07,99,1,99,9,99,9,99999,9,99,9,99,9","10139,1,99999,9",,,,"MET057METAR GVBA 280900Z 01012KT 9999 BKN015 26/22 Q1014 NOSIG;",
"08594499999","2010-07-28T10:00:00","4","16.136531","-22.888897","21.03","BOA VISTA RABIL, CV","FM-15","GVBA ","V020","350,1,N,0051,1","22000,1,9,N","011265,1,N,1","+0280,1","+0210,1","99999,9","02,5,+00450,1,99,9",,,"02,99,1,99,9,99,9,99999,9,99,9,99,9","10139,1,99999,9",,,,"MET057METAR GVBA 281000Z 35010KT 9999 FEW015 28/21 Q1014 NOSIG;",
"08594499999","2010-07-28T11:00:00","4","16.136531","-22.888897","21.03","BOA VISTA RABIL, CV","FM-15","GVBA ","V020","010,1,N,0041,1","22000,1,9,N","011265,1,N,1","+0290,1","+0210,1","99999,9","04,5,+00450,1,99,9",,,"04,99,1,99,9,99,9,99999,9,99,9,99,9","10149,1,99999,9",,,,"MET057METAR GVBA 281100Z 01008KT 9999 SCT015 29/21 Q1015 NOSIG;",
"08594499999","2010-07-28T12:00:00","4","16.136531","-22.888897","21.03","BOA VISTA RABIL, CV","FM-15","GVBA ","V020","360,1,N,0062,1","00450,1,C,N","011265,1,N,1","+0290,1","+0210,1","99999,9","07,5,+00450,1,99,9",,,"07,99,1,99,9,99,9,99999,9,99,9,99,9","10139,1,99999,9",,,,"MET057METAR GVBA 281200Z 36012KT 9999 BKN015 29/21 Q1014 NOSIG;",
"08594499999","2010-07-28T13:00:00","4","16.136531","-22.888897","21.03","BOA VISTA RABIL, CV","FM-15","GVBA ","V020","010,1,N,0051,1","00450,1,C,N","011265,1,N,1","+0300,1","+0210,1","99999,9","07,5,+00450,1,99,9",,,"07,99,1,99,9,99,9,99999,9,99,9,99,9","10139,1,99999,9",,,,"MET057METAR GVBA 281300Z 01010KT 9999 BKN015 30/21 Q1014 NOSIG;",
"08594499999","2010-07-28T14:00:00","4","16.136531","-22.888897","21.03","BOA VISTA RABIL, CV","FM-15","GVBA ","V020","010,1,N,0082,1","00450,1,C,N","011265,1,N,1","+0300,1","+0210,1","99999,9","07,5,+00450,1,99,9",,,"07,99,1,99,9,99,9,99999,9,99,9,99,9","10129,1,99999,9",,,,"MET057METAR GVBA 281400Z 01016KT 9999 BKN015 30/21 Q1013 NOSIG;",
"08594499999","2010-07-28T15:00:00","4","16.136531","-22.888897","21.03","BOA VISTA RABIL, CV","FM-15","GVBA ","V020","030,1,N,0077,1","00450,1,C,N","011265,1,N,1","+0290,1","+0220,1","99999,9","07,5,+00450,1,99,9",,,"07,99,1,99,9,99,9,99999,9,99,9,99,9","10129,1,99999,9",,,,"MET057METAR GVBA 281500Z 03015KT 9999 BKN015 29/22 Q1013 NOSIG;",
"08594499999","2010-07-28T16:00:00","4","16.136531","-22.888897","21.03","BOA VISTA RABIL, CV","FM-15","GVBA ","V020","020,1,N,0077,1","22000,1,9,N","011265,1,N,1","+0290,1","+0210,1","99999,9","04,5,+00450,1,99,9",,,"04,99,1,99,9,99,9,99999,9,99,9,99,9","10129,1,99999,9",,,,"MET057METAR GVBA 281600Z 02015KT 9999 SCT015 29/21 Q1013 NOSIG;",
"08594499999","2010-07-28T17:00:00","4","16.136531","-22.888897","21.03","BOA VISTA RABIL, CV","FM-15","GVBA ","V020","040,1,N,0082,1","22000,1,9,N","011265,1,N,1","+0290,1","+0210,1","99999,9","04,5,+00450,1,99,9",,,"04,99,1,99,9,99,9,99999,9,99,9,99,9","10129,1,99999,9",,,,"MET057METAR GVBA 281700Z 04016KT 9999 SCT015 29/21 Q1013 NOSIG;",
"08594499999","2010-07-28T18:00:00","4","16.136531","-22.888897","21.03","BOA VISTA RABIL, CV","FM-15","GVBA ","V020","020,1,N,0082,1","00450,1,C,N","011265,1,N,1","+0280,1","+0210,1","99999,9","07,5,+00450,1,99,9",,,"07,99,1,99,9,99,9,99999,9,99,9,99,9","10129,1,99999,9",,,,"MET057METAR GVBA 281800Z 02016KT 9999 BKN015 28/21 Q1013 NOSIG;",
"08594499999","2010-07-28T19:00:00","4","16.136531","-22.888897","21.03","BOA VISTA RABIL, CV","FM-15","GVBA ","V020","030,1,N,0072,1","00450,1,C,N","011265,1,N,1","+0270,1","+0210,1","99999,9","07,5,+00450,1,99,9",,,"07,99,1,99,9,99,9,99999,9,99,9,99,9","10129,1,99999,9",,,,"MET057METAR GVBA 281900Z 03014KT 9999 BKN015 27/21 Q1013 NOSIG;",
"08594499999","2010-07-29T08:00:00","4","16.136531","-22.888897","21.03","BOA VISTA RABIL, CV","FM-15","GVBA ","V020","050,1,N,0062,1","00450,1,C,N","011265,1,N,1","+0250,1","+0200,1","99999,9","07,5,+00450,1,99,9",,,"07,99,1,99,9,99,9,99999,9,99,9,99,9","10139,1,99999,9",,,,"MET057METAR GVBA 290800Z 05012KT 9999 BKN015 25/20 Q1014 NOSIG;",
"08594499999","2010-07-29T09:00:00","4","16.136531","-22.888897","21.03","BOA VISTA RABIL, CV","FM-15","GVBA ","V020","030,1,N,0072,1","00450,1,C,N","011265,1,N,1","+0260,1","+0200,1","99999,9","07,5,+00450,1,99,9",,,"07,99,1,99,9,99,9,99999,9,99,9,99,9","10139,1,99999,9",,,,"MET057METAR GVBA 290900Z 03014KT 9999 BKN015 26/20 Q1014 NOSIG;",
"08594499999","2010-07-29T10:00:00","4","16.136531","-22.888897","21.03","BOA VISTA RABIL, CV","FM-15","GVBA ","V020","030,1,N,0062,1","00450,1,C,N","011265,1,N,1","+0270,1","+0200,1","99999,9","07,5,+00450,1,99,9",,,"07,99,1,99,9,99,9,99999,9,99,9,99,9","10139,1,99999,9",,,,"MET057METAR GVBA 291000Z 03012KT 9999 BKN015 27/20 Q1014 NOSIG;",
"08594499999","2010-07-29T11:00:00","4","16.136531","-22.888897","21.03","BOA VISTA RABIL, CV","FM-15","GVBA ","V020","040,1,N,0057,1","00450,1,C,N","011265,1,N,1","+0270,1","+0200,1","99999,9","07,5,+00450,1,99,9",,,"07,99,1,99,9,99,9,99999,9,99,9,99,9","10149,1,99999,9",,,,"MET057METAR GVBA 291100Z 04011KT 9999 BKN015 27/20 Q1015 NOSIG;",
"08594499999","2010-07-29T12:00:00","4","16.136531","-22.888897","21.03","BOA VISTA RABIL, CV","FM-15","GVBA ","V020","060,1,N,0057,1","00450,1,C,N","011265,1,N,1","+0280,1","+0200,1","99999,9","07,5,+00450,1,99,9",,,"07,99,1,99,9,99,9,99999,9,99,9,99,9","10139,1,99999,9",,,,"MET057METAR GVBA 291200Z 06011KT 9999 BKN015 28/20 Q1014 NOSIG;",
"08594499999","2010-07-29T14:00:00","4","16.136531","-22.888897","21.03","BOA VISTA RABIL, CV","FM-15","GVBA ","V020","010,1,N,0067,1","00450,1,C,N","011265,1,N,1","+0290,1","+0200,1","99999,9","07,5,+00450,1,99,9",,,"07,99,1,99,9,99,9,99999,9,99,9,99,9","10139,1,99999,9",,,,"MET057METAR GVBA 291400Z 01013KT 9999 BKN015 29/20 Q1014 NOSIG;",
"08594499999","2010-07-29T15:00:00","4","16.136531","-22.888897","21.03","BOA VISTA RABIL, CV","FM-15","GVBA ","V020","360,1,N,0062,1","00450,1,C,N","011265,1,N,1","+0290,1","+0200,1","99999,9","07,5,+00450,1,99,9",,,"07,99,1,99,9,99,9,99999,9,99,9,99,9","10129,1,99999,9",,,,"MET057METAR GVBA 291500Z 36012KT 9999 BKN015 29/20 Q1013 NOSIG;",
"08594499999","2010-07-29T16:00:00","4","16.136531","-22.888897","21.03","BOA VISTA RABIL, CV","FM-15","GVBA ","V020","010,1,N,0062,1","00450,1,C,N","011265,1,N,1","+0290,1","+0200,1","99999,9","07,5,+00450,1,99,9",,,"07,99,1,99,9,99,9,99999,9,99,9,99,9","10119,1,99999,9",,,,"MET057METAR GVBA 291600Z 01012KT 9999 BKN015 29/20 Q1012 NOSIG;",
"08594499999","2010-07-29T17:00:00","4","16.136531","-22.888897","21.03","BOA VISTA RABIL, CV","FM-15","GVBA ","V020","020,1,N,0051,1","00450,1,C,N","011265,1,N,1","+0290,1","+0190,1","99999,9","07,5,+00450,1,99,9",,,"07,99,1,99,9,99,9,99999,9,99,9,99,9","10119,1,99999,9",,,,"MET057METAR GVBA 291700Z 02010KT 9999 BKN015 29/19 Q1012 NOSIG;",
"08594499999","2010-07-29T18:00:00","4","16.136531","-22.888897","21.03","BOA VISTA RABIL, CV","FM-15","GVBA ","V020","020,1,N,0051,1","00450,1,C,N","011265,1,N,1","+0280,1","+0190,1","99999,9","07,5,+00450,1,99,9",,,"07,99,1,99,9,99,9,99999,9,99,9,99,9","10119,1,99999,9",,,,"MET057METAR GVBA 291800Z 02010KT 9999 BKN015 28/19 Q1012 NOSIG;",
"08594499999","2010-07-29T19:00:00","4","16.136531","-22.888897","21.03","BOA VISTA RABIL, CV","FM-15","GVBA ","V020","010,1,N,0041,1","00450,1,C,N","011265,1,N,1","+0270,1","+0190,1","99999,9","07,5,+00450,1,99,9",,,"07,99,1,99,9,99,9,99999,9,99,9,99,9","10119,1,99999,9",,,,"MET057METAR GVBA 291900Z 01008KT 9999 BKN015 27/19 Q1012 NOSIG;",
"08594499999","2010-07-30T08:00:00","4","16.136531","-22.888897","21.03","BOA VISTA RABIL, CV","FM-15","GVBA ","V020","020,1,N,0021,1","00450,1,C,N","011265,1,N,1","+0250,1","+0190,1","99999,9","07,5,+00450,1,99,9",,,"07,99,1,99,9,99,9,99999,9,99,9,99,9","10119,1,99999,9",,,,"MET057METAR GVBA 300800Z 02004KT 9999 BKN015 25/19 Q1012 NOSIG;",
"08594499999","2010-07-30T09:00:00","4","16.136531","-22.888897","21.03","BOA VISTA RABIL, CV","FM-15","GVBA ","V020","020,1,N,0026,1","00450,1,C,N","011265,1,N,1","+0260,1","+0190,1","99999,9","07,5,+00450,1,99,9",,,"07,99,1,99,9,99,9,99999,9,99,9,99,9","10119,1,99999,9",,,,"MET057METAR GVBA 300900Z 02005KT 9999 BKN015 26/19 Q1012 NOSIG;",
"08594499999","2010-07-30T10:00:00","4","16.136531","-22.888897","21.03","BOA VISTA RABIL, CV","FM-15","GVBA ","V020","010,1,N,0041,1","00450,1,C,N","011265,1,N,1","+0280,1","+0200,1","99999,9","07,5,+00450,1,99,9",,,"07,99,1,99,9,99,9,99999,9,99,9,99,9","10119,1,99999,9",,,,"MET057METAR GVBA 301000Z 01008KT 9999 BKN015 28/20 Q1012 NOSIG;",
"08594499999","2010-07-30T11:00:00","4","16.136531","-22.888897","21.03","BOA VISTA RABIL, CV","FM-15","GVBA ","V020","360,1,N,0051,1","00450,1,C,N","011265,1,N,1","+0290,1","+0200,1","99999,9","07,5,+00450,1,99,9",,,"07,99,1,99,9,99,9,99999,9,99,9,99,9","10129,1,99999,9",,,,"MET057METAR GVBA 301100Z 36010KT 9999 BKN015 29/20 Q1013 NOSIG;",
"08594499999","2010-07-30T12:00:00","4","16.136531","-22.888897","21.03","BOA VISTA RABIL, CV","FM-15","GVBA ","V020","030,1,N,0041,1","00450,1,C,N","011265,1,N,1","+0300,1","+0190,1","99999,9","07,5,+00450,1,99,9",,,"07,99,1,99,9,99,9,99999,9,99,9,99,9","10119,1,99999,9",,,,"MET057METAR GVBA 301200Z 03008KT 9999 BKN015 30/19 Q1012 NOSIG;",
"08594499999","2010-07-30T19:00:00","4","16.136531","-22.888897","21.03","BOA VISTA RABIL, CV","FM-15","GVBA ","V020","050,1,N,0051,1","00450,1,C,N","011265,1,N,1","+0280,1","+0200,1","99999,9","07,5,+00450,1,99,9","07,5,+06000,1,99,9",,"07,99,1,99,9,99,9,99999,9,99,9,99,9","10108,1,99999,9",,,,"MET064METAR GVBA 301900Z 05010KT 9999 BKN015 BKN200 28/20 Q1011 NOSIG;",
"08594499999","2010-07-31T08:00:00","4","16.136531","-22.888897","21.03","BOA VISTA RABIL, CV","FM-15","GVBA ","V020","999,9,C,0000,1","22000,1,9,N","011265,1,N,1","+0230,1","+0200,1","99999,9","02,5,+00450,1,99,9",,,"02,99,1,99,9,99,9,99999,9,99,9,99,9","10108,1,99999,9",,,,"MET057METAR GVBA 310800Z 00000KT 9999 FEW015 23/20 Q1011 NOSIG;",
"08594499999","2010-07-31T09:00:00","4","16.136531","-22.888897","21.03","BOA VISTA RABIL, CV","FM-15","GVBA ","V020","040,1,N,0031,1","22000,1,9,N","011265,1,N,1","+0260,1","+0220,1","99999,9","02,5,+00450,1,99,9",,,"02,99,1,99,9,99,9,99999,9,99,9,99,9","10119,1,99999,9",,,,"MET057METAR GVBA 310900Z 04006KT 9999 FEW015 26/22 Q1012 NOSIG;",
"08594499999","2010-07-31T10:00:00","4","16.136531","-22.888897","21.03","BOA VISTA RABIL, CV","FM-15","GVBA ","V020","040,1,N,0041,1","22000,1,9,N","011265,1,N,1","+0280,1","+0220,1","99999,9","04,5,+00450,1,99,9",,,"04,99,1,99,9,99,9,99999,9,99,9,99,9","10119,1,99999,9",,,,"MET057METAR GVBA 311000Z 04008KT 9999 SCT015 28/22 Q1012 NOSIG;",
"08594499999","2010-07-31T11:00:00","4","16.136531","-22.888897","21.03","BOA VISTA RABIL, CV","FM-15","GVBA ","V020","030,1,N,0046,1","22000,1,9,N","011265,1,N,1","+0280,1","+0210,1","99999,9","04,5,+00450,1,99,9",,,"04,99,1,99,9,99,9,99999,9,99,9,99,9","10119,1,99999,9",,,,"MET057METAR GVBA 311100Z 03009KT 9999 SCT015 28/21 Q1012 NOSIG;",
"08594499999","2010-07-31T12:00:00","4","16.136531","-22.888897","21.03","BOA VISTA RABIL, CV","FM-15","GVBA ","V020","040,1,N,0041,1","22000,1,9,N","011265,1,N,1","+0300,1","+0220,1","99999,9","04,5,+00450,1,99,9",,,"04,99,1,99,9,99,9,99999,9,99,9,99,9","10119,1,99999,9",,,,"MET057METAR GVBA 311200Z 04008KT 9999 SCT015 30/22 Q1012 NOSIG;",
"08594499999","2010-07-31T13:00:00","4","16.136531","-22.888897","21.03","BOA VISTA RABIL, CV","FM-15","GVBA ","V020","020,1,N,0051,1","22000,1,9,N","011265,1,N,1","+0300,1","+0220,1","99999,9","04,5,+00450,1,99,9",,,"04,99,1,99,9,99,9,99999,9,99,9,99,9","10119,1,99999,9",,,,"MET057METAR GVBA 311300Z 02010KT 9999 SCT015 30/22 Q1012 NOSIG;",
"08594499999","2010-07-31T14:00:00","4","16.136531","-22.888897","21.03","BOA VISTA RABIL, CV","FM-15","GVBA ","V020","010,1,N,0062,1","22000,1,9,N","011265,1,N,1","+0310,1","+0220,1","99999,9","04,5,+00450,1,99,9",,,"04,99,1,99,9,99,9,99999,9,99,9,99,9","10108,1,99999,9",,,,"MET057METAR GVBA 311400Z 01012KT 9999 SCT015 31/22 Q1011 NOSIG;",
"08594499999","2010-07-31T15:00:00","4","16.136531","-22.888897","21.03","BOA VISTA RABIL, CV","FM-15","GVBA ","V020","030,1,N,0067,1","22000,1,9,N","011265,1,N,1","+0310,1","+0220,1","99999,9","02,5,+00450,1,99,9",,,"02,99,1,99,9,99,9,99999,9,99,9,99,9","10102,1,99999,9",,,,"MET057METAR GVBA 311500Z 03013KT 9999 FEW015 31/22 Q1010 NOSIG;",
"08594499999","2010-07-31T16:00:00","4","16.136531","-22.888897","21.03","BOA VISTA RABIL, CV","FM-15","GVBA ","V020","030,1,N,0067,1","99999,9,C,N","011265,1,N,1","+0310,1","+0220,1","99999,9","02,5,+00450,1,99,9","04,5,+06000,1,99,9",,"04,99,1,99,9,99,9,99999,9,99,9,99,9","10102,1,99999,9",,,,"MET064METAR GVBA 311600Z 03013KT 9999 FEW015 SCT200 31/22 Q1010 NOSIG;","P01 060003SCOCIG"
"08594499999","2010-07-31T17:00:00","4","16.136531","-22.888897","21.03","BOA VISTA RABIL, CV","FM-15","GVBA ","V020","020,1,N,0041,1","22000,1,9,N","011265,1,N,1","+0310,1","+0220,1","99999,9","02,5,+00450,1,99,9",,,"02,99,1,99,9,99,9,99999,9,99,9,99,9","10102,1,99999,9",,,,"MET057METAR GVBA 311700Z 02008KT 9999 FEW015 31/22 Q1010 NOSIG;",
"08594499999","2010-07-31T18:00:00","4","16.136531","-22.888897","21.03","BOA VISTA RABIL, CV","FM-15","GVBA ","V020","010,1,N,0041,1","99999,9,C,N","011265,1,N,1","+0310,1","+0210,1","99999,9","02,5,+00450,1,99,9","04,5,+06000,1,99,9",,"04,99,1,99,9,99,9,99999,9,99,9,99,9","10091,1,99999,9",,,,"MET064METAR GVBA 311800Z 01008KT 9999 FEW015 SCT200 31/21 Q1009 NOSIG;","P01 060003SCOCIG"
"08594499999","2010-07-31T19:00:00","4","16.136531","-22.888897","21.03","BOA VISTA RABIL, CV","FM-15","GVBA ","V020","020,1,N,0031,1","22000,1,9,N","011265,1,N,1","+0290,1","+0220,1","99999,9","02,1,+00030,1,99,9",,,"02,99,1,99,9,99,9,99999,9,99,9,99,9","10091,1,99999,9",,,,"MET056METAR GVBA 311900Z 02006KT 9999 FEW01 29/22 Q1009 NOSIG;",
"08594499999","2010-08-01T08:00:00","4","16.136531","-22.888897","21.03","BOA VISTA RABIL, CV","FM-15","GVBA ","V020","360,1,N,0015,1","22000,1,9,N","011265,1,N,1","+0240,1","+0230,1","99999,9","02,5,+00360,1,99,9",,,"02,99,1,99,9,99,9,99999,9,99,9,99,9","10108,1,99999,9",,,,"MET057METAR GVBA 010800Z 36003KT 9999 FEW012 24/23 Q1011 NOSIG;",
"08594499999","2010-08-01T09:00:00","4","16.136531","-22.888897","21.03","BOA VISTA RABIL, CV","FM-15","GVBA ","V020","010,1,N,0026,1","22000,1,9,N","011265,1,N,1","+0260,1","+0230,1","99999,9","02,5,+00390,1,99,9",,,"02,99,1,99,9,99,9,99999,9,99,9,99,9","10108,1,99999,9",,,,"MET057METAR GVBA 010900Z 01005KT 9999 FEW013 26/23 Q1011 NOSIG;",
"08594499999","2010-08-01T10:00:00","4","16.136531","-22.888897","21.03","BOA VISTA RABIL, CV","FM-15","GVBA ","V020","030,1,N,0031,1","22000,1,9,N","011265,1,N,1","+0270,1","+0230,1","99999,9","02,5,+00450,1,99,9",,,"02,99,1,99,9,99,9,99999,9,99,9,99,9","10108,1,99999,9",,,,"MET057METAR GVBA 011000Z 03006KT 9999 FEW015 27/23 Q1011 NOSIG;",
"08594499999","2010-08-01T11:00:00","4","16.136531","-22.888897","21.03","BOA VISTA RABIL, CV","FM-15","GVBA ","V020","020,1,N,0031,1","22000,1,9,N","011265,1,N,1","+0290,1","+0230,1","99999,9","02,5,+00450,1,99,9",,,"02,99,1,99,9,99,9,99999,9,99,9,99,9","10108,1,99999,9",,,,"MET057METAR GVBA 011100Z 02006KT 9999 FEW015 29/23 Q1011 NOSIG;",
"08594499999","2010-08-01T12:00:00","4","16.136531","-22.888897","21.03","BOA VISTA RABIL, CV","FM-15","GVBA ","V020","330,1,N,0046,1","22000,1,9,N","011265,1,N,1","+0290,1","+0220,1","99999,9","02,5,+00450,1,99,9",,,"02,99,1,99,9,99,9,99999,9,99,9,99,9","10108,1,99999,9",,,,"MET057METAR GVBA 011200Z 33009KT 9999 FEW015 29/22 Q1011 NOSIG;",
"08594499999","2010-08-01T13:00:00","4","16.136531","-22.888897","21.03","BOA VISTA RABIL, CV","FM-15","GVBA ","V020","320,1,N,0051,1","22000,1,9,N","011265,1,N,1","+0290,1","+0220,1","99999,9","02,5,+00450,1,99,9",,,"02,99,1,99,9,99,9,99999,9,99,9,99,9","10102,1,99999,9",,,,"MET057METAR GVBA 011300Z 32010KT 9999 FEW015 29/22 Q1010 NOSIG;",
"08594499999","2010-08-01T14:00:00","4","16.136531","-22.888897","21.03","BOA VISTA RABIL, CV","FM-15","GVBA ","V020","320,1,N,0051,1","22000,1,9,N","011265,1,N,1","+0290,1","+0230,1","99999,9","02,5,+00450,1,99,9",,,"02,99,1,99,9,99,9,99999,9,99,9,99,9","10102,1,99999,9",,,,"MET057METAR GVBA 011400Z 32010KT 9999 FEW015 29/23 Q1010 NOSIG;",
"08594499999","2010-08-01T15:00:00","4","16.136531","-22.888897","21.03","BOA VISTA RABIL, CV","FM-15","GVBA ","V020","300,1,N,0062,1","22000,1,9,N","011265,1,N,1","+0290,1","+0230,1","99999,9","02,5,+00450,1,99,9",,,"02,99,1,99,9,99,9,99999,9,99,9,99,9","10091,1,99999,9",,,,"MET057METAR GVBA 011500Z 30012KT 9999 FEW015 29/23 Q1009 NOSIG;",
"08594499999","2010-08-01T16:00:00","4","16.136531","-22.888897","21.03","BOA VISTA RABIL, CV","FM-15","GVBA ","V020","280,1,N,0067,1","22000,1,9,N","011265,1,N,1","+0290,1","+0230,1","99999,9","02,5,+00450,1,99,9",,,"02,99,1,99,9,99,9,99999,9,99,9,99,9","10091,1,99999,9",,,,"MET057METAR GVBA 011600Z 28013KT 9999 FEW015 29/23 Q1009 NOSIG;",
"08594499999","2010-08-01T17:00:00","4","16.136531","-22.888897","21.03","BOA VISTA RABIL, CV","FM-15","GVBA ","V020","290,1,N,0067,1","22000,1,9,N","011265,1,N,1","+0290,1","+0230,1","99999,9","04,5,+00450,1,99,9",,,"04,99,1,99,9,99,9,99999,9,99,9,99,9","10091,1,99999,9",,,,"MET057METAR GVBA 011700Z 29013KT 9999 SCT015 29/23 Q1009 NOSIG;",
"08594499999","2010-08-01T18:00:00","4","16.136531","-22.888897","21.03","BOA VISTA RABIL, CV","FM-15","GVBA ","V020","300,1,N,0051,1","00450,1,C,N","009000,1,N,1","+0280,1","+0230,1","99999,9","07,5,+00450,1,99,9",,,"07,99,1,99,9,99,9,99999,9,99,9,99,9","10091,1,99999,9",,,,"MET057METAR GVBA 011800Z 30010KT 9000 BKN015 28/23 Q1009 NOSIG;",
"08594499999","2010-08-01T19:00:00","4","16.136531","-22.888897","21.03","BOA VISTA RABIL, CV","FM-15","GVBA ","V020","320,1,N,0041,1","00450,1,C,N","009000,1,N,1","+0280,1","+0230,1","99999,9","07,5,+00450,1,99,9",,,"07,99,1,99,9,99,9,99999,9,99,9,99,9","10102,1,99999,9",,,,"MET057METAR GVBA 011900Z 32008KT 9000 BKN015 28/23 Q1010 NOSIG;",
"08594499999","2010-08-02T11:00:00","4","16.136531","-22.888897","21.03","BOA VISTA RABIL, CV","FM-15","GVBA ","V020","040,1,N,0051,1","22000,1,9,N","011265,1,N,1","+0290,1","+0210,1","99999,9","04,5,+00450,1,99,9",,,"04,99,1,99,9,99,9,99999,9,99,9,99,9","10119,1,99999,9",,,,"MET057METAR GVBA 021100Z 04010KT 9999 SCT015 29/21 Q1012 NOSIG;",
"08594499999","2010-08-02T12:00:00","4","16.136531","-22.888897","21.03","BOA VISTA RABIL, CV","FM-15","GVBA ","V020","060,1,N,0046,1","22000,1,9,N","011265,1,N,1","+0290,1","+0210,1","99999,9","04,5,+00450,1,99,9",,,"04,99,1,99,9,99,9,99999,9,99,9,99,9","10119,1,99999,9",,,,"MET057METAR GVBA 021200Z 06009KT 9999 SCT015 29/21 Q1012 NOSIG;",
"08594499999","2010-08-02T13:00:00","4","16.136531","-22.888897","21.03","BOA VISTA RABIL, CV","FM-15","GVBA ","V020","050,1,N,0051,1","00450,1,C,N","011265,1,N,1","+0310,1","+0210,1","99999,9","07,5,+00450,1,99,9",,,"07,99,1,99,9,99,9,99999,9,99,9,99,9","10119,1,99999,9",,,,"MET057METAR GVBA 021300Z 05010KT 9999 BKN015 31/21 Q1012 NOSIG;",
"08594499999","2010-08-02T14:00:00","4","16.136531","-22.888897","21.03","BOA VISTA RABIL, CV","FM-15","GVBA ","V020","040,1,N,0051,1","22000,1,9,N","009000,1,N,1","+0310,1","+0210,1","99999,9","04,5,+00450,1,99,9",,,"04,99,1,99,9,99,9,99999,9,99,9,99,9","10119,1,99999,9",,,,"MET057METAR GVBA 021400Z 04010KT 9000 SCT015 31/21 Q1012 NOSIG;",
"08594499999","2010-08-02T15:00:00","4","16.136531","-22.888897","21.03","BOA VISTA RABIL, CV","FM-15","GVBA ","V020","030,1,N,0062,1","22000,1,9,N","011265,1,N,1","+0310,1","+0210,1","99999,9","02,5,+00450,1,99,9",,,"02,99,1,99,9,99,9,99999,9,99,9,99,9","10108,1,99999,9",,,,"MET057METAR GVBA 021500Z 03012KT 9999 FEW015 31/21 Q1011 NOSIG;",
"08594499999","2010-08-02T16:00:00","4","16.136531","-22.888897","21.03","BOA VISTA RABIL, CV","FM-15","GVBA ","V020","050,1,N,0062,1","00510,1,C,N","011265,1,N,1","+0310,1","+0210,1","99999,9","07,5,+00510,1,99,9",,,"07,99,1,99,9,99,9,99999,9,99,9,99,9","10108,1,99999,9",,,,"MET057METAR GVBA 021600Z 05012KT 9999 BKN017 31/21 Q1011 NOSIG;",
"08594499999","2010-08-02T17:00:00","4","16.136531","-22.888897","21.03","BOA VISTA RABIL, CV","FM-15","GVBA ","V020","040,1,N,0062,1","22000,1,9,N","011265,1,N,1","+0300,1","+0210,1","99999,9","04,5,+00510,1,99,9",,,"04,99,1,99,9,99,9,99999,9,99,9,99,9","10102,1,99999,9",,,,"MET057METAR GVBA 021700Z 04012KT 9999 SCT017 30/21 Q1010 NOSIG;",
"08594499999","2010-08-02T18:00:00","4","16.136531","-22.888897","21.03","BOA VISTA RABIL, CV","FM-15","GVBA ","V020","040,1,N,0051,1","00510,1,C,N","011265,1,N,1","+0290,1","+0220,1","99999,9","04,5,+00450,1,99,9","07,5,+00510,1,99,9",,"07,99,1,99,9,99,9,99999,9,99,9,99,9","10108,1,99999,9",,,,"MET064METAR GVBA 021800Z 04010KT 9999 SCT015 BKN017 29/22 Q1011 NOSIG;",
"08594499999","2010-08-02T19:00:00","4","16.136531","-22.888897","21.03","BOA VISTA RABIL, CV","FM-15","GVBA ","V020","040,1,N,0062,1","00450,1,C,N","011265,1,N,1","+0280,1","+0220,1","99999,9","07,5,+00450,1,99,9",,,"07,99,1,99,9,99,9,99999,9,99,9,99,9","10108,1,99999,9",,,,"MET057METAR GVBA 021900Z 04012KT 9999 BKN015 28/22 Q1011 NOSIG;",
"08594499999","2010-08-03T09:00:00","4","16.136531","-22.888897","21.03","BOA VISTA RABIL, CV","FM-15","GVBA ","V020","010,1,N,0031,1","06000,1,C,N","009000,1,N,1","+0260,1","+0220,1","99999,9","02,5,+00450,1,99,9","07,5,+06000,1,99,9",,"07,99,1,99,9,99,9,99999,9,99,9,99,9","10129,1,99999,9",,,,"MET064METAR GVBA 030900Z 01006KT 9000 FEW015 BKN200 26/22 Q1013 NOSIG;",
"08594499999","2010-08-03T10:00:00","4","16.136531","-22.888897","21.03","BOA VISTA RABIL, CV","FM-15","GVBA ","V020","030,1,N,0026,1","99999,9,9,Y","009900,1,N,1","+0280,1","+0220,1","99999,9",,,,,"10129,1,99999,9",,,,"MET051METAR GVBA 031000Z 03005KT CAVOK 28/22 Q1013 NOSIG;",
"08594499999","2010-08-03T11:00:00","4","16.136531","-22.888897","21.03","BOA VISTA RABIL, CV","FM-15","GVBA ","V020","030,1,N,0041,1","99999,9,C,N","011265,1,N,1","+0290,1","+0220,1","99999,9","02,5,+00450,1,99,9","04,5,+06000,1,99,9",,"04,99,1,99,9,99,9,99999,9,99,9,99,9","10129,1,99999,9",,,,"MET064METAR GVBA 031100Z 03008KT 9999 FEW015 SCT200 29/22 Q1013 NOSIG;","P01 060003SCOCIG"
"08594499999","2010-08-03T12:00:00","4","16.136531","-22.888897","21.03","BOA VISTA RABIL, CV","FM-15","GVBA ","V020","040,1,N,0051,1","22000,1,9,N","011265,1,N,1","+0300,1","+0210,1","99999,9","02,5,+00450,1,99,9",,,"02,99,1,99,9,99,9,99999,9,99,9,99,9","10129,1,99999,9",,,,"MET057METAR GVBA 031200Z 04010KT 9999 FEW015 30/21 Q1013 NOSIG;",
"08594499999","2010-08-03T13:00:00","4","16.136531","-22.888897","21.03","BOA VISTA RABIL, CV","FM-15","GVBA ","V020","350,1,N,0051,1","99999,9,C,N","011265,1,N,1","+0300,1","+0220,1","99999,9","04,5,+00450,1,99,9","04,5,+06000,1,99,9",,"04,99,1,99,9,99,9,99999,9,99,9,99,9","10129,1,99999,9",,,,"MET064METAR GVBA 031300Z 35010KT 9999 SCT015 SCT200 30/22 Q1013 NOSIG;","P01 060003SCOCIG"
"08594499999","2010-08-03T14:00:00","4","16.136531","-22.888897","21.03","BOA VISTA RABIL, CV","FM-15","GVBA ","V020","360,1,N,0041,1","99999,9,C,N","011265,1,N,1","+0310,1","+0220,1","99999,9","04,5,+00450,1,99,9","04,5,+06000,1,99,9",,"04,99,1,99,9,99,9,99999,9,99,9,99,9","10119,1,99999,9",,,,"MET064METAR GVBA 031400Z 36008KT 9999 SCT015 SCT200 31/22 Q1012 NOSIG;","P01 060003SCOCIG"
"08594499999","2010-08-03T15:00:00","4","16.136531","-22.888897","21.03","BOA VISTA RABIL, CV","FM-15","GVBA ","V020","020,1,N,0051,1","06000,1,C,N","011265,1,N,1","+0310,1","+0220,1","99999,9","04,5,+00450,1,99,9","07,5,+06000,1,99,9",,"07,99,1,99,9,99,9,99999,9,99,9,99,9","10108,1,99999,9",,,,"MET064METAR GVBA 031500Z 02010KT 9999 SCT015 BKN200 31/22 Q1011 NOSIG;",
"08594499999","2010-08-03T16:00:00","4","16.136531","-22.888897","21.03","BOA VISTA RABIL, CV","FM-15","GVBA ","V020","030,1,N,0051,1","00450,1,C,N","011265,1,N,1","+0290,1","+0220,1","99999,9","07,5,+00450,1,99,9","07,5,+06000,1,99,9",,"07,99,1,99,9,99,9,99999,9,99,9,99,9","10108,1,99999,9",,,,"MET064METAR GVBA 031600Z 03010KT 9999 BKN015 BKN200 29/22 Q1011 NOSIG;",
"08594499999","2010-08-03T17:00:00","4","16.136531","-22.888897","21.03","BOA VISTA RABIL, CV","FM-15","GVBA ","V020","030,1,N,0046,1","00450,1,C,N","011265,1,N,1","+0290,1","+0220,1","99999,9","07,5,+00450,1,99,9","07,5,+06000,1,99,9",,"07,99,1,99,9,99,9,99999,9,99,9,99,9","10108,1,99999,9",,,,"MET064METAR GVBA 031700Z 03009KT 9999 BKN015 BKN200 29/22 Q1011 NOSIG;",
"08594499999","2010-08-03T18:00:00","4","16.136531","-22.888897","21.03","BOA VISTA RABIL, CV","FM-15","GVBA ","V020","070,1,N,0041,1","00450,1,C,N","011265,1,N,1","+0280,1","+0220,1","99999,9","07,5,+00450,1,99,9","07,5,+06000,1,99,9",,"07,99,1,99,9,99,9,99999,9,99,9,99,9","10108,1,99999,9",,,,"MET064METAR GVBA 031800Z 07008KT 9999 BKN015 BKN200 28/22 Q1011 NOSIG;",
"08594499999","2010-08-03T19:00:00","4","16.136531","-22.888897","21.03","BOA VISTA RABIL, CV","FM-15","GVBA ","V020","090,1,N,0041,1","00450,1,C,N","011265,1,N,1","+0280,1","+0210,1","99999,9","07,5,+00450,1,99,9","07,5,+06000,1,99,9",,"07,99,1,99,9,99,9,99999,9,99,9,99,9","10119,1,99999,9",,,,"MET064METAR GVBA 031900Z 09008KT 9999 BKN015 BKN200 28/21 Q1012 NOSIG;",
"08594499999","2010-08-04T08:00:00","4","16.136531","-22.888897","21.03","BOA VISTA RABIL, CV","FM-15","GVBA ","V020","080,1,N,0026,1","06000,1,C,N","009000,1,N,1","+0260,1","+0230,1","99999,9","02,5,+00420,1,99,9","07,5,+06000,1,99,9",,"07,99,1,99,9,99,9,99999,9,99,9,99,9","10119,1,99999,9",,,,"MET064METAR GVBA 040800Z 08005KT 9000 FEW014 BKN200 26/23 Q1012 NOSIG;",
"08594499999","2010-08-04T09:00:00","4","16.136531","-22.888897","21.03","BOA VISTA RABIL, CV","FM-15","GVBA ","V020","090,1,N,0046,1","06000,1,C,N","009000,1,N,1","+0260,1","+0230,1","99999,9","02,5,+00420,1,99,9","07,5,+06000,1,99,9",,"07,99,1,99,9,99,9,99999,9,99,9,99,9","10119,1,99999,9",,,,"MET064METAR GVBA 040900Z 09009KT 9000 FEW014 BKN200 26/23 Q1012 NOSIG;",
"08594499999","2010-08-04T10:00:00","4","16.136531","-22.888897","21.03","BOA VISTA RABIL, CV","FM-15","GVBA ","V020","090,1,N,0057,1","00450,1,C,N","011265,1,N,1","+0280,1","+0230,1","99999,9","07,5,+00450,1,99,9","07,5,+06000,1,99,9",,"07,99,1,99,9,99,9,99999,9,99,9,99,9","10139,1,99999,9",,,,"MET064METAR GVBA 041000Z 09011KT 9999 BKN015 BKN200 28/23 Q1014 NOSIG;",
"08594499999","2010-08-04T11:00:00","4","16.136531","-22.888897","21.03","BOA VISTA RABIL, CV","FM-15","GVBA ","V020","080,1,N,0057,1","06000,1,C,N","011265,1,N,1","+0300,1","+0230,1","99999,9","04,5,+00450,1,99,9","07,5,+06000,1,99,9",,"07,99,1,99,9,99,9,99999,9,99,9,99,9","10139,1,99999,9",,,,"MET064METAR GVBA 041100Z 08011KT 9999 SCT015 BKN200 30/23 Q1014 NOSIG;",
"08594499999","2010-08-04T12:00:00","4","16.136531","-22.888897","21.03","BOA VISTA RABIL, CV","FM-15","GVBA ","V020","070,1,N,0046,1","06000,1,C,N","011265,1,N,1","+0320,1","+0240,1","99999,9","04,5,+00450,1,99,9","07,5,+06000,1,99,9",,"07,99,1,99,9,99,9,99999,9,99,9,99,9","10129,1,99999,9",,,,"MET064METAR GVBA 041200Z 07009KT 9999 SCT015 BKN200 32/24 Q1013 NOSIG;",
"08594499999","2010-08-04T13:00:00","4","16.136531","-22.888897","21.03","BOA VISTA RABIL, CV","FM-15","GVBA ","V020","070,1,N,0041,1","06000,1,C,N","011265,1,N,1","+0320,1","+0230,1","99999,9","04,5,+00450,1,99,9","07,5,+06000,1,99,9",,"07,99,1,99,9,99,9,99999,9,99,9,99,9","10129,1,99999,9",,,,"MET064METAR GVBA 041300Z 07008KT 9999 SCT015 BKN200 32/23 Q1013 NOSIG;",
"08594499999","2010-08-04T14:00:00","4","16.136531","-22.888897","21.03","BOA VISTA RABIL, CV","FM-15","GVBA ","V020","090,1,N,0051,1","00450,1,C,N","011265,1,N,1","+0330,1","+0230,1","99999,9","07,5,+00450,1,99,9","07,5,+06000,1,99,9",,"07,99,1,99,9,99,9,99999,9,99,9,99,9","10119,1,99999,9",,,,"MET064METAR GVBA 041400Z 09010KT 9999 BKN015 BKN200 33/23 Q1012 NOSIG;",
"08594499999","2010-08-04T15:00:00","4","16.136531","-22.888897","21.03","BOA VISTA RABIL, CV","FM-15","GVBA ","V020","030,1,N,0072,1","00450,1,C,N","011265,1,N,1","+0320,1","+0240,1","99999,9","07,5,+00450,1,99,9","07,5,+06000,1,99,9",,"07,99,1,99,9,99,9,99999,9,99,9,99,9","10108,1,99999,9",,,,"MET064METAR GVBA 041500Z 03014KT 9999 BKN015 BKN200 32/24 Q1011 NOSIG;",
"08594499999","2010-08-04T16:00:00","4","16.136531","-22.888897","21.03","BOA VISTA RABIL, CV","FM-15","GVBA ","V020","060,1,N,0087,1","00450,1,C,N","011265,1,N,1","+0310,1","+0230,1","99999,9","07,5,+00450,1,99,9","07,5,+06000,1,99,9",,"07,99,1,99,9,99,9,99999,9,99,9,99,9","10119,1,99999,9",,,,"MET064METAR GVBA 041600Z 06017KT 9999 BKN015 BKN200 31/23 Q1012 NOSIG;",
"08594499999","2010-08-04T17:00:00","4","16.136531","-22.888897","21.03","BOA VISTA RABIL, CV","FM-15","GVBA ","V020","060,1,N,0082,1","00450,1,C,N","011265,1,N,1","+0310,1","+0230,1","99999,9","07,5,+00450,1,99,9","07,5,+06000,1,99,9",,"07,99,1,99,9,99,9,99999,9,99,9,99,9","10108,1,99999,9",,,,"MET064METAR GVBA 041700Z 06016KT 9999 BKN015 BKN200 31/23 Q1011 NOSIG;",
"08594499999","2010-08-04T18:00:00","4","16.136531","-22.888897","21.03","BOA VISTA RABIL, CV","FM-15","GVBA ","V020","050,1,N,0072,1","00450,1,C,N","011265,1,N,1","+0310,1","+0230,1","99999,9","07,5,+00450,1,99,9","07,5,+06000,1,99,9",,"07,99,1,99,9,99,9,99999,9,99,9,99,9","10108,1,99999,9",,,,"MET064METAR GVBA 041800Z 05014KT 9999 BKN015 BKN200 31/23 Q1011 NOSIG;",
"08594499999","2010-08-04T19:00:00","4","16.136531","-22.888897","21.03","BOA VISTA RABIL, CV","FM-15","GVBA ","V020","060,1,N,0041,1","06000,1,C,N","011265,1,N,1","+0290,1","+0240,1","99999,9","02,5,+00450,1,99,9","07,5,+06000,1,99,9",,"07,99,1,99,9,99,9,99999,9,99,9,99,9","10108,1,99999,9",,,,"MET064METAR GVBA 041900Z 06008KT 9999 FEW015 BKN200 29/24 Q1011 NOSIG;",
"08594499999","2010-08-05T08:00:00","4","16.136531","-22.888897","21.03","BOA VISTA RABIL, CV","FM-15","GVBA ","V020","040,1,N,0067,1","00480,1,C,N","009000,1,N,1","+0270,1","+0240,1","99999,9","04,5,+00420,1,99,9","07,5,+00480,1,99,9",,"07,99,1,99,9,99,9,99999,9,99,9,99,9","10129,1,99999,9",,,,"MET064METAR GVBA 050800Z 04013KT 9000 SCT014 BKN016 27/24 Q1013 NOSIG;",
"08594499999","2010-08-05T09:00:00","4","16.136531","-22.888897","21.03","BOA VISTA RABIL, CV","FM-15","GVBA ","V020","050,1,N,0072,1","00480,1,C,N","009000,1,N,1","+0260,1","+0240,1","99999,9","02,5,+00420,1,99,9","07,5,+00480,1,99,9",,"07,99,1,99,9,99,9,99999,9,99,9,99,9","10139,1,99999,9",,,,"MET064METAR GVBA 050900Z 05014KT 9000 FEW014 BKN016 26/24 Q1014 NOSIG;",
"08594499999","2010-08-05T10:00:00","4","16.136531","-22.888897","21.03","BOA VISTA RABIL, CV","FM-15","GVBA ","V020","050,1,N,0041,1","00450,1,C,N","011265,1,N,1","+0280,1","+0240,1","99999,9","07,5,+00450,1,99,9",,,"07,99,1,99,9,99,9,99999,9,99,9,99,9","10139,1,99999,9",,,,"MET057METAR GVBA 051000Z 05008KT 9999 BKN015 28/24 Q1014 NOSIG;",
"08594499999","2010-08-05T11:00:00","4","16.136531","-22.888897","21.03","BOA VISTA RABIL, CV","FM-15","GVBA ","V020","060,1,N,0051,1","00450,1,C,N","011265,1,N,1","+0290,1","+0240,1","99999,9","07,5,+00450,1,99,9",,,"07,99,1,99,9,99,9,99999,9,99,9,99,9","10149,1,99999,9",,,,"MET057METAR GVBA 051100Z 06010KT 9999 BKN015 29/24 Q1015 NOSIG;",
"08594499999","2010-08-05T12:00:00","4","16.136531","-22.888897","21.03","BOA VISTA RABIL, CV","FM-15","GVBA ","V020","060,1,N,0051,1","00450,1,C,N","011265,1,N,1","+0300,1","+0240,1","99999,9","07,5,+00450,1,99,9",,,"07,99,1,99,9,99,9,99999,9,99,9,99,9","10149,1,99999,9",,,,"MET057METAR GVBA 051200Z 06010KT 9999 BKN015 30/24 Q1015 NOSIG;",
"08594499999","2010-08-05T13:00:00","4","16.136531","-22.888897","21.03","BOA VISTA RABIL, CV","FM-15","GVBA ","V020","050,1,N,0041,1","22000,1,9,N","011265,1,N,1","+0310,1","+0230,1","99999,9","04,5,+00450,1,99,9",,,"04,99,1,99,9,99,9,99999,9,99,9,99,9","10139,1,99999,9",,,,"MET057METAR GVBA 051300Z 05008KT 9999 SCT015 31/23 Q1014 NOSIG;",
"08594499999","2010-08-05T14:00:00","4","16.136531","-22.888897","21.03","BOA VISTA RABIL, CV","FM-15","GVBA ","V020","030,1,N,0046,1","22000,1,9,N","011265,1,N,1","+0320,1","+0230,1","99999,9","04,5,+00450,1,99,9",,,"04,99,1,99,9,99,9,99999,9,99,9,99,9","10129,1,99999,9",,,,"MET057METAR GVBA 051400Z 03009KT 9999 SCT015 32/23 Q1013 NOSIG;",
"08594499999","2010-08-05T15:00:00","4","16.136531","-22.888897","21.03","BOA VISTA RABIL, CV","FM-15","GVBA ","V020","020,1,N,0057,1","22000,1,9,N","011265,1,N,1","+0330,1","+0230,1","99999,9","04,5,+00450,1,99,9",,,"04,99,1,99,9,99,9,99999,9,99,9,99,9","10129,1,99999,9",,,,"MET057METAR GVBA 051500Z 02011KT 9999 SCT015 33/23 Q1013 NOSIG;",
"08594499999","2010-08-05T16:00:00","4","16.136531","-22.888897","21.03","BOA VISTA RABIL, CV","FM-15","GVBA ","V020","020,1,N,0051,1","22000,1,9,N","011265,1,N,1","+0330,1","+0230,1","99999,9","04,5,+00450,1,99,9",,,"04,99,1,99,9,99,9,99999,9,99,9,99,9","10119,1,99999,9",,,,"MET057METAR GVBA 051600Z 02010KT 9999 SCT015 33/23 Q1012 NOSIG;",
"08594499999","2010-08-05T17:00:00","4","16.136531","-22.888897","21.03","BOA VISTA RABIL, CV","FM-15","GVBA ","V020","350,1,N,0051,1","22000,1,9,N","011265,1,N,1","+0330,1","+0230,1","99999,9","02,5,+00450,1,99,9",,,"02,99,1,99,9,99,9,99999,9,99,9,99,9","10119,1,99999,9",,,,"MET057METAR GVBA 051700Z 35010KT 9999 FEW015 33/23 Q1012 NOSIG;",
"08594499999","2010-08-05T18:00:00","4","16.136531","-22.888897","21.03","BOA VISTA RABIL, CV","FM-15","GVBA ","V020","320,1,N,0046,1","22000,1,9,N","011265,1,N,1","+0300,1","+0240,1","99999,9","02,5,+00450,1,99,9",,,"02,99,1,99,9,99,9,99999,9,99,9,99,9","10108,1,99999,9",,,,"MET057METAR GVBA 051800Z 32009KT 9999 FEW015 30/24 Q1011 NOSIG;",
"08594499999","2010-08-05T19:00:00","4","16.136531","-22.888897","21.03","BOA VISTA RABIL, CV","FM-15","GVBA ","V020","320,1,N,0046,1","22000,1,9,N","011265,1,N,1","+0290,1","+0240,1","99999,9","02,5,+00450,1,99,9",,,"02,99,1,99,9,99,9,99999,9,99,9,99,9","10119,1,99999,9",,,,"MET057METAR GVBA 051900Z 32009KT 9999 FEW015 29/24 Q1012 NOSIG;",
"08594499999","2010-08-06T08:00:00","4","16.136531","-22.888897","21.03","BOA VISTA RABIL, CV","FM-15","GVBA ","V020","350,1,N,0041,1","00450,1,C,N","011265,1,N,1","+0270,1","+0240,1","99999,9","04,5,+00390,1,99,9","07,5,+00450,1,99,9",,"07,99,1,99,9,99,9,99999,9,99,9,99,9","10139,1,99999,9",,,,"MET064METAR GVBA 060800Z 35008KT 9999 SCT013 BKN015 27/24 Q1014 NOSIG;",
"08594499999","2010-08-06T09:00:00","4","16.136531","-22.888897","21.03","BOA VISTA RABIL, CV","FM-15","GVBA ","V020","350,1,N,0051,1","00450,1,C,N","011265,1,N,1","+0270,1","+0230,1","99999,9","02,5,+00390,1,99,9","07,5,+00450,1,99,9",,"07,99,1,99,9,99,9,99999,9,99,9,99,9","10139,1,99999,9",,,,"MET064METAR GVBA 060900Z 35010KT 9999 FEW013 BKN015 27/23 Q1014 NOSIG;",
"08594499999","2010-08-06T10:00:00","4","16.136531","-22.888897","21.03","BOA VISTA RABIL, CV","FM-15","GVBA ","V020","360,1,N,0057,1","00450,1,C,N","011265,1,N,1","+0280,1","+0220,1","99999,9","07,5,+00450,1,99,9",,,"07,99,1,99,9,99,9,99999,9,99,9,99,9","10139,1,99999,9",,,,"MET057METAR GVBA 061000Z 36011KT 9999 BKN015 28/22 Q1014 NOSIG;",
"08594499999","2010-08-06T11:00:00","4","16.136531","-22.888897","21.03","BOA VISTA RABIL, CV","FM-15","GVBA ","V020","350,1,N,0067,1","00450,1,C,N","011265,1,N,1","+0280,1","+0230,1","99999,9","07,5,+00450,1,99,9",,,"07,99,1,99,9,99,9,99999,9,99,9,99,9","10139,1,99999,9",,,,"MET057METAR GVBA 061100Z 35013KT 9999 BKN015 28/23 Q1014 NOSIG;",
"08594499999","2010-08-06T12:00:00","4","16.136531","-22.888897","21.03","BOA VISTA RABIL, CV","FM-15","GVBA ","V020","350,1,N,0062,1","00480,1,C,N","011265,1,N,1","+0290,1","+0230,1","99999,9","02,5,+00420,1,99,9","07,5,+00480,1,99,9",,"07,99,1,99,9,99,9,99999,9,99,9,99,9","10139,1,99999,9",,,,"MET064METAR GVBA 061200Z 35012KT 9999 FEW014 BKN016 29/23 Q1014 NOSIG;",
"08594499999","2010-08-06T13:00:00","4","16.136531","-22.888897","21.03","BOA VISTA RABIL, CV","FM-15","GVBA ","V020","330,1,N,0062,1","00480,1,C,N","011265,1,N,1","+0290,1","+0230,1","99999,9","02,5,+00420,1,99,9","07,5,+00480,1,99,9",,"07,99,1,99,9,99,9,99999,9,99,9,99,9","10139,1,99999,9",,,,"MET064METAR GVBA 061300Z 33012KT 9999 FEW014 BKN016 29/23 Q1014 NOSIG;",
"08594499999","2010-08-06T14:00:00","4","16.136531","-22.888897","21.03","BOA VISTA RABIL, CV","FM-15","GVBA ","V020","340,1,N,0051,1","00450,1,C,N","011265,1,N,1","+0290,1","+0220,1","99999,9","07,5,+00450,1,99,9",,,"07,99,1,99,9,99,9,99999,9,99,9,99,9","10129,1,99999,9",,,,"MET057METAR GVBA 061400Z 34010KT 9999 BKN015 29/22 Q1013 NOSIG;",
"08594499999","2010-08-06T15:00:00","4","16.136531","-22.888897","21.03","BOA VISTA RABIL, CV","FM-15","GVBA ","V020","350,1,N,0051,1","00450,1,C,N","011265,1,N,1","+0290,1","+0220,1","99999,9","04,5,+00420,1,99,9","07,5,+00450,1,99,9",,"07,99,1,99,9,99,9,99999,9,99,9,99,9","10129,1,99999,9",,,,"MET064METAR GVBA 061500Z 35010KT 9999 SCT014 BKN015 29/22 Q1013 NOSIG;",
"08594499999","2010-08-06T16:00:00","4","16.136531","-22.888897","21.03","BOA VISTA RABIL, CV","FM-15","GVBA ","V020","320,1,N,0062,1","00450,1,C,N","011265,1,N,1","+0280,1","+0230,1","99999,9","04,5,+00420,1,99,9","07,5,+00450,1,99,9",,"07,99,1,99,9,99,9,99999,9,99,9,99,9","10119,1,99999,9",,,,"MET064METAR GVBA 061600Z 32012KT 9999 SCT014 BKN015 28/23 Q1012 NOSIG;",
"08594499999","2010-08-06T18:00:00","4","16.136531","-22.888897","21.03","BOA VISTA RABIL, CV","FM-15","GVBA ","V020","330,1,N,0062,1","00420,1,C,N","011265,1,N,1","+0280,1","+0230,1","99999,9","07,5,+00420,1,99,9","07,5,+00450,1,99,9",,"07,99,1,99,9,99,9,99999,9,99,9,99,9","10119,1,99999,9",,,,"MET064METAR GVBA 061800Z 33012KT 9999 BKN014 BKN015 28/23 Q1012 NOSIG;",
"08594499999","2010-08-07T08:00:00","4","16.136531","-22.888897","21.03","BOA VISTA RABIL, CV","FM-15","GVBA ","V020","020,1,N,0036,1","22000,1,9,N","011265,1,N,1","+0250,1","+0220,1","99999,9","04,5,+00420,1,99,9",,,"04,99,1,99,9,99,9,99999,9,99,9,99,9","10129,1,99999,9",,,,"MET057METAR GVBA 070800Z 02007KT 9999 SCT014 25/22 Q1013 NOSIG;",
"08594499999","2010-08-07T09:00:00","4","16.136531","-22.888897","21.03","BOA VISTA RABIL, CV","FM-15","GVBA ","V020","010,1,N,0051,1","99999,9,C,N","011265,1,N,1","+0260,1","+0210,1","99999,9","02,5,+00420,1,99,9","04,5,+00510,1,99,9",,"04,99,1,99,9,99,9,99999,9,99,9,99,9","10139,1,99999,9",,,,"MET064METAR GVBA 070900Z 01010KT 9999 FEW014 SCT017 26/21 Q1014 NOSIG;","P01 005103SCOCIG"
"08594499999","2010-08-07T10:00:00","4","16.136531","-22.888897","21.03","BOA VISTA RABIL, CV","FM-15","GVBA ","V020","030,1,N,0051,1","99999,9,C,N","011265,1,N,1","+0280,1","+0200,1","99999,9","04,5,+00450,1,99,9","04,5,+00510,1,99,9",,"04,99,1,99,9,99,9,99999,9,99,9,99,9","10139,1,99999,9",,,,"MET064METAR GVBA 071000Z 03010KT 9999 SCT015 SCT017 28/20 Q1014 NOSIG;","P01 005103SCOCIG"
"08594499999","2010-08-07T11:00:00","4","16.136531","-22.888897","21.03","BOA VISTA RABIL, CV","FM-15","GVBA ","V020","020,1,N,0046,1","00510,1,C,N","011265,1,N,1","+0290,1","+0200,1","99999,9","04,5,+00420,1,99,9","07,5,+00510,1,99,9",,"07,99,1,99,9,99,9,99999,9,99,9,99,9","10149,1,99999,9",,,,"MET064METAR GVBA 071100Z 02009KT 9999 SCT014 BKN017 29/20 Q1015 NOSIG;",
"08594499999","2010-08-07T12:00:00","4","16.136531","-22.888897","21.03","BOA VISTA RABIL, CV","FM-15","GVBA ","V020","030,1,N,0051,1","22000,1,9,N","011265,1,N,1","+0290,1","+0190,1","99999,9","04,5,+00450,1,99,9",,,"04,99,1,99,9,99,9,99999,9,99,9,99,9","10149,1,99999,9",,,,"MET057METAR GVBA 071200Z 03010KT 9999 SCT015 29/19 Q1015 NOSIG;",
"08594499999","2010-08-07T13:00:00","4","16.136531","-22.888897","21.03","BOA VISTA RABIL, CV","FM-15","GVBA ","V020","030,1,N,0057,1","22000,1,9,N","011265,1,N,1","+0300,1","+0190,1","99999,9","04,5,+00450,1,99,9",,,"04,99,1,99,9,99,9,99999,9,99,9,99,9","10139,1,99999,9",,,,"MET057METAR GVBA 071300Z 03011KT 9999 SCT015 30/19 Q1014 NOSIG;",
"08594499999","2010-08-07T14:00:00","4","16.136531","-22.888897","21.03","BOA VISTA RABIL, CV","FM-15","GVBA ","V020","030,1,N,0046,1","22000,1,9,N","011265,1,N,1","+0300,1","+0190,1","99999,9","04,5,+00450,1,99,9",,,"04,99,1,99,9,99,9,99999,9,99,9,99,9","10139,1,99999,9",,,,"MET057METAR GVBA 071400Z 03009KT 9999 SCT015 30/19 Q1014 NOSIG;",
"08594499999","2010-08-07T15:00:00","4","16.136531","-22.888897","21.03","BOA VISTA RABIL, CV","FM-15","GVBA ","V020","020,1,N,0051,1","22000,1,9,N","011265,1,N,1","+0310,1","+0200,1","99999,9","04,5,+00450,1,99,9",,,"04,99,1,99,9,99,9,99999,9,99,9,99,9","10129,1,99999,9",,,,"MET057METAR GVBA 071500Z 02010KT 9999 SCT015 31/20 Q1013 NOSIG;",
"08594499999","2010-08-07T16:00:00","4","16.136531","-22.888897","21.03","BOA VISTA RABIL, CV","FM-15","GVBA ","V020","010,1,N,0051,1","22000,1,9,N","011265,1,N,1","+0300,1","+0200,1","99999,9","04,5,+00450,1,99,9",,,"04,99,1,99,9,99,9,99999,9,99,9,99,9","10129,1,99999,9",,,,"MET057METAR GVBA 071600Z 01010KT 9999 SCT015 30/20 Q1013 NOSIG;",
"08594499999","2010-08-07T17:00:00","4","16.136531","-22.888897","21.03","BOA VISTA RABIL, CV","FM-15","GVBA ","V020","030,1,N,0046,1","06000,1,C,N","011265,1,N,1","+0300,1","+0200,1","99999,9","04,5,+00450,1,99,9","07,5,+06000,1,99,9",,"07,99,1,99,9,99,9,99999,9,99,9,99,9","10129,1,99999,9",,,,"MET064METAR GVBA 071700Z 03009KT 9999 SCT015 BKN200 30/20 Q1013 NOSIG;",
"08594499999","2010-08-07T18:00:00","4","16.136531","-22.888897","21.03","BOA VISTA RABIL, CV","FM-15","GVBA ","V020","030,1,N,0051,1","99999,9,C,N","011265,1,N,1","+0290,1","+0210,1","99999,9","04,5,+00450,1,99,9","04,5,+06000,1,99,9",,"04,99,1,99,9,99,9,99999,9,99,9,99,9","10129,1,99999,9",,,,"MET064METAR GVBA 071800Z 03010KT 9999 SCT015 SCT200 29/21 Q1013 NOSIG;","P01 060003SCOCIG"
"08594499999","2010-08-07T19:00:00","4","16.136531","-22.888897","21.03","BOA VISTA RABIL, CV","FM-15","GVBA ","V020","020,1,N,0046,1","22000,1,9,N","011265,1,N,1","+0280,1","+0200,1","99999,9","04,5,+00450,1,99,9",,,"04,99,1,99,9,99,9,99999,9,99,9,99,9","10129,1,99999,9",,,,"MET057METAR GVBA 071900Z 02009KT 9999 SCT015 28/20 Q1013 NOSIG;",
"08594499999","2010-08-08T08:00:00","4","16.136531","-22.888897","21.03","BOA VISTA RABIL, CV","FM-15","GVBA ","V020","999,9,C,0000,1","00450,1,C,N","011265,1,N,1","+0260,1","+0200,1","99999,9","07,5,+00450,1,99,9",,,"07,99,1,99,9,99,9,99999,9,99,9,99,9","10129,1,99999,9",,,,"MET055METAR GVBA 080800Z 00000 9999 BKN015 26/20 Q1013 NOSIG;",
"08594499999","2010-08-08T09:00:00","4","16.136531","-22.888897","21.03","BOA VISTA RABIL, CV","FM-15","GVBA ","V020","350,1,N,0026,1","00450,1,C,N","011265,1,N,1","+0270,1","+0190,1","99999,9","07,5,+00450,1,99,9",,,"07,99,1,99,9,99,9,99999,9,99,9,99,9","10139,1,99999,9",,,,"MET057METAR GVBA 080900Z 35005KT 9999 BKN015 27/19 Q1014 NOSIG;",
"08594499999","2010-08-08T10:00:00","4","16.136531","-22.888897","21.03","BOA VISTA RABIL, CV","FM-15","GVBA ","V020","010,1,N,0026,1","00450,1,C,N","011265,1,N,1","+0270,1","+0200,1","99999,9","07,5,+00450,1,99,9",,,"07,99,1,99,9,99,9,99999,9,99,9,99,9","10139,1,99999,9",,,,"MET057METAR GVBA 081000Z 01005KT 9999 BKN015 27/20 Q1014 NOSIG;",
"08594499999","2010-08-08T11:00:00","4","16.136531","-22.888897","21.03","BOA VISTA RABIL, CV","FM-15","GVBA ","V020","010,1,N,0046,1","00450,1,C,N","011265,1,N,1","+0290,1","+0200,1","99999,9","07,5,+00450,1,99,9",,,"07,99,1,99,9,99,9,99999,9,99,9,99,9","10149,1,99999,9",,,,"MET057METAR GVBA 081100Z 01009KT 9999 BKN015 29/20 Q1015 NOSIG;",
"08594499999","2010-08-08T12:00:00","4","16.136531","-22.888897","21.03","BOA VISTA RABIL, CV","FM-15","GVBA ","V020","020,1,N,0046,1","22000,1,9,N","011265,1,N,1","+0290,1","+0200,1","99999,9","04,5,+00450,1,99,9",,,"04,99,1,99,9,99,9,99999,9,99,9,99,9","10149,1,99999,9",,,,"MET057METAR GVBA 081200Z 02009KT 9999 SCT015 29/20 Q1015 NOSIG;",
"08594499999","2010-08-08T13:00:00","4","16.136531","-22.888897","21.03","BOA VISTA RABIL, CV","FM-15","GVBA ","V020","040,1,N,0051,1","22000,1,9,N","011265,1,N,1","+0300,1","+0200,1","99999,9","04,5,+00450,1,99,9",,,"04,99,1,99,9,99,9,99999,9,99,9,99,9","10149,1,99999,9",,,,"MET057METAR GVBA 081300Z 04010KT 9999 SCT015 30/20 Q1015 NOSIG;",
"08594499999","2010-08-08T14:00:00","4","16.136531","-22.888897","21.03","BOA VISTA RABIL, CV","FM-15","GVBA ","V020","360,1,N,0041,1","22000,1,9,N","011265,1,N,1","+0300,1","+0200,1","99999,9","04,5,+00450,1,99,9",,,"04,99,1,99,9,99,9,99999,9,99,9,99,9","10139,1,99999,9",,,,"MET057METAR GVBA 081400Z 36008KT 9999 SCT015 30/20 Q1014 NOSIG;",
"08594499999","2010-08-08T15:00:00","4","16.136531","-22.888897","21.03","BOA VISTA RABIL, CV","FM-15","GVBA ","V020","020,1,N,0041,1","22000,1,9,N","011265,1,N,1","+0300,1","+0200,1","99999,9","04,5,+00450,1,99,9",,,"04,99,1,99,9,99,9,99999,9,99,9,99,9","10139,1,99999,9",,,,"MET057METAR GVBA 081500Z 02008KT 9999 SCT015 30/20 Q1014 NOSIG;",
"08594499999","2010-08-08T16:00:00","4","16.136531","-22.888897","21.03","BOA VISTA RABIL, CV","FM-15","GVBA ","V020","020,1,N,0051,1","22000,1,9,N","011265,1,N,1","+0300,1","+0200,1","99999,9","02,5,+00450,1,99,9",,,"02,99,1,99,9,99,9,99999,9,99,9,99,9","10129,1,99999,9",,,,"MET057METAR GVBA 081600Z 02010KT 9999 FEW015 30/20 Q1013 NOSIG;",
"08594499999","2010-08-08T17:00:00","4","16.136531","-22.888897","21.03","BOA VISTA RABIL, CV","FM-15","GVBA ","V020","020,1,N,0046,1","22000,1,9,N","011265,1,N,1","+0300,1","+0200,1","99999,9","02,5,+00450,1,99,9",,,"02,99,1,99,9,99,9,99999,9,99,9,99,9","10119,1,99999,9",,,,"MET057METAR GVBA 081700Z 02009KT 9999 FEW015 30/20 Q1012 NOSIG;",
"08594499999","2010-08-08T18:00:00","4","16.136531","-22.888897","21.03","BOA VISTA RABIL, CV","FM-15","GVBA ","V020","030,1,N,0046,1","22000,1,9,N","011265,1,N,1","+0290,1","+0200,1","99999,9","02,5,+00450,1,99,9",,,"02,99,1,99,9,99,9,99999,9,99,9,99,9","10119,1,99999,9",,,,"MET057METAR GVBA 081800Z 03009KT 9999 FEW015 29/20 Q1012 NOSIG;",
"08594499999","2010-08-08T19:00:00","4","16.136531","-22.888897","21.03","BOA VISTA RABIL, CV","FM-15","GVBA ","V020","020,1,N,0031,1","22000,1,9,N","011265,1,N,1","+0280,1","+0200,1","99999,9","02,5,+00450,1,99,9",,,"02,99,1,99,9,99,9,99999,9,99,9,99,9","10129,1,99999,9",,,,"MET057METAR GVBA 081900Z 02006KT 9999 FEW015 28/20 Q1013 NOSIG;",
"08594499999","2010-08-09T08:00:00","4","16.136531","-22.888897","21.03","BOA VISTA RABIL, CV","FM-15","GVBA ","V020","030,1,N,0021,1","22000,1,9,N","011265,1,N,1","+0240,1","+0190,1","99999,9","04,5,+00450,1,99,9",,,"04,99,1,99,9,99,9,99999,9,99,9,99,9","10129,1,99999,9",,,,"MET057METAR GVBA 090800Z 03004KT 9999 SCT015 24/19 Q1013 NOSIG;",
"08594499999","2010-08-09T09:00:00","4","16.136531","-22.888897","21.03","BOA VISTA RABIL, CV","FM-15","GVBA ","V020","030,1,N,0031,1","00450,1,C,N","011265,1,N,1","+0260,1","+0200,1","99999,9","07,5,+00450,1,99,9",,,"07,99,1,99,9,99,9,99999,9,99,9,99,9","10129,1,99999,9",,,,"MET057METAR GVBA 090900Z 03006KT 9999 BKN015 26/20 Q1013 NOSIG;",
"08594499999","2010-08-09T10:00:00","4","16.136531","-22.888897","21.03","BOA VISTA RABIL, CV","FM-15","GVBA ","V020","050,1,N,0036,1","00480,1,C,N","011265,1,N,1","+0280,1","+0190,1","99999,9","07,5,+00480,1,99,9",,,"07,99,1,99,9,99,9,99999,9,99,9,99,9","10139,1,99999,9",,,,"MET057METAR GVBA 091000Z 05007KT 9999 BKN016 28/19 Q1014 NOSIG;",
"08594499999","2010-08-09T11:00:00","4","16.136531","-22.888897","21.03","BOA VISTA RABIL, CV","FM-15","GVBA ","V020","030,1,N,0031,1","00480,1,C,N","011265,1,N,1","+0280,1","+0190,1","99999,9","07,5,+00480,1,99,9",,,"07,99,1,99,9,99,9,99999,9,99,9,99,9","10149,1,99999,9",,,,"MET057METAR GVBA 091100Z 03006KT 9999 BKN016 28/19 Q1015 NOSIG;",
"08594499999","2010-08-09T12:00:00","4","16.136531","-22.888897","21.03","BOA VISTA RABIL, CV","FM-15","GVBA ","V020","030,1,N,0051,1","00480,1,C,N","011265,1,N,1","+0290,1","+0190,1","99999,9","07,5,+00480,1,99,9",,,"07,99,1,99,9,99,9,99999,9,99,9,99,9","10139,1,99999,9",,,,"MET057METAR GVBA 091200Z 03010KT 9999 BKN016 29/19 Q1014 NOSIG;",
"08594499999","2010-08-09T13:00:00","4","16.136531","-22.888897","21.03","BOA VISTA RABIL, CV","FM-15","GVBA ","V020","040,1,N,0051,1","22000,1,9,N","011265,1,N,1","+0300,1","+0190,1","99999,9","04,5,+00480,1,99,9",,,"04,99,1,99,9,99,9,99999,9,99,9,99,9","10139,1,99999,9",,,,"MET057METAR GVBA 091300Z 04010KT 9999 SCT016 30/19 Q1014 NOSIG;",
"08594499999","2010-08-09T14:00:00","4","16.136531","-22.888897","21.03","BOA VISTA RABIL, CV","FM-15","GVBA ","V020","040,1,N,0051,1","22000,1,9,N","011265,1,N,1","+0300,1","+0190,1","99999,9","02,5,+00450,1,99,9",,,"02,99,1,99,9,99,9,99999,9,99,9,99,9","10139,1,99999,9",,,,"MET057METAR GVBA 091400Z 04010KT 9999 FEW015 30/19 Q1014 NOSIG;",
"08594499999","2010-08-09T15:00:00","4","16.136531","-22.888897","21.03","BOA VISTA RABIL, CV","FM-15","GVBA ","V020","030,1,N,0051,1","22000,1,9,N","011265,1,N,1","+0300,1","+0200,1","99999,9","02,5,+00450,1,99,9",,,"02,99,1,99,9,99,9,99999,9,99,9,99,9","10129,1,99999,9",,,,"MET057METAR GVBA 091500Z 03010KT 9999 FEW015 30/20 Q1013 NOSIG;",
"08594499999","2010-08-09T16:00:00","4","16.136531","-22.888897","21.03","BOA VISTA RABIL, CV","FM-15","GVBA ","V020","040,1,N,0051,1","22000,1,9,N","011265,1,N,1","+0300,1","+0190,1","99999,9","02,5,+00450,1,99,9",,,"02,99,1,99,9,99,9,99999,9,99,9,99,9","10129,1,99999,9",,,,"MET057METAR GVBA 091600Z 04010KT 9999 FEW015 30/19 Q1013 NOSIG;",
"08594499999","2010-08-09T17:00:00","4","16.136531","-22.888897","21.03","BOA VISTA RABIL, CV","FM-15","GVBA ","V020","030,1,N,0051,1","22000,1,9,N","011265,1,N,1","+0300,1","+0190,1","99999,9","02,5,+00450,1,99,9",,,"02,99,1,99,9,99,9,99999,9,99,9,99,9","10119,1,99999,9",,,,"MET057METAR GVBA 091700Z 03010KT 9999 FEW015 30/19 Q1012 NOSIG;",
"08594499999","2010-08-09T18:00:00","4","16.136531","-22.888897","21.03","BOA VISTA RABIL, CV","FM-15","GVBA ","V020","030,1,N,0051,1","22000,1,9,N","011265,1,N,1","+0290,1","+0190,1","99999,9","02,5,+00450,1,99,9",,,"02,99,1,99,9,99,9,99999,9,99,9,99,9","10119,1,99999,9",,,,"MET057METAR GVBA 091800Z 03010KT 9999 FEW015 29/19 Q1012 NOSIG;",
"08594499999","2010-08-09T19:00:00","4","16.136531","-22.888897","21.03","BOA VISTA RABIL, CV","FM-15","GVBA ","V020","030,1,N,0041,1","22000,1,9,N","011265,1,N,1","+0280,1","+0190,1","99999,9","02,5,+00450,1,99,9",,,"02,99,1,99,9,99,9,99999,9,99,9,99,9","10129,1,99999,9",,,,"MET057METAR GVBA 091900Z 03008KT 9999 FEW015 28/19 Q1013 NOSIG;",
"08594499999","2010-08-10T08:00:00","4","16.136531","-22.888897","21.03","BOA VISTA RABIL, CV","FM-15","GVBA ","V020","050,1,N,0021,1","22000,1,9,N","011265,1,N,1","+0230,1","+0190,1","99999,9","02,5,+00450,1,99,9",,,"02,99,1,99,9,99,9,99999,9,99,9,99,9","10139,1,99999,9",,,,"MET057METAR GVBA 100800Z 05004KT 9999 FEW015 23/19 Q1014 NOSIG;",
"08594499999","2010-08-10T09:00:00","4","16.136531","-22.888897","21.03","BOA VISTA RABIL, CV","FM-15","GVBA ","V020","070,1,N,0026,1","22000,1,9,N","011265,1,N,1","+0260,1","+0190,1","99999,9","02,5,+00450,1,99,9",,,"02,99,1,99,9,99,9,99999,9,99,9,99,9","10149,1,99999,9",,,,"MET057METAR GVBA 100900Z 07005KT 9999 FEW015 26/19 Q1015 NOSIG;",
"08594499999","2010-08-10T10:00:00","4","16.136531","-22.888897","21.03","BOA VISTA RABIL, CV","FM-15","GVBA ","V020","080,1,N,0015,1","22000,1,9,N","011265,1,N,1","+0270,1","+0190,1","99999,9","04,5,+00450,1,99,9",,,"04,99,1,99,9,99,9,99999,9,99,9,99,9","10149,1,99999,9",,,,"MET057METAR GVBA 101000Z 08003KT 9999 SCT015 27/19 Q1015 NOSIG;",
"08594499999","2010-08-10T11:00:00","4","16.136531","-22.888897","21.03","BOA VISTA RABIL, CV","FM-15","GVBA ","V020","070,1,N,0036,1","22000,1,9,N","011265,1,N,1","+0290,1","+0190,1","99999,9","04,5,+00450,1,99,9",,,"04,99,1,99,9,99,9,99999,9,99,9,99,9","10159,1,99999,9",,,,"MET057METAR GVBA 101100Z 07007KT 9999 SCT015 29/19 Q1016 NOSIG;",
"08594499999","2010-08-10T12:00:00","4","16.136531","-22.888897","21.03","BOA VISTA RABIL, CV","FM-15","GVBA ","V020","030,1,N,0036,1","22000,1,9,N","011265,1,N,1","+0290,1","+0190,1","99999,9","02,5,+00450,1,99,9",,,"02,99,1,99,9,99,9,99999,9,99,9,99,9","10149,1,99999,9",,,,"MET057METAR GVBA 101200Z 03007KT 9999 FEW015 29/19 Q1015 NOSIG;",
"08594499999","2010-08-10T13:00:00","4","16.136531","-22.888897","21.03","BOA VISTA RABIL, CV","FM-15","GVBA ","V020","040,1,N,0041,1","22000,1,9,N","011265,1,N,1","+0300,1","+0190,1","99999,9","02,5,+00450,1,99,9",,,"02,99,1,99,9,99,9,99999,9,99,9,99,9","10149,1,99999,9",,,,"MET057METAR GVBA 101300Z 04008KT 9999 FEW015 30/19 Q1015 NOSIG;",
"08594499999","2010-08-10T14:00:00","4","16.136531","-22.888897","21.03","BOA VISTA RABIL, CV","FM-15","GVBA ","V020","010,1,N,0041,1","99999,9,C,N","011265,1,N,1","+0300,1","+0190,1","99999,9","02,5,+00450,1,99,9","04,5,+06000,1,99,9",,"04,99,1,99,9,99,9,99999,9,99,9,99,9","10139,1,99999,9",,,,"MET064METAR GVBA 101400Z 01008KT 9999 FEW015 SCT200 30/19 Q1014 NOSIG;","P01 060003SCOCIG"
"08594499999","2010-08-10T15:00:00","4","16.136531","-22.888897","21.03","BOA VISTA RABIL, CV","FM-15","GVBA ","V020","020,1,N,0051,1","99999,9,C,N","011265,1,N,1","+0300,1","+0190,1","99999,9","02,5,+00450,1,99,9","04,5,+06000,1,99,9",,"04,99,1,99,9,99,9,99999,9,99,9,99,9","10139,1,99999,9",,,,"MET064METAR GVBA 101500Z 02010KT 9999 FEW015 SCT200 30/19 Q1014 NOSIG;","P01 060003SCOCIG"
"08594499999","2010-08-10T16:00:00","4","16.136531","-22.888897","21.03","BOA VISTA RABIL, CV","FM-15","GVBA ","V020","010,1,N,0051,1","22000,1,9,N","011265,1,N,1","+0300,1","+0190,1","99999,9","02,5,+00450,1,99,9",,,"02,99,1,99,9,99,9,99999,9,99,9,99,9","10129,1,99999,9",,,,"MET057METAR GVBA 101600Z 01010KT 9999 FEW015 30/19 Q1013 NOSIG;",
"08594499999","2010-08-10T17:00:00","4","16.136531","-22.888897","21.03","BOA VISTA RABIL, CV","FM-15","GVBA ","V020","020,1,N,0057,1","22000,1,9,N","011265,1,N,1","+0300,1","+0190,1","99999,9","04,5,+00450,1,99,9",,,"04,99,1,99,9,99,9,99999,9,99,9,99,9","10129,1,99999,9",,,,"MET057METAR GVBA 101700Z 02011KT 9999 SCT015 30/19 Q1013 NOSIG;",
"08594499999","2010-08-10T18:00:00","4","16.136531","-22.888897","21.03","BOA VISTA RABIL, CV","FM-15","GVBA ","V020","020,1,N,0051,1","22000,1,9,N","011265,1,N,1","+0290,1","+0190,1","99999,9","04,5,+00450,1,99,9",,,"04,99,1,99,9,99,9,99999,9,99,9,99,9","10129,1,99999,9",,,,"MET057METAR GVBA 101800Z 02010KT 9999 SCT015 29/19 Q1013 NOSIG;",
"08594499999","2010-08-10T19:00:00","4","16.136531","-22.888897","21.03","BOA VISTA RABIL, CV","FM-15","GVBA ","V020","010,1,N,0041,1","22000,1,9,N","011265,1,N,1","+0280,1","+0200,1","99999,9","04,5,+00450,1,99,9",,,"04,99,1,99,9,99,9,99999,9,99,9,99,9","10129,1,99999,9",,,,"MET057METAR GVBA 101900Z 01008KT 9999 SCT015 28/20 Q1013 NOSIG;",
"08594499999","2010-08-11T08:00:00","4","16.136531","-22.888897","21.03","BOA VISTA RABIL, CV","FM-15","GVBA ","V020","999,9,V,0015,1","00450,1,C,N","011265,1,N,1","+0250,1","+0190,1","99999,9","02,5,+00360,1,99,9","07,5,+00450,1,99,9",,"07,99,1,99,9,99,9,99999,9,99,9,99,9","10149,1,99999,9",,,,"MET064METAR GVBA 110800Z VRB03KT 9999 FEW012 BKN015 25/19 Q1015 NOSIG;",
"08594499999","2010-08-11T09:00:00","4","16.136531","-22.888897","21.03","BOA VISTA RABIL, CV","FM-15","GVBA ","V020","350,1,N,0041,1","03000,1,C,N","011265,1,N,1","+0260,1","+0200,1","99999,9","04,5,+00420,1,99,9","07,5,+03000,1,99,9",,"07,99,1,99,9,99,9,99999,9,99,9,99,9","10149,1,99999,9",,,,"MET064METAR GVBA 110900Z 35008KT 9999 SCT014 BKN100 26/20 Q1015 NOSIG;",
"08594499999","2010-08-11T10:00:00","4","16.136531","-22.888897","21.03","BOA VISTA RABIL, CV","FM-15","GVBA ","V020","360,1,N,0051,1","99999,9,C,N","011265,1,N,1","+0270,1","+0200,1","99999,9","04,5,+00420,1,99,9","04,5,+03000,1,99,9",,"04,99,1,99,9,99,9,99999,9,99,9,99,9","10159,1,99999,9",,,,"MET064METAR GVBA 111000Z 36010KT 9999 SCT014 SCT100 27/20 Q1016 NOSIG;","P01 030003SCOCIG"
"08594499999","2010-08-11T11:00:00","4","16.136531","-22.888897","21.03","BOA VISTA RABIL, CV","FM-15","GVBA ","V020","360,1,N,0057,1","06000,1,C,N","011265,1,N,1","+0280,1","+0210,1","99999,9","04,5,+00420,1,99,9","07,5,+06000,1,99,9",,"07,99,1,99,9,99,9,99999,9,99,9,99,9","10159,1,99999,9",,,,"MET064METAR GVBA 111100Z 36011KT 9999 SCT014 BKN200 28/21 Q1016 NOSIG;",
"08594499999","2010-08-11T12:00:00","4","16.136531","-22.888897","21.03","BOA VISTA RABIL, CV","FM-15","GVBA ","V020","010,1,N,0057,1","00450,1,C,N","011265,1,N,1","+0280,1","+0210,1","99999,9","07,5,+00450,1,99,9","04,5,+06000,1,99,9",,,"10159,1,99999,9",,,,"MET064METAR GVBA 111200Z 01011KT 9999 BKN015 SCT200 28/21 Q1016 NOSIG;","Q01+000042SCOTCV"
"08594499999","2010-08-11T13:00:00","4","16.136531","-22.888897","21.03","BOA VISTA RABIL, CV","FM-15","GVBA ","V020","020,1,N,0051,1","00450,1,C,N","011265,1,N,1","+0290,1","+0200,1","99999,9","07,5,+00450,1,99,9","07,5,+03000,1,99,9",,"07,99,1,99,9,99,9,99999,9,99,9,99,9","10149,1,99999,9",,,,"MET064METAR GVBA 111300Z 02010KT 9999 BKN015 BKN100 29/20 Q1015 NOSIG;",
"08594499999","2010-08-11T14:00:00","4","16.136531","-22.888897","21.03","BOA VISTA RABIL, CV","FM-15","GVBA ","V020","020,1,N,0062,1","00450,1,C,N","011265,1,N,1","+0300,1","+0210,1","99999,9","07,5,+00450,1,99,9","07,5,+03000,1,99,9",,"07,99,1,99,9,99,9,99999,9,99,9,99,9","10149,1,99999,9",,,,"MET064METAR GVBA 111400Z 02012KT 9999 BKN015 BKN100 30/21 Q1015 NOSIG;",
"08594499999","2010-08-11T15:00:00","4","16.136531","-22.888897","21.03","BOA VISTA RABIL, CV","FM-15","GVBA ","V020","020,1,N,0057,1","22000,1,9,N","011265,1,N,1","+0300,1","+0210,1","99999,9","04,5,+00450,1,99,9",,,"04,99,1,99,9,99,9,99999,9,99,9,99,9","10149,1,99999,9",,,,"MET057METAR GVBA 111500Z 02011KT 9999 SCT015 30/21 Q1015 NOSIG;",
"08594499999","2010-08-11T16:00:00","4","16.136531","-22.888897","21.03","BOA VISTA RABIL, CV","FM-15","GVBA ","V020","030,1,N,0057,1","22000,1,9,N","011265,1,N,1","+0300,1","+0210,1","99999,9","04,5,+00450,1,99,9",,,"04,99,1,99,9,99,9,99999,9,99,9,99,9","10149,1,99999,9",,,,"MET057METAR GVBA 111600Z 03011KT 9999 SCT015 30/21 Q1015 NOSIG;",
"08594499999","2010-08-11T17:00:00","4","16.136531","-22.888897","21.03","BOA VISTA RABIL, CV","FM-15","GVBA ","V020","010,1,N,0062,1","22000,1,9,N","011265,1,N,1","+0300,1","+0210,1","99999,9","04,5,+00450,1,99,9",,,"04,99,1,99,9,99,9,99999,9,99,9,99,9","10129,1,99999,9",,,,"MET057METAR GVBA 111700Z 01012KT 9999 SCT015 30/21 Q1013 NOSIG;",
"08594499999","2010-08-11T19:00:00","4","16.136531","-22.888897","21.03","BOA VISTA RABIL, CV","FM-15","GVBA ","V020","020,1,N,0051,1","22000,1,9,N","011265,1,N,1","+0280,1","+0210,1","99999,9","04,5,+00450,1,99,9",,,"04,99,1,99,9,99,9,99999,9,99,9,99,9","10129,1,99999,9",,,,"MET057METAR GVBA 111900Z 02010KT 9999 SCT015 28/21 Q1013 NOSIG;",
"08594499999","2010-08-12T08:00:00","4","16.136531","-22.888897","21.03","BOA VISTA RABIL, CV","FM-15","GVBA ","V020","360,1,N,0031,1","22000,1,9,N","011265,1,N,1","+0250,1","+0210,1","99999,9","02,5,+00450,1,99,9",,,"02,99,1,99,9,99,9,99999,9,99,9,99,9","10129,1,99999,9",,,,"MET057METAR GVBA 120800Z 36006KT 9999 FEW015 25/21 Q1013 NOSIG;",
"08594499999","2010-08-12T09:00:00","4","16.136531","-22.888897","21.03","BOA VISTA RABIL, CV","FM-15","GVBA ","V020","360,1,N,0057,1","22000,1,9,N","011265,1,N,1","+0270,1","+0210,1","99999,9","02,5,+00450,1,99,9",,,"02,99,1,99,9,99,9,99999,9,99,9,99,9","10139,1,99999,9",,,,"MET057METAR GVBA 120900Z 36011KT 9999 FEW015 27/21 Q1014 NOSIG;",
"08594499999","2010-08-12T10:00:00","4","16.136531","-22.888897","21.03","BOA VISTA RABIL, CV","FM-15","GVBA ","V020","020,1,N,0057,1","22000,1,9,N","011265,1,N,1","+0280,1","+0210,1","99999,9","04,5,+00450,1,99,9",,,"04,99,1,99,9,99,9,99999,9,99,9,99,9","10139,1,99999,9",,,,"MET057METAR GVBA 121000Z 02011KT 9999 SCT015 28/21 Q1014 NOSIG;",
"08594499999","2010-08-12T11:00:00","4","16.136531","-22.888897","21.03","BOA VISTA RABIL, CV","FM-15","GVBA ","V020","010,1,N,0057,1","22000,1,9,N","011265,1,N,1","+0290,1","+0220,1","99999,9","04,5,+00450,1,99,9",,,"04,99,1,99,9,99,9,99999,9,99,9,99,9","10139,1,99999,9",,,,"MET057METAR GVBA 121100Z 01011KT 9999 SCT015 29/22 Q1014 NOSIG;",
"08594499999","2010-08-12T13:00:00","4","16.136531","-22.888897","21.03","BOA VISTA RABIL, CV","FM-15","GVBA ","V020","310,1,N,0057,1","22000,1,9,N","011265,1,N,1","+0300,1","+0220,1","99999,9","04,5,+00450,1,99,9",,,"04,99,1,99,9,99,9,99999,9,99,9,99,9","10129,1,99999,9",,,,"MET057METAR GVBA 121300Z 31011KT 9999 SCT015 30/22 Q1013 NOSIG;",
"08594499999","2010-08-12T14:00:00","4","16.136531","-22.888897","21.03","BOA VISTA RABIL, CV","FM-15","GVBA ","V020","300,1,N,0072,1","22000,1,9,N","011265,1,N,1","+0300,1","+0220,1","99999,9","04,5,+00420,1,99,9",,,"04,99,1,99,9,99,9,99999,9,99,9,99,9","10119,1,99999,9",,,,"MET057METAR GVBA 121400Z 30014KT 9999 SCT014 30/22 Q1012 NOSIG;",
"08594499999","2010-08-12T15:00:00","4","16.136531","-22.888897","21.03","BOA VISTA RABIL, CV","FM-15","GVBA ","V020","270,1,N,0077,1","22000,1,9,N","011265,1,N,1","+0300,1","+0220,1","99999,9","04,5,+00420,1,99,9",,,"04,99,1,99,9,99,9,99999,9,99,9,99,9","10119,1,99999,9",,,,"MET057METAR GVBA 121500Z 27015KT 9999 SCT014 30/22 Q1012 NOSIG;",
"08594499999","2010-08-12T16:00:00","4","16.136531","-22.888897","21.03","BOA VISTA RABIL, CV","FM-15","GVBA ","V020","290,1,N,0077,1","22000,1,9,N","011265,1,N,1","+0300,1","+0220,1","99999,9","04,5,+00420,1,99,9",,,"04,99,1,99,9,99,9,99999,9,99,9,99,9","10119,1,99999,9",,,,"MET057METAR GVBA 121600Z 29015KT 9999 SCT014 30/22 Q1012 NOSIG;",
"08594499999","2010-08-12T17:00:00","4","16.136531","-22.888897","21.03","BOA VISTA RABIL, CV","FM-15","GVBA ","V020","310,1,N,0082,1","22000,1,9,N","011265,1,N,1","+0290,1","+0220,1","99999,9","04,5,+00420,1,99,9",,,"04,99,1,99,9,99,9,99999,9,99,9,99,9","10108,1,99999,9",,,,"MET057METAR GVBA 121700Z 31016KT 9999 SCT014 29/22 Q1011 NOSIG;",
"08594499999","2010-08-12T18:00:00","4","16.136531","-22.888897","21.03","BOA VISTA RABIL, CV","FM-15","GVBA ","V020","340,1,N,0067,1","22000,1,9,N","011265,1,N,1","+0290,1","+0220,1","99999,9","04,5,+00420,1,99,9",,,"04,99,1,99,9,99,9,99999,9,99,9,99,9","10108,1,99999,9",,,,"MET057METAR GVBA 121800Z 34013KT 9999 SCT014 29/22 Q1011 NOSIG;",
"08594499999","2010-08-12T19:00:00","4","16.136531","-22.888897","21.03","BOA VISTA RABIL, CV","FM-15","GVBA ","V020","350,1,N,0067,1","00450,1,C,N","011265,1,N,1","+0280,1","+0220,1","99999,9","07,5,+00450,1,99,9",,,"07,99,1,99,9,99,9,99999,9,99,9,99,9","10119,1,99999,9",,,,"MET057METAR GVBA 121900Z 35013KT 9999 BKN015 28/22 Q1012 NOSIG;",
"08594499999","2010-08-13T08:00:00","4","16.136531","-22.888897","21.03","BOA VISTA RABIL, CV","FM-15","GVBA ","V020","320,1,N,0015,1","00450,1,C,N","011265,1,N,1","+0250,1","+0220,1","99999,9","07,5,+00450,1,99,9",,,"07,99,1,99,9,99,9,99999,9,99,9,99,9","10119,1,99999,9",,,,"MET057METAR GVBA 130800Z 32003KT 9999 BKN015 25/22 Q1012 NOSIG;",
"08594499999","2010-08-13T09:00:00","4","16.136531","-22.888897","21.03","BOA VISTA RABIL, CV","FM-15","GVBA ","V020","330,1,N,0026,1","22000,1,9,N","011265,1,N,1","+0260,1","+0220,1","99999,9","04,5,+00450,1,99,9",,,"04,99,1,99,9,99,9,99999,9,99,9,99,9","10119,1,99999,9",,,,"MET057METAR GVBA 130900Z 33005KT 9999 SCT015 26/22 Q1012 NOSIG;",
"08594499999","2010-08-13T10:00:00","4","16.136531","-22.888897","21.03","BOA VISTA RABIL, CV","FM-15","GVBA ","V020","300,1,N,0041,1","22000,1,9,N","011265,1,N,1","+0280,1","+0220,1","99999,9","04,5,+00450,1,99,9",,,"04,99,1,99,9,99,9,99999,9,99,9,99,9","10119,1,99999,9",,,,"MET057METAR GVBA 131000Z 30008KT 9999 SCT015 28/22 Q1012 NOSIG;",
"08594499999","2010-08-13T11:00:00","4","16.136531","-22.888897","21.03","BOA VISTA RABIL, CV","FM-15","GVBA ","V020","280,1,N,0041,1","00450,1,C,N","011265,1,N,1","+0290,1","+0220,1","99999,9","07,5,+00450,1,99,9",,,"07,99,1,99,9,99,9,99999,9,99,9,99,9","10129,1,99999,9",,,,"MET057METAR GVBA 131100Z 28008KT 9999 BKN015 29/22 Q1013 NOSIG;",
"08594499999","2010-08-13T12:00:00","4","16.136531","-22.888897","21.03","BOA VISTA RABIL, CV","FM-15","GVBA ","V020","290,1,N,0051,1","00450,1,C,N","011265,1,N,1","+0290,1","+0220,1","99999,9","07,5,+00450,1,99,9",,,"07,99,1,99,9,99,9,99999,9,99,9,99,9","10129,1,99999,9",,,,"MET057METAR GVBA 131200Z 29010KT 9999 BKN015 29/22 Q1013 NOSIG;",
"08594499999","2010-08-13T14:00:00","4","16.136531","-22.888897","21.03","BOA VISTA RABIL, CV","FM-15","GVBA ","V020","300,1,N,0041,1","00450,1,C,N","011265,1,N,1","+0300,1","+0220,1","99999,9","07,5,+00450,1,99,9",,,"07,99,1,99,9,99,9,99999,9,99,9,99,9","10119,1,99999,9",,,,"MET057METAR GVBA 131400Z 30008KT 9999 BKN015 30/22 Q1012 NOSIG;",
"08594499999","2010-08-13T15:00:00","4","16.136531","-22.888897","21.03","BOA VISTA RABIL, CV","FM-15","GVBA ","V020","310,1,N,0036,1","22000,1,9,N","011265,1,N,1","+0300,1","+0220,1","99999,9","04,5,+00450,1,99,9",,,"04,99,1,99,9,99,9,99999,9,99,9,99,9","10119,1,99999,9",,,,"MET057METAR GVBA 131500Z 31007KT 9999 SCT015 30/22 Q1012 NOSIG;",
"08594499999","2010-08-13T16:00:00","4","16.136531","-22.888897","21.03","BOA VISTA RABIL, CV","FM-15","GVBA ","V020","310,1,N,0031,1","22000,1,9,N","011265,1,N,1","+0300,1","+0220,1","99999,9","04,5,+00450,1,99,9",,,"04,99,1,99,9,99,9,99999,9,99,9,99,9","10108,1,99999,9",,,,"MET057METAR GVBA 131600Z 31006KT 9999 SCT015 30/22 Q1011 NOSIG;",
"08594499999","2010-08-13T17:00:00","4","16.136531","-22.888897","21.03","BOA VISTA RABIL, CV","FM-15","GVBA ","V020","320,1,N,0041,1","22000,1,9,N","011265,1,N,1","+0300,1","+0220,1","99999,9","02,5,+00450,1,99,9",,,"02,99,1,99,9,99,9,99999,9,99,9,99,9","10108,1,99999,9",,,,"MET057METAR GVBA 131700Z 32008KT 9999 FEW015 30/22 Q1011 NOSIG;",
"08594499999","2010-08-13T18:00:00","4","16.136531","-22.888897","21.03","BOA VISTA RABIL, CV","FM-15","GVBA ","V020","290,1,N,0036,1","22000,1,9,N","011265,1,N,1","+0290,1","+0220,1","99999,9","02,5,+00450,1,99,9",,,"02,99,1,99,9,99,9,99999,9,99,9,99,9","10102,1,99999,9",,,,"MET057METAR GVBA 131800Z 29007KT 9999 FEW015 29/22 Q1010 NOSIG;",
"08594499999","2010-08-13T19:00:00","4","16.136531","-22.888897","21.03","BOA VISTA RABIL, CV","FM-15","GVBA ","V020","310,1,N,0031,1","22000,1,9,N","011265,1,N,1","+0280,1","+0220,1","99999,9","02,5,+00450,1,99,9",,,"02,99,1,99,9,99,9,99999,9,99,9,99,9","10108,1,99999,9",,,,"MET057METAR GVBA 131900Z 31006KT 9999 FEW015 28/22 Q1011 NOSIG;",
"08594499999","2010-08-14T09:00:00","4","16.136531","-22.888897","21.03","BOA VISTA RABIL, CV","FM-15","GVBA ","V020","330,1,N,0031,1","00420,1,C,N","009000,1,N,1","+0270,1","+0230,1","99999,9","07,5,+00420,1,99,9",,,"07,99,1,99,9,99,9,99999,9,99,9,99,9","10108,1,99999,9",,,,"MET057METAR GVBA 140900Z 33006KT 9000 BKN014 27/23 Q1011 NOSIG;",
"08594499999","2010-08-14T10:00:00","4","16.136531","-22.888897","21.03","BOA VISTA RABIL, CV","FM-15","GVBA ","V020","340,1,N,0051,1","99999,9,C,N","009000,1,N,1","+0280,1","+0230,1","99999,9","02,5,+00450,1,99,9","04,5,+03000,1,99,9",,"04,99,1,99,9,99,9,99999,9,99,9,99,9","10108,1,99999,9",,,,"MET064METAR GVBA 141000Z 34010KT 9000 FEW015 SCT100 28/23 Q1011 NOSIG;","P01 030003SCOCIG"
"08594499999","2010-08-14T11:00:00","4","16.136531","-22.888897","21.03","BOA VISTA RABIL, CV","FM-15","GVBA ","V020","340,1,N,0057,1","22000,1,9,N","009000,1,N,1","+0290,1","+0230,1","99999,9","04,5,+00450,1,99,9",,,"04,99,1,99,9,99,9,99999,9,99,9,99,9","10108,1,99999,9",,,,"MET057METAR GVBA 141100Z 34011KT 9000 SCT015 29/23 Q1011 NOSIG;",
"08594499999","2010-08-14T12:00:00","4","16.136531","-22.888897","21.03","BOA VISTA RABIL, CV","FM-15","GVBA ","V020","340,1,N,0057,1","22000,1,9,N","009000,1,N,1","+0290,1","+0230,1","99999,9","04,5,+00450,1,99,9",,,"04,99,1,99,9,99,9,99999,9,99,9,99,9","10102,1,99999,9",,,,"MET057METAR GVBA 141200Z 34011KT 9000 SCT015 29/23 Q1010 NOSIG;",
"08594499999","2010-08-14T13:00:00","4","16.136531","-22.888897","21.03","BOA VISTA RABIL, CV","FM-15","GVBA ","V020","330,1,N,0057,1","22000,1,9,N","009000,1,N,1","+0300,1","+0220,1","99999,9","04,5,+00450,1,99,9",,,"04,99,1,99,9,99,9,99999,9,99,9,99,9","10102,1,99999,9",,,,"MET057METAR GVBA 141300Z 33011KT 9000 SCT015 30/22 Q1010 NOSIG;",
"08594499999","2010-08-14T14:00:00","4","16.136531","-22.888897","21.03","BOA VISTA RABIL, CV","FM-15","GVBA ","V020","320,1,N,0062,1","22000,1,9,N","009000,1,N,1","+0300,1","+0220,1","99999,9","04,5,+00450,1,99,9",,,"04,99,1,99,9,99,9,99999,9,99,9,99,9","10102,1,99999,9",,,,"MET057METAR GVBA 141400Z 32012KT 9000 SCT015 30/22 Q1010 NOSIG;",
"08594499999","2010-08-14T15:00:00","4","16.136531","-22.888897","21.03","BOA VISTA RABIL, CV","FM-15","GVBA ","V020","300,1,N,0067,1","00450,1,C,N","009000,1,N,1","+0300,1","+0220,1","99999,9","07,5,+00450,1,99,9",,,"07,99,1,99,9,99,9,99999,9,99,9,99,9","10091,1,99999,9",,,,"MET057METAR GVBA 141500Z 30013KT 9000 BKN015 30/22 Q1009 NOSIG;",
"08594499999","2010-08-14T16:00:00","4","16.136531","-22.888897","21.03","BOA VISTA RABIL, CV","FM-15","GVBA ","V020","280,1,N,0062,1","00450,1,C,N","009000,1,N,1","+0300,1","+0230,1","99999,9","07,5,+00450,1,99,9",,,"07,99,1,99,9,99,9,99999,9,99,9,99,9","10091,1,99999,9",,,,"MET057METAR GVBA 141600Z 28012KT 9000 BKN015 30/23 Q1009 NOSIG;",
"08594499999","2010-08-14T17:00:00","4","16.136531","-22.888897","21.03","BOA VISTA RABIL, CV","FM-15","GVBA ","V020","350,1,N,0062,1","00480,1,C,N","009000,1,N,1","+0300,1","+0220,1","99999,9","04,5,+00450,1,99,9","07,5,+00480,1,99,9",,"07,99,1,99,9,99,9,99999,9,99,9,99,9","10081,1,99999,9",,,,"MET064METAR GVBA 141700Z 35012KT 9000 SCT015 BKN016 30/22 Q1008 NOSIG;",
"08594499999","2010-08-14T18:00:00","4","16.136531","-22.888897","21.03","BOA VISTA RABIL, CV","FM-15","GVBA ","V020","350,1,N,0041,1","00480,1,C,N","009000,1,N,1","+0290,1","+0230,1","99999,9","04,5,+00450,1,99,9","07,5,+00480,1,99,9",,"07,99,1,99,9,99,9,99999,9,99,9,99,9","10081,1,99999,9",,,,"MET064METAR GVBA 141800Z 35008KT 9000 SCT015 BKN016 29/23 Q1008 NOSIG;",
"08594499999","2010-08-14T19:00:00","4","16.136531","-22.888897","21.03","BOA VISTA RABIL, CV","FM-15","GVBA ","V020","360,1,N,0031,1","00480,1,C,N","008000,1,N,1","+0280,1","+0220,1","99999,9","04,5,+00450,1,99,9","07,5,+00480,1,99,9",,"07,99,1,99,9,99,9,99999,9,99,9,99,9","10081,1,99999,9",,,,"MET064METAR GVBA 141900Z 36006KT 8000 SCT015 BKN016 28/22 Q1008 NOSIG;",
"08594499999","2010-08-15T08:00:00","4","16.136531","-22.888897","21.03","BOA VISTA RABIL, CV","FM-15","GVBA ","V020","080,1,N,0015,1","22000,1,9,N","008000,1,N,1","+0230,1","+0200,1","99999,9","02,5,+00450,1,99,9",,,"02,99,1,99,9,99,9,99999,9,99,9,99,9","10102,1,99999,9",,,,"MET057METAR GVBA 150800Z 08003KT 8000 FEW015 23/20 Q1010 NOSIG;",
"08594499999","2010-08-15T09:00:00","4","16.136531","-22.888897","21.03","BOA VISTA RABIL, CV","FM-15","GVBA ","V020","999,9,C,0000,1","22000,1,9,N","009000,1,N,1","+0260,1","+0210,1","99999,9","02,5,+00450,1,99,9",,,"02,99,1,99,9,99,9,99999,9,99,9,99,9","10108,1,99999,9",,,,"MET057METAR GVBA 150900Z 00000KT 9000 FEW015 26/21 Q1011 NOSIG;",
"08594499999","2010-08-15T10:00:00","4","16.136531","-22.888897","21.03","BOA VISTA RABIL, CV","FM-15","GVBA ","V020","350,1,N,0026,1","22000,1,9,N","009000,1,N,1","+0280,1","+0200,1","99999,9",,,,"00,99,1,99,9,99,9,99999,9,99,9,99,9","10108,1,99999,9",,,,"MET054METAR GVBA 151000Z 35005KT 9000 NSC 28/20 Q1011 NOSIG;","Q01    003SCCGA1"
"08594499999","2010-08-15T11:00:00","4","16.136531","-22.888897","21.03","BOA VISTA RABIL, CV","FM-15","GVBA ","V020","340,1,N,0036,1","22000,1,9,N","009000,1,N,1","+0290,1","+0200,1","99999,9",,,,"00,99,1,99,9,99,9,99999,9,99,9,99,9","10108,1,99999,9",,,,"MET054METAR GVBA 151100Z 34007KT 9000 NSC 29/20 Q1011 NOSIG;","Q01    003SCCGA1"
"08594499999","2010-08-15T12:00:00","4","16.136531","-22.888897","21.03","BOA VISTA RABIL, CV","FM-15","GVBA ","V020","350,1,N,0036,1","22000,1,9,N","011265,1,N,1","+0300,1","+0190,1","99999,9","02,5,+00450,1,99,9",,,"02,99,1,99,9,99,9,99999,9,99,9,99,9","10119,1,99999,9",,,,"MET057METAR GVBA 151200Z 35007KT 9999 FEW015 30/19 Q1012 NOSIG;",
"08594499999","2010-08-15T13:00:00","4","16.136531","-22.888897","21.03","BOA VISTA RABIL, CV","FM-15","GVBA ","V020","330,1,N,0041,1","22000,1,9,N","011265,1,N,1","+0310,1","+0200,1","99999,9","02,5,+00450,1,99,9",,,"02,99,1,99,9,99,9,99999,9,99,9,99,9","10108,1,99999,9",,,,"MET057METAR GVBA 151300Z 33008KT 9999 FEW015 31/20 Q1011 NOSIG;",
"08594499999","2010-08-15T14:00:00","4","16.136531","-22.888897","21.03","BOA VISTA RABIL, CV","FM-15","GVBA ","V020","340,1,N,0041,1","22000,1,9,N","011265,1,N,1","+0320,1","+0200,1","99999,9","02,5,+00450,1,99,9",,,"02,99,1,99,9,99,9,99999,9,99,9,99,9","10102,1,99999,9",,,,"MET057METAR GVBA 151400Z 34008KT 9999 FEW015 32/20 Q1010 NOSIG;",
"08594499999","2010-08-15T15:00:00","4","16.136531","-22.888897","21.03","BOA VISTA RABIL, CV","FM-15","GVBA ","V020","360,1,N,0046,1","22000,1,9,N","011265,1,N,1","+0320,1","+0210,1","99999,9","02,5,+00450,1,99,9",,,"02,99,1,99,9,99,9,99999,9,99,9,99,9","10102,1,99999,9",,,,"MET057METAR GVBA 151500Z 36009KT 9999 FEW015 32/21 Q1010 NOSIG;",
"08594499999","2010-08-15T16:00:00","4","16.136531","-22.888897","21.03","BOA VISTA RABIL, CV","FM-15","GVBA ","V020","020,1,N,0041,1","22000,1,9,N","011265,1,N,1","+0320,1","+0210,1","99999,9","02,5,+00450,1,99,9",,,"02,99,1,99,9,99,9,99999,9,99,9,99,9","10102,1,99999,9",,,,"MET057METAR GVBA 151600Z 02008KT 9999 FEW015 32/21 Q1010 NOSIG;",
"08594499999","2010-08-15T17:00:00","4","16.136531","-22.888897","21.03","BOA VISTA RABIL, CV","FM-15","GVBA ","V020","030,1,N,0051,1","00450,1,C,N","011265,1,N,1","+0300,1","+0210,1","99999,9","07,5,+00450,1,99,9",,,"07,99,1,99,9,99,9,99999,9,99,9,99,9","10102,1,99999,9",,,,"MET057METAR GVBA 151700Z 03010KT 9999 BKN015 30/21 Q1010 NOSIG;",
"08594499999","2010-08-15T18:00:00","4","16.136531","-22.888897","21.03","BOA VISTA RABIL, CV","FM-15","GVBA ","V020","050,1,N,0036,1","00450,1,C,N","011265,1,N,1","+0290,1","+0210,1","99999,9","07,5,+00450,1,99,9",,,"07,99,1,99,9,99,9,99999,9,99,9,99,9","10102,1,99999,9",,,,"MET057METAR GVBA 151800Z 05007KT 9999 BKN015 29/21 Q1010 NOSIG;",
"08594499999","2010-08-15T19:00:00","4","16.136531","-22.888897","21.03","BOA VISTA RABIL, CV","FM-15","GVBA ","V020","080,1,N,0031,1","00450,1,C,N","011265,1,N,1","+0280,1","+0210,1","99999,9","07,5,+00450,1,99,9",,,"07,99,1,99,9,99,9,99999,9,99,9,99,9","10108,1,99999,9",,,,"MET057METAR GVBA 151900Z 08006KT 9999 BKN015 28/21 Q1011 NOSIG;",
"08594499999","2010-08-16T08:00:00","4","16.136531","-22.888897","21.03","BOA VISTA RABIL, CV","FM-15","GVBA ","V020","050,1,N,0015,1","99999,9,C,N","011265,1,N,1","+0260,1","+0220,1","99999,9","02,5,+00420,1,99,9","04,5,+02700,1,99,9",,"04,99,1,99,9,99,9,99999,9,99,9,99,9","10119,1,99999,9",,,,"MET064METAR GVBA 160800Z 05003KT 9999 FEW014 SCT090 26/22 Q1012 NOSIG;","P01 027003SCOCIG"
"08594499999","2010-08-16T09:00:00","4","16.136531","-22.888897","21.03","BOA VISTA RABIL, CV","FM-15","GVBA ","V020","040,1,N,0026,1","22000,1,9,N","011265,1,N,1","+0270,1","+0230,1","99999,9","02,5,+00420,1,99,9",,,"02,99,1,99,9,99,9,99999,9,99,9,99,9","10119,1,99999,9",,,,"MET057METAR GVBA 160900Z 04005KT 9999 FEW014 27/23 Q1012 NOSIG;",
"08594499999","2010-08-16T10:00:00","4","16.136531","-22.888897","21.03","BOA VISTA RABIL, CV","FM-15","GVBA ","V020","040,1,N,0031,1","02700,1,C,N","011265,1,N,1","+0290,1","+0230,1","99999,9","04,5,+00450,1,99,9","07,5,+02700,1,99,9",,"07,99,1,99,9,99,9,99999,9,99,9,99,9","10129,1,99999,9",,,,"MET064METAR GVBA 161000Z 04006KT 9999 SCT015 BKN090 29/23 Q1013 NOSIG;",
"08594499999","2010-08-16T11:00:00","4","16.136531","-22.888897","21.03","BOA VISTA RABIL, CV","FM-15","GVBA ","V020","030,1,N,0051,1","00450,1,C,N","011265,1,N,1","+0290,1","+0230,1","99999,9","07,5,+00450,1,99,9","07,5,+02700,1,99,9",,"07,99,1,99,9,99,9,99999,9,99,9,99,9","10139,1,99999,9",,,,"MET064METAR GVBA 161100Z 03010KT 9999 BKN015 BKN090 29/23 Q1014 NOSIG;",
"08594499999","2010-08-16T12:00:00","4","16.136531","-22.888897","21.03","BOA VISTA RABIL, CV","FM-15","GVBA ","V020","050,1,N,0057,1","00450,1,C,N","011265,1,N,1","+0300,1","+0240,1","99999,9","07,5,+00450,1,99,9","07,5,+02700,1,99,9",,"07,99,1,99,9,99,9,99999,9,99,9,99,9","10139,1,99999,9",,,,"MET064METAR GVBA 161200Z 05011KT 9999 BKN015 BKN090 30/24 Q1014 NOSIG;",
"08594499999","2010-08-16T13:00:00","4","16.136531","-22.888897","21.03","BOA VISTA RABIL, CV","FM-15","GVBA ","V020","040,1,N,0067,1","00450,1,C,N","011265,1,N,1","+0290,1","+0240,1","99999,9","07,5,+00450,1,99,9","07,5,+02700,1,99,9",,"07,99,1,99,9,99,9,99999,9,99,9,99,9","10139,1,99999,9",,,,"MET064METAR GVBA 161300Z 04013KT 9999 BKN015 BKN090 29/24 Q1014 NOSIG;",
"08594499999","2010-08-16T14:00:00","4","16.136531","-22.888897","21.03","BOA VISTA RABIL, CV","FM-15","GVBA ","V020","040,1,N,0067,1","02400,1,C,N","008000,1,N,1","+0290,1","+0240,1","99999,9","04,5,+00420,1,99,9","07,5,+02400,1,99,9",,"07,99,1,99,9,99,9,99999,9,99,9,99,9","10129,1,99999,9",,,,"MET064METAR GVBA 161400Z 04013KT 8000 SCT014 BKN080 29/24 Q1013 NOSIG;",
"08594499999","2010-08-16T15:00:00","4","16.136531","-22.888897","21.03","BOA VISTA RABIL, CV","FM-15","GVBA ","V020","060,1,N,0067,1","02400,1,C,N","007000,1,N,1","+0290,1","+0240,1","99999,9","04,5,+00420,1,99,9","07,5,+02400,1,99,9",,"07,99,1,99,9,99,9,99999,9,99,9,99,9","10129,1,99999,9","53,1",,,"MET067METAR GVBA 161500Z 06013KT 7000 DZ SCT014 BKN080 29/24 Q1013 NOSIG;",
"08594499999","2010-08-16T16:00:00","4","16.136531","-22.888897","21.03","BOA VISTA RABIL, CV","FM-15","GVBA ","V020","040,1,N,0067,1","02700,1,C,N","008000,1,N,1","+0290,1","+0240,1","99999,9","04,5,+00420,1,99,9","07,5,+02700,1,99,9",,"07,99,1,99,9,99,9,99999,9,99,9,99,9","10129,1,99999,9",,,,"MET064METAR GVBA 161600Z 04013KT 8000 SCT014 BKN090 29/24 Q1013 NOSIG;",
"08594499999","2010-08-16T17:00:00","4","16.136531","-22.888897","21.03","BOA VISTA RABIL, CV","FM-15","GVBA ","V020","050,1,N,0067,1","02700,1,C,N","009000,1,N,1","+0290,1","+0240,1","99999,9","04,5,+00420,1,99,9","08,5,+02700,1,99,9",,"08,99,1,99,9,99,9,99999,9,99,9,99,9","10119,1,99999,9",,,,"MET064METAR GVBA 161700Z 05013KT 9000 SCT014 OVC090 29/24 Q1012 NOSIG;",
"08594499999","2010-08-16T19:00:00","4","16.136531","-22.888897","21.03","BOA VISTA RABIL, CV","FM-15","GVBA ","V020","080,1,N,0031,1","06000,1,C,N","011265,1,N,1","+0290,1","+0240,1","99999,9","02,5,+00450,1,99,9","07,5,+06000,1,99,9",,"07,99,1,99,9,99,9,99999,9,99,9,99,9","10119,1,99999,9",,,,"MET064METAR GVBA 161900Z 08006KT 9999 FEW015 BKN200 29/24 Q1012 NOSIG;",
"08594499999","2010-08-17T08:00:00","4","16.136531","-22.888897","21.03","BOA VISTA RABIL, CV","FM-15","GVBA ","V020","999,9,C,0000,1","03000,1,C,N","008000,1,N,1","+9999,9","+9999,9","99999,9","02,5,+00360,1,99,9","07,5,+03000,1,99,9",,"07,99,1,99,9,99,9,99999,9,99,9,99,9",,,,,"MET064METAR GVBA 170800Z 00000KT 8000 FEW012 BKN100 XX/XX Q//// NOSIG;",
"08594499999","2010-08-17T09:00:00","4","16.136531","-22.888897","21.03","BOA VISTA RABIL, CV","FM-15","GVBA ","V020","999,9,V,0015,1","03000,1,C,N","008000,1,N,1","+9999,9","+9999,9","99999,9","02,5,+00450,1,99,9","07,5,+03000,1,99,9",,"07,99,1,99,9,99,9,99999,9,99,9,99,9",,,,,"MET064METAR GVBA 170900Z VRB03KT 8000 FEW015 BKN100 XX/XX Q//// NOSIG;",
"08594499999","2010-08-17T10:00:00","4","16.136531","-22.888897","21.03","BOA VISTA RABIL, CV","FM-15","GVBA ","V020","030,1,N,0015,1","03000,1,C,N","008000,1,N,1","+0280,1","+0240,1","99999,9","02,5,+00450,1,99,9","07,5,+03000,1,99,9",,"07,99,1,99,9,99,9,99999,9,99,9,99,9","10149,1,99999,9",,,,"MET064METAR GVBA 171000Z 03003KT 8000 FEW015 BKN100 28/24 Q1015 NOSIG;",
"08594499999","2010-08-17T11:00:00","4","16.136531","-22.888897","21.03","BOA VISTA RABIL, CV","FM-15","GVBA ","V020","020,1,N,0026,1","03000,1,C,N","009000,1,N,1","+0290,1","+0230,1","99999,9","02,5,+00450,1,99,9","07,5,+03000,1,99,9",,"07,99,1,99,9,99,9,99999,9,99,9,99,9","10149,1,99999,9",,,,"MET064METAR GVBA 171100Z 02005KT 9000 FEW015 BKN100 29/23 Q1015 NOSIG;",
"08594499999","2010-08-17T12:00:00","4","16.136531","-22.888897","21.03","BOA VISTA RABIL, CV","FM-15","GVBA ","V020","010,1,N,0041,1","03000,1,C,N","011265,1,N,1","+0310,1","+0220,1","99999,9","04,5,+00450,1,99,9","07,5,+03000,1,99,9",,"07,99,1,99,9,99,9,99999,9,99,9,99,9","10149,1,99999,9",,,,"MET064METAR GVBA 171200Z 01008KT 9999 SCT015 BKN100 31/22 Q1015 NOSIG;",
"08594499999","2010-08-17T13:00:00","4","16.136531","-22.888897","21.03","BOA VISTA RABIL, CV","FM-15","GVBA ","V020","010,1,N,0051,1","22000,1,9,N","011265,1,N,1","+0310,1","+0220,1","99999,9","04,5,+00450,1,99,9",,,"04,99,1,99,9,99,9,99999,9,99,9,99,9","10139,1,99999,9",,,,"MET057METAR GVBA 171300Z 01010KT 9999 SCT015 31/22 Q1014 NOSIG;",
"08594499999","2010-08-17T14:00:00","4","16.136531","-22.888897","21.03","BOA VISTA RABIL, CV","FM-15","GVBA ","V020","010,1,N,0062,1","22000,1,9,N","011265,1,N,1","+0320,1","+0240,1","99999,9","04,5,+00450,1,99,9",,,"04,99,1,99,9,99,9,99999,9,99,9,99,9","10129,1,99999,9",,,,"MET057METAR GVBA 171400Z 01012KT 9999 SCT015 32/24 Q1013 NOSIG;",
"08594499999","2010-08-17T15:00:00","4","16.136531","-22.888897","21.03","BOA VISTA RABIL, CV","FM-15","GVBA ","V020","030,1,N,0057,1","22000,1,9,N","011265,1,N,1","+0310,1","+0240,1","99999,9","04,5,+00450,1,99,9",,,"04,99,1,99,9,99,9,99999,9,99,9,99,9","10119,1,99999,9",,,,"MET057METAR GVBA 171500Z 03011KT 9999 SCT015 31/24 Q1012 NOSIG;",
"08594499999","2010-08-17T16:00:00","4","16.136531","-22.888897","21.03","BOA VISTA RABIL, CV","FM-15","GVBA ","V020","020,1,N,0041,1","99999,9,C,N","011265,1,N,1","+0310,1","+0230,1","99999,9","04,5,+00450,1,99,9","04,5,+06000,1,99,9",,"04,99,1,99,9,99,9,99999,9,99,9,99,9","10119,1,99999,9",,,,"MET064METAR GVBA 171600Z 02008KT 9999 SCT015 SCT200 31/23 Q1012 NOSIG;","P01 060003SCOCIG"
"08594499999","2010-08-17T17:00:00","4","16.136531","-22.888897","21.03","BOA VISTA RABIL, CV","FM-15","GVBA ","V020","010,1,N,0046,1","06000,1,C,N","011265,1,N,1","+0310,1","+0230,1","99999,9","04,5,+00450,1,99,9","07,5,+06000,1,99,9",,"07,99,1,99,9,99,9,99999,9,99,9,99,9","10108,1,99999,9",,,,"MET064METAR GVBA 171700Z 01009KT 9999 SCT015 BKN200 31/23 Q1011 NOSIG;",
"08594499999","2010-08-17T18:00:00","4","16.136531","-22.888897","21.03","BOA VISTA RABIL, CV","FM-15","GVBA ","V020","020,1,N,0046,1","06000,1,C,N","011265,1,N,1","+0300,1","+0230,1","99999,9","04,5,+00450,1,99,9","07,5,+06000,1,99,9",,"07,99,1,99,9,99,9,99999,9,99,9,99,9","10108,1,99999,9",,,,"MET064METAR GVBA 171800Z 02009KT 9999 SCT015 BKN200 30/23 Q1011 NOSIG;",
"08594499999","2010-08-17T19:00:00","4","16.136531","-22.888897","21.03","BOA VISTA RABIL, CV","FM-15","GVBA ","V020","020,1,N,0046,1","06000,1,C,N","011265,1,N,1","+0290,1","+0240,1","99999,9","04,5,+00450,1,99,9","07,5,+06000,1,99,9",,"07,99,1,99,9,99,9,99999,9,99,9,99,9","10119,1,99999,9",,,,"MET064METAR GVBA 171900Z 02009KT 9999 SCT015 BKN200 29/24 Q1012 NOSIG;",
"08594499999","2010-08-18T08:00:00","4","16.136531","-22.888897","21.03","BOA VISTA RABIL, CV","FM-15","GVBA ","V020","030,1,N,0015,1","22000,1,9,N","011265,1,N,1","+0250,1","+0230,1","99999,9","02,5,+00450,1,99,9",,,"02,99,1,99,9,99,9,99999,9,99,9,99,9","10119,1,99999,9",,,,"MET057METAR GVBA 180800Z 03003KT 9999 FEW015 25/23 Q1012 NOSIG;",
"08594499999","2010-08-18T09:00:00","4","16.136531","-22.888897","21.03","BOA VISTA RABIL, CV","FM-15","GVBA ","V020","020,1,N,0015,1","22000,1,9,N","011265,1,N,1","+0270,1","+0230,1","99999,9","02,5,+00450,1,99,9",,,"02,99,1,99,9,99,9,99999,9,99,9,99,9","10119,1,99999,9",,,,"MET057METAR GVBA 180900Z 02003KT 9999 FEW015 27/23 Q1012 NOSIG;",
"08594499999","2010-08-18T10:00:00","4","16.136531","-22.888897","21.03","BOA VISTA RABIL, CV","FM-15","GVBA ","V020","360,1,N,0021,1","22000,1,9,N","011265,1,N,1","+0290,1","+0230,1","99999,9","02,5,+00450,1,99,9",,,"02,99,1,99,9,99,9,99999,9,99,9,99,9","10129,1,99999,9",,,,"MET057METAR GVBA 181000Z 36004KT 9999 FEW015 29/23 Q1013 NOSIG;",
"08594499999","2010-08-18T11:00:00","4","16.136531","-22.888897","21.03","BOA VISTA RABIL, CV","FM-15","GVBA ","V020","010,1,N,0026,1","22000,1,9,N","011265,1,N,1","+0310,1","+0230,1","99999,9","02,5,+00450,1,99,9",,,"02,99,1,99,9,99,9,99999,9,99,9,99,9","10129,1,99999,9",,,,"MET057METAR GVBA 181100Z 01005KT 9999 FEW015 31/23 Q1013 NOSIG;",
"08594499999","2010-08-18T12:00:00","4","16.136531","-22.888897","21.03","BOA VISTA RABIL, CV","FM-15","GVBA ","V020","010,1,N,0046,1","22000,1,9,N","011265,1,N,1","+0320,1","+0220,1","99999,9","02,5,+00450,1,99,9",,,"02,99,1,99,9,99,9,99999,9,99,9,99,9","10129,1,99999,9",,,,"MET057METAR GVBA 181200Z 01009KT 9999 FEW015 32/22 Q1013 NOSIG;",
"08594499999","2010-08-18T13:00:00","4","16.136531","-22.888897","21.03","BOA VISTA RABIL, CV","FM-15","GVBA ","V020","020,1,N,0051,1","22000,1,9,N","011265,1,N,1","+0320,1","+0220,1","99999,9","02,5,+00450,1,99,9",,,"02,99,1,99,9,99,9,99999,9,99,9,99,9","10129,1,99999,9",,,,"MET057METAR GVBA 181300Z 02010KT 9999 FEW015 32/22 Q1013 NOSIG;",
"08594499999","2010-08-18T14:00:00","4","16.136531","-22.888897","21.03","BOA VISTA RABIL, CV","FM-15","GVBA ","V020","010,1,N,0062,1","22000,1,9,N","011265,1,N,1","+0320,1","+0210,1","99999,9","02,5,+00450,1,99,9",,,"02,99,1,99,9,99,9,99999,9,99,9,99,9","10119,1,99999,9",,,,"MET057METAR GVBA 181400Z 01012KT 9999 FEW015 32/21 Q1012 NOSIG;",
"08594499999","2010-08-18T15:00:00","4","16.136531","-22.888897","21.03","BOA VISTA RABIL, CV","FM-15","GVBA ","V020","030,1,N,0072,1","22000,1,9,N","011265,1,N,1","+0330,1","+0220,1","99999,9","02,5,+00450,1,99,9",,,"02,99,1,99,9,99,9,99999,9,99,9,99,9","10108,1,99999,9",,,,"MET057METAR GVBA 181500Z 03014KT 9999 FEW015 33/22 Q1011 NOSIG;",
"08594499999","2010-08-18T16:00:00","4","16.136531","-22.888897","21.03","BOA VISTA RABIL, CV","FM-15","GVBA ","V020","050,1,N,0072,1","99999,9,C,N","011265,1,N,1","+0320,1","+0230,1","99999,9","04,5,+00450,1,99,9","04,5,+06000,1,99,9",,"04,99,1,99,9,99,9,99999,9,99,9,99,9","10108,1,99999,9",,,,"MET064METAR GVBA 181600Z 05014KT 9999 SCT015 SCT200 32/23 Q1011 NOSIG;","P01 060003SCOCIG"
"08594499999","2010-08-18T17:00:00","4","16.136531","-22.888897","21.03","BOA VISTA RABIL, CV","FM-15","GVBA ","V020","030,1,N,0062,1","99999,9,C,N","011265,1,N,1","+0320,1","+0230,1","99999,9","04,5,+00450,1,99,9","04,5,+06000,1,99,9",,"04,99,1,99,9,99,9,99999,9,99,9,99,9","10108,1,99999,9",,,,"MET064METAR GVBA 181700Z 03012KT 9999 SCT015 SCT200 32/23 Q1011 NOSIG;","P01 060003SCOCIG"
"08594499999","2010-08-18T19:00:00","4","16.136531","-22.888897","21.03","BOA VISTA RABIL, CV","FM-15","GVBA ","V020","060,1,N,0051,1","99999,9,C,N","011265,1,N,1","+0300,1","+0230,1","99999,9","04,5,+00450,1,99,9","04,5,+06000,1,99,9",,"04,99,1,99,9,99,9,99999,9,99,9,99,9","10108,1,99999,9",,,,"MET064METAR GVBA 181900Z 06010KT 9999 SCT015 SCT200 30/23 Q1011 NOSIG;","P01 060003SCOCIG"
"08594499999","2010-08-19T08:00:00","4","16.136531","-22.888897","21.03","BOA VISTA RABIL, CV","FM-15","GVBA ","V020","010,1,N,0062,1","00420,1,C,N","011265,1,N,1","+0270,1","+0240,1","99999,9","07,5,+00420,1,99,9",,,"07,99,1,99,9,99,9,99999,9,99,9,99,9","10102,1,99999,9",,,,"MET057METAR GVBA 190800Z 01012KT 9999 BKN014 27/24 Q1010 NOSIG;",
"08594499999","2010-08-19T10:00:00","4","16.136531","-22.888897","21.03","BOA VISTA RABIL, CV","FM-15","GVBA ","V020","060,1,N,0072,1","00450,1,C,N","011265,1,N,1","+0290,1","+0240,1","99999,9","07,5,+00450,1,99,9",,,"07,99,1,99,9,99,9,99999,9,99,9,99,9","10108,1,99999,9",,,,"MET057METAR GVBA 191000Z 06014KT 9999 BKN015 29/24 Q1011 NOSIG;",
"08594499999","2010-08-19T11:00:00","4","16.136531","-22.888897","21.03","BOA VISTA RABIL, CV","FM-15","GVBA ","V020","060,1,N,0087,1","00450,1,C,N","011265,1,N,1","+0300,1","+0240,1","99999,9","07,5,+00450,1,99,9",,,"07,99,1,99,9,99,9,99999,9,99,9,99,9","10108,1,99999,9",,,,"MET057METAR GVBA 191100Z 06017KT 9999 BKN015 30/24 Q1011 NOSIG;",
"08594499999","2010-08-19T12:00:00","4","16.136531","-22.888897","21.03","BOA VISTA RABIL, CV","FM-15","GVBA ","V020","060,1,N,0103,1","00450,1,C,N","011265,1,N,1","+0310,1","+0240,1","99999,9","07,5,+00450,1,99,9",,,"07,99,1,99,9,99,9,99999,9,99,9,99,9","10108,1,99999,9",,,,"MET057METAR GVBA 191200Z 06020KT 9999 BKN015 31/24 Q1011 NOSIG;",
"08594499999","2010-08-19T13:00:00","4","16.136531","-22.888897","21.03","BOA VISTA RABIL, CV","FM-15","GVBA ","V020","040,1,N,0103,1","00450,1,C,N","011265,1,N,1","+0310,1","+0240,1","99999,9","07,5,+00450,1,99,9",,,"07,99,1,99,9,99,9,99999,9,99,9,99,9","10102,1,99999,9",,,,"MET057METAR GVBA 191300Z 04020KT 9999 BKN015 31/24 Q1010 NOSIG;",
"08594499999","2010-08-19T14:00:00","4","16.136531","-22.888897","21.03","BOA VISTA RABIL, CV","FM-15","GVBA ","V020","050,1,N,0093,1","00450,1,C,N","011265,1,N,1","+0320,1","+0240,1","99999,9","07,5,+00450,1,99,9",,,"07,99,1,99,9,99,9,99999,9,99,9,99,9","10102,1,99999,9",,,,"MET057METAR GVBA 191400Z 05018KT 9999 BKN015 32/24 Q1010 NOSIG;",
"08594499999","2010-08-19T15:00:00","4","16.136531","-22.888897","21.03","BOA VISTA RABIL, CV","FM-15","GVBA ","V020","070,1,N,0077,1","00450,1,C,N","011265,1,N,1","+0330,1","+0240,1","99999,9","07,5,+00450,1,99,9",,,"07,99,1,99,9,99,9,99999,9,99,9,99,9","10102,1,99999,9",,,,"MET057METAR GVBA 191500Z 07015KT 9999 BKN015 33/24 Q1010 NOSIG;",
"08594499999","2010-08-19T16:00:00","4","16.136531","-22.888897","21.03","BOA VISTA RABIL, CV","FM-15","GVBA ","V020","090,1,N,0067,1","00450,1,C,N","011265,1,N,1","+0330,1","+0230,1","99999,9","07,5,+00450,1,99,9",,,"07,99,1,99,9,99,9,99999,9,99,9,99,9","10091,1,99999,9",,,,"MET057METAR GVBA 191600Z 09013KT 9999 BKN015 33/23 Q1009 NOSIG;",
"08594499999","2010-08-19T17:00:00","4","16.136531","-22.888897","21.03","BOA VISTA RABIL, CV","FM-15","GVBA ","V020","110,1,N,0051,1","00450,1,C,N","011265,1,N,1","+0330,1","+0220,1","99999,9","07,5,+00450,1,99,9",,,"07,99,1,99,9,99,9,99999,9,99,9,99,9","10091,1,99999,9",,,,"MET057METAR GVBA 191700Z 11010KT 9999 BKN015 33/22 Q1009 NOSIG;",
"08594499999","2010-08-19T18:00:00","4","16.136531","-22.888897","21.03","BOA VISTA RABIL, CV","FM-15","GVBA ","V020","100,1,N,0046,1","22000,1,9,N","011265,1,N,1","+0320,1","+0220,1","99999,9","02,5,+00450,1,99,9",,,"02,99,1,99,9,99,9,99999,9,99,9,99,9","10091,1,99999,9",,,,"MET057METAR GVBA 191800Z 10009KT 9999 FEW015 32/22 Q1009 NOSIG;",
"08594499999","2010-08-19T19:00:00","4","16.136531","-22.888897","21.03","BOA VISTA RABIL, CV","FM-15","GVBA ","V020","110,1,N,0041,1","22000,1,9,N","011265,1,N,1","+0320,1","+0210,1","99999,9","02,5,+00450,1,99,9",,,"02,99,1,99,9,99,9,99999,9,99,9,99,9","10102,1,99999,9",,,,"MET057METAR GVBA 191900Z 11008KT 9999 FEW015 32/21 Q1010 NOSIG;",
"08594499999","2010-08-20T08:00:00","4","16.136531","-22.888897","21.03","BOA VISTA RABIL, CV","FM-15","GVBA ","V020","040,1,N,0036,1","22000,1,9,N","011265,1,N,1","+0270,1","+0250,1","99999,9","02,5,+00390,1,99,9",,,"02,99,1,99,9,99,9,99999,9,99,9,99,9","10108,1,99999,9",,,,"MET057METAR GVBA 200800Z 04007KT 9999 FEW013 27/25 Q1011 NOSIG;",
"08594499999","2010-08-20T09:00:00","4","16.136531","-22.888897","21.03","BOA VISTA RABIL, CV","FM-15","GVBA ","V020","040,1,N,0051,1","22000,1,9,N","011265,1,N,1","+0280,1","+0250,1","99999,9","02,5,+00420,1,99,9",,,"02,99,1,99,9,99,9,99999,9,99,9,99,9","10119,1,99999,9",,,,"MET057METAR GVBA 200900Z 04010KT 9999 FEW014 28/25 Q1012 NOSIG;",
"08594499999","2010-08-20T10:00:00","4","16.136531","-22.888897","21.03","BOA VISTA RABIL, CV","FM-15","GVBA ","V020","050,1,N,0057,1","22000,1,9,N","011265,1,N,1","+0290,1","+0240,1","99999,9","04,5,+00420,1,99,9",,,"04,99,1,99,9,99,9,99999,9,99,9,99,9","10129,1,99999,9",,,,"MET057METAR GVBA 201000Z 05011KT 9999 SCT014 29/24 Q1013 NOSIG;",
"08594499999","2010-08-20T11:00:00","4","16.136531","-22.888897","21.03","BOA VISTA RABIL, CV","FM-15","GVBA ","V020","040,1,N,0067,1","22000,1,9,N","011265,1,N,1","+0300,1","+0240,1","99999,9","04,5,+00420,1,99,9",,,"04,99,1,99,9,99,9,99999,9,99,9,99,9","10129,1,99999,9",,,,"MET057METAR GVBA 201100Z 04013KT 9999 SCT014 30/24 Q1013 NOSIG;",
"08594499999","2010-08-20T12:00:00","4","16.136531","-22.888897","21.03","BOA VISTA RABIL, CV","FM-15","GVBA ","V020","030,1,N,0082,1","22000,1,9,N","011265,1,N,1","+0310,1","+0240,1","99999,9","04,5,+00450,1,99,9",,,"04,99,1,99,9,99,9,99999,9,99,9,99,9","10139,1,99999,9",,,,"MET057METAR GVBA 201200Z 03016KT 9999 SCT015 31/24 Q1014 NOSIG;",
"08594499999","2010-08-20T13:00:00","4","16.136531","-22.888897","21.03","BOA VISTA RABIL, CV","FM-15","GVBA ","V020","050,1,N,0082,1","22000,1,9,N","011265,1,N,1","+0310,1","+0230,1","99999,9","04,5,+00450,1,99,9",,,"04,99,1,99,9,99,9,99999,9,99,9,99,9","10129,1,99999,9",,,,"MET057METAR GVBA 201300Z 05016KT 9999 SCT015 31/23 Q1013 NOSIG;",
"08594499999","2010-08-20T14:00:00","4","16.136531","-22.888897","21.03","BOA VISTA RABIL, CV","FM-15","GVBA ","V020","040,1,N,0087,1","22000,1,9,N","011265,1,N,1","+0320,1","+0230,1","99999,9","04,5,+00450,1,99,9",,,"04,99,1,99,9,99,9,99999,9,99,9,99,9","10129,1,99999,9",,,,"MET057METAR GVBA 201400Z 04017KT 9999 SCT015 32/23 Q1013 NOSIG;",
"08594499999","2010-08-20T15:00:00","4","16.136531","-22.888897","21.03","BOA VISTA RABIL, CV","FM-15","GVBA ","V020","040,1,N,0072,1","22000,1,9,N","011265,1,N,1","+0320,1","+0230,1","99999,9","02,5,+00450,1,99,9",,,"02,99,1,99,9,99,9,99999,9,99,9,99,9","10119,1,99999,9",,,,"MET057METAR GVBA 201500Z 04014KT 9999 FEW015 32/23 Q1012 NOSIG;",
"08594499999","2010-08-20T16:00:00","4","16.136531","-22.888897","21.03","BOA VISTA RABIL, CV","FM-15","GVBA ","V020","050,1,N,0077,1","22000,1,9,N","011265,1,N,1","+0320,1","+0230,1","99999,9","02,5,+00450,1,99,9",,,"02,99,1,99,9,99,9,99999,9,99,9,99,9","10108,1,99999,9",,,,"MET057METAR GVBA 201600Z 05015KT 9999 FEW015 32/23 Q1011 NOSIG;",
"08594499999","2010-08-20T17:00:00","4","16.136531","-22.888897","21.03","BOA VISTA RABIL, CV","FM-15","GVBA ","V020","060,1,N,0077,1","22000,1,9,N","011265,1,N,1","+0310,1","+0220,1","99999,9","04,5,+00450,1,99,9",,,"04,99,1,99,9,99,9,99999,9,99,9,99,9","10108,1,99999,9",,,,"MET057METAR GVBA 201700Z 06015KT 9999 SCT015 31/22 Q1011 NOSIG;",
"08594499999","2010-08-20T18:00:00","4","16.136531","-22.888897","21.03","BOA VISTA RABIL, CV","FM-15","GVBA ","V020","060,1,N,0067,1","22000,1,9,N","011265,1,N,1","+0300,1","+0220,1","99999,9","04,5,+00450,1,99,9",,,"04,99,1,99,9,99,9,99999,9,99,9,99,9","10108,1,99999,9",,,,"MET057METAR GVBA 201800Z 06013KT 9999 SCT015 30/22 Q1011 NOSIG;",
"08594499999","2010-08-20T19:00:00","4","16.136531","-22.888897","21.03","BOA VISTA RABIL, CV","FM-15","GVBA ","V020","040,1,N,0067,1","22000,1,9,N","011265,1,N,1","+0290,1","+0220,1","99999,9","04,5,+00450,1,99,9",,,"04,99,1,99,9,99,9,99999,9,99,9,99,9","10108,1,99999,9",,,,"MET057METAR GVBA 201900Z 04013KT 9999 SCT015 29/22 Q1011 NOSIG;",
"08594499999","2010-08-21T08:00:00","4","16.136531","-22.888897","21.03","BOA VISTA RABIL, CV","FM-15","GVBA ","V020","060,1,N,0041,1","02100,1,C,N","005000,1,N,1","+0260,1","+0250,1","99999,9","04,5,+00420,1,99,9","08,5,+02100,1,99,9",,"08,99,1,99,9,99,9,99999,9,99,9,99,9","10129,1,99999,9","63,1",,,"MET067METAR GVBA 210800Z 06008KT 5000 RA SCT014 OVC070 26/25 Q1013 NOSIG;",
"08594499999","2010-08-21T09:00:00","4","16.136531","-22.888897","21.03","BOA VISTA RABIL, CV","FM-15","GVBA ","V020","060,1,N,0051,1","02100,1,C,N","006000,1,N,1","+0260,1","+0250,1","99999,9","04,5,+00360,1,99,9","08,5,+02100,1,99,9",,"08,99,1,99,9,99,9,99999,9,99,9,99,9","10139,1,99999,9","53,1",,,"MET072METAR GVBA 210900Z 06010KT 6000 DZ SCT012 OVC070 26/25 Q1014 RERA NOSIG;",
"08594499999","2010-08-21T10:00:00","4","16.136531","-22.888897","21.03","BOA VISTA RABIL, CV","FM-15","GVBA ","V020","050,1,N,0057,1","00390,1,C,N","008000,1,N,1","+0270,1","+0260,1","99999,9","07,5,+00390,1,99,9","07,5,+02400,1,99,9",,"07,99,1,99,9,99,9,99999,9,99,9,99,9","10139,1,99999,9",,,,"MET064METAR GVBA 211000Z 05011KT 8000 BKN013 BKN080 27/26 Q1014 NOSIG;",
"08594499999","2010-08-21T11:00:00","4","16.136531","-22.888897","21.03","BOA VISTA RABIL, CV","FM-15","GVBA ","V020","050,1,N,0062,1","00390,1,C,N","007000,1,N,1","+0270,1","+0250,1","99999,9","07,5,+00390,1,99,9","07,5,+01800,1,99,9",,"07,99,1,99,9,99,9,99999,9,99,9,99,9","10139,1,99999,9","61,1",,,"MET068METAR GVBA 211100Z 05012KT 7000 -RA BKN013 BKN060 27/25 Q1014 NOSIG;",
"08594499999","2010-08-21T12:40:00","4","16.136531","-22.888897","21.03","BOA VISTA RABIL, CV","FM-15","GVBA ","V020","060,1,N,0067,1","00420,1,C,N","002500,1,N,1","+0270,1","+0250,1","99999,9","07,5,+00420,1,99,9","07,5,+01800,1,99,9",,"07,99,1,99,9,99,9,99999,9,99,9,99,9","10139,1,99999,9","63,1",,,"MET067METAR GVBA 211240Z 06013KT 2500 RA BKN014 BKN060 27/25 Q1014 NOSIG;",
"08594499999","2010-08-21T13:00:00","4","16.136531","-22.888897","21.03","BOA VISTA RABIL, CV","FM-15","GVBA ","V020","060,1,N,0057,1","00420,1,C,N","004000,1,N,1","+0260,1","+0250,1","99999,9","07,5,+00420,1,99,9","07,5,+02100,1,99,9",,"07,99,1,99,9,99,9,99999,9,99,9,99,9","10139,1,99999,9","63,1",,,"MET067METAR GVBA 211300Z 06011KT 4000 RA BKN014 BKN070 26/25 Q1014 NOSIG;",
"08594499999","2010-08-21T14:00:00","4","16.136531","-22.888897","21.03","BOA VISTA RABIL, CV","FM-15","GVBA ","V020","090,1,N,0062,1","02100,1,C,N","011265,1,N,1","+0270,1","+0260,1","99999,9","04,5,+00420,1,99,9","07,5,+02100,1,99,9",,"07,99,1,99,9,99,9,99999,9,99,9,99,9","10139,1,99999,9",,,,"MET064METAR GVBA 211400Z 09012KT 9999 SCT014 BKN070 27/26 Q1014 NOSIG;",
"08594499999","2010-08-21T15:00:00","4","16.136531","-22.888897","21.03","BOA VISTA RABIL, CV","FM-15","GVBA ","V020","090,1,N,0057,1","02100,1,C,N","011265,1,N,1","+0310,1","+0250,1","99999,9","04,5,+00420,1,99,9","07,5,+02100,1,99,9",,"07,99,1,99,9,99,9,99999,9,99,9,99,9","10129,1,99999,9",,,,"MET064METAR GVBA 211500Z 09011KT 9999 SCT014 BKN070 31/25 Q1013 NOSIG;",
"08594499999","2010-08-21T16:00:00","4","16.136531","-22.888897","21.03","BOA VISTA RABIL, CV","FM-15","GVBA ","V020","110,1,N,0057,1","00450,1,C,N","011265,1,N,1","+0310,1","+0250,1","99999,9","07,5,+00450,1,99,9","04,5,+02100,1,99,9",,,"10129,1,99999,9",,,,"MET064METAR GVBA 211600Z 11011KT 9999 BKN015 SCT070 31/25 Q1013 NOSIG;","Q01+000042SCOTCV"
"08594499999","2010-08-21T17:00:00","4","16.136531","-22.888897","21.03","BOA VISTA RABIL, CV","FM-15","GVBA ","V020","120,1,N,0051,1","00450,1,C,N","011265,1,N,1","+0300,1","+0250,1","99999,9","07,5,+00450,1,99,9","04,5,+06000,1,99,9",,,"10129,1,99999,9",,,,"MET064METAR GVBA 211700Z 12010KT 9999 BKN015 SCT200 30/25 Q1013 NOSIG;","Q01+000042SCOTCV"
"08594499999","2010-08-21T18:00:00","4","16.136531","-22.888897","21.03","BOA VISTA RABIL, CV","FM-15","GVBA ","V020","120,1,N,0046,1","99999,9,C,N","011265,1,N,1","+0300,1","+0250,1","99999,9","04,5,+00450,1,99,9","04,5,+06000,1,99,9",,"04,99,1,99,9,99,9,99999,9,99,9,99,9","10119,1,99999,9",,,,"MET064METAR GVBA 211800Z 12009KT 9999 SCT015 SCT200 30/25 Q1012 NOSIG;","P01 060003SCOCIG"
"08594499999","2010-08-22T08:00:00","4","16.136531","-22.888897","21.03","BOA VISTA RABIL, CV","FM-15","GVBA ","V020","999,9,C,0000,1","06000,1,C,N","011265,1,N,1","+9999,9","+9999,9","99999,9","02,5,+00420,1,99,9","07,5,+06000,1,99,9",,"07,99,1,99,9,99,9,99999,9,99,9,99,9",,,,,"MET064METAR GVBA 220800Z 00000KT 9999 FEW014 BKN200 XX/XX Q//// NOSIG;",
"08594499999","2010-08-22T09:00:00","4","16.136531","-22.888897","21.03","BOA VISTA RABIL, CV","FM-15","GVBA ","V020","999,9,C,0000,1","06000,1,C,N","011265,1,N,1","+9999,9","+9999,9","99999,9","02,5,+00420,1,99,9","07,5,+06000,1,99,9",,"07,99,1,99,9,99,9,99999,9,99,9,99,9",,,,,"MET064METAR GVBA 220900Z 00000KT 9999 FEW014 BKN200 XX/XX Q//// NOSIG;",
"08594499999","2010-08-22T10:00:00","4","16.136531","-22.888897","21.03","BOA VISTA RABIL, CV","FM-15","GVBA ","V020","999,9,C,0000,1","06000,1,C,N","011265,1,N,1","+0280,1","+0260,1","99999,9","02,5,+00420,1,99,9","07,5,+06000,1,99,9",,"07,99,1,99,9,99,9,99999,9,99,9,99,9","10159,1,99999,9",,,,"MET064METAR GVBA 221000Z 00000KT 9999 FEW014 BKN200 28/26 Q1016 NOSIG;",
"08594499999","2010-08-22T11:00:00","4","16.136531","-22.888897","21.03","BOA VISTA RABIL, CV","FM-15","GVBA ","V020","290,1,N,0021,1","06000,1,C,N","011265,1,N,1","+0310,1","+0250,1","99999,9","02,5,+00450,1,99,9","07,5,+06000,1,99,9",,"07,99,1,99,9,99,9,99999,9,99,9,99,9","10169,1,99999,9",,,,"MET064METAR GVBA 221100Z 29004KT 9999 FEW015 BKN200 31/25 Q1017 NOSIG;",
"08594499999","2010-08-22T13:00:00","4","16.136531","-22.888897","21.03","BOA VISTA RABIL, CV","FM-15","GVBA ","V020","310,1,N,0026,1","06000,1,C,N","011265,1,N,1","+0320,1","+0250,1","99999,9","02,5,+00450,1,99,9","07,5,+06000,1,99,9",,"07,99,1,99,9,99,9,99999,9,99,9,99,9","10169,1,99999,9",,,,"MET064METAR GVBA 221300Z 31005KT 9999 FEW015 BKN200 32/25 Q1017 NOSIG;",
"08594499999","2010-08-22T14:00:00","4","16.136531","-22.888897","21.03","BOA VISTA RABIL, CV","FM-15","GVBA ","V020","280,1,N,0041,1","06000,1,C,N","011265,1,N,1","+0310,1","+0240,1","99999,9","02,5,+00450,1,02,1","07,5,+06000,1,99,9",,"07,99,1,99,9,99,9,99999,9,99,9,99,9","10159,1,99999,9",,,,"MET067METAR GVBA 221400Z 28008KT 9999 FEW015TCU BKN200 31/24 Q1016 NOSIG;",
"08594499999","2010-08-22T15:00:00","4","16.136531","-22.888897","21.03","BOA VISTA RABIL, CV","FM-15","GVBA ","V020","270,1,N,0041,1","06000,1,C,N","011265,1,N,1","+0320,1","+0240,1","99999,9","02,5,+00390,1,99,9","07,5,+06000,1,99,9",,"07,99,1,99,9,99,9,99999,9,99,9,99,9","10149,1,99999,9",,,,"MET064METAR GVBA 221500Z 27008KT 9999 FEW013 BKN200 32/24 Q1015 NOSIG;",
"08594499999","2010-08-22T16:00:00","4","16.136531","-22.888897","21.03","BOA VISTA RABIL, CV","FM-15","GVBA ","V020","270,1,N,0062,1","06000,1,C,N","011265,1,N,1","+0310,1","+0240,1","99999,9","02,5,+00390,1,99,9","07,5,+06000,1,99,9",,"07,99,1,99,9,99,9,99999,9,99,9,99,9","10139,1,99999,9",,,,"MET064METAR GVBA 221600Z 27012KT 9999 FEW013 BKN200 31/24 Q1014 NOSIG;",
"08594499999","2010-08-22T17:00:00","4","16.136531","-22.888897","21.03","BOA VISTA RABIL, CV","FM-15","GVBA ","V020","300,1,N,0062,1","06000,1,C,N","011265,1,N,1","+0300,1","+0250,1","99999,9","02,5,+00420,1,99,9","07,5,+06000,1,99,9",,"07,99,1,99,9,99,9,99999,9,99,9,99,9","10139,1,99999,9",,,,"MET064METAR GVBA 221700Z 30012KT 9999 FEW014 BKN200 30/25 Q1014 NOSIG;",
"08594499999","2010-08-22T18:00:00","4","16.136531","-22.888897","21.03","BOA VISTA RABIL, CV","FM-15","GVBA ","V020","330,1,N,0062,1","99999,9,C,N","011265,1,N,1","+0300,1","+0250,1","99999,9","04,5,+00420,1,99,9","04,5,+03000,1,99,9",,"04,99,1,99,9,99,9,99999,9,99,9,99,9","10139,1,99999,9",,,,"MET064METAR GVBA 221800Z 33012KT 9999 SCT014 SCT100 30/25 Q1014 NOSIG;","P01 030003SCOCIG"
"08594499999","2010-08-22T19:00:00","4","16.136531","-22.888897","21.03","BOA VISTA RABIL, CV","FM-15","GVBA ","V020","330,1,N,0051,1","99999,9,C,N","011265,1,N,1","+0290,1","+0250,1","99999,9","04,5,+00420,1,99,9","04,5,+06000,1,99,9",,"04,99,1,99,9,99,9,99999,9,99,9,99,9","10139,1,99999,9",,,,"MET064METAR GVBA 221900Z 33010KT 9999 SCT014 SCT200 29/25 Q1014 NOSIG;","P01 060003SCOCIG"
"08594499999","2010-08-23T08:00:00","4","16.136531","-22.888897","21.03","BOA VISTA RABIL, CV","FM-15","GVBA ","V020","340,1,N,0082,1","00480,1,C,N","011265,1,N,1","+0270,1","+0240,1","99999,9","04,5,+00450,1,99,9","07,5,+00480,1,99,9",,"07,99,1,99,9,99,9,99999,9,99,9,99,9","10119,1,99999,9",,,,"MET064METAR GVBA 230800Z 34016KT 9999 SCT015 BKN016 27/24 Q1012 NOSIG;",
"08594499999","2010-08-23T09:00:00","4","16.136531","-22.888897","21.03","BOA VISTA RABIL, CV","FM-15","GVBA ","V020","350,1,N,0093,1","00450,1,C,N","011265,1,N,1","+0280,1","+0240,1","99999,9","07,5,+00450,1,99,9",,,"07,99,1,99,9,99,9,99999,9,99,9,99,9","10119,1,99999,9",,,,"MET057METAR GVBA 230900Z 35018KT 9999 BKN015 28/24 Q1012 NOSIG;",
"08594499999","2010-08-23T10:00:00","4","16.136531","-22.888897","21.03","BOA VISTA RABIL, CV","FM-15","GVBA ","V020","340,1,N,0093,1","00450,1,C,N","011265,1,N,1","+0280,1","+0240,1","99999,9","07,5,+00450,1,99,9",,,"07,99,1,99,9,99,9,99999,9,99,9,99,9","10119,1,99999,9",,,,"MET057METAR GVBA 231000Z 34018KT 9999 BKN015 28/24 Q1012 NOSIG;",
"08594499999","2010-08-23T11:00:00","4","16.136531","-22.888897","21.03","BOA VISTA RABIL, CV","FM-15","GVBA ","V020","340,1,N,0087,1","22000,1,9,N","011265,1,N,1","+0290,1","+0240,1","99999,9","04,5,+00450,1,99,9",,,"04,99,1,99,9,99,9,99999,9,99,9,99,9","10119,1,99999,9",,,,"MET057METAR GVBA 231100Z 34017KT 9999 SCT015 29/24 Q1012 NOSIG;",
"08594499999","2010-08-23T12:00:00","4","16.136531","-22.888897","21.03","BOA VISTA RABIL, CV","FM-15","GVBA ","V020","350,1,N,0087,1","22000,1,9,N","011265,1,N,1","+0300,1","+0230,1","99999,9","04,5,+00450,1,99,9",,,"04,99,1,99,9,99,9,99999,9,99,9,99,9","10119,1,99999,9",,,,"MET057METAR GVBA 231200Z 35017KT 9999 SCT015 30/23 Q1012 NOSIG;",
"08594499999","2010-08-23T13:00:00","4","16.136531","-22.888897","21.03","BOA VISTA RABIL, CV","FM-15","GVBA ","V020","360,1,N,0093,1","00510,1,C,N","011265,1,N,1","+0300,1","+0240,1","99999,9","04,5,+00450,1,99,9","07,5,+00510,1,99,9",,"07,99,1,99,9,99,9,99999,9,99,9,99,9","10119,1,99999,9",,,,"MET064METAR GVBA 231300Z 36018KT 9999 SCT015 BKN017 30/24 Q1012 NOSIG;",
"08594499999","2010-08-23T14:00:00","4","16.136531","-22.888897","21.03","BOA VISTA RABIL, CV","FM-15","GVBA ","V020","030,1,N,0093,1","00420,1,C,N","011265,1,N,1","+0300,1","+0230,1","99999,9","07,5,+00420,1,99,9",,,"07,99,1,99,9,99,9,99999,9,99,9,99,9","10108,1,99999,9",,,,"MET057METAR GVBA 231400Z 03018KT 9999 BKN014 30/23 Q1011 NOSIG;",
"08594499999","2010-08-23T15:00:00","4","16.136531","-22.888897","21.03","BOA VISTA RABIL, CV","FM-15","GVBA ","V020","030,1,N,0093,1","00480,1,C,N","011265,1,N,1","+0300,1","+0230,1","99999,9","04,5,+00420,1,99,9","07,5,+00480,1,99,9",,"07,99,1,99,9,99,9,99999,9,99,9,99,9","10102,1,99999,9",,,,"MET064METAR GVBA 231500Z 03018KT 9999 SCT014 BKN016 30/23 Q1010 NOSIG;",
"08594499999","2010-08-23T16:00:00","4","16.136531","-22.888897","21.03","BOA VISTA RABIL, CV","FM-15","GVBA ","V020","030,1,N,0087,1","00510,1,C,N","011265,1,N,1","+0290,1","+0230,1","99999,9","04,5,+00420,1,99,9","07,5,+00510,1,99,9",,"07,99,1,99,9,99,9,99999,9,99,9,99,9","10102,1,99999,9",,,,"MET064METAR GVBA 231600Z 03017KT 9999 SCT014 BKN017 29/23 Q1010 NOSIG;",
"08594499999","2010-08-23T17:00:00","4","16.136531","-22.888897","21.03","BOA VISTA RABIL, CV","FM-15","GVBA ","V020","030,1,N,0082,1","00510,1,C,N","011265,1,N,1","+0290,1","+0230,1","99999,9","04,5,+00420,1,99,9","07,5,+00510,1,99,9",,"07,99,1,99,9,99,9,99999,9,99,9,99,9","10091,1,99999,9",,,,"MET064METAR GVBA 231700Z 03016KT 9999 SCT014 BKN017 29/23 Q1009 NOSIG;",
"08594499999","2010-08-23T18:00:00","4","16.136531","-22.888897","21.03","BOA VISTA RABIL, CV","FM-15","GVBA ","V020","030,1,N,0067,1","00510,1,C,N","011265,1,N,1","+0280,1","+0230,1","99999,9","04,5,+00420,1,99,9","07,5,+00510,1,99,9",,"07,99,1,99,9,99,9,99999,9,99,9,99,9","10091,1,99999,9",,,,"MET064METAR GVBA 231800Z 03013KT 9999 SCT014 BKN017 28/23 Q1009 NOSIG;",
"08594499999","2010-08-23T19:00:00","4","16.136531","-22.888897","21.03","BOA VISTA RABIL, CV","FM-15","GVBA ","V020","030,1,N,0067,1","00420,1,C,N","011265,1,N,1","+0280,1","+0230,1","99999,9","07,5,+00420,1,99,9","07,5,+00540,1,99,9",,"07,99,1,99,9,99,9,99999,9,99,9,99,9","10102,1,99999,9",,,,"MET064METAR GVBA 231900Z 03013KT 9999 BKN014 BKN018 28/23 Q1010 NOSIG;",
"08594499999","2010-08-24T08:00:00","4","16.136531","-22.888897","21.03","BOA VISTA RABIL, CV","FM-15","GVBA ","V020","060,1,N,0046,1","02700,1,C,N","011265,1,N,1","+0270,1","+0250,1","99999,9","02,5,+00420,1,99,9","07,5,+02700,1,99,9",,"07,99,1,99,9,99,9,99999,9,99,9,99,9","10102,1,99999,9",,,,"MET064METAR GVBA 240800Z 06009KT 9999 FEW014 BKN090 27/25 Q1010 NOSIG;",
"08594499999","2010-08-24T09:00:00","4","16.136531","-22.888897","21.03","BOA VISTA RABIL, CV","FM-15","GVBA ","V020","050,1,N,0031,1","02700,1,C,N","011265,1,N,1","+0270,1","+0250,1","99999,9","02,5,+00420,1,99,9","07,5,+02700,1,99,9",,"07,99,1,99,9,99,9,99999,9,99,9,99,9","10108,1,99999,9",,,,"MET064METAR GVBA 240900Z 05006KT 9999 FEW014 BKN090 27/25 Q1011 NOSIG;",
"08594499999","2010-08-24T10:00:00","4","16.136531","-22.888897","21.03","BOA VISTA RABIL, CV","FM-15","GVBA ","V020","050,1,N,0067,1","02700,1,C,N","011265,1,N,1","+0280,1","+0240,1","99999,9","02,5,+00420,1,99,9","07,5,+02700,1,99,9",,"07,99,1,99,9,99,9,99999,9,99,9,99,9","10108,1,99999,9",,,,"MET064METAR GVBA 241000Z 05013KT 9999 FEW014 BKN090 28/24 Q1011 NOSIG;",
"08594499999","2010-08-24T11:00:00","4","16.136531","-22.888897","21.03","BOA VISTA RABIL, CV","FM-15","GVBA ","V020","040,1,N,0062,1","02700,1,C,N","011265,1,N,1","+0290,1","+0250,1","99999,9","04,5,+00450,1,99,9","07,5,+02700,1,99,9",,"07,99,1,99,9,99,9,99999,9,99,9,99,9","10108,1,99999,9",,,,"MET064METAR GVBA 241100Z 04012KT 9999 SCT015 BKN090 29/25 Q1011 NOSIG;",
"08594499999","2010-08-24T12:00:00","4","16.136531","-22.888897","21.03","BOA VISTA RABIL, CV","FM-15","GVBA ","V020","070,1,N,0062,1","00450,1,C,N","011265,1,N,1","+0290,1","+0240,1","99999,9","07,5,+00450,1,99,9","07,5,+02700,1,99,9",,"07,99,1,99,9,99,9,99999,9,99,9,99,9","10119,1,99999,9",,,,"MET064METAR GVBA 241200Z 07012KT 9999 BKN015 BKN090 29/24 Q1012 NOSIG;",
"08594499999","2010-08-24T13:00:00","4","16.136531","-22.888897","21.03","BOA VISTA RABIL, CV","FM-15","GVBA ","V020","080,1,N,0062,1","00450,1,C,N","007000,1,N,1","+0310,1","+0240,1","99999,9","07,5,+00450,1,99,9","07,5,+02700,1,99,9",,"07,99,1,99,9,99,9,99999,9,99,9,99,9","10119,1,99999,9",,,,"MET064METAR GVBA 241300Z 08012KT 7000 BKN015 BKN090 31/24 Q1012 NOSIG;",
"08594499999","2010-08-24T14:00:00","4","16.136531","-22.888897","21.03","BOA VISTA RABIL, CV","FM-15","GVBA ","V020","080,1,N,0082,1","00450,1,C,N","009000,1,N,1","+0320,1","+0240,1","99999,9","07,5,+00450,1,99,9","07,5,+02700,1,99,9",,"07,99,1,99,9,99,9,99999,9,99,9,99,9","10108,1,99999,9",,,,"MET064METAR GVBA 241400Z 08016KT 9000 BKN015 BKN090 32/24 Q1011 NOSIG;",
"08594499999","2010-08-24T15:00:00","4","16.136531","-22.888897","21.03","BOA VISTA RABIL, CV","FM-15","GVBA ","V020","080,1,N,0093,1","00450,1,C,N","011265,1,N,1","+0320,1","+0240,1","99999,9","07,5,+00450,1,99,9","07,5,+02700,1,99,9",,"07,99,1,99,9,99,9,99999,9,99,9,99,9","10102,1,99999,9",,,,"MET064METAR GVBA 241500Z 08018KT 9999 BKN015 BKN090 32/24 Q1010 NOSIG;",
"08594499999","2010-08-24T16:00:00","4","16.136531","-22.888897","21.03","BOA VISTA RABIL, CV","FM-15","GVBA ","V020","090,1,N,0093,1","00300,1,C,N","011265,1,N,1","+0310,1","+0240,1","99999,9","07,5,+00420,5,99,9","07,1,+00420,1,99,9",,"07,99,1,99,9,99,9,99999,9,99,9,99,9","10102,1,99999,9",,,,"MET063METAR GVBA 241600Z 09018KT 9999 BKN014 BKN10 31/24 Q1010 NOSIG;",
"08594499999","2010-08-24T17:00:00","4","16.136531","-22.888897","21.03","BOA VISTA RABIL, CV","FM-15","GVBA ","V020","090,1,N,0103,1","00420,1,C,N","011265,1,N,1","+0290,1","+0240,1","99999,9","07,5,+00420,1,99,9","07,5,+00480,1,99,9",,"07,99,1,99,9,99,9,99999,9,99,9,99,9","10102,1,99999,9",,,,"MET064METAR GVBA 241700Z 09020KT 9999 BKN014 BKN016 29/24 Q1010 NOSIG;",
"08594499999","2010-08-24T18:00:00","4","16.136531","-22.888897","21.03","BOA VISTA RABIL, CV","FM-15","GVBA ","V020","120,1,N,0093,1","00420,1,C,N","011265,1,N,1","+0310,1","+0230,1","99999,9","07,5,+00420,1,99,9","07,5,+03000,1,99,9",,"07,99,1,99,9,99,9,99999,9,99,9,99,9","10108,1,99999,9",,,,"MET064METAR GVBA 241800Z 12018KT 9999 BKN014 BKN100 31/23 Q1011 NOSIG;",
"08594499999","2010-08-24T19:00:00","4","16.136531","-22.888897","21.03","BOA VISTA RABIL, CV","FM-15","GVBA ","V020","100,1,N,0082,1","03000,1,C,N","011265,1,N,1","+0290,1","+0240,1","99999,9","04,5,+00420,1,99,9","07,5,+03000,1,99,9",,"07,99,1,99,9,99,9,99999,9,99,9,99,9","10108,1,99999,9",,,,"MET064METAR GVBA 241900Z 10016KT 9999 SCT014 BKN100 29/24 Q1011 NOSIG;",
"08594499999","2010-08-25T08:00:00","4","16.136531","-22.888897","21.03","BOA VISTA RABIL, CV","FM-15","GVBA ","V020","999,9,C,0000,1","99999,9,C,N","011265,1,N,1","+0260,1","+0250,1","99999,9","04,5,+00390,1,99,9","04,5,+03000,1,99,9",,"04,99,1,99,9,99,9,99999,9,99,9,99,9","10129,1,99999,9",,,,"MET064METAR GVBA 250800Z 00000KT 9999 SCT013 SCT100 26/25 Q1013 NOSIG;","P01 030003SCOCIG"
"08594499999","2010-08-25T09:00:00","4","16.136531","-22.888897","21.03","BOA VISTA RABIL, CV","FM-15","GVBA ","V020","110,1,N,0051,1","22000,1,9,N","011265,1,N,1","+0290,1","+0240,1","99999,9","04,5,+00390,1,99,9",,,"04,99,1,99,9,99,9,99999,9,99,9,99,9","10139,1,99999,9",,,,"MET057METAR GVBA 250900Z 11010KT 9999 SCT013 29/24 Q1014 NOSIG;",
"08594499999","2010-08-25T10:00:00","4","16.136531","-22.888897","21.03","BOA VISTA RABIL, CV","FM-15","GVBA ","V020","090,1,N,0051,1","00420,1,C,N","011265,1,N,1","+0300,1","+0240,1","99999,9","07,5,+00420,1,99,9",,,"07,99,1,99,9,99,9,99999,9,99,9,99,9","10139,1,99999,9",,,,"MET057METAR GVBA 251000Z 09010KT 9999 BKN014 30/24 Q1014 NOSIG;",
"08594499999","2010-08-25T11:00:00","4","16.136531","-22.888897","21.03","BOA VISTA RABIL, CV","FM-15","GVBA ","V020","090,1,N,0067,1","00420,1,C,N","011265,1,N,1","+0310,1","+0240,1","99999,9","07,5,+00420,1,99,9",,,"07,99,1,99,9,99,9,99999,9,99,9,99,9","10139,1,99999,9",,,,"MET057METAR GVBA 251100Z 09013KT 9999 BKN014 31/24 Q1014 NOSIG;",
"08594499999","2010-08-25T12:00:00","4","16.136531","-22.888897","21.03","BOA VISTA RABIL, CV","FM-15","GVBA ","V020","130,1,N,0067,1","00420,1,C,N","011265,1,N,1","+0320,1","+0240,1","99999,9","07,5,+00420,1,99,9",,,"07,99,1,99,9,99,9,99999,9,99,9,99,9","10139,1,99999,9",,,,"MET057METAR GVBA 251200Z 13013KT 9999 BKN014 32/24 Q1014 NOSIG;",
"08594499999","2010-08-25T13:00:00","4","16.136531","-22.888897","21.03","BOA VISTA RABIL, CV","FM-15","GVBA ","V020","140,1,N,0072,1","00420,1,C,N","011265,1,N,1","+0330,1","+0240,1","99999,9","07,5,+00420,1,99,9",,,"07,99,1,99,9,99,9,99999,9,99,9,99,9","10139,1,99999,9",,,,"MET057METAR GVBA 251300Z 14014KT 9999 BKN014 33/24 Q1014 NOSIG;",
"08594499999","2010-08-25T14:00:00","4","16.136531","-22.888897","21.03","BOA VISTA RABIL, CV","FM-15","GVBA ","V020","180,1,N,0051,1","00450,1,C,N","011265,1,N,1","+0330,1","+0240,1","99999,9","07,5,+00450,1,99,9",,,"07,99,1,99,9,99,9,99999,9,99,9,99,9","10129,1,99999,9",,,,"MET057METAR GVBA 251400Z 18010KT 9999 BKN015 33/24 Q1013 NOSIG;",
"08594499999","2010-08-25T15:00:00","4","16.136531","-22.888897","21.03","BOA VISTA RABIL, CV","FM-15","GVBA ","V020","180,1,N,0041,1","00450,1,C,N","011265,1,N,1","+0340,1","+0240,1","99999,9","07,5,+00450,1,99,9",,,"07,99,1,99,9,99,9,99999,9,99,9,99,9","10129,1,99999,9",,,,"MET057METAR GVBA 251500Z 18008KT 9999 BKN015 34/24 Q1013 NOSIG;",
"08594499999","2010-08-25T16:00:00","4","16.136531","-22.888897","21.03","BOA VISTA RABIL, CV","FM-15","GVBA ","V020","160,1,N,0062,1","00450,1,C,N","011265,1,N,1","+0340,1","+0230,1","99999,9","07,5,+00450,1,99,9","04,5,+06000,1,99,9",,,"10129,1,99999,9",,,,"MET064METAR GVBA 251600Z 16012KT 9999 BKN015 SCT200 34/23 Q1013 NOSIG;","Q01+000042SCOTCV"
"08594499999","2010-08-25T18:00:00","4","16.136531","-22.888897","21.03","BOA VISTA RABIL, CV","FM-15","GVBA ","V020","170,1,N,0041,1","06000,1,C,N","011265,1,N,1","+0320,1","+0230,1","99999,9","04,5,+00450,1,99,9","07,5,+06000,1,99,9",,"07,99,1,99,9,99,9,99999,9,99,9,99,9","10119,1,99999,9",,,,"MET064METAR GVBA 251800Z 17008KT 9999 SCT015 BKN200 32/23 Q1012 NOSIG;",
"08594499999","2010-08-25T19:00:00","4","16.136531","-22.888897","21.03","BOA VISTA RABIL, CV","FM-15","GVBA ","V020","160,1,N,0036,1","06000,1,C,N","011265,1,N,1","+0320,1","+0230,1","99999,9","04,5,+00450,1,99,9","07,5,+06000,1,99,9",,"07,99,1,99,9,99,9,99999,9,99,9,99,9","10119,1,99999,9",,,,"MET064METAR GVBA 251900Z 16007KT 9999 SCT015 BKN200 32/23 Q1012 NOSIG;",
"08594499999","2010-08-26T08:00:00","4","16.136531","-22.888897","21.03","BOA VISTA RABIL, CV","FM-15","GVBA ","V020","999,9,V,0010,1","99999,9,C,N","011265,1,N,1","+0260,1","+0250,1","99999,9","02,5,+00420,1,99,9","04,5,+06000,1,99,9",,"04,99,1,99,9,99,9,99999,9,99,9,99,9","10139,1,99999,9",,,,"MET064METAR GVBA 260800Z VRB02KT 9999 FEW014 SCT200 26/25 Q1014 NOSIG;","P01 060003SCOCIG"
"08594499999","2010-08-26T09:00:00","4","16.136531","-22.888897","21.03","BOA VISTA RABIL, CV","FM-15","GVBA ","V020","050,1,N,0031,1","22000,1,9,N","011265,1,N,1","+0280,1","+0260,1","99999,9","02,5,+00420,1,99,9",,,"02,99,1,99,9,99,9,99999,9,99,9,99,9","10139,1,99999,9",,,,"MET057METAR GVBA 260900Z 05006KT 9999 FEW014 28/26 Q1014 NOSIG;",
"08594499999","2010-08-26T10:00:00","4","16.136531","-22.888897","21.03","BOA VISTA RABIL, CV","FM-15","GVBA ","V020","020,1,N,0046,1","22000,1,9,N","011265,1,N,1","+0300,1","+0240,1","99999,9","04,5,+00450,1,99,9",,,"04,99,1,99,9,99,9,99999,9,99,9,99,9","10149,1,99999,9",,,,"MET057METAR GVBA 261000Z 02009KT 9999 SCT015 30/24 Q1015 NOSIG;",
"08594499999","2010-08-26T11:00:00","4","16.136531","-22.888897","21.03","BOA VISTA RABIL, CV","FM-15","GVBA ","V020","040,1,N,0046,1","22000,1,9,N","011265,1,N,1","+0310,1","+0240,1","99999,9","04,5,+00450,1,99,9",,,"04,99,1,99,9,99,9,99999,9,99,9,99,9","10149,1,99999,9",,,,"MET057METAR GVBA 261100Z 04009KT 9999 SCT015 31/24 Q1015 NOSIG;",
"08594499999","2010-08-26T12:00:00","4","16.136531","-22.888897","21.03","BOA VISTA RABIL, CV","FM-15","GVBA ","V020","010,1,N,0051,1","22000,1,9,N","011265,1,N,1","+0310,1","+0230,1","99999,9","04,5,+00450,1,99,9",,,"04,99,1,99,9,99,9,99999,9,99,9,99,9","10139,1,99999,9",,,,"MET057METAR GVBA 261200Z 01010KT 9999 SCT015 31/23 Q1014 NOSIG;",
"08594499999","2010-08-26T13:00:00","4","16.136531","-22.888897","21.03","BOA VISTA RABIL, CV","FM-15","GVBA ","V020","030,1,N,0046,1","22000,1,9,N","011265,1,N,1","+0310,1","+0230,1","99999,9","04,5,+00450,1,99,9",,,"04,99,1,99,9,99,9,99999,9,99,9,99,9","10139,1,99999,9",,,,"MET057METAR GVBA 261300Z 03009KT 9999 SCT015 31/23 Q1014 NOSIG;",
"08594499999","2010-08-26T14:00:00","4","16.136531","-22.888897","21.03","BOA VISTA RABIL, CV","FM-15","GVBA ","V020","040,1,N,0051,1","00450,1,C,N","011265,1,N,1","+0310,1","+0240,1","99999,9","07,5,+00450,1,99,9",,,"07,99,1,99,9,99,9,99999,9,99,9,99,9","10139,1,99999,9",,,,"MET057METAR GVBA 261400Z 04010KT 9999 BKN015 31/24 Q1014 NOSIG;",
"08594499999","2010-08-26T15:00:00","4","16.136531","-22.888897","21.03","BOA VISTA RABIL, CV","FM-15","GVBA ","V020","040,1,N,0051,1","00450,1,C,N","011265,1,N,1","+0310,1","+0240,1","99999,9","07,5,+00450,1,99,9",,,"07,99,1,99,9,99,9,99999,9,99,9,99,9","10129,1,99999,9",,,,"MET057METAR GVBA 261500Z 04010KT 9999 BKN015 31/24 Q1013 NOSIG;",
"08594499999","2010-08-26T16:00:00","4","16.136531","-22.888897","21.03","BOA VISTA RABIL, CV","FM-15","GVBA ","V020","030,1,N,0062,1","00450,1,C,N","011265,1,N,1","+0320,1","+0240,1","99999,9","07,5,+00450,1,99,9",,,"07,99,1,99,9,99,9,99999,9,99,9,99,9","10129,1,99999,9",,,,"MET057METAR GVBA 261600Z 03012KT 9999 BKN015 32/24 Q1013 NOSIG;",
"08594499999","2010-08-26T17:00:00","4","16.136531","-22.888897","21.03","BOA VISTA RABIL, CV","FM-15","GVBA ","V020","050,1,N,0077,1","22000,1,9,N","011265,1,N,1","+0320,1","+0240,1","99999,9","04,5,+00450,1,99,9",,,"04,99,1,99,9,99,9,99999,9,99,9,99,9","10119,1,99999,9",,,,"MET057METAR GVBA 261700Z 05015KT 9999 SCT015 32/24 Q1012 NOSIG;",
"08594499999","2010-08-26T18:00:00","4","16.136531","-22.888897","21.03","BOA VISTA RABIL, CV","FM-15","GVBA ","V020","050,1,N,0062,1","22000,1,9,N","011265,1,N,1","+0310,1","+0240,1","99999,9","04,5,+00450,1,99,9",,,"04,99,1,99,9,99,9,99999,9,99,9,99,9","10119,1,99999,9",,,,"MET057METAR GVBA 261800Z 05012KT 9999 SCT015 31/24 Q1012 NOSIG;",
"08594499999","2010-08-26T19:00:00","4","16.136531","-22.888897","21.03","BOA VISTA RABIL, CV","FM-15","GVBA ","V020","060,1,N,0062,1","06000,1,C,N","011265,1,N,1","+0300,1","+0240,1","99999,9","02,5,+00420,1,99,9","07,5,+06000,1,99,9",,"07,99,1,99,9,99,9,99999,9,99,9,99,9","10119,1,99999,9",,,,"MET064METAR GVBA 261900Z 06012KT 9999 FEW014 BKN200 30/24 Q1012 NOSIG;",
"08594499999","2010-08-27T08:00:00","4","16.136531","-22.888897","21.03","BOA VISTA RABIL, CV","FM-15","GVBA ","V020","040,1,N,0062,1","00480,1,C,N","011265,1,N,1","+0270,1","+0230,1","99999,9","02,5,+00390,1,99,9","07,5,+00480,1,99,9",,"07,99,1,99,9,99,9,99999,9,99,9,99,9","10119,1,99999,9",,,,"MET064METAR GVBA 270800Z 04012KT 9999 FEW013 BKN016 27/23 Q1012 NOSIG;",
"08594499999","2010-08-27T09:00:00","4","16.136531","-22.888897","21.03","BOA VISTA RABIL, CV","FM-15","GVBA ","V020","050,1,N,0077,1","00480,1,C,N","011265,1,N,1","+0280,1","+0230,1","99999,9","02,5,+00420,1,99,9","07,5,+00480,1,99,9",,"07,99,1,99,9,99,9,99999,9,99,9,99,9","10119,1,99999,9",,,,"MET064METAR GVBA 270900Z 05015KT 9999 FEW014 BKN016 28/23 Q1012 NOSIG;",
"08594499999","2010-08-27T10:00:00","4","16.136531","-22.888897","21.03","BOA VISTA RABIL, CV","FM-15","GVBA ","V020","050,1,N,0072,1","22000,1,9,N","011265,1,N,1","+0290,1","+0240,1","99999,9","04,5,+00450,1,99,9",,,"04,99,1,99,9,99,9,99999,9,99,9,99,9","10129,1,99999,9",,,,"MET057METAR GVBA 271000Z 05014KT 9999 SCT015 29/24 Q1013 NOSIG;",
"08594499999","2010-08-27T11:00:00","4","16.136531","-22.888897","21.03","BOA VISTA RABIL, CV","FM-15","GVBA ","V020","050,1,N,0077,1","00450,1,C,N","011265,1,N,1","+0300,1","+0240,1","99999,9","07,5,+00450,1,99,9",,,"07,99,1,99,9,99,9,99999,9,99,9,99,9","10129,1,99999,9",,,,"MET057METAR GVBA 271100Z 05015KT 9999 BKN015 30/24 Q1013 NOSIG;",
"08594499999","2010-08-27T13:00:00","4","16.136531","-22.888897","21.03","BOA VISTA RABIL, CV","FM-15","GVBA ","V020","060,1,N,0087,1","00450,1,C,N","011265,1,N,1","+0320,1","+0240,1","99999,9","07,5,+00450,1,99,9",,,"07,99,1,99,9,99,9,99999,9,99,9,99,9","10119,1,99999,9",,,,"MET057METAR GVBA 271300Z 06017KT 9999 BKN015 32/24 Q1012 NOSIG;",
"08594499999","2010-08-27T14:00:00","4","16.136531","-22.888897","21.03","BOA VISTA RABIL, CV","FM-15","GVBA ","V020","060,1,N,0072,1","00450,1,C,N","011265,1,N,1","+0320,1","+0240,1","99999,9","07,5,+00450,1,99,9",,,"07,99,1,99,9,99,9,99999,9,99,9,99,9","10119,1,99999,9",,,,"MET057METAR GVBA 271400Z 06014KT 9999 BKN015 32/24 Q1012 NOSIG;",
"08594499999","2010-08-27T15:00:00","4","16.136531","-22.888897","21.03","BOA VISTA RABIL, CV","FM-15","GVBA ","V020","050,1,N,0077,1","00450,1,C,N","011265,1,N,1","+0320,1","+0240,1","99999,9","07,5,+00450,1,99,9",,,"07,99,1,99,9,99,9,99999,9,99,9,99,9","10108,1,99999,9",,,,"MET057METAR GVBA 271500Z 05015KT 9999 BKN015 32/24 Q1011 NOSIG;",
"08594499999","2010-08-27T17:00:00","4","16.136531","-22.888897","21.03","BOA VISTA RABIL, CV","FM-15","GVBA ","V020","060,1,N,0072,1","00450,1,C,N","011265,1,N,1","+0320,1","+0250,1","99999,9","07,5,+00450,1,99,9",,,"07,99,1,99,9,99,9,99999,9,99,9,99,9","10102,1,99999,9",,,,"MET057METAR GVBA 271700Z 06014KT 9999 BKN015 32/25 Q1010 NOSIG;",
"08594499999","2010-08-27T18:00:00","4","16.136531","-22.888897","21.03","BOA VISTA RABIL, CV","FM-15","GVBA ","V020","070,1,N,0072,1","00450,1,C,N","011265,1,N,1","+0310,1","+0250,1","99999,9","07,5,+00450,1,99,9","04,5,+03000,1,99,9",,,"10102,1,99999,9",,,,"MET064METAR GVBA 271800Z 07014KT 9999 BKN015 SCT100 31/25 Q1010 NOSIG;","Q01+000042SCOTCV"
"08594499999","2010-08-27T19:00:00","4","16.136531","-22.888897","21.03","BOA VISTA RABIL, CV","FM-15","GVBA ","V020","070,1,N,0057,1","00450,1,C,N","011265,1,N,1","+0300,1","+0250,1","99999,9","07,5,+00450,1,99,9","07,5,+03000,1,99,9",,"07,99,1,99,9,99,9,99999,9,99,9,99,9","10102,1,99999,9",,,,"MET064METAR GVBA 271900Z 07011KT 9999 BKN015 BKN100 30/25 Q1010 NOSIG;",
"08594499999","2010-08-28T08:00:00","4","16.136531","-22.888897","21.03","BOA VISTA RABIL, CV","FM-15","GVBA ","V020","040,1,N,0021,1","22000,1,9,N","011265,1,N,1","+0250,1","+0240,1","99999,9","02,5,+00360,1,99,9",,,"02,99,1,99,9,99,9,99999,9,99,9,99,9","10108,1,99999,9",,,,"MET057METAR GVBA 280800Z 04004KT 9999 FEW012 25/24 Q1011 NOSIG;",
"08594499999","2010-08-28T09:00:00","4","16.136531","-22.888897","21.03","BOA VISTA RABIL, CV","FM-15","GVBA ","V020","070,1,N,0021,1","22000,1,9,N","011265,1,N,1","+0280,1","+0240,1","99999,9","04,5,+00390,1,99,9",,,"04,99,1,99,9,99,9,99999,9,99,9,99,9","10119,1,99999,9",,,,"MET057METAR GVBA 280900Z 07004KT 9999 SCT013 28/24 Q1012 NOSIG;",
"08594499999","2010-08-28T10:00:00","4","16.136531","-22.888897","21.03","BOA VISTA RABIL, CV","FM-15","GVBA ","V020","999,9,V,0015,1","22000,1,9,N","011265,1,N,1","+0300,1","+0240,1","99999,9","04,5,+00450,1,99,9",,,"04,99,1,99,9,99,9,99999,9,99,9,99,9","10119,1,99999,9",,,,"MET057METAR GVBA 281000Z VRB03KT 9999 SCT015 30/24 Q1012 NOSIG;",
"08594499999","2010-08-28T11:00:00","4","16.136531","-22.888897","21.03","BOA VISTA RABIL, CV","FM-15","GVBA ","V020","999,9,V,0015,1","00450,1,C,N","011265,1,N,1","+0310,1","+0240,1","99999,9","07,5,+00450,1,99,9",,,"07,99,1,99,9,99,9,99999,9,99,9,99,9","10129,1,99999,9",,,,"MET057METAR GVBA 281100Z VRB03KT 9999 BKN015 31/24 Q1013 NOSIG;",
"08594499999","2010-08-28T12:00:00","4","16.136531","-22.888897","21.03","BOA VISTA RABIL, CV","FM-15","GVBA ","V020","080,1,N,0015,1","00450,1,C,N","011265,1,N,1","+0330,1","+0230,1","99999,9","07,5,+00450,1,99,9",,,"07,99,1,99,9,99,9,99999,9,99,9,99,9","10129,1,99999,9",,,,"MET057METAR GVBA 281200Z 08003KT 9999 BKN015 33/23 Q1013 NOSIG;",
"08594499999","2010-08-28T13:00:00","4","16.136531","-22.888897","21.03","BOA VISTA RABIL, CV","FM-15","GVBA ","V020","150,1,N,0031,1","00450,1,C,N","011265,1,N,1","+0330,1","+0240,1","99999,9","07,5,+00450,1,99,9",,,"07,99,1,99,9,99,9,99999,9,99,9,99,9","10119,1,99999,9",,,,"MET057METAR GVBA 281300Z 15006KT 9999 BKN015 33/24 Q1012 NOSIG;",
"08594499999","2010-08-28T14:00:00","4","16.136531","-22.888897","21.03","BOA VISTA RABIL, CV","FM-15","GVBA ","V020","330,1,N,0031,1","00450,1,C,N","011265,1,N,1","+0330,1","+0240,1","99999,9","07,5,+00450,1,99,9",,,"07,99,1,99,9,99,9,99999,9,99,9,99,9","10108,1,99999,9",,,,"MET057METAR GVBA 281400Z 33006KT 9999 BKN015 33/24 Q1011 NOSIG;",
"08594499999","2010-08-28T15:00:00","4","16.136531","-22.888897","21.03","BOA VISTA RABIL, CV","FM-15","GVBA ","V020","310,1,N,0057,1","22000,1,9,N","011265,1,N,1","+0320,1","+0250,1","99999,9","04,5,+00450,1,99,9",,,"04,99,1,99,9,99,9,99999,9,99,9,99,9","10108,1,99999,9",,,,"MET057METAR GVBA 281500Z 31011KT 9999 SCT015 32/25 Q1011 NOSIG;",
"08594499999","2010-08-28T16:00:00","4","16.136531","-22.888897","21.03","BOA VISTA RABIL, CV","FM-15","GVBA ","V020","330,1,N,0051,1","22000,1,9,N","011265,1,N,1","+0320,1","+0240,1","99999,9","04,5,+00450,1,99,9",,,"04,99,1,99,9,99,9,99999,9,99,9,99,9","10108,1,99999,9",,,,"MET057METAR GVBA 281600Z 33010KT 9999 SCT015 32/24 Q1011 NOSIG;",
"08594499999","2010-08-28T17:00:00","4","16.136531","-22.888897","21.03","BOA VISTA RABIL, CV","FM-15","GVBA ","V020","330,1,N,0041,1","99999,9,C,N","011265,1,N,1","+0310,1","+0250,1","99999,9","02,5,+00450,1,99,9","04,5,+03000,1,99,9",,"04,99,1,99,9,99,9,99999,9,99,9,99,9","10108,1,99999,9",,,,"MET064METAR GVBA 281700Z 33008KT 9999 FEW015 SCT100 31/25 Q1011 NOSIG;","P01 030003SCOCIG"
"08594499999","2010-08-28T18:00:00","4","16.136531","-22.888897","21.03","BOA VISTA RABIL, CV","FM-15","GVBA ","V020","360,1,N,0041,1","99999,9,C,N","011265,1,N,1","+0300,1","+0250,1","99999,9","04,5,+00450,1,99,9","04,5,+03000,1,99,9",,"04,99,1,99,9,99,9,99999,9,99,9,99,9","10102,1,99999,9",,,,"MET064METAR GVBA 281800Z 36008KT 9999 SCT015 SCT100 30/25 Q1010 NOSIG;","P01 030003SCOCIG"
"08594499999","2010-08-28T19:00:00","4","16.136531","-22.888897","21.03","BOA VISTA RABIL, CV","FM-15","GVBA ","V020","010,1,N,0046,1","03000,1,C,N","011265,1,N,1","+0300,1","+0250,1","99999,9","04,5,+00450,1,99,9","07,5,+03000,1,99,9",,"07,99,1,99,9,99,9,99999,9,99,9,99,9","10102,1,99999,9",,,,"MET064METAR GVBA 281900Z 01009KT 9999 SCT015 BKN100 30/25 Q1010 NOSIG;",
"08594499999","2010-08-29T08:00:00","4","16.136531","-22.888897","21.03","BOA VISTA RABIL, CV","FM-15","GVBA ","V020","280,1,N,0067,1","99999,9,C,N","011265,1,N,1","+0270,1","+0240,1","99999,9","04,5,+00450,1,99,9","04,5,+03000,1,99,9",,"04,99,1,99,9,99,9,99999,9,99,9,99,9","10091,1,99999,9",,,,"MET064METAR GVBA 290800Z 28013KT 9999 SCT015 SCT100 27/24 Q1009 NOSIG;","P01 030003SCOCIG"
"08594499999","2010-08-29T09:00:00","4","16.136531","-22.888897","21.03","BOA VISTA RABIL, CV","FM-15","GVBA ","V020","270,1,N,0077,1","00450,1,C,N","011265,1,N,1","+0270,1","+0240,1","99999,9","07,5,+00450,1,99,9",,,"07,99,1,99,9,99,9,99999,9,99,9,99,9","10102,1,99999,9",,,,"MET057METAR GVBA 290900Z 27015KT 9999 BKN015 27/24 Q1010 NOSIG;",
"08594499999","2010-08-29T10:00:00","4","16.136531","-22.888897","21.03","BOA VISTA RABIL, CV","FM-15","GVBA ","V020","310,1,N,0072,1","00450,1,C,N","011265,1,N,1","+0280,1","+0240,1","99999,9","07,5,+00450,1,99,9",,,"07,99,1,99,9,99,9,99999,9,99,9,99,9","10102,1,99999,9",,,,"MET057METAR GVBA 291000Z 31014KT 9999 BKN015 28/24 Q1010 NOSIG;",
"08594499999","2010-08-29T11:00:00","4","16.136531","-22.888897","21.03","BOA VISTA RABIL, CV","FM-15","GVBA ","V020","320,1,N,0072,1","00450,1,C,N","011265,1,N,1","+0290,1","+0230,1","99999,9","07,5,+00450,1,99,9",,,"07,99,1,99,9,99,9,99999,9,99,9,99,9","10108,1,99999,9",,,,"MET057METAR GVBA 291100Z 32014KT 9999 BKN015 29/23 Q1011 NOSIG;",
"08594499999","2010-08-29T12:00:00","4","16.136531","-22.888897","21.03","BOA VISTA RABIL, CV","FM-15","GVBA ","V020","310,1,N,0067,1","00450,1,C,N","011265,1,N,1","+0290,1","+0230,1","99999,9","07,5,+00450,1,99,9",,,"07,99,1,99,9,99,9,99999,9,99,9,99,9","10102,1,99999,9",,,,"MET057METAR GVBA 291200Z 31013KT 9999 BKN015 29/23 Q1010 NOSIG;",
"08594499999","2010-08-29T13:00:00","4","16.136531","-22.888897","21.03","BOA VISTA RABIL, CV","FM-15","GVBA ","V020","320,1,N,0082,1","00450,1,C,N","011265,1,N,1","+0290,1","+0240,1","99999,9","07,5,+00450,1,99,9",,,"07,99,1,99,9,99,9,99999,9,99,9,99,9","10091,1,99999,9",,,,"MET057METAR GVBA 291300Z 32016KT 9999 BKN015 29/24 Q1009 NOSIG;",
"08594499999","2010-08-29T14:00:00","4","16.136531","-22.888897","21.03","BOA VISTA RABIL, CV","FM-15","GVBA ","V020","330,1,N,0072,1","00450,1,C,N","011265,1,N,1","+0300,1","+0240,1","99999,9","07,5,+00450,1,99,9",,,"07,99,1,99,9,99,9,99999,9,99,9,99,9","10091,1,99999,9",,,,"MET057METAR GVBA 291400Z 33014KT 9999 BKN015 30/24 Q1009 NOSIG;",
"08594499999","2010-08-29T15:00:00","4","16.136531","-22.888897","21.03","BOA VISTA RABIL, CV","FM-15","GVBA ","V020","340,1,N,0062,1","00450,1,C,N","011265,1,N,1","+0300,1","+0240,1","99999,9","07,5,+00450,1,99,9",,,"07,99,1,99,9,99,9,99999,9,99,9,99,9","10081,1,99999,9",,,,"MET057METAR GVBA 291500Z 34012KT 9999 BKN015 30/24 Q1008 NOSIG;",
"08594499999","2010-08-29T16:00:00","4","16.136531","-22.888897","21.03","BOA VISTA RABIL, CV","FM-15","GVBA ","V020","340,1,N,0062,1","00450,1,C,N","011265,1,N,1","+0300,1","+0240,1","99999,9","07,5,+00450,1,99,9",,,"07,99,1,99,9,99,9,99999,9,99,9,99,9","10071,1,99999,9",,,,"MET057METAR GVBA 291600Z 34012KT 9999 BKN015 30/24 Q1007 NOSIG;",
"08594499999","2010-08-29T17:00:00","4","16.136531","-22.888897","21.03","BOA VISTA RABIL, CV","FM-15","GVBA ","V020","340,1,N,0067,1","00450,1,C,N","011265,1,N,1","+0300,1","+0240,1","99999,9","07,5,+00450,1,99,9",,,"07,99,1,99,9,99,9,99999,9,99,9,99,9","10081,1,99999,9",,,,"MET057METAR GVBA 291700Z 34013KT 9999 BKN015 30/24 Q1008 NOSIG;",
"08594499999","2010-08-29T18:00:00","4","16.136531","-22.888897","21.03","BOA VISTA RABIL, CV","FM-15","GVBA ","V020","340,1,N,0051,1","00450,1,C,N","011265,1,N,1","+0290,1","+0240,1","99999,9","07,5,+00450,1,99,9",,,"07,99,1,99,9,99,9,99999,9,99,9,99,9","10081,1,99999,9",,,,"MET057METAR GVBA 291800Z 34010KT 9999 BKN015 29/24 Q1008 NOSIG;",
"08594499999","2010-08-29T19:00:00","4","16.136531","-22.888897","21.03","BOA VISTA RABIL, CV","FM-15","GVBA ","V020","350,1,N,0051,1","00450,1,C,N","011265,1,N,1","+0290,1","+0240,1","99999,9","07,5,+00450,1,99,9",,,"07,99,1,99,9,99,9,99999,9,99,9,99,9","10081,1,99999,9",,,,"MET057METAR GVBA 291900Z 35010KT 9999 BKN015 29/24 Q1008 NOSIG;",
"08594499999","2010-08-30T08:00:00","4","16.136531","-22.888897","21.03","BOA VISTA RABIL, CV","FM-15","GVBA ","V020","130,1,N,0010,1","22000,1,9,N","011265,1,N,1","+0240,1","+0230,1","99999,9","02,5,+00420,1,99,9",,,"02,99,1,99,9,99,9,99999,9,99,9,99,9","10102,1,99999,9",,,,"MET057METAR GVBA 300800Z 13002KT 9999 FEW014 24/23 Q1010 NOSIG;",
"08594499999","2010-08-30T09:00:00","4","16.136531","-22.888897","21.03","BOA VISTA RABIL, CV","FM-15","GVBA ","V020","150,1,N,0015,1","22000,1,9,N","011265,1,N,1","+0260,1","+0240,1","99999,9","02,5,+00420,1,99,9",,,"02,99,1,99,9,99,9,99999,9,99,9,99,9","10102,1,99999,9",,,,"MET057METAR GVBA 300900Z 15003KT 9999 FEW014 26/24 Q1010 NOSIG;",
"08594499999","2010-08-30T10:00:00","4","16.136531","-22.888897","21.03","BOA VISTA RABIL, CV","FM-15","GVBA ","V020","999,9,V,0005,1","22000,1,9,N","011265,1,N,1","+0290,1","+0230,1","99999,9","02,5,+00450,1,99,9",,,"02,99,1,99,9,99,9,99999,9,99,9,99,9","10108,1,99999,9",,,,"MET057METAR GVBA 301000Z VRB01KT 9999 FEW015 29/23 Q1011 NOSIG;",
"08594499999","2010-08-30T11:00:00","4","16.136531","-22.888897","21.03","BOA VISTA RABIL, CV","FM-15","GVBA ","V020","300,1,N,0031,1","22000,1,9,N","011265,1,N,1","+0300,1","+0220,1","99999,9","02,5,+00450,1,99,9",,,"02,99,1,99,9,99,9,99999,9,99,9,99,9","10102,1,99999,9",,,,"MET057METAR GVBA 301100Z 30006KT 9999 FEW015 30/22 Q1010 NOSIG;",
"08594499999","2010-08-30T12:00:00","4","16.136531","-22.888897","21.03","BOA VISTA RABIL, CV","FM-15","GVBA ","V020","270,1,N,0036,1","22000,1,9,N","011265,1,N,1","+0310,1","+0230,1","99999,9","02,5,+00450,1,99,9",,,"02,99,1,99,9,99,9,99999,9,99,9,99,9","10102,1,99999,9",,,,"MET057METAR GVBA 301200Z 27007KT 9999 FEW015 31/23 Q1010 NOSIG;",
"08594499999","2010-08-30T13:00:00","4","16.136531","-22.888897","21.03","BOA VISTA RABIL, CV","FM-15","GVBA ","V020","320,1,N,0031,1","22000,1,9,N","011265,1,N,1","+0320,1","+0220,1","99999,9","02,5,+00450,1,99,9",,,"02,99,1,99,9,99,9,99999,9,99,9,99,9","10102,1,99999,9",,,,"MET057METAR GVBA 301300Z 32006KT 9999 FEW015 32/22 Q1010 NOSIG;",
"08594499999","2010-08-30T14:00:00","4","16.136531","-22.888897","21.03","BOA VISTA RABIL, CV","FM-15","GVBA ","V020","280,1,N,0031,1","22000,1,9,N","011265,1,N,1","+0320,1","+0230,1","99999,9","02,5,+00450,1,99,9",,,"02,99,1,99,9,99,9,99999,9,99,9,99,9","10091,1,99999,9",,,,"MET057METAR GVBA 301400Z 28006KT 9999 FEW015 32/23 Q1009 NOSIG;",
"08594499999","2010-08-30T15:00:00","4","16.136531","-22.888897","21.03","BOA VISTA RABIL, CV","FM-15","GVBA ","V020","270,1,N,0026,1","22000,1,9,N","011265,1,N,1","+0310,1","+0230,1","99999,9","02,5,+00450,1,99,9",,,"02,99,1,99,9,99,9,99999,9,99,9,99,9","10091,1,99999,9",,,,"MET057METAR GVBA 301500Z 27005KT 9999 FEW015 31/23 Q1009 NOSIG;",
"08594499999","2010-08-30T16:00:00","4","16.136531","-22.888897","21.03","BOA VISTA RABIL, CV","FM-15","GVBA ","V020","270,1,N,0026,1","22000,1,9,N","011265,1,N,1","+0310,1","+0230,1","99999,9","02,5,+00450,1,99,9",,,"02,99,1,99,9,99,9,99999,9,99,9,99,9","10091,1,99999,9",,,,"MET065METAR GVBA 301600Z 27005KT 250V320 9999 FEW015 31/23 Q1009 NOSIG;",
"08594499999","2010-08-30T17:00:00","4","16.136531","-22.888897","21.03","BOA VISTA RABIL, CV","FM-15","GVBA ","V020","280,1,N,0031,1","00450,1,C,N","011265,1,N,1","+0310,1","+0240,1","99999,9","07,5,+00450,1,99,9",,,"07,99,1,99,9,99,9,99999,9,99,9,99,9","10091,1,99999,9",,,,"MET065METAR GVBA 301700Z 28006KT 260V320 9999 BKN015 31/24 Q1009 NOSIG;",
"08594499999","2010-08-30T18:00:00","4","16.136531","-22.888897","21.03","BOA VISTA RABIL, CV","FM-15","GVBA ","V020","270,1,N,0026,1","00450,1,C,N","011265,1,N,1","+0300,1","+0240,1","99999,9","07,5,+00450,1,99,9",,,"07,99,1,99,9,99,9,99999,9,99,9,99,9","10091,1,99999,9",,,,"MET057METAR GVBA 301800Z 27005KT 9999 BKN015 30/24 Q1009 NOSIG;",
"08594499999","2010-08-30T19:00:00","4","16.136531","-22.888897","21.03","BOA VISTA RABIL, CV","FM-15","GVBA ","V020","260,1,N,0026,1","22000,1,9,N","011265,1,N,1","+0290,1","+0240,1","99999,9","04,5,+00450,1,99,9",,,"04,99,1,99,9,99,9,99999,9,99,9,99,9","10091,1,99999,9",,,,"MET057METAR GVBA 301900Z 26005KT 9999 SCT015 29/24 Q1009 NOSIG;",
"08594499999","2010-08-31T08:00:00","4","16.136531","-22.888897","21.03","BOA VISTA RABIL, CV","FM-15","GVBA ","V020","999,9,C,0000,1","99999,9,C,N","011265,1,N,1","+0260,1","+0240,1","99999,9","02,5,+00450,1,99,9","04,5,+06000,1,99,9",,"04,99,1,99,9,99,9,99999,9,99,9,99,9","10102,1,99999,9",,,,"MET064METAR GVBA 310800Z 00000KT 9999 FEW015 SCT200 26/24 Q1010 NOSIG;","P01 060003SCOCIG"
"08594499999","2010-08-31T09:00:00","4","16.136531","-22.888897","21.03","BOA VISTA RABIL, CV","FM-15","GVBA ","V020","160,1,N,0015,1","22000,1,9,N","011265,1,N,1","+0280,1","+0250,1","99999,9","02,5,+00450,1,99,9",,,"02,99,1,99,9,99,9,99999,9,99,9,99,9","10108,1,99999,9",,,,"MET057METAR GVBA 310900Z 16003KT 9999 FEW015 28/25 Q1011 NOSIG;",
"08594499999","2010-08-31T10:00:00","4","16.136531","-22.888897","21.03","BOA VISTA RABIL, CV","FM-15","GVBA ","V020","270,1,N,0015,1","22000,1,9,N","011265,1,N,1","+0290,1","+0240,1","99999,9","04,5,+00450,1,99,9",,,"04,99,1,99,9,99,9,99999,9,99,9,99,9","10119,1,99999,9",,,,"MET057METAR GVBA 311000Z 27003KT 9999 SCT015 29/24 Q1012 NOSIG;",
"08594499999","2010-08-31T11:00:00","4","16.136531","-22.888897","21.03","BOA VISTA RABIL, CV","FM-15","GVBA ","V020","260,1,N,0026,1","22000,1,9,N","011265,1,N,1","+0310,1","+0230,1","99999,9","04,5,+00450,1,99,9",,,"04,99,1,99,9,99,9,99999,9,99,9,99,9","10119,1,99999,9",,,,"MET057METAR GVBA 311100Z 26005KT 9999 SCT015 31/23 Q1012 NOSIG;",
"08594499999","2010-08-31T12:00:00","4","16.136531","-22.888897","21.03","BOA VISTA RABIL, CV","FM-15","GVBA ","V020","250,1,N,0031,1","22000,1,9,N","011265,1,N,1","+0310,1","+0230,1","99999,9","04,5,+00450,1,99,9",,,"04,99,1,99,9,99,9,99999,9,99,9,99,9","10119,1,99999,9",,,,"MET057METAR GVBA 311200Z 25006KT 9999 SCT015 31/23 Q1012 NOSIG;",
"08594499999","2010-08-31T13:00:00","4","16.136531","-22.888897","21.03","BOA VISTA RABIL, CV","FM-15","GVBA ","V020","270,1,N,0041,1","99999,9,C,N","011265,1,N,1","+0320,1","+0250,1","99999,9","02,5,+00450,1,99,9","04,5,+06000,1,99,9",,"04,99,1,99,9,99,9,99999,9,99,9,99,9","10108,1,99999,9",,,,"MET064METAR GVBA 311300Z 27008KT 9999 FEW015 SCT200 32/25 Q1011 NOSIG;","P01 060003SCOCIG"
"08594499999","2010-08-31T14:00:00","4","16.136531","-22.888897","21.03","BOA VISTA RABIL, CV","FM-15","GVBA ","V020","280,1,N,0051,1","99999,9,C,N","011265,1,N,1","+0320,1","+0250,1","99999,9","02,5,+00450,1,99,9","04,5,+06000,1,99,9",,"04,99,1,99,9,99,9,99999,9,99,9,99,9","10102,1,99999,9",,,,"MET064METAR GVBA 311400Z 28010KT 9999 FEW015 SCT200 32/25 Q1010 NOSIG;","P01 060003SCOCIG"
"08594499999","2010-08-31T15:00:00","4","16.136531","-22.888897","21.03","BOA VISTA RABIL, CV","FM-15","GVBA ","V020","280,1,N,0041,1","99999,9,C,N","011265,1,N,1","+0320,1","+0250,1","99999,9","02,5,+00450,1,99,9","04,5,+06000,1,99,9",,"04,99,1,99,9,99,9,99999,9,99,9,99,9","10102,1,99999,9",,,,"MET064METAR GVBA 311500Z 28008KT 9999 FEW015 SCT200 32/25 Q1010 NOSIG;","P01 060003SCOCIG"
"08594499999","2010-08-31T16:00:00","4","16.136531","-22.888897","21.03","BOA VISTA RABIL, CV","FM-15","GVBA ","V020","290,1,N,0036,1","06000,1,C,N","011265,1,N,1","+0320,1","+0240,1","99999,9","02,5,+00450,1,99,9","07,5,+06000,1,99,9",,"07,99,1,99,9,99,9,99999,9,99,9,99,9","10091,1,99999,9",,,,"MET064METAR GVBA 311600Z 29007KT 9999 FEW015 BKN200 32/24 Q1009 NOSIG;",
"08594499999","2010-08-31T17:00:00","4","16.136531","-22.888897","21.03","BOA VISTA RABIL, CV","FM-15","GVBA ","V020","280,1,N,0041,1","99999,9,C,N","011265,1,N,1","+0310,1","+0240,1","99999,9","02,5,+00450,1,99,9","04,5,+06000,1,99,9",,"04,99,1,99,9,99,9,99999,9,99,9,99,9","10091,1,99999,9",,,,"MET064METAR GVBA 311700Z 28008KT 9999 FEW015 SCT200 31/24 Q1009 NOSIG;","P01 060003SCOCIG"
"08594499999","2010-08-31T18:00:00","4","16.136531","-22.888897","21.03","BOA VISTA RABIL, CV","FM-15","GVBA ","V020","280,1,N,0026,1","22000,1,9,N","011265,1,N,1","+0310,1","+0240,1","99999,9","02,5,+00450,1,99,9",,,"02,99,1,99,9,99,9,99999,9,99,9,99,9","10091,1,99999,9",,,,"MET057METAR GVBA 311800Z 28005KT 9999 FEW015 31/24 Q1009 NOSIG;",
"08594499999","2010-08-31T19:00:00","4","16.136531","-22.888897","21.03","BOA VISTA RABIL, CV","FM-15","GVBA ","V020","290,1,N,0026,1","22000,1,9,N","011265,1,N,1","+0300,1","+0240,1","99999,9","02,5,+00450,1,99,9",,,"02,99,1,99,9,99,9,99999,9,99,9,99,9","10091,1,99999,9",,,,"MET057METAR GVBA 311900Z 29005KT 9999 FEW015 30/24 Q1009 NOSIG;",
"08594499999","2010-09-01T08:00:00","4","16.136531","-22.888897","21.03","BOA VISTA RABIL, CV","FM-15","GVBA ","V020","320,1,N,0031,1","00450,1,C,N","011265,1,N,1","+0270,1","+0240,1","99999,9","07,5,+00450,1,99,9",,,"07,99,1,99,9,99,9,99999,9,99,9,99,9","10102,1,99999,9",,,,"MET057METAR GVBA 010800Z 32006KT 9999 BKN015 27/24 Q1010 NOSIG;",
"08594499999","2010-09-01T09:00:00","4","16.136531","-22.888897","21.03","BOA VISTA RABIL, CV","FM-15","GVBA ","V020","330,1,N,0031,1","22000,1,9,N","011265,1,N,1","+0290,1","+0240,1","99999,9","04,5,+00450,1,99,9",,,"04,99,1,99,9,99,9,99999,9,99,9,99,9","10102,1,99999,9",,,,"MET057METAR GVBA 010900Z 33006KT 9999 SCT015 29/24 Q1010 NOSIG;",
"08594499999","2010-09-01T10:00:00","4","16.136531","-22.888897","21.03","BOA VISTA RABIL, CV","FM-15","GVBA ","V020","330,1,N,0041,1","22000,1,9,N","011265,1,N,1","+0290,1","+0240,1","99999,9","02,5,+00450,1,99,9",,,"02,99,1,99,9,99,9,99999,9,99,9,99,9","10108,1,99999,9",,,,"MET057METAR GVBA 011000Z 33008KT 9999 FEW015 29/24 Q1011 NOSIG;",
"08594499999","2010-09-01T12:00:00","4","16.136531","-22.888897","21.03","BOA VISTA RABIL, CV","FM-15","GVBA ","V020","340,1,N,0046,1","22000,1,9,N","011265,1,N,1","+0300,1","+0230,1","99999,9","02,5,+00450,1,99,9",,,"02,99,1,99,9,99,9,99999,9,99,9,99,9","10108,1,99999,9",,,,"MET057METAR GVBA 011200Z 34009KT 9999 FEW015 30/23 Q1011 NOSIG;",
"08594499999","2010-09-01T13:00:00","4","16.136531","-22.888897","21.03","BOA VISTA RABIL, CV","FM-15","GVBA ","V020","330,1,N,0051,1","22000,1,9,N","011265,1,N,1","+0310,1","+0230,1","99999,9","02,5,+00450,1,99,9",,,"02,99,1,99,9,99,9,99999,9,99,9,99,9","10108,1,99999,9",,,,"MET057METAR GVBA 011300Z 33010KT 9999 FEW015 31/23 Q1011 NOSIG;",
"08594499999","2010-09-02T08:00:00","4","16.136531","-22.888897","21.03","BOA VISTA RABIL, CV","FM-15","GVBA ","V020","360,1,N,0031,1","06000,1,C,N","011265,1,N,1","+0260,1","+0220,1","99999,9","02,5,+00450,1,99,9","07,5,+06000,1,99,9",,"07,99,1,99,9,99,9,99999,9,99,9,99,9","10102,1,99999,9",,,,"MET064METAR GVBA 020800Z 36006KT 9999 FEW015 BKN200 26/22 Q1010 NOSIG;",
"08594499999","2010-09-02T10:00:00","4","16.136531","-22.888897","21.03","BOA VISTA RABIL, CV","FM-15","GVBA ","V020","010,1,N,0051,1","00450,1,C,N","011265,1,N,1","+0290,1","+0230,1","99999,9","07,5,+00450,1,99,9","04,5,+06000,1,99,9",,,"10102,1,99999,9",,,,"MET064METAR GVBA 021000Z 01010KT 9999 BKN015 SCT200 29/23 Q1010 NOSIG;",
"08594499999","2010-09-02T11:00:00","4","16.136531","-22.888897","21.03","BOA VISTA RABIL, CV","FM-15","GVBA ","V020","020,1,N,0062,1","00450,1,C,N","011265,1,N,1","+0300,1","+0230,1","99999,9","07,5,+00450,1,99,9","07,5,+06000,1,99,9",,"07,99,1,99,9,99,9,99999,9,99,9,99,9","10108,1,99999,9",,,,"MET064METAR GVBA 021100Z 02012KT 9999 BKN015 BKN200 30/23 Q1011 NOSIG;",
"08594499999","2010-09-02T12:00:00","4","16.136531","-22.888897","21.03","BOA VISTA RABIL, CV","FM-15","GVBA ","V020","030,1,N,0062,1","03000,1,C,N","011265,1,N,1","+0300,1","+0220,1","99999,9","04,5,+00450,1,99,9","07,5,+03000,1,99,9",,"07,99,1,99,9,99,9,99999,9,99,9,99,9","10108,1,99999,9",,,,"MET064METAR GVBA 021200Z 03012KT 9999 SCT015 BKN100 30/22 Q1011 NOSIG;",
"08594499999","2010-09-02T13:00:00","4","16.136531","-22.888897","21.03","BOA VISTA RABIL, CV","FM-15","GVBA ","V020","020,1,N,0062,1","03000,1,C,N","011265,1,N,1","+0300,1","+0230,1","99999,9","04,5,+00450,1,99,9","07,5,+03000,1,99,9",,"07,99,1,99,9,99,9,99999,9,99,9,99,9","10102,1,99999,9",,,,"MET064METAR GVBA 021300Z 02012KT 9999 SCT015 BKN100 30/23 Q1010 NOSIG;",
"08594499999","2010-09-02T14:00:00","4","16.136531","-22.888897","21.03","BOA VISTA RABIL, CV","FM-15","GVBA ","V020","010,1,N,0067,1","03000,1,C,N","011265,1,N,1","+0300,1","+0230,1","99999,9","04,5,+00450,1,99,9","07,5,+03000,1,99,9",,"07,99,1,99,9,99,9,99999,9,99,9,99,9","10102,1,99999,9",,,,"MET064METAR GVBA 021400Z 01013KT 9999 SCT015 BKN100 30/23 Q1010 NOSIG;",
"08594499999","2010-09-02T15:00:00","4","16.136531","-22.888897","21.03","BOA VISTA RABIL, CV","FM-15","GVBA ","V020","020,1,N,0072,1","99999,9,C,N","011265,1,N,1","+0310,1","+0240,1","99999,9","04,5,+00450,1,99,9","04,5,+03000,1,99,9",,"04,99,1,99,9,99,9,99999,9,99,9,99,9","10091,1,99999,9",,,,"MET064METAR GVBA 021500Z 02014KT 9999 SCT015 SCT100 31/24 Q1009 NOSIG;","P01 030003SCOCIG"
"08594499999","2010-09-02T16:00:00","4","16.136531","-22.888897","21.03","BOA VISTA RABIL, CV","FM-15","GVBA ","V020","020,1,N,0077,1","99999,9,C,N","011265,1,N,1","+0310,1","+0240,1","99999,9","04,5,+00450,1,99,9","04,5,+03000,1,99,9",,"04,99,1,99,9,99,9,99999,9,99,9,99,9","10081,1,99999,9",,,,"MET064METAR GVBA 021600Z 02015KT 9999 SCT015 SCT100 31/24 Q1008 NOSIG;","P01 030003SCOCIG"
"08594499999","2010-09-02T17:00:00","4","16.136531","-22.888897","21.03","BOA VISTA RABIL, CV","FM-15","GVBA ","V020","010,1,N,0077,1","03000,1,C,N","011265,1,N,1","+0300,1","+0240,1","99999,9","04,5,+00450,1,99,9","07,5,+03000,1,99,9",,"07,99,1,99,9,99,9,99999,9,99,9,99,9","10081,1,99999,9",,,,"MET064METAR GVBA 021700Z 01015KT 9999 SCT015 BKN100 30/24 Q1008 NOSIG;",
"08594499999","2010-09-02T18:00:00","4","16.136531","-22.888897","21.03","BOA VISTA RABIL, CV","FM-15","GVBA ","V020","030,1,N,0067,1","03000,1,C,N","011265,1,N,1","+0300,1","+0240,1","99999,9","04,5,+00450,1,99,9","07,5,+03000,1,99,9",,"07,99,1,99,9,99,9,99999,9,99,9,99,9","10081,1,99999,9",,,,"MET064METAR GVBA 021800Z 03013KT 9999 SCT015 BKN100 30/24 Q1008 NOSIG;",
"08594499999","2010-09-02T19:00:00","4","16.136531","-22.888897","21.03","BOA VISTA RABIL, CV","FM-15","GVBA ","V020","020,1,N,0067,1","03000,1,C,N","011265,1,N,1","+0290,1","+0240,1","99999,9","04,5,+00450,1,99,9","04,5,+03000,1,99,9","07,5,+06000,1,99,9","07,99,1,99,9,99,9,99999,9,99,9,99,9","10091,1,99999,9",,,,"MET071METAR GVBA 021900Z 02013KT 9999 SCT015 SCT100 BKN200 29/24 Q1009 NOSIG;",
"08594499999","2010-09-03T08:00:00","4","16.136531","-22.888897","21.03","BOA VISTA RABIL, CV","FM-15","GVBA ","V020","360,1,N,0046,1","00420,1,C,N","011265,1,N,1","+0270,1","+0240,1","99999,9","07,5,+00420,1,99,9",,,"07,99,1,99,9,99,9,99999,9,99,9,99,9","10091,1,99999,9",,,,"MET057METAR GVBA 030800Z 36009KT 9999 BKN014 27/24 Q1009 NOSIG;",
"08594499999","2010-09-03T09:00:00","4","16.136531","-22.888897","21.03","BOA VISTA RABIL, CV","FM-15","GVBA ","V020","010,1,N,0051,1","00420,1,C,N","011265,1,N,1","+0280,1","+0250,1","99999,9","07,5,+00420,1,99,9",,,"07,99,1,99,9,99,9,99999,9,99,9,99,9","10102,1,99999,9",,,,"MET057METAR GVBA 030900Z 01010KT 9999 BKN014 28/25 Q1010 NOSIG;",
"08594499999","2010-09-03T10:00:00","4","16.136531","-22.888897","21.03","BOA VISTA RABIL, CV","FM-15","GVBA ","V020","010,1,N,0062,1","00420,1,C,N","011265,1,N,1","+0290,1","+0250,1","99999,9","07,5,+00420,1,99,9","07,5,+00480,1,99,9",,"07,99,1,99,9,99,9,99999,9,99,9,99,9","10102,1,99999,9",,,,"MET064METAR GVBA 031000Z 01012KT 9999 BKN014 BKN016 29/25 Q1010 NOSIG;",
"08594499999","2010-09-03T11:00:00","4","16.136531","-22.888897","21.03","BOA VISTA RABIL, CV","FM-15","GVBA ","V020","020,1,N,0057,1","00480,1,C,N","011265,1,N,1","+0290,1","+0250,1","99999,9","04,5,+00420,1,99,9","07,5,+00480,1,99,9",,"07,99,1,99,9,99,9,99999,9,99,9,99,9","10108,1,99999,9",,,,"MET064METAR GVBA 031100Z 02011KT 9999 SCT014 BKN016 29/25 Q1011 NOSIG;",
"08594499999","2010-09-03T12:00:00","4","16.136531","-22.888897","21.03","BOA VISTA RABIL, CV","FM-15","GVBA ","V020","020,1,N,0067,1","00480,1,C,N","011265,1,N,1","+0300,1","+0240,1","99999,9","02,5,+00420,1,99,9","07,5,+00480,1,99,9",,"07,99,1,99,9,99,9,99999,9,99,9,99,9","10108,1,99999,9",,,,"MET064METAR GVBA 031200Z 02013KT 9999 FEW014 BKN016 30/24 Q1011 NOSIG;",
"08594499999","2010-09-03T13:00:00","4","16.136531","-22.888897","21.03","BOA VISTA RABIL, CV","FM-15","GVBA ","V020","030,1,N,0077,1","00480,1,C,N","011265,1,N,1","+0320,1","+0250,1","99999,9","07,5,+00480,1,99,9","07,5,+03000,1,99,9",,"07,99,1,99,9,99,9,99999,9,99,9,99,9","10102,1,99999,9",,,,"MET064METAR GVBA 031300Z 03015KT 9999 BKN016 BKN100 32/25 Q1010 NOSIG;",
"08594499999","2010-09-03T14:00:00","4","16.136531","-22.888897","21.03","BOA VISTA RABIL, CV","FM-15","GVBA ","V020","030,1,N,0062,1","00480,1,C,N","011265,1,N,1","+0310,1","+0240,1","99999,9","07,5,+00480,1,99,9","07,5,+03000,1,99,9",,"07,99,1,99,9,99,9,99999,9,99,9,99,9","10102,1,99999,9",,,,"MET064METAR GVBA 031400Z 03012KT 9999 BKN016 BKN100 31/24 Q1010 NOSIG;",
"08594499999","2010-09-03T15:00:00","4","16.136531","-22.888897","21.03","BOA VISTA RABIL, CV","FM-15","GVBA ","V020","030,1,N,0072,1","00480,1,C,N","011265,1,N,1","+0320,1","+0240,1","99999,9","07,5,+00480,1,99,9","07,5,+03000,1,99,9",,"07,99,1,99,9,99,9,99999,9,99,9,99,9","10091,1,99999,9",,,,"MET064METAR GVBA 031500Z 03014KT 9999 BKN016 BKN100 32/24 Q1009 NOSIG;",
"08594499999","2010-09-03T16:00:00","4","16.136531","-22.888897","21.03","BOA VISTA RABIL, CV","FM-15","GVBA ","V020","040,1,N,0077,1","00480,1,C,N","011265,1,N,1","+0310,1","+0240,1","99999,9","07,5,+00480,1,99,9",,,"07,99,1,99,9,99,9,99999,9,99,9,99,9","10091,1,99999,9",,,,"MET057METAR GVBA 031600Z 04015KT 9999 BKN016 31/24 Q1009 NOSIG;",
"08594499999","2010-09-03T17:00:00","4","16.136531","-22.888897","21.03","BOA VISTA RABIL, CV","FM-15","GVBA ","V020","030,1,N,0082,1","00480,1,C,N","011265,1,N,1","+0300,1","+0240,1","99999,9","07,5,+00480,1,99,9",,,"07,99,1,99,9,99,9,99999,9,99,9,99,9","10091,1,99999,9",,,,"MET057METAR GVBA 031700Z 03016KT 9999 BKN016 30/24 Q1009 NOSIG;",
"08594499999","2010-09-03T18:00:00","4","16.136531","-22.888897","21.03","BOA VISTA RABIL, CV","FM-15","GVBA ","V020","030,1,N,0077,1","00480,1,C,N","011265,1,N,1","+0290,1","+0240,1","99999,9","07,5,+00480,1,99,9","07,5,+03000,1,99,9",,"07,99,1,99,9,99,9,99999,9,99,9,99,9","10091,1,99999,9",,,,"MET064METAR GVBA 031800Z 03015KT 9999 BKN016 BKN100 29/24 Q1009 NOSIG;",
"08594499999","2010-09-03T19:00:00","4","16.136531","-22.888897","21.03","BOA VISTA RABIL, CV","FM-15","GVBA ","V020","030,1,N,0067,1","00480,1,C,N","011265,1,N,1","+0280,1","+0230,1","99999,9","07,5,+00480,1,99,9","07,5,+03000,1,99,9",,"07,99,1,99,9,99,9,99999,9,99,9,99,9","10091,1,99999,9",,,,"MET064METAR GVBA 031900Z 03013KT 9999 BKN016 BKN100 28/23 Q1009 NOSIG;",
"08594499999","2010-09-04T08:00:00","4","16.136531","-22.888897","21.03","BOA VISTA RABIL, CV","FM-15","GVBA ","V020","010,1,N,0051,1","03000,1,C,N","011265,1,N,1","+0260,1","+0230,1","99999,9","02,5,+00420,1,99,9","07,5,+03000,1,99,9",,"07,99,1,99,9,99,9,99999,9,99,9,99,9","10091,1,99999,9",,,,"MET064METAR GVBA 040800Z 01010KT 9999 FEW014 BKN100 26/23 Q1009 NOSIG;",
"08594499999","2010-09-04T09:00:00","4","16.136531","-22.888897","21.03","BOA VISTA RABIL, CV","FM-15","GVBA ","V020","020,1,N,0057,1","03000,1,C,N","011265,1,N,1","+0280,1","+0230,1","99999,9","02,5,+00420,1,99,9","07,5,+03000,1,99,9",,"07,99,1,99,9,99,9,99999,9,99,9,99,9","10102,1,99999,9",,,,"MET064METAR GVBA 040900Z 02011KT 9999 FEW014 BKN100 28/23 Q1010 NOSIG;",
"08594499999","2010-09-04T10:00:00","4","16.136531","-22.888897","21.03","BOA VISTA RABIL, CV","FM-15","GVBA ","V020","020,1,N,0062,1","02700,1,C,N","011265,1,N,1","+0280,1","+0230,1","99999,9","04,5,+00420,1,99,9","07,5,+02700,1,99,9",,"07,99,1,99,9,99,9,99999,9,99,9,99,9","10102,1,99999,9",,,,"MET064METAR GVBA 041000Z 02012KT 9999 SCT014 BKN090 28/23 Q1010 NOSIG;",
"08594499999","2010-09-04T11:00:00","4","16.136531","-22.888897","21.03","BOA VISTA RABIL, CV","FM-15","GVBA ","V020","030,1,N,0072,1","03000,1,C,N","011265,1,N,1","+0290,1","+0230,1","99999,9","04,5,+00420,1,99,9","07,5,+03000,1,99,9",,"07,99,1,99,9,99,9,99999,9,99,9,99,9","10102,1,99999,9",,,,"MET064METAR GVBA 041100Z 03014KT 9999 SCT014 BKN100 29/23 Q1010 NOSIG;",
"08594499999","2010-09-04T12:00:00","4","16.136531","-22.888897","21.03","BOA VISTA RABIL, CV","FM-15","GVBA ","V020","020,1,N,0072,1","03000,1,C,N","011265,1,N,1","+0290,1","+0230,1","99999,9","02,5,+00420,1,99,9","07,5,+03000,1,99,9",,"07,99,1,99,9,99,9,99999,9,99,9,99,9","10102,1,99999,9",,,,"MET064METAR GVBA 041200Z 02014KT 9999 FEW014 BKN100 29/23 Q1010 NOSIG;",
"08594499999","2010-09-04T13:00:00","4","16.136531","-22.888897","21.03","BOA VISTA RABIL, CV","FM-15","GVBA ","V020","030,1,N,0077,1","03000,1,C,N","011265,1,N,1","+0290,1","+0230,1","99999,9","04,5,+00420,1,99,9","07,5,+03000,1,99,9",,"07,99,1,99,9,99,9,99999,9,99,9,99,9","10102,1,99999,9",,,,"MET064METAR GVBA 041300Z 03015KT 9999 SCT014 BKN100 29/23 Q1010 NOSIG;",
"08594499999","2010-09-04T14:00:00","4","16.136531","-22.888897","21.03","BOA VISTA RABIL, CV","FM-15","GVBA ","V020","030,1,N,0067,1","03000,1,C,N","011265,1,N,1","+0290,1","+0230,1","99999,9","04,5,+00420,1,99,9","07,5,+03000,1,99,9",,"07,99,1,99,9,99,9,99999,9,99,9,99,9","10091,1,99999,9",,,,"MET064METAR GVBA 041400Z 03013KT 9999 SCT014 BKN100 29/23 Q1009 NOSIG;",
"08594499999","2010-09-04T15:00:00","4","16.136531","-22.888897","21.03","BOA VISTA RABIL, CV","FM-15","GVBA ","V020","020,1,N,0067,1","03000,1,C,N","011265,1,N,1","+0300,1","+0230,1","99999,9","04,5,+00450,1,99,9","08,5,+03000,1,99,9",,"08,99,1,99,9,99,9,99999,9,99,9,99,9","10091,1,99999,9",,,,"MET064METAR GVBA 041500Z 02013KT 9999 SCT015 OVC100 30/23 Q1009 NOSIG;",
"08594499999","2010-09-04T16:00:00","4","16.136531","-22.888897","21.03","BOA VISTA RABIL, CV","FM-15","GVBA ","V020","040,1,N,0062,1","03000,1,C,N","011265,1,N,1","+0300,1","+0230,1","99999,9","04,5,+00450,1,99,9","07,5,+03000,1,99,9",,"07,99,1,99,9,99,9,99999,9,99,9,99,9","10081,1,99999,9",,,,"MET064METAR GVBA 041600Z 04012KT 9999 SCT015 BKN100 30/23 Q1008 NOSIG;",
"08594499999","2010-09-04T17:00:00","4","16.136531","-22.888897","21.03","BOA VISTA RABIL, CV","FM-15","GVBA ","V020","020,1,N,0077,1","03000,1,C,N","011265,1,N,1","+0300,1","+0230,1","99999,9","04,5,+00450,1,99,9","07,5,+03000,1,99,9",,"07,99,1,99,9,99,9,99999,9,99,9,99,9","10081,1,99999,9",,,,"MET064METAR GVBA 041700Z 02015KT 9999 SCT015 BKN100 30/23 Q1008 NOSIG;",
"08594499999","2010-09-04T18:00:00","4","16.136531","-22.888897","21.03","BOA VISTA RABIL, CV","FM-15","GVBA ","V020","020,1,N,0051,1","00450,1,C,N","011265,1,N,1","+0300,1","+0230,1","99999,9","07,5,+00450,1,99,9","04,5,+03000,1,99,9",,,"10081,1,99999,9",,,,"MET064METAR GVBA 041800Z 02010KT 9999 BKN015 SCT100 30/23 Q1008 NOSIG;","Q01+000042SCOTCV"
"08594499999","2010-09-04T19:00:00","4","16.136531","-22.888897","21.03","BOA VISTA RABIL, CV","FM-15","GVBA ","V020","030,1,N,0051,1","03000,1,C,N","011265,1,N,1","+0290,1","+0230,1","99999,9","04,5,+00450,1,99,9","07,5,+03000,1,99,9",,"07,99,1,99,9,99,9,99999,9,99,9,99,9","10081,1,99999,9",,,,"MET064METAR GVBA 041900Z 03010KT 9999 SCT015 BKN100 29/23 Q1008 NOSIG;",
"08594499999","2010-09-05T08:00:00","4","16.136531","-22.888897","21.03","BOA VISTA RABIL, CV","FM-15","GVBA ","V020","350,1,N,0010,1","99999,9,C,N","011265,1,N,1","+0260,1","+0250,1","99999,9","02,5,+00420,1,99,9","04,5,+03000,1,99,9",,"04,99,1,99,9,99,9,99999,9,99,9,99,9","10091,1,99999,9",,,,"MET064METAR GVBA 050800Z 35002KT 9999 FEW014 SCT100 26/25 Q1009 NOSIG;","P01 030003SCOCIG"
"08594499999","2010-09-05T09:00:00","4","16.136531","-22.888897","21.03","BOA VISTA RABIL, CV","FM-15","GVBA ","V020","360,1,N,0010,1","03000,1,C,N","011265,1,N,1","+0290,1","+9999,9","99999,9","02,5,+00420,1,99,9","07,5,+03000,1,99,9",,"07,99,1,99,9,99,9,99999,9,99,9,99,9","10102,1,99999,9",,,,"MET064METAR GVBA 050900Z 36002KT 9999 FEW014 BKN100 29/XX Q1010 NOSIG;",
"08594499999","2010-09-05T10:00:00","4","16.136531","-22.888897","21.03","BOA VISTA RABIL, CV","FM-15","GVBA ","V020","350,1,N,0015,1","03000,1,C,N","011265,1,N,1","+9999,9","+9999,9","99999,9","04,5,+00450,1,99,9","07,5,+03000,1,99,9",,"07,99,1,99,9,99,9,99999,9,99,9,99,9","10108,1,99999,9",,,,"MET064METAR GVBA 051000Z 35003KT 9999 SCT015 BKN100 XX/XX Q1011 NOSIG;",
"08594499999","2010-09-05T11:00:00","4","16.136531","-22.888897","21.03","BOA VISTA RABIL, CV","FM-15","GVBA ","V020","330,1,N,0021,1","03000,1,C,N","011265,1,N,1","+9999,9","+9999,9","99999,9","04,5,+00450,1,99,9","07,5,+03000,1,99,9",,"07,99,1,99,9,99,9,99999,9,99,9,99,9","10108,1,99999,9",,,,"MET064METAR GVBA 051100Z 33004KT 9999 SCT015 BKN100 XX/XX Q1011 NOSIG;",
"08594499999","2010-09-05T12:00:00","4","16.136531","-22.888897","21.03","BOA VISTA RABIL, CV","FM-15","GVBA ","V020","310,1,N,0021,1","03000,1,C,N","011265,1,N,1","+9999,9","+9999,9","99999,9","04,5,+00450,1,99,9","04,5,+03000,1,99,9","07,5,+06000,1,99,9","07,99,1,99,9,99,9,99999,9,99,9,99,9",,,,,"MET071METAR GVBA 051200Z 31004KT 9999 SCT015 SCT100 BKN200 XX/XX Q//// NOSIG;",
"08594499999","2010-09-05T13:00:00","4","16.136531","-22.888897","21.03","BOA VISTA RABIL, CV","FM-15","GVBA ","V020","300,1,N,0041,1","06000,1,C,N","011265,1,N,1","+0300,1","+0230,1","99999,9","04,5,+00450,1,99,9","07,5,+06000,1,99,9",,"07,99,1,99,9,99,9,99999,9,99,9,99,9","10102,1,99999,9",,,,"MET064METAR GVBA 051300Z 30008KT 9999 SCT015 BKN200 30/23 Q1010 NOSIG;",
"08594499999","2010-09-05T14:00:00","4","16.136531","-22.888897","21.03","BOA VISTA RABIL, CV","FM-15","GVBA ","V020","320,1,N,0031,1","00450,1,C,N","011265,1,N,1","+0300,1","+0230,1","99999,9","07,5,+00450,1,99,9","07,5,+06000,1,99,9",,"07,99,1,99,9,99,9,99999,9,99,9,99,9","10102,1,99999,9",,,,"MET064METAR GVBA 051400Z 32006KT 9999 BKN015 BKN200 30/23 Q1010 NOSIG;",
"08594499999","2010-09-05T15:00:00","4","16.136531","-22.888897","21.03","BOA VISTA RABIL, CV","FM-15","GVBA ","V020","310,1,N,0026,1","00450,1,C,N","009000,1,N,1","+9999,9","+0240,1","99999,9","02,5,+00390,1,99,9","07,5,+00450,1,99,9",,"07,99,1,99,9,99,9,99999,9,99,9,99,9","10102,1,99999,9","51,1",,,"MET069METAR GVBA 051500Z 31005KT 9000 -DZ FEW013 BKN015 280/24 Q1010 NOSIG;",
"08594499999","2010-09-05T16:00:00","4","16.136531","-22.888897","21.03","BOA VISTA RABIL, CV","FM-15","GVBA ","V020","330,1,N,0021,1","03000,1,C,N","011265,1,N,1","+0280,1","+0230,1","99999,9","04,5,+00450,1,99,9","07,5,+03000,1,99,9",,"07,99,1,99,9,99,9,99999,9,99,9,99,9","10091,1,99999,9",,,,"MET064METAR GVBA 051600Z 33004KT 9999 SCT015 BKN100 28/23 Q1009 NOSIG;",
"08594499999","2010-09-05T17:00:00","4","16.136531","-22.888897","21.03","BOA VISTA RABIL, CV","FM-15","GVBA ","V020","310,1,N,0026,1","03000,1,C,N","011265,1,N,1","+0290,1","+0230,1","99999,9","04,5,+00450,1,99,9","07,5,+03000,1,99,9",,"07,99,1,99,9,99,9,99999,9,99,9,99,9","10091,1,99999,9",,,,"MET064METAR GVBA 051700Z 31005KT 9999 SCT015 BKN100 29/23 Q1009 NOSIG;",
"08594499999","2010-09-05T18:00:00","4","16.136531","-22.888897","21.03","BOA VISTA RABIL, CV","FM-15","GVBA ","V020","310,1,N,0026,1","03000,1,C,N","011265,1,N,1","+0290,1","+0240,1","99999,9","02,5,+00450,1,99,9","07,5,+03000,1,99,9",,"07,99,1,99,9,99,9,99999,9,99,9,99,9","10091,1,99999,9",,,,"MET064METAR GVBA 051800Z 31005KT 9999 FEW015 BKN100 29/24 Q1009 NOSIG;",
"08594499999","2010-09-05T19:00:00","4","16.136531","-22.888897","21.03","BOA VISTA RABIL, CV","FM-15","GVBA ","V020","310,1,N,0026,1","03000,1,C,N","011265,1,N,1","+0290,1","+0240,1","99999,9","02,5,+00450,1,99,9","07,5,+03000,1,99,9",,"07,99,1,99,9,99,9,99999,9,99,9,99,9","10091,1,99999,9",,,,"MET064METAR GVBA 051900Z 31005KT 9999 FEW015 BKN100 29/24 Q1009 NOSIG;",
"08594499999","2010-09-06T08:00:00","4","16.136531","-22.888897","21.03","BOA VISTA RABIL, CV","FM-15","GVBA ","V020","130,1,N,0021,1","99999,9,9,Y","009900,1,N,1","+0250,1","+0240,1","99999,9",,,,,"10119,1,99999,9",,,,"MET051METAR GVBA 060800Z 13004KT CAVOK 25/24 Q1012 NOSIG;",
"08594499999","2010-09-06T09:00:00","4","16.136531","-22.888897","21.03","BOA VISTA RABIL, CV","FM-15","GVBA ","V020","999,9,V,0010,1","99999,9,9,Y","009900,1,N,1","+0270,1","+0240,1","99999,9",,,,,"10119,1,99999,9",,,,"MET051METAR GVBA 060900Z VRB02KT CAVOK 27/24 Q1012 NOSIG;",
"08594499999","2010-09-06T10:00:00","4","16.136531","-22.888897","21.03","BOA VISTA RABIL, CV","FM-15","GVBA ","V020","999,9,V,0010,1","03000,1,C,N","011265,1,N,1","+0290,1","+0240,1","99999,9","04,5,+00450,1,99,9","07,5,+03000,1,99,9",,"07,99,1,99,9,99,9,99999,9,99,9,99,9","10129,1,99999,9",,,,"MET064METAR GVBA 061000Z VRB02KT 9999 SCT015 BKN100 29/24 Q1013 NOSIG;",
"08594499999","2010-09-06T12:00:00","4","16.136531","-22.888897","21.03","BOA VISTA RABIL, CV","FM-15","GVBA ","V020","280,1,N,0026,1","00450,1,C,N","011265,1,N,1","+0300,1","+0240,1","99999,9","07,5,+00450,1,99,9","04,5,+06000,1,99,9",,,"10129,1,99999,9",,,,"MET064METAR GVBA 061200Z 28005KT 9999 BKN015 SCT200 30/24 Q1013 NOSIG;","Q01+000042SCOTCV"
"08594499999","2010-09-06T13:00:00","4","16.136531","-22.888897","21.03","BOA VISTA RABIL, CV","FM-15","GVBA ","V020","300,1,N,0026,1","00450,1,C,N","011265,1,N,1","+0310,1","+0240,1","99999,9","02,5,+00390,1,99,9","07,5,+00450,1,99,9","07,5,+06000,1,99,9","07,99,1,99,9,99,9,99999,9,99,9,99,9","10129,1,99999,9",,,,"MET071METAR GVBA 061300Z 30005KT 9999 FEW013 BKN015 BKN200 31/24 Q1013 NOSIG;",
"08594499999","2010-09-06T14:00:00","4","16.136531","-22.888897","21.03","BOA VISTA RABIL, CV","FM-15","GVBA ","V020","310,1,N,0026,1","00420,1,C,N","011265,1,N,1","+0300,1","+0240,1","99999,9","07,5,+00420,1,99,9","07,5,+06000,1,99,9",,"07,99,1,99,9,99,9,99999,9,99,9,99,9","10119,1,99999,9",,,,"MET072METAR GVBA 061400Z 31005KT 290V350 9999 BKN014 BKN200 30/24 Q1012 NOSIG;",
"08594499999","2010-09-06T15:00:00","4","16.136531","-22.888897","21.03","BOA VISTA RABIL, CV","FM-15","GVBA ","V020","020,1,N,0036,1","00420,1,C,N","011265,1,N,1","+0300,1","+0230,1","99999,9","07,5,+00420,1,99,9","07,5,+03000,1,99,9",,"07,99,1,99,9,99,9,99999,9,99,9,99,9","10119,1,99999,9",,,,"MET064METAR GVBA 061500Z 02007KT 9999 BKN014 BKN100 30/23 Q1012 NOSIG;",
"08594499999","2010-09-06T17:00:00","4","16.136531","-22.888897","21.03","BOA VISTA RABIL, CV","FM-15","GVBA ","V020","030,1,N,0031,1","00420,1,C,N","011265,1,N,1","+0280,1","+0250,1","99999,9","07,5,+00420,1,99,9","07,5,+00480,1,99,9",,"07,99,1,99,9,99,9,99999,9,99,9,99,9","10119,1,99999,9","51,1","61,1",,"MET070METAR GVBA 061700Z 03006KT 9999 -RADZ BKN014 BKN016 28/25 Q1012 NOSIG;",
"08594499999","2010-09-06T18:00:00","4","16.136531","-22.888897","21.03","BOA VISTA RABIL, CV","FM-15","GVBA ","V020","280,1,N,0021,1","99999,9,C,N","011265,1,N,1","+0270,1","+0250,1","99999,9","02,5,+00420,1,99,9","04,5,+03000,1,99,9",,"04,99,1,99,9,99,9,99999,9,99,9,99,9","10119,1,99999,9",,,,"MET069METAR GVBA 061800Z 28004KT 9999 FEW014 SCT100 27/25 Q1012 RERA NOSIG;","P01 030003SCOCIG"
"08594499999","2010-09-06T19:00:00","4","16.136531","-22.888897","21.03","BOA VISTA RABIL, CV","FM-15","GVBA ","V020","280,1,N,0021,1","06000,1,C,N","011265,1,N,1","+0280,1","+0250,1","99999,9","02,5,+00420,1,99,9","07,5,+06000,1,99,9",,"07,99,1,99,9,99,9,99999,9,99,9,99,9","10119,1,99999,9",,,,"MET064METAR GVBA 061900Z 28004KT 9999 FEW014 BKN200 28/25 Q1012 NOSIG;",
"08594499999","2010-09-07T08:00:00","4","16.136531","-22.888897","21.03","BOA VISTA RABIL, CV","FM-15","GVBA ","V020","020,1,N,0021,1","06000,1,C,N","011265,1,N,1","+0260,1","+0240,1","99999,9","02,5,+00390,1,99,9","07,5,+06000,1,99,9",,"07,99,1,99,9,99,9,99999,9,99,9,99,9","10119,1,99999,9",,,,"MET064METAR GVBA 070800Z 02004KT 9999 FEW013 BKN200 26/24 Q1012 NOSIG;",
"08594499999","2010-09-07T09:00:00","4","16.136531","-22.888897","21.03","BOA VISTA RABIL, CV","FM-15","GVBA ","V020","360,1,N,0041,1","06000,1,C,N","011265,1,N,1","+0280,1","+0250,1","99999,9","02,5,+00420,1,99,9","07,5,+06000,1,99,9",,"07,99,1,99,9,99,9,99999,9,99,9,99,9","10129,1,99999,9",,,,"MET064METAR GVBA 070900Z 36008KT 9999 FEW014 BKN200 28/25 Q1013 NOSIG;",
"08594499999","2010-09-07T10:00:00","4","16.136531","-22.888897","21.03","BOA VISTA RABIL, CV","FM-15","GVBA ","V020","010,1,N,0051,1","06000,1,C,N","011265,1,N,1","+0290,1","+0250,1","99999,9","04,5,+00420,1,99,9","07,5,+06000,1,99,9",,"07,99,1,99,9,99,9,99999,9,99,9,99,9","10129,1,99999,9",,,,"MET064METAR GVBA 071000Z 01010KT 9999 SCT014 BKN200 29/25 Q1013 NOSIG;",
"08594499999","2010-09-07T11:00:00","4","16.136531","-22.888897","21.03","BOA VISTA RABIL, CV","FM-15","GVBA ","V020","010,1,N,0051,1","00450,1,C,N","011265,1,N,1","+0290,1","+0250,1","99999,9","07,5,+00450,1,99,9","07,5,+03000,1,99,9",,"07,99,1,99,9,99,9,99999,9,99,9,99,9","10139,1,99999,9",,,,"MET064METAR GVBA 071100Z 01010KT 9999 BKN015 BKN100 29/25 Q1014 NOSIG;",
"08594499999","2010-09-07T14:00:00","4","16.136531","-22.888897","21.03","BOA VISTA RABIL, CV","FM-15","GVBA ","V020","350,1,N,0036,1","00420,1,C,N","011265,1,N,1","+0260,1","+0240,1","99999,9","02,5,+00360,1,99,9","04,5,+00420,1,99,9","07,5,+03000,1,99,9","07,99,1,99,9,99,9,99999,9,99,9,99,9","10119,1,99999,9",,,,"MET071METAR GVBA 071400Z 35007KT 9999 FEW012 SCT014 BKN100 26/24 Q1012 NOSIG;",
"08594499999","2010-09-07T15:00:00","4","16.136531","-22.888897","21.03","BOA VISTA RABIL, CV","FM-15","GVBA ","V020","350,1,N,0031,1","03000,1,C,N","011265,1,N,1","+0280,1","+0240,1","99999,9","02,5,+00420,1,99,9","07,5,+03000,1,99,9",,"07,99,1,99,9,99,9,99999,9,99,9,99,9","10108,1,99999,9",,,,"MET064METAR GVBA 071500Z 35006KT 9999 FEW014 BKN100 28/24 Q1011 NOSIG;",
"08594499999","2010-09-07T16:00:00","4","16.136531","-22.888897","21.03","BOA VISTA RABIL, CV","FM-15","GVBA ","V020","340,1,N,0041,1","03000,1,C,N","011265,1,N,1","+0280,1","+0240,1","99999,9","02,5,+00420,1,99,9","07,5,+03000,1,99,9",,"07,99,1,99,9,99,9,99999,9,99,9,99,9","10102,1,99999,9",,,,"MET064METAR GVBA 071600Z 34008KT 9999 FEW014 BKN100 28/24 Q1010 NOSIG;",
"08594499999","2010-09-07T17:00:00","4","16.136531","-22.888897","21.03","BOA VISTA RABIL, CV","FM-15","GVBA ","V020","320,1,N,0041,1","03000,1,C,N","011265,1,N,1","+0280,1","+0250,1","99999,9","02,5,+00450,1,99,9","07,5,+03000,1,99,9",,"07,99,1,99,9,99,9,99999,9,99,9,99,9","10091,1,99999,9",,,,"MET064METAR GVBA 071700Z 32008KT 9999 FEW015 BKN100 28/25 Q1009 NOSIG;",
"08594499999","2010-09-07T18:00:00","4","16.136531","-22.888897","21.03","BOA VISTA RABIL, CV","FM-15","GVBA ","V020","360,1,N,0051,1","03000,1,C,N","011265,1,N,1","+0280,1","+0250,1","99999,9","04,5,+00450,1,99,9","07,5,+03000,1,99,9",,"07,99,1,99,9,99,9,99999,9,99,9,99,9","10102,1,99999,9",,,,"MET064METAR GVBA 071800Z 36010KT 9999 SCT015 BKN100 28/25 Q1010 NOSIG;",
"08594499999","2010-09-07T19:00:00","4","16.136531","-22.888897","21.03","BOA VISTA RABIL, CV","FM-15","GVBA ","V020","020,1,N,0062,1","00450,1,C,N","011265,1,N,1","+0270,1","+0250,1","99999,9","07,5,+00450,1,99,9","07,5,+03000,1,99,9",,"07,99,1,99,9,99,9,99999,9,99,9,99,9","10102,1,99999,9",,,,"MET069METAR GVBA 071900Z 02012KT 9999 BKN015 BKN100 27/25 Q1010 RERA NOSIG;",
"08594499999","2010-09-08T08:00:00","4","16.136531","-22.888897","21.03","BOA VISTA RABIL, CV","FM-15","GVBA ","V020","050,1,N,0051,1","00480,1,C,N","011265,1,N,1","+0260,1","+0250,1","99999,9","04,5,+00390,1,99,9","07,5,+00480,1,99,9","07,5,+02700,1,99,9","07,99,1,99,9,99,9,99999,9,99,9,99,9","10102,1,99999,9",,,,"MET076METAR GVBA 080800Z 05010KT 9999 SCT013 BKN016 BKN090 26/25 Q1010 RERA NOSIG;",
"08594499999","2010-09-08T09:00:00","4","16.136531","-22.888897","21.03","BOA VISTA RABIL, CV","FM-15","GVBA ","V020","050,1,N,0062,1","00480,1,C,N","011265,1,N,1","+0270,1","+0250,1","99999,9","02,5,+00390,1,99,9","04,5,+00480,1,99,9","07,5,+02700,1,99,9","07,99,1,99,9,99,9,99999,9,99,9,99,9","10102,1,99999,9",,,,"MET076METAR GVBA 080900Z 05012KT 9999 FEW013 SCT016 BKN090 27/25 Q1010 RERA NOSIG;",
"08594499999","2010-09-08T10:00:00","4","16.136531","-22.888897","21.03","BOA VISTA RABIL, CV","FM-15","GVBA ","V020","060,1,N,0077,1","00480,1,C,N","011265,1,N,1","+0280,1","+0250,1","99999,9","02,5,+00390,1,99,9","04,5,+00480,1,99,9","07,5,+02700,1,99,9","07,99,1,99,9,99,9,99999,9,99,9,99,9","10108,1,99999,9",,,,"MET071METAR GVBA 081000Z 06015KT 9999 FEW013 SCT016 BKN090 28/25 Q1011 NOSIG;",
"08594499999","2010-09-08T11:00:00","4","16.136531","-22.888897","21.03","BOA VISTA RABIL, CV","FM-15","GVBA ","V020","060,1,N,0072,1","00450,1,C,N","011265,1,N,1","+0290,1","+0250,1","99999,9","07,5,+00450,1,99,9","07,5,+02700,1,99,9",,"07,99,1,99,9,99,9,99999,9,99,9,99,9","10108,1,99999,9",,,,"MET064METAR GVBA 081100Z 06014KT 9999 BKN015 BKN090 29/25 Q1011 NOSIG;",
"08594499999","2010-09-08T12:00:00","4","16.136531","-22.888897","21.03","BOA VISTA RABIL, CV","FM-15","GVBA ","V020","070,1,N,0072,1","00450,1,C,N","011265,1,N,1","+0300,1","+0250,1","99999,9","07,5,+00450,1,99,9","04,5,+02700,1,99,9",,,"10108,1,99999,9",,,,"MET064METAR GVBA 081200Z 07014KT 9999 BKN015 SCT090 30/25 Q1011 NOSIG;","Q01+000042SCOTCV"
"08594499999","2010-09-08T17:00:00","4","16.136531","-22.888897","21.03","BOA VISTA RABIL, CV","FM-15","GVBA ","V020","070,1,N,0041,1","00450,1,C,N","011265,1,N,1","+0240,1","+0220,1","99999,9","02,5,+00360,1,99,9","07,5,+00450,1,99,9","07,5,+02700,1,99,9","07,99,1,99,9,99,9,99999,9,99,9,99,9","10081,1,99999,9",,,,"MET071METAR GVBA 081700Z 07008KT 9999 FEW012 BKN015 BKN090 24/22 Q1008 NOSIG;",
"08594499999","2010-09-08T18:00:00","4","16.136531","-22.888897","21.03","BOA VISTA RABIL, CV","FM-15","GVBA ","V020","080,1,N,0041,1","00450,1,C,N","011265,1,N,1","+0250,1","+0230,1","99999,9","02,5,+00360,1,99,9","07,5,+00450,1,99,9","07,5,+02700,1,99,9","07,99,1,99,9,99,9,99999,9,99,9,99,9","10091,1,99999,9",,,,"MET071METAR GVBA 081800Z 08008KT 9999 FEW012 BKN015 BKN090 25/23 Q1009 NOSIG;",
"08594499999","2010-09-08T19:00:00","4","16.136531","-22.888897","21.03","BOA VISTA RABIL, CV","FM-15","GVBA ","V020","080,1,N,0046,1","00450,1,C,N","011265,1,N,1","+0260,1","+0230,1","99999,9","02,5,+00360,1,99,9","07,5,+00450,1,99,9","07,5,+02700,1,99,9","07,99,1,99,9,99,9,99999,9,99,9,99,9","10081,1,99999,9",,,,"MET071METAR GVBA 081900Z 08009KT 9999 FEW012 BKN015 BKN090 26/23 Q1008 NOSIG;",
"08594499999","2010-09-09T08:00:00","4","16.136531","-22.888897","21.03","BOA VISTA RABIL, CV","FM-15","GVBA ","V020","090,1,N,0051,1","99999,9,C,N","011265,1,N,1","+0260,1","+0240,1","99999,9","02,5,+00330,1,02,1","04,5,+00360,1,99,9",,"04,99,1,99,9,99,9,99999,9,99,9,99,9","10102,1,99999,9",,,,"MET067METAR GVBA 090800Z 09010KT 9999 FEW011TCU SCT012 26/24 Q1010 NOSIG;","P01 003603SCOCIG"
"08594499999","2010-09-09T09:00:00","4","16.136531","-22.888897","21.03","BOA VISTA RABIL, CV","FM-15","GVBA ","V020","090,1,N,0051,1","99999,9,C,N","011265,1,N,1","+0260,1","+0250,1","99999,9","02,5,+00330,1,02,1","04,5,+00360,1,99,9",,"04,99,1,99,9,99,9,99999,9,99,9,99,9","10102,1,99999,9",,,,"MET067METAR GVBA 090900Z 09010KT 9999 FEW011TCU SCT012 26/25 Q1010 NOSIG;","P01 003603SCOCIG"
"08594499999","2010-09-09T10:00:00","4","16.136531","-22.888897","21.03","BOA VISTA RABIL, CV","FM-15","GVBA ","V020","120,1,N,0067,1","22000,1,9,N","011265,1,N,1","+0270,1","+0240,1","99999,9","04,5,+00420,1,99,9",,,"04,99,1,99,9,99,9,99999,9,99,9,99,9","10108,1,99999,9",,,,"MET057METAR GVBA 091000Z 12013KT 9999 SCT014 27/24 Q1011 NOSIG;",
"08594499999","2010-09-09T11:00:00","4","16.136531","-22.888897","21.03","BOA VISTA RABIL, CV","FM-15","GVBA ","V020","110,1,N,0082,1","22000,1,9,N","011265,1,N,1","+0290,1","+0230,1","99999,9","02,5,+00420,1,99,9",,,"02,99,1,99,9,99,9,99999,9,99,9,99,9","10108,1,99999,9",,,,"MET057METAR GVBA 091100Z 11016KT 9999 FEW014 29/23 Q1011 NOSIG;",
"08594499999","2010-09-09T12:00:00","4","16.136531","-22.888897","21.03","BOA VISTA RABIL, CV","FM-15","GVBA ","V020","110,1,N,0077,1","22000,1,9,N","011265,1,N,1","+0300,1","+0240,1","99999,9","04,5,+00450,1,99,9",,,"04,99,1,99,9,99,9,99999,9,99,9,99,9","10108,1,99999,9",,,,"MET057METAR GVBA 091200Z 11015KT 9999 SCT015 30/24 Q1011 NOSIG;",
"08594499999","2010-09-09T13:00:00","4","16.136531","-22.888897","21.03","BOA VISTA RABIL, CV","FM-15","GVBA ","V020","120,1,N,0082,1","00450,1,C,N","011265,1,N,1","+0310,1","+0240,1","99999,9","07,5,+00450,1,99,9",,,"07,99,1,99,9,99,9,99999,9,99,9,99,9","10108,1,99999,9",,,,"MET057METAR GVBA 091300Z 12016KT 9999 BKN015 31/24 Q1011 NOSIG;",
"08594499999","2010-09-09T14:00:00","4","16.136531","-22.888897","21.03","BOA VISTA RABIL, CV","FM-15","GVBA ","V020","140,1,N,0077,1","00450,1,C,N","011265,1,N,1","+0310,1","+0240,1","99999,9","07,5,+00450,1,99,9",,,"07,99,1,99,9,99,9,99999,9,99,9,99,9","10108,1,99999,9",,,,"MET057METAR GVBA 091400Z 14015KT 9999 BKN015 31/24 Q1011 NOSIG;",
"08594499999","2010-09-09T15:00:00","4","16.136531","-22.888897","21.03","BOA VISTA RABIL, CV","FM-15","GVBA ","V020","140,1,N,0093,1","00450,1,C,N","011265,1,N,1","+0310,1","+0240,1","99999,9","07,5,+00450,1,99,9",,,"07,99,1,99,9,99,9,99999,9,99,9,99,9","10108,1,99999,9",,,,"MET057METAR GVBA 091500Z 14018KT 9999 BKN015 31/24 Q1011 NOSIG;",
"08594499999","2010-09-09T16:00:00","4","16.136531","-22.888897","21.03","BOA VISTA RABIL, CV","FM-15","GVBA ","V020","150,1,N,0093,1","00450,1,C,N","011265,1,N,1","+0310,1","+0240,1","99999,9","07,5,+00450,1,99,9",,,"07,99,1,99,9,99,9,99999,9,99,9,99,9","10102,1,99999,9",,,,"MET057METAR GVBA 091600Z 15018KT 9999 BKN015 31/24 Q1010 NOSIG;",
"08594499999","2010-09-09T17:00:00","4","16.136531","-22.888897","21.03","BOA VISTA RABIL, CV","FM-15","GVBA ","V020","150,1,N,0093,1","00450,1,C,N","011265,1,N,1","+0300,1","+0240,1","99999,9","07,5,+00450,1,99,9",,,"07,99,1,99,9,99,9,99999,9,99,9,99,9","10091,1,99999,9",,,,"MET057METAR GVBA 091700Z 15018KT 9999 BKN015 30/24 Q1009 NOSIG;",
"08594499999","2010-09-09T18:00:00","4","16.136531","-22.888897","21.03","BOA VISTA RABIL, CV","FM-15","GVBA ","V020","150,1,N,0077,1","00450,1,C,N","011265,1,N,1","+0290,1","+0250,1","99999,9","07,5,+00450,1,02,1",,,"07,99,1,99,9,99,9,99999,9,99,9,99,9","10102,1,99999,9",,,,"MET060METAR GVBA 091800Z 15015KT 9999 BKN015TCU 29/25 Q1010 NOSIG;",
"08594499999","2010-09-09T19:00:00","4","16.136531","-22.888897","21.03","BOA VISTA RABIL, CV","FM-15","GVBA ","V020","160,1,N,0077,1","00450,1,C,N","011265,1,N,1","+0290,1","+0240,1","99999,9","07,5,+00450,1,99,9",,,"07,99,1,99,9,99,9,99999,9,99,9,99,9","10102,1,99999,9",,,,"MET057METAR GVBA 091900Z 16015KT 9999 BKN015 29/24 Q1010 NOSIG;",
"08594499999","2010-09-10T08:00:00","4","16.136531","-22.888897","21.03","BOA VISTA RABIL, CV","FM-15","GVBA ","V020","140,1,N,0036,1","02700,1,C,N","011265,1,N,1","+0260,1","+0250,1","99999,9","02,5,+00390,1,02,1","07,5,+02700,1,99,9",,"07,99,1,99,9,99,9,99999,9,99,9,99,9","10139,1,99999,9",,,,"MET067METAR GVBA 100800Z 14007KT 9999 FEW013TCU BKN090 26/25 Q1014 NOSIG;",
"08594499999","2010-09-10T09:00:00","4","16.136531","-22.888897","21.03","BOA VISTA RABIL, CV","FM-15","GVBA ","V020","140,1,N,0041,1","99999,9,C,N","011265,1,N,1","+0280,1","+0250,1","99999,9","02,5,+00420,1,02,1","04,5,+06000,1,99,9",,"04,99,1,99,9,99,9,99999,9,99,9,99,9","10139,1,99999,9",,,,"MET067METAR GVBA 100900Z 14008KT 9999 FEW014TCU SCT200 28/25 Q1014 NOSIG;","P01 060003SCOCIG"
"08594499999","2010-09-10T10:00:00","4","16.136531","-22.888897","21.03","BOA VISTA RABIL, CV","FM-15","GVBA ","V020","150,1,N,0041,1","99999,9,C,N","011265,1,N,1","+0290,1","+0240,1","99999,9","04,5,+00450,1,99,9","04,5,+06000,1,99,9",,"04,99,1,99,9,99,9,99999,9,99,9,99,9","10149,1,99999,9",,,,"MET064METAR GVBA 101000Z 15008KT 9999 SCT015 SCT200 29/24 Q1015 NOSIG;","P01 060003SCOCIG"
"08594499999","2010-09-10T11:00:00","4","16.136531","-22.888897","21.03","BOA VISTA RABIL, CV","FM-15","GVBA ","V020","150,1,N,0036,1","00450,1,C,N","011265,1,N,1","+0300,1","+0240,1","99999,9","07,5,+00450,1,99,9","04,5,+06000,1,99,9",,,"10149,1,99999,9",,,,"MET064METAR GVBA 101100Z 15007KT 9999 BKN015 SCT200 30/24 Q1015 NOSIG;","Q01+000042SCOTCV"
"08594499999","2010-09-10T12:00:00","4","16.136531","-22.888897","21.03","BOA VISTA RABIL, CV","FM-15","GVBA ","V020","160,1,N,0041,1","00450,1,C,N","011265,1,N,1","+0320,1","+0240,1","99999,9","07,5,+00450,1,99,9","04,5,+06000,1,99,9",,,"10149,1,99999,9",,,,"MET064METAR GVBA 101200Z 16008KT 9999 BKN015 SCT200 32/24 Q1015 NOSIG;","Q01+000042SCOTCV"
"08594499999","2010-09-10T13:00:00","4","16.136531","-22.888897","21.03","BOA VISTA RABIL, CV","FM-15","GVBA ","V020","170,1,N,0041,1","00450,1,C,N","011265,1,N,1","+0310,1","+0240,1","99999,9","07,5,+00450,1,99,9","07,5,+06000,1,99,9",,"07,99,1,99,9,99,9,99999,9,99,9,99,9","10139,1,99999,9",,,,"MET064METAR GVBA 101300Z 17008KT 9999 BKN015 BKN200 31/24 Q1014 NOSIG;",
"08594499999","2010-09-10T14:00:00","4","16.136531","-22.888897","21.03","BOA VISTA RABIL, CV","FM-15","GVBA ","V020","150,1,N,0041,1","00450,1,C,N","011265,1,N,1","+0320,1","+0240,1","99999,9","07,5,+00450,1,99,9","07,5,+06000,1,99,9",,"07,99,1,99,9,99,9,99999,9,99,9,99,9","10129,1,99999,9",,,,"MET064METAR GVBA 101400Z 15008KT 9999 BKN015 BKN200 32/24 Q1013 NOSIG;",
"08594499999","2010-09-10T15:00:00","4","16.136531","-22.888897","21.03","BOA VISTA RABIL, CV","FM-15","GVBA ","V020","150,1,N,0031,1","00450,1,C,N","011265,1,N,1","+0320,1","+0230,1","99999,9","07,5,+00450,1,99,9","07,5,+06000,1,99,9",,"07,99,1,99,9,99,9,99999,9,99,9,99,9","10119,1,99999,9",,,,"MET064METAR GVBA 101500Z 15006KT 9999 BKN015 BKN200 32/23 Q1012 NOSIG;",
"08594499999","2010-09-10T16:00:00","4","16.136531","-22.888897","21.03","BOA VISTA RABIL, CV","FM-15","GVBA ","V020","170,1,N,0041,1","06000,1,C,N","011265,1,N,1","+0320,1","+0240,1","99999,9","04,5,+00450,1,99,9","07,5,+06000,1,99,9",,"07,99,1,99,9,99,9,99999,9,99,9,99,9","10119,1,99999,9",,,,"MET064METAR GVBA 101600Z 17008KT 9999 SCT015 BKN200 32/24 Q1012 NOSIG;",
"08594499999","2010-09-10T17:00:00","4","16.136531","-22.888897","21.03","BOA VISTA RABIL, CV","FM-15","GVBA ","V020","170,1,N,0021,1","06000,1,C,N","011265,1,N,1","+0320,1","+0230,1","99999,9","04,5,+00450,1,99,9","07,5,+06000,1,99,9",,"07,99,1,99,9,99,9,99999,9,99,9,99,9","10119,1,99999,9",,,,"MET064METAR GVBA 101700Z 17004KT 9999 SCT015 BKN200 32/23 Q1012 NOSIG;",
"08594499999","2010-09-10T18:00:00","4","16.136531","-22.888897","21.03","BOA VISTA RABIL, CV","FM-15","GVBA ","V020","250,1,N,0041,1","99999,9,C,N","011265,1,N,1","+0310,1","+0240,1","99999,9","04,5,+00450,1,99,9","04,5,+06000,1,99,9",,"04,99,1,99,9,99,9,99999,9,99,9,99,9","10119,1,99999,9",,,,"MET064METAR GVBA 101800Z 25008KT 9999 SCT015 SCT200 31/24 Q1012 NOSIG;","P01 060003SCOCIG"
"08594499999","2010-09-10T19:00:00","4","16.136531","-22.888897","21.03","BOA VISTA RABIL, CV","FM-15","GVBA ","V020","020,1,N,0046,1","00450,1,C,N","011265,1,N,1","+0290,1","+0250,1","99999,9","07,5,+00450,1,99,9","04,5,+06000,1,99,9",,,"10129,1,99999,9",,,,"MET064METAR GVBA 101900Z 02009KT 9999 BKN015 SCT200 29/25 Q1013 NOSIG;","Q01+000042SCOTCV"
"08594499999","2010-09-11T07:00:00","4","16.136531","-22.888897","21.03","BOA VISTA RABIL, CV","FM-15","GVBA ","V020","020,1,N,0031,1","22000,1,9,N","011265,1,N,1","+0260,1","+0250,1","99999,9","04,5,+00360,1,99,9",,,"04,99,1,99,9,99,9,99999,9,99,9,99,9","10129,1,99999,9",,,,"MET057METAR GVBA 110700Z 02006KT 9999 SCT012 26/25 Q1013 NOSIG;",
"08594499999","2010-09-11T08:00:00","4","16.136531","-22.888897","21.03","BOA VISTA RABIL, CV","FM-15","GVBA ","V020","030,1,N,0041,1","22000,1,9,N","011265,1,N,1","+0260,1","+0250,1","99999,9","04,5,+00360,1,99,9",,,"04,99,1,99,9,99,9,99999,9,99,9,99,9","10129,1,99999,9",,,,"MET057METAR GVBA 110800Z 03008KT 9999 SCT012 26/25 Q1013 NOSIG;",
"08594499999","2010-09-11T09:00:00","4","16.136531","-22.888897","21.03","BOA VISTA RABIL, CV","FM-15","GVBA ","V020","040,1,N,0062,1","22000,1,9,N","011265,1,N,1","+0280,1","+0250,1","99999,9","04,5,+00390,1,99,9",,,"04,99,1,99,9,99,9,99999,9,99,9,99,9","10129,1,99999,9",,,,"MET057METAR GVBA 110900Z 04012KT 9999 SCT013 28/25 Q1013 NOSIG;",
"08594499999","2010-09-11T10:00:00","4","16.136531","-22.888897","21.03","BOA VISTA RABIL, CV","FM-15","GVBA ","V020","040,1,N,0067,1","22000,1,9,N","011265,1,N,1","+0290,1","+0250,1","99999,9","02,5,+00420,1,99,9",,,"02,99,1,99,9,99,9,99999,9,99,9,99,9","10129,1,99999,9",,,,"MET057METAR GVBA 111000Z 04013KT 9999 FEW014 29/25 Q1013 NOSIG;",
"08594499999","2010-09-11T11:00:00","4","16.136531","-22.888897","21.03","BOA VISTA RABIL, CV","FM-15","GVBA ","V020","030,1,N,0067,1","22000,1,9,N","011265,1,N,1","+0300,1","+0250,1","99999,9","02,5,+00420,1,99,9",,,"02,99,1,99,9,99,9,99999,9,99,9,99,9","10129,1,99999,9",,,,"MET057METAR GVBA 111100Z 03013KT 9999 FEW014 30/25 Q1013 NOSIG;",
"08594499999","2010-09-11T12:00:00","4","16.136531","-22.888897","21.03","BOA VISTA RABIL, CV","FM-15","GVBA ","V020","030,1,N,0067,1","22000,1,9,N","011265,1,N,1","+0310,1","+0240,1","99999,9","02,5,+00420,1,99,9",,,"02,99,1,99,9,99,9,99999,9,99,9,99,9","10129,1,99999,9",,,,"MET057METAR GVBA 111200Z 03013KT 9999 FEW014 31/24 Q1013 NOSIG;",
"08594499999","2010-09-11T13:00:00","4","16.136531","-22.888897","21.03","BOA VISTA RABIL, CV","FM-15","GVBA ","V020","030,1,N,0082,1","22000,1,9,N","011265,1,N,1","+0310,1","+0240,1","99999,9","04,5,+00450,1,99,9",,,"04,99,1,99,9,99,9,99999,9,99,9,99,9","10129,1,99999,9",,,,"MET057METAR GVBA 111300Z 03016KT 9999 SCT015 31/24 Q1013 NOSIG;",
"08594499999","2010-09-11T14:00:00","4","16.136531","-22.888897","21.03","BOA VISTA RABIL, CV","FM-15","GVBA ","V020","030,1,N,0093,1","00450,1,C,N","011265,1,N,1","+0310,1","+0240,1","99999,9","07,5,+00450,1,99,9",,,"07,99,1,99,9,99,9,99999,9,99,9,99,9","10119,1,99999,9",,,,"MET057METAR GVBA 111400Z 03018KT 9999 BKN015 31/24 Q1012 NOSIG;",
"08594499999","2010-09-11T15:00:00","4","16.136531","-22.888897","21.03","BOA VISTA RABIL, CV","FM-15","GVBA ","V020","030,1,N,0082,1","00450,1,C,N","011265,1,N,1","+0300,1","+0240,1","99999,9","07,5,+00450,1,99,9",,,"07,99,1,99,9,99,9,99999,9,99,9,99,9","10119,1,99999,9",,,,"MET057METAR GVBA 111500Z 03016KT 9999 BKN015 30/24 Q1012 NOSIG;",
"08594499999","2010-09-11T16:00:00","4","16.136531","-22.888897","21.03","BOA VISTA RABIL, CV","FM-15","GVBA ","V020","020,1,N,0082,1","00450,1,C,N","011265,1,N,1","+0300,1","+0240,1","99999,9","07,5,+00450,1,99,9",,,"07,99,1,99,9,99,9,99999,9,99,9,99,9","10108,1,99999,9",,,,"MET057METAR GVBA 111600Z 02016KT 9999 BKN015 30/24 Q1011 NOSIG;",
"08594499999","2010-09-11T17:00:00","4","16.136531","-22.888897","21.03","BOA VISTA RABIL, CV","FM-15","GVBA ","V020","020,1,N,0087,1","00450,1,C,N","011265,1,N,1","+0300,1","+0240,1","99999,9","07,5,+00450,1,99,9",,,"07,99,1,99,9,99,9,99999,9,99,9,99,9","10108,1,99999,9",,,,"MET057METAR GVBA 111700Z 02017KT 9999 BKN015 30/24 Q1011 NOSIG;",
"08594499999","2010-09-11T18:00:00","4","16.136531","-22.888897","21.03","BOA VISTA RABIL, CV","FM-15","GVBA ","V020","020,1,N,0082,1","00450,1,C,N","011265,1,N,1","+0300,1","+0240,1","99999,9","07,5,+00450,1,99,9",,,"07,99,1,99,9,99,9,99999,9,99,9,99,9","10102,1,99999,9",,,,"MET057METAR GVBA 111800Z 02016KT 9999 BKN015 30/24 Q1010 NOSIG;",
"08594499999","2010-09-11T19:00:00","4","16.136531","-22.888897","21.03","BOA VISTA RABIL, CV","FM-15","GVBA ","V020","020,1,N,0082,1","00450,1,C,N","011265,1,N,1","+0280,1","+0230,1","99999,9","07,5,+00450,1,99,9",,,"07,99,1,99,9,99,9,99999,9,99,9,99,9","10108,1,99999,9",,,,"MET057METAR GVBA 111900Z 02016KT 9999 BKN015 28/23 Q1011 NOSIG;",
"08594499999","2010-09-12T08:00:00","4","16.136531","-22.888897","21.03","BOA VISTA RABIL, CV","FM-15","GVBA ","V020","030,1,N,0082,1","99999,9,C,N","011265,1,N,1","+0260,1","+0230,1","99999,9","02,5,+00420,1,99,9","04,5,+03000,1,99,9",,"04,99,1,99,9,99,9,99999,9,99,9,99,9","10108,1,99999,9",,,,"MET064METAR GVBA 120800Z 03016KT 9999 FEW014 SCT100 26/23 Q1011 NOSIG;","P01 030003SCOCIG"
"08594499999","2010-09-12T09:00:00","4","16.136531","-22.888897","21.03","BOA VISTA RABIL, CV","FM-15","GVBA ","V020","030,1,N,0087,1","99999,9,C,N","011265,1,N,1","+0270,1","+0230,1","99999,9","04,5,+00420,1,99,9","04,5,+06000,1,99,9",,"04,99,1,99,9,99,9,99999,9,99,9,99,9","10102,1,99999,9",,,,"MET064METAR GVBA 120900Z 03017KT 9999 SCT014 SCT200 27/23 Q1010 NOSIG;","P01 060003SCOCIG"
"08594499999","2010-09-12T12:00:00","4","16.136531","-22.888897","21.03","BOA VISTA RABIL, CV","FM-15","GVBA ","V020","060,1,N,0072,1","00420,1,C,N","011265,1,N,1","+0280,1","+0240,1","99999,9","07,5,+00420,1,99,9","07,5,+06000,1,99,9",,"07,99,1,99,9,99,9,99999,9,99,9,99,9","10119,1,99999,9",,,,"MET064METAR GVBA 121200Z 06014KT 9999 BKN014 BKN200 28/24 Q1012 NOSIG;",
"08594499999","2010-09-12T13:00:00","4","16.136531","-22.888897","21.03","BOA VISTA RABIL, CV","FM-15","GVBA ","V020","060,1,N,0062,1","00420,1,C,N","008000,1,N,1","+0270,1","+0240,1","99999,9","07,5,+00420,1,99,9","07,5,+02700,1,99,9",,"07,99,1,99,9,99,9,99999,9,99,9,99,9","10108,1,99999,9","61,1",,,"MET068METAR GVBA 121300Z 06012KT 8000 -RA BKN014 BKN090 27/24 Q1011 NOSIG;",
"08594499999","2010-09-12T14:00:00","4","16.136531","-22.888897","21.03","BOA VISTA RABIL, CV","FM-15","GVBA ","V020","060,1,N,0021,1","02700,1,C,N","011265,1,N,1","+0260,1","+0240,1","99999,9","04,5,+00420,1,99,9","07,5,+02700,1,99,9",,"07,99,1,99,9,99,9,99999,9,99,9,99,9","10102,1,99999,9","61,1",,,"MET068METAR GVBA 121400Z 06004KT 9999 -RA SCT014 BKN090 26/24 Q1010 NOSIG;",
"08594499999","2010-09-12T16:00:00","4","16.136531","-22.888897","21.03","BOA VISTA RABIL, CV","FM-15","GVBA ","V020","010,1,N,0062,1","00420,1,C,N","009000,1,N,1","+0270,1","+0250,1","99999,9","07,5,+00420,1,99,9","07,5,+02400,1,99,9",,"07,99,1,99,9,99,9,99999,9,99,9,99,9","10081,1,99999,9",,,,"MET069METAR GVBA 121600Z 01012KT 9000 BKN014 BKN080 27/25 Q1008 RERA NOSIG;",
"08594499999","2010-09-12T17:00:00","4","16.136531","-22.888897","21.03","BOA VISTA RABIL, CV","FM-15","GVBA ","V020","020,1,N,0082,1","00420,1,C,N","009000,1,N,1","+0270,1","+0250,1","99999,9","07,5,+00420,1,99,9","07,5,+02400,1,99,9",,"07,99,1,99,9,99,9,99999,9,99,9,99,9","10081,1,99999,9",,,,"MET069METAR GVBA 121700Z 02016KT 9000 BKN014 BKN080 27/25 Q1008 RERA NOSIG;",
"08594499999","2010-09-12T18:00:00","4","16.136531","-22.888897","21.03","BOA VISTA RABIL, CV","FM-15","GVBA ","V020","010,1,N,0072,1","00420,1,C,N","009000,1,N,1","+0270,1","+0250,1","99999,9","07,5,+00420,1,99,9","07,5,+02400,1,99,9",,"07,99,1,99,9,99,9,99999,9,99,9,99,9","10081,1,99999,9",,,,"MET064METAR GVBA 121800Z 01014KT 9000 BKN014 BKN080 27/25 Q1008 NOSIG;",
"08594499999","2010-09-12T19:00:00","4","16.136531","-22.888897","21.03","BOA VISTA RABIL, CV","FM-15","GVBA ","V020","020,1,N,0067,1","00420,1,C,N","009000,1,N,1","+0270,1","+0250,1","99999,9","07,5,+00420,1,99,9","07,5,+02400,1,99,9",,"07,99,1,99,9,99,9,99999,9,99,9,99,9","10081,1,99999,9",,,,"MET064METAR GVBA 121900Z 02013KT 9000 BKN014 BKN080 27/25 Q1008 NOSIG;",
"08594499999","2010-09-13T08:00:00","4","16.136531","-22.888897","21.03","BOA VISTA RABIL, CV","FM-15","GVBA ","V020","110,1,N,0077,1","00420,1,C,N","011265,1,N,1","+0260,1","+0240,1","99999,9","02,5,+00360,1,99,9","07,5,+00420,1,99,9","07,5,+02700,1,99,9","07,99,1,99,9,99,9,99999,9,99,9,99,9","10071,1,99999,9","61,1",,,"MET075METAR GVBA 130800Z 11015KT 9999 -RA FEW012 BKN014 BKN090 26/24 Q1007 NOSIG;",
"08594499999","2010-09-13T10:00:00","4","16.136531","-22.888897","21.03","BOA VISTA RABIL, CV","FM-15","GVBA ","V020","120,1,N,0087,1","00450,1,C,N","011265,1,N,1","+0280,1","+0240,1","99999,9","07,5,+00450,1,99,9",,,"07,99,1,99,9,99,9,99999,9,99,9,99,9","10091,1,99999,9",,,,"MET057METAR GVBA 131000Z 12017KT 9999 BKN015 28/24 Q1009 NOSIG;",
"08594499999","2010-09-13T11:00:00","4","16.136531","-22.888897","21.03","BOA VISTA RABIL, CV","FM-15","GVBA ","V020","130,1,N,0082,1","00450,1,C,N","006000,1,N,1","+0280,1","+0240,1","99999,9","07,5,+00450,1,99,9",,,"07,99,1,99,9,99,9,99999,9,99,9,99,9","10091,1,99999,9","61,1",,,"MET061METAR GVBA 131100Z 13016KT 6000 -RA BKN015 28/24 Q1009 NOSIG;",
"08594499999","2010-09-13T12:00:00","4","16.136531","-22.888897","21.03","BOA VISTA RABIL, CV","FM-15","GVBA ","V020","120,1,N,0087,1","00450,1,C,N","011265,1,N,1","+0280,1","+0240,1","99999,9","07,5,+00450,1,99,9",,,"07,99,1,99,9,99,9,99999,9,99,9,99,9","10091,1,99999,9",,,,"MET062METAR GVBA 131200Z 12017KT 9999 BKN015 28/24 Q1009 RERA NOSIG;",
"08594499999","2010-09-13T13:00:00","4","16.136531","-22.888897","21.03","BOA VISTA RABIL, CV","FM-15","GVBA ","V020","120,1,N,0087,1","00450,1,C,N","011265,1,N,1","+0300,1","+0240,1","99999,9","07,5,+00450,1,99,9",,,"07,99,1,99,9,99,9,99999,9,99,9,99,9","10091,1,99999,9",,,"0139,1","MET060METAR GVBA 131300Z 12017G27KT 9999 BKN015 30/24 Q1009 NOSIG;",
"08594499999","2010-09-13T14:00:00","4","16.136531","-22.888897","21.03","BOA VISTA RABIL, CV","FM-15","GVBA ","V020","140,1,N,0082,1","00450,1,C,N","011265,1,N,1","+0290,1","+0240,1","99999,9","02,5,+00390,1,99,9","07,5,+00450,1,99,9",,"07,99,1,99,9,99,9,99999,9,99,9,99,9","10091,1,99999,9","51,1",,,"MET068METAR GVBA 131400Z 14016KT 9999 -DZ FEW013 BKN015 29/24 Q1009 NOSIG;",
"08594499999","2010-09-13T15:00:00","4","16.136531","-22.888897","21.03","BOA VISTA RABIL, CV","FM-15","GVBA ","V020","150,1,N,0082,1","00450,1,C,N","011265,1,N,1","+0290,1","+0250,1","99999,9","07,5,+00450,1,99,9",,,"07,99,1,99,9,99,9,99999,9,99,9,99,9","10091,1,99999,9",,,"0134,1","MET065METAR GVBA 131500Z 15016G26KT 9999 BKN015 29/25 Q1009 RERA NOSIG;",
"08594499999","2010-09-13T16:00:00","4","16.136531","-22.888897","21.03","BOA VISTA RABIL, CV","FM-15","GVBA ","V020","140,1,N,0103,1","00450,1,C,N","011265,1,N,1","+0290,1","+0240,1","99999,9","02,5,+00390,1,99,9","07,5,+00450,1,99,9",,"07,99,1,99,9,99,9,99999,9,99,9,99,9","10081,1,99999,9",,,,"MET064METAR GVBA 131600Z 14020KT 9999 FEW013 BKN015 29/24 Q1008 NOSIG;",
"08594499999","2010-09-13T17:00:00","4","16.136531","-22.888897","21.03","BOA VISTA RABIL, CV","FM-15","GVBA ","V020","150,1,N,0093,1","00450,1,C,N","011265,1,N,1","+0290,1","+0240,1","99999,9","07,5,+00450,1,99,9",,,"07,99,1,99,9,99,9,99999,9,99,9,99,9","10081,1,99999,9",,,,"MET057METAR GVBA 131700Z 15018KT 9999 BKN015 29/24 Q1008 NOSIG;",
"08594499999","2010-09-13T18:00:00","4","16.136531","-22.888897","21.03","BOA VISTA RABIL, CV","FM-15","GVBA ","V020","150,1,N,0093,1","00450,1,C,N","011265,1,N,1","+0290,1","+0240,1","99999,9","07,5,+00450,1,99,9",,,"07,99,1,99,9,99,9,99999,9,99,9,99,9","10091,1,99999,9",,,,"MET057METAR GVBA 131800Z 15018KT 9999 BKN015 29/24 Q1009 NOSIG;",
"08594499999","2010-09-14T08:00:00","4","16.136531","-22.888897","21.03","BOA VISTA RABIL, CV","FM-15","GVBA ","V020","140,1,N,0041,1","22000,1,9,N","011265,1,N,1","+0260,1","+0250,1","99999,9","02,5,+00390,1,99,9",,,"02,99,1,99,9,99,9,99999,9,99,9,99,9","10119,1,99999,9",,,,"MET057METAR GVBA 140800Z 14008KT 9999 FEW013 26/25 Q1012 NOSIG;",
"08594499999","2010-09-14T09:00:00","4","16.136531","-22.888897","21.03","BOA VISTA RABIL, CV","FM-15","GVBA ","V020","150,1,N,0051,1","22000,1,9,N","011265,1,N,1","+0280,1","+0250,1","99999,9","04,5,+00390,1,99,9",,,"04,99,1,99,9,99,9,99999,9,99,9,99,9","10119,1,99999,9",,,,"MET057METAR GVBA 140900Z 15010KT 9999 SCT013 28/25 Q1012 NOSIG;",
"08594499999","2010-09-14T10:00:00","4","16.136531","-22.888897","21.03","BOA VISTA RABIL, CV","FM-15","GVBA ","V020","160,1,N,0062,1","00450,1,C,N","011265,1,N,1","+0280,1","+0240,1","99999,9","07,5,+00450,1,99,9",,,"07,99,1,99,9,99,9,99999,9,99,9,99,9","10129,1,99999,9",,,,"MET057METAR GVBA 141000Z 16012KT 9999 BKN015 28/24 Q1013 NOSIG;",
"08594499999","2010-09-14T11:00:00","4","16.136531","-22.888897","21.03","BOA VISTA RABIL, CV","FM-15","GVBA ","V020","150,1,N,0051,1","00450,1,C,N","011265,1,N,1","+0300,1","+0240,1","99999,9","07,5,+00450,1,99,9",,,"07,99,1,99,9,99,9,99999,9,99,9,99,9","10129,1,99999,9",,,,"MET057METAR GVBA 141100Z 15010KT 9999 BKN015 30/24 Q1013 NOSIG;",
"08594499999","2010-09-14T12:00:00","4","16.136531","-22.888897","21.03","BOA VISTA RABIL, CV","FM-15","GVBA ","V020","170,1,N,0051,1","00450,1,C,N","011265,1,N,1","+0300,1","+0240,1","99999,9","07,5,+00450,1,99,9",,,"07,99,1,99,9,99,9,99999,9,99,9,99,9","10129,1,99999,9",,,,"MET057METAR GVBA 141200Z 17010KT 9999 BKN015 30/24 Q1013 NOSIG;",
"08594499999","2010-09-14T13:00:00","4","16.136531","-22.888897","21.03","BOA VISTA RABIL, CV","FM-15","GVBA ","V020","160,1,N,0062,1","00450,1,C,N","011265,1,N,1","+0310,1","+0240,1","99999,9","07,5,+00450,1,99,9",,,"07,99,1,99,9,99,9,99999,9,99,9,99,9","10129,1,99999,9",,,,"MET057METAR GVBA 141300Z 16012KT 9999 BKN015 31/24 Q1013 NOSIG;",
"08594499999","2010-09-14T14:00:00","4","16.136531","-22.888897","21.03","BOA VISTA RABIL, CV","FM-15","GVBA ","V020","160,1,N,0046,1","00450,1,C,N","011265,1,N,1","+0380,1","+0230,1","99999,9","07,5,+00450,1,99,9",,,"07,99,1,99,9,99,9,99999,9,99,9,99,9","10129,1,99999,9",,,,"MET057METAR GVBA 141400Z 16009KT 9999 BKN015 38/23 Q1013 NOSIG;",
"08594499999","2010-09-14T15:00:00","4","16.136531","-22.888897","21.03","BOA VISTA RABIL, CV","FM-15","GVBA ","V020","160,1,N,0051,1","00450,1,C,N","011265,1,N,1","+0380,1","+0230,1","99999,9","07,5,+00450,1,99,9",,,"07,99,1,99,9,99,9,99999,9,99,9,99,9","10119,1,99999,9",,,,"MET057METAR GVBA 141500Z 16010KT 9999 BKN015 38/23 Q1012 NOSIG;",
"08594499999","2010-09-14T16:00:00","4","16.136531","-22.888897","21.03","BOA VISTA RABIL, CV","FM-15","GVBA ","V020","140,1,N,0046,1","00450,1,C,N","011265,1,N,1","+0310,1","+0230,1","99999,9","07,5,+00450,1,99,9",,,"07,99,1,99,9,99,9,99999,9,99,9,99,9","10119,1,99999,9",,,,"MET057METAR GVBA 141600Z 14009KT 9999 BKN015 31/23 Q1012 NOSIG;",
"08594499999","2010-09-14T17:00:00","4","16.136531","-22.888897","21.03","BOA VISTA RABIL, CV","FM-15","GVBA ","V020","160,1,N,0036,1","00450,1,C,N","011265,1,N,1","+0310,1","+0230,1","99999,9","07,5,+00450,1,99,9",,,"07,99,1,99,9,99,9,99999,9,99,9,99,9","10119,1,99999,9",,,,"MET057METAR GVBA 141700Z 16007KT 9999 BKN015 31/23 Q1012 NOSIG;",
"08594499999","2010-09-14T18:00:00","4","16.136531","-22.888897","21.03","BOA VISTA RABIL, CV","FM-15","GVBA ","V020","150,1,N,0041,1","22000,1,9,N","011265,1,N,1","+0310,1","+0230,1","99999,9","02,5,+00450,1,99,9",,,"02,99,1,99,9,99,9,99999,9,99,9,99,9","10119,1,99999,9",,,,"MET057METAR GVBA 141800Z 15008KT 9999 FEW015 31/23 Q1012 NOSIG;",
"08594499999","2010-09-14T19:00:00","4","16.136531","-22.888897","21.03","BOA VISTA RABIL, CV","FM-15","GVBA ","V020","130,1,N,0036,1","22000,1,9,N","011265,1,N,1","+0300,1","+0230,1","99999,9","02,5,+00450,1,99,9",,,"02,99,1,99,9,99,9,99999,9,99,9,99,9","10119,1,99999,9",,,,"MET057METAR GVBA 141900Z 13007KT 9999 FEW015 30/23 Q1012 NOSIG;",
"08594499999","2010-09-15T08:00:00","4","16.136531","-22.888897","21.03","BOA VISTA RABIL, CV","FM-15","GVBA ","V020","030,1,N,0010,1","06000,1,C,N","011265,1,N,1","+0250,1","+0240,1","99999,9","02,5,+00360,1,99,9","07,5,+06000,1,99,9",,"07,99,1,99,9,99,9,99999,9,99,9,99,9","10119,1,99999,9",,,,"MET064METAR GVBA 150800Z 03002KT 9999 FEW012 BKN200 25/24 Q1012 NOSIG;",
"08594499999","2010-09-15T09:00:00","4","16.136531","-22.888897","21.03","BOA VISTA RABIL, CV","FM-15","GVBA ","V020","360,1,N,0021,1","99999,9,C,N","011265,1,N,1","+0270,1","+0260,1","99999,9","02,5,+00360,1,99,9","04,5,+06000,1,99,9",,"04,99,1,99,9,99,9,99999,9,99,9,99,9","10119,1,99999,9",,,,"MET064METAR GVBA 150900Z 36004KT 9999 FEW012 SCT200 27/26 Q1012 NOSIG;","P01 060003SCOCIG"
"08594499999","2010-09-15T10:00:00","4","16.136531","-22.888897","21.03","BOA VISTA RABIL, CV","FM-15","GVBA ","V020","030,1,N,0031,1","00450,1,C,N","011265,1,N,1","+0290,1","+0250,1","99999,9","07,5,+00450,1,99,9",,,"07,99,1,99,9,99,9,99999,9,99,9,99,9","10129,1,99999,9",,,,"MET057METAR GVBA 151000Z 03006KT 9999 BKN015 29/25 Q1013 NOSIG;",
"08594499999","2010-09-15T11:00:00","4","16.136531","-22.888897","21.03","BOA VISTA RABIL, CV","FM-15","GVBA ","V020","030,1,N,0041,1","00450,1,C,N","011265,1,N,1","+0300,1","+0250,1","99999,9","07,5,+00450,1,99,9",,,"07,99,1,99,9,99,9,99999,9,99,9,99,9","10129,1,99999,9",,,,"MET057METAR GVBA 151100Z 03008KT 9999 BKN015 30/25 Q1013 NOSIG;",
"08594499999","2010-09-15T12:00:00","4","16.136531","-22.888897","21.03","BOA VISTA RABIL, CV","FM-15","GVBA ","V020","010,1,N,0036,1","00450,1,C,N","011265,1,N,1","+0310,1","+0250,1","99999,9","07,5,+00450,1,99,9",,,"07,99,1,99,9,99,9,99999,9,99,9,99,9","10129,1,99999,9",,,,"MET057METAR GVBA 151200Z 01007KT 9999 BKN015 31/25 Q1013 NOSIG;",
"08594499999","2010-09-15T13:00:00","4","16.136531","-22.888897","21.03","BOA VISTA RABIL, CV","FM-15","GVBA ","V020","010,1,N,0041,1","22000,1,9,N","011265,1,N,1","+0320,1","+0250,1","99999,9","04,5,+00450,1,99,9",,,"04,99,1,99,9,99,9,99999,9,99,9,99,9","10119,1,99999,9",,,,"MET057METAR GVBA 151300Z 01008KT 9999 SCT015 32/25 Q1012 NOSIG;",
"08594499999","2010-09-15T14:00:00","4","16.136531","-22.888897","21.03","BOA VISTA RABIL, CV","FM-15","GVBA ","V020","040,1,N,0051,1","22000,1,9,N","011265,1,N,1","+0320,1","+0250,1","99999,9","04,5,+00450,1,99,9",,,"04,99,1,99,9,99,9,99999,9,99,9,99,9","10108,1,99999,9",,,,"MET057METAR GVBA 151400Z 04010KT 9999 SCT015 32/25 Q1011 NOSIG;",
"08594499999","2010-09-15T15:00:00","4","16.136531","-22.888897","21.03","BOA VISTA RABIL, CV","FM-15","GVBA ","V020","020,1,N,9999,9","22000,1,9,N","011265,1,N,1","+0320,1","+0240,1","99999,9","02,5,+00450,1,99,9",,,"02,99,1,99,9,99,9,99999,9,99,9,99,9","10108,1,99999,9",,,,"MET058METAR GVBA 151500Z 020080KT 9999 FEW015 32/24 Q1011 NOSIG;","Q01+004123WOSPD "
"08594499999","2010-09-15T16:00:00","4","16.136531","-22.888897","21.03","BOA VISTA RABIL, CV","FM-15","GVBA ","V020","030,1,N,0051,1","22000,1,9,N","011265,1,N,1","+0320,1","+0240,1","99999,9","02,5,+00450,1,99,9",,,"02,99,1,99,9,99,9,99999,9,99,9,99,9","10102,1,99999,9",,,,"MET057METAR GVBA 151600Z 03010KT 9999 FEW015 32/24 Q1010 NOSIG;",
"08594499999","2010-09-15T17:00:00","4","16.136531","-22.888897","21.03","BOA VISTA RABIL, CV","FM-15","GVBA ","V020","350,1,N,0051,1","22000,1,9,N","011265,1,N,1","+0310,1","+0250,1","99999,9","04,5,+00450,1,99,9",,,"04,99,1,99,9,99,9,99999,9,99,9,99,9","10102,1,99999,9",,,,"MET057METAR GVBA 151700Z 35010KT 9999 SCT015 31/25 Q1010 NOSIG;",
"08594499999","2010-09-15T18:00:00","4","16.136531","-22.888897","21.03","BOA VISTA RABIL, CV","FM-15","GVBA ","V020","330,1,N,0041,1","22000,1,9,N","011265,1,N,1","+0290,1","+0250,1","99999,9","04,5,+00450,1,99,9",,,"04,99,1,99,9,99,9,99999,9,99,9,99,9","10102,1,99999,9",,,,"MET057METAR GVBA 151800Z 33008KT 9999 SCT015 29/25 Q1010 NOSIG;",
"08594499999","2010-09-15T19:00:00","4","16.136531","-22.888897","21.03","BOA VISTA RABIL, CV","FM-15","GVBA ","V020","350,1,N,0041,1","22000,1,9,N","011265,1,N,1","+0280,1","+0250,1","99999,9","04,5,+00450,1,99,9",,,"04,99,1,99,9,99,9,99999,9,99,9,99,9","10102,1,99999,9",,,,"MET057METAR GVBA 151900Z 35008KT 9999 SCT015 28/25 Q1010 NOSIG;",
"08594499999","2010-09-16T08:00:00","4","16.136531","-22.888897","21.03","BOA VISTA RABIL, CV","FM-15","GVBA ","V020","360,1,N,0021,1","00450,1,C,N","011265,1,N,1","+0260,1","+0240,1","99999,9","07,5,+00450,1,99,9",,,"07,99,1,99,9,99,9,99999,9,99,9,99,9","10102,1,99999,9",,,,"MET057METAR GVBA 160800Z 36004KT 9999 BKN015 26/24 Q1010 NOSIG;",
"08594499999","2010-09-16T09:00:00","4","16.136531","-22.888897","21.03","BOA VISTA RABIL, CV","FM-15","GVBA ","V020","360,1,N,0036,1","00450,1,C,N","011265,1,N,1","+0270,1","+0240,1","99999,9","07,5,+00450,1,99,9",,,"07,99,1,99,9,99,9,99999,9,99,9,99,9","10102,1,99999,9",,,,"MET057METAR GVBA 160900Z 36007KT 9999 BKN015 27/24 Q1010 NOSIG;",
"08594499999","2010-09-16T10:00:00","4","16.136531","-22.888897","21.03","BOA VISTA RABIL, CV","FM-15","GVBA ","V020","030,1,N,0036,1","22000,1,9,N","011265,1,N,1","+0290,1","+0230,1","99999,9","02,5,+00450,1,99,9",,,"02,99,1,99,9,99,9,99999,9,99,9,99,9","10108,1,99999,9",,,,"MET057METAR GVBA 161000Z 03007KT 9999 FEW015 29/23 Q1011 NOSIG;",
"08594499999","2010-09-16T11:00:00","4","16.136531","-22.888897","21.03","BOA VISTA RABIL, CV","FM-15","GVBA ","V020","340,1,N,0031,1","22000,1,9,N","011265,1,N,1","+0300,1","+0230,1","99999,9","02,5,+00450,1,99,9",,,"02,99,1,99,9,99,9,99999,9,99,9,99,9","10108,1,99999,9",,,,"MET057METAR GVBA 161100Z 34006KT 9999 FEW015 30/23 Q1011 NOSIG;",
"08594499999","2010-09-16T12:00:00","4","16.136531","-22.888897","21.03","BOA VISTA RABIL, CV","FM-15","GVBA ","V020","030,1,N,0031,1","22000,1,9,N","011265,1,N,1","+0310,1","+0230,1","99999,9","02,5,+00450,1,99,9",,,"02,99,1,99,9,99,9,99999,9,99,9,99,9","10108,1,99999,9",,,,"MET057METAR GVBA 161200Z 03006KT 9999 FEW015 31/23 Q1011 NOSIG;",
"08594499999","2010-09-16T14:00:00","4","16.136531","-22.888897","21.03","BOA VISTA RABIL, CV","FM-15","GVBA ","V020","290,1,N,0041,1","99999,9,C,N","011265,1,N,1","+0310,1","+0230,1","99999,9","02,5,+00450,1,99,9","04,5,+06000,1,99,9",,"04,99,1,99,9,99,9,99999,9,99,9,99,9","10102,1,99999,9",,,,"MET072METAR GVBA 161400Z 29008KT 260V320 9999 FEW015 SCT200 31/23 Q1010 NOSIG;","P01 060003SCOCIG"
"08594499999","2010-09-16T16:00:00","4","16.136531","-22.888897","21.03","BOA VISTA RABIL, CV","FM-15","GVBA ","V020","290,1,N,0036,1","22000,1,9,N","011265,1,N,1","+0300,1","+0240,1","99999,9","02,5,+00450,1,99,9",,,"02,99,1,99,9,99,9,99999,9,99,9,99,9","10091,1,99999,9",,,,"MET057METAR GVBA 161600Z 29007KT 9999 FEW015 30/24 Q1009 NOSIG;",
"08594499999","2010-09-16T18:00:00","4","16.136531","-22.888897","21.03","BOA VISTA RABIL, CV","FM-15","GVBA ","V020","310,1,N,0031,1","22000,1,9,N","011265,1,N,1","+0290,1","+0240,1","99999,9","04,5,+00450,1,99,9",,,"04,99,1,99,9,99,9,99999,9,99,9,99,9","10091,1,99999,9",,,,"MET057METAR GVBA 161800Z 31006KT 9999 SCT015 29/24 Q1009 NOSIG;",
"08594499999","2010-09-16T19:00:00","4","16.136531","-22.888897","21.03","BOA VISTA RABIL, CV","FM-15","GVBA ","V020","330,1,N,0041,1","22000,1,9,N","011265,1,N,1","+0280,1","+0240,1","99999,9","04,5,+00450,1,99,9",,,"04,99,1,99,9,99,9,99999,9,99,9,99,9","10091,1,99999,9",,,,"MET057METAR GVBA 161900Z 33008KT 9999 SCT015 28/24 Q1009 NOSIG;",
"08594499999","2010-09-17T08:00:00","4","16.136531","-22.888897","21.03","BOA VISTA RABIL, CV","FM-15","GVBA ","V020","110,1,N,0010,1","22000,1,9,N","007000,1,N,1","+0250,1","+0240,1","99999,9","02,5,+00420,1,99,9",,,"02,99,1,99,9,99,9,99999,9,99,9,99,9","10108,1,99999,9",,,,"MET057METAR GVBA 170800Z 11002KT 7000 FEW014 25/24 Q1011 NOSIG;",
"08594499999","2010-09-17T09:00:00","4","16.136531","-22.888897","21.03","BOA VISTA RABIL, CV","FM-15","GVBA ","V020","020,1,N,0021,1","22000,1,9,N","009000,1,N,1","+0270,1","+0240,1","99999,9","02,5,+00420,1,99,9",,,"02,99,1,99,9,99,9,99999,9,99,9,99,9","10119,1,99999,9",,,,"MET057METAR GVBA 170900Z 02004KT 9000 FEW014 27/24 Q1012 NOSIG;",
"08594499999","2010-09-17T10:00:00","4","16.136531","-22.888897","21.03","BOA VISTA RABIL, CV","FM-15","GVBA ","V020","030,1,N,0031,1","22000,1,9,N","011265,1,N,1","+0290,1","+0240,1","99999,9","04,5,+00420,1,99,9",,,"04,99,1,99,9,99,9,99999,9,99,9,99,9","10119,1,99999,9",,,,"MET057METAR GVBA 171000Z 03006KT 9999 SCT014 29/24 Q1012 NOSIG;",
"08594499999","2010-09-17T11:00:00","4","16.136531","-22.888897","21.03","BOA VISTA RABIL, CV","FM-15","GVBA ","V020","030,1,N,0036,1","22000,1,9,N","011265,1,N,1","+0300,1","+0240,1","99999,9","04,5,+00420,1,99,9",,,"04,99,1,99,9,99,9,99999,9,99,9,99,9","10119,1,99999,9",,,,"MET057METAR GVBA 171100Z 03007KT 9999 SCT014 30/24 Q1012 NOSIG;",
"08594499999","2010-09-17T12:00:00","4","16.136531","-22.888897","21.03","BOA VISTA RABIL, CV","FM-15","GVBA ","V020","040,1,N,0046,1","22000,1,9,N","011265,1,N,1","+0310,1","+0240,1","99999,9","04,5,+00420,1,99,9",,,"04,99,1,99,9,99,9,99999,9,99,9,99,9","10119,1,99999,9",,,,"MET065METAR GVBA 171200Z 04009KT 010V070 9999 SCT014 31/24 Q1012 NOSIG;",
"08594499999","2010-09-17T13:00:00","4","16.136531","-22.888897","21.03","BOA VISTA RABIL, CV","FM-15","GVBA ","V020","060,1,N,0046,1","22000,1,9,N","011265,1,N,1","+0330,1","+0240,1","99999,9","02,5,+00420,1,99,9",,,"02,99,1,99,9,99,9,99999,9,99,9,99,9","10108,1,99999,9",,,,"MET065METAR GVBA 171300Z 06009KT 020V090 9999 FEW014 33/24 Q1011 NOSIG;",
"08594499999","2010-09-17T16:00:00","4","16.136531","-22.888897","21.03","BOA VISTA RABIL, CV","FM-15","GVBA ","V020","110,1,N,0041,1","03000,1,C,N","011265,1,N,1","+0340,1","+0230,1","99999,9","04,5,+00450,1,99,9","07,5,+03000,1,99,9",,"07,99,1,99,9,99,9,99999,9,99,9,99,9","10102,1,99999,9",,,,"MET064METAR GVBA 171600Z 11008KT 9999 SCT015 BKN100 34/23 Q1010 NOSIG;",
"08594499999","2010-09-17T17:00:00","4","16.136531","-22.888897","21.03","BOA VISTA RABIL, CV","FM-15","GVBA ","V020","230,1,N,0026,1","03000,1,C,N","011265,1,N,1","+0320,1","+0240,1","99999,9","04,5,+00450,1,99,9","07,5,+03000,1,99,9",,"07,99,1,99,9,99,9,99999,9,99,9,99,9","10102,1,99999,9",,,,"MET064METAR GVBA 171700Z 23005KT 9999 SCT015 BKN100 32/24 Q1010 NOSIG;",
"08594499999","2010-09-17T18:00:00","4","16.136531","-22.888897","21.03","BOA VISTA RABIL, CV","FM-15","GVBA ","V020","100,1,N,0036,1","03000,1,C,N","011265,1,N,1","+0320,1","+0240,1","99999,9","04,5,+00450,1,99,9","07,5,+03000,1,99,9",,"07,99,1,99,9,99,9,99999,9,99,9,99,9","10102,1,99999,9",,,,"MET064METAR GVBA 171800Z 10007KT 9999 SCT015 BKN100 32/24 Q1010 NOSIG;",
"08594499999","2010-09-17T19:00:00","4","16.136531","-22.888897","21.03","BOA VISTA RABIL, CV","FM-15","GVBA ","V020","100,1,N,0036,1","03000,1,C,N","011265,1,N,1","+0300,1","+0240,1","99999,9","02,5,+00450,1,99,9","07,5,+03000,1,99,9",,"07,99,1,99,9,99,9,99999,9,99,9,99,9","10102,1,99999,9",,,,"MET064METAR GVBA 171900Z 10007KT 9999 FEW015 BKN100 30/24 Q1010 NOSIG;",
"08594499999","2010-09-18T08:00:00","4","16.136531","-22.888897","21.03","BOA VISTA RABIL, CV","FM-15","GVBA ","V020","110,1,N,0010,1","02700,1,C,N","011265,1,N,1","+0280,1","+0250,1","99999,9","04,5,+00360,1,99,9","07,5,+02700,1,99,9",,"07,99,1,99,9,99,9,99999,9,99,9,99,9","10108,1,99999,9",,,,"MET064METAR GVBA 180800Z 11002KT 9999 SCT012 BKN090 28/25 Q1011 NOSIG;",
"08594499999","2010-09-18T09:00:00","4","16.136531","-22.888897","21.03","BOA VISTA RABIL, CV","FM-15","GVBA ","V020","120,1,N,0026,1","02700,1,C,N","011265,1,N,1","+0290,1","+0240,1","99999,9","02,5,+00360,1,99,9","07,5,+02700,1,99,9",,"07,99,1,99,9,99,9,99999,9,99,9,99,9","10108,1,99999,9",,,,"MET064METAR GVBA 180900Z 12005KT 9999 FEW012 BKN090 29/24 Q1011 NOSIG;",
"08594499999","2010-09-18T10:00:00","4","16.136531","-22.888897","21.03","BOA VISTA RABIL, CV","FM-15","GVBA ","V020","110,1,N,0041,1","03000,1,C,N","011265,1,N,1","+0300,1","+0250,1","99999,9","04,5,+00420,1,99,9","07,5,+03000,1,99,9",,"07,99,1,99,9,99,9,99999,9,99,9,99,9","10119,1,99999,9",,,,"MET064METAR GVBA 181000Z 11008KT 9999 SCT014 BKN100 30/25 Q1012 NOSIG;",
"08594499999","2010-09-18T11:00:00","4","16.136531","-22.888897","21.03","BOA VISTA RABIL, CV","FM-15","GVBA ","V020","090,1,N,0036,1","00450,1,C,N","011265,1,N,1","+0310,1","+0250,1","99999,9","02,5,+00420,1,02,1","07,5,+00450,1,99,9","07,5,+03000,1,99,9","07,99,1,99,9,99,9,99999,9,99,9,99,9","10119,1,99999,9",,,,"MET074METAR GVBA 181100Z 09007KT 9999 FEW014TCU BKN015 BKN100 31/25 Q1012 NOSIG;",
"08594499999","2010-09-18T12:00:00","4","16.136531","-22.888897","21.03","BOA VISTA RABIL, CV","FM-15","GVBA ","V020","080,1,N,0051,1","00450,1,C,N","011265,1,N,1","+0330,1","+0250,1","99999,9","02,5,+00450,1,02,5","07,5,+00450,1,02,1","07,5,+03000,1,99,9","07,99,1,99,9,99,9,99999,9,99,9,99,9","10119,1,99999,9",,,,"MET074METAR GVBA 181200Z 08010KT 9999 BKN015 FEW015TCU BKN100 33/25 Q1012 NOSIG;",
"08594499999","2010-09-18T13:00:00","4","16.136531","-22.888897","21.03","BOA VISTA RABIL, CV","FM-15","GVBA ","V020","090,1,N,0057,1","00450,1,C,N","011265,1,N,1","+0330,1","+0240,1","99999,9","07,5,+00450,1,99,9","04,5,+03000,1,99,9",,,"10108,1,99999,9",,,,"MET064METAR GVBA 181300Z 09011KT 9999 BKN015 SCT100 33/24 Q1011 NOSIG;","Q01+000042SCOTCV"
"08594499999","2010-09-18T14:00:00","4","16.136531","-22.888897","21.03","BOA VISTA RABIL, CV","FM-15","GVBA ","V020","090,1,N,0062,1","00450,1,C,N","011265,1,N,1","+0320,1","+0240,1","99999,9","07,5,+00450,1,99,9","04,5,+03000,1,99,9",,,"10108,1,99999,9",,,,"MET064METAR GVBA 181400Z 09012KT 9999 BKN015 SCT100 32/24 Q1011 NOSIG;","Q01+000042SCOTCV"
"08594499999","2010-09-18T15:00:00","4","16.136531","-22.888897","21.03","BOA VISTA RABIL, CV","FM-15","GVBA ","V020","090,1,N,0046,1","00450,1,C,N","011265,1,N,1","+0320,1","+0250,1","99999,9","02,5,+00450,1,02,1","07,5,+00450,1,99,9","04,5,+03000,1,99,9",,"10102,1,99999,9",,,,"MET074METAR GVBA 181500Z 09009KT 9999 FEW015TCU BKN015 SCT100 32/25 Q1010 NOSIG;","Q01+000042SCOTCV"
"08594499999","2010-09-18T16:00:00","4","16.136531","-22.888897","21.03","BOA VISTA RABIL, CV","FM-15","GVBA ","V020","060,1,N,0051,1","00450,1,C,N","011265,1,N,1","+0310,1","+0250,1","99999,9","07,5,+00450,1,99,9","04,5,+03000,1,99,9",,,"10102,1,99999,9",,,,"MET064METAR GVBA 181600Z 06010KT 9999 BKN015 SCT100 31/25 Q1010 NOSIG;","Q01+000042SCOTCV"
"08594499999","2010-09-18T17:00:00","4","16.136531","-22.888897","21.03","BOA VISTA RABIL, CV","FM-15","GVBA ","V020","080,1,N,0046,1","00450,1,C,N","011265,1,N,1","+0310,1","+0250,1","99999,9","07,5,+00450,1,99,9","04,5,+03000,1,99,9",,,"10091,1,99999,9",,,,"MET064METAR GVBA 181700Z 08009KT 9999 BKN015 SCT100 31/25 Q1009 NOSIG;","Q01+000042SCOTCV"
"08594499999","2010-09-18T18:00:00","4","16.136531","-22.888897","21.03","BOA VISTA RABIL, CV","FM-15","GVBA ","V020","110,1,N,0041,1","00450,1,C,N","011265,1,N,1","+0310,1","+0240,1","99999,9","07,5,+00450,1,99,9","04,5,+03000,1,99,9",,,"10102,1,99999,9",,,,"MET064METAR GVBA 181800Z 11008KT 9999 BKN015 SCT100 31/24 Q1010 NOSIG;","Q01+000042SCOTCV"
"08594499999","2010-09-18T19:00:00","4","16.136531","-22.888897","21.03","BOA VISTA RABIL, CV","FM-15","GVBA ","V020","120,1,N,0031,1","99999,9,C,N","011265,1,N,1","+0300,1","+0230,1","99999,9","02,5,+00420,1,02,1","04,5,+00450,1,99,9","04,5,+03000,1,99,9","04,99,1,99,9,99,9,99999,9,99,9,99,9","10102,1,99999,9",,,,"MET074METAR GVBA 181900Z 12006KT 9999 FEW014TCU SCT015 SCT100 30/23 Q1010 NOSIG;","P01 004503SCOCIG"
"08594499999","2010-09-19T09:00:00","4","16.136531","-22.888897","21.03","BOA VISTA RABIL, CV","FM-15","GVBA ","V020","140,1,N,0015,1","99999,9,C,N","011265,1,N,1","+0290,1","+0250,1","99999,9","04,5,+00420,1,99,9","04,5,+02400,1,99,9",,"04,99,1,99,9,99,9,99999,9,99,9,99,9","10108,1,99999,9",,,,"MET064METAR GVBA 190900Z 14003KT 9999 SCT014 SCT080 29/25 Q1011 NOSIG;","P01 024003SCOCIG"
"08594499999","2010-09-19T11:00:00","4","16.136531","-22.888897","21.03","BOA VISTA RABIL, CV","FM-15","GVBA ","V020","150,1,N,0046,1","00450,1,C,N","011265,1,N,1","+0310,1","+0240,1","99999,9","07,5,+00450,1,99,9","04,5,+06000,1,99,9",,,"10129,1,99999,9",,,,"MET064METAR GVBA 191100Z 15009KT 9999 BKN015 SCT200 31/24 Q1013 NOSIG;","Q01+000042SCOTCV"
"08594499999","2010-09-19T12:00:00","4","16.136531","-22.888897","21.03","BOA VISTA RABIL, CV","FM-15","GVBA ","V020","150,1,N,0057,1","99999,9,C,N","011265,1,N,1","+0320,1","+0230,1","99999,9","04,5,+00450,1,99,9","04,5,+06000,1,99,9",,"04,99,1,99,9,99,9,99999,9,99,9,99,9","10119,1,99999,9",,,,"MET064METAR GVBA 191200Z 15011KT 9999 SCT015 SCT200 32/23 Q1012 NOSIG;","P01 060003SCOCIG"
"08594499999","2010-09-19T13:00:00","4","16.136531","-22.888897","21.03","BOA VISTA RABIL, CV","FM-15","GVBA ","V020","140,1,N,0062,1","99999,9,C,N","011265,1,N,1","+0330,1","+0230,1","99999,9","04,5,+00450,1,99,9","04,5,+06000,1,99,9",,"04,99,1,99,9,99,9,99999,9,99,9,99,9","10119,1,99999,9",,,,"MET064METAR GVBA 191300Z 14012KT 9999 SCT015 SCT200 33/23 Q1012 NOSIG;","P01 060003SCOCIG"
"08594499999","2010-09-19T14:00:00","4","16.136531","-22.888897","21.03","BOA VISTA RABIL, CV","FM-15","GVBA ","V020","160,1,N,0077,1","00450,1,C,N","011265,1,N,1","+0320,1","+0230,1","99999,9","02,5,+00390,1,99,9","07,5,+00450,1,99,9",,"07,99,1,99,9,99,9,99999,9,99,9,99,9","10108,1,99999,9",,,,"MET064METAR GVBA 191400Z 16015KT 9999 FEW013 BKN015 32/23 Q1011 NOSIG;",
"08594499999","2010-09-19T15:00:00","4","16.136531","-22.888897","21.03","BOA VISTA RABIL, CV","FM-15","GVBA ","V020","150,1,N,0067,1","00450,1,C,N","011265,1,N,1","+0330,1","+0230,1","99999,9","07,5,+00450,1,99,9","02,5,+00480,1,02,5",,,"10108,1,99999,9",,,,"MET067METAR GVBA 191500Z 15013KT 9999 BKN015 FEW016TCU 33/23 Q1011 NOSIG;","Q01+000022SCOTCV"
"08594499999","2010-09-19T16:00:00","4","16.136531","-22.888897","21.03","BOA VISTA RABIL, CV","FM-15","GVBA ","V020","170,1,N,0072,1","03000,1,C,N","011265,1,N,1","+0330,1","+0230,1","99999,9","02,5,+00450,1,99,9","04,5,+03000,1,99,9","07,5,+06000,1,99,9","07,99,1,99,9,99,9,99999,9,99,9,99,9","10102,1,99999,9",,,,"MET071METAR GVBA 191600Z 17014KT 9999 FEW015 SCT100 BKN200 33/23 Q1010 NOSIG;",
"08594499999","2010-09-19T17:00:00","4","16.136531","-22.888897","21.03","BOA VISTA RABIL, CV","FM-15","GVBA ","V020","180,1,N,0062,1","03000,1,C,N","011265,1,N,1","+0320,1","+0220,1","99999,9","02,5,+00450,1,99,9","04,5,+03000,1,99,9","07,5,+06000,1,99,9","07,99,1,99,9,99,9,99999,9,99,9,99,9","10091,1,99999,9",,,,"MET071METAR GVBA 191700Z 18012KT 9999 FEW015 SCT100 BKN200 32/22 Q1009 NOSIG;",
"08594499999","2010-09-19T18:00:00","4","16.136531","-22.888897","21.03","BOA VISTA RABIL, CV","FM-15","GVBA ","V020","190,1,N,0051,1","03000,1,C,N","011265,1,N,1","+0310,1","+0220,1","99999,9","02,5,+00450,1,99,9","07,5,+03000,1,99,9","07,5,+06000,1,99,9","07,99,1,99,9,99,9,99999,9,99,9,99,9","10102,1,99999,9",,,,"MET071METAR GVBA 191800Z 19010KT 9999 FEW015 BKN100 BKN200 31/22 Q1010 NOSIG;",
"08594499999","2010-09-19T19:00:00","4","16.136531","-22.888897","21.03","BOA VISTA RABIL, CV","FM-15","GVBA ","V020","170,1,N,0031,1","03000,1,C,N","011265,1,N,1","+0300,1","+0230,1","99999,9","02,5,+00450,1,99,9","07,5,+03000,1,99,9","07,5,+06000,1,99,9","07,99,1,99,9,99,9,99999,9,99,9,99,9","10102,1,99999,9",,,,"MET071METAR GVBA 191900Z 17006KT 9999 FEW015 BKN100 BKN200 30/23 Q1010 NOSIG;",
"08594499999","2010-09-20T08:00:00","4","16.136531","-22.888897","21.03","BOA VISTA RABIL, CV","FM-15","GVBA ","V020","999,9,V,0010,1","22000,1,9,N","011265,1,N,1","+0250,1","+0240,1","99999,9","02,5,+00420,1,99,9",,,"02,99,1,99,9,99,9,99999,9,99,9,99,9","10108,1,99999,9",,,,"MET057METAR GVBA 200800Z VRB02KT 9999 FEW014 25/24 Q1011 NOSIG;",
"08594499999","2010-09-20T09:00:00","4","16.136531","-22.888897","21.03","BOA VISTA RABIL, CV","FM-15","GVBA ","V020","999,9,V,0010,1","99999,9,C,N","011265,1,N,1","+0270,1","+0240,1","99999,9","02,5,+00420,1,99,9","04,5,+03000,1,99,9",,"04,99,1,99,9,99,9,99999,9,99,9,99,9","10119,1,99999,9",,,,"MET064METAR GVBA 200900Z VRB02KT 9999 FEW014 SCT100 27/24 Q1012 NOSIG;","P01 030003SCOCIG"
"08594499999","2010-09-20T10:00:00","4","16.136531","-22.888897","21.03","BOA VISTA RABIL, CV","FM-15","GVBA ","V020","999,9,V,0015,1","22000,1,9,N","011265,1,N,1","+0300,1","+0230,1","99999,9","02,5,+00420,1,99,9",,,"02,99,1,99,9,99,9,99999,9,99,9,99,9","10119,1,99999,9",,,,"MET057METAR GVBA 201000Z VRB03KT 9999 FEW014 30/23 Q1012 NOSIG;",
"08594499999","2010-09-20T11:00:00","4","16.136531","-22.888897","21.03","BOA VISTA RABIL, CV","FM-15","GVBA ","V020","999,9,V,0015,1","00450,1,C,N","011265,1,N,1","+0310,1","+0230,1","99999,9","02,5,+00420,1,99,9","07,5,+00450,1,99,9",,"07,99,1,99,9,99,9,99999,9,99,9,99,9","10119,1,99999,9",,,,"MET064METAR GVBA 201100Z VRB03KT 9999 FEW014 BKN015 31/23 Q1012 NOSIG;",
"08594499999","2010-09-20T12:00:00","4","16.136531","-22.888897","21.03","BOA VISTA RABIL, CV","FM-15","GVBA ","V020","050,1,N,0041,1","00450,1,C,N","011265,1,N,1","+0320,1","+0240,1","99999,9","07,5,+00450,1,02,1",,,"07,99,1,99,9,99,9,99999,9,99,9,99,9","10119,1,99999,9",,,,"MET060METAR GVBA 201200Z 05008KT 9999 BKN015TCU 32/24 Q1012 NOSIG;",
"08594499999","2010-09-20T13:00:00","4","16.136531","-22.888897","21.03","BOA VISTA RABIL, CV","FM-15","GVBA ","V020","220,1,N,0031,1","00450,1,C,N","009000,1,N,1","+0270,1","+0250,1","99999,9","07,5,+00450,1,02,1",,,"07,99,1,99,9,99,9,99999,9,99,9,99,9","10119,1,99999,9","61,1",,,"MET064METAR GVBA 201300Z 22006KT 9000 -RA BKN015TCU 27/25 Q1012 NOSIG;",
"08594499999","2010-09-20T14:00:00","4","16.136531","-22.888897","21.03","BOA VISTA RABIL, CV","FM-15","GVBA ","V020","280,1,N,0010,1","00450,5,9,N","011265,1,N,1","+0280,1","+0250,1","99999,9","02,5,+00420,5,02,5","04,5,+00450,5,99,9",,,"10110,1,99999,9",,,,"MET081METAR GVBA 201400Z 28002KT 260V320 99999 FEW014TCU SCT015 28/25 Q1011 REDZ NOSIG;",
"08594499999","2010-09-20T16:00:00","4","16.136531","-22.888897","21.03","BOA VISTA RABIL, CV","FM-15","GVBA ","V020","040,1,N,0021,1","00420,1,C,N","011265,1,N,1","+0270,1","+0250,1","99999,9","07,5,+00420,1,99,9",,,"07,99,1,99,9,99,9,99999,9,99,9,99,9","10102,1,99999,9",,,,"MET065METAR GVBA 201600Z 04004KT 330V040 9999 BKN014 27/25 Q1010 NOSIG;",
"08594499999","2010-09-20T18:00:00","4","16.136531","-22.888897","21.03","BOA VISTA RABIL, CV","FM-15","GVBA ","V020","020,1,N,0010,1","00450,1,C,N","011265,1,N,1","+0270,1","+0250,1","99999,9","04,5,+00420,1,99,9","07,5,+00450,1,99,9",,"07,99,1,99,9,99,9,99999,9,99,9,99,9","10102,1,99999,9","51,1",,,"MET083METAR GVBA 201800Z 02002KT 340V040 9999 -DZ SCT014 BKN015 27/25 Q1010 RERADZ NOSIG;",
"08594499999","2010-09-20T19:00:00","4","16.136531","-22.888897","21.03","BOA VISTA RABIL, CV","FM-15","GVBA ","V020","340,1,N,0010,1","99999,9,C,N","011265,1,N,1","+0270,1","+0250,1","99999,9","04,5,+00420,1,99,9","04,5,+03000,1,99,9",,"04,99,1,99,9,99,9,99999,9,99,9,99,9","10102,1,99999,9",,,,"MET064METAR GVBA 201900Z 34002KT 9999 SCT014 SCT100 27/25 Q1010 NOSIG;","P01 030003SCOCIG"
"08594499999","2010-09-21T08:00:00","4","16.136531","-22.888897","21.03","BOA VISTA RABIL, CV","FM-15","GVBA ","V020","360,1,N,0010,1","00450,1,C,N","011265,1,N,1","+0250,1","+0240,1","99999,9","02,5,+00390,1,99,9","04,5,+00450,1,99,9","07,5,+06000,1,99,9","07,99,1,99,9,99,9,99999,9,99,9,99,9","10102,1,99999,9",,,,"MET071METAR GVBA 210800Z 36002KT 9999 FEW013 SCT015 BKN200 25/24 Q1010 NOSIG;",
"08594499999","2010-09-21T09:00:00","4","16.136531","-22.888897","21.03","BOA VISTA RABIL, CV","FM-15","GVBA ","V020","999,9,V,0010,1","06000,1,C,N","011265,1,N,1","+0270,1","+0250,1","99999,9","04,5,+00420,1,99,9","07,5,+06000,1,99,9",,"07,99,1,99,9,99,9,99999,9,99,9,99,9","10108,1,99999,9",,,,"MET064METAR GVBA 210900Z VRB02KT 9999 SCT014 BKN200 27/25 Q1011 NOSIG;",
"08594499999","2010-09-21T10:00:00","4","16.136531","-22.888897","21.03","BOA VISTA RABIL, CV","FM-15","GVBA ","V020","020,1,N,0041,1","99999,9,C,N","011265,1,N,1","+0290,1","+0250,1","99999,9","04,5,+00450,1,99,9","04,5,+06000,1,99,9",,"04,99,1,99,9,99,9,99999,9,99,9,99,9","10108,1,99999,9",,,,"MET064METAR GVBA 211000Z 02008KT 9999 SCT015 SCT200 29/25 Q1011 NOSIG;","P01 060003SCOCIG"
"08594499999","2010-09-21T11:00:00","4","16.136531","-22.888897","21.03","BOA VISTA RABIL, CV","FM-15","GVBA ","V020","030,1,N,0036,1","06000,1,C,N","011265,1,N,1","+0290,1","+0240,1","99999,9","04,5,+00450,1,99,9","07,5,+06000,1,99,9",,"07,99,1,99,9,99,9,99999,9,99,9,99,9","10108,1,99999,9",,,,"MET064METAR GVBA 211100Z 03007KT 9999 SCT015 BKN200 29/24 Q1011 NOSIG;",
"08594499999","2010-09-21T12:00:00","4","16.136531","-22.888897","21.03","BOA VISTA RABIL, CV","FM-15","GVBA ","V020","020,1,N,0041,1","06000,1,C,N","011265,1,N,1","+0300,1","+0240,1","99999,9","04,5,+00450,1,99,9","07,5,+06000,1,99,9",,"07,99,1,99,9,99,9,99999,9,99,9,99,9","10108,1,99999,9",,,,"MET064METAR GVBA 211200Z 02008KT 9999 SCT015 BKN200 30/24 Q1011 NOSIG;",
"08594499999","2010-09-21T13:00:00","4","16.136531","-22.888897","21.03","BOA VISTA RABIL, CV","FM-15","GVBA ","V020","010,1,N,0041,1","00450,1,C,N","011265,1,N,1","+0310,1","+0240,1","99999,9","07,5,+00450,1,99,9","07,5,+06000,1,99,9",,"07,99,1,99,9,99,9,99999,9,99,9,99,9","10108,1,99999,9",,,,"MET064METAR GVBA 211300Z 01008KT 9999 BKN015 BKN200 31/24 Q1011 NOSIG;",
"08594499999","2010-09-21T14:00:00","4","16.136531","-22.888897","21.03","BOA VISTA RABIL, CV","FM-15","GVBA ","V020","010,1,N,0051,1","00450,1,C,N","011265,1,N,1","+0310,1","+0240,1","99999,9","07,5,+00450,1,99,9",,,"07,99,1,99,9,99,9,99999,9,99,9,99,9","10102,1,99999,9",,,,"MET057METAR GVBA 211400Z 01010KT 9999 BKN015 31/24 Q1010 NOSIG;",
"08594499999","2010-09-21T15:00:00","4","16.136531","-22.888897","21.03","BOA VISTA RABIL, CV","FM-15","GVBA ","V020","020,1,N,0051,1","00450,1,C,N","011265,1,N,1","+0300,1","+0240,1","99999,9","07,5,+00450,1,99,9",,,"07,99,1,99,9,99,9,99999,9,99,9,99,9","10102,1,99999,9",,,,"MET057METAR GVBA 211500Z 02010KT 9999 BKN015 30/24 Q1010 NOSIG;",
"08594499999","2010-09-21T16:00:00","4","16.136531","-22.888897","21.03","BOA VISTA RABIL, CV","FM-15","GVBA ","V020","030,1,N,0041,1","22000,1,9,N","011265,1,N,1","+0310,1","+0240,1","99999,9","04,5,+00450,1,99,9",,,"04,99,1,99,9,99,9,99999,9,99,9,99,9","10091,1,99999,9",,,,"MET057METAR GVBA 211600Z 03008KT 9999 SCT015 31/24 Q1009 NOSIG;",
"08594499999","2010-09-21T17:00:00","4","16.136531","-22.888897","21.03","BOA VISTA RABIL, CV","FM-15","GVBA ","V020","340,1,N,0041,1","99999,9,C,N","011265,1,N,1","+0300,1","+0240,1","99999,9","04,5,+00450,1,99,9","04,5,+06000,1,99,9",,"04,99,1,99,9,99,9,99999,9,99,9,99,9","10081,1,99999,9",,,,"MET064METAR GVBA 211700Z 34008KT 9999 SCT015 SCT200 30/24 Q1008 NOSIG;","P01 060003SCOCIG"
"08594499999","2010-09-21T18:00:00","4","16.136531","-22.888897","21.03","BOA VISTA RABIL, CV","FM-15","GVBA ","V020","330,1,N,0041,1","99999,9,C,N","011265,1,N,1","+0290,1","+0240,1","99999,9","02,5,+00450,1,99,9","04,5,+06000,1,99,9",,"04,99,1,99,9,99,9,99999,9,99,9,99,9","10091,1,99999,9",,,,"MET064METAR GVBA 211800Z 33008KT 9999 FEW015 SCT200 29/24 Q1009 NOSIG;","P01 060003SCOCIG"
"08594499999","2010-09-22T08:00:00","4","16.136531","-22.888897","21.03","BOA VISTA RABIL, CV","FM-15","GVBA ","V020","999,9,V,0010,1","00540,1,C,N","011265,1,N,1","+0260,1","+0240,1","99999,9","02,5,+00450,1,99,9","04,5,+00540,1,99,9","07,5,+06000,1,99,9","07,99,1,99,9,99,9,99999,9,99,9,99,9","10102,1,99999,9",,,,"MET071METAR GVBA 220800Z VRB02KT 9999 FEW015 SCT018 BKN200 26/24 Q1010 NOSIG;",
"08594499999","2010-09-22T09:00:00","4","16.136531","-22.888897","21.03","BOA VISTA RABIL, CV","FM-15","GVBA ","V020","999,9,C,0000,1","00540,1,C,N","011265,1,N,1","+0270,1","+0240,1","99999,9","02,5,+00420,1,99,9","07,5,+00540,1,99,9",,"07,99,1,99,9,99,9,99999,9,99,9,99,9","10102,1,99999,9",,,,"MET064METAR GVBA 220900Z 00000KT 9999 FEW014 BKN018 27/24 Q1010 NOSIG;",
"08594499999","2010-09-22T10:00:00","4","16.136531","-22.888897","21.03","BOA VISTA RABIL, CV","FM-15","GVBA ","V020","999,9,V,0010,1","03000,1,C,N","011265,1,N,1","+0280,1","+0240,1","99999,9","02,5,+00450,1,99,9","04,5,+03000,1,99,9","07,5,+06000,1,99,9","07,99,1,99,9,99,9,99999,9,99,9,99,9","10108,1,99999,9",,,,"MET071METAR GVBA 221000Z VRB02KT 9999 FEW015 SCT100 BKN200 28/24 Q1011 NOSIG;",
"08594499999","2010-09-22T11:00:00","4","16.136531","-22.888897","21.03","BOA VISTA RABIL, CV","FM-15","GVBA ","V020","999,9,V,0010,1","06000,1,C,N","011265,1,N,1","+0290,1","+0240,1","99999,9","04,5,+00450,1,99,9","07,5,+06000,1,99,9",,"07,99,1,99,9,99,9,99999,9,99,9,99,9","10108,1,99999,9",,,,"MET064METAR GVBA 221100Z VRB02KT 9999 SCT015 BKN200 29/24 Q1011 NOSIG;",
"08594499999","2010-09-22T12:00:00","4","16.136531","-22.888897","21.03","BOA VISTA RABIL, CV","FM-15","GVBA ","V020","999,9,V,0010,1","06000,1,C,N","011265,1,N,1","+0300,1","+0230,1","99999,9","02,5,+00450,1,99,9","07,5,+06000,1,99,9",,"07,99,1,99,9,99,9,99999,9,99,9,99,9","10108,1,99999,9",,,,"MET064METAR GVBA 221200Z VRB02KT 9999 FEW015 BKN200 30/23 Q1011 NOSIG;",
"08594499999","2010-09-22T13:00:00","4","16.136531","-22.888897","21.03","BOA VISTA RABIL, CV","FM-15","GVBA ","V020","290,1,N,0026,1","06000,1,C,N","011265,1,N,1","+0310,1","+0240,1","99999,9","02,5,+00450,1,99,9","07,5,+06000,1,99,9",,"07,99,1,99,9,99,9,99999,9,99,9,99,9","10102,1,99999,9",,,,"MET072METAR GVBA 221300Z 29005KT 230V300 9999 FEW015 BKN200 31/24 Q1010 NOSIG;",
"08594499999","2010-09-22T14:00:00","4","16.136531","-22.888897","21.03","BOA VISTA RABIL, CV","FM-15","GVBA ","V020","270,1,N,0036,1","06000,1,C,N","011265,1,N,1","+0310,1","+0250,1","99999,9","02,5,+00450,1,99,9","07,5,+06000,1,99,9",,"07,99,1,99,9,99,9,99999,9,99,9,99,9","10102,1,99999,9",,,,"MET064METAR GVBA 221400Z 27007KT 9999 FEW015 BKN200 31/25 Q1010 NOSIG;",
"08594499999","2010-09-22T15:00:00","4","16.136531","-22.888897","21.03","BOA VISTA RABIL, CV","FM-15","GVBA ","V020","250,1,N,0041,1","03000,1,C,N","011265,1,N,1","+0310,1","+0250,1","99999,9","02,5,+00450,1,99,9","04,5,+03000,1,99,9","07,5,+06000,1,99,9","07,99,1,99,9,99,9,99999,9,99,9,99,9","10091,1,99999,9",,,,"MET071METAR GVBA 221500Z 25008KT 9999 FEW015 SCT100 BKN200 31/25 Q1009 NOSIG;",
"08594499999","2010-09-22T16:00:00","4","16.136531","-22.888897","21.03","BOA VISTA RABIL, CV","FM-15","GVBA ","V020","260,1,N,0041,1","03000,1,C,N","011265,1,N,1","+0300,1","+0240,1","99999,9","02,5,+00450,1,99,9","04,5,+03000,1,99,9","07,5,+06000,1,99,9","07,99,1,99,9,99,9,99999,9,99,9,99,9","10091,1,99999,9",,,,"MET071METAR GVBA 221600Z 26008KT 9999 FEW015 SCT100 BKN200 30/24 Q1009 NOSIG;",
"08594499999","2010-09-22T17:00:00","4","16.136531","-22.888897","21.03","BOA VISTA RABIL, CV","FM-15","GVBA ","V020","260,1,N,0036,1","06000,1,C,N","011265,1,N,1","+0300,1","+0250,1","99999,9","02,5,+00450,1,99,9","07,5,+06000,1,99,9",,"07,99,1,99,9,99,9,99999,9,99,9,99,9","10081,1,99999,9",,,,"MET064METAR GVBA 221700Z 26007KT 9999 FEW015 BKN200 30/25 Q1008 NOSIG;",
"08594499999","2010-09-22T18:00:00","4","16.136531","-22.888897","21.03","BOA VISTA RABIL, CV","FM-15","GVBA ","V020","260,1,N,0031,1","99999,9,C,N","011265,1,N,1","+0300,1","+0240,1","99999,9","02,5,+00450,1,99,9","04,5,+03000,1,99,9",,"04,99,1,99,9,99,9,99999,9,99,9,99,9","10091,1,99999,9",,,,"MET064METAR GVBA 221800Z 26006KT 9999 FEW015 SCT100 30/24 Q1009 NOSIG;","P01 030003SCOCIG"
"08594499999","2010-09-22T19:00:00","4","16.136531","-22.888897","21.03","BOA VISTA RABIL, CV","FM-15","GVBA ","V020","270,1,N,0031,1","99999,9,C,N","011265,1,N,1","+0290,1","+0240,1","99999,9","02,5,+00450,1,99,9","04,5,+03000,1,99,9",,"04,99,1,99,9,99,9,99999,9,99,9,99,9","10091,1,99999,9",,,,"MET064METAR GVBA 221900Z 27006KT 9999 FEW015 SCT100 29/24 Q1009 NOSIG;","P01 030003SCOCIG"
"08594499999","2010-09-23T08:00:00","4","16.136531","-22.888897","21.03","BOA VISTA RABIL, CV","FM-15","GVBA ","V020","170,1,N,0015,1","22000,1,9,N","011265,1,N,1","+0270,1","+0250,1","99999,9","04,5,+00420,1,99,9",,,"04,99,1,99,9,99,9,99999,9,99,9,99,9","10102,1,99999,9",,,,"MET057METAR GVBA 230800Z 17003KT 9999 SCT014 27/25 Q1010 NOSIG;",
"08594499999","2010-09-23T10:00:00","4","16.136531","-22.888897","21.03","BOA VISTA RABIL, CV","FM-15","GVBA ","V020","190,1,N,0031,1","22000,1,9,N","011265,1,N,1","+0300,1","+0240,1","99999,9","04,5,+00450,1,99,9",,,"04,99,1,99,9,99,9,99999,9,99,9,99,9","10108,1,99999,9",,,,"MET057METAR GVBA 231000Z 19006KT 9999 SCT015 30/24 Q1011 NOSIG;",
"08594499999","2010-09-23T11:00:00","4","16.136531","-22.888897","21.03","BOA VISTA RABIL, CV","FM-15","GVBA ","V020","210,1,N,0036,1","22000,1,9,N","011265,1,N,1","+0310,1","+0230,1","99999,9","04,5,+00450,1,99,9",,,"04,99,1,99,9,99,9,99999,9,99,9,99,9","10108,1,99999,9",,,,"MET057METAR GVBA 231100Z 21007KT 9999 SCT015 31/23 Q1011 NOSIG;",
"08594499999","2010-09-23T12:00:00","4","16.136531","-22.888897","21.03","BOA VISTA RABIL, CV","FM-15","GVBA ","V020","210,1,N,0046,1","22000,1,9,N","011265,1,N,1","+0320,1","+0230,1","99999,9","04,5,+00450,1,99,9",,,"04,99,1,99,9,99,9,99999,9,99,9,99,9","10108,1,99999,9",,,,"MET057METAR GVBA 231200Z 21009KT 9999 SCT015 32/23 Q1011 NOSIG;",
"08594499999","2010-09-23T13:00:00","4","16.136531","-22.888897","21.03","BOA VISTA RABIL, CV","FM-15","GVBA ","V020","190,1,N,0051,1","00450,1,C,N","011265,1,N,1","+0330,1","+0240,1","99999,9","07,5,+00450,1,99,9",,,"07,99,1,99,9,99,9,99999,9,99,9,99,9","10108,1,99999,9",,,,"MET057METAR GVBA 231300Z 19010KT 9999 BKN015 33/24 Q1011 NOSIG;",
"08594499999","2010-09-23T14:00:00","4","16.136531","-22.888897","21.03","BOA VISTA RABIL, CV","FM-15","GVBA ","V020","220,1,N,0051,1","00450,1,C,N","011265,1,N,1","+0330,1","+0230,1","99999,9","07,5,+00450,1,99,9",,,"07,99,1,99,9,99,9,99999,9,99,9,99,9","10102,1,99999,9",,,,"MET057METAR GVBA 231400Z 22010KT 9999 BKN015 33/23 Q1010 NOSIG;",
"08594499999","2010-09-23T15:00:00","4","16.136531","-22.888897","21.03","BOA VISTA RABIL, CV","FM-15","GVBA ","V020","220,1,N,0051,1","00450,1,C,N","011265,1,N,1","+0320,1","+0240,1","99999,9","07,5,+00450,1,99,9",,,"07,99,1,99,9,99,9,99999,9,99,9,99,9","10102,1,99999,9",,,,"MET057METAR GVBA 231500Z 22010KT 9999 BKN015 32/24 Q1010 NOSIG;",
"08594499999","2010-09-23T16:00:00","4","16.136531","-22.888897","21.03","BOA VISTA RABIL, CV","FM-15","GVBA ","V020","220,1,N,0062,1","00450,1,C,N","011265,1,N,1","+0330,1","+0240,1","99999,9","07,5,+00450,1,99,9",,,"07,99,1,99,9,99,9,99999,9,99,9,99,9","10091,1,99999,9",,,,"MET057METAR GVBA 231600Z 22012KT 9999 BKN015 33/24 Q1009 NOSIG;",
"08594499999","2010-09-23T17:00:00","4","16.136531","-22.888897","21.03","BOA VISTA RABIL, CV","FM-15","GVBA ","V020","210,1,N,0057,1","00450,1,C,N","011265,1,N,1","+0320,1","+0240,1","99999,9","07,5,+00450,1,99,9",,,"07,99,1,99,9,99,9,99999,9,99,9,99,9","10091,1,99999,9",,,,"MET057METAR GVBA 231700Z 21011KT 9999 BKN015 32/24 Q1009 NOSIG;",
"08594499999","2010-09-23T18:00:00","4","16.136531","-22.888897","21.03","BOA VISTA RABIL, CV","FM-15","GVBA ","V020","210,1,N,0057,1","22000,1,9,N","011265,1,N,1","+0310,1","+0240,1","99999,9","04,5,+00450,1,02,1",,,"04,99,1,99,9,99,9,99999,9,99,9,99,9","10091,1,99999,9",,,,"MET060METAR GVBA 231800Z 21011KT 9999 SCT015TCU 31/24 Q1009 NOSIG;",
"08594499999","2010-09-23T19:00:00","4","16.136531","-22.888897","21.03","BOA VISTA RABIL, CV","FM-15","GVBA ","V020","210,1,N,0051,1","22000,1,9,N","011265,1,N,1","+0310,1","+0240,1","99999,9","04,5,+00450,1,99,9",,,"04,99,1,99,9,99,9,99999,9,99,9,99,9","10102,1,99999,9",,,,"MET057METAR GVBA 231900Z 21010KT 9999 SCT015 31/24 Q1010 NOSIG;",
"08594499999","2010-09-24T08:00:00","4","16.136531","-22.888897","21.03","BOA VISTA RABIL, CV","FM-15","GVBA ","V020","170,1,N,0021,1","99999,9,C,N","011265,1,N,1","+0270,1","+0250,1","99999,9","02,5,+00390,1,02,1","04,5,+00420,1,99,9",,"04,99,1,99,9,99,9,99999,9,99,9,99,9","10108,1,99999,9",,,,"MET067METAR GVBA 240800Z 17004KT 9999 FEW013TCU SCT014 27/25 Q1011 NOSIG;","P01 004203SCOCIG"
"08594499999","2010-09-24T09:00:00","4","16.136531","-22.888897","21.03","BOA VISTA RABIL, CV","FM-15","GVBA ","V020","180,1,N,0041,1","00450,1,C,N","011265,1,N,1","+0290,1","+0250,1","99999,9","07,5,+00450,1,99,9",,,"07,99,1,99,9,99,9,99999,9,99,9,99,9","10119,1,99999,9",,,,"MET057METAR GVBA 240900Z 18008KT 9999 BKN015 29/25 Q1012 NOSIG;",
"08594499999","2010-09-24T10:00:00","4","16.136531","-22.888897","21.03","BOA VISTA RABIL, CV","FM-15","GVBA ","V020","180,1,N,0051,1","00480,5,C,N","011265,1,N,1","+0290,1","+0250,1","99999,9","04,5,+00450,1,99,9","02,5,+00480,1,02,5",,,"10119,1,99999,9",,,,"MET067METAR GVBA 241000Z 18010KT 9999 SCT015 FEW016TCU 29/25 Q1012 NOSIG;","Q01+000022SCOTCV"
"08594499999","2010-09-24T11:00:00","4","16.136531","-22.888897","21.03","BOA VISTA RABIL, CV","FM-15","GVBA ","V020","180,1,N,0051,1","00450,1,C,N","011265,1,N,1","+0310,1","+0240,1","99999,9","07,5,+00450,1,99,9",,,"07,99,1,99,9,99,9,99999,9,99,9,99,9","10119,1,99999,9",,,,"MET057METAR GVBA 241100Z 18010KT 9999 BKN015 31/24 Q1012 NOSIG;",
"08594499999","2010-09-24T12:00:00","4","16.136531","-22.888897","21.03","BOA VISTA RABIL, CV","FM-15","GVBA ","V020","180,1,N,0051,1","22000,1,9,N","011265,1,N,1","+0320,1","+0230,1","99999,9","02,5,+00450,1,99,9",,,"02,99,1,99,9,99,9,99999,9,99,9,99,9","10119,1,99999,9",,,,"MET057METAR GVBA 241200Z 18010KT 9999 FEW015 32/23 Q1012 NOSIG;",
"08594499999","2010-09-24T13:00:00","4","16.136531","-22.888897","21.03","BOA VISTA RABIL, CV","FM-15","GVBA ","V020","180,1,N,0062,1","22000,1,9,N","011265,1,N,1","+0330,1","+0230,1","99999,9","02,5,+00450,1,99,9",,,"02,99,1,99,9,99,9,99999,9,99,9,99,9","10119,1,99999,9",,,,"MET057METAR GVBA 241300Z 18012KT 9999 FEW015 33/23 Q1012 NOSIG;",
"08594499999","2010-09-24T14:00:00","4","16.136531","-22.888897","21.03","BOA VISTA RABIL, CV","FM-15","GVBA ","V020","170,1,N,0062,1","22000,1,9,N","011265,1,N,1","+0330,1","+0220,1","99999,9","04,5,+00450,1,99,9",,,"04,99,1,99,9,99,9,99999,9,99,9,99,9","10108,1,99999,9",,,,"MET057METAR GVBA 241400Z 17012KT 9999 SCT015 33/22 Q1011 NOSIG;",
"08594499999","2010-09-24T15:00:00","4","16.136531","-22.888897","21.03","BOA VISTA RABIL, CV","FM-15","GVBA ","V020","180,1,N,0062,1","22000,1,9,N","011265,1,N,1","+0330,1","+0230,1","99999,9","04,5,+00450,1,99,9",,,"04,99,1,99,9,99,9,99999,9,99,9,99,9","10102,1,99999,9",,,,"MET057METAR GVBA 241500Z 18012KT 9999 SCT015 33/23 Q1010 NOSIG;",
"08594499999","2010-09-24T16:00:00","4","16.136531","-22.888897","21.03","BOA VISTA RABIL, CV","FM-15","GVBA ","V020","210,1,N,0051,1","22000,1,9,N","011265,1,N,1","+0330,1","+0220,1","99999,9","04,5,+00450,1,99,9",,,"04,99,1,99,9,99,9,99999,9,99,9,99,9","10102,1,99999,9",,,,"MET057METAR GVBA 241600Z 21010KT 9999 SCT015 33/22 Q1010 NOSIG;",
"08594499999","2010-09-24T17:00:00","4","16.136531","-22.888897","21.03","BOA VISTA RABIL, CV","FM-15","GVBA ","V020","190,1,N,0051,1","22000,1,9,N","011265,1,N,1","+0330,1","+0230,1","99999,9","02,5,+00450,1,99,9",,,"02,99,1,99,9,99,9,99999,9,99,9,99,9","10102,1,99999,9",,,,"MET057METAR GVBA 241700Z 19010KT 9999 FEW015 33/23 Q1010 NOSIG;",
"08594499999","2010-09-24T18:00:00","4","16.136531","-22.888897","21.03","BOA VISTA RABIL, CV","FM-15","GVBA ","V020","180,1,N,0057,1","22000,1,9,N","011265,1,N,1","+0310,1","+0230,1","99999,9","02,5,+00450,1,99,9",,,"02,99,1,99,9,99,9,99999,9,99,9,99,9","10102,1,99999,9",,,,"MET057METAR GVBA 241800Z 18011KT 9999 FEW015 31/23 Q1010 NOSIG;",
"08594499999","2010-09-24T19:00:00","4","16.136531","-22.888897","21.03","BOA VISTA RABIL, CV","FM-15","GVBA ","V020","190,1,N,0046,1","22000,1,9,N","011265,1,N,1","+0300,1","+0230,1","99999,9","04,5,+00450,1,99,9",,,"04,99,1,99,9,99,9,99999,9,99,9,99,9","10102,1,99999,9",,,,"MET057METAR GVBA 241900Z 19009KT 9999 SCT015 30/23 Q1010 NOSIG;",
"08594499999","2010-09-25T08:00:00","4","16.136531","-22.888897","21.03","BOA VISTA RABIL, CV","FM-15","GVBA ","V020","120,1,N,0015,1","22000,1,9,N","011265,1,N,1","+0260,1","+0240,1","99999,9","02,5,+00390,1,99,9",,,"02,99,1,99,9,99,9,99999,9,99,9,99,9","10119,1,99999,9",,,,"MET057METAR GVBA 250800Z 12003KT 9999 FEW013 26/24 Q1012 NOSIG;",
"08594499999","2010-09-25T09:00:00","4","16.136531","-22.888897","21.03","BOA VISTA RABIL, CV","FM-15","GVBA ","V020","150,1,N,0031,1","22000,1,9,N","011265,1,N,1","+0280,1","+0250,1","99999,9","04,5,+00390,1,99,9",,,"04,99,1,99,9,99,9,99999,9,99,9,99,9","10119,1,99999,9",,,,"MET057METAR GVBA 250900Z 15006KT 9999 SCT013 28/25 Q1012 NOSIG;",
"08594499999","2010-09-25T10:00:00","4","16.136531","-22.888897","21.03","BOA VISTA RABIL, CV","FM-15","GVBA ","V020","130,1,N,0026,1","22000,1,9,N","011265,1,N,1","+0310,1","+0240,1","99999,9","04,5,+00420,1,99,9",,,"04,99,1,99,9,99,9,99999,9,99,9,99,9","10129,1,99999,9",,,,"MET057METAR GVBA 251000Z 13005KT 9999 SCT014 31/24 Q1013 NOSIG;",
"08594499999","2010-09-25T11:00:00","4","16.136531","-22.888897","21.03","BOA VISTA RABIL, CV","FM-15","GVBA ","V020","160,1,N,0021,1","22000,1,9,N","011265,1,N,1","+0310,1","+0230,1","99999,9","04,5,+00420,1,99,9",,,"04,99,1,99,9,99,9,99999,9,99,9,99,9","10129,1,99999,9",,,,"MET057METAR GVBA 251100Z 16004KT 9999 SCT014 31/23 Q1013 NOSIG;",
"08594499999","2010-09-25T12:00:00","4","16.136531","-22.888897","21.03","BOA VISTA RABIL, CV","FM-15","GVBA ","V020","170,1,N,0031,1","22000,1,9,N","011265,1,N,1","+0320,1","+0230,1","99999,9","04,5,+00420,1,99,9",,,"04,99,1,99,9,99,9,99999,9,99,9,99,9","10129,1,99999,9",,,,"MET057METAR GVBA 251200Z 17006KT 9999 SCT014 32/23 Q1013 NOSIG;",
"08594499999","2010-09-25T13:00:00","4","16.136531","-22.888897","21.03","BOA VISTA RABIL, CV","FM-15","GVBA ","V020","340,1,N,0041,1","22000,1,9,N","011265,1,N,1","+0310,1","+0250,1","99999,9","04,5,+00450,1,99,9",,,"04,99,1,99,9,99,9,99999,9,99,9,99,9","10119,1,99999,9",,,,"MET057METAR GVBA 251300Z 34008KT 9999 SCT015 31/25 Q1012 NOSIG;",
"08594499999","2010-09-25T14:00:00","4","16.136531","-22.888897","21.03","BOA VISTA RABIL, CV","FM-15","GVBA ","V020","330,1,N,0041,1","00450,1,C,N","011265,1,N,1","+0310,1","+0240,1","99999,9","07,5,+00450,1,99,9",,,"07,99,1,99,9,99,9,99999,9,99,9,99,9","10119,1,99999,9",,,,"MET057METAR GVBA 251400Z 33008KT 9999 BKN015 31/24 Q1012 NOSIG;",
"08594499999","2010-09-25T15:00:00","4","16.136531","-22.888897","21.03","BOA VISTA RABIL, CV","FM-15","GVBA ","V020","320,1,N,0062,1","00450,1,C,N","011265,1,N,1","+0300,1","+0250,1","99999,9","07,5,+00450,1,99,9",,,"07,99,1,99,9,99,9,99999,9,99,9,99,9","10108,1,99999,9",,,,"MET057METAR GVBA 251500Z 32012KT 9999 BKN015 30/25 Q1011 NOSIG;",
"08594499999","2010-09-25T16:00:00","4","16.136531","-22.888897","21.03","BOA VISTA RABIL, CV","FM-15","GVBA ","V020","320,1,N,0041,1","00450,1,C,N","011265,1,N,1","+0300,1","+0250,1","99999,9","07,5,+00450,1,99,9",,,"07,99,1,99,9,99,9,99999,9,99,9,99,9","10108,1,99999,9",,,,"MET057METAR GVBA 251600Z 32008KT 9999 BKN015 30/25 Q1011 NOSIG;",
"08594499999","2010-09-25T17:00:00","4","16.136531","-22.888897","21.03","BOA VISTA RABIL, CV","FM-15","GVBA ","V020","350,1,N,0036,1","00450,1,C,N","011265,1,N,1","+0290,1","+0240,1","99999,9","07,5,+00450,1,99,9",,,"07,99,1,99,9,99,9,99999,9,99,9,99,9","10108,1,99999,9",,,,"MET057METAR GVBA 251700Z 35007KT 9999 BKN015 29/24 Q1011 NOSIG;",
"08594499999","2010-09-25T18:00:00","4","16.136531","-22.888897","21.03","BOA VISTA RABIL, CV","FM-15","GVBA ","V020","350,1,N,0031,1","00450,1,C,N","011265,1,N,1","+0280,1","+0240,1","99999,9","02,5,+00390,1,99,9","07,5,+00450,1,99,9",,"07,99,1,99,9,99,9,99999,9,99,9,99,9","10108,1,99999,9",,,,"MET064METAR GVBA 251800Z 35006KT 9999 FEW013 BKN015 28/24 Q1011 NOSIG;",
"08594499999","2010-09-25T19:00:00","4","16.136531","-22.888897","21.03","BOA VISTA RABIL, CV","FM-15","GVBA ","V020","280,1,N,0026,1","00450,1,C,N","011265,1,N,1","+0270,1","+0240,1","99999,9","04,5,+00390,1,99,9","07,5,+00450,1,99,9",,"07,99,1,99,9,99,9,99999,9,99,9,99,9","10108,1,99999,9",,,,"MET064METAR GVBA 251900Z 28005KT 9999 SCT013 BKN015 27/24 Q1011 NOSIG;",
"08594499999","2010-09-26T08:00:00","4","16.136531","-22.888897","21.03","BOA VISTA RABIL, CV","FM-15","GVBA ","V020","999,9,C,0000,1","22000,1,9,N","011265,1,N,1","+0250,1","+0240,1","99999,9","02,5,+00390,1,99,9",,,"02,99,1,99,9,99,9,99999,9,99,9,99,9","10119,1,99999,9",,,,"MET057METAR GVBA 260800Z 00000KT 9999 FEW013 25/24 Q1012 NOSIG;",
"08594499999","2010-09-26T09:00:00","4","16.136531","-22.888897","21.03","BOA VISTA RABIL, CV","FM-15","GVBA ","V020","999,9,V,0010,1","22000,1,9,N","011265,1,N,1","+0280,1","+0250,1","99999,9","02,5,+00390,1,99,9",,,"02,99,1,99,9,99,9,99999,9,99,9,99,9","10129,1,99999,9",,,,"MET057METAR GVBA 260900Z VRB02KT 9999 FEW013 28/25 Q1013 NOSIG;",
"08594499999","2010-09-26T10:00:00","4","16.136531","-22.888897","21.03","BOA VISTA RABIL, CV","FM-15","GVBA ","V020","999,9,V,0015,1","00450,1,C,N","011265,1,N,1","+0300,1","+0250,1","99999,9","02,5,+00390,1,99,9","07,5,+00450,1,99,9",,"07,99,1,99,9,99,9,99999,9,99,9,99,9","10129,1,99999,9",,,,"MET064METAR GVBA 261000Z VRB03KT 9999 FEW013 BKN015 30/25 Q1013 NOSIG;",
"08594499999","2010-09-26T11:00:00","4","16.136531","-22.888897","21.03","BOA VISTA RABIL, CV","FM-15","GVBA ","V020","999,9,V,0015,1","00450,1,C,N","011265,1,N,1","+0310,1","+0260,1","99999,9","04,5,+00420,1,99,9","07,5,+00450,1,99,9",,"07,99,1,99,9,99,9,99999,9,99,9,99,9","10129,1,99999,9",,,,"MET064METAR GVBA 261100Z VRB03KT 9999 SCT014 BKN015 31/26 Q1013 NOSIG;",
"08594499999","2010-09-26T13:00:00","4","16.136531","-22.888897","21.03","BOA VISTA RABIL, CV","FM-15","GVBA ","V020","360,1,N,0041,1","00450,1,C,N","011265,1,N,1","+0320,1","+0250,1","99999,9","07,5,+00450,1,99,9",,,"07,99,1,99,9,99,9,99999,9,99,9,99,9","10129,1,99999,9",,,,"MET057METAR GVBA 261300Z 36008KT 9999 BKN015 32/25 Q1013 NOSIG;",
"08594499999","2010-09-26T14:00:00","4","16.136531","-22.888897","21.03","BOA VISTA RABIL, CV","FM-15","GVBA ","V020","320,1,N,0046,1","00450,1,C,N","011265,1,N,1","+0320,1","+0250,1","99999,9","07,5,+00450,1,99,9",,,"07,99,1,99,9,99,9,99999,9,99,9,99,9","10119,1,99999,9",,,,"MET057METAR GVBA 261400Z 32009KT 9999 BKN015 32/25 Q1012 NOSIG;",
"08594499999","2010-09-26T15:00:00","4","16.136531","-22.888897","21.03","BOA VISTA RABIL, CV","FM-15","GVBA ","V020","020,1,N,0051,1","00450,1,C,N","011265,1,N,1","+0290,1","+0260,1","99999,9","07,5,+00450,1,99,9",,,"07,99,1,99,9,99,9,99999,9,99,9,99,9","10119,1,99999,9","61,1",,,"MET061METAR GVBA 261500Z 02010KT 9999 -RA BKN015 29/26 Q1012 NOSIG;",
"08594499999","2010-09-26T16:00:00","4","16.136531","-22.888897","21.03","BOA VISTA RABIL, CV","FM-15","GVBA ","V020","030,1,N,0062,1","00450,1,C,N","011265,1,N,1","+0280,1","+0260,1","99999,9","02,5,+00390,1,99,9","07,5,+00450,1,99,9",,"07,99,1,99,9,99,9,99999,9,99,9,99,9","10108,1,99999,9",,,,"MET064METAR GVBA 261600Z 03012KT 9999 FEW013 BKN015 28/26 Q1011 NOSIG;",
"08594499999","2010-09-26T17:00:00","4","16.136531","-22.888897","21.03","BOA VISTA RABIL, CV","FM-15","GVBA ","V020","999,9,V,0015,1","00450,1,C,N","011265,1,N,1","+0290,1","+0250,1","99999,9","07,5,+00450,1,99,9",,,"07,99,1,99,9,99,9,99999,9,99,9,99,9","10108,1,99999,9",,,,"MET057METAR GVBA 261700Z VRB03KT 9999 BKN015 29/25 Q1011 NOSIG;",
"08594499999","2010-09-26T18:00:00","4","16.136531","-22.888897","21.03","BOA VISTA RABIL, CV","FM-15","GVBA ","V020","040,1,N,0051,1","00450,1,C,N","011265,1,N,1","+0290,1","+0250,1","99999,9","07,5,+00450,1,99,9",,,"07,99,1,99,9,99,9,99999,9,99,9,99,9","10108,1,99999,9",,,,"MET057METAR GVBA 261800Z 04010KT 9999 BKN015 29/25 Q1011 NOSIG;",
"08594499999","2010-09-26T19:00:00","4","16.136531","-22.888897","21.03","BOA VISTA RABIL, CV","FM-15","GVBA ","V020","050,1,N,0051,1","22000,1,9,N","011265,1,N,1","+0290,1","+0250,1","99999,9","04,5,+00450,1,99,9",,,"04,99,1,99,9,99,9,99999,9,99,9,99,9","10108,1,99999,9",,,,"MET057METAR GVBA 261900Z 05010KT 9999 SCT015 29/25 Q1011 NOSIG;",
"08594499999","2010-09-27T10:00:00","4","16.136531","-22.888897","21.03","BOA VISTA RABIL, CV","FM-15","GVBA ","V020","020,1,N,0051,1","22000,1,9,N","011265,1,N,1","+0290,1","+0260,1","99999,9","02,5,+00420,1,99,9",,,"02,99,1,99,9,99,9,99999,9,99,9,99,9","10139,1,99999,9",,,,"MET057METAR GVBA 271000Z 02010KT 9999 FEW014 29/26 Q1014 NOSIG;",
"08594499999","2010-09-27T11:00:00","4","16.136531","-22.888897","21.03","BOA VISTA RABIL, CV","FM-15","GVBA ","V020","020,1,N,0067,1","22000,1,9,N","011265,1,N,1","+0300,1","+0250,1","99999,9","04,5,+00420,1,99,9",,,"04,99,1,99,9,99,9,99999,9,99,9,99,9","10139,1,99999,9",,,,"MET057METAR GVBA 271100Z 02013KT 9999 SCT014 30/25 Q1014 NOSIG;",
"08594499999","2010-09-27T12:00:00","4","16.136531","-22.888897","21.03","BOA VISTA RABIL, CV","FM-15","GVBA ","V020","010,1,N,0072,1","22000,1,9,N","011265,1,N,1","+0310,1","+0250,1","99999,9","04,5,+00420,1,99,9",,,"04,99,1,99,9,99,9,99999,9,99,9,99,9","10129,1,99999,9",,,,"MET057METAR GVBA 271200Z 01014KT 9999 SCT014 31/25 Q1013 NOSIG;",
"08594499999","2010-09-27T13:00:00","4","16.136531","-22.888897","21.03","BOA VISTA RABIL, CV","FM-15","GVBA ","V020","010,1,N,0067,1","22000,1,9,N","011265,1,N,1","+0310,1","+0250,1","99999,9","04,5,+00420,1,99,9",,,"04,99,1,99,9,99,9,99999,9,99,9,99,9","10129,1,99999,9",,,,"MET057METAR GVBA 271300Z 01013KT 9999 SCT014 31/25 Q1013 NOSIG;",
"08594499999","2010-09-27T14:00:00","4","16.136531","-22.888897","21.03","BOA VISTA RABIL, CV","FM-15","GVBA ","V020","030,1,N,0082,1","22000,1,9,N","011265,1,N,1","+0320,1","+0250,1","99999,9","02,5,+00450,1,99,9",,,"02,99,1,99,9,99,9,99999,9,99,9,99,9","10119,1,99999,9",,,,"MET057METAR GVBA 271400Z 03016KT 9999 FEW015 32/25 Q1012 NOSIG;",
"08594499999","2010-09-27T15:00:00","4","16.136531","-22.888897","21.03","BOA VISTA RABIL, CV","FM-15","GVBA ","V020","030,1,N,0082,1","22000,1,9,N","011265,1,N,1","+0320,1","+0240,1","99999,9","02,5,+00450,1,99,9",,,"02,99,1,99,9,99,9,99999,9,99,9,99,9","10108,1,99999,9",,,,"MET057METAR GVBA 271500Z 03016KT 9999 FEW015 32/24 Q1011 NOSIG;",
"08594499999","2010-09-27T16:00:00","4","16.136531","-22.888897","21.03","BOA VISTA RABIL, CV","FM-15","GVBA ","V020","020,1,N,0077,1","22000,1,9,N","011265,1,N,1","+0310,1","+0240,1","99999,9","02,5,+00450,1,99,9",,,"02,99,1,99,9,99,9,99999,9,99,9,99,9","10108,1,99999,9",,,,"MET057METAR GVBA 271600Z 02015KT 9999 FEW015 31/24 Q1011 NOSIG;",
"08594499999","2010-09-27T17:00:00","4","16.136531","-22.888897","21.03","BOA VISTA RABIL, CV","FM-15","GVBA ","V020","020,1,N,0062,1","22000,1,9,N","011265,1,N,1","+0310,1","+0250,1","99999,9","02,5,+00450,1,99,9",,,"02,99,1,99,9,99,9,99999,9,99,9,99,9","10102,1,99999,9",,,,"MET057METAR GVBA 271700Z 02012KT 9999 FEW015 31/25 Q1010 NOSIG;",
"08594499999","2010-09-27T18:00:00","4","16.136531","-22.888897","21.03","BOA VISTA RABIL, CV","FM-15","GVBA ","V020","030,1,N,0072,1","22000,1,9,N","011265,1,N,1","+0300,1","+0250,1","99999,9","02,5,+00450,1,99,9",,,"02,99,1,99,9,99,9,99999,9,99,9,99,9","10102,1,99999,9",,,,"MET057METAR GVBA 271800Z 03014KT 9999 FEW015 30/25 Q1010 NOSIG;",
"08594499999","2010-09-27T19:00:00","4","16.136531","-22.888897","21.03","BOA VISTA RABIL, CV","FM-15","GVBA ","V020","050,1,N,0072,1","22000,1,9,N","011265,1,N,1","+0290,1","+0250,1","99999,9","04,5,+00450,1,99,9",,,"04,99,1,99,9,99,9,99999,9,99,9,99,9","10108,1,99999,9",,,,"MET057METAR GVBA 271900Z 05014KT 9999 SCT015 29/25 Q1011 NOSIG;",
"08594499999","2010-09-28T08:00:00","4","16.136531","-22.888897","21.03","BOA VISTA RABIL, CV","FM-15","GVBA ","V020","999,9,C,0000,1","22000,1,9,N","011265,1,N,1","+0270,1","+0250,1","99999,9","04,5,+00450,1,99,9",,,"04,99,1,99,9,99,9,99999,9,99,9,99,9","10119,1,99999,9",,,,"MET057METAR GVBA 280800Z 00000KT 9999 SCT015 27/25 Q1012 NOSIG;",
"08594499999","2010-09-28T09:00:00","4","16.136531","-22.888897","21.03","BOA VISTA RABIL, CV","FM-15","GVBA ","V020","080,1,N,0031,1","00450,1,C,N","011265,1,N,1","+0290,1","+0250,1","99999,9","07,5,+00450,1,99,9",,,"07,99,1,99,9,99,9,99999,9,99,9,99,9","10119,1,99999,9",,,,"MET057METAR GVBA 280900Z 08006KT 9999 BKN015 29/25 Q1012 NOSIG;",
"08594499999","2010-09-28T10:00:00","4","16.136531","-22.888897","21.03","BOA VISTA RABIL, CV","FM-15","GVBA ","V020","070,1,N,0041,1","00450,1,C,N","011265,1,N,1","+0310,1","+0250,1","99999,9","07,5,+00450,1,99,9",,,"07,99,1,99,9,99,9,99999,9,99,9,99,9","10119,1,99999,9",,,,"MET057METAR GVBA 281000Z 07008KT 9999 BKN015 31/25 Q1012 NOSIG;",
"08594499999","2010-09-28T11:00:00","4","16.136531","-22.888897","21.03","BOA VISTA RABIL, CV","FM-15","GVBA ","V020","060,1,N,0041,1","22000,1,9,N","011265,1,N,1","+0320,1","+0250,1","99999,9","04,5,+00450,1,99,9",,,"04,99,1,99,9,99,9,99999,9,99,9,99,9","10119,1,99999,9",,,,"MET057METAR GVBA 281100Z 06008KT 9999 SCT015 32/25 Q1012 NOSIG;",
"08594499999","2010-09-28T12:00:00","4","16.136531","-22.888897","21.03","BOA VISTA RABIL, CV","FM-15","GVBA ","V020","060,1,N,0041,1","22000,1,9,N","011265,1,N,1","+0330,1","+0250,1","99999,9","04,5,+00450,1,99,9",,,"04,99,1,99,9,99,9,99999,9,99,9,99,9","10119,1,99999,9",,,,"MET057METAR GVBA 281200Z 06008KT 9999 SCT015 33/25 Q1012 NOSIG;",
"08594499999","2010-09-28T13:00:00","4","16.136531","-22.888897","21.03","BOA VISTA RABIL, CV","FM-15","GVBA ","V020","070,1,N,0041,1","22000,1,9,N","011265,1,N,1","+0330,1","+0250,1","99999,9","04,5,+00450,1,99,9",,,"04,99,1,99,9,99,9,99999,9,99,9,99,9","10119,1,99999,9",,,,"MET057METAR GVBA 281300Z 07008KT 9999 SCT015 33/25 Q1012 NOSIG;",
"08594499999","2010-09-28T14:00:00","4","16.136531","-22.888897","21.03","BOA VISTA RABIL, CV","FM-15","GVBA ","V020","020,1,N,0072,1","22000,1,9,N","011265,1,N,1","+0330,1","+0250,1","99999,9","04,5,+00450,1,99,9",,,"04,99,1,99,9,99,9,99999,9,99,9,99,9","10108,1,99999,9",,,,"MET057METAR GVBA 281400Z 02014KT 9999 SCT015 33/25 Q1011 NOSIG;",
"08594499999","2010-09-28T15:00:00","4","16.136531","-22.888897","21.03","BOA VISTA RABIL, CV","FM-15","GVBA ","V020","030,1,N,0067,1","22000,1,9,N","011265,1,N,1","+0330,1","+0250,1","99999,9","02,5,+00450,1,99,9",,,"02,99,1,99,9,99,9,99999,9,99,9,99,9","10108,1,99999,9",,,,"MET057METAR GVBA 281500Z 03013KT 9999 FEW015 33/25 Q1011 NOSIG;",
"08594499999","2010-09-28T16:00:00","4","16.136531","-22.888897","21.03","BOA VISTA RABIL, CV","FM-15","GVBA ","V020","050,1,N,0062,1","22000,1,9,N","011265,1,N,1","+0340,1","+0250,1","99999,9","02,5,+00450,1,99,9",,,"02,99,1,99,9,99,9,99999,9,99,9,99,9","10108,1,99999,9",,,,"MET057METAR GVBA 281600Z 05012KT 9999 FEW015 34/25 Q1011 NOSIG;",
"08594499999","2010-09-28T17:00:00","4","16.136531","-22.888897","21.03","BOA VISTA RABIL, CV","FM-15","GVBA ","V020","040,1,N,0062,1","22000,1,9,N","011265,1,N,1","+0330,1","+0250,1","99999,9","02,5,+00450,1,99,9",,,"02,99,1,99,9,99,9,99999,9,99,9,99,9","10102,1,99999,9",,,,"MET057METAR GVBA 281700Z 04012KT 9999 FEW015 33/25 Q1010 NOSIG;",
"08594499999","2010-09-28T18:00:00","4","16.136531","-22.888897","21.03","BOA VISTA RABIL, CV","FM-15","GVBA ","V020","050,1,N,0062,1","22000,1,9,N","011265,1,N,1","+0320,1","+0250,1","99999,9","02,5,+00450,1,99,9",,,"02,99,1,99,9,99,9,99999,9,99,9,99,9","10102,1,99999,9",,,,"MET057METAR GVBA 281800Z 05012KT 9999 FEW015 32/25 Q1010 NOSIG;",
"08594499999","2010-09-28T19:00:00","4","16.136531","-22.888897","21.03","BOA VISTA RABIL, CV","FM-15","GVBA ","V020","050,1,N,0057,1","22000,1,9,N","011265,1,N,1","+0300,1","+0250,1","99999,9","02,5,+00450,1,99,9",,,"02,99,1,99,9,99,9,99999,9,99,9,99,9","10108,1,99999,9",,,,"MET057METAR GVBA 281900Z 05011KT 9999 FEW015 30/25 Q1011 NOSIG;",
"08594499999","2010-09-29T09:00:00","4","16.136531","-22.888897","21.03","BOA VISTA RABIL, CV","FM-15","GVBA ","V020","090,1,N,0036,1","22000,1,9,N","011265,1,N,1","+0290,1","+0250,1","99999,9","02,5,+00420,1,99,9",,,"02,99,1,99,9,99,9,99999,9,99,9,99,9","10129,1,99999,9",,,,"MET057METAR GVBA 290900Z 09007KT 9999 FEW014 29/25 Q1013 NOSIG;",
"08594499999","2010-09-29T10:00:00","4","16.136531","-22.888897","21.03","BOA VISTA RABIL, CV","FM-15","GVBA ","V020","050,1,N,0031,1","00450,1,C,N","011265,1,N,1","+0300,1","+0250,1","99999,9","07,5,+00450,1,99,9",,,"07,99,1,99,9,99,9,99999,9,99,9,99,9","10139,1,99999,9",,,,"MET057METAR GVBA 291000Z 05006KT 9999 BKN015 30/25 Q1014 NOSIG;",
"08594499999","2010-09-29T11:00:00","4","16.136531","-22.888897","21.03","BOA VISTA RABIL, CV","FM-15","GVBA ","V020","040,1,N,0062,1","22000,1,9,N","011265,1,N,1","+0310,1","+0250,1","99999,9","04,5,+00450,1,99,9",,,"04,99,1,99,9,99,9,99999,9,99,9,99,9","10129,1,99999,9",,,,"MET057METAR GVBA 291100Z 04012KT 9999 SCT015 31/25 Q1013 NOSIG;",
"08594499999","2010-09-29T12:00:00","4","16.136531","-22.888897","21.03","BOA VISTA RABIL, CV","FM-15","GVBA ","V020","030,1,N,0072,1","22000,1,9,N","011265,1,N,1","+0320,1","+0250,1","99999,9","04,5,+00450,1,99,9",,,"04,99,1,99,9,99,9,99999,9,99,9,99,9","10129,1,99999,9",,,,"MET057METAR GVBA 291200Z 03014KT 9999 SCT015 32/25 Q1013 NOSIG;",
"08594499999","2010-09-29T13:00:00","4","16.136531","-22.888897","21.03","BOA VISTA RABIL, CV","FM-15","GVBA ","V020","040,1,N,0077,1","22000,1,9,N","011265,1,N,1","+0320,1","+0250,1","99999,9","04,5,+00450,1,99,9",,,"04,99,1,99,9,99,9,99999,9,99,9,99,9","10129,1,99999,9",,,,"MET057METAR GVBA 291300Z 04015KT 9999 SCT015 32/25 Q1013 NOSIG;",
"08594499999","2010-09-29T14:00:00","4","16.136531","-22.888897","21.03","BOA VISTA RABIL, CV","FM-15","GVBA ","V020","040,1,N,0072,1","22000,1,9,N","011265,1,N,1","+0310,1","+0250,1","99999,9","04,5,+00450,1,99,9",,,"04,99,1,99,9,99,9,99999,9,99,9,99,9","10119,1,99999,9",,,,"MET057METAR GVBA 291400Z 04014KT 9999 SCT015 31/25 Q1012 NOSIG;",
"08594499999","2010-09-29T16:00:00","4","16.136531","-22.888897","21.03","BOA VISTA RABIL, CV","FM-15","GVBA ","V020","050,1,N,0098,1","02700,1,C,N","011265,1,N,1","+0320,1","+0250,1","99999,9","04,5,+00450,1,99,9","07,5,+02700,1,99,9",,"07,99,1,99,9,99,9,99999,9,99,9,99,9","10108,1,99999,9",,,,"MET064METAR GVBA 291600Z 05019KT 9999 SCT015 BKN090 32/25 Q1011 NOSIG;",
"08594499999","2010-09-29T17:00:00","4","16.136531","-22.888897","21.03","BOA VISTA RABIL, CV","FM-15","GVBA ","V020","060,1,N,0082,1","22000,1,9,N","011265,1,N,1","+0310,1","+0250,1","99999,9","04,5,+00450,1,99,9",,,"04,99,1,99,9,99,9,99999,9,99,9,99,9","10108,1,99999,9",,,,"MET057METAR GVBA 291700Z 06016KT 9999 SCT015 31/25 Q1011 NOSIG;",
"08594499999","2010-09-29T18:00:00","4","16.136531","-22.888897","21.03","BOA VISTA RABIL, CV","FM-15","GVBA ","V020","050,1,N,0098,1","22000,1,9,N","011265,1,N,1","+0300,1","+0250,1","99999,9","02,5,+00450,1,99,9",,,"02,99,1,99,9,99,9,99999,9,99,9,99,9","10108,1,99999,9",,,,"MET057METAR GVBA 291800Z 05019KT 9999 FEW015 30/25 Q1011 NOSIG;",
"08594499999","2010-09-30T08:00:00","4","16.136531","-22.888897","21.03","BOA VISTA RABIL, CV","FM-15","GVBA ","V020","050,1,N,0067,1","00450,1,C,N","011265,1,N,1","+0270,1","+0220,1","99999,9","07,5,+00450,1,99,9",,,"07,99,1,99,9,99,9,99999,9,99,9,99,9","10129,1,99999,9",,,,"MET057METAR GVBA 300800Z 05013KT 9999 BKN015 27/22 Q1013 NOSIG;",
"08594499999","2010-09-30T09:00:00","4","16.136531","-22.888897","21.03","BOA VISTA RABIL, CV","FM-15","GVBA ","V020","060,1,N,0082,1","22000,1,9,N","011265,1,N,1","+0280,1","+0220,1","99999,9","04,5,+00450,1,99,9",,,"04,99,1,99,9,99,9,99999,9,99,9,99,9","10139,1,99999,9",,,,"MET057METAR GVBA 300900Z 06016KT 9999 SCT015 28/22 Q1014 NOSIG;",
"08594499999","2010-09-30T10:00:00","4","16.136531","-22.888897","21.03","BOA VISTA RABIL, CV","FM-15","GVBA ","V020","050,1,N,0082,1","00450,1,C,N","011265,1,N,1","+0290,1","+0220,1","99999,9","07,5,+00450,1,99,9",,,"07,99,1,99,9,99,9,99999,9,99,9,99,9","10139,1,99999,9",,,,"MET057METAR GVBA 301000Z 05016KT 9999 BKN015 29/22 Q1014 NOSIG;",
"08594499999","2010-09-30T11:00:00","4","16.136531","-22.888897","21.03","BOA VISTA RABIL, CV","FM-15","GVBA ","V020","040,1,N,0087,1","00450,1,C,N","011265,1,N,1","+0300,1","+0220,1","99999,9","07,5,+00450,1,99,9",,,"07,99,1,99,9,99,9,99999,9,99,9,99,9","10149,1,99999,9",,,,"MET057METAR GVBA 301100Z 04017KT 9999 BKN015 30/22 Q1015 NOSIG;",
"08594499999","2010-09-30T12:00:00","4","16.136531","-22.888897","21.03","BOA VISTA RABIL, CV","FM-15","GVBA ","V020","050,1,N,0093,1","22000,1,9,N","011265,1,N,1","+0310,1","+0220,1","99999,9","04,5,+00450,1,99,9",,,"04,99,1,99,9,99,9,99999,9,99,9,99,9","10139,1,99999,9",,,,"MET057METAR GVBA 301200Z 05018KT 9999 SCT015 31/22 Q1014 NOSIG;",
"08594499999","2010-09-30T13:00:00","4","16.136531","-22.888897","21.03","BOA VISTA RABIL, CV","FM-15","GVBA ","V020","050,1,N,0087,1","22000,1,9,N","011265,1,N,1","+0310,1","+0220,1","99999,9","02,5,+00450,1,99,9",,,"02,99,1,99,9,99,9,99999,9,99,9,99,9","10139,1,99999,9",,,,"MET057METAR GVBA 301300Z 05017KT 9999 FEW015 31/22 Q1014 NOSIG;",
"08594499999","2010-09-30T14:00:00","4","16.136531","-22.888897","21.03","BOA VISTA RABIL, CV","FM-15","GVBA ","V020","030,1,N,0103,1","22000,1,9,N","011265,1,N,1","+0310,1","+0220,1","99999,9","02,5,+00450,1,99,9",,,"02,99,1,99,9,99,9,99999,9,99,9,99,9","10129,1,99999,9",,,,"MET057METAR GVBA 301400Z 03020KT 9999 FEW015 31/22 Q1013 NOSIG;",
"08594499999","2010-09-30T15:00:00","4","16.136531","-22.888897","21.03","BOA VISTA RABIL, CV","FM-15","GVBA ","V020","030,1,N,0108,1","22000,1,9,N","011265,1,N,1","+0310,1","+0220,1","99999,9","02,5,+00450,1,99,9",,,"02,99,1,99,9,99,9,99999,9,99,9,99,9","10119,1,99999,9",,,,"MET057METAR GVBA 301500Z 03021KT 9999 FEW015 31/22 Q1012 NOSIG;",
"08594499999","2010-09-30T16:00:00","4","16.136531","-22.888897","21.03","BOA VISTA RABIL, CV","FM-15","GVBA ","V020","040,1,N,0103,1","22000,1,9,N","011265,1,N,1","+0310,1","+0220,1","99999,9","02,5,+00450,1,99,9",,,"02,99,1,99,9,99,9,99999,9,99,9,99,9","10119,1,99999,9",,,,"MET057METAR GVBA 301600Z 04020KT 9999 FEW015 31/22 Q1012 NOSIG;",
"08594499999","2010-09-30T17:00:00","4","16.136531","-22.888897","21.03","BOA VISTA RABIL, CV","FM-15","GVBA ","V020","040,1,N,0093,1","22000,1,9,N","011265,1,N,1","+0300,1","+0220,1","99999,9","04,5,+00450,1,99,9",,,"04,99,1,99,9,99,9,99999,9,99,9,99,9","10119,1,99999,9",,,,"MET057METAR GVBA 301700Z 04018KT 9999 SCT015 30/22 Q1012 NOSIG;",
"08594499999","2010-09-30T18:00:00","4","16.136531","-22.888897","21.03","BOA VISTA RABIL, CV","FM-15","GVBA ","V020","040,1,N,0077,1","22000,1,9,N","011265,1,N,1","+0290,1","+0220,1","99999,9","02,5,+00450,1,99,9",,,"02,99,1,99,9,99,9,99999,9,99,9,99,9","10119,1,99999,9",,,,"MET057METAR GVBA 301800Z 04015KT 9999 FEW015 29/22 Q1012 NOSIG;",
"08594499999","2010-10-01T08:00:00","4","16.136531","-22.888897","21.03","BOA VISTA RABIL, CV","FM-15","GVBA ","V020","010,1,N,0041,1","00420,1,C,N","011265,1,N,1","+0240,1","+0200,1","99999,9","07,5,+00420,1,99,9",,,"07,99,1,99,9,99,9,99999,9,99,9,99,9","10119,1,99999,9",,,,"MET057METAR GVBA 010800Z 01008KT 9999 BKN014 24/20 Q1012 NOSIG;",
"08594499999","2010-10-01T09:00:00","4","16.136531","-22.888897","21.03","BOA VISTA RABIL, CV","FM-15","GVBA ","V020","020,1,N,0036,1","00450,1,C,N","011265,1,N,1","+0270,1","+0200,1","99999,9","07,5,+00450,1,99,9",,,"07,99,1,99,9,99,9,99999,9,99,9,99,9","10129,1,99999,9",,,,"MET057METAR GVBA 010900Z 02007KT 9999 BKN015 27/20 Q1013 NOSIG;",
"08594499999","2010-10-01T10:00:00","4","16.136531","-22.888897","21.03","BOA VISTA RABIL, CV","FM-15","GVBA ","V020","020,1,N,0067,1","22000,1,9,N","011265,1,N,1","+0290,1","+0200,1","99999,9","04,5,+00450,1,99,9",,,"04,99,1,99,9,99,9,99999,9,99,9,99,9","10129,1,99999,9",,,,"MET057METAR GVBA 011000Z 02013KT 9999 SCT015 29/20 Q1013 NOSIG;",
"08594499999","2010-10-01T11:00:00","4","16.136531","-22.888897","21.03","BOA VISTA RABIL, CV","FM-15","GVBA ","V020","040,1,N,0057,1","00450,1,C,N","011265,1,N,1","+0290,1","+0200,1","99999,9","07,5,+00450,1,99,9",,,"07,99,1,99,9,99,9,99999,9,99,9,99,9","10129,1,99999,9",,,,"MET057METAR GVBA 011100Z 04011KT 9999 BKN015 29/20 Q1013 NOSIG;",
"08594499999","2010-10-01T12:00:00","4","16.136531","-22.888897","21.03","BOA VISTA RABIL, CV","FM-15","GVBA ","V020","010,1,N,0067,1","22000,1,9,N","011265,1,N,1","+0300,1","+0200,1","99999,9","04,5,+00450,1,99,9",,,"04,99,1,99,9,99,9,99999,9,99,9,99,9","10129,1,99999,9",,,,"MET057METAR GVBA 011200Z 01013KT 9999 SCT015 30/20 Q1013 NOSIG;",
"08594499999","2010-10-01T13:00:00","4","16.136531","-22.888897","21.03","BOA VISTA RABIL, CV","FM-15","GVBA ","V020","030,1,N,0072,1","22000,1,9,N","011265,1,N,1","+0300,1","+0210,1","99999,9","04,5,+00450,1,99,9",,,"04,99,1,99,9,99,9,99999,9,99,9,99,9","10119,1,99999,9",,,,"MET057METAR GVBA 011300Z 03014KT 9999 SCT015 30/21 Q1012 NOSIG;",
"08594499999","2010-10-01T14:00:00","4","16.136531","-22.888897","21.03","BOA VISTA RABIL, CV","FM-15","GVBA ","V020","020,1,N,0072,1","00450,1,C,N","011265,1,N,1","+0300,1","+0200,1","99999,9","07,5,+00450,1,99,9",,,"07,99,1,99,9,99,9,99999,9,99,9,99,9","10119,1,99999,9",,,,"MET057METAR GVBA 011400Z 02014KT 9999 BKN015 30/20 Q1012 NOSIG;",
"08594499999","2010-10-01T15:00:00","4","16.136531","-22.888897","21.03","BOA VISTA RABIL, CV","FM-15","GVBA ","V020","020,1,N,0067,1","00450,1,C,N","011265,1,N,1","+0300,1","+0210,1","99999,9","07,5,+00450,1,99,9",,,"07,99,1,99,9,99,9,99999,9,99,9,99,9","10108,1,99999,9",,,,"MET057METAR GVBA 011500Z 02013KT 9999 BKN015 30/21 Q1011 NOSIG;",
"08594499999","2010-10-01T16:00:00","4","16.136531","-22.888897","21.03","BOA VISTA RABIL, CV","FM-15","GVBA ","V020","010,1,N,0067,1","00450,1,C,N","011265,1,N,1","+0300,1","+0210,1","99999,9","07,5,+00450,1,99,9",,,"07,99,1,99,9,99,9,99999,9,99,9,99,9","10102,1,99999,9",,,,"MET057METAR GVBA 011600Z 01013KT 9999 BKN015 30/21 Q1010 NOSIG;",
"08594499999","2010-10-01T17:00:00","4","16.136531","-22.888897","21.03","BOA VISTA RABIL, CV","FM-15","GVBA ","V020","030,1,N,0067,1","22000,1,9,N","011265,1,N,1","+0300,1","+0210,1","99999,9","04,5,+00450,1,99,9",,,"04,99,1,99,9,99,9,99999,9,99,9,99,9","10102,1,99999,9",,,,"MET057METAR GVBA 011700Z 03013KT 9999 SCT015 30/21 Q1010 NOSIG;",
"08594499999","2010-10-01T18:00:00","4","16.136531","-22.888897","21.03","BOA VISTA RABIL, CV","FM-15","GVBA ","V020","040,1,N,0067,1","00450,1,C,N","011265,1,N,1","+0290,1","+0210,1","99999,9","07,5,+00450,1,99,9",,,"07,99,1,99,9,99,9,99999,9,99,9,99,9","10102,1,99999,9",,,,"MET057METAR GVBA 011800Z 04013KT 9999 BKN015 29/21 Q1010 NOSIG;",
"08594499999","2010-10-01T19:00:00","4","16.136531","-22.888897","21.03","BOA VISTA RABIL, CV","FM-15","GVBA ","V020","050,1,N,0057,1","22000,1,9,N","011265,1,N,1","+0280,1","+0210,1","99999,9","04,5,+00450,1,99,9",,,"04,99,1,99,9,99,9,99999,9,99,9,99,9","10108,1,99999,9",,,,"MET057METAR GVBA 011900Z 05011KT 9999 SCT015 28/21 Q1011 NOSIG;",
"08594499999","2010-10-02T08:00:00","4","16.136531","-22.888897","21.03","BOA VISTA RABIL, CV","FM-15","GVBA ","V020","999,9,C,0000,1","22000,1,9,N","011265,1,N,1","+0230,1","+0200,1","99999,9","02,5,+00450,1,99,9",,,"02,99,1,99,9,99,9,99999,9,99,9,99,9","10119,1,99999,9",,,,"MET057METAR GVBA 020800Z 00000KT 9999 FEW015 23/20 Q1012 NOSIG;",
"08594499999","2010-10-02T10:00:00","4","16.136531","-22.888897","21.03","BOA VISTA RABIL, CV","FM-15","GVBA ","V020","020,1,N,0041,1","22000,1,9,N","011265,1,N,1","+0280,1","+0210,1","99999,9","04,5,+00450,1,99,9",,,"04,99,1,99,9,99,9,99999,9,99,9,99,9","10129,1,99999,9",,,,"MET057METAR GVBA 021000Z 02008KT 9999 SCT015 28/21 Q1013 NOSIG;",
"08594499999","2010-10-02T11:00:00","4","16.136531","-22.888897","21.03","BOA VISTA RABIL, CV","FM-15","GVBA ","V020","020,1,N,0041,1","00450,1,C,N","011265,1,N,1","+0300,1","+0210,1","99999,9","07,5,+00450,1,99,9",,,"07,99,1,99,9,99,9,99999,9,99,9,99,9","10139,1,99999,9",,,,"MET057METAR GVBA 021100Z 02008KT 9999 BKN015 30/21 Q1014 NOSIG;",
"08594499999","2010-10-02T12:00:00","4","16.136531","-22.888897","21.03","BOA VISTA RABIL, CV","FM-15","GVBA ","V020","010,1,N,0031,1","00450,1,C,N","011265,1,N,1","+0310,1","+0200,1","99999,9","07,5,+00450,1,99,9",,,"07,99,1,99,9,99,9,99999,9,99,9,99,9","10129,1,99999,9",,,,"MET057METAR GVBA 021200Z 01006KT 9999 BKN015 31/20 Q1013 NOSIG;",
"08594499999","2010-10-02T13:00:00","4","16.136531","-22.888897","21.03","BOA VISTA RABIL, CV","FM-15","GVBA ","V020","010,1,N,0031,1","00450,1,C,N","011265,1,N,1","+0310,1","+0210,1","99999,9","07,5,+00450,1,99,9",,,"07,99,1,99,9,99,9,99999,9,99,9,99,9","10129,1,99999,9",,,,"MET057METAR GVBA 021300Z 01006KT 9999 BKN015 31/21 Q1013 NOSIG;",
"08594499999","2010-10-02T15:00:00","4","16.136531","-22.888897","21.03","BOA VISTA RABIL, CV","FM-15","GVBA ","V020","020,1,N,0051,1","00450,1,C,N","011265,1,N,1","+0310,1","+0200,1","99999,9","07,5,+00450,1,99,9",,,"07,99,1,99,9,99,9,99999,9,99,9,99,9","10108,1,99999,9",,,,"MET057METAR GVBA 021500Z 02010KT 9999 BKN015 31/20 Q1011 NOSIG;",
"08594499999","2010-10-02T16:00:00","4","16.136531","-22.888897","21.03","BOA VISTA RABIL, CV","FM-15","GVBA ","V020","040,1,N,0046,1","00450,1,C,N","011265,1,N,1","+0310,1","+0210,1","99999,9","07,5,+00450,1,99,9",,,"07,99,1,99,9,99,9,99999,9,99,9,99,9","10108,1,99999,9",,,,"MET057METAR GVBA 021600Z 04009KT 9999 BKN015 31/21 Q1011 NOSIG;",
"08594499999","2010-10-02T17:00:00","4","16.136531","-22.888897","21.03","BOA VISTA RABIL, CV","FM-15","GVBA ","V020","030,1,N,0051,1","22000,1,9,N","011265,1,N,1","+0300,1","+0210,1","99999,9","04,5,+00450,1,99,9",,,"04,99,1,99,9,99,9,99999,9,99,9,99,9","10108,1,99999,9",,,,"MET057METAR GVBA 021700Z 03010KT 9999 SCT015 30/21 Q1011 NOSIG;",
"08594499999","2010-10-02T18:00:00","4","16.136531","-22.888897","21.03","BOA VISTA RABIL, CV","FM-15","GVBA ","V020","030,1,N,0046,1","00450,1,C,N","011265,1,N,1","+0290,1","+0210,1","99999,9","07,5,+00450,1,99,9",,,"07,99,1,99,9,99,9,99999,9,99,9,99,9","10108,1,99999,9",,,,"MET057METAR GVBA 021800Z 03009KT 9999 BKN015 29/21 Q1011 NOSIG;",
"08594499999","2010-10-02T19:00:00","4","16.136531","-22.888897","21.03","BOA VISTA RABIL, CV","FM-15","GVBA ","V020","040,1,N,0051,1","00450,1,C,N","011265,1,N,1","+0290,1","+0220,1","99999,9","07,5,+00450,1,99,9","04,5,+03000,1,99,9",,,"10108,1,99999,9",,,,"MET064METAR GVBA 021900Z 04010KT 9999 BKN015 SCT100 29/22 Q1011 NOSIG;","Q01+000042SCOTCV"
"08594499999","2010-10-03T08:00:00","4","16.136531","-22.888897","21.03","BOA VISTA RABIL, CV","FM-15","GVBA ","V020","050,1,N,0036,1","03000,1,C,N","011265,1,N,1","+0260,1","+0220,1","99999,9","02,5,+00420,1,99,9","07,5,+03000,1,99,9",,"07,99,1,99,9,99,9,99999,9,99,9,99,9","10129,1,99999,9",,,,"MET064METAR GVBA 030800Z 05007KT 9999 FEW014 BKN100 26/22 Q1013 NOSIG;",
"08594499999","2010-10-03T09:00:00","4","16.136531","-22.888897","21.03","BOA VISTA RABIL, CV","FM-15","GVBA ","V020","060,1,N,0036,1","03000,1,C,N","011265,1,N,1","+0280,1","+0230,1","99999,9","02,5,+00420,1,99,9","07,5,+03000,1,99,9",,"07,99,1,99,9,99,9,99999,9,99,9,99,9","10129,1,99999,9",,,,"MET064METAR GVBA 030900Z 06007KT 9999 FEW014 BKN100 28/23 Q1013 NOSIG;",
"08594499999","2010-10-03T10:00:00","4","16.136531","-22.888897","21.03","BOA VISTA RABIL, CV","FM-15","GVBA ","V020","060,1,N,0051,1","99999,9,C,N","011265,1,N,1","+0290,1","+0230,1","99999,9","04,5,+00450,1,99,9","04,5,+03000,1,99,9",,"04,99,1,99,9,99,9,99999,9,99,9,99,9","10139,1,99999,9",,,,"MET064METAR GVBA 031000Z 06010KT 9999 SCT015 SCT100 29/23 Q1014 NOSIG;","P01 030003SCOCIG"
"08594499999","2010-10-03T11:00:00","4","16.136531","-22.888897","21.03","BOA VISTA RABIL, CV","FM-15","GVBA ","V020","040,1,N,0062,1","99999,9,C,N","011265,1,N,1","+0300,1","+0220,1","99999,9","02,5,+00450,1,99,9","04,5,+03000,1,99,9",,"04,99,1,99,9,99,9,99999,9,99,9,99,9","10139,1,99999,9",,,,"MET064METAR GVBA 031100Z 04012KT 9999 FEW015 SCT100 30/22 Q1014 NOSIG;","P01 030003SCOCIG"
"08594499999","2010-10-03T12:00:00","4","16.136531","-22.888897","21.03","BOA VISTA RABIL, CV","FM-15","GVBA ","V020","050,1,N,0062,1","22000,1,9,N","011265,1,N,1","+0310,1","+0230,1","99999,9","02,5,+00450,1,99,9",,,"02,99,1,99,9,99,9,99999,9,99,9,99,9","10139,1,99999,9",,,,"MET057METAR GVBA 031200Z 05012KT 9999 FEW015 31/23 Q1014 NOSIG;",
"08594499999","2010-10-03T13:00:00","4","16.136531","-22.888897","21.03","BOA VISTA RABIL, CV","FM-15","GVBA ","V020","020,1,N,0062,1","22000,1,9,N","011265,1,N,1","+0310,1","+0230,1","99999,9","04,5,+00450,1,99,9",,,"04,99,1,99,9,99,9,99999,9,99,9,99,9",,,,,"MET056METAR GVBA 031300Z 02012KT 9999 SCT015 31/23 Q103 NOSIG;",
"08594499999","2010-10-03T14:00:00","4","16.136531","-22.888897","21.03","BOA VISTA RABIL, CV","FM-15","GVBA ","V020","030,1,N,0062,1","22000,1,9,N","011265,1,N,1","+0310,1","+0230,1","99999,9","04,5,+00450,1,99,9",,,"04,99,1,99,9,99,9,99999,9,99,9,99,9","10119,1,99999,9",,,,"MET057METAR GVBA 031400Z 03012KT 9999 SCT015 31/23 Q1012 NOSIG;",
"08594499999","2010-10-03T15:00:00","4","16.136531","-22.888897","21.03","BOA VISTA RABIL, CV","FM-15","GVBA ","V020","020,1,N,0062,1","22000,1,9,N","011265,1,N,1","+0320,1","+0230,1","99999,9","04,5,+00450,1,99,9",,,"04,99,1,99,9,99,9,99999,9,99,9,99,9","10119,1,99999,9",,,,"MET057METAR GVBA 031500Z 02012KT 9999 SCT015 32/23 Q1012 NOSIG;",
"08594499999","2010-10-03T16:00:00","4","16.136531","-22.888897","21.03","BOA VISTA RABIL, CV","FM-15","GVBA ","V020","020,1,N,0072,1","00450,1,C,N","011265,1,N,1","+0310,1","+0230,1","99999,9","07,5,+00450,1,99,9",,,"07,99,1,99,9,99,9,99999,9,99,9,99,9","10119,1,99999,9",,,,"MET057METAR GVBA 031600Z 02014KT 9999 BKN015 31/23 Q1012 NOSIG;",
"08594499999","2010-10-03T17:00:00","4","16.136531","-22.888897","21.03","BOA VISTA RABIL, CV","FM-15","GVBA ","V020","030,1,N,0057,1","00450,1,C,N","011265,1,N,1","+0310,1","+0230,1","99999,9","07,5,+00450,1,99,9",,,"07,99,1,99,9,99,9,99999,9,99,9,99,9","10119,1,99999,9",,,,"MET057METAR GVBA 031700Z 03011KT 9999 BKN015 31/23 Q1012 NOSIG;",
"08594499999","2010-10-03T18:00:00","4","16.136531","-22.888897","21.03","BOA VISTA RABIL, CV","FM-15","GVBA ","V020","030,1,N,0051,1","00450,1,C,N","011265,1,N,1","+0300,1","+0240,1","99999,9","07,5,+00450,1,99,9",,,"07,99,1,99,9,99,9,99999,9,99,9,99,9","10119,1,99999,9",,,,"MET057METAR GVBA 031800Z 03010KT 9999 BKN015 30/24 Q1012 NOSIG;",
"08594499999","2010-10-03T19:00:00","4","16.136531","-22.888897","21.03","BOA VISTA RABIL, CV","FM-15","GVBA ","V020","010,1,N,0041,1","99999,9,C,N","011265,1,N,1","+0290,1","+0240,1","99999,9","04,5,+00450,1,99,9","04,5,+06000,1,99,9",,"04,99,1,99,9,99,9,99999,9,99,9,99,9","10119,1,99999,9",,,,"MET064METAR GVBA 031900Z 01008KT 9999 SCT015 SCT200 29/24 Q1012 NOSIG;","P01 060003SCOCIG"
"08594499999","2010-10-04T08:00:00","4","16.136531","-22.888897","21.03","BOA VISTA RABIL, CV","FM-15","GVBA ","V020","020,1,N,0041,1","22000,1,9,N","011265,1,N,1","+0270,1","+0240,1","99999,9","02,5,+00420,1,99,9",,,"02,99,1,99,9,99,9,99999,9,99,9,99,9","10129,1,99999,9",,,,"MET057METAR GVBA 040800Z 02008KT 9999 FEW014 27/24 Q1013 NOSIG;",
"08594499999","2010-10-04T09:00:00","4","16.136531","-22.888897","21.03","BOA VISTA RABIL, CV","FM-15","GVBA ","V020","020,1,N,0046,1","22000,1,9,N","011265,1,N,1","+0280,1","+0240,1","99999,9","02,5,+00420,1,99,9",,,"02,99,1,99,9,99,9,99999,9,99,9,99,9","10129,1,99999,9",,,,"MET057METAR GVBA 040900Z 02009KT 9999 FEW014 28/24 Q1013 NOSIG;",
"08594499999","2010-10-04T10:00:00","4","16.136531","-22.888897","21.03","BOA VISTA RABIL, CV","FM-15","GVBA ","V020","040,1,N,0082,1","22000,1,9,N","011265,1,N,1","+0300,1","+0240,1","99999,9","02,5,+00450,1,99,9",,,"02,99,1,99,9,99,9,99999,9,99,9,99,9","10139,1,99999,9",,,,"MET057METAR GVBA 041000Z 04016KT 9999 FEW015 30/24 Q1014 NOSIG;",
"08594499999","2010-10-04T11:00:00","4","16.136531","-22.888897","21.03","BOA VISTA RABIL, CV","FM-15","GVBA ","V020","010,1,N,0062,1","22000,1,9,N","011265,1,N,1","+0310,1","+0240,1","99999,9","02,5,+00450,1,99,9",,,"02,99,1,99,9,99,9,99999,9,99,9,99,9","10139,1,99999,9",,,,"MET057METAR GVBA 041100Z 01012KT 9999 FEW015 31/24 Q1014 NOSIG;",
"08594499999","2010-10-04T12:00:00","4","16.136531","-22.888897","21.03","BOA VISTA RABIL, CV","FM-15","GVBA ","V020","030,1,N,0062,1","22000,1,9,N","011265,1,N,1","+0310,1","+0240,1","99999,9","02,5,+00450,1,99,9",,,"02,99,1,99,9,99,9,99999,9,99,9,99,9","10139,1,99999,9",,,,"MET057METAR GVBA 041200Z 03012KT 9999 FEW015 31/24 Q1014 NOSIG;",
"08594499999","2010-10-04T13:00:00","4","16.136531","-22.888897","21.03","BOA VISTA RABIL, CV","FM-15","GVBA ","V020","020,1,N,0067,1","22000,1,9,N","011265,1,N,1","+0320,1","+0240,1","99999,9","02,5,+00450,1,99,9",,,"02,99,1,99,9,99,9,99999,9,99,9,99,9","10129,1,99999,9",,,,"MET057METAR GVBA 041300Z 02013KT 9999 FEW015 32/24 Q1013 NOSIG;",
"08594499999","2010-10-04T14:00:00","4","16.136531","-22.888897","21.03","BOA VISTA RABIL, CV","FM-15","GVBA ","V020","030,1,N,0072,1","00450,1,C,N","011265,1,N,1","+0320,1","+0240,1","99999,9","07,5,+00450,1,99,9",,,"07,99,1,99,9,99,9,99999,9,99,9,99,9","10119,1,99999,9",,,,"MET057METAR GVBA 041400Z 03014KT 9999 BKN015 32/24 Q1012 NOSIG;",
"08594499999","2010-10-04T15:00:00","4","16.136531","-22.888897","21.03","BOA VISTA RABIL, CV","FM-15","GVBA ","V020","030,1,N,0062,1","00450,1,C,N","011265,1,N,1","+0320,1","+0250,1","99999,9","07,5,+00450,1,99,9",,,"07,99,1,99,9,99,9,99999,9,99,9,99,9","10119,1,99999,9",,,,"MET057METAR GVBA 041500Z 03012KT 9999 BKN015 32/25 Q1012 NOSIG;",
"08594499999","2010-10-04T16:00:00","4","16.136531","-22.888897","21.03","BOA VISTA RABIL, CV","FM-15","GVBA ","V020","040,1,N,0067,1","00450,1,C,N","011265,1,N,1","+0310,1","+0250,1","99999,9","07,5,+00450,1,99,9",,,"07,99,1,99,9,99,9,99999,9,99,9,99,9","10108,1,99999,9",,,,"MET057METAR GVBA 041600Z 04013KT 9999 BKN015 31/25 Q1011 NOSIG;",
"08594499999","2010-10-04T17:00:00","4","16.136531","-22.888897","21.03","BOA VISTA RABIL, CV","FM-15","GVBA ","V020","030,1,N,0062,1","00450,1,C,N","011265,1,N,1","+0310,1","+0250,1","99999,9","07,5,+00450,1,99,9",,,"07,99,1,99,9,99,9,99999,9,99,9,99,9","10108,1,99999,9",,,,"MET057METAR GVBA 041700Z 03012KT 9999 BKN015 31/25 Q1011 NOSIG;",
"08594499999","2010-10-04T18:00:00","4","16.136531","-22.888897","21.03","BOA VISTA RABIL, CV","FM-15","GVBA ","V020","030,1,N,0067,1","00450,1,C,N","011265,1,N,1","+0300,1","+0250,1","99999,9","07,5,+00450,1,99,9",,,"07,99,1,99,9,99,9,99999,9,99,9,99,9","10108,1,99999,9",,,,"MET057METAR GVBA 041800Z 03013KT 9999 BKN015 30/25 Q1011 NOSIG;",
"08594499999","2010-10-04T19:00:00","4","16.136531","-22.888897","21.03","BOA VISTA RABIL, CV","FM-15","GVBA ","V020","040,1,N,0062,1","00450,1,C,N","011265,1,N,1","+0290,1","+0250,1","99999,9","07,5,+00450,1,99,9",,,"07,99,1,99,9,99,9,99999,9,99,9,99,9","10119,1,99999,9",,,,"MET057METAR GVBA 041900Z 04012KT 9999 BKN015 29/25 Q1012 NOSIG;",
"08594499999","2010-10-05T10:00:00","4","16.136531","-22.888897","21.03","BOA VISTA RABIL, CV","FM-15","GVBA ","V020","050,1,N,0051,1","00450,1,C,N","011265,1,N,1","+0290,1","+0250,1","99999,9","07,5,+00450,1,99,9",,,"07,99,1,99,9,99,9,99999,9,99,9,99,9","10129,1,99999,9",,,,"MET057METAR GVBA 051000Z 05010KT 9999 BKN015 29/25 Q1013 NOSIG;",
"08594499999","2010-10-05T11:00:00","4","16.136531","-22.888897","21.03","BOA VISTA RABIL, CV","FM-15","GVBA ","V020","040,1,N,0072,1","00450,1,C,N","011265,1,N,1","+0300,1","+0240,1","99999,9","07,5,+00450,1,99,9",,,"07,99,1,99,9,99,9,99999,9,99,9,99,9","10129,1,99999,9",,,,"MET057METAR GVBA 051100Z 04014KT 9999 BKN015 30/24 Q1013 NOSIG;",
"08594499999","2010-10-05T12:00:00","4","16.136531","-22.888897","21.03","BOA VISTA RABIL, CV","FM-15","GVBA ","V020","040,1,N,0082,1","22000,1,9,N","011265,1,N,1","+0310,1","+0250,1","99999,9","04,5,+00450,1,99,9",,,"04,99,1,99,9,99,9,99999,9,99,9,99,9","10129,1,99999,9",,,,"MET057METAR GVBA 051200Z 04016KT 9999 SCT015 31/25 Q1013 NOSIG;",
"08594499999","2010-10-05T13:00:00","4","16.136531","-22.888897","21.03","BOA VISTA RABIL, CV","FM-15","GVBA ","V020","030,1,N,0087,1","22000,1,9,N","011265,1,N,1","+0320,1","+0250,1","99999,9","04,5,+00450,1,99,9",,,"04,99,1,99,9,99,9,99999,9,99,9,99,9","10119,1,99999,9",,,,"MET057METAR GVBA 051300Z 03017KT 9999 SCT015 32/25 Q1012 NOSIG;",
"08594499999","2010-10-05T14:00:00","4","16.136531","-22.888897","21.03","BOA VISTA RABIL, CV","FM-15","GVBA ","V020","030,1,N,0082,1","22000,1,9,N","011265,1,N,1","+0320,1","+0250,1","99999,9","04,5,+00450,1,99,9",,,"04,99,1,99,9,99,9,99999,9,99,9,99,9","10119,1,99999,9",,,,"MET057METAR GVBA 051400Z 03016KT 9999 SCT015 32/25 Q1012 NOSIG;",
"08594499999","2010-10-05T15:00:00","4","16.136531","-22.888897","21.03","BOA VISTA RABIL, CV","FM-15","GVBA ","V020","030,1,N,0067,1","22000,1,9,N","011265,1,N,1","+0320,1","+0250,1","99999,9","04,5,+00450,1,99,9",,,"04,99,1,99,9,99,9,99999,9,99,9,99,9","10108,1,99999,9",,,,"MET057METAR GVBA 051500Z 03013KT 9999 SCT015 32/25 Q1011 NOSIG;",
"08594499999","2010-10-05T16:00:00","4","16.136531","-22.888897","21.03","BOA VISTA RABIL, CV","FM-15","GVBA ","V020","020,1,N,0057,1","22000,1,9,N","011265,1,N,1","+0320,1","+0250,1","99999,9","02,5,+00450,1,99,9",,,"02,99,1,99,9,99,9,99999,9,99,9,99,9","10108,1,99999,9",,,,"MET057METAR GVBA 051600Z 02011KT 9999 FEW015 32/25 Q1011 NOSIG;",
"08594499999","2010-10-05T17:00:00","4","16.136531","-22.888897","21.03","BOA VISTA RABIL, CV","FM-15","GVBA ","V020","020,1,N,0051,1","22000,1,9,N","011265,1,N,1","+0310,1","+0250,1","99999,9","04,5,+00450,1,99,9",,,"04,99,1,99,9,99,9,99999,9,99,9,99,9","10108,1,99999,9",,,,"MET057METAR GVBA 051700Z 02010KT 9999 SCT015 31/25 Q1011 NOSIG;",
"08594499999","2010-10-05T18:00:00","4","16.136531","-22.888897","21.03","BOA VISTA RABIL, CV","FM-15","GVBA ","V020","030,1,N,0057,1","22000,1,9,N","011265,1,N,1","+0300,1","+0240,1","99999,9","04,5,+00450,1,99,9",,,"04,99,1,99,9,99,9,99999,9,99,9,99,9","10108,1,99999,9",,,,"MET057METAR GVBA 051800Z 03011KT 9999 SCT015 30/24 Q1011 NOSIG;",
"08594499999","2010-10-05T19:00:00","4","16.136531","-22.888897","21.03","BOA VISTA RABIL, CV","FM-15","GVBA ","V020","020,1,N,0057,1","22000,1,9,N","011265,1,N,1","+0290,1","+0240,1","99999,9","04,5,+00450,1,99,9",,,"04,99,1,99,9,99,9,99999,9,99,9,99,9","10108,1,99999,9",,,,"MET057METAR GVBA 051900Z 02011KT 9999 SCT015 29/24 Q1011 NOSIG;",
"08594499999","2010-10-06T08:00:00","4","16.136531","-22.888897","21.03","BOA VISTA RABIL, CV","FM-15","GVBA ","V020","030,1,N,0062,1","22000,1,9,N","011265,1,N,1","+0260,1","+0230,1","99999,9","04,5,+00450,1,99,9",,,"04,99,1,99,9,99,9,99999,9,99,9,99,9","10129,1,99999,9",,,,"MET057METAR GVBA 060800Z 03012KT 9999 SCT015 26/23 Q1013 NOSIG;",
"08594499999","2010-10-06T09:00:00","4","16.136531","-22.888897","21.03","BOA VISTA RABIL, CV","FM-15","GVBA ","V020","040,1,N,0062,1","22000,1,9,N","011265,1,N,1","+0280,1","+0230,1","99999,9","04,5,+00450,1,99,9",,,"04,99,1,99,9,99,9,99999,9,99,9,99,9","10129,1,99999,9",,,,"MET057METAR GVBA 060900Z 04012KT 9999 SCT015 28/23 Q1013 NOSIG;",
"08594499999","2010-10-06T10:00:00","4","16.136531","-22.888897","21.03","BOA VISTA RABIL, CV","FM-15","GVBA ","V020","040,1,N,0077,1","00450,1,C,N","011265,1,N,1","+0290,1","+0230,1","99999,9","07,5,+00450,1,99,9",,,"07,99,1,99,9,99,9,99999,9,99,9,99,9","10139,1,99999,9",,,,"MET057METAR GVBA 061000Z 04015KT 9999 BKN015 29/23 Q1014 NOSIG;",
"08594499999","2010-10-06T11:00:00","4","16.136531","-22.888897","21.03","BOA VISTA RABIL, CV","FM-15","GVBA ","V020","030,1,N,0082,1","00450,1,C,N","011265,1,N,1","+0300,1","+0230,1","99999,9","07,5,+00450,1,99,9",,,"07,99,1,99,9,99,9,99999,9,99,9,99,9","10139,1,99999,9",,,,"MET057METAR GVBA 061100Z 03016KT 9999 BKN015 30/23 Q1014 NOSIG;",
"08594499999","2010-10-06T12:00:00","4","16.136531","-22.888897","21.03","BOA VISTA RABIL, CV","FM-15","GVBA ","V020","040,1,N,0077,1","00450,1,C,N","011265,1,N,1","+0300,1","+0230,1","99999,9","07,5,+00450,1,99,9",,,"07,99,1,99,9,99,9,99999,9,99,9,99,9","10139,1,99999,9",,,,"MET057METAR GVBA 061200Z 04015KT 9999 BKN015 30/23 Q1014 NOSIG;",
"08594499999","2010-10-06T13:00:00","4","16.136531","-22.888897","21.03","BOA VISTA RABIL, CV","FM-15","GVBA ","V020","030,1,N,0082,1","00450,1,C,N","011265,1,N,1","+0310,1","+0220,1","99999,9","07,5,+00450,1,99,9",,,"07,99,1,99,9,99,9,99999,9,99,9,99,9","10139,1,99999,9",,,,"MET057METAR GVBA 061300Z 03016KT 9999 BKN015 31/22 Q1014 NOSIG;",
"08594499999","2010-10-06T14:00:00","4","16.136531","-22.888897","21.03","BOA VISTA RABIL, CV","FM-15","GVBA ","V020","030,1,N,0082,1","00450,1,C,N","011265,1,N,1","+0310,1","+0230,1","99999,9","07,5,+00450,1,99,9",,,"07,99,1,99,9,99,9,99999,9,99,9,99,9","10129,1,99999,9",,,,"MET057METAR GVBA 061400Z 03016KT 9999 BKN015 31/23 Q1013 NOSIG;",
"08594499999","2010-10-06T15:00:00","4","16.136531","-22.888897","21.03","BOA VISTA RABIL, CV","FM-15","GVBA ","V020","030,1,N,0087,1","00450,1,C,N","011265,1,N,1","+0300,1","+0220,1","99999,9","07,5,+00450,1,99,9",,,"07,99,1,99,9,99,9,99999,9,99,9,99,9","10119,1,99999,9",,,,"MET057METAR GVBA 061500Z 03017KT 9999 BKN015 30/22 Q1012 NOSIG;",
"08594499999","2010-10-06T16:00:00","4","16.136531","-22.888897","21.03","BOA VISTA RABIL, CV","FM-15","GVBA ","V020","030,1,N,0077,1","00450,1,C,N","011265,1,N,1","+0300,1","+0230,1","99999,9","07,5,+00450,1,99,9",,,"07,99,1,99,9,99,9,99999,9,99,9,99,9","10119,1,99999,9",,,,"MET057METAR GVBA 061600Z 03015KT 9999 BKN015 30/23 Q1012 NOSIG;",
"08594499999","2010-10-06T17:00:00","4","16.136531","-22.888897","21.03","BOA VISTA RABIL, CV","FM-15","GVBA ","V020","040,1,N,0072,1","00450,1,C,N","011265,1,N,1","+0300,1","+0230,1","99999,9","07,5,+00450,1,99,9",,,"07,99,1,99,9,99,9,99999,9,99,9,99,9","10108,1,99999,9",,,,"MET057METAR GVBA 061700Z 04014KT 9999 BKN015 30/23 Q1011 NOSIG;",
"08594499999","2010-10-06T18:00:00","4","16.136531","-22.888897","21.03","BOA VISTA RABIL, CV","FM-15","GVBA ","V020","050,1,N,0062,1","00450,1,C,N","011265,1,N,1","+0290,1","+0230,1","99999,9","07,5,+00450,1,99,9",,,"07,99,1,99,9,99,9,99999,9,99,9,99,9","10108,1,99999,9",,,,"MET057METAR GVBA 061800Z 05012KT 9999 BKN015 29/23 Q1011 NOSIG;",
"08594499999","2010-10-06T19:00:00","4","16.136531","-22.888897","21.03","BOA VISTA RABIL, CV","FM-15","GVBA ","V020","060,1,N,0062,1","00450,1,C,N","011265,1,N,1","+0280,1","+0220,1","99999,9","07,5,+00450,1,99,9",,,"07,99,1,99,9,99,9,99999,9,99,9,99,9","10108,1,99999,9",,,,"MET057METAR GVBA 061900Z 06012KT 9999 BKN015 28/22 Q1011 NOSIG;",
"08594499999","2010-10-07T08:00:00","4","16.136531","-22.888897","21.03","BOA VISTA RABIL, CV","FM-15","GVBA ","V020","070,1,N,0015,1","00480,1,C,N","011265,1,N,1","+0270,1","+0220,1","99999,9","02,5,+00390,1,99,9","08,5,+00480,1,99,9",,"08,99,1,99,9,99,9,99999,9,99,9,99,9","10139,1,99999,9",,,,"MET064METAR GVBA 070800Z 07003KT 9999 FEW013 OVC016 27/22 Q1014 NOSIG;",
"08594499999","2010-10-07T09:00:00","4","16.136531","-22.888897","21.03","BOA VISTA RABIL, CV","FM-15","GVBA ","V020","060,1,N,0021,1","00480,1,C,N","011265,1,N,1","+0270,1","+0220,1","99999,9","02,5,+00390,1,99,9","07,5,+00480,1,99,9",,"07,99,1,99,9,99,9,99999,9,99,9,99,9","10139,1,99999,9",,,,"MET064METAR GVBA 070900Z 06004KT 9999 FEW013 BKN016 27/22 Q1014 NOSIG;",
"08594499999","2010-10-07T10:00:00","4","16.136531","-22.888897","21.03","BOA VISTA RABIL, CV","FM-15","GVBA ","V020","050,1,N,0036,1","22000,1,9,N","011265,1,N,1","+0290,1","+0220,1","99999,9","04,5,+00450,1,99,9",,,"04,99,1,99,9,99,9,99999,9,99,9,99,9","10149,1,99999,9",,,,"MET057METAR GVBA 071000Z 05007KT 9999 SCT015 29/22 Q1015 NOSIG;",
"08594499999","2010-10-07T11:10:00","4","16.136531","-22.888897","21.03","BOA VISTA RABIL, CV","FM-15","GVBA ","V020","030,1,N,0041,1","22000,1,9,N","011265,1,N,1","+0310,1","+0220,1","99999,9","04,5,+00450,1,99,9",,,"04,99,1,99,9,99,9,99999,9,99,9,99,9","10149,1,99999,9",,,,"MET057METAR GVBA 071110Z 03008KT 9999 SCT015 31/22 Q1015 NOSIG;",
"08594499999","2010-10-07T12:00:00","4","16.136531","-22.888897","21.03","BOA VISTA RABIL, CV","FM-15","GVBA ","V020","040,1,N,0041,1","22000,1,9,N","011265,1,N,1","+0300,1","+0220,1","99999,9","04,5,+00450,1,99,9",,,"04,99,1,99,9,99,9,99999,9,99,9,99,9","10149,1,99999,9",,,,"MET057METAR GVBA 071200Z 04008KT 9999 SCT015 30/22 Q1015 NOSIG;",
"08594499999","2010-10-07T13:00:00","4","16.136531","-22.888897","21.03","BOA VISTA RABIL, CV","FM-15","GVBA ","V020","040,1,N,0051,1","00450,1,C,N","011265,1,N,1","+0320,1","+0210,1","99999,9","07,5,+00450,1,99,9",,,"07,99,1,99,9,99,9,99999,9,99,9,99,9","10149,1,99999,9",,,,"MET057METAR GVBA 071300Z 04010KT 9999 BKN015 32/21 Q1015 NOSIG;",
"08594499999","2010-10-07T14:00:00","4","16.136531","-22.888897","21.03","BOA VISTA RABIL, CV","FM-15","GVBA ","V020","030,1,N,0062,1","22000,1,9,N","011265,1,N,1","+0320,1","+0210,1","99999,9","04,5,+00450,1,99,9",,,"04,99,1,99,9,99,9,99999,9,99,9,99,9","10139,1,99999,9",,,,"MET057METAR GVBA 071400Z 03012KT 9999 SCT015 32/21 Q1014 NOSIG;",
"08594499999","2010-10-07T15:00:00","4","16.136531","-22.888897","21.03","BOA VISTA RABIL, CV","FM-15","GVBA ","V020","030,1,N,0057,1","22000,1,9,N","011265,1,N,1","+0320,1","+0220,1","99999,9","04,5,+00450,1,99,9",,,"04,99,1,99,9,99,9,99999,9,99,9,99,9","10139,1,99999,9",,,,"MET057METAR GVBA 071500Z 03011KT 9999 SCT015 32/22 Q1014 NOSIG;",
"08594499999","2010-10-07T16:00:00","4","16.136531","-22.888897","21.03","BOA VISTA RABIL, CV","FM-15","GVBA ","V020","020,1,N,0046,1","22000,1,9,N","011265,1,N,1","+0320,1","+0210,1","99999,9","04,5,+00450,1,99,9",,,"04,99,1,99,9,99,9,99999,9,99,9,99,9","10129,1,99999,9",,,,"MET057METAR GVBA 071600Z 02009KT 9999 SCT015 32/21 Q1013 NOSIG;",
"08594499999","2010-10-07T17:00:00","4","16.136531","-22.888897","21.03","BOA VISTA RABIL, CV","FM-15","GVBA ","V020","030,1,N,0046,1","22000,1,9,N","011265,1,N,1","+0310,1","+0210,1","99999,9","04,5,+00450,1,99,9",,,"04,99,1,99,9,99,9,99999,9,99,9,99,9","10129,1,99999,9",,,,"MET057METAR GVBA 071700Z 03009KT 9999 SCT015 31/21 Q1013 NOSIG;",
"08594499999","2010-10-07T18:00:00","4","16.136531","-22.888897","21.03","BOA VISTA RABIL, CV","FM-15","GVBA ","V020","040,1,N,0046,1","00450,1,C,N","011265,1,N,1","+0290,1","+0220,1","99999,9","07,5,+00450,1,99,9",,,"07,99,1,99,9,99,9,99999,9,99,9,99,9","10129,1,99999,9",,,,"MET057METAR GVBA 071800Z 04009KT 9999 BKN015 29/22 Q1013 NOSIG;",
"08594499999","2010-10-07T19:00:00","4","16.136531","-22.888897","21.03","BOA VISTA RABIL, CV","FM-15","GVBA ","V020","020,1,N,0046,1","00450,1,C,N","011265,1,N,1","+0280,1","+0220,1","99999,9","07,5,+00450,1,99,9",,,"07,99,1,99,9,99,9,99999,9,99,9,99,9","10139,1,99999,9",,,,"MET057METAR GVBA 071900Z 02009KT 9999 BKN015 28/22 Q1014 NOSIG;",
"08594499999","2010-10-08T09:00:00","4","16.136531","-22.888897","21.03","BOA VISTA RABIL, CV","FM-15","GVBA ","V020","999,9,V,0005,1","22000,1,9,N","011265,1,N,1","+0270,1","+0220,1","99999,9","04,5,+00450,1,99,9",,,"04,99,1,99,9,99,9,99999,9,99,9,99,9","10159,1,99999,9",,,,"MET057METAR GVBA 080900Z VRB01KT 9999 SCT015 27/22 Q1016 NOSIG;",
"08594499999","2010-10-08T10:00:00","4","16.136531","-22.888897","21.03","BOA VISTA RABIL, CV","FM-15","GVBA ","V020","030,1,N,0021,1","22000,1,9,N","011265,1,N,1","+0280,1","+0220,1","99999,9","04,5,+00450,1,99,9",,,"04,99,1,99,9,99,9,99999,9,99,9,99,9","10159,1,99999,9",,,,"MET057METAR GVBA 081000Z 03004KT 9999 SCT015 28/22 Q1016 NOSIG;",
"08594499999","2010-10-08T11:00:00","4","16.136531","-22.888897","21.03","BOA VISTA RABIL, CV","FM-15","GVBA ","V020","020,1,N,0026,1","22000,1,9,N","011265,1,N,1","+0300,1","+0210,1","99999,9","04,5,+00450,1,99,9",,,"04,99,1,99,9,99,9,99999,9,99,9,99,9","10159,1,99999,9",,,,"MET057METAR GVBA 081100Z 02005KT 9999 SCT015 30/21 Q1016 NOSIG;",
"08594499999","2010-10-08T12:00:00","4","16.136531","-22.888897","21.03","BOA VISTA RABIL, CV","FM-15","GVBA ","V020","030,1,N,0041,1","22000,1,9,N","011265,1,N,1","+0310,1","+0200,1","99999,9","04,5,+00450,1,99,9",,,"04,99,1,99,9,99,9,99999,9,99,9,99,9","10159,1,99999,9",,,,"MET057METAR GVBA 081200Z 03008KT 9999 SCT015 31/20 Q1016 NOSIG;",
"08594499999","2010-10-08T13:00:00","4","16.136531","-22.888897","21.03","BOA VISTA RABIL, CV","FM-15","GVBA ","V020","030,1,N,0046,1","22000,1,9,N","011265,1,N,1","+0320,1","+0210,1","99999,9","04,5,+00450,1,99,9",,,"04,99,1,99,9,99,9,99999,9,99,9,99,9","10159,1,99999,9",,,,"MET057METAR GVBA 081300Z 03009KT 9999 SCT015 32/21 Q1016 NOSIG;",
"08594499999","2010-10-08T14:00:00","4","16.136531","-22.888897","21.03","BOA VISTA RABIL, CV","FM-15","GVBA ","V020","030,1,N,0051,1","22000,1,9,N","011265,1,N,1","+0320,1","+0200,1","99999,9","04,5,+00450,1,99,9",,,"04,99,1,99,9,99,9,99999,9,99,9,99,9","10139,1,99999,9",,,,"MET057METAR GVBA 081400Z 03010KT 9999 SCT015 32/20 Q1014 NOSIG;",
"08594499999","2010-10-08T15:00:00","4","16.136531","-22.888897","21.03","BOA VISTA RABIL, CV","FM-15","GVBA ","V020","040,1,N,0062,1","00450,1,C,N","011265,1,N,1","+0320,1","+0220,1","99999,9","07,5,+00450,1,99,9",,,"07,99,1,99,9,99,9,99999,9,99,9,99,9","10139,1,99999,9",,,,"MET057METAR GVBA 081500Z 04012KT 9999 BKN015 32/22 Q1014 NOSIG;",
"08594499999","2010-10-08T16:00:00","4","16.136531","-22.888897","21.03","BOA VISTA RABIL, CV","FM-15","GVBA ","V020","040,1,N,0062,1","22000,1,9,N","011265,1,N,1","+0310,1","+0210,1","99999,9","04,5,+00450,1,99,9",,,"04,99,1,99,9,99,9,99999,9,99,9,99,9","10129,1,99999,9",,,,"MET057METAR GVBA 081600Z 04012KT 9999 SCT015 31/21 Q1013 NOSIG;",
"08594499999","2010-10-08T17:00:00","4","16.136531","-22.888897","21.03","BOA VISTA RABIL, CV","FM-15","GVBA ","V020","040,1,N,0062,1","00480,1,C,N","011265,1,N,1","+0300,1","+0210,1","99999,9","02,5,+00420,1,99,9","07,5,+00480,1,99,9",,"07,99,1,99,9,99,9,99999,9,99,9,99,9","10139,1,99999,9",,,,"MET064METAR GVBA 081700Z 04012KT 9999 FEW014 BKN016 30/21 Q1014 NOSIG;",
"08594499999","2010-10-08T18:00:00","4","16.136531","-22.888897","21.03","BOA VISTA RABIL, CV","FM-15","GVBA ","V020","050,1,N,0051,1","00480,1,C,N","011265,1,N,1","+0290,1","+0210,1","99999,9","02,5,+00420,1,99,9","07,5,+00480,1,99,9",,"07,99,1,99,9,99,9,99999,9,99,9,99,9","10139,1,99999,9",,,,"MET064METAR GVBA 081800Z 05010KT 9999 FEW014 BKN016 29/21 Q1014 NOSIG;",
"08594499999","2010-10-08T19:00:00","4","16.136531","-22.888897","21.03","BOA VISTA RABIL, CV","FM-15","GVBA ","V020","050,1,N,0051,1","00480,1,C,N","011265,1,N,1","+0280,1","+0210,1","99999,9","02,5,+00420,1,99,9","07,5,+00480,1,99,9",,"07,99,1,99,9,99,9,99999,9,99,9,99,9","10139,1,99999,9",,,,"MET064METAR GVBA 081900Z 05010KT 9999 FEW014 BKN016 28/21 Q1014 NOSIG;",
"08594499999","2010-10-09T08:00:00","4","16.136531","-22.888897","21.03","BOA VISTA RABIL, CV","FM-15","GVBA ","V020","999,9,C,0000,1","22000,1,9,N","011265,1,N,1","+0230,1","+0200,1","99999,9","02,5,+00450,1,99,9",,,"02,99,1,99,9,99,9,99999,9,99,9,99,9","10159,1,99999,9",,,,"MET057METAR GVBA 090800Z 00000KT 9999 FEW015 23/20 Q1016 NOSIG;",
"08594499999","2010-10-09T09:00:00","4","16.136531","-22.888897","21.03","BOA VISTA RABIL, CV","FM-15","GVBA ","V020","100,1,N,0010,1","22000,1,9,N","011265,1,N,1","+0260,1","+0210,1","99999,9","02,5,+00450,1,99,9",,,"02,99,1,99,9,99,9,99999,9,99,9,99,9","10159,1,99999,9",,,,"MET057METAR GVBA 090900Z 10002KT 9999 FEW015 26/21 Q1016 NOSIG;",
"08594499999","2010-10-09T10:00:00","4","16.136531","-22.888897","21.03","BOA VISTA RABIL, CV","FM-15","GVBA ","V020","040,1,N,0031,1","22000,1,9,N","011265,1,N,1","+0290,1","+0200,1","99999,9","04,5,+00450,1,99,9",,,"04,99,1,99,9,99,9,99999,9,99,9,99,9","10169,1,99999,9",,,,"MET057METAR GVBA 091000Z 04006KT 9999 SCT015 29/20 Q1017 NOSIG;",
"08594499999","2010-10-09T11:00:00","4","16.136531","-22.888897","21.03","BOA VISTA RABIL, CV","FM-15","GVBA ","V020","050,1,N,0036,1","22000,1,9,N","011265,1,N,1","+0300,1","+0200,1","99999,9","04,5,+00450,1,99,9",,,"04,99,1,99,9,99,9,99999,9,99,9,99,9","10169,1,99999,9",,,,"MET057METAR GVBA 091100Z 05007KT 9999 SCT015 30/20 Q1017 NOSIG;",
"08594499999","2010-10-09T12:00:00","4","16.136531","-22.888897","21.03","BOA VISTA RABIL, CV","FM-15","GVBA ","V020","020,1,N,0036,1","22000,1,9,N","011265,1,N,1","+0310,1","+0200,1","99999,9","02,5,+00450,1,99,9",,,"02,99,1,99,9,99,9,99999,9,99,9,99,9","10169,1,99999,9",,,,"MET057METAR GVBA 091200Z 02007KT 9999 FEW015 31/20 Q1017 NOSIG;",
"08594499999","2010-10-09T13:00:00","4","16.136531","-22.888897","21.03","BOA VISTA RABIL, CV","FM-15","GVBA ","V020","030,1,N,0051,1","22000,1,9,N","011265,1,N,1","+0310,1","+0200,1","99999,9","04,5,+00450,1,99,9",,,"04,99,1,99,9,99,9,99999,9,99,9,99,9","10159,1,99999,9",,,,"MET057METAR GVBA 091300Z 03010KT 9999 SCT015 31/20 Q1016 NOSIG;",
"08594499999","2010-10-09T14:00:00","4","16.136531","-22.888897","21.03","BOA VISTA RABIL, CV","FM-15","GVBA ","V020","030,1,N,0062,1","00450,1,C,N","011265,1,N,1","+0310,1","+0200,1","99999,9","07,5,+00450,1,99,9",,,"07,99,1,99,9,99,9,99999,9,99,9,99,9","10149,1,99999,9",,,,"MET057METAR GVBA 091400Z 03012KT 9999 BKN015 31/20 Q1015 NOSIG;",
"08594499999","2010-10-09T15:00:00","4","16.136531","-22.888897","21.03","BOA VISTA RABIL, CV","FM-15","GVBA ","V020","030,1,N,0062,1","22000,1,9,N","011265,1,N,1","+0310,1","+0200,1","99999,9","04,5,+00450,1,99,9",,,"04,99,1,99,9,99,9,99999,9,99,9,99,9","10149,1,99999,9",,,,"MET057METAR GVBA 091500Z 03012KT 9999 SCT015 31/20 Q1015 NOSIG;",
"08594499999","2010-10-09T16:00:00","4","16.136531","-22.888897","21.03","BOA VISTA RABIL, CV","FM-15","GVBA ","V020","040,1,N,0062,1","22000,1,9,N","011265,1,N,1","+0310,1","+0200,1","99999,9","04,5,+00450,1,99,9",,,"04,99,1,99,9,99,9,99999,9,99,9,99,9","10149,1,99999,9",,,,"MET057METAR GVBA 091600Z 04012KT 9999 SCT015 31/20 Q1015 NOSIG;",
"08594499999","2010-10-09T17:00:00","4","16.136531","-22.888897","21.03","BOA VISTA RABIL, CV","FM-15","GVBA ","V020","030,1,N,0057,1","99999,9,C,N","011265,1,N,1","+0300,1","+0200,1","99999,9","02,5,+00450,1,99,9","04,5,+06000,1,99,9",,"04,99,1,99,9,99,9,99999,9,99,9,99,9","10149,1,99999,9",,,,"MET064METAR GVBA 091700Z 03011KT 9999 FEW015 SCT200 30/20 Q1015 NOSIG;","P01 060003SCOCIG"
"08594499999","2010-10-09T18:00:00","4","16.136531","-22.888897","21.03","BOA VISTA RABIL, CV","FM-15","GVBA ","V020","030,1,N,0062,1","99999,9,C,N","011265,1,N,1","+0290,1","+0200,1","99999,9","02,5,+00450,1,99,9","04,5,+06000,1,99,9",,"04,99,1,99,9,99,9,99999,9,99,9,99,9","10149,1,99999,9",,,,"MET064METAR GVBA 091800Z 03012KT 9999 FEW015 SCT200 29/20 Q1015 NOSIG;","P01 060003SCOCIG"
"08594499999","2010-10-09T19:00:00","4","16.136531","-22.888897","21.03","BOA VISTA RABIL, CV","FM-15","GVBA ","V020","040,1,N,0057,1","22000,1,9,N","011265,1,N,1","+0280,1","+0210,1","99999,9","02,5,+00450,1,99,9",,,"02,99,1,99,9,99,9,99999,9,99,9,99,9","10149,1,99999,9",,,,"MET057METAR GVBA 091900Z 04011KT 9999 FEW015 28/21 Q1015 NOSIG;",
"08594499999","2010-10-10T08:00:00","4","16.136531","-22.888897","21.03","BOA VISTA RABIL, CV","FM-15","GVBA ","V020","060,1,N,0015,1","22000,1,9,N","011265,1,N,1","+0230,1","+0200,1","99999,9","02,5,+00420,1,99,9",,,"02,99,1,99,9,99,9,99999,9,99,9,99,9","10149,1,99999,9",,,,"MET057METAR GVBA 100800Z 06003KT 9999 FEW014 23/20 Q1015 NOSIG;",
"08594499999","2010-10-10T09:00:00","4","16.136531","-22.888897","21.03","BOA VISTA RABIL, CV","FM-15","GVBA ","V020","050,1,N,0021,1","22000,1,9,N","011265,1,N,1","+0260,1","+0210,1","99999,9","02,5,+00420,1,99,9",,,"02,99,1,99,9,99,9,99999,9,99,9,99,9","10159,1,99999,9",,,,"MET057METAR GVBA 100900Z 05004KT 9999 FEW014 26/21 Q1016 NOSIG;",
"08594499999","2010-10-10T10:00:00","4","16.136531","-22.888897","21.03","BOA VISTA RABIL, CV","FM-15","GVBA ","V020","030,1,N,0057,1","00450,1,C,N","011265,1,N,1","+0280,1","+0200,1","99999,9","07,5,+00450,1,99,9",,,"07,99,1,99,9,99,9,99999,9,99,9,99,9","10159,1,99999,9",,,,"MET057METAR GVBA 101000Z 03011KT 9999 BKN015 28/20 Q1016 NOSIG;",
"08594499999","2010-10-10T11:00:00","4","16.136531","-22.888897","21.03","BOA VISTA RABIL, CV","FM-15","GVBA ","V020","040,1,N,0062,1","22000,1,9,N","011265,1,N,1","+0290,1","+0200,1","99999,9","04,5,+00450,1,99,9",,,"04,99,1,99,9,99,9,99999,9,99,9,99,9","10159,1,99999,9",,,,"MET057METAR GVBA 101100Z 04012KT 9999 SCT015 29/20 Q1016 NOSIG;",
"08594499999","2010-10-10T12:00:00","4","16.136531","-22.888897","21.03","BOA VISTA RABIL, CV","FM-15","GVBA ","V020","020,1,N,0057,1","22000,1,9,N","011265,1,N,1","+0300,1","+0190,1","99999,9","02,5,+00450,1,99,9",,,"02,99,1,99,9,99,9,99999,9,99,9,99,9","10159,1,99999,9",,,,"MET057METAR GVBA 101200Z 02011KT 9999 FEW015 30/19 Q1016 NOSIG;",
"08594499999","2010-10-10T13:00:00","4","16.136531","-22.888897","21.03","BOA VISTA RABIL, CV","FM-15","GVBA ","V020","030,1,N,0057,1","22000,1,9,N","011265,1,N,1","+0310,1","+0190,1","99999,9","02,5,+00450,1,99,9",,,"02,99,1,99,9,99,9,99999,9,99,9,99,9","10159,1,99999,9",,,,"MET057METAR GVBA 101300Z 03011KT 9999 FEW015 31/19 Q1016 NOSIG;",
"08594499999","2010-10-10T14:00:00","4","16.136531","-22.888897","21.03","BOA VISTA RABIL, CV","FM-15","GVBA ","V020","360,1,N,0041,1","22000,1,9,N","011265,1,N,1","+0310,1","+0210,1","99999,9","04,5,+00450,1,99,9",,,"04,99,1,99,9,99,9,99999,9,99,9,99,9","10149,1,99999,9",,,,"MET057METAR GVBA 101400Z 36008KT 9999 SCT015 31/21 Q1015 NOSIG;",
"08594499999","2010-10-10T15:00:00","4","16.136531","-22.888897","21.03","BOA VISTA RABIL, CV","FM-15","GVBA ","V020","010,1,N,0051,1","22000,1,9,N","011265,1,N,1","+0310,1","+0210,1","99999,9","04,5,+00450,1,99,9",,,"04,99,1,99,9,99,9,99999,9,99,9,99,9","10139,1,99999,9",,,,"MET057METAR GVBA 101500Z 01010KT 9999 SCT015 31/21 Q1014 NOSIG;",
"08594499999","2010-10-10T16:00:00","4","16.136531","-22.888897","21.03","BOA VISTA RABIL, CV","FM-15","GVBA ","V020","020,1,N,0062,1","22000,1,9,N","011265,1,N,1","+0310,1","+0210,1","99999,9","04,5,+00450,1,99,9",,,"04,99,1,99,9,99,9,99999,9,99,9,99,9","10139,1,99999,9",,,,"MET057METAR GVBA 101600Z 02012KT 9999 SCT015 31/21 Q1014 NOSIG;",
"08594499999","2010-10-10T18:00:00","4","16.136531","-22.888897","21.03","BOA VISTA RABIL, CV","FM-15","GVBA ","V020","010,1,N,0051,1","00450,1,C,N","011265,1,N,1","+0290,1","+0220,1","99999,9","07,5,+00450,1,99,9",,,"07,99,1,99,9,99,9,99999,9,99,9,99,9","10129,1,99999,9",,,,"MET057METAR GVBA 101800Z 01010KT 9999 BKN015 29/22 Q1013 NOSIG;",
"08594499999","2010-10-10T19:00:00","4","16.136531","-22.888897","21.03","BOA VISTA RABIL, CV","FM-15","GVBA ","V020","020,1,N,0051,1","00450,1,C,N","011265,1,N,1","+0280,1","+0220,1","99999,9","07,5,+00450,1,99,9",,,"07,99,1,99,9,99,9,99999,9,99,9,99,9","10129,1,99999,9",,,,"MET057METAR GVBA 101900Z 02010KT 9999 BKN015 28/22 Q1013 NOSIG;",
"08594499999","2010-10-11T08:00:00","4","16.136531","-22.888897","21.03","BOA VISTA RABIL, CV","FM-15","GVBA ","V020","999,9,C,0000,1","22000,1,9,N","011265,1,N,1","+0220,1","+0200,1","99999,9","04,5,+00420,1,99,9",,,"04,99,1,99,9,99,9,99999,9,99,9,99,9","10129,1,99999,9",,,,"MET057METAR GVBA 110800Z 00000KT 9999 SCT014 22/20 Q1013 NOSIG;",
"08594499999","2010-10-11T09:00:00","4","16.136531","-22.888897","21.03","BOA VISTA RABIL, CV","FM-15","GVBA ","V020","010,1,N,0051,1","22000,1,9,N","011265,1,N,1","+0270,1","+0220,1","99999,9","04,5,+00420,1,99,9",,,"04,99,1,99,9,99,9,99999,9,99,9,99,9","10129,1,99999,9",,,,"MET057METAR GVBA 110900Z 01010KT 9999 SCT014 27/22 Q1013 NOSIG;",
"08594499999","2010-10-11T10:00:00","4","16.136531","-22.888897","21.03","BOA VISTA RABIL, CV","FM-15","GVBA ","V020","360,1,N,0062,1","00450,1,C,N","011265,1,N,1","+0290,1","+0210,1","99999,9","07,5,+00450,1,99,9",,,"07,99,1,99,9,99,9,99999,9,99,9,99,9","10129,1,99999,9",,,,"MET057METAR GVBA 111000Z 36012KT 9999 BKN015 29/21 Q1013 NOSIG;",
"08594499999","2010-10-11T11:00:00","4","16.136531","-22.888897","21.03","BOA VISTA RABIL, CV","FM-15","GVBA ","V020","010,1,N,0062,1","00450,1,C,N","011265,1,N,1","+0290,1","+0210,1","99999,9","07,5,+00450,1,99,9",,,"07,99,1,99,9,99,9,99999,9,99,9,99,9","10139,1,99999,9",,,,"MET057METAR GVBA 111100Z 01012KT 9999 BKN015 29/21 Q1014 NOSIG;",
"08594499999","2010-10-11T12:00:00","4","16.136531","-22.888897","21.03","BOA VISTA RABIL, CV","FM-15","GVBA ","V020","010,1,N,0062,1","00450,1,C,N","011265,1,N,1","+0300,1","+0210,1","99999,9","07,5,+00450,1,99,9",,,"07,99,1,99,9,99,9,99999,9,99,9,99,9","10139,1,99999,9",,,,"MET057METAR GVBA 111200Z 01012KT 9999 BKN015 30/21 Q1014 NOSIG;",
"08594499999","2010-10-11T13:00:00","4","16.136531","-22.888897","21.03","BOA VISTA RABIL, CV","FM-15","GVBA ","V020","030,1,N,0067,1","00450,1,C,N","011265,1,N,1","+0310,1","+0210,1","99999,9","07,5,+00450,1,99,9",,,"07,99,1,99,9,99,9,99999,9,99,9,99,9","10129,1,99999,9",,,,"MET057METAR GVBA 111300Z 03013KT 9999 BKN015 31/21 Q1013 NOSIG;",
"08594499999","2010-10-11T14:00:00","4","16.136531","-22.888897","21.03","BOA VISTA RABIL, CV","FM-15","GVBA ","V020","040,1,N,0077,1","00450,1,C,N","011265,1,N,1","+0310,1","+0220,1","99999,9","07,5,+00450,1,99,9",,,"07,99,1,99,9,99,9,99999,9,99,9,99,9","10119,1,99999,9",,,,"MET057METAR GVBA 111400Z 04015KT 9999 BKN015 31/22 Q1012 NOSIG;",
"08594499999","2010-10-11T15:00:00","4","16.136531","-22.888897","21.03","BOA VISTA RABIL, CV","FM-15","GVBA ","V020","050,1,N,0067,1","00450,1,C,N","011265,1,N,1","+0310,1","+0220,1","99999,9","07,5,+00450,1,99,9",,,"07,99,1,99,9,99,9,99999,9,99,9,99,9","10108,1,99999,9",,,,"MET057METAR GVBA 111500Z 05013KT 9999 BKN015 31/22 Q1011 NOSIG;",
"08594499999","2010-10-11T16:00:00","4","16.136531","-22.888897","21.03","BOA VISTA RABIL, CV","FM-15","GVBA ","V020","050,1,N,0072,1","00450,1,C,N","011265,1,N,1","+0310,1","+0210,1","99999,9","07,5,+00450,1,99,9",,,"07,99,1,99,9,99,9,99999,9,99,9,99,9","10108,1,99999,9",,,,"MET057METAR GVBA 111600Z 05014KT 9999 BKN015 31/21 Q1011 NOSIG;",
"08594499999","2010-10-11T17:00:00","4","16.136531","-22.888897","21.03","BOA VISTA RABIL, CV","FM-15","GVBA ","V020","040,1,N,0077,1","00450,1,C,N","011265,1,N,1","+0300,1","+0220,1","99999,9","07,5,+00450,1,99,9",,,"07,99,1,99,9,99,9,99999,9,99,9,99,9","10108,1,99999,9",,,,"MET057METAR GVBA 111700Z 04015KT 9999 BKN015 30/22 Q1011 NOSIG;",
"08594499999","2010-10-11T18:00:00","4","16.136531","-22.888897","21.03","BOA VISTA RABIL, CV","FM-15","GVBA ","V020","050,1,N,0067,1","99999,9,C,N","011265,1,N,1","+0290,1","+0210,1","99999,9","04,5,+00420,1,99,9","04,5,+00480,1,99,9",,"04,99,1,99,9,99,9,99999,9,99,9,99,9","10108,1,99999,9",,,,"MET064METAR GVBA 111800Z 05013KT 9999 SCT014 SCT016 29/21 Q1011 NOSIG;","P01 004803SCOCIG"
"08594499999","2010-10-11T19:00:00","4","16.136531","-22.888897","21.03","BOA VISTA RABIL, CV","FM-15","GVBA ","V020","050,1,N,0062,1","99999,9,C,N","011265,1,N,1","+0280,1","+0210,1","99999,9","02,5,+00420,1,99,9","04,5,+00480,1,99,9",,"04,99,1,99,9,99,9,99999,9,99,9,99,9","10108,1,99999,9",,,,"MET064METAR GVBA 111900Z 05012KT 9999 FEW014 SCT016 28/21 Q1011 NOSIG;","P01 004803SCOCIG"
"08594499999","2010-10-12T08:00:00","4","16.136531","-22.888897","21.03","BOA VISTA RABIL, CV","FM-15","GVBA ","V020","360,1,N,0026,1","22000,1,9,N","011265,1,N,1","+0250,1","+0210,1","99999,9","02,5,+00420,1,99,9",,,"02,99,1,99,9,99,9,99999,9,99,9,99,9","10119,1,99999,9",,,,"MET057METAR GVBA 120800Z 36005KT 9999 FEW014 25/21 Q1012 NOSIG;",
"08594499999","2010-10-12T09:00:00","4","16.136531","-22.888897","21.03","BOA VISTA RABIL, CV","FM-15","GVBA ","V020","010,1,N,0031,1","00450,1,C,N","011265,1,N,1","+0270,1","+0220,1","99999,9","07,5,+00450,1,99,9",,,"07,99,1,99,9,99,9,99999,9,99,9,99,9","10129,1,99999,9",,,,"MET057METAR GVBA 120900Z 01006KT 9999 BKN015 27/22 Q1013 NOSIG;",
"08594499999","2010-10-12T10:00:00","4","16.136531","-22.888897","21.03","BOA VISTA RABIL, CV","FM-15","GVBA ","V020","030,1,N,0062,1","00450,1,C,N","011265,1,N,1","+0280,1","+0210,1","99999,9","07,5,+00450,1,99,9",,,"07,99,1,99,9,99,9,99999,9,99,9,99,9","10139,1,99999,9",,,,"MET057METAR GVBA 121000Z 03012KT 9999 BKN015 28/21 Q1014 NOSIG;",
"08594499999","2010-10-12T11:00:00","4","16.136531","-22.888897","21.03","BOA VISTA RABIL, CV","FM-15","GVBA ","V020","050,1,N,0062,1","22000,1,9,N","011265,1,N,1","+0290,1","+0210,1","99999,9","04,5,+00450,1,99,9",,,"04,99,1,99,9,99,9,99999,9,99,9,99,9","10139,1,99999,9",,,,"MET057METAR GVBA 121100Z 05012KT 9999 SCT015 29/21 Q1014 NOSIG;",
"08594499999","2010-10-12T15:00:00","4","16.136531","-22.888897","21.03","BOA VISTA RABIL, CV","FM-15","GVBA ","V020","010,1,N,0062,1","22000,1,9,N","011265,1,N,1","+0310,1","+0210,1","99999,9","04,5,+00450,1,99,9",,,"04,99,1,99,9,99,9,99999,9,99,9,99,9","10119,1,99999,9",,,,"MET057METAR GVBA 121500Z 01012KT 9999 SCT015 31/21 Q1012 NOSIG;",
"08594499999","2010-10-12T16:00:00","4","16.136531","-22.888897","21.03","BOA VISTA RABIL, CV","FM-15","GVBA ","V020","010,1,N,0067,1","22000,1,9,N","011265,1,N,1","+0310,1","+0210,1","99999,9","04,5,+00450,1,99,9",,,"04,99,1,99,9,99,9,99999,9,99,9,99,9","10119,1,99999,9",,,,"MET057METAR GVBA 121600Z 01013KT 9999 SCT015 31/21 Q1012 NOSIG;",
"08594499999","2010-10-12T17:00:00","4","16.136531","-22.888897","21.03","BOA VISTA RABIL, CV","FM-15","GVBA ","V020","030,1,N,0067,1","22000,1,9,N","011265,1,N,1","+0300,1","+0210,1","99999,9","04,5,+00450,1,99,9",,,"04,99,1,99,9,99,9,99999,9,99,9,99,9","10119,1,99999,9",,,,"MET057METAR GVBA 121700Z 03013KT 9999 SCT015 30/21 Q1012 NOSIG;",
"08594499999","2010-10-12T18:00:00","4","16.136531","-22.888897","21.03","BOA VISTA RABIL, CV","FM-15","GVBA ","V020","020,1,N,0057,1","99999,9,C,N","011265,1,N,1","+0290,1","+0210,1","99999,9","02,5,+00450,1,99,9","04,5,+03000,1,99,9",,"04,99,1,99,9,99,9,99999,9,99,9,99,9","10119,1,99999,9",,,,"MET064METAR GVBA 121800Z 02011KT 9999 FEW015 SCT100 29/21 Q1012 NOSIG;","P01 030003SCOCIG"
"08594499999","2010-10-12T19:00:00","4","16.136531","-22.888897","21.03","BOA VISTA RABIL, CV","FM-15","GVBA ","V020","030,1,N,0046,1","03000,1,C,N","011265,1,N,1","+0280,1","+0210,1","99999,9","02,5,+00450,1,99,9","07,5,+03000,1,99,9",,"07,99,1,99,9,99,9,99999,9,99,9,99,9","10119,1,99999,9",,,,"MET064METAR GVBA 121900Z 03009KT 9999 FEW015 BKN100 28/21 Q1012 NOSIG;",
"08594499999","2010-10-13T08:00:00","4","16.136531","-22.888897","21.03","BOA VISTA RABIL, CV","FM-15","GVBA ","V020","030,1,N,0010,1","22000,1,9,N","011265,1,N,1","+0250,1","+0220,1","99999,9","04,5,+00450,1,99,9",,,"04,99,1,99,9,99,9,99999,9,99,9,99,9","10129,1,99999,9",,,,"MET057METAR GVBA 130800Z 03002KT 9999 SCT015 25/22 Q1013 NOSIG;",
"08594499999","2010-10-13T09:00:00","4","16.136531","-22.888897","21.03","BOA VISTA RABIL, CV","FM-15","GVBA ","V020","010,1,N,0031,1","99999,9,C,N","011265,1,N,1","+0270,1","+0220,1","99999,9","04,5,+00450,1,99,9","04,5,+03000,1,99,9",,"04,99,1,99,9,99,9,99999,9,99,9,99,9","10139,1,99999,9",,,,"MET064METAR GVBA 130900Z 01006KT 9999 SCT015 SCT100 27/22 Q1014 NOSIG;","P01 030003SCOCIG"
"08594499999","2010-10-13T10:00:00","4","16.136531","-22.888897","21.03","BOA VISTA RABIL, CV","FM-15","GVBA ","V020","030,1,N,0051,1","22000,1,9,N","011265,1,N,1","+0290,1","+0220,1","99999,9","04,5,+00450,1,99,9",,,"04,99,1,99,9,99,9,99999,9,99,9,99,9","10139,1,99999,9",,,,"MET057METAR GVBA 131000Z 03010KT 9999 SCT015 29/22 Q1014 NOSIG;",
"08594499999","2010-10-13T11:00:00","4","16.136531","-22.888897","21.03","BOA VISTA RABIL, CV","FM-15","GVBA ","V020","040,1,N,0067,1","22000,1,9,N","011265,1,N,1","+0300,1","+0220,1","99999,9","04,5,+00450,1,99,9",,,"04,99,1,99,9,99,9,99999,9,99,9,99,9","10139,1,99999,9",,,,"MET057METAR GVBA 131100Z 04013KT 9999 SCT015 30/22 Q1014 NOSIG;",
"08594499999","2010-10-13T12:00:00","4","16.136531","-22.888897","21.03","BOA VISTA RABIL, CV","FM-15","GVBA ","V020","050,1,N,0067,1","00450,1,C,N","011265,1,N,1","+0300,1","+0210,1","99999,9","07,5,+00450,1,99,9",,,"07,99,1,99,9,99,9,99999,9,99,9,99,9","10139,1,99999,9",,,,"MET057METAR GVBA 131200Z 05013KT 9999 BKN015 30/21 Q1014 NOSIG;",
"08594499999","2010-10-13T13:00:00","4","16.136531","-22.888897","21.03","BOA VISTA RABIL, CV","FM-15","GVBA ","V020","040,1,N,0062,1","00450,1,C,N","011265,1,N,1","+0310,1","+0210,1","99999,9","07,5,+00450,1,99,9","04,5,+06000,1,99,9",,,"10129,1,99999,9",,,,"MET064METAR GVBA 131300Z 04012KT 9999 BKN015 SCT200 31/21 Q1013 NOSIG;","Q01+000042SCOTCV"
"08594499999","2010-10-13T14:00:00","4","16.136531","-22.888897","21.03","BOA VISTA RABIL, CV","FM-15","GVBA ","V020","050,1,N,0062,1","22000,1,9,N","011265,1,N,1","+0310,1","+0220,1","99999,9","04,5,+00450,1,99,9",,,"04,99,1,99,9,99,9,99999,9,99,9,99,9","10119,1,99999,9",,,,"MET057METAR GVBA 131400Z 05012KT 9999 SCT015 31/22 Q1012 NOSIG;",
"08594499999","2010-10-13T15:00:00","4","16.136531","-22.888897","21.03","BOA VISTA RABIL, CV","FM-15","GVBA ","V020","040,1,N,0072,1","00450,1,C,N","011265,1,N,1","+0320,1","+0210,1","99999,9","07,5,+00450,1,99,9",,,"07,99,1,99,9,99,9,99999,9,99,9,99,9","10119,1,99999,9",,,,"MET057METAR GVBA 131500Z 04014KT 9999 BKN015 32/21 Q1012 NOSIG;",
"08594499999","2010-10-13T16:00:00","4","16.136531","-22.888897","21.03","BOA VISTA RABIL, CV","FM-15","GVBA ","V020","050,1,N,0067,1","00540,1,C,N","011265,1,N,1","+0310,1","+0220,1","99999,9","02,5,+00450,1,99,9","07,5,+00540,1,99,9",,"07,99,1,99,9,99,9,99999,9,99,9,99,9","10119,1,99999,9",,,,"MET064METAR GVBA 131600Z 05013KT 9999 FEW015 BKN018 31/22 Q1012 NOSIG;",
"08594499999","2010-10-13T17:00:00","4","16.136531","-22.888897","21.03","BOA VISTA RABIL, CV","FM-15","GVBA ","V020","040,1,N,0072,1","00540,1,C,N","011265,1,N,1","+0290,1","+0220,1","99999,9","02,5,+00450,1,99,9","07,5,+00540,1,99,9",,"07,99,1,99,9,99,9,99999,9,99,9,99,9","10108,1,99999,9",,,,"MET064METAR GVBA 131700Z 04014KT 9999 FEW015 BKN018 29/22 Q1011 NOSIG;",
"08594499999","2010-10-13T18:00:00","4","16.136531","-22.888897","21.03","BOA VISTA RABIL, CV","FM-15","GVBA ","V020","040,1,N,0072,1","99999,9,C,N","011265,1,N,1","+0290,1","+0220,1","99999,9","04,5,+00450,1,99,9","04,5,+00540,1,99,9",,"04,99,1,99,9,99,9,99999,9,99,9,99,9","10119,1,99999,9",,,,"MET064METAR GVBA 131800Z 04014KT 9999 SCT015 SCT018 29/22 Q1012 NOSIG;","P01 005403SCOCIG"
"08594499999","2010-10-14T08:00:00","4","16.136531","-22.888897","21.03","BOA VISTA RABIL, CV","FM-15","GVBA ","V020","030,1,N,0021,1","22000,1,9,N","011265,1,N,1","+0250,1","+0220,1","99999,9","02,5,+00420,1,99,9",,,"02,99,1,99,9,99,9,99999,9,99,9,99,9","10129,1,99999,9",,,,"MET057METAR GVBA 140800Z 03004KT 9999 FEW014 25/22 Q1013 NOSIG;",
"08594499999","2010-10-14T09:00:00","4","16.136531","-22.888897","21.03","BOA VISTA RABIL, CV","FM-15","GVBA ","V020","050,1,N,0051,1","22000,1,9,N","011265,1,N,1","+0280,1","+0220,1","99999,9","02,5,+00450,1,99,9",,,"02,99,1,99,9,99,9,99999,9,99,9,99,9","10139,1,99999,9",,,,"MET057METAR GVBA 140900Z 05010KT 9999 FEW015 28/22 Q1014 NOSIG;",
"08594499999","2010-10-14T10:00:00","4","16.136531","-22.888897","21.03","BOA VISTA RABIL, CV","FM-15","GVBA ","V020","040,1,N,0051,1","00450,1,C,N","011265,1,N,1","+0290,1","+0220,1","99999,9","07,5,+00450,1,99,9",,,"07,99,1,99,9,99,9,99999,9,99,9,99,9","10139,1,99999,9",,,,"MET057METAR GVBA 141000Z 04010KT 9999 BKN015 29/22 Q1014 NOSIG;",
"08594499999","2010-10-14T11:00:00","4","16.136531","-22.888897","21.03","BOA VISTA RABIL, CV","FM-15","GVBA ","V020","040,1,N,0062,1","00450,1,C,N","011265,1,N,1","+0300,1","+0220,1","99999,9","07,5,+00450,1,99,9",,,"07,99,1,99,9,99,9,99999,9,99,9,99,9","10139,1,99999,9",,,,"MET057METAR GVBA 141100Z 04012KT 9999 BKN015 30/22 Q1014 NOSIG;",
"08594499999","2010-10-14T12:00:00","4","16.136531","-22.888897","21.03","BOA VISTA RABIL, CV","FM-15","GVBA ","V020","040,1,N,0067,1","22000,1,9,N","011265,1,N,1","+0310,1","+0220,1","99999,9","04,5,+00450,1,99,9",,,"04,99,1,99,9,99,9,99999,9,99,9,99,9","10139,1,99999,9",,,,"MET057METAR GVBA 141200Z 04013KT 9999 SCT015 31/22 Q1014 NOSIG;",
"08594499999","2010-10-14T13:00:00","4","16.136531","-22.888897","21.03","BOA VISTA RABIL, CV","FM-15","GVBA ","V020","030,1,N,0062,1","22000,1,9,N","011265,1,N,1","+0310,1","+0220,1","99999,9","04,5,+00450,1,99,9",,,"04,99,1,99,9,99,9,99999,9,99,9,99,9","10139,1,99999,9",,,,"MET057METAR GVBA 141300Z 03012KT 9999 SCT015 31/22 Q1014 NOSIG;",
"08594499999","2010-10-14T14:00:00","4","16.136531","-22.888897","21.03","BOA VISTA RABIL, CV","FM-15","GVBA ","V020","030,1,N,0051,1","22000,1,9,N","011265,1,N,1","+0320,1","+0200,1","99999,9","04,5,+00450,1,99,9",,,"04,99,1,99,9,99,9,99999,9,99,9,99,9","10129,1,99999,9",,,,"MET057METAR GVBA 141400Z 03010KT 9999 SCT015 32/20 Q1013 NOSIG;",
"08594499999","2010-10-14T15:00:00","4","16.136531","-22.888897","21.03","BOA VISTA RABIL, CV","FM-15","GVBA ","V020","030,1,N,0057,1","22000,1,9,N","011265,1,N,1","+0320,1","+0200,1","99999,9","04,5,+00450,1,99,9",,,"04,99,1,99,9,99,9,99999,9,99,9,99,9","10119,1,99999,9",,,,"MET057METAR GVBA 141500Z 03011KT 9999 SCT015 32/20 Q1012 NOSIG;",
"08594499999","2010-10-14T16:00:00","4","16.136531","-22.888897","21.03","BOA VISTA RABIL, CV","FM-15","GVBA ","V020","030,1,N,0067,1","22000,1,9,N","011265,1,N,1","+0320,1","+0210,1","99999,9","04,5,+00450,1,99,9",,,"04,99,1,99,9,99,9,99999,9,99,9,99,9","10119,1,99999,9",,,,"MET057METAR GVBA 141600Z 03013KT 9999 SCT015 32/21 Q1012 NOSIG;",
"08594499999","2010-10-14T17:00:00","4","16.136531","-22.888897","21.03","BOA VISTA RABIL, CV","FM-15","GVBA ","V020","030,1,N,0062,1","22000,1,9,N","011265,1,N,1","+0310,1","+0210,1","99999,9","04,5,+00450,1,99,9",,,"04,99,1,99,9,99,9,99999,9,99,9,99,9","10119,1,99999,9",,,,"MET057METAR GVBA 141700Z 03012KT 9999 SCT015 31/21 Q1012 NOSIG;",
"08594499999","2010-10-14T18:00:00","4","16.136531","-22.888897","21.03","BOA VISTA RABIL, CV","FM-15","GVBA ","V020","040,1,N,0057,1","22000,1,9,N","011265,1,N,1","+0300,1","+0220,1","99999,9","04,5,+00450,1,99,9",,,"04,99,1,99,9,99,9,99999,9,99,9,99,9","10119,1,99999,9",,,,"MET057METAR GVBA 141800Z 04011KT 9999 SCT015 30/22 Q1012 NOSIG;",
"08594499999","2010-10-14T19:00:00","4","16.136531","-22.888897","21.03","BOA VISTA RABIL, CV","FM-15","GVBA ","V020","040,1,N,0046,1","22000,1,9,N","011265,1,N,1","+0290,1","+0220,1","99999,9","04,5,+00450,1,99,9",,,"04,99,1,99,9,99,9,99999,9,99,9,99,9","10119,1,99999,9",,,,"MET057METAR GVBA 141900Z 04009KT 9999 SCT015 29/22 Q1012 NOSIG;",
"08594499999","2010-10-15T08:00:00","4","16.136531","-22.888897","21.03","BOA VISTA RABIL, CV","FM-15","GVBA ","V020","070,1,N,0015,1","22000,1,9,N","011265,1,N,1","+0250,1","+0230,1","99999,9","02,5,+00450,1,99,9",,,"02,99,1,99,9,99,9,99999,9,99,9,99,9","10129,1,99999,9",,,,"MET057METAR GVBA 150800Z 07003KT 9999 FEW015 25/23 Q1013 NOSIG;",
"08594499999","2010-10-15T09:00:00","4","16.136531","-22.888897","21.03","BOA VISTA RABIL, CV","FM-15","GVBA ","V020","050,1,N,0036,1","22000,1,9,N","011265,1,N,1","+0280,1","+0240,1","99999,9","02,5,+00450,1,99,9",,,"02,99,1,99,9,99,9,99999,9,99,9,99,9","10129,1,99999,9",,,,"MET057METAR GVBA 150900Z 05007KT 9999 FEW015 28/24 Q1013 NOSIG;",
"08594499999","2010-10-15T10:00:00","4","16.136531","-22.888897","21.03","BOA VISTA RABIL, CV","FM-15","GVBA ","V020","030,1,N,0046,1","22000,1,9,N","011265,1,N,1","+0300,1","+0230,1","99999,9","04,5,+00450,1,99,9",,,"04,99,1,99,9,99,9,99999,9,99,9,99,9","10129,1,99999,9",,,,"MET057METAR GVBA 151000Z 03009KT 9999 SCT015 30/23 Q1013 NOSIG;",
"08594499999","2010-10-15T11:00:00","4","16.136531","-22.888897","21.03","BOA VISTA RABIL, CV","FM-15","GVBA ","V020","030,1,N,0041,1","22000,1,9,N","011265,1,N,1","+0300,1","+0240,1","99999,9","04,5,+00450,1,99,9",,,"04,99,1,99,9,99,9,99999,9,99,9,99,9","10129,1,99999,9",,,,"MET057METAR GVBA 151100Z 03008KT 9999 SCT015 30/24 Q1013 NOSIG;",
"08594499999","2010-10-15T12:00:00","4","16.136531","-22.888897","21.03","BOA VISTA RABIL, CV","FM-15","GVBA ","V020","050,1,N,0067,1","00450,1,C,N","011265,1,N,1","+0310,1","+0230,1","99999,9","07,5,+00450,1,99,9",,,"07,99,1,99,9,99,9,99999,9,99,9,99,9","10129,1,99999,9",,,,"MET057METAR GVBA 151200Z 05013KT 9999 BKN015 31/23 Q1013 NOSIG;",
"08594499999","2010-10-15T13:00:00","4","16.136531","-22.888897","21.03","BOA VISTA RABIL, CV","FM-15","GVBA ","V020","020,1,N,0077,1","00450,1,C,N","011265,1,N,1","+0320,1","+0230,1","99999,9","07,5,+00450,1,99,9",,,"07,99,1,99,9,99,9,99999,9,99,9,99,9","10119,1,99999,9",,,,"MET057METAR GVBA 151300Z 02015KT 9999 BKN015 32/23 Q1012 NOSIG;",
"08594499999","2010-10-15T14:00:00","4","16.136531","-22.888897","21.03","BOA VISTA RABIL, CV","FM-15","GVBA ","V020","050,1,N,0077,1","99999,9,C,N","011265,1,N,1","+0320,1","+0220,1","99999,9","02,5,+00420,1,99,9","04,5,+00480,1,99,9",,"04,99,1,99,9,99,9,99999,9,99,9,99,9","10108,1,99999,9",,,,"MET064METAR GVBA 151400Z 05015KT 9999 FEW014 SCT016 32/22 Q1011 NOSIG;","P01 004803SCOCIG"
"08594499999","2010-10-15T15:00:00","4","16.136531","-22.888897","21.03","BOA VISTA RABIL, CV","FM-15","GVBA ","V020","040,1,N,0087,1","99999,9,C,N","011265,1,N,1","+0320,1","+0220,1","99999,9","04,5,+00420,1,99,9","04,5,+00480,1,99,9",,"04,99,1,99,9,99,9,99999,9,99,9,99,9","10108,1,99999,9",,,,"MET064METAR GVBA 151500Z 04017KT 9999 SCT014 SCT016 32/22 Q1011 NOSIG;","P01 004803SCOCIG"
"08594499999","2010-10-15T16:00:00","4","16.136531","-22.888897","21.03","BOA VISTA RABIL, CV","FM-15","GVBA ","V020","040,1,N,0082,1","00540,1,C,N","011265,1,N,1","+0300,1","+0220,1","99999,9","04,5,+00420,1,99,9","07,5,+00540,1,99,9",,"07,99,1,99,9,99,9,99999,9,99,9,99,9","10102,1,99999,9",,,,"MET064METAR GVBA 151600Z 04016KT 9999 SCT014 BKN018 30/22 Q1010 NOSIG;",
"08594499999","2010-10-15T17:00:00","4","16.136531","-22.888897","21.03","BOA VISTA RABIL, CV","FM-15","GVBA ","V020","060,1,N,0067,1","99999,9,C,N","011265,1,N,1","+0290,1","+0220,1","99999,9","04,5,+00420,1,99,9","04,5,+00540,1,99,9",,"04,99,1,99,9,99,9,99999,9,99,9,99,9","10102,1,99999,9",,,,"MET064METAR GVBA 151700Z 06013KT 9999 SCT014 SCT018 29/22 Q1010 NOSIG;","P01 005403SCOCIG"
"08594499999","2010-10-15T18:00:00","4","16.136531","-22.888897","21.03","BOA VISTA RABIL, CV","FM-15","GVBA ","V020","060,1,N,0067,1","22000,1,9,N","011265,1,N,1","+0290,1","+0220,1","99999,9","02,5,+00420,1,99,9",,,"02,99,1,99,9,99,9,99999,9,99,9,99,9","10102,1,99999,9",,,,"MET057METAR GVBA 151800Z 06013KT 9999 FEW014 29/22 Q1010 NOSIG;",
"08594499999","2010-10-15T19:00:00","4","16.136531","-22.888897","21.03","BOA VISTA RABIL, CV","FM-15","GVBA ","V020","060,1,N,0062,1","99999,9,C,N","011265,1,N,1","+0280,1","+0220,1","99999,9","02,5,+00420,1,99,9","04,5,+00540,1,99,9",,"04,99,1,99,9,99,9,99999,9,99,9,99,9","10108,1,99999,9",,,,"MET064METAR GVBA 151900Z 06012KT 9999 FEW014 SCT018 28/22 Q1011 NOSIG;","P01 005403SCOCIG"
"08594499999","2010-10-16T08:00:00","4","16.136531","-22.888897","21.03","BOA VISTA RABIL, CV","FM-15","GVBA ","V020","040,1,N,0041,1","22000,1,9,N","011265,1,N,1","+0260,1","+0230,1","99999,9","02,5,+00390,1,99,9",,,"02,99,1,99,9,99,9,99999,9,99,9,99,9","10108,1,99999,9",,,,"MET057METAR GVBA 160800Z 04008KT 9999 FEW013 26/23 Q1011 NOSIG;",
"08594499999","2010-10-16T09:00:00","4","16.136531","-22.888897","21.03","BOA VISTA RABIL, CV","FM-15","GVBA ","V020","040,1,N,0051,1","22000,1,9,N","011265,1,N,1","+0280,1","+0230,1","99999,9","02,5,+00450,1,99,9",,,"02,99,1,99,9,99,9,99999,9,99,9,99,9","10119,1,99999,9",,,,"MET057METAR GVBA 160900Z 04010KT 9999 FEW015 28/23 Q1012 NOSIG;",
"08594499999","2010-10-16T10:00:00","4","16.136531","-22.888897","21.03","BOA VISTA RABIL, CV","FM-15","GVBA ","V020","050,1,N,0062,1","22000,1,9,N","011265,1,N,1","+0290,1","+0230,1","99999,9","02,5,+00450,1,99,9",,,"02,99,1,99,9,99,9,99999,9,99,9,99,9","10119,1,99999,9",,,,"MET057METAR GVBA 161000Z 05012KT 9999 FEW015 29/23 Q1012 NOSIG;",
"08594499999","2010-10-16T11:00:00","4","16.136531","-22.888897","21.03","BOA VISTA RABIL, CV","FM-15","GVBA ","V020","050,1,N,0072,1","00450,1,C,N","011265,1,N,1","+0300,1","+0230,1","99999,9","07,5,+00450,1,99,9",,,"07,99,1,99,9,99,9,99999,9,99,9,99,9","10119,1,99999,9",,,,"MET057METAR GVBA 161100Z 05014KT 9999 BKN015 30/23 Q1012 NOSIG;",
"08594499999","2010-10-16T12:00:00","4","16.136531","-22.888897","21.03","BOA VISTA RABIL, CV","FM-15","GVBA ","V020","050,1,N,0077,1","00450,1,C,N","011265,1,N,1","+0310,1","+0230,1","99999,9","07,5,+00450,1,99,9",,,"07,99,1,99,9,99,9,99999,9,99,9,99,9","10119,1,99999,9",,,,"MET057METAR GVBA 161200Z 05015KT 9999 BKN015 31/23 Q1012 NOSIG;",
"08594499999","2010-10-16T13:00:00","4","16.136531","-22.888897","21.03","BOA VISTA RABIL, CV","FM-15","GVBA ","V020","050,1,N,0082,1","00450,1,C,N","011265,1,N,1","+0310,1","+0230,1","99999,9","07,5,+00450,1,99,9",,,"07,99,1,99,9,99,9,99999,9,99,9,99,9","10108,1,99999,9",,,,"MET057METAR GVBA 161300Z 05016KT 9999 BKN015 31/23 Q1011 NOSIG;",
"08594499999","2010-10-16T14:00:00","4","16.136531","-22.888897","21.03","BOA VISTA RABIL, CV","FM-15","GVBA ","V020","040,1,N,0082,1","00450,1,C,N","011265,1,N,1","+0310,1","+0230,1","99999,9","07,5,+00450,1,99,9",,,"07,99,1,99,9,99,9,99999,9,99,9,99,9","10102,1,99999,9",,,,"MET057METAR GVBA 161400Z 04016KT 9999 BKN015 31/23 Q1010 NOSIG;",
"08594499999","2010-10-16T15:00:00","4","16.136531","-22.888897","21.03","BOA VISTA RABIL, CV","FM-15","GVBA ","V020","030,1,N,0082,1","00450,1,C,N","011265,1,N,1","+0310,1","+0230,1","99999,9","07,5,+00450,1,99,9","04,5,+06000,1,99,9",,,"10091,1,99999,9",,,,"MET064METAR GVBA 161500Z 03016KT 9999 BKN015 SCT200 31/23 Q1009 NOSIG;","Q01+000042SCOTCV"
"08594499999","2010-10-16T16:00:00","4","16.136531","-22.888897","21.03","BOA VISTA RABIL, CV","FM-15","GVBA ","V020","050,1,N,0077,1","99999,9,C,N","011265,1,N,1","+0310,1","+0220,1","99999,9","04,5,+00450,1,99,9","04,5,+06000,1,99,9",,"04,99,1,99,9,99,9,99999,9,99,9,99,9","10091,1,99999,9",,,,"MET064METAR GVBA 161600Z 05015KT 9999 SCT015 SCT200 31/22 Q1009 NOSIG;","P01 060003SCOCIG"
"08594499999","2010-10-16T17:00:00","4","16.136531","-22.888897","21.03","BOA VISTA RABIL, CV","FM-15","GVBA ","V020","050,1,N,0077,1","00450,1,C,N","011265,1,N,1","+0310,1","+0220,1","99999,9","07,5,+00450,1,99,9",,,"07,99,1,99,9,99,9,99999,9,99,9,99,9","10091,1,99999,9",,,,"MET057METAR GVBA 161700Z 05015KT 9999 BKN015 31/22 Q1009 NOSIG;",
"08594499999","2010-10-16T18:00:00","4","16.136531","-22.888897","21.03","BOA VISTA RABIL, CV","FM-15","GVBA ","V020","040,1,N,0072,1","00450,1,C,N","011265,1,N,1","+0300,1","+0230,1","99999,9","07,5,+00450,1,99,9",,,"07,99,1,99,9,99,9,99999,9,99,9,99,9","10102,1,99999,9",,,,"MET057METAR GVBA 161800Z 04014KT 9999 BKN015 30/23 Q1010 NOSIG;",
"08594499999","2010-10-16T19:00:00","4","16.136531","-22.888897","21.03","BOA VISTA RABIL, CV","FM-15","GVBA ","V020","050,1,N,0062,1","99999,9,C,N","011265,1,N,1","+0290,1","+0230,1","99999,9","04,5,+00450,1,99,9","04,5,+06000,1,99,9",,"04,99,1,99,9,99,9,99999,9,99,9,99,9","10102,1,99999,9",,,,"MET064METAR GVBA 161900Z 05012KT 9999 SCT015 SCT200 29/23 Q1010 NOSIG;","P01 060003SCOCIG"
"08594499999","2010-10-17T08:00:00","4","16.136531","-22.888897","21.03","BOA VISTA RABIL, CV","FM-15","GVBA ","V020","030,1,N,0041,1","22000,1,9,N","011265,1,N,1","+0260,1","+0230,1","99999,9","02,5,+00450,1,99,9",,,"02,99,1,99,9,99,9,99999,9,99,9,99,9","10119,1,99999,9",,,,"MET057METAR GVBA 170800Z 03008KT 9999 FEW015 26/23 Q1012 NOSIG;",
"08594499999","2010-10-17T09:00:00","4","16.136531","-22.888897","21.03","BOA VISTA RABIL, CV","FM-15","GVBA ","V020","040,1,N,0051,1","22000,1,9,N","011265,1,N,1","+0260,1","+0230,1","99999,9","02,5,+00450,1,99,9",,,"02,99,1,99,9,99,9,99999,9,99,9,99,9","10119,1,99999,9",,,,"MET057METAR GVBA 170900Z 04010KT 9999 FEW015 26/23 Q1012 NOSIG;",
"08594499999","2010-10-17T10:00:00","4","16.136531","-22.888897","21.03","BOA VISTA RABIL, CV","FM-15","GVBA ","V020","040,1,N,0062,1","22000,1,9,N","011265,1,N,1","+0290,1","+0230,1","99999,9","04,5,+00450,1,99,9",,,"04,99,1,99,9,99,9,99999,9,99,9,99,9","10129,1,99999,9",,,,"MET057METAR GVBA 171000Z 04012KT 9999 SCT015 29/23 Q1013 NOSIG;",
"08594499999","2010-10-17T11:00:00","4","16.136531","-22.888897","21.03","BOA VISTA RABIL, CV","FM-15","GVBA ","V020","050,1,N,0062,1","99999,9,C,N","011265,1,N,1","+0300,1","+0220,1","99999,9","04,5,+00450,1,99,9","04,5,+06000,1,99,9",,"04,99,1,99,9,99,9,99999,9,99,9,99,9","10119,1,99999,9",,,,"MET064METAR GVBA 171100Z 05012KT 9999 SCT015 SCT200 30/22 Q1012 NOSIG;","P01 060003SCOCIG"
"08594499999","2010-10-17T13:00:00","4","16.136531","-22.888897","21.03","BOA VISTA RABIL, CV","FM-15","GVBA ","V020","070,1,N,0041,1","06000,1,C,N","011265,1,N,1","+0320,1","+0220,1","99999,9","04,5,+00450,1,99,9","07,5,+06000,1,99,9",,"07,99,1,99,9,99,9,99999,9,99,9,99,9","10119,1,99999,9",,,,"MET064METAR GVBA 171300Z 07008KT 9999 SCT015 BKN200 32/22 Q1012 NOSIG;",
"08594499999","2010-10-17T14:00:00","4","16.136531","-22.888897","21.03","BOA VISTA RABIL, CV","FM-15","GVBA ","V020","030,1,N,0051,1","06000,1,C,N","011265,1,N,1","+0310,1","+0220,1","99999,9","04,5,+00450,1,99,9","07,5,+06000,1,99,9",,"07,99,1,99,9,99,9,99999,9,99,9,99,9","10108,1,99999,9",,,,"MET064METAR GVBA 171400Z 03010KT 9999 SCT015 BKN200 31/22 Q1011 NOSIG;",
"08594499999","2010-10-17T15:00:00","4","16.136531","-22.888897","21.03","BOA VISTA RABIL, CV","FM-15","GVBA ","V020","030,1,N,0051,1","06000,1,C,N","011265,1,N,1","+0300,1","+0220,1","99999,9","02,5,+00450,1,99,9","07,5,+06000,1,99,9",,"07,99,1,99,9,99,9,99999,9,99,9,99,9","10102,1,99999,9",,,,"MET064METAR GVBA 171500Z 03010KT 9999 FEW015 BKN200 30/22 Q1010 NOSIG;",
"08594499999","2010-10-17T16:00:00","4","16.136531","-22.888897","21.03","BOA VISTA RABIL, CV","FM-15","GVBA ","V020","030,1,N,0057,1","06000,1,C,N","011265,1,N,1","+0300,1","+0220,1","99999,9","02,5,+00450,1,99,9","07,5,+06000,1,99,9",,"07,99,1,99,9,99,9,99999,9,99,9,99,9","10102,1,99999,9",,,,"MET064METAR GVBA 171600Z 03011KT 9999 FEW015 BKN200 30/22 Q1010 NOSIG;",
"08594499999","2010-10-17T17:00:00","4","16.136531","-22.888897","21.03","BOA VISTA RABIL, CV","FM-15","GVBA ","V020","040,1,N,0051,1","03000,1,C,N","011265,1,N,1","+0290,1","+0230,1","99999,9","02,5,+00450,1,99,9","04,5,+03000,1,99,9","07,5,+06000,1,99,9","07,99,1,99,9,99,9,99999,9,99,9,99,9","10102,1,99999,9",,,,"MET071METAR GVBA 171700Z 04010KT 9999 FEW015 SCT100 BKN200 29/23 Q1010 NOSIG;",
"08594499999","2010-10-17T18:00:00","4","16.136531","-22.888897","21.03","BOA VISTA RABIL, CV","FM-15","GVBA ","V020","050,1,N,0051,1","06000,1,C,N","011265,1,N,1","+0290,1","+0230,1","99999,9","02,5,+00450,1,99,9","07,5,+06000,1,99,9",,"07,99,1,99,9,99,9,99999,9,99,9,99,9","10102,1,99999,9",,,,"MET064METAR GVBA 171800Z 05010KT 9999 FEW015 BKN200 29/23 Q1010 NOSIG;",
"08594499999","2010-10-18T08:00:00","4","16.136531","-22.888897","21.03","BOA VISTA RABIL, CV","FM-15","GVBA ","V020","040,1,N,0015,1","06000,1,C,N","011265,1,N,1","+0250,1","+0230,1","99999,9","04,5,+00420,1,99,9","07,5,+06000,1,99,9",,"07,99,1,99,9,99,9,99999,9,99,9,99,9","10119,1,99999,9",,,,"MET064METAR GVBA 180800Z 04003KT 9999 SCT014 BKN200 25/23 Q1012 NOSIG;",
"08594499999","2010-10-18T09:00:00","4","16.136531","-22.888897","21.03","BOA VISTA RABIL, CV","FM-15","GVBA ","V020","020,1,N,0026,1","06000,1,C,N","011265,1,N,1","+0270,1","+0240,1","99999,9","02,5,+00420,1,99,9","07,5,+06000,1,99,9",,"07,99,1,99,9,99,9,99999,9,99,9,99,9","10129,1,99999,9",,,,"MET064METAR GVBA 180900Z 02005KT 9999 FEW014 BKN200 27/24 Q1013 NOSIG;",
"08594499999","2010-10-18T10:00:00","4","16.136531","-22.888897","21.03","BOA VISTA RABIL, CV","FM-15","GVBA ","V020","010,1,N,0041,1","99999,9,C,N","011265,1,N,1","+0290,1","+0230,1","99999,9","02,5,+00420,1,99,9","04,5,+06000,1,99,9",,"04,99,1,99,9,99,9,99999,9,99,9,99,9","10129,1,99999,9",,,,"MET064METAR GVBA 181000Z 01008KT 9999 FEW014 SCT200 29/23 Q1013 NOSIG;","P01 060003SCOCIG"
"08594499999","2010-10-18T11:00:00","4","16.136531","-22.888897","21.03","BOA VISTA RABIL, CV","FM-15","GVBA ","V020","360,1,N,0041,1","99999,9,C,N","011265,1,N,1","+0300,1","+0220,1","99999,9","04,5,+00420,1,99,9","04,5,+06000,1,99,9",,"04,99,1,99,9,99,9,99999,9,99,9,99,9","10139,1,99999,9",,,,"MET064METAR GVBA 181100Z 36008KT 9999 SCT014 SCT200 30/22 Q1014 NOSIG;","P01 060003SCOCIG"
"08594499999","2010-10-18T15:00:00","4","16.136531","-22.888897","21.03","BOA VISTA RABIL, CV","FM-15","GVBA ","V020","010,1,N,0051,1","99999,9,C,N","011265,1,N,1","+0320,1","+0230,1","99999,9","04,5,+00450,1,99,9","04,5,+06000,1,99,9",,"04,99,1,99,9,99,9,99999,9,99,9,99,9","10119,1,99999,9",,,,"MET064METAR GVBA 181500Z 01010KT 9999 SCT015 SCT200 32/23 Q1012 NOSIG;","P01 060003SCOCIG"
"08594499999","2010-10-18T16:00:00","4","16.136531","-22.888897","21.03","BOA VISTA RABIL, CV","FM-15","GVBA ","V020","360,1,N,0057,1","99999,9,C,N","011265,1,N,1","+0320,1","+0220,1","99999,9","04,5,+00450,1,99,9","04,5,+06000,1,99,9",,"04,99,1,99,9,99,9,99999,9,99,9,99,9","10119,1,99999,9",,,,"MET064METAR GVBA 181600Z 36011KT 9999 SCT015 SCT200 32/22 Q1012 NOSIG;","P01 060003SCOCIG"
"08594499999","2010-10-18T17:00:00","4","16.136531","-22.888897","21.03","BOA VISTA RABIL, CV","FM-15","GVBA ","V020","010,1,N,0057,1","99999,9,C,N","011265,1,N,1","+0300,1","+0230,1","99999,9","04,5,+00450,1,99,9","04,5,+06000,1,99,9",,"04,99,1,99,9,99,9,99999,9,99,9,99,9","10119,1,99999,9",,,,"MET064METAR GVBA 181700Z 01011KT 9999 SCT015 SCT200 30/23 Q1012 NOSIG;","P01 060003SCOCIG"
"08594499999","2010-10-18T18:00:00","4","16.136531","-22.888897","21.03","BOA VISTA RABIL, CV","FM-15","GVBA ","V020","030,1,N,0062,1","99999,9,C,N","011265,1,N,1","+0290,1","+0230,1","99999,9","04,5,+00450,1,99,9","04,5,+06000,1,99,9",,"04,99,1,99,9,99,9,99999,9,99,9,99,9","10108,1,99999,9",,,,"MET064METAR GVBA 181800Z 03012KT 9999 SCT015 SCT200 29/23 Q1011 NOSIG;","P01 060003SCOCIG"
"08594499999","2010-10-18T19:00:00","4","16.136531","-22.888897","21.03","BOA VISTA RABIL, CV","FM-15","GVBA ","V020","030,1,N,0067,1","22000,1,9,N","011265,1,N,1","+0280,1","+0230,1","99999,9","04,5,+00450,1,99,9",,,"04,99,1,99,9,99,9,99999,9,99,9,99,9","10119,1,99999,9",,,,"MET057METAR GVBA 181900Z 03013KT 9999 SCT015 28/23 Q1012 NOSIG;",
"08594499999","2010-10-19T08:00:00","4","16.136531","-22.888897","21.03","BOA VISTA RABIL, CV","FM-15","GVBA ","V020","040,1,N,0026,1","06000,1,C,N","011265,1,N,1","+0250,1","+0220,1","99999,9","02,5,+00450,1,99,9","07,5,+06000,1,99,9",,"07,99,1,99,9,99,9,99999,9,99,9,99,9","10129,1,99999,9",,,,"MET064METAR GVBA 190800Z 04005KT 9999 FEW015 BKN200 25/22 Q1013 NOSIG;",
"08594499999","2010-10-19T09:00:00","4","16.136531","-22.888897","21.03","BOA VISTA RABIL, CV","FM-15","GVBA ","V020","030,1,N,0046,1","99999,9,C,N","011265,1,N,1","+0280,1","+0220,1","99999,9","02,5,+00450,1,99,9","04,5,+06000,1,99,9",,"04,99,1,99,9,99,9,99999,9,99,9,99,9","10129,1,99999,9",,,,"MET064METAR GVBA 190900Z 03009KT 9999 FEW015 SCT200 28/22 Q1013 NOSIG;","P01 060003SCOCIG"
"08594499999","2010-10-19T10:00:00","4","16.136531","-22.888897","21.03","BOA VISTA RABIL, CV","FM-15","GVBA ","V020","040,1,N,0057,1","99999,9,C,N","011265,1,N,1","+0290,1","+0220,1","99999,9","04,5,+00450,1,99,9","04,5,+06000,1,99,9",,"04,99,1,99,9,99,9,99999,9,99,9,99,9","10139,1,99999,9",,,,"MET064METAR GVBA 191000Z 04011KT 9999 SCT015 SCT200 29/22 Q1014 NOSIG;","P01 060003SCOCIG"
"08594499999","2010-10-19T11:00:00","4","16.136531","-22.888897","21.03","BOA VISTA RABIL, CV","FM-15","GVBA ","V020","040,1,N,0051,1","22000,1,9,N","011265,1,N,1","+0310,1","+0220,1","99999,9","04,5,+00450,1,99,9",,,"04,99,1,99,9,99,9,99999,9,99,9,99,9","10139,1,99999,9",,,,"MET057METAR GVBA 191100Z 04010KT 9999 SCT015 31/22 Q1014 NOSIG;",
"08594499999","2010-10-19T12:00:00","4","16.136531","-22.888897","21.03","BOA VISTA RABIL, CV","FM-15","GVBA ","V020","040,1,N,0051,1","00450,1,C,N","011265,1,N,1","+0310,1","+0220,1","99999,9","07,5,+00450,1,99,9",,,"07,99,1,99,9,99,9,99999,9,99,9,99,9","10139,1,99999,9",,,,"MET057METAR GVBA 191200Z 04010KT 9999 BKN015 31/22 Q1014 NOSIG;",
"08594499999","2010-10-19T13:00:00","4","16.136531","-22.888897","21.03","BOA VISTA RABIL, CV","FM-15","GVBA ","V020","040,1,N,0062,1","00450,1,C,N","011265,1,N,1","+0310,1","+0230,1","99999,9","07,5,+00450,1,99,9",,,"07,99,1,99,9,99,9,99999,9,99,9,99,9","10129,1,99999,9",,,,"MET057METAR GVBA 191300Z 04012KT 9999 BKN015 31/23 Q1013 NOSIG;",
"08594499999","2010-10-19T14:00:00","4","16.136531","-22.888897","21.03","BOA VISTA RABIL, CV","FM-15","GVBA ","V020","020,1,N,0051,1","22000,1,9,N","011265,1,N,1","+0320,1","+0230,1","99999,9","04,5,+00450,1,99,9",,,"04,99,1,99,9,99,9,99999,9,99,9,99,9","10119,1,99999,9",,,,"MET057METAR GVBA 191400Z 02010KT 9999 SCT015 32/23 Q1012 NOSIG;",
"08594499999","2010-10-19T15:00:00","4","16.136531","-22.888897","21.03","BOA VISTA RABIL, CV","FM-15","GVBA ","V020","010,1,N,0051,1","22000,1,9,N","011265,1,N,1","+0320,1","+0230,1","99999,9","04,5,+00450,1,99,9",,,"04,99,1,99,9,99,9,99999,9,99,9,99,9","10119,1,99999,9",,,,"MET057METAR GVBA 191500Z 01010KT 9999 SCT015 32/23 Q1012 NOSIG;",
"08594499999","2010-10-19T16:00:00","4","16.136531","-22.888897","21.03","BOA VISTA RABIL, CV","FM-15","GVBA ","V020","020,1,N,0067,1","22000,1,9,N","011265,1,N,1","+0310,1","+0230,1","99999,9","04,5,+00450,1,99,9",,,"04,99,1,99,9,99,9,99999,9,99,9,99,9","10108,1,99999,9",,,,"MET057METAR GVBA 191600Z 02013KT 9999 SCT015 31/23 Q1011 NOSIG;",
"08594499999","2010-10-19T18:00:00","4","16.136531","-22.888897","21.03","BOA VISTA RABIL, CV","FM-15","GVBA ","V020","010,1,N,0067,1","22000,1,9,N","011265,1,N,1","+0300,1","+0240,1","99999,9","04,5,+00450,1,99,9",,,"04,99,1,99,9,99,9,99999,9,99,9,99,9","10119,1,99999,9",,,,"MET057METAR GVBA 191800Z 01013KT 9999 SCT015 30/24 Q1012 NOSIG;",
"08594499999","2010-10-19T19:00:00","4","16.136531","-22.888897","21.03","BOA VISTA RABIL, CV","FM-15","GVBA ","V020","020,1,N,0062,1","22000,1,9,N","011265,1,N,1","+0290,1","+0230,1","99999,9","04,5,+00450,1,99,9",,,"04,99,1,99,9,99,9,99999,9,99,9,99,9","10119,1,99999,9",,,,"MET057METAR GVBA 191900Z 02012KT 9999 SCT015 29/23 Q1012 NOSIG;",
"08594499999","2010-10-20T08:00:00","4","16.136531","-22.888897","21.03","BOA VISTA RABIL, CV","FM-15","GVBA ","V020","030,1,N,0031,1","22000,1,9,N","011265,1,N,1","+0260,1","+0240,1","99999,9","04,5,+00450,1,99,9",,,"04,99,1,99,9,99,9,99999,9,99,9,99,9","10129,1,99999,9",,,,"MET057METAR GVBA 200800Z 03006KT 9999 SCT015 26/24 Q1013 NOSIG;",
"08594499999","2010-10-20T09:00:00","4","16.136531","-22.888897","21.03","BOA VISTA RABIL, CV","FM-15","GVBA ","V020","030,1,N,0041,1","22000,1,9,N","011265,1,N,1","+0280,1","+0240,1","99999,9","02,5,+00420,1,99,9",,,"02,99,1,99,9,99,9,99999,9,99,9,99,9","10129,1,99999,9",,,,"MET057METAR GVBA 200900Z 03008KT 9999 FEW014 28/24 Q1013 NOSIG;",
"08594499999","2010-10-20T10:00:00","4","16.136531","-22.888897","21.03","BOA VISTA RABIL, CV","FM-15","GVBA ","V020","040,1,N,0067,1","22000,1,9,N","011265,1,N,1","+0290,1","+0240,1","99999,9","04,5,+00420,1,99,9",,,"04,99,1,99,9,99,9,99999,9,99,9,99,9","10139,1,99999,9",,,,"MET057METAR GVBA 201000Z 04013KT 9999 SCT014 29/24 Q1014 NOSIG;",
"08594499999","2010-10-20T11:00:00","4","16.136531","-22.888897","21.03","BOA VISTA RABIL, CV","FM-15","GVBA ","V020","050,1,N,0072,1","00450,1,C,N","011265,1,N,1","+0310,1","+0230,1","99999,9","07,5,+00450,1,99,9",,,"07,99,1,99,9,99,9,99999,9,99,9,99,9","10139,1,99999,9",,,,"MET057METAR GVBA 201100Z 05014KT 9999 BKN015 31/23 Q1014 NOSIG;",
"08594499999","2010-10-20T12:00:00","4","16.136531","-22.888897","21.03","BOA VISTA RABIL, CV","FM-15","GVBA ","V020","040,1,N,0077,1","00450,1,C,N","011265,1,N,1","+0300,1","+0240,1","99999,9","07,5,+00450,1,99,9",,,"07,99,1,99,9,99,9,99999,9,99,9,99,9","10139,1,99999,9",,,,"MET057METAR GVBA 201200Z 04015KT 9999 BKN015 30/24 Q1014 NOSIG;",
"08594499999","2010-10-20T13:00:00","4","16.136531","-22.888897","21.03","BOA VISTA RABIL, CV","FM-15","GVBA ","V020","060,1,N,0077,1","00450,1,C,N","011265,1,N,1","+0320,1","+0240,1","99999,9","07,5,+00450,1,99,9",,,"07,99,1,99,9,99,9,99999,9,99,9,99,9","10129,1,99999,9",,,,"MET057METAR GVBA 201300Z 06015KT 9999 BKN015 32/24 Q1013 NOSIG;",
"08594499999","2010-10-20T14:00:00","4","16.136531","-22.888897","21.03","BOA VISTA RABIL, CV","FM-15","GVBA ","V020","060,1,N,0082,1","00450,1,C,N","011265,1,N,1","+0320,1","+0230,1","99999,9","07,5,+00450,1,99,9",,,"07,99,1,99,9,99,9,99999,9,99,9,99,9","10119,1,99999,9",,,,"MET057METAR GVBA 201400Z 06016KT 9999 BKN015 32/23 Q1012 NOSIG;",
"08594499999","2010-10-20T15:00:00","4","16.136531","-22.888897","21.03","BOA VISTA RABIL, CV","FM-15","GVBA ","V020","050,1,N,0082,1","00450,1,C,N","011265,1,N,1","+0320,1","+0240,1","99999,9","07,5,+00450,1,99,9",,,"07,99,1,99,9,99,9,99999,9,99,9,99,9","10119,1,99999,9",,,,"MET057METAR GVBA 201500Z 05016KT 9999 BKN015 32/24 Q1012 NOSIG;",
"08594499999","2010-10-20T16:00:00","4","16.136531","-22.888897","21.03","BOA VISTA RABIL, CV","FM-15","GVBA ","V020","050,1,N,0077,1","00450,1,C,N","011265,1,N,1","+0320,1","+0230,1","99999,9","07,5,+00450,1,99,9",,,"07,99,1,99,9,99,9,99999,9,99,9,99,9","10119,1,99999,9",,,,"MET057METAR GVBA 201600Z 05015KT 9999 BKN015 32/23 Q1012 NOSIG;",
"08594499999","2010-10-20T17:00:00","4","16.136531","-22.888897","21.03","BOA VISTA RABIL, CV","FM-15","GVBA ","V020","060,1,N,0067,1","22000,1,9,N","011265,1,N,1","+0310,1","+0230,1","99999,9","04,5,+00450,1,99,9",,,"04,99,1,99,9,99,9,99999,9,99,9,99,9","10108,1,99999,9",,,,"MET057METAR GVBA 201700Z 06013KT 9999 SCT015 31/23 Q1011 NOSIG;",
"08594499999","2010-10-20T18:00:00","4","16.136531","-22.888897","21.03","BOA VISTA RABIL, CV","FM-15","GVBA ","V020","040,1,N,0072,1","22000,1,9,N","011265,1,N,1","+0300,1","+0230,1","99999,9","02,5,+00450,1,99,9",,,"02,99,1,99,9,99,9,99999,9,99,9,99,9","10108,1,99999,9",,,,"MET057METAR GVBA 201800Z 04014KT 9999 FEW015 30/23 Q1011 NOSIG;",
"08594499999","2010-10-20T19:00:00","4","16.136531","-22.888897","21.03","BOA VISTA RABIL, CV","FM-15","GVBA ","V020","060,1,N,0051,1","22000,1,9,N","011265,1,N,1","+0280,1","+0230,1","99999,9","02,5,+00450,1,99,9",,,"02,99,1,99,9,99,9,99999,9,99,9,99,9","10119,1,99999,9",,,,"MET057METAR GVBA 201900Z 06010KT 9999 FEW015 28/23 Q1012 NOSIG;",
"08594499999","2010-10-21T08:00:00","4","16.136531","-22.888897","21.03","BOA VISTA RABIL, CV","FM-15","GVBA ","V020","050,1,N,0051,1","22000,1,9,N","011265,1,N,1","+0260,1","+0220,1","99999,9","04,5,+00420,1,99,9",,,"04,99,1,99,9,99,9,99999,9,99,9,99,9","10129,1,99999,9",,,,"MET057METAR GVBA 210800Z 05010KT 9999 SCT014 26/22 Q1013 NOSIG;",
"08594499999","2010-10-21T09:00:00","4","16.136531","-22.888897","21.03","BOA VISTA RABIL, CV","FM-15","GVBA ","V020","040,1,N,0067,1","22000,1,9,N","011265,1,N,1","+0280,1","+0220,1","99999,9","02,5,+00420,1,99,9",,,"02,99,1,99,9,99,9,99999,9,99,9,99,9","10129,1,99999,9",,,,"MET057METAR GVBA 210900Z 04013KT 9999 FEW014 28/22 Q1013 NOSIG;",
"08594499999","2010-10-21T10:00:00","4","16.136531","-22.888897","21.03","BOA VISTA RABIL, CV","FM-15","GVBA ","V020","040,1,N,0077,1","22000,1,9,N","011265,1,N,1","+0290,1","+0220,1","99999,9","04,5,+00450,1,99,9",,,"04,99,1,99,9,99,9,99999,9,99,9,99,9","10139,1,99999,9",,,,"MET057METAR GVBA 211000Z 04015KT 9999 SCT015 29/22 Q1014 NOSIG;",
"08594499999","2010-10-21T11:00:00","4","16.136531","-22.888897","21.03","BOA VISTA RABIL, CV","FM-15","GVBA ","V020","040,1,N,0082,1","22000,1,9,N","011265,1,N,1","+0300,1","+0210,1","99999,9","04,5,+00450,1,99,9",,,"04,99,1,99,9,99,9,99999,9,99,9,99,9","10139,1,99999,9",,,,"MET057METAR GVBA 211100Z 04016KT 9999 SCT015 30/21 Q1014 NOSIG;",
"08594499999","2010-10-21T12:00:00","4","16.136531","-22.888897","21.03","BOA VISTA RABIL, CV","FM-15","GVBA ","V020","050,1,N,0077,1","22000,1,9,N","011265,1,N,1","+0300,1","+0210,1","99999,9","04,5,+00450,1,99,9",,,"04,99,1,99,9,99,9,99999,9,99,9,99,9","10139,1,99999,9",,,,"MET057METAR GVBA 211200Z 05015KT 9999 SCT015 30/21 Q1014 NOSIG;",
"08594499999","2010-10-21T13:00:00","4","16.136531","-22.888897","21.03","BOA VISTA RABIL, CV","FM-15","GVBA ","V020","050,1,N,0082,1","00450,1,C,N","011265,1,N,1","+0310,1","+0230,1","99999,9","07,5,+00450,1,99,9",,,"07,99,1,99,9,99,9,99999,9,99,9,99,9","10129,1,99999,9",,,,"MET057METAR GVBA 211300Z 05016KT 9999 BKN015 31/23 Q1013 NOSIG;",
"08594499999","2010-10-21T14:00:00","4","16.136531","-22.888897","21.03","BOA VISTA RABIL, CV","FM-15","GVBA ","V020","060,1,N,0082,1","00510,1,C,N","011265,1,N,1","+0300,1","+0230,1","99999,9","04,5,+00450,1,99,9","07,5,+00510,1,99,9",,"07,99,1,99,9,99,9,99999,9,99,9,99,9","10129,1,99999,9",,,,"MET064METAR GVBA 211400Z 06016KT 9999 SCT015 BKN017 30/23 Q1013 NOSIG;",
"08594499999","2010-10-21T15:00:00","4","16.136531","-22.888897","21.03","BOA VISTA RABIL, CV","FM-15","GVBA ","V020","070,1,N,0077,1","00510,1,C,N","011265,1,N,1","+0300,1","+0220,1","99999,9","04,5,+00450,1,99,9","07,5,+00510,1,99,9",,"07,99,1,99,9,99,9,99999,9,99,9,99,9","10129,1,99999,9",,,,"MET064METAR GVBA 211500Z 07015KT 9999 SCT015 BKN017 30/22 Q1013 NOSIG;",
"08594499999","2010-10-21T16:00:00","4","16.136531","-22.888897","21.03","BOA VISTA RABIL, CV","FM-15","GVBA ","V020","150,1,N,0067,1","00480,1,C,N","006000,1,N,1","+0240,1","+0230,1","99999,9","04,5,+00420,1,99,9","07,5,+00480,1,99,9","07,5,+03000,1,99,9","07,99,1,99,9,99,9,99999,9,99,9,99,9","10129,1,99999,9","63,1",,,"MET074METAR GVBA 211600Z 15013KT 6000 RA SCT014 BKN016 BKN100 24/23 Q1013 NOSIG;",
"08594499999","2010-10-21T17:00:00","4","16.136531","-22.888897","21.03","BOA VISTA RABIL, CV","FM-15","GVBA ","V020","120,1,N,0021,1","03000,1,C,N","011265,1,N,1","+0250,1","+0240,1","99999,9","04,5,+00450,1,99,9","07,5,+03000,1,99,9",,"07,99,1,99,9,99,9,99999,9,99,9,99,9","10129,1,99999,9",,,,"MET069METAR GVBA 211700Z 12004KT 9999 SCT015 BKN100 25/24 Q1013 RERA NOSIG;",
"08594499999","2010-10-21T18:00:00","4","16.136531","-22.888897","21.03","BOA VISTA RABIL, CV","FM-15","GVBA ","V020","090,1,N,0041,1","00450,1,C,N","011265,1,N,1","+0260,1","+0230,1","99999,9","02,5,+00300,1,99,9","04,5,+00450,1,99,9","07,5,+03000,1,99,9","07,99,1,99,9,99,9,99999,9,99,9,99,9","10119,1,99999,9",,,,"MET071METAR GVBA 211800Z 09008KT 9999 FEW010 SCT015 BKN100 26/23 Q1012 NOSIG;",
"08594499999","2010-10-21T19:00:00","4","16.136531","-22.888897","21.03","BOA VISTA RABIL, CV","FM-15","GVBA ","V020","999,9,C,0000,1","03000,1,C,N","011265,1,N,1","+0260,1","+0230,1","99999,9","02,5,+00450,1,99,9","07,5,+03000,1,99,9",,"07,99,1,99,9,99,9,99999,9,99,9,99,9","10119,1,99999,9",,,,"MET064METAR GVBA 211900Z 00000KT 9999 FEW015 BKN100 26/23 Q1012 NOSIG;",
"08594499999","2010-10-22T08:00:00","4","16.136531","-22.888897","21.03","BOA VISTA RABIL, CV","FM-15","GVBA ","V020","030,1,N,0051,1","00450,1,C,N","011265,1,N,1","+0250,1","+0240,1","99999,9","02,5,+00360,1,99,9","07,5,+00450,1,99,9","07,5,+03000,1,99,9","07,99,1,99,9,99,9,99999,9,99,9,99,9","10119,1,99999,9",,,,"MET071METAR GVBA 220800Z 03010KT 9999 FEW012 BKN015 BKN100 25/24 Q1012 NOSIG;",
"08594499999","2010-10-22T09:00:00","4","16.136531","-22.888897","21.03","BOA VISTA RABIL, CV","FM-15","GVBA ","V020","040,1,N,0072,1","99999,9,C,N","011265,1,N,1","+0260,1","+0240,1","99999,9","04,5,+00450,1,99,9","04,5,+03000,1,99,9",,"04,99,1,99,9,99,9,99999,9,99,9,99,9","10119,1,99999,9",,,,"MET064METAR GVBA 220900Z 04014KT 9999 SCT015 SCT100 26/24 Q1012 NOSIG;","P01 030003SCOCIG"
"08594499999","2010-10-22T10:00:00","4","16.136531","-22.888897","21.03","BOA VISTA RABIL, CV","FM-15","GVBA ","V020","050,1,N,0067,1","03000,1,C,N","011265,1,N,1","+0270,1","+0240,1","99999,9","04,5,+00450,1,99,9","07,5,+03000,1,99,9",,"07,99,1,99,9,99,9,99999,9,99,9,99,9","10129,1,99999,9",,,,"MET064METAR GVBA 221000Z 05013KT 9999 SCT015 BKN100 27/24 Q1013 NOSIG;",
"08594499999","2010-10-22T11:00:00","4","16.136531","-22.888897","21.03","BOA VISTA RABIL, CV","FM-15","GVBA ","V020","050,1,N,0072,1","00450,1,C,N","011265,1,N,1","+0280,1","+0240,1","99999,9","04,5,+00420,1,99,9","07,5,+00450,1,99,9","07,5,+03000,1,99,9","07,99,1,99,9,99,9,99999,9,99,9,99,9","10139,1,99999,9",,,,"MET071METAR GVBA 221100Z 05014KT 9999 SCT014 BKN015 BKN100 28/24 Q1014 NOSIG;",
"08594499999","2010-10-22T14:00:00","4","16.136531","-22.888897","21.03","BOA VISTA RABIL, CV","FM-15","GVBA ","V020","110,1,N,0041,1","00450,1,C,N","011265,1,N,1","+0250,1","+0250,1","99999,9","02,5,+00360,1,99,9","04,5,+00450,1,99,9","08,5,+03000,1,99,9","08,99,1,99,9,99,9,99999,9,99,9,99,9","10119,1,99999,9","61,1",,,"MET075METAR GVBA 221400Z 11008KT 9999 -RA FEW012 SCT015 OVC100 25/25 Q1012 NOSIG;",
"08594499999","2010-10-22T15:00:00","4","16.136531","-22.888897","21.03","BOA VISTA RABIL, CV","FM-15","GVBA ","V020","090,1,N,0031,1","00450,1,C,N","001000,1,N,1","+0250,1","+0240,1","99999,9","02,5,+00360,1,99,9","07,5,+00450,1,99,9","08,5,+03000,1,99,9","08,99,1,99,9,99,9,99999,9,99,9,99,9","10119,1,99999,9","65,1",,,"MET075METAR GVBA 221500Z 09006KT 1000 +RA FEW012 BKN015 OVC100 25/24 Q1012 NOSIG;",
"08594499999","2010-10-22T16:00:00","4","16.136531","-22.888897","21.03","BOA VISTA RABIL, CV","FM-15","GVBA ","V020","070,1,N,0051,1","00450,1,C,N","006000,1,N,1","+0240,1","+0230,1","99999,9","02,5,+00390,1,99,9","04,5,+00450,1,99,9","08,5,+03000,1,99,9","08,99,1,99,9,99,9,99999,9,99,9,99,9","10108,1,99999,9","63,1",,,"MET074METAR GVBA 221600Z 07010KT 6000 RA FEW013 SCT015 OVC100 24/23 Q1011 NOSIG;",
"08594499999","2010-10-22T17:00:00","4","16.136531","-22.888897","21.03","BOA VISTA RABIL, CV","FM-15","GVBA ","V020","090,1,N,0036,1","00450,1,C,N","007000,1,N,1","+0240,1","+0240,1","99999,9","02,5,+00360,1,99,9","04,5,+00450,1,99,9","08,5,+03000,1,99,9","08,99,1,99,9,99,9,99999,9,99,9,99,9","10108,1,99999,9","53,1",,,"MET074METAR GVBA 221700Z 09007KT 7000 DZ FEW012 SCT015 OVC100 24/24 Q1011 NOSIG;",
"08594499999","2010-10-22T18:00:00","4","16.136531","-22.888897","21.03","BOA VISTA RABIL, CV","FM-15","GVBA ","V020","080,1,N,0041,1","00450,1,C,N","006000,1,N,1","+0240,1","+0230,1","99999,9","02,5,+00360,1,99,9","04,5,+00450,1,99,9","08,5,+03000,1,99,9","08,99,1,99,9,99,9,99999,9,99,9,99,9","10119,1,99999,9","63,1",,,"MET079METAR GVBA 221800Z 08008KT 6000 RA FEW012 SCT015 OVC100 24/23 Q1012 RERA NOSIG;",
"08594499999","2010-10-22T19:00:00","4","16.136531","-22.888897","21.03","BOA VISTA RABIL, CV","FM-15","GVBA ","V020","090,1,N,0036,1","00450,1,C,N","008000,1,N,1","+0240,1","+0230,1","99999,9","02,5,+00360,1,99,9","04,5,+00450,1,99,9","08,5,+03000,1,99,9","08,99,1,99,9,99,9,99999,9,99,9,99,9","10119,1,99999,9","63,1",,,"MET079METAR GVBA 221900Z 09007KT 8000 RA FEW012 SCT015 OVC100 24/23 Q1012 RERA NOSIG;",
"08594499999","2010-10-23T11:00:00","4","16.136531","-22.888897","21.03","BOA VISTA RABIL, CV","FM-15","GVBA ","V020","060,1,N,0031,1","02700,1,C,N","011265,1,N,1","+0270,1","+0250,1","99999,9","04,5,+00420,1,99,9","08,5,+02700,1,99,9",,"08,99,1,99,9,99,9,99999,9,99,9,99,9","10139,1,99999,9",,,,"MET064METAR GVBA 231100Z 06006KT 9999 SCT014 OVC090 27/25 Q1014 NOSIG;",
"08594499999","2010-10-23T12:00:00","4","16.136531","-22.888897","21.03","BOA VISTA RABIL, CV","FM-15","GVBA ","V020","060,1,N,0041,1","02700,1,C,N","011265,1,N,1","+0280,1","+0250,1","99999,9","04,5,+00450,1,99,9","08,5,+02700,1,99,9",,"08,99,1,99,9,99,9,99999,9,99,9,99,9","10149,1,99999,9",,,,"MET064METAR GVBA 231200Z 06008KT 9999 SCT015 OVC090 28/25 Q1015 NOSIG;",
"08594499999","2010-10-23T13:00:00","4","16.136531","-22.888897","21.03","BOA VISTA RABIL, CV","FM-15","GVBA ","V020","050,1,N,0051,1","02700,1,C,N","011265,1,N,1","+0280,1","+0250,1","99999,9","04,5,+00450,1,99,9","08,5,+02700,1,99,9",,"08,99,1,99,9,99,9,99999,9,99,9,99,9","10139,1,99999,9",,,,"MET064METAR GVBA 231300Z 05010KT 9999 SCT015 OVC090 28/25 Q1014 NOSIG;",
"08594499999","2010-10-23T14:00:00","4","16.136531","-22.888897","21.03","BOA VISTA RABIL, CV","FM-15","GVBA ","V020","030,1,N,0062,1","03000,1,C,N","011265,1,N,1","+0280,1","+0250,1","99999,9","04,5,+00450,1,99,9","07,5,+03000,1,99,9",,"07,99,1,99,9,99,9,99999,9,99,9,99,9","10129,1,99999,9",,,,"MET064METAR GVBA 231400Z 03012KT 9999 SCT015 BKN100 28/25 Q1013 NOSIG;",
"08594499999","2010-10-23T15:00:00","4","16.136531","-22.888897","21.03","BOA VISTA RABIL, CV","FM-15","GVBA ","V020","030,1,N,0051,1","03000,1,C,N","011265,1,N,1","+0280,1","+0250,1","99999,9","04,5,+00450,1,99,9","07,5,+03000,1,99,9",,"07,99,1,99,9,99,9,99999,9,99,9,99,9","10119,1,99999,9",,,,"MET064METAR GVBA 231500Z 03010KT 9999 SCT015 BKN100 28/25 Q1012 NOSIG;",
"08594499999","2010-10-23T16:00:00","4","16.136531","-22.888897","21.03","BOA VISTA RABIL, CV","FM-15","GVBA ","V020","040,1,N,0051,1","06000,1,C,N","011265,1,N,1","+0280,1","+0250,1","99999,9","04,5,+00450,1,99,9","07,5,+06000,1,99,9",,"07,99,1,99,9,99,9,99999,9,99,9,99,9","10108,1,99999,9",,,,"MET064METAR GVBA 231600Z 04010KT 9999 SCT015 BKN200 28/25 Q1011 NOSIG;",
"08594499999","2010-10-23T17:00:00","4","16.136531","-22.888897","21.03","BOA VISTA RABIL, CV","FM-15","GVBA ","V020","040,1,N,0051,1","06000,1,C,N","011265,1,N,1","+0280,1","+0250,1","99999,9","04,5,+00450,1,99,9","07,5,+06000,1,99,9",,"07,99,1,99,9,99,9,99999,9,99,9,99,9","10108,1,99999,9",,,,"MET064METAR GVBA 231700Z 04010KT 9999 SCT015 BKN200 28/25 Q1011 NOSIG;",
"08594499999","2010-10-23T18:00:00","4","16.136531","-22.888897","21.03","BOA VISTA RABIL, CV","FM-15","GVBA ","V020","010,1,N,0057,1","06000,1,C,N","011265,1,N,1","+0270,1","+0250,1","99999,9","04,5,+00450,1,99,9","07,5,+06000,1,99,9",,"07,99,1,99,9,99,9,99999,9,99,9,99,9","10108,1,99999,9",,,,"MET064METAR GVBA 231800Z 01011KT 9999 SCT015 BKN200 27/25 Q1011 NOSIG;",
"08594499999","2010-10-23T19:00:00","4","16.136531","-22.888897","21.03","BOA VISTA RABIL, CV","FM-15","GVBA ","V020","020,1,N,0062,1","06000,1,C,N","011265,1,N,1","+0270,1","+0250,1","99999,9","04,5,+00450,1,99,9","07,5,+06000,1,99,9",,"07,99,1,99,9,99,9,99999,9,99,9,99,9","10108,1,99999,9",,,,"MET064METAR GVBA 231900Z 02012KT 9999 SCT015 BKN200 27/25 Q1011 NOSIG;",
"08594499999","2010-10-24T08:00:00","4","16.136531","-22.888897","21.03","BOA VISTA RABIL, CV","FM-15","GVBA ","V020","060,1,N,0051,1","06000,1,C,N","011265,1,N,1","+0260,1","+0240,1","99999,9","04,5,+00450,1,99,9","07,5,+06000,1,99,9",,"07,99,1,99,9,99,9,99999,9,99,9,99,9","10119,1,99999,9",,,,"MET064METAR GVBA 240800Z 06010KT 9999 SCT015 BKN200 26/24 Q1012 NOSIG;",
"08594499999","2010-10-24T09:00:00","4","16.136531","-22.888897","21.03","BOA VISTA RABIL, CV","FM-15","GVBA ","V020","060,1,N,0067,1","06000,1,C,N","011265,1,N,1","+0260,1","+0240,1","99999,9","02,5,+00450,1,99,9","07,5,+06000,1,99,9",,"07,99,1,99,9,99,9,99999,9,99,9,99,9","10119,1,99999,9",,,,"MET064METAR GVBA 240900Z 06013KT 9999 FEW015 BKN200 26/24 Q1012 NOSIG;",
"08594499999","2010-10-24T10:00:00","4","16.136531","-22.888897","21.03","BOA VISTA RABIL, CV","FM-15","GVBA ","V020","050,1,N,0082,1","99999,9,C,N","011265,1,N,1","+0280,1","+0240,1","99999,9","02,5,+00450,1,99,9","04,5,+06000,1,99,9",,"04,99,1,99,9,99,9,99999,9,99,9,99,9","10129,1,99999,9",,,,"MET064METAR GVBA 241000Z 05016KT 9999 FEW015 SCT200 28/24 Q1013 NOSIG;","P01 060003SCOCIG"
"08594499999","2010-10-24T11:00:00","4","16.136531","-22.888897","21.03","BOA VISTA RABIL, CV","FM-15","GVBA ","V020","060,1,N,0093,1","99999,9,C,N","011265,1,N,1","+0290,1","+0240,1","99999,9","02,5,+00450,1,99,9","04,5,+06000,1,99,9",,"04,99,1,99,9,99,9,99999,9,99,9,99,9","10129,1,99999,9",,,,"MET064METAR GVBA 241100Z 06018KT 9999 FEW015 SCT200 29/24 Q1013 NOSIG;","P01 060003SCOCIG"
"08594499999","2010-10-24T12:00:00","4","16.136531","-22.888897","21.03","BOA VISTA RABIL, CV","FM-15","GVBA ","V020","060,1,N,0093,1","99999,9,C,N","011265,1,N,1","+0300,1","+0240,1","99999,9","02,5,+00450,1,99,9","04,5,+06000,1,99,9",,"04,99,1,99,9,99,9,99999,9,99,9,99,9","10129,1,99999,9",,,,"MET064METAR GVBA 241200Z 06018KT 9999 FEW015 SCT200 30/24 Q1013 NOSIG;","P01 060003SCOCIG"
"08594499999","2010-10-24T13:00:00","4","16.136531","-22.888897","21.03","BOA VISTA RABIL, CV","FM-15","GVBA ","V020","060,1,N,0108,1","22000,1,9,N","011265,1,N,1","+0300,1","+0230,1","99999,9","02,5,+00450,1,99,9",,,"02,99,1,99,9,99,9,99999,9,99,9,99,9","10119,1,99999,9",,,,"MET057METAR GVBA 241300Z 06021KT 9999 FEW015 30/23 Q1012 NOSIG;",
"08594499999","2010-10-24T14:00:00","4","16.136531","-22.888897","21.03","BOA VISTA RABIL, CV","FM-15","GVBA ","V020","060,1,N,0077,1","22000,1,9,N","011265,1,N,1","+0310,1","+0230,1","99999,9","02,5,+00450,1,99,9",,,"02,99,1,99,9,99,9,99999,9,99,9,99,9","10108,1,99999,9",,,,"MET057METAR GVBA 241400Z 06015KT 9999 FEW015 31/23 Q1011 NOSIG;",
"08594499999","2010-10-25T08:00:00","4","16.136531","-22.888897","21.03","BOA VISTA RABIL, CV","FM-15","GVBA ","V020","999,9,V,0010,1","06000,1,C,N","011265,1,N,1","+0250,1","+0230,1","99999,9","02,5,+00450,1,99,9","07,5,+06000,1,99,9",,"07,99,1,99,9,99,9,99999,9,99,9,99,9","10119,1,99999,9",,,,"MET064METAR GVBA 250800Z VRB02KT 9999 FEW015 BKN200 25/23 Q1012 NOSIG;",
"08594499999","2010-10-25T09:00:00","4","16.136531","-22.888897","21.03","BOA VISTA RABIL, CV","FM-15","GVBA ","V020","999,9,C,0000,1","99999,9,C,N","011265,1,N,1","+0280,1","+0230,1","99999,9","04,5,+00450,1,99,9","04,5,+06000,1,99,9",,"04,99,1,99,9,99,9,99999,9,99,9,99,9","10129,1,99999,9",,,,"MET064METAR GVBA 250900Z 00000KT 9999 SCT015 SCT200 28/23 Q1013 NOSIG;","P01 060003SCOCIG"
"08594499999","2010-10-25T10:00:00","4","16.136531","-22.888897","21.03","BOA VISTA RABIL, CV","FM-15","GVBA ","V020","070,1,N,0046,1","99999,9,C,N","011265,1,N,1","+0280,1","+0230,1","99999,9","04,5,+00450,1,99,9","04,5,+06000,1,99,9",,"04,99,1,99,9,99,9,99999,9,99,9,99,9","10139,1,99999,9",,,,"MET064METAR GVBA 251000Z 07009KT 9999 SCT015 SCT200 28/23 Q1014 NOSIG;","P01 060003SCOCIG"
"08594499999","2010-10-25T11:00:00","4","16.136531","-22.888897","21.03","BOA VISTA RABIL, CV","FM-15","GVBA ","V020","060,1,N,0077,1","22000,1,9,N","011265,1,N,1","+0290,1","+0230,1","99999,9","04,5,+00450,1,99,9",,,"04,99,1,99,9,99,9,99999,9,99,9,99,9","10139,1,99999,9",,,,"MET057METAR GVBA 251100Z 06015KT 9999 SCT015 29/23 Q1014 NOSIG;",
"08594499999","2010-10-25T13:00:00","4","16.136531","-22.888897","21.03","BOA VISTA RABIL, CV","FM-15","GVBA ","V020","090,1,N,0072,1","00450,1,C,N","011265,1,N,1","+0310,1","+0230,1","99999,9","07,5,+00450,1,99,9",,,"07,99,1,99,9,99,9,99999,9,99,9,99,9","10129,1,99999,9",,,,"MET057METAR GVBA 251300Z 09014KT 9999 BKN015 31/23 Q1013 NOSIG;",
"08594499999","2010-10-25T14:00:00","4","16.136531","-22.888897","21.03","BOA VISTA RABIL, CV","FM-15","GVBA ","V020","070,1,N,0062,1","00450,1,C,N","011265,1,N,1","+0310,1","+0230,1","99999,9","07,5,+00450,1,99,9",,,"07,99,1,99,9,99,9,99999,9,99,9,99,9","10129,1,99999,9",,,,"MET057METAR GVBA 251400Z 07012KT 9999 BKN015 31/23 Q1013 NOSIG;",
"08594499999","2010-10-25T16:00:00","4","16.136531","-22.888897","21.03","BOA VISTA RABIL, CV","FM-15","GVBA ","V020","060,1,N,0072,1","22000,1,9,N","011265,1,N,1","+0300,1","+0230,1","99999,9","04,5,+00450,1,99,9",,,"04,99,1,99,9,99,9,99999,9,99,9,99,9","10119,1,99999,9",,,,"MET057METAR GVBA 251600Z 06014KT 9999 SCT015 30/23 Q1012 NOSIG;",
"08594499999","2010-10-25T17:00:00","4","16.136531","-22.888897","21.03","BOA VISTA RABIL, CV","FM-15","GVBA ","V020","050,1,N,0072,1","00450,1,C,N","011265,1,N,1","+0300,1","+0230,1","99999,9","07,5,+00450,1,99,9",,,"07,99,1,99,9,99,9,99999,9,99,9,99,9","10119,1,99999,9",,,,"MET057METAR GVBA 251700Z 05014KT 9999 BKN015 30/23 Q1012 NOSIG;",
"08594499999","2010-10-25T18:00:00","4","16.136531","-22.888897","21.03","BOA VISTA RABIL, CV","FM-15","GVBA ","V020","050,1,N,0077,1","00450,1,C,N","011265,1,N,1","+0280,1","+0220,1","99999,9","07,5,+00450,1,99,9",,,"07,99,1,99,9,99,9,99999,9,99,9,99,9","10119,1,99999,9",,,,"MET057METAR GVBA 251800Z 05015KT 9999 BKN015 28/22 Q1012 NOSIG;",
"08594499999","2010-10-25T19:00:00","4","16.136531","-22.888897","21.03","BOA VISTA RABIL, CV","FM-15","GVBA ","V020","070,1,N,0051,1","00450,1,C,N","011265,1,N,1","+0270,1","+0220,1","99999,9","07,5,+00450,1,99,9",,,"07,99,1,99,9,99,9,99999,9,99,9,99,9","10119,1,99999,9",,,,"MET057METAR GVBA 251900Z 07010KT 9999 BKN015 27/22 Q1012 NOSIG;",
"08594499999","2010-10-26T08:00:00","4","16.136531","-22.888897","21.03","BOA VISTA RABIL, CV","FM-15","GVBA ","V020","040,1,N,0062,1","99999,9,C,N","011265,1,N,1","+0250,1","+0200,1","99999,9","04,5,+00450,1,99,9","04,5,+06000,1,99,9",,"04,99,1,99,9,99,9,99999,9,99,9,99,9","10129,1,99999,9",,,,"MET064METAR GVBA 260800Z 04012KT 9999 SCT015 SCT200 25/20 Q1013 NOSIG;","P01 060003SCOCIG"
"08594499999","2010-10-26T09:00:00","4","16.136531","-22.888897","21.03","BOA VISTA RABIL, CV","FM-15","GVBA ","V020","050,1,N,0062,1","06000,1,C,N","011265,1,N,1","+0270,1","+0200,1","99999,9","04,5,+00450,1,99,9","07,5,+06000,1,99,9",,"07,99,1,99,9,99,9,99999,9,99,9,99,9","10139,1,99999,9",,,,"MET064METAR GVBA 260900Z 05012KT 9999 SCT015 BKN200 27/20 Q1014 NOSIG;",
"08594499999","2010-10-26T10:00:00","4","16.136531","-22.888897","21.03","BOA VISTA RABIL, CV","FM-15","GVBA ","V020","050,1,N,0072,1","00450,1,C,N","011265,1,N,1","+0270,1","+0200,1","99999,9","07,5,+00450,1,99,9","07,5,+06000,1,99,9",,"07,99,1,99,9,99,9,99999,9,99,9,99,9","10139,1,99999,9",,,,"MET064METAR GVBA 261000Z 05014KT 9999 BKN015 BKN200 27/20 Q1014 NOSIG;",
"08594499999","2010-10-26T11:00:00","4","16.136531","-22.888897","21.03","BOA VISTA RABIL, CV","FM-15","GVBA ","V020","040,1,N,0072,1","06000,1,C,N","011265,1,N,1","+0280,1","+0190,1","99999,9","04,5,+00450,1,99,9","07,5,+06000,1,99,9",,"07,99,1,99,9,99,9,99999,9,99,9,99,9","10149,1,99999,9",,,,"MET064METAR GVBA 261100Z 04014KT 9999 SCT015 BKN200 28/19 Q1015 NOSIG;",
"08594499999","2010-10-26T12:00:00","4","16.136531","-22.888897","21.03","BOA VISTA RABIL, CV","FM-15","GVBA ","V020","040,1,N,0077,1","06000,1,C,N","011265,1,N,1","+0290,1","+0180,1","99999,9","04,5,+00450,1,99,9","07,5,+06000,1,99,9",,"07,99,1,99,9,99,9,99999,9,99,9,99,9","10149,1,99999,9",,,,"MET064METAR GVBA 261200Z 04015KT 9999 SCT015 BKN200 29/18 Q1015 NOSIG;",
"08594499999","2010-10-26T13:00:00","4","16.136531","-22.888897","21.03","BOA VISTA RABIL, CV","FM-15","GVBA ","V020","040,1,N,0082,1","06000,1,C,N","011265,1,N,1","+0290,1","+0190,1","99999,9","04,5,+00450,1,99,9","07,5,+06000,1,99,9",,"07,99,1,99,9,99,9,99999,9,99,9,99,9","10139,1,99999,9",,,,"MET064METAR GVBA 261300Z 04016KT 9999 SCT015 BKN200 29/19 Q1014 NOSIG;",
"08594499999","2010-10-26T14:00:00","4","16.136531","-22.888897","21.03","BOA VISTA RABIL, CV","FM-15","GVBA ","V020","050,1,N,0067,1","06000,1,C,N","011265,1,N,1","+0300,1","+0190,1","99999,9","04,5,+00450,1,99,9","07,5,+06000,1,99,9",,"07,99,1,99,9,99,9,99999,9,99,9,99,9","10129,1,99999,9",,,,"MET064METAR GVBA 261400Z 05013KT 9999 SCT015 BKN200 30/19 Q1013 NOSIG;",
"08594499999","2010-10-26T15:00:00","4","16.136531","-22.888897","21.03","BOA VISTA RABIL, CV","FM-15","GVBA ","V020","050,1,N,0077,1","00450,1,C,N","011265,1,N,1","+0290,1","+0200,1","99999,9","07,5,+00450,1,99,9","07,5,+06000,1,99,9",,"07,99,1,99,9,99,9,99999,9,99,9,99,9","10129,1,99999,9",,,,"MET064METAR GVBA 261500Z 05015KT 9999 BKN015 BKN200 29/20 Q1013 NOSIG;",
"08594499999","2010-10-26T16:00:00","4","16.136531","-22.888897","21.03","BOA VISTA RABIL, CV","FM-15","GVBA ","V020","040,1,N,0082,1","00450,1,C,N","011265,1,N,1","+0290,1","+0200,1","99999,9","07,5,+00450,1,99,9","07,5,+06000,1,99,9",,"07,99,1,99,9,99,9,99999,9,99,9,99,9","10119,1,99999,9",,,,"MET064METAR GVBA 261600Z 04016KT 9999 BKN015 BKN200 29/20 Q1012 NOSIG;",
"08594499999","2010-10-26T17:00:00","4","16.136531","-22.888897","21.03","BOA VISTA RABIL, CV","FM-15","GVBA ","V020","050,1,N,0062,1","00450,1,C,N","011265,1,N,1","+0270,1","+0190,1","99999,9","07,5,+00450,1,99,9","07,5,+06000,1,99,9",,"07,99,1,99,9,99,9,99999,9,99,9,99,9","10119,1,99999,9",,,,"MET064METAR GVBA 261700Z 05012KT 9999 BKN015 BKN200 27/19 Q1012 NOSIG;",
"08594499999","2010-10-26T18:00:00","4","16.136531","-22.888897","21.03","BOA VISTA RABIL, CV","FM-15","GVBA ","V020","050,1,N,0062,1","00450,1,C,N","011265,1,N,1","+0270,1","+0190,1","99999,9","07,5,+00450,1,99,9","07,5,+06000,1,99,9",,"07,99,1,99,9,99,9,99999,9,99,9,99,9","10119,1,99999,9",,,,"MET064METAR GVBA 261800Z 05012KT 9999 BKN015 BKN200 27/19 Q1012 NOSIG;",
"08594499999","2010-10-26T19:00:00","4","16.136531","-22.888897","21.03","BOA VISTA RABIL, CV","FM-15","GVBA ","V020","060,1,N,0051,1","00450,1,C,N","011265,1,N,1","+0260,1","+0190,1","99999,9","07,5,+00450,1,99,9","07,5,+06000,1,99,9",,"07,99,1,99,9,99,9,99999,9,99,9,99,9","10129,1,99999,9",,,,"MET064METAR GVBA 261900Z 06010KT 9999 BKN015 BKN200 26/19 Q1013 NOSIG;",
"08594499999","2010-10-27T08:00:00","4","16.136531","-22.888897","21.03","BOA VISTA RABIL, CV","FM-15","GVBA ","V020","060,1,N,0026,1","22000,1,9,N","011265,1,N,1","+0240,1","+0200,1","99999,9","04,5,+00450,1,99,9",,,"04,99,1,99,9,99,9,99999,9,99,9,99,9","10129,1,99999,9",,,,"MET057METAR GVBA 270800Z 06005KT 9999 SCT015 24/20 Q1013 NOSIG;",
"08594499999","2010-10-27T09:00:00","4","16.136531","-22.888897","21.03","BOA VISTA RABIL, CV","FM-15","GVBA ","V020","050,1,N,0051,1","22000,1,9,N","011265,1,N,1","+0260,1","+0200,1","99999,9","04,5,+00450,1,99,9",,,"04,99,1,99,9,99,9,99999,9,99,9,99,9","10129,1,99999,9",,,,"MET057METAR GVBA 270900Z 05010KT 9999 SCT015 26/20 Q1013 NOSIG;",
"08594499999","2010-10-27T10:00:00","4","16.136531","-22.888897","21.03","BOA VISTA RABIL, CV","FM-15","GVBA ","V020","050,1,N,0062,1","22000,1,9,N","011265,1,N,1","+0280,1","+0200,1","99999,9","04,5,+00450,1,99,9",,,"04,99,1,99,9,99,9,99999,9,99,9,99,9","10139,1,99999,9",,,,"MET057METAR GVBA 271000Z 05012KT 9999 SCT015 28/20 Q1014 NOSIG;",
"08594499999","2010-10-27T11:00:00","4","16.136531","-22.888897","21.03","BOA VISTA RABIL, CV","FM-15","GVBA ","V020","040,1,N,0072,1","22000,1,9,N","011265,1,N,1","+0280,1","+0210,1","99999,9","04,5,+00450,1,99,9",,,"04,99,1,99,9,99,9,99999,9,99,9,99,9","10139,1,99999,9",,,,"MET057METAR GVBA 271100Z 04014KT 9999 SCT015 28/21 Q1014 NOSIG;",
"08594499999","2010-10-27T12:00:00","4","16.136531","-22.888897","21.03","BOA VISTA RABIL, CV","FM-15","GVBA ","V020","030,1,N,0082,1","22000,1,9,N","011265,1,N,1","+0290,1","+0210,1","99999,9","04,5,+00450,1,99,9",,,"04,99,1,99,9,99,9,99999,9,99,9,99,9","10129,1,99999,9",,,,"MET057METAR GVBA 271200Z 03016KT 9999 SCT015 29/21 Q1013 NOSIG;",
"08594499999","2010-10-27T13:00:00","4","16.136531","-22.888897","21.03","BOA VISTA RABIL, CV","FM-15","GVBA ","V020","040,1,N,0082,1","22000,1,9,N","011265,1,N,1","+0300,1","+0210,1","99999,9","04,5,+00450,1,99,9",,,"04,99,1,99,9,99,9,99999,9,99,9,99,9","10119,1,99999,9",,,,"MET057METAR GVBA 271300Z 04016KT 9999 SCT015 30/21 Q1012 NOSIG;",
"08594499999","2010-10-27T14:00:00","4","16.136531","-22.888897","21.03","BOA VISTA RABIL, CV","FM-15","GVBA ","V020","040,1,N,0067,1","22000,1,9,N","011265,1,N,1","+0300,1","+0210,1","99999,9","04,5,+00450,1,99,9",,,"04,99,1,99,9,99,9,99999,9,99,9,99,9","10119,1,99999,9",,,,"MET057METAR GVBA 271400Z 04013KT 9999 SCT015 30/21 Q1012 NOSIG;",
"08594499999","2010-10-27T15:00:00","4","16.136531","-22.888897","21.03","BOA VISTA RABIL, CV","FM-15","GVBA ","V020","030,1,N,0067,1","22000,1,9,N","011265,1,N,1","+0300,1","+0210,1","99999,9","04,5,+00450,1,99,9",,,"04,99,1,99,9,99,9,99999,9,99,9,99,9","10108,1,99999,9",,,,"MET057METAR GVBA 271500Z 03013KT 9999 SCT015 30/21 Q1011 NOSIG;",
"08594499999","2010-10-27T16:00:00","4","16.136531","-22.888897","21.03","BOA VISTA RABIL, CV","FM-15","GVBA ","V020","050,1,N,0077,1","22000,1,9,N","011265,1,N,1","+0300,1","+0220,1","99999,9","04,5,+00450,1,99,9",,,"04,99,1,99,9,99,9,99999,9,99,9,99,9","10108,1,99999,9",,,,"MET057METAR GVBA 271600Z 05015KT 9999 SCT015 30/22 Q1011 NOSIG;",
"08594499999","2010-10-27T17:00:00","4","16.136531","-22.888897","21.03","BOA VISTA RABIL, CV","FM-15","GVBA ","V020","060,1,N,0062,1","22000,1,9,N","011265,1,N,1","+0290,1","+0220,1","99999,9","04,5,+00450,1,99,9",,,"04,99,1,99,9,99,9,99999,9,99,9,99,9","10108,1,99999,9",,,,"MET057METAR GVBA 271700Z 06012KT 9999 SCT015 29/22 Q1011 NOSIG;",
"08594499999","2010-10-27T18:00:00","4","16.136531","-22.888897","21.03","BOA VISTA RABIL, CV","FM-15","GVBA ","V020","040,1,N,0057,1","22000,1,9,N","011265,1,N,1","+0280,1","+0220,1","99999,9","04,5,+00450,1,99,9",,,"04,99,1,99,9,99,9,99999,9,99,9,99,9","10108,1,99999,9",,,,"MET057METAR GVBA 271800Z 04011KT 9999 SCT015 28/22 Q1011 NOSIG;",
"08594499999","2010-10-27T19:00:00","4","16.136531","-22.888897","21.03","BOA VISTA RABIL, CV","FM-15","GVBA ","V020","050,1,N,0041,1","22000,1,9,N","011265,1,N,1","+0270,1","+0220,1","99999,9","04,5,+00450,1,99,9",,,"04,99,1,99,9,99,9,99999,9,99,9,99,9","10108,1,99999,9",,,,"MET057METAR GVBA 271900Z 05008KT 9999 SCT015 27/22 Q1011 NOSIG;",
"08594499999","2010-10-28T08:00:00","4","16.136531","-22.888897","21.03","BOA VISTA RABIL, CV","FM-15","GVBA ","V020","030,1,N,0026,1","22000,1,9,N","011265,1,N,1","+0230,1","+0220,1","99999,9","02,5,+00450,1,99,9",,,"02,99,1,99,9,99,9,99999,9,99,9,99,9","10119,1,99999,9",,,,"MET057METAR GVBA 280800Z 03005KT 9999 FEW015 23/22 Q1012 NOSIG;",
"08594499999","2010-10-28T09:00:00","4","16.136531","-22.888897","21.03","BOA VISTA RABIL, CV","FM-15","GVBA ","V020","020,1,N,0036,1","22000,1,9,N","011265,1,N,1","+0260,1","+0240,1","99999,9","02,5,+00450,1,99,9",,,"02,99,1,99,9,99,9,99999,9,99,9,99,9","10129,1,99999,9",,,,"MET057METAR GVBA 280900Z 02007KT 9999 FEW015 26/24 Q1013 NOSIG;",
"08594499999","2010-10-28T10:00:00","4","16.136531","-22.888897","21.03","BOA VISTA RABIL, CV","FM-15","GVBA ","V020","030,1,N,0057,1","22000,1,9,N","011265,1,N,1","+9999,9","+9999,9","99999,9","02,5,+00450,1,99,9",,,"02,99,1,99,9,99,9,99999,9,99,9,99,9","10129,1,99999,9",,,,"MET057METAR GVBA 281000Z 030011KT 9999 FEW015 2/24 Q1013 NOSIG;",
"08594499999","2010-10-28T11:00:00","4","16.136531","-22.888897","21.03","BOA VISTA RABIL, CV","FM-15","GVBA ","V020","030,1,N,0051,1","22000,1,9,N","011265,1,N,1","+0290,1","+0230,1","99999,9","02,5,+00450,1,99,9",,,"02,99,1,99,9,99,9,99999,9,99,9,99,9","10139,1,99999,9",,,,"MET057METAR GVBA 281100Z 03010KT 9999 FEW015 29/23 Q1014 NOSIG;",
"08594499999","2010-10-28T12:00:00","4","16.136531","-22.888897","21.03","BOA VISTA RABIL, CV","FM-15","GVBA ","V020","040,1,N,0051,1","22000,1,9,N","011265,1,N,1","+0300,1","+0230,1","99999,9","02,5,+00450,1,99,9",,,"02,99,1,99,9,99,9,99999,9,99,9,99,9","10129,1,99999,9",,,,"MET057METAR GVBA 281200Z 04010KT 9999 FEW015 30/23 Q1013 NOSIG;",
"08594499999","2010-10-28T13:00:00","4","16.136531","-22.888897","21.03","BOA VISTA RABIL, CV","FM-15","GVBA ","V020","020,1,N,0057,1","22000,1,9,N","011265,1,N,1","+0300,1","+0220,1","99999,9","02,5,+00450,1,99,9",,,"02,99,1,99,9,99,9,99999,9,99,9,99,9","10119,1,99999,9",,,,"MET057METAR GVBA 281300Z 02011KT 9999 FEW015 30/22 Q1012 NOSIG;",
"08594499999","2010-10-28T14:00:00","4","16.136531","-22.888897","21.03","BOA VISTA RABIL, CV","FM-15","GVBA ","V020","020,1,N,0051,1","99999,9,9,Y","009900,1,N,1","+0310,1","+0220,1","99999,9",,,,,"10119,1,99999,9",,,,"MET051METAR GVBA 281400Z 02010KT CAVOK 31/22 Q1012 NOSIG;",
"08594499999","2010-10-28T15:00:00","4","16.136531","-22.888897","21.03","BOA VISTA RABIL, CV","FM-15","GVBA ","V020","010,1,N,0062,1","99999,9,9,Y","009900,1,N,1","+0320,1","+0210,1","99999,9",,,,,"10108,1,99999,9",,,,"MET051METAR GVBA 281500Z 01012KT CAVOK 32/21 Q1011 NOSIG;",
"08594499999","2010-10-28T16:00:00","4","16.136531","-22.888897","21.03","BOA VISTA RABIL, CV","FM-15","GVBA ","V020","020,1,N,0051,1","99999,9,9,Y","009900,1,N,1","+0310,1","+0200,1","99999,9",,,,,"10108,1,99999,9",,,,"MET051METAR GVBA 281600Z 02010KT CAVOK 31/20 Q1011 NOSIG;",
"08594499999","2010-10-28T17:00:00","4","16.136531","-22.888897","21.03","BOA VISTA RABIL, CV","FM-15","GVBA ","V020","050,1,N,0051,1","99999,9,9,Y","009900,1,N,1","+0300,1","+0210,1","99999,9",,,,,"10108,1,99999,9",,,,"MET051METAR GVBA 281700Z 05010KT CAVOK 30/21 Q1011 NOSIG;",
"08594499999","2010-10-28T18:00:00","4","16.136531","-22.888897","21.03","BOA VISTA RABIL, CV","FM-15","GVBA ","V020","050,1,N,0051,1","99999,9,9,Y","009900,1,N,1","+0290,1","+0220,1","99999,9",,,,,"10108,1,99999,9",,,,"MET051METAR GVBA 281800Z 05010KT CAVOK 29/22 Q1011 NOSIG;",
"08594499999","2010-10-28T19:00:00","4","16.136531","-22.888897","21.03","BOA VISTA RABIL, CV","FM-15","GVBA ","V020","020,1,N,0041,1","99999,9,9,Y","009900,1,N,1","+0270,1","+0230,1","99999,9",,,,,"10108,1,99999,9",,,,"MET051METAR GVBA 281900Z 02008KT CAVOK 27/23 Q1011 NOSIG;",
"08594499999","2010-10-29T08:00:00","4","16.136531","-22.888897","21.03","BOA VISTA RABIL, CV","FM-15","GVBA ","V020","030,1,N,0051,1","99999,9,9,Y","009900,1,N,1","+0250,1","+0240,1","99999,9",,,,,"10108,1,99999,9",,,,"MET051METAR GVBA 290800Z 03010KT CAVOK 25/24 Q1011 NOSIG;",
"08594499999","2010-10-29T09:00:00","4","16.136531","-22.888897","21.03","BOA VISTA RABIL, CV","FM-15","GVBA ","V020","040,1,N,0082,1","99999,9,9,Y","009900,1,N,1","+0270,1","+0230,1","99999,9",,,,,"10119,1,99999,9",,,,"MET051METAR GVBA 290900Z 04016KT CAVOK 27/23 Q1012 NOSIG;",
"08594499999","2010-10-29T11:00:00","4","16.136531","-22.888897","21.03","BOA VISTA RABIL, CV","FM-15","GVBA ","V020","030,1,N,0103,1","22000,1,9,N","011265,1,N,1","+0300,1","+0230,1","99999,9","02,5,+00450,1,99,9",,,"02,99,1,99,9,99,9,99999,9,99,9,99,9","10129,1,99999,9",,,,"MET057METAR GVBA 291100Z 03020KT 9999 FEW015 30/23 Q1013 NOSIG;",
"08594499999","2010-10-29T12:00:00","4","16.136531","-22.888897","21.03","BOA VISTA RABIL, CV","FM-15","GVBA ","V020","040,1,N,0108,1","22000,1,9,N","011265,1,N,1","+0310,1","+0230,1","99999,9","02,5,+00450,1,99,9",,,"02,99,1,99,9,99,9,99999,9,99,9,99,9","10129,1,99999,9",,,,"MET057METAR GVBA 291200Z 04021KT 9999 FEW015 31/23 Q1013 NOSIG;",
"08594499999","2010-10-29T13:00:00","4","16.136531","-22.888897","21.03","BOA VISTA RABIL, CV","FM-15","GVBA ","V020","040,1,N,0103,1","22000,1,9,N","011265,1,N,1","+0310,1","+0230,1","99999,9","02,5,+00450,1,99,9",,,"02,99,1,99,9,99,9,99999,9,99,9,99,9","10129,1,99999,9",,,,"MET057METAR GVBA 291300Z 04020KT 9999 FEW015 31/23 Q1013 NOSIG;",
"08594499999","2010-10-29T14:00:00","4","16.136531","-22.888897","21.03","BOA VISTA RABIL, CV","FM-15","GVBA ","V020","050,1,N,0098,1","22000,1,9,N","011265,1,N,1","+0310,1","+0230,1","99999,9","02,5,+00450,1,99,9",,,"02,99,1,99,9,99,9,99999,9,99,9,99,9","10119,1,99999,9",,,,"MET057METAR GVBA 291400Z 05019KT 9999 FEW015 31/23 Q1012 NOSIG;",
"08594499999","2010-10-29T15:00:00","4","16.136531","-22.888897","21.03","BOA VISTA RABIL, CV","FM-15","GVBA ","V020","040,1,N,0098,1","99999,9,9,Y","009900,1,N,1","+0310,1","+0220,1","99999,9",,,,,"10119,1,99999,9",,,,"MET051METAR GVBA 291500Z 04019KT CAVOK 31/22 Q1012 NOSIG;",
"08594499999","2010-10-29T16:00:00","4","16.136531","-22.888897","21.03","BOA VISTA RABIL, CV","FM-15","GVBA ","V020","040,1,N,0093,1","99999,9,9,Y","009900,1,N,1","+0310,1","+0230,1","99999,9",,,,,"10108,1,99999,9",,,,"MET051METAR GVBA 291600Z 04018KT CAVOK 31/23 Q1011 NOSIG;",
"08594499999","2010-10-29T17:00:00","4","16.136531","-22.888897","21.03","BOA VISTA RABIL, CV","FM-15","GVBA ","V020","030,1,N,0077,1","99999,9,9,Y","009900,1,N,1","+0300,1","+0220,1","99999,9",,,,,"10108,1,99999,9",,,,"MET051METAR GVBA 291700Z 03015KT CAVOK 30/22 Q1011 NOSIG;",
"08594499999","2010-10-29T18:00:00","4","16.136531","-22.888897","21.03","BOA VISTA RABIL, CV","FM-15","GVBA ","V020","050,1,N,0077,1","99999,9,9,Y","009900,1,N,1","+0290,1","+0210,1","99999,9",,,,,"10108,1,99999,9",,,,"MET051METAR GVBA 291800Z 05015KT CAVOK 29/21 Q1011 NOSIG;",
"08594499999","2010-10-29T19:00:00","4","16.136531","-22.888897","21.03","BOA VISTA RABIL, CV","FM-15","GVBA ","V020","040,1,N,0046,1","99999,9,9,Y","009900,1,N,1","+0280,1","+0210,1","99999,9",,,,,"10108,1,99999,9",,,,"MET051METAR GVBA 291900Z 04009KT CAVOK 28/21 Q1011 NOSIG;",
"08594499999","2010-10-30T08:00:00","4","16.136531","-22.888897","21.03","BOA VISTA RABIL, CV","FM-15","GVBA ","V020","999,9,V,0010,1","22000,1,9,N","011265,1,N,1","+0260,1","+0240,1","99999,9","04,5,+00420,1,99,9",,,"04,99,1,99,9,99,9,99999,9,99,9,99,9","10129,1,99999,9",,,,"MET057METAR GVBA 300800Z VRB02KT 9999 SCT014 26/24 Q1013 NOSIG;",
"08594499999","2010-10-30T09:00:00","4","16.136531","-22.888897","21.03","BOA VISTA RABIL, CV","FM-15","GVBA ","V020","999,9,V,0010,1","22000,1,9,N","011265,1,N,1","+0270,1","+0250,1","99999,9","04,5,+00420,1,99,9",,,"04,99,1,99,9,99,9,99999,9,99,9,99,9","10139,1,99999,9",,,,"MET057METAR GVBA 300900Z VRB02KT 9999 SCT014 27/25 Q1014 NOSIG;",
"08594499999","2010-10-30T10:00:00","4","16.136531","-22.888897","21.03","BOA VISTA RABIL, CV","FM-15","GVBA ","V020","070,1,N,0026,1","22000,1,9,N","011265,1,N,1","+0290,1","+0240,1","99999,9","04,5,+00450,1,99,9",,,"04,99,1,99,9,99,9,99999,9,99,9,99,9","10139,1,99999,9",,,,"MET057METAR GVBA 301000Z 07005KT 9999 SCT015 29/24 Q1014 NOSIG;",
"08594499999","2010-10-30T11:00:00","4","16.136531","-22.888897","21.03","BOA VISTA RABIL, CV","FM-15","GVBA ","V020","050,1,N,0051,1","22000,1,9,N","011265,1,N,1","+0300,1","+0240,1","99999,9","04,5,+00450,1,99,9",,,"04,99,1,99,9,99,9,99999,9,99,9,99,9","10149,1,99999,9",,,,"MET057METAR GVBA 301100Z 05010KT 9999 SCT015 30/24 Q1015 NOSIG;",
"08594499999","2010-10-30T12:00:00","4","16.136531","-22.888897","21.03","BOA VISTA RABIL, CV","FM-15","GVBA ","V020","040,1,N,0062,1","22000,1,9,N","011265,1,N,1","+0310,1","+0240,1","99999,9","04,5,+00450,1,99,9",,,"04,99,1,99,9,99,9,99999,9,99,9,99,9","10149,1,99999,9",,,,"MET057METAR GVBA 301200Z 04012KT 9999 SCT015 31/24 Q1015 NOSIG;",
"08594499999","2010-10-30T13:00:00","4","16.136531","-22.888897","21.03","BOA VISTA RABIL, CV","FM-15","GVBA ","V020","040,1,N,0057,1","99999,9,C,N","011265,1,N,1","+0320,1","+0250,1","99999,9","04,5,+00450,1,99,9","04,5,+06000,1,99,9",,"04,99,1,99,9,99,9,99999,9,99,9,99,9","10139,1,99999,9",,,,"MET064METAR GVBA 301300Z 04011KT 9999 SCT015 SCT200 32/25 Q1014 NOSIG;","P01 060003SCOCIG"
"08594499999","2010-10-30T14:00:00","4","16.136531","-22.888897","21.03","BOA VISTA RABIL, CV","FM-15","GVBA ","V020","040,1,N,0057,1","03000,1,C,N","011265,1,N,1","+0310,1","+0250,1","99999,9","04,5,+00450,1,99,9","04,5,+03000,1,99,9","07,5,+06000,1,99,9","07,99,1,99,9,99,9,99999,9,99,9,99,9","10139,1,99999,9",,,,"MET071METAR GVBA 301400Z 04011KT 9999 SCT015 SCT100 BKN200 31/25 Q1014 NOSIG;",
"08594499999","2010-10-30T15:00:00","4","16.136531","-22.888897","21.03","BOA VISTA RABIL, CV","FM-15","GVBA ","V020","050,1,N,0051,1","03000,1,C,N","011265,1,N,1","+0310,1","+0250,1","99999,9","02,5,+00450,1,99,9","07,5,+03000,1,99,9",,"07,99,1,99,9,99,9,99999,9,99,9,99,9","10129,1,99999,9",,,,"MET064METAR GVBA 301500Z 05010KT 9999 FEW015 BKN100 31/25 Q1013 NOSIG;",
"08594499999","2010-10-30T16:00:00","4","16.136531","-22.888897","21.03","BOA VISTA RABIL, CV","FM-15","GVBA ","V020","050,1,N,0041,1","03000,1,C,N","011265,1,N,1","+0310,1","+0240,1","99999,9","02,5,+00450,1,99,9","07,5,+03000,1,99,9",,"07,99,1,99,9,99,9,99999,9,99,9,99,9","10119,1,99999,9",,,,"MET064METAR GVBA 301600Z 05008KT 9999 FEW015 BKN100 31/24 Q1012 NOSIG;",
"08594499999","2010-10-30T17:00:00","4","16.136531","-22.888897","21.03","BOA VISTA RABIL, CV","FM-15","GVBA ","V020","050,1,N,0041,1","03000,1,C,N","011265,1,N,1","+0300,1","+0240,1","99999,9","02,5,+00450,1,99,9","07,5,+03000,1,99,9",,"07,99,1,99,9,99,9,99999,9,99,9,99,9","10119,1,99999,9",,,,"MET064METAR GVBA 301700Z 05008KT 9999 FEW015 BKN100 30/24 Q1012 NOSIG;",
"08594499999","2010-10-30T18:00:00","4","16.136531","-22.888897","21.03","BOA VISTA RABIL, CV","FM-15","GVBA ","V020","040,1,N,0051,1","99999,9,9,Y","009900,1,N,1","+0290,1","+0240,1","99999,9",,,,,"10129,1,99999,9",,,,"MET051METAR GVBA 301800Z 04010KT CAVOK 29/24 Q1013 NOSIG;",
"08594499999","2010-10-30T19:00:00","4","16.136531","-22.888897","21.03","BOA VISTA RABIL, CV","FM-15","GVBA ","V020","040,1,N,0041,1","99999,9,9,Y","009900,1,N,1","+0280,1","+0250,1","99999,9",,,,,"10129,1,99999,9",,,,"MET051METAR GVBA 301900Z 04008KT CAVOK 28/25 Q1013 NOSIG;",
"08594499999","2010-10-31T08:00:00","4","16.136531","-22.888897","21.03","BOA VISTA RABIL, CV","FM-15","GVBA ","V020","040,1,N,0031,1","06000,1,C,N","005000,1,N,1","+0260,1","+0250,1","99999,9","02,5,+00420,1,99,9","07,5,+06000,1,99,9",,"07,99,1,99,9,99,9,99999,9,99,9,99,9","10139,1,99999,9","10,1",,,"MET067METAR GVBA 310800Z 04006KT 5000 BR FEW014 BKN200 26/25 Q1014 NOSIG;",
"08594499999","2010-10-31T09:00:00","4","16.136531","-22.888897","21.03","BOA VISTA RABIL, CV","FM-15","GVBA ","V020","030,1,N,0041,1","99999,9,C,N","005000,1,N,1","+0270,1","+0250,1","99999,9","02,5,+00420,1,99,9","04,5,+06000,1,99,9",,"04,99,1,99,9,99,9,99999,9,99,9,99,9","10149,1,99999,9","10,1",,,"MET067METAR GVBA 310900Z 03008KT 5000 BR FEW014 SCT200 27/25 Q1015 NOSIG;","P01 060003SCOCIG"
"08594499999","2010-10-31T10:00:00","4","16.136531","-22.888897","21.03","BOA VISTA RABIL, CV","FM-15","GVBA ","V020","050,1,N,0041,1","99999,9,C,N","007000,1,N,1","+0280,1","+0250,1","99999,9","02,5,+00450,1,99,9","04,5,+06000,1,99,9",,"04,99,1,99,9,99,9,99999,9,99,9,99,9","10149,1,99999,9",,,,"MET064METAR GVBA 311000Z 05008KT 7000 FEW015 SCT200 28/25 Q1015 NOSIG;","P01 060003SCOCIG"
"08594499999","2010-10-31T11:00:00","4","16.136531","-22.888897","21.03","BOA VISTA RABIL, CV","FM-15","GVBA ","V020","040,1,N,0062,1","99999,9,C,N","007000,1,N,1","+0290,1","+0240,1","99999,9","02,5,+00450,1,99,9","04,5,+06000,1,99,9",,"04,99,1,99,9,99,9,99999,9,99,9,99,9","10159,1,99999,9",,,,"MET064METAR GVBA 311100Z 04012KT 7000 FEW015 SCT200 29/24 Q1016 NOSIG;","P01 060003SCOCIG"
"08594499999","2010-10-31T12:00:00","4","16.136531","-22.888897","21.03","BOA VISTA RABIL, CV","FM-15","GVBA ","V020","050,1,N,0087,1","06000,1,C,N","007000,1,N,1","+0300,1","+0240,1","99999,9","02,5,+00450,1,99,9","07,5,+06000,1,99,9",,"07,99,1,99,9,99,9,99999,9,99,9,99,9","10159,1,99999,9",,,,"MET064METAR GVBA 311200Z 05017KT 7000 FEW015 BKN200 30/24 Q1016 NOSIG;",
"08594499999","2010-10-31T13:00:00","4","16.136531","-22.888897","21.03","BOA VISTA RABIL, CV","FM-15","GVBA ","V020","050,1,N,0093,1","22000,1,9,N","007000,1,N,1","+0300,1","+0220,1","99999,9",,,,"00,99,1,99,9,99,9,99999,9,99,9,99,9","10149,1,99999,9",,,,"MET054METAR GVBA 311300Z 05018KT 7000 NSC 30/22 Q1015 NOSIG;","Q01    003SCCGA1"
"08594499999","2010-10-31T14:00:00","4","16.136531","-22.888897","21.03","BOA VISTA RABIL, CV","FM-15","GVBA ","V020","050,1,N,0082,1","22000,1,9,N","008000,1,N,1","+0310,1","+0220,1","99999,9",,,,"00,99,1,99,9,99,9,99999,9,99,9,99,9","10149,1,99999,9",,,,"MET054METAR GVBA 311400Z 05016KT 8000 NSC 31/22 Q1015 NOSIG;","Q01    003SCCGA1"
"08594499999","2010-10-31T15:00:00","4","16.136531","-22.888897","21.03","BOA VISTA RABIL, CV","FM-15","GVBA ","V020","040,1,N,0077,1","22000,1,9,N","008000,1,N,1","+0310,1","+0200,1","99999,9",,,,"00,99,1,99,9,99,9,99999,9,99,9,99,9","10139,1,99999,9",,,,"MET054METAR GVBA 311500Z 04015KT 8000 NSC 31/20 Q1014 NOSIG;","Q01    003SCCGA1"
"08594499999","2010-10-31T16:00:00","4","16.136531","-22.888897","21.03","BOA VISTA RABIL, CV","FM-15","GVBA ","V020","060,1,N,0067,1","22000,1,9,N","008000,1,N,1","+0310,1","+0200,1","99999,9",,,,"00,99,1,99,9,99,9,99999,9,99,9,99,9","10139,1,99999,9",,,,"MET054METAR GVBA 311600Z 06013KT 8000 NSC 31/20 Q1014 NOSIG;","Q01    003SCCGA1"
"08594499999","2010-10-31T17:00:00","4","16.136531","-22.888897","21.03","BOA VISTA RABIL, CV","FM-15","GVBA ","V020","040,1,N,0062,1","22000,1,9,N","008000,1,N,1","+0300,1","+0220,1","99999,9",,,,"00,99,1,99,9,99,9,99999,9,99,9,99,9","10129,1,99999,9",,,,"MET054METAR GVBA 311700Z 04012KT 8000 NSC 30/22 Q1013 NOSIG;","Q01    003SCCGA1"
"08594499999","2010-10-31T18:00:00","4","16.136531","-22.888897","21.03","BOA VISTA RABIL, CV","FM-15","GVBA ","V020","050,1,N,0067,1","22000,1,9,N","009000,1,N,1","+0290,1","+0220,1","99999,9",,,,"00,99,1,99,9,99,9,99999,9,99,9,99,9","10139,1,99999,9",,,,"MET054METAR GVBA 311800Z 05013KT 9000 NSC 29/22 Q1014 NOSIG;","Q01    003SCCGA1"
"08594499999","2010-10-31T19:00:00","4","16.136531","-22.888897","21.03","BOA VISTA RABIL, CV","FM-15","GVBA ","V020","050,1,N,0051,1","22000,1,9,N","009000,1,N,1","+0280,1","+0230,1","99999,9",,,,"00,99,1,99,9,99,9,99999,9,99,9,99,9","10139,1,99999,9",,,,"MET054METAR GVBA 311900Z 05010KT 9000 NSC 28/23 Q1014 NOSIG;","Q01    003SCCGA1"
"08594499999","2010-11-01T08:00:00","4","16.136531","-22.888897","21.03","BOA VISTA RABIL, CV","FM-15","GVBA ","V020","050,1,N,0036,1","06000,1,C,N","009000,1,N,1","+0250,1","+0230,1","99999,9","02,5,+00450,1,99,9","07,5,+06000,1,99,9",,"07,99,1,99,9,99,9,99999,9,99,9,99,9","10149,1,99999,9",,,,"MET064METAR GVBA 010800Z 05007KT 9000 FEW015 BKN200 25/23 Q1015 NOSIG;",
"08594499999","2010-11-01T09:00:00","4","16.136531","-22.888897","21.03","BOA VISTA RABIL, CV","FM-15","GVBA ","V020","050,1,N,0062,1","06000,1,C,N","009000,1,N,1","+0270,1","+0230,1","99999,9","02,5,+00450,1,99,9","07,5,+06000,1,99,9",,"07,99,1,99,9,99,9,99999,9,99,9,99,9","10149,1,99999,9",,,,"MET064METAR GVBA 010900Z 05012KT 9000 FEW015 BKN200 27/23 Q1015 NOSIG;",
"08594499999","2010-11-01T10:00:00","4","16.136531","-22.888897","21.03","BOA VISTA RABIL, CV","FM-15","GVBA ","V020","050,1,N,0067,1","03000,1,C,N","011265,1,N,1","+0270,1","+0230,1","99999,9","02,5,+00450,1,99,9","04,5,+03000,1,99,9","08,5,+06000,1,99,9","08,99,1,99,9,99,9,99999,9,99,9,99,9","10149,1,99999,9",,,,"MET071METAR GVBA 011000Z 05013KT 9999 FEW015 SCT100 OVC200 27/23 Q1015 NOSIG;",
"08594499999","2010-11-01T11:00:00","4","16.136531","-22.888897","21.03","BOA VISTA RABIL, CV","FM-15","GVBA ","V020","050,1,N,0087,1","06000,1,C,N","011265,1,N,1","+0270,1","+0230,1","99999,9","02,5,+00450,1,99,9","08,5,+06000,1,99,9",,"08,99,1,99,9,99,9,99999,9,99,9,99,9","10159,1,99999,9",,,,"MET064METAR GVBA 011100Z 05017KT 9999 FEW015 OVC200 27/23 Q1016 NOSIG;",
"08594499999","2010-11-01T12:00:00","4","16.136531","-22.888897","21.03","BOA VISTA RABIL, CV","FM-15","GVBA ","V020","050,1,N,0082,1","06000,1,C,N","011265,1,N,1","+0280,1","+0230,1","99999,9","02,5,+00450,1,99,9","08,5,+06000,1,99,9",,"08,99,1,99,9,99,9,99999,9,99,9,99,9","10159,1,99999,9",,,,"MET064METAR GVBA 011200Z 05016KT 9999 FEW015 OVC200 28/23 Q1016 NOSIG;",
"08594499999","2010-11-01T13:00:00","4","16.136531","-22.888897","21.03","BOA VISTA RABIL, CV","FM-15","GVBA ","V020","050,1,N,0082,1","06000,1,C,N","011265,1,N,1","+0280,1","+0230,1","99999,9","04,5,+00450,1,99,9","08,5,+06000,1,99,9",,"08,99,1,99,9,99,9,99999,9,99,9,99,9","10139,1,99999,9",,,,"MET064METAR GVBA 011300Z 05016KT 9999 SCT015 OVC200 28/23 Q1014 NOSIG;",
"08594499999","2010-11-01T14:00:00","4","16.136531","-22.888897","21.03","BOA VISTA RABIL, CV","FM-15","GVBA ","V020","050,1,N,0093,1","06000,1,C,N","011265,1,N,1","+0290,1","+0230,1","99999,9","04,5,+00450,1,99,9","07,5,+06000,1,99,9",,"07,99,1,99,9,99,9,99999,9,99,9,99,9","10139,1,99999,9",,,,"MET064METAR GVBA 011400Z 05018KT 9999 SCT015 BKN200 29/23 Q1014 NOSIG;",
"08594499999","2010-11-01T15:00:00","4","16.136531","-22.888897","21.03","BOA VISTA RABIL, CV","FM-15","GVBA ","V020","040,1,N,0093,1","06000,1,C,N","011265,1,N,1","+0290,1","+0220,1","99999,9","04,5,+00450,1,99,9","07,5,+06000,1,99,9",,"07,99,1,99,9,99,9,99999,9,99,9,99,9","10129,1,99999,9",,,,"MET064METAR GVBA 011500Z 04018KT 9999 SCT015 BKN200 29/22 Q1013 NOSIG;",
"08594499999","2010-11-01T16:00:00","4","16.136531","-22.888897","21.03","BOA VISTA RABIL, CV","FM-15","GVBA ","V020","030,1,N,0098,1","03000,1,C,N","011265,1,N,1","+0290,1","+0220,1","99999,9","02,5,+00450,1,99,9","04,5,+03000,1,99,9","07,5,+06000,1,99,9","07,99,1,99,9,99,9,99999,9,99,9,99,9","10119,1,99999,9",,,,"MET071METAR GVBA 011600Z 03019KT 9999 FEW015 SCT100 BKN200 29/22 Q1012 NOSIG;",
"08594499999","2010-11-01T17:00:00","4","16.136531","-22.888897","21.03","BOA VISTA RABIL, CV","FM-15","GVBA ","V020","030,1,N,0098,1","03000,1,C,N","011265,1,N,1","+0280,1","+0220,1","99999,9","02,5,+00450,1,99,9","07,5,+03000,1,99,9",,"07,99,1,99,9,99,9,99999,9,99,9,99,9","10119,1,99999,9",,,,"MET064METAR GVBA 011700Z 03019KT 9999 FEW015 BKN100 28/22 Q1012 NOSIG;",
"08594499999","2010-11-01T18:00:00","4","16.136531","-22.888897","21.03","BOA VISTA RABIL, CV","FM-15","GVBA ","V020","040,1,N,0051,1","99999,9,C,N","011265,1,N,1","+0270,1","+0220,1","99999,9","02,5,+00450,1,99,9","04,5,+03000,1,99,9",,"04,99,1,99,9,99,9,99999,9,99,9,99,9","10129,1,99999,9",,,,"MET064METAR GVBA 011800Z 04010KT 9999 FEW015 SCT100 27/22 Q1013 NOSIG;","P01 030003SCOCIG"
"08594499999","2010-11-01T19:00:00","4","16.136531","-22.888897","21.03","BOA VISTA RABIL, CV","FM-15","GVBA ","V020","030,1,N,0031,1","03000,1,C,N","011265,1,N,1","+0260,1","+0210,1","99999,9","02,5,+00450,1,99,9","07,5,+03000,1,99,9",,"07,99,1,99,9,99,9,99999,9,99,9,99,9","10119,1,99999,9",,,,"MET064METAR GVBA 011900Z 03006KT 9999 FEW015 BKN100 26/21 Q1012 NOSIG;",
"08594499999","2010-11-02T08:00:00","4","16.136531","-22.888897","21.03","BOA VISTA RABIL, CV","FM-15","GVBA ","V020","030,1,N,0062,1","03000,1,C,N","011265,1,N,1","+0250,1","+0200,1","99999,9","02,5,+00450,1,99,9","07,5,+03000,1,99,9",,"07,99,1,99,9,99,9,99999,9,99,9,99,9","10119,1,99999,9",,,,"MET064METAR GVBA 020800Z 03012KT 9999 FEW015 BKN100 25/20 Q1012 NOSIG;",
"08594499999","2010-11-02T09:00:00","4","16.136531","-22.888897","21.03","BOA VISTA RABIL, CV","FM-15","GVBA ","V020","020,1,N,0067,1","99999,9,C,N","011265,1,N,1","+0260,1","+0200,1","99999,9","02,5,+00450,1,99,9","04,5,+03000,1,99,9",,"04,99,1,99,9,99,9,99999,9,99,9,99,9","10129,1,99999,9",,,,"MET064METAR GVBA 020900Z 02013KT 9999 FEW015 SCT100 26/20 Q1013 NOSIG;","P01 030003SCOCIG"
"08594499999","2010-11-02T10:00:00","4","16.136531","-22.888897","21.03","BOA VISTA RABIL, CV","FM-15","GVBA ","V020","030,1,N,0082,1","22000,1,9,N","011265,1,N,1","+0270,1","+0200,1","99999,9","02,5,+00450,1,99,9",,,"02,99,1,99,9,99,9,99999,9,99,9,99,9","10129,1,99999,9",,,,"MET057METAR GVBA 021000Z 03016KT 9999 FEW015 27/20 Q1013 NOSIG;",
"08594499999","2010-11-02T11:00:00","4","16.136531","-22.888897","21.03","BOA VISTA RABIL, CV","FM-15","GVBA ","V020","040,1,N,0082,1","22000,1,9,N","011265,1,N,1","+0280,1","+0210,1","99999,9","02,5,+00450,1,99,9",,,"02,99,1,99,9,99,9,99999,9,99,9,99,9","10139,1,99999,9",,,,"MET057METAR GVBA 021100Z 04016KT 9999 FEW015 28/21 Q1014 NOSIG;",
"08594499999","2010-11-02T12:00:00","4","16.136531","-22.888897","21.03","BOA VISTA RABIL, CV","FM-15","GVBA ","V020","030,1,N,0077,1","22000,1,9,N","011265,1,N,1","+0290,1","+0210,1","99999,9","02,5,+00450,1,99,9",,,"02,99,1,99,9,99,9,99999,9,99,9,99,9","10129,1,99999,9",,,,"MET057METAR GVBA 021200Z 03015KT 9999 FEW015 29/21 Q1013 NOSIG;",
"08594499999","2010-11-02T13:00:00","4","16.136531","-22.888897","21.03","BOA VISTA RABIL, CV","FM-15","GVBA ","V020","030,1,N,0077,1","22000,1,9,N","011265,1,N,1","+0290,1","+0200,1","99999,9","02,5,+00450,1,99,9",,,"02,99,1,99,9,99,9,99999,9,99,9,99,9","10129,1,99999,9",,,,"MET057METAR GVBA 021300Z 03015KT 9999 FEW015 29/20 Q1013 NOSIG;",
"08594499999","2010-11-02T14:00:00","4","16.136531","-22.888897","21.03","BOA VISTA RABIL, CV","FM-15","GVBA ","V020","050,1,N,0072,1","22000,1,9,N","011265,1,N,1","+0290,1","+0200,1","99999,9","02,5,+00450,1,99,9",,,"02,99,1,99,9,99,9,99999,9,99,9,99,9","10119,1,99999,9",,,,"MET057METAR GVBA 021400Z 05014KT 9999 FEW015 29/20 Q1012 NOSIG;",
"08594499999","2010-11-02T15:00:00","4","16.136531","-22.888897","21.03","BOA VISTA RABIL, CV","FM-15","GVBA ","V020","050,1,N,0067,1","22000,1,9,N","011265,1,N,1","+0290,1","+0200,1","99999,9","02,5,+00450,1,99,9",,,"02,99,1,99,9,99,9,99999,9,99,9,99,9","10108,1,99999,9",,,,"MET057METAR GVBA 021500Z 05013KT 9999 FEW015 29/20 Q1011 NOSIG;",
"08594499999","2010-11-02T16:00:00","4","16.136531","-22.888897","21.03","BOA VISTA RABIL, CV","FM-15","GVBA ","V020","040,1,N,0067,1","22000,1,9,N","011265,1,N,1","+0290,1","+0210,1","99999,9","02,5,+00450,1,99,9",,,"02,99,1,99,9,99,9,99999,9,99,9,99,9","10102,1,99999,9",,,,"MET057METAR GVBA 021600Z 04013KT 9999 FEW015 29/21 Q1010 NOSIG;",
"08594499999","2010-11-02T17:00:00","4","16.136531","-22.888897","21.03","BOA VISTA RABIL, CV","FM-15","GVBA ","V020","050,1,N,0067,1","22000,1,9,N","011265,1,N,1","+0280,1","+0210,1","99999,9","02,5,+00450,1,99,9",,,"02,99,1,99,9,99,9,99999,9,99,9,99,9","10102,1,99999,9",,,,"MET057METAR GVBA 021700Z 05013KT 9999 FEW015 28/21 Q1010 NOSIG;",
"08594499999","2010-11-02T18:00:00","4","16.136531","-22.888897","21.03","BOA VISTA RABIL, CV","FM-15","GVBA ","V020","050,1,N,0051,1","22000,1,9,N","011265,1,N,1","+0280,1","+0210,1","99999,9","02,5,+00450,1,99,9",,,"02,99,1,99,9,99,9,99999,9,99,9,99,9","10108,1,99999,9",,,,"MET057METAR GVBA 021800Z 05010KT 9999 FEW015 28/21 Q1011 NOSIG;",
"08594499999","2010-11-02T19:00:00","4","16.136531","-22.888897","21.03","BOA VISTA RABIL, CV","FM-15","GVBA ","V020","050,1,N,0062,1","22000,1,9,N","011265,1,N,1","+0260,1","+0210,1","99999,9","02,5,+00450,1,99,9",,,"02,99,1,99,9,99,9,99999,9,99,9,99,9","10108,1,99999,9",,,,"MET057METAR GVBA 021900Z 05012KT 9999 FEW015 26/21 Q1011 NOSIG;",
"08594499999","2010-11-03T08:00:00","4","16.136531","-22.888897","21.03","BOA VISTA RABIL, CV","FM-15","GVBA ","V020","050,1,N,0031,1","06000,1,C,N","011265,1,N,1","+0230,1","+0200,1","99999,9","02,5,+00450,1,99,9","07,5,+06000,1,99,9",,"07,99,1,99,9,99,9,99999,9,99,9,99,9","10119,1,99999,9",,,,"MET064METAR GVBA 030800Z 05006KT 9999 FEW015 BKN200 23/20 Q1012 NOSIG;",
"08594499999","2010-11-03T09:00:00","4","16.136531","-22.888897","21.03","BOA VISTA RABIL, CV","FM-15","GVBA ","V020","040,1,N,0051,1","06000,1,C,N","011265,1,N,1","+0260,1","+0210,1","99999,9","02,5,+00450,1,99,9","07,5,+06000,1,99,9",,"07,99,1,99,9,99,9,99999,9,99,9,99,9","10119,1,99999,9",,,,"MET064METAR GVBA 030900Z 04010KT 9999 FEW015 BKN200 26/21 Q1012 NOSIG;",
"08594499999","2010-11-03T10:00:00","4","16.136531","-22.888897","21.03","BOA VISTA RABIL, CV","FM-15","GVBA ","V020","040,1,N,0067,1","06000,1,C,N","011265,1,N,1","+0270,1","+0210,1","99999,9","02,5,+00450,1,99,9","07,5,+06000,1,99,9",,"07,99,1,99,9,99,9,99999,9,99,9,99,9","10129,1,99999,9",,,,"MET064METAR GVBA 031000Z 04013KT 9999 FEW015 BKN200 27/21 Q1013 NOSIG;",
"08594499999","2010-11-03T11:00:00","4","16.136531","-22.888897","21.03","BOA VISTA RABIL, CV","FM-15","GVBA ","V020","040,1,N,0062,1","06000,1,C,N","011265,1,N,1","+0280,1","+0210,1","99999,9","02,5,+00450,1,99,9","07,5,+06000,1,99,9",,"07,99,1,99,9,99,9,99999,9,99,9,99,9","10129,1,99999,9",,,,"MET064METAR GVBA 031100Z 04012KT 9999 FEW015 BKN200 28/21 Q1013 NOSIG;",
"08594499999","2010-11-03T12:00:00","4","16.136531","-22.888897","21.03","BOA VISTA RABIL, CV","FM-15","GVBA ","V020","030,1,N,0067,1","06000,1,C,N","011265,1,N,1","+0280,1","+0210,1","99999,9","02,5,+00450,1,99,9","07,5,+06000,1,99,9",,"07,99,1,99,9,99,9,99999,9,99,9,99,9","10129,1,99999,9",,,,"MET064METAR GVBA 031200Z 03013KT 9999 FEW015 BKN200 28/21 Q1013 NOSIG;",
"08594499999","2010-11-03T13:00:00","4","16.136531","-22.888897","21.03","BOA VISTA RABIL, CV","FM-15","GVBA ","V020","040,1,N,0062,1","06000,1,C,N","011265,1,N,1","+0290,1","+0210,1","99999,9","02,5,+00450,1,99,9","07,5,+06000,1,99,9",,"07,99,1,99,9,99,9,99999,9,99,9,99,9","10119,1,99999,9",,,,"MET064METAR GVBA 031300Z 04012KT 9999 FEW015 BKN200 29/21 Q1012 NOSIG;",
"08594499999","2010-11-03T14:00:00","4","16.136531","-22.888897","21.03","BOA VISTA RABIL, CV","FM-15","GVBA ","V020","030,1,N,0072,1","06000,1,C,N","011265,1,N,1","+0290,1","+0210,1","99999,9","02,5,+00450,1,99,9","07,5,+06000,1,99,9",,"07,99,1,99,9,99,9,99999,9,99,9,99,9","10119,1,99999,9",,,,"MET064METAR GVBA 031400Z 03014KT 9999 FEW015 BKN200 29/21 Q1012 NOSIG;",
"08594499999","2010-11-03T15:00:00","4","16.136531","-22.888897","21.03","BOA VISTA RABIL, CV","FM-15","GVBA ","V020","020,1,N,0072,1","06000,1,C,N","011265,1,N,1","+0290,1","+0210,1","99999,9","02,5,+00450,1,99,9","07,5,+06000,1,99,9",,"07,99,1,99,9,99,9,99999,9,99,9,99,9","10108,1,99999,9",,,,"MET064METAR GVBA 031500Z 02014KT 9999 FEW015 BKN200 29/21 Q1011 NOSIG;",
"08594499999","2010-11-03T16:00:00","4","16.136531","-22.888897","21.03","BOA VISTA RABIL, CV","FM-15","GVBA ","V020","010,1,N,0067,1","06000,1,C,N","011265,1,N,1","+0290,1","+0210,1","99999,9","02,5,+00450,1,99,9","07,5,+06000,1,99,9",,"07,99,1,99,9,99,9,99999,9,99,9,99,9","10108,1,99999,9",,,,"MET064METAR GVBA 031600Z 01013KT 9999 FEW015 BKN200 29/21 Q1011 NOSIG;",
"08594499999","2010-11-03T17:00:00","4","16.136531","-22.888897","21.03","BOA VISTA RABIL, CV","FM-15","GVBA ","V020","040,1,N,0067,1","06000,1,C,N","011265,1,N,1","+0280,1","+0210,1","99999,9","02,5,+00450,1,99,9","07,5,+06000,1,99,9",,"07,99,1,99,9,99,9,99999,9,99,9,99,9","10108,1,99999,9",,,,"MET064METAR GVBA 031700Z 04013KT 9999 FEW015 BKN200 28/21 Q1011 NOSIG;",
"08594499999","2010-11-03T18:00:00","4","16.136531","-22.888897","21.03","BOA VISTA RABIL, CV","FM-15","GVBA ","V020","030,1,N,0067,1","06000,1,C,N","011265,1,N,1","+0270,1","+0210,1","99999,9","02,5,+00450,1,99,9","07,5,+06000,1,99,9",,"07,99,1,99,9,99,9,99999,9,99,9,99,9","10108,1,99999,9",,,,"MET064METAR GVBA 031800Z 03013KT 9999 FEW015 BKN200 27/21 Q1011 NOSIG;",
"08594499999","2010-11-03T19:00:00","4","16.136531","-22.888897","21.03","BOA VISTA RABIL, CV","FM-15","GVBA ","V020","040,1,N,0057,1","06000,1,C,N","011265,1,N,1","+0260,1","+0210,1","99999,9","02,5,+00450,1,99,9","07,5,+06000,1,99,9",,"07,99,1,99,9,99,9,99999,9,99,9,99,9","10119,1,99999,9",,,,"MET064METAR GVBA 031900Z 04011KT 9999 FEW015 BKN200 26/21 Q1012 NOSIG;",
"08594499999","2010-11-04T08:00:00","4","16.136531","-22.888897","21.03","BOA VISTA RABIL, CV","FM-15","GVBA ","V020","040,1,N,0026,1","06000,1,C,N","011265,1,N,1","+0240,1","+0210,1","99999,9","02,5,+00450,1,99,9","07,5,+06000,1,99,9",,"07,99,1,99,9,99,9,99999,9,99,9,99,9","10129,1,99999,9",,,,"MET064METAR GVBA 040800Z 04005KT 9999 FEW015 BKN200 24/21 Q1013 NOSIG;",
"08594499999","2010-11-04T09:00:00","4","16.136531","-22.888897","21.03","BOA VISTA RABIL, CV","FM-15","GVBA ","V020","060,1,N,0021,1","03000,1,C,N","011265,1,N,1","+0250,1","+0210,1","99999,9","02,5,+00450,1,99,9","07,5,+03000,1,99,9","07,5,+06000,1,99,9","07,99,1,99,9,99,9,99999,9,99,9,99,9","10139,1,99999,9",,,,"MET071METAR GVBA 040900Z 06004KT 9999 FEW015 BKN100 BKN200 25/21 Q1014 NOSIG;",
"08594499999","2010-11-04T10:00:00","4","16.136531","-22.888897","21.03","BOA VISTA RABIL, CV","FM-15","GVBA ","V020","050,1,N,0057,1","03000,1,C,N","011265,1,N,1","+0270,1","+0220,1","99999,9","04,5,+00450,1,99,9","04,5,+03000,1,99,9","07,5,+06000,1,99,9","07,99,1,99,9,99,9,99999,9,99,9,99,9","10149,1,99999,9",,,,"MET071METAR GVBA 041000Z 05011KT 9999 SCT015 SCT100 BKN200 27/22 Q1015 NOSIG;",
"08594499999","2010-11-04T11:00:00","4","16.136531","-22.888897","21.03","BOA VISTA RABIL, CV","FM-15","GVBA ","V020","030,1,N,0072,1","06000,1,C,N","011265,1,N,1","+0280,1","+0210,1","99999,9","04,5,+00450,1,99,9","07,5,+06000,1,99,9",,"07,99,1,99,9,99,9,99999,9,99,9,99,9","10139,1,99999,9",,,,"MET064METAR GVBA 041100Z 03014KT 9999 SCT015 BKN200 28/21 Q1014 NOSIG;",
"08594499999","2010-11-04T12:00:00","4","16.136531","-22.888897","21.03","BOA VISTA RABIL, CV","FM-15","GVBA ","V020","030,1,N,0067,1","06000,1,C,N","011265,1,N,1","+0290,1","+0210,1","99999,9","02,5,+00450,1,99,9","07,5,+06000,1,99,9",,"07,99,1,99,9,99,9,99999,9,99,9,99,9","10139,1,99999,9",,,,"MET064METAR GVBA 041200Z 03013KT 9999 FEW015 BKN200 29/21 Q1014 NOSIG;",
"08594499999","2010-11-04T14:00:00","4","16.136531","-22.888897","21.03","BOA VISTA RABIL, CV","FM-15","GVBA ","V020","050,1,N,0067,1","06000,1,C,N","011265,1,N,1","+0280,1","+0220,1","99999,9","04,5,+00450,1,99,9","07,5,+06000,1,99,9",,"07,99,1,99,9,99,9,99999,9,99,9,99,9","10119,1,99999,9",,,,"MET064METAR GVBA 041400Z 05013KT 9999 SCT015 BKN200 28/22 Q1012 NOSIG;",
"08594499999","2010-11-04T15:00:00","4","16.136531","-22.888897","21.03","BOA VISTA RABIL, CV","FM-15","GVBA ","V020","050,1,N,0067,1","06000,1,C,N","011265,1,N,1","+0280,1","+0220,1","99999,9","02,5,+00450,1,99,9","07,5,+06000,1,99,9",,"07,99,1,99,9,99,9,99999,9,99,9,99,9","10119,1,99999,9",,,,"MET064METAR GVBA 041500Z 05013KT 9999 FEW015 BKN200 28/22 Q1012 NOSIG;",
"08594499999","2010-11-04T16:00:00","4","16.136531","-22.888897","21.03","BOA VISTA RABIL, CV","FM-15","GVBA ","V020","050,1,N,0067,1","03000,1,C,N","011265,1,N,1","+0270,1","+0220,1","99999,9","02,5,+00450,1,99,9","04,5,+03000,1,99,9","07,5,+06000,1,99,9","07,99,1,99,9,99,9,99999,9,99,9,99,9","10119,1,99999,9",,,,"MET071METAR GVBA 041600Z 05013KT 9999 FEW015 SCT100 BKN200 27/22 Q1012 NOSIG;",
"08594499999","2010-11-04T17:00:00","4","16.136531","-22.888897","21.03","BOA VISTA RABIL, CV","FM-15","GVBA ","V020","050,1,N,0062,1","03000,1,C,N","011265,1,N,1","+0270,1","+0220,1","99999,9","02,5,+00450,1,99,9","04,5,+03000,1,99,9","07,5,+06000,1,99,9","07,99,1,99,9,99,9,99999,9,99,9,99,9","10119,1,99999,9",,,,"MET071METAR GVBA 041700Z 05012KT 9999 FEW015 SCT100 BKN200 27/22 Q1012 NOSIG;",
"08594499999","2010-11-04T18:00:00","4","16.136531","-22.888897","21.03","BOA VISTA RABIL, CV","FM-15","GVBA ","V020","050,1,N,0072,1","06000,1,C,N","011265,1,N,1","+0270,1","+0220,1","99999,9","02,5,+00450,1,99,9","07,5,+06000,1,99,9",,"07,99,1,99,9,99,9,99999,9,99,9,99,9","10119,1,99999,9",,,,"MET064METAR GVBA 041800Z 05014KT 9999 FEW015 BKN200 27/22 Q1012 NOSIG;",
"08594499999","2010-11-05T08:00:00","4","16.136531","-22.888897","21.03","BOA VISTA RABIL, CV","FM-15","GVBA ","V020","030,1,N,0051,1","03000,1,C,N","011265,1,N,1","+0250,1","+0220,1","99999,9","04,5,+00450,1,99,9","07,5,+03000,1,99,9",,"07,99,1,99,9,99,9,99999,9,99,9,99,9","10129,1,99999,9",,,,"MET064METAR GVBA 050800Z 03010KT 9999 SCT015 BKN100 25/22 Q1013 NOSIG;",
"08594499999","2010-11-05T09:00:00","4","16.136531","-22.888897","21.03","BOA VISTA RABIL, CV","FM-15","GVBA ","V020","040,1,N,0067,1","03000,1,C,N","011265,1,N,1","+0260,1","+0230,1","99999,9","04,5,+00450,1,99,9","07,5,+03000,1,99,9",,"07,99,1,99,9,99,9,99999,9,99,9,99,9","10139,1,99999,9",,,,"MET064METAR GVBA 050900Z 04013KT 9999 SCT015 BKN100 26/23 Q1014 NOSIG;",
"08594499999","2010-11-05T10:00:00","4","16.136531","-22.888897","21.03","BOA VISTA RABIL, CV","FM-15","GVBA ","V020","050,1,N,0072,1","03000,1,C,N","011265,1,N,1","+0280,1","+0230,1","99999,9","04,5,+00450,1,99,9","07,5,+03000,1,99,9",,"07,99,1,99,9,99,9,99999,9,99,9,99,9","10139,1,99999,9",,,,"MET064METAR GVBA 051000Z 05014KT 9999 SCT015 BKN100 28/23 Q1014 NOSIG;",
"08594499999","2010-11-05T11:00:00","4","16.136531","-22.888897","21.03","BOA VISTA RABIL, CV","FM-15","GVBA ","V020","050,1,N,0072,1","00450,1,C,N","011265,1,N,1","+0290,1","+0230,1","99999,9","07,5,+00450,1,99,9","07,5,+03000,1,99,9",,"07,99,1,99,9,99,9,99999,9,99,9,99,9","10149,1,99999,9",,,,"MET064METAR GVBA 051100Z 05014KT 9999 BKN015 BKN100 29/23 Q1015 NOSIG;",
"08594499999","2010-11-05T12:00:00","4","16.136531","-22.888897","21.03","BOA VISTA RABIL, CV","FM-15","GVBA ","V020","050,1,N,0072,1","00450,1,C,N","011265,1,N,1","+0290,1","+0230,1","99999,9","07,5,+00450,1,99,9",,,"07,99,1,99,9,99,9,99999,9,99,9,99,9","10139,1,99999,9",,,,"MET057METAR GVBA 051200Z 05014KT 9999 BKN015 29/23 Q1014 NOSIG;",
"08594499999","2010-11-05T13:00:00","4","16.136531","-22.888897","21.03","BOA VISTA RABIL, CV","FM-15","GVBA ","V020","050,1,N,0082,1","00450,1,C,N","011265,1,N,1","+0300,1","+0230,1","99999,9","07,5,+00450,1,99,9",,,"07,99,1,99,9,99,9,99999,9,99,9,99,9","10129,1,99999,9",,,,"MET057METAR GVBA 051300Z 05016KT 9999 BKN015 30/23 Q1013 NOSIG;",
"08594499999","2010-11-05T14:00:00","4","16.136531","-22.888897","21.03","BOA VISTA RABIL, CV","FM-15","GVBA ","V020","030,1,N,0082,1","22000,1,9,N","011265,1,N,1","+0300,1","+0220,1","99999,9","04,5,+00450,1,99,9",,,"04,99,1,99,9,99,9,99999,9,99,9,99,9","10129,1,99999,9",,,,"MET057METAR GVBA 051400Z 03016KT 9999 SCT015 30/22 Q1013 NOSIG;",
"08594499999","2010-11-05T15:00:00","4","16.136531","-22.888897","21.03","BOA VISTA RABIL, CV","FM-15","GVBA ","V020","030,1,N,0082,1","22000,1,9,N","011265,1,N,1","+0300,1","+0220,1","99999,9","04,5,+00450,1,99,9",,,"04,99,1,99,9,99,9,99999,9,99,9,99,9","10119,1,99999,9",,,,"MET057METAR GVBA 051500Z 03016KT 9999 SCT015 30/22 Q1012 NOSIG;",
"08594499999","2010-11-05T16:00:00","4","16.136531","-22.888897","21.03","BOA VISTA RABIL, CV","FM-15","GVBA ","V020","040,1,N,0077,1","99999,9,C,N","011265,1,N,1","+0300,1","+0220,1","99999,9","04,5,+00450,1,99,9","04,5,+06000,1,99,9",,"04,99,1,99,9,99,9,99999,9,99,9,99,9","10119,1,99999,9",,,,"MET064METAR GVBA 051600Z 04015KT 9999 SCT015 SCT200 30/22 Q1012 NOSIG;","P01 060003SCOCIG"
"08594499999","2010-11-05T17:00:00","4","16.136531","-22.888897","21.03","BOA VISTA RABIL, CV","FM-15","GVBA ","V020","030,1,N,0067,1","06000,1,C,N","011265,1,N,1","+0290,1","+0230,1","99999,9","04,5,+00450,1,99,9","07,5,+06000,1,99,9",,"07,99,1,99,9,99,9,99999,9,99,9,99,9","10119,1,99999,9",,,,"MET064METAR GVBA 051700Z 03013KT 9999 SCT015 BKN200 29/23 Q1012 NOSIG;",
"08594499999","2010-11-05T18:00:00","4","16.136531","-22.888897","21.03","BOA VISTA RABIL, CV","FM-15","GVBA ","V020","040,1,N,0062,1","06000,1,C,N","011265,1,N,1","+0280,1","+0230,1","99999,9","04,5,+00450,1,99,9","07,5,+06000,1,99,9",,"07,99,1,99,9,99,9,99999,9,99,9,99,9","10119,1,99999,9",,,,"MET064METAR GVBA 051800Z 04012KT 9999 SCT015 BKN200 28/23 Q1012 NOSIG;",
"08594499999","2010-11-05T19:00:00","4","16.136531","-22.888897","21.03","BOA VISTA RABIL, CV","FM-15","GVBA ","V020","040,1,N,0057,1","06000,1,C,N","011265,1,N,1","+0270,1","+0230,1","99999,9","02,5,+00450,1,99,9","07,5,+06000,1,99,9",,"07,99,1,99,9,99,9,99999,9,99,9,99,9","10119,1,99999,9",,,,"MET064METAR GVBA 051900Z 04011KT 9999 FEW015 BKN200 27/23 Q1012 NOSIG;",
"08594499999","2010-11-06T08:00:00","4","16.136531","-22.888897","21.03","BOA VISTA RABIL, CV","FM-15","GVBA ","V020","040,1,N,0031,1","22000,1,9,N","011265,1,N,1","+0250,1","+0230,1","99999,9","04,5,+00450,1,99,9",,,"04,99,1,99,9,99,9,99999,9,99,9,99,9","10139,1,99999,9",,,,"MET057METAR GVBA 060800Z 04006KT 9999 SCT015 25/23 Q1014 NOSIG;",
"08594499999","2010-11-06T09:00:00","4","16.136531","-22.888897","21.03","BOA VISTA RABIL, CV","FM-15","GVBA ","V020","050,1,N,0031,1","00450,1,C,N","011265,1,N,1","+0260,1","+0230,1","99999,9","07,5,+00450,1,99,9",,,"07,99,1,99,9,99,9,99999,9,99,9,99,9","10139,1,99999,9",,,,"MET057METAR GVBA 060900Z 05006KT 9999 BKN015 26/23 Q1014 NOSIG;",
"08594499999","2010-11-06T10:00:00","4","16.136531","-22.888897","21.03","BOA VISTA RABIL, CV","FM-15","GVBA ","V020","050,1,N,0077,1","22000,1,9,N","011265,1,N,1","+0280,1","+0230,1","99999,9","04,5,+00450,1,99,9",,,"04,99,1,99,9,99,9,99999,9,99,9,99,9","10149,1,99999,9",,,,"MET057METAR GVBA 061000Z 05015KT 9999 SCT015 28/23 Q1015 NOSIG;",
"08594499999","2010-11-06T11:00:00","4","16.136531","-22.888897","21.03","BOA VISTA RABIL, CV","FM-15","GVBA ","V020","060,1,N,0087,1","22000,1,9,N","011265,1,N,1","+0290,1","+0230,1","99999,9","04,5,+00450,1,99,9",,,"04,99,1,99,9,99,9,99999,9,99,9,99,9","10149,1,99999,9",,,,"MET057METAR GVBA 061100Z 06017KT 9999 SCT015 29/23 Q1015 NOSIG;",
"08594499999","2010-11-06T12:00:00","4","16.136531","-22.888897","21.03","BOA VISTA RABIL, CV","FM-15","GVBA ","V020","060,1,N,0093,1","22000,1,9,N","011265,1,N,1","+0300,1","+0220,1","99999,9","02,5,+00450,1,99,9",,,"02,99,1,99,9,99,9,99999,9,99,9,99,9","10149,1,99999,9",,,,"MET057METAR GVBA 061200Z 06018KT 9999 FEW015 30/22 Q1015 NOSIG;",
"08594499999","2010-11-06T14:00:00","4","16.136531","-22.888897","21.03","BOA VISTA RABIL, CV","FM-15","GVBA ","V020","070,1,N,0051,1","99999,9,9,Y","009900,1,N,1","+0320,1","+0190,1","99999,9",,,,,"10139,1,99999,9",,,,"MET051METAR GVBA 061400Z 07010KT CAVOK 32/19 Q1014 NOSIG;",
"08594499999","2010-11-06T15:00:00","4","16.136531","-22.888897","21.03","BOA VISTA RABIL, CV","FM-15","GVBA ","V020","070,1,N,0051,1","99999,9,9,Y","009900,1,N,1","+0320,1","+0190,1","99999,9",,,,,"10129,1,99999,9",,,,"MET051METAR GVBA 061500Z 07010KT CAVOK 32/19 Q1013 NOSIG;",
"08594499999","2010-11-06T16:00:00","4","16.136531","-22.888897","21.03","BOA VISTA RABIL, CV","FM-15","GVBA ","V020","060,1,N,0062,1","22000,1,9,N","009000,1,N,1","+0310,1","+0200,1","99999,9",,,,"00,99,1,99,9,99,9,99999,9,99,9,99,9","10129,1,99999,9",,,,"MET054METAR GVBA 061600Z 06012KT 9000 NSC 31/20 Q1013 NOSIG;","Q01    003SCCGA1"
"08594499999","2010-11-06T17:00:00","4","16.136531","-22.888897","21.03","BOA VISTA RABIL, CV","FM-15","GVBA ","V020","060,1,N,0062,1","22000,1,9,N","009000,1,N,1","+0310,1","+0210,1","99999,9",,,,"00,99,1,99,9,99,9,99999,9,99,9,99,9","10129,1,99999,9",,,,"MET054METAR GVBA 061700Z 06012KT 9000 NSC 31/21 Q1013 NOSIG;","Q01    003SCCGA1"
"08594499999","2010-11-06T18:00:00","4","16.136531","-22.888897","21.03","BOA VISTA RABIL, CV","FM-15","GVBA ","V020","060,1,N,0041,1","22000,1,9,N","009000,1,N,1","+0290,1","+0220,1","99999,9",,,,"00,99,1,99,9,99,9,99999,9,99,9,99,9","10129,1,99999,9",,,,"MET054METAR GVBA 061800Z 06008KT 9000 NSC 29/22 Q1013 NOSIG;","Q01    003SCCGA1"
"08594499999","2010-11-06T19:00:00","4","16.136531","-22.888897","21.03","BOA VISTA RABIL, CV","FM-15","GVBA ","V020","060,1,N,0031,1","22000,1,9,N","009000,1,N,1","+0270,1","+0220,1","99999,9",,,,"00,99,1,99,9,99,9,99999,9,99,9,99,9","10139,1,99999,9",,,,"MET054METAR GVBA 061900Z 06006KT 9000 NSC 27/22 Q1014 NOSIG;","Q01    003SCCGA1"
"08594499999","2010-11-07T08:00:00","4","16.136531","-22.888897","21.03","BOA VISTA RABIL, CV","FM-15","GVBA ","V020","070,1,N,0021,1","22000,1,9,N","009000,1,N,1","+0240,1","+0220,1","99999,9","02,5,+00450,1,99,9",,,"02,99,1,99,9,99,9,99999,9,99,9,99,9","10139,1,99999,9",,,,"MET057METAR GVBA 070800Z 07004KT 9000 FEW015 24/22 Q1014 NOSIG;",
"08594499999","2010-11-07T09:00:00","4","16.136531","-22.888897","21.03","BOA VISTA RABIL, CV","FM-15","GVBA ","V020","050,1,N,0041,1","22000,1,9,N","009000,1,N,1","+0260,1","+0230,1","99999,9","02,5,+00450,1,99,9",,,"02,99,1,99,9,99,9,99999,9,99,9,99,9","10149,1,99999,9",,,,"MET057METAR GVBA 070900Z 05008KT 9000 FEW015 26/23 Q1015 NOSIG;",
"08594499999","2010-11-07T10:00:00","4","16.136531","-22.888897","21.03","BOA VISTA RABIL, CV","FM-15","GVBA ","V020","040,1,N,0051,1","22000,1,9,N","011265,1,N,1","+0280,1","+0230,1","99999,9","02,5,+00450,1,99,9",,,"02,99,1,99,9,99,9,99999,9,99,9,99,9","10149,1,99999,9",,,,"MET057METAR GVBA 071000Z 04010KT 9999 FEW015 28/23 Q1015 NOSIG;",
"08594499999","2010-11-07T11:00:00","4","16.136531","-22.888897","21.03","BOA VISTA RABIL, CV","FM-15","GVBA ","V020","040,1,N,0072,1","22000,1,9,N","011265,1,N,1","+0290,1","+0220,1","99999,9","02,5,+00450,1,99,9",,,"02,99,1,99,9,99,9,99999,9,99,9,99,9","10149,1,99999,9",,,,"MET057METAR GVBA 071100Z 04014KT 9999 FEW015 29/22 Q1015 NOSIG;",
"08594499999","2010-11-07T12:00:00","4","16.136531","-22.888897","21.03","BOA VISTA RABIL, CV","FM-15","GVBA ","V020","020,1,N,0072,1","22000,1,9,N","011265,1,N,1","+0290,1","+0230,1","99999,9","02,5,+00450,1,99,9",,,"02,99,1,99,9,99,9,99999,9,99,9,99,9","10149,1,99999,9",,,,"MET057METAR GVBA 071200Z 02014KT 9999 FEW015 29/23 Q1015 NOSIG;",
"08594499999","2010-11-07T13:00:00","4","16.136531","-22.888897","21.03","BOA VISTA RABIL, CV","FM-15","GVBA ","V020","040,1,N,0082,1","22000,1,9,N","011265,1,N,1","+0300,1","+0220,1","99999,9","02,5,+00450,1,99,9",,,"02,99,1,99,9,99,9,99999,9,99,9,99,9","10139,1,99999,9",,,,"MET057METAR GVBA 071300Z 04016KT 9999 FEW015 30/22 Q1014 NOSIG;",
"08594499999","2010-11-07T14:00:00","4","16.136531","-22.888897","21.03","BOA VISTA RABIL, CV","FM-15","GVBA ","V020","050,1,N,0082,1","22000,1,9,N","011265,1,N,1","+0300,1","+0220,1","99999,9","02,5,+00450,1,99,9",,,"02,99,1,99,9,99,9,99999,9,99,9,99,9","10129,1,99999,9",,,,"MET057METAR GVBA 071400Z 05016KT 9999 FEW015 30/22 Q1013 NOSIG;",
"08594499999","2010-11-07T15:00:00","4","16.136531","-22.888897","21.03","BOA VISTA RABIL, CV","FM-15","GVBA ","V020","030,1,N,0082,1","22000,1,9,N","011265,1,N,1","+0300,1","+0220,1","99999,9","02,5,+00450,1,99,9",,,"02,99,1,99,9,99,9,99999,9,99,9,99,9","10119,1,99999,9",,,,"MET057METAR GVBA 071500Z 03016KT 9999 FEW015 30/22 Q1012 NOSIG;",
"08594499999","2010-11-07T16:00:00","4","16.136531","-22.888897","21.03","BOA VISTA RABIL, CV","FM-15","GVBA ","V020","040,1,N,0067,1","22000,1,9,N","011265,1,N,1","+0300,1","+0220,1","99999,9","02,5,+00450,1,99,9",,,"02,99,1,99,9,99,9,99999,9,99,9,99,9","10119,1,99999,9",,,,"MET057METAR GVBA 071600Z 04013KT 9999 FEW015 30/22 Q1012 NOSIG;",
"08594499999","2010-11-07T18:00:00","4","16.136531","-22.888897","21.03","BOA VISTA RABIL, CV","FM-15","GVBA ","V020","040,1,N,0057,1","22000,1,9,N","011265,1,N,1","+0280,1","+0220,1","99999,9","02,5,+00450,1,99,9",,,"02,99,1,99,9,99,9,99999,9,99,9,99,9","10119,1,99999,9",,,,"MET057METAR GVBA 071800Z 04011KT 9999 FEW015 28/22 Q1012 NOSIG;",
"08594499999","2010-11-07T19:00:00","4","16.136531","-22.888897","21.03","BOA VISTA RABIL, CV","FM-15","GVBA ","V020","050,1,N,0046,1","22000,1,9,N","011265,1,N,1","+0270,1","+0220,1","99999,9","02,5,+00450,1,99,9",,,"02,99,1,99,9,99,9,99999,9,99,9,99,9","10119,1,99999,9",,,,"MET057METAR GVBA 071900Z 05009KT 9999 FEW015 27/22 Q1012 NOSIG;",
"08594499999","2010-11-08T08:00:00","4","16.136531","-22.888897","21.03","BOA VISTA RABIL, CV","FM-15","GVBA ","V020","040,1,N,0021,1","22000,1,9,N","011265,1,N,1","+0230,1","+0200,1","99999,9","04,5,+00450,1,99,9",,,"04,99,1,99,9,99,9,99999,9,99,9,99,9","10119,1,99999,9",,,,"MET057METAR GVBA 080800Z 04004KT 9999 SCT015 23/20 Q1012 NOSIG;",
"08594499999","2010-11-08T09:00:00","4","16.136531","-22.888897","21.03","BOA VISTA RABIL, CV","FM-15","GVBA ","V020","020,1,N,0036,1","99999,9,C,N","011265,1,N,1","+0250,1","+0200,1","99999,9","04,5,+00450,1,99,9","04,5,+06000,1,99,9",,"04,99,1,99,9,99,9,99999,9,99,9,99,9","10119,1,99999,9",,,,"MET064METAR GVBA 080900Z 02007KT 9999 SCT015 SCT200 25/20 Q1012 NOSIG;","P01 060003SCOCIG"
"08594499999","2010-11-08T10:00:00","4","16.136531","-22.888897","21.03","BOA VISTA RABIL, CV","FM-15","GVBA ","V020","030,1,N,0051,1","06000,1,C,N","011265,1,N,1","+0270,1","+0200,1","99999,9","04,5,+00450,1,99,9","07,5,+06000,1,99,9",,"07,99,1,99,9,99,9,99999,9,99,9,99,9","10129,1,99999,9",,,,"MET064METAR GVBA 081000Z 03010KT 9999 SCT015 BKN200 27/20 Q1013 NOSIG;",
"08594499999","2010-11-08T11:00:00","4","16.136531","-22.888897","21.03","BOA VISTA RABIL, CV","FM-15","GVBA ","V020","010,1,N,0062,1","00450,1,C,N","011265,1,N,1","+0270,1","+0200,1","99999,9","07,5,+00450,1,99,9","04,5,+06000,1,99,9",,,"10129,1,99999,9",,,,"MET064METAR GVBA 081100Z 01012KT 9999 BKN015 SCT200 27/20 Q1013 NOSIG;","Q01+000042SCOTCV"
"08594499999","2010-11-08T12:00:00","4","16.136531","-22.888897","21.03","BOA VISTA RABIL, CV","FM-15","GVBA ","V020","020,1,N,0051,1","00450,1,C,N","011265,1,N,1","+0280,1","+0200,1","99999,9","07,5,+00450,1,99,9",,,"07,99,1,99,9,99,9,99999,9,99,9,99,9","10119,1,99999,9",,,,"MET057METAR GVBA 081200Z 02010KT 9999 BKN015 28/20 Q1012 NOSIG;",
"08594499999","2010-11-08T13:00:00","4","16.136531","-22.888897","21.03","BOA VISTA RABIL, CV","FM-15","GVBA ","V020","020,1,N,0041,1","22000,1,9,N","011265,1,N,1","+0300,1","+0190,1","99999,9","04,5,+00450,1,99,9",,,"04,99,1,99,9,99,9,99999,9,99,9,99,9","10119,1,99999,9",,,,"MET057METAR GVBA 081300Z 02008KT 9999 SCT015 30/19 Q1012 NOSIG;",
"08594499999","2010-11-08T14:00:00","4","16.136531","-22.888897","21.03","BOA VISTA RABIL, CV","FM-15","GVBA ","V020","010,1,N,0051,1","22000,1,9,N","011265,1,N,1","+0300,1","+0190,1","99999,9","02,5,+00450,1,99,9",,,"02,99,1,99,9,99,9,99999,9,99,9,99,9","10108,1,99999,9",,,,"MET057METAR GVBA 081400Z 01010KT 9999 FEW015 30/19 Q1011 NOSIG;",
"08594499999","2010-11-08T15:00:00","4","16.136531","-22.888897","21.03","BOA VISTA RABIL, CV","FM-15","GVBA ","V020","340,1,N,0041,1","22000,1,9,N","011265,1,N,1","+0300,1","+0200,1","99999,9","04,5,+00450,1,99,9",,,"04,99,1,99,9,99,9,99999,9,99,9,99,9","10102,1,99999,9",,,,"MET057METAR GVBA 081500Z 34008KT 9999 SCT015 30/20 Q1010 NOSIG;",
"08594499999","2010-11-08T16:00:00","4","16.136531","-22.888897","21.03","BOA VISTA RABIL, CV","FM-15","GVBA ","V020","360,1,N,0031,1","22000,1,9,N","011265,1,N,1","+0290,1","+0200,1","99999,9","04,5,+00450,1,99,9",,,"04,99,1,99,9,99,9,99999,9,99,9,99,9","10091,1,99999,9",,,,"MET057METAR GVBA 081600Z 36006KT 9999 SCT015 29/20 Q1009 NOSIG;",
"08594499999","2010-11-08T17:00:00","4","16.136531","-22.888897","21.03","BOA VISTA RABIL, CV","FM-15","GVBA ","V020","010,1,N,0026,1","22000,1,9,N","011265,1,N,1","+0290,1","+0200,1","99999,9","04,5,+00450,1,99,9",,,"04,99,1,99,9,99,9,99999,9,99,9,99,9","10091,1,99999,9",,,,"MET057METAR GVBA 081700Z 01005KT 9999 SCT015 29/20 Q1009 NOSIG;",
"08594499999","2010-11-08T18:00:00","4","16.136531","-22.888897","21.03","BOA VISTA RABIL, CV","FM-15","GVBA ","V020","360,1,N,0026,1","22000,1,9,N","011265,1,N,1","+0280,1","+0200,1","99999,9","02,5,+00450,1,99,9",,,"02,99,1,99,9,99,9,99999,9,99,9,99,9","10091,1,99999,9",,,,"MET057METAR GVBA 081800Z 36005KT 9999 FEW015 28/20 Q1009 NOSIG;",
"08594499999","2010-11-08T19:00:00","4","16.136531","-22.888897","21.03","BOA VISTA RABIL, CV","FM-15","GVBA ","V020","350,1,N,0015,1","22000,1,9,N","011265,1,N,1","+0260,1","+0200,1","99999,9","02,5,+00450,1,99,9",,,"02,99,1,99,9,99,9,99999,9,99,9,99,9","10102,1,99999,9",,,,"MET057METAR GVBA 081900Z 35003KT 9999 FEW015 26/20 Q1010 NOSIG;",
"08594499999","2010-11-09T08:00:00","4","16.136531","-22.888897","21.03","BOA VISTA RABIL, CV","FM-15","GVBA ","V020","999,9,C,0000,1","06000,1,C,N","011265,1,N,1","+0230,1","+0190,1","99999,9","02,5,+00450,1,99,9","07,5,+06000,1,99,9",,"07,99,1,99,9,99,9,99999,9,99,9,99,9","10102,1,99999,9",,,,"MET064METAR GVBA 090800Z 00000KT 9999 FEW015 BKN200 23/19 Q1010 NOSIG;",
"08594499999","2010-11-09T09:00:00","4","16.136531","-22.888897","21.03","BOA VISTA RABIL, CV","FM-15","GVBA ","V020","130,1,N,0015,1","03000,1,C,N","011265,1,N,1","+0240,1","+0200,1","99999,9","04,5,+00420,1,99,9","07,5,+03000,1,99,9",,"07,99,1,99,9,99,9,99999,9,99,9,99,9","10108,1,99999,9",,,,"MET064METAR GVBA 090900Z 13003KT 9999 SCT014 BKN100 24/20 Q1011 NOSIG;",
"08594499999","2010-11-09T10:00:00","4","16.136531","-22.888897","21.03","BOA VISTA RABIL, CV","FM-15","GVBA ","V020","999,9,C,0000,1","03000,1,C,N","011265,1,N,1","+0250,1","+0200,1","99999,9","04,5,+00420,1,99,9","07,5,+03000,1,99,9",,"07,99,1,99,9,99,9,99999,9,99,9,99,9","10108,1,99999,9",,,,"MET064METAR GVBA 091000Z 00000KT 9999 SCT014 BKN100 25/20 Q1011 NOSIG;",
"08594499999","2010-11-09T11:00:00","4","16.136531","-22.888897","21.03","BOA VISTA RABIL, CV","FM-15","GVBA ","V020","320,1,N,0031,1","03000,1,C,N","011265,1,N,1","+0270,1","+0190,1","99999,9","04,5,+00450,1,99,9","07,5,+03000,1,99,9",,"07,99,1,99,9,99,9,99999,9,99,9,99,9","10119,1,99999,9",,,,"MET064METAR GVBA 091100Z 32006KT 9999 SCT015 BKN100 27/19 Q1012 NOSIG;",
"08594499999","2010-11-09T12:00:00","4","16.136531","-22.888897","21.03","BOA VISTA RABIL, CV","FM-15","GVBA ","V020","310,1,N,0041,1","03000,1,C,N","011265,1,N,1","+0280,1","+0200,1","99999,9","04,5,+00450,1,99,9","07,5,+03000,1,99,9",,"07,99,1,99,9,99,9,99999,9,99,9,99,9","10108,1,99999,9",,,,"MET064METAR GVBA 091200Z 31008KT 9999 SCT015 BKN100 28/20 Q1011 NOSIG;",
"08594499999","2010-11-09T13:00:00","4","16.136531","-22.888897","21.03","BOA VISTA RABIL, CV","FM-15","GVBA ","V020","310,1,N,0031,1","99999,9,C,N","011265,1,N,1","+0290,1","+0200,1","99999,9","02,5,+00450,1,99,9","04,5,+03000,1,99,9",,"04,99,1,99,9,99,9,99999,9,99,9,99,9","10102,1,99999,9",,,,"MET064METAR GVBA 091300Z 31006KT 9999 FEW015 SCT100 29/20 Q1010 NOSIG;","P01 030003SCOCIG"
"08594499999","2010-11-09T14:00:00","4","16.136531","-22.888897","21.03","BOA VISTA RABIL, CV","FM-15","GVBA ","V020","300,1,N,0026,1","99999,9,C,N","011265,1,N,1","+0290,1","+0200,1","99999,9","02,5,+00450,1,99,9","04,5,+03000,1,99,9",,"04,99,1,99,9,99,9,99999,9,99,9,99,9","10102,1,99999,9",,,,"MET064METAR GVBA 091400Z 30005KT 9999 FEW015 SCT100 29/20 Q1010 NOSIG;","P01 030003SCOCIG"
"08594499999","2010-11-09T15:00:00","4","16.136531","-22.888897","21.03","BOA VISTA RABIL, CV","FM-15","GVBA ","V020","300,1,N,0036,1","22000,1,9,N","011265,1,N,1","+0290,1","+0200,1","99999,9","02,5,+00450,1,99,9",,,"02,99,1,99,9,99,9,99999,9,99,9,99,9","10091,1,99999,9",,,,"MET057METAR GVBA 091500Z 30007KT 9999 FEW015 29/20 Q1009 NOSIG;",
"08594499999","2010-11-09T16:00:00","4","16.136531","-22.888897","21.03","BOA VISTA RABIL, CV","FM-15","GVBA ","V020","270,1,N,0031,1","03000,1,C,N","011265,1,N,1","+0290,1","+0200,1","99999,9","02,5,+00450,1,99,9","07,5,+03000,1,99,9",,"07,99,1,99,9,99,9,99999,9,99,9,99,9","10091,1,99999,9",,,,"MET064METAR GVBA 091600Z 27006KT 9999 FEW015 BKN100 29/20 Q1009 NOSIG;",
"08594499999","2010-11-09T17:00:00","4","16.136531","-22.888897","21.03","BOA VISTA RABIL, CV","FM-15","GVBA ","V020","320,1,N,0036,1","03000,1,C,N","011265,1,N,1","+0270,1","+0200,1","99999,9","02,5,+00450,1,99,9","07,5,+03000,1,99,9",,"07,99,1,99,9,99,9,99999,9,99,9,99,9","10091,1,99999,9",,,,"MET064METAR GVBA 091700Z 32007KT 9999 FEW015 BKN100 27/20 Q1009 NOSIG;",
"08594499999","2010-11-09T18:00:00","4","16.136531","-22.888897","21.03","BOA VISTA RABIL, CV","FM-15","GVBA ","V020","340,1,N,0021,1","99999,9,C,N","011265,1,N,1","+0270,1","+0200,1","99999,9","02,5,+00450,1,99,9","04,5,+03000,1,99,9",,"04,99,1,99,9,99,9,99999,9,99,9,99,9","10091,1,99999,9",,,,"MET064METAR GVBA 091800Z 34004KT 9999 FEW015 SCT100 27/20 Q1009 NOSIG;","P01 030003SCOCIG"
"08594499999","2010-11-09T19:00:00","4","16.136531","-22.888897","21.03","BOA VISTA RABIL, CV","FM-15","GVBA ","V020","999,9,V,0010,1","03000,1,C,N","011265,1,N,1","+0260,1","+0190,1","99999,9","02,5,+00450,1,99,9","07,5,+03000,1,99,9",,"07,99,1,99,9,99,9,99999,9,99,9,99,9","10091,1,99999,9",,,,"MET064METAR GVBA 091900Z VRB02KT 9999 FEW015 BKN100 26/19 Q1009 NOSIG;",
"08594499999","2010-11-10T08:00:00","4","16.136531","-22.888897","21.03","BOA VISTA RABIL, CV","FM-15","GVBA ","V020","999,9,C,0000,1","99999,9,C,N","011265,1,N,1","+0220,1","+0200,1","99999,9","04,5,+00450,1,99,9","04,5,+03000,1,99,9",,"04,99,1,99,9,99,9,99999,9,99,9,99,9","10102,1,99999,9",,,,"MET064METAR GVBA 100800Z 00000KT 9999 SCT015 SCT100 22/20 Q1010 NOSIG;","P01 030003SCOCIG"
"08594499999","2010-11-10T09:00:00","4","16.136531","-22.888897","21.03","BOA VISTA RABIL, CV","FM-15","GVBA ","V020","999,9,C,0000,1","99999,9,C,N","011265,1,N,1","+0260,1","+0210,1","99999,9","02,5,+00450,1,99,9","04,5,+03000,1,99,9",,"04,99,1,99,9,99,9,99999,9,99,9,99,9","10119,1,99999,9",,,,"MET064METAR GVBA 100900Z 00000KT 9999 FEW015 SCT100 26/21 Q1012 NOSIG;","P01 030003SCOCIG"
"08594499999","2010-11-10T10:00:00","4","16.136531","-22.888897","21.03","BOA VISTA RABIL, CV","FM-15","GVBA ","V020","999,9,C,0000,1","22000,1,9,N","011265,1,N,1","+0260,1","+0200,1","99999,9","02,5,+00450,1,99,9",,,"02,99,1,99,9,99,9,99999,9,99,9,99,9","10129,1,99999,9",,,,"MET057METAR GVBA 101000Z 00000KT 9999 FEW015 26/20 Q1013 NOSIG;",
"08594499999","2010-11-10T11:00:00","4","16.136531","-22.888897","21.03","BOA VISTA RABIL, CV","FM-15","GVBA ","V020","999,9,V,0010,1","22000,1,9,N","011265,1,N,1","+0300,1","+0200,1","99999,9","04,5,+00450,1,99,9",,,"04,99,1,99,9,99,9,99999,9,99,9,99,9","10129,1,99999,9",,,,"MET057METAR GVBA 101100Z VRB02KT 9999 SCT015 30/20 Q1013 NOSIG;",
"08594499999","2010-11-10T12:00:00","4","16.136531","-22.888897","21.03","BOA VISTA RABIL, CV","FM-15","GVBA ","V020","030,1,N,0041,1","00450,1,C,N","011265,1,N,1","+0280,1","+0210,1","99999,9","07,5,+00450,1,99,9",,,"07,99,1,99,9,99,9,99999,9,99,9,99,9","10129,1,99999,9",,,,"MET057METAR GVBA 101200Z 03008KT 9999 BKN015 28/21 Q1013 NOSIG;",
"08594499999","2010-11-10T13:00:00","4","16.136531","-22.888897","21.03","BOA VISTA RABIL, CV","FM-15","GVBA ","V020","030,1,N,0036,1","00450,1,C,N","011265,1,N,1","+0270,1","+0210,1","99999,9","02,5,+00390,1,99,9","07,5,+00450,1,99,9",,"07,99,1,99,9,99,9,99999,9,99,9,99,9","10129,1,99999,9","51,1",,,"MET073METAR GVBA 101300Z 03007KT 9999 -DZ FEW013 BKN015 27/21 Q1013 RERA NOSIG;",
"08594499999","2010-11-10T14:00:00","4","16.136531","-22.888897","21.03","BOA VISTA RABIL, CV","FM-15","GVBA ","V020","050,1,N,0036,1","00510,1,C,N","011265,1,N,1","+0290,1","+0220,1","99999,9","04,5,+00450,1,02,1","07,5,+00510,1,99,9",,"07,99,1,99,9,99,9,99999,9,99,9,99,9","10119,1,99999,9",,,,"MET067METAR GVBA 101400Z 05007KT 9999 SCT015TCU BKN017 29/22 Q1012 NOSIG;",
"08594499999","2010-11-10T15:00:00","4","16.136531","-22.888897","21.03","BOA VISTA RABIL, CV","FM-15","GVBA ","V020","030,1,N,0041,1","00510,1,C,N","011265,1,N,1","+0280,1","+0220,1","99999,9","02,5,+00450,1,02,1","07,5,+00510,1,99,9",,"07,99,1,99,9,99,9,99999,9,99,9,99,9","10119,1,99999,9",,,,"MET067METAR GVBA 101500Z 03008KT 9999 FEW015TCU BKN017 28/22 Q1012 NOSIG;",
"08594499999","2010-11-10T16:00:00","4","16.136531","-22.888897","21.03","BOA VISTA RABIL, CV","FM-15","GVBA ","V020","090,1,N,0041,1","00510,1,C,N","011265,1,N,1","+0290,1","+0220,1","99999,9","04,5,+00450,1,02,1","07,5,+00510,1,99,9",,"07,99,1,99,9,99,9,99999,9,99,9,99,9","10119,1,99999,9",,,,"MET067METAR GVBA 101600Z 09008KT 9999 SCT015TCU BKN017 29/22 Q1012 NOSIG;",
"08594499999","2010-11-10T17:00:00","4","16.136531","-22.888897","21.03","BOA VISTA RABIL, CV","FM-15","GVBA ","V020","070,1,N,0031,1","00450,1,C,N","011265,1,N,1","+0280,1","+0220,1","99999,9","07,5,+00450,1,99,9","04,5,+06000,1,99,9",,,"10108,1,99999,9",,,,"MET064METAR GVBA 101700Z 07006KT 9999 BKN015 SCT200 28/22 Q1011 NOSIG;","Q01+000042SCOTCV"
"08594499999","2010-11-10T18:00:00","4","16.136531","-22.888897","21.03","BOA VISTA RABIL, CV","FM-15","GVBA ","V020","060,1,N,0031,1","00450,1,C,N","011265,1,N,1","+0270,1","+0210,1","99999,9","07,5,+00450,1,99,9","04,5,+06000,1,99,9",,,"10119,1,99999,9",,,,"MET064METAR GVBA 101800Z 06006KT 9999 BKN015 SCT200 27/21 Q1012 NOSIG;","Q01+000042SCOTCV"
"08594499999","2010-11-10T19:00:00","4","16.136531","-22.888897","21.03","BOA VISTA RABIL, CV","FM-15","GVBA ","V020","070,1,N,0031,1","06000,1,C,N","011265,1,N,1","+0270,1","+0210,1","99999,9","04,5,+00450,1,99,9","07,5,+06000,1,99,9",,"07,99,1,99,9,99,9,99999,9,99,9,99,9","10119,1,99999,9",,,,"MET064METAR GVBA 101900Z 07006KT 9999 SCT015 BKN200 27/21 Q1012 NOSIG;",
"08594499999","2010-11-11T08:00:00","4","16.136531","-22.888897","21.03","BOA VISTA RABIL, CV","FM-15","GVBA ","V020","999,9,C,0000,1","99999,9,C,N","011265,1,N,1","+0240,1","+0220,1","99999,9","02,5,+00420,1,02,1","04,5,+06000,1,99,9",,"04,99,1,99,9,99,9,99999,9,99,9,99,9","10149,1,99999,9",,,,"MET067METAR GVBA 110800Z 00000KT 9999 FEW014TCU SCT200 24/22 Q1015 NOSIG;","P01 060003SCOCIG"
"08594499999","2010-11-11T09:00:00","4","16.136531","-22.888897","21.03","BOA VISTA RABIL, CV","FM-15","GVBA ","V020","999,9,V,0015,1","06000,1,C,N","011265,1,N,1","+0250,1","+0230,1","99999,9","02,5,+00420,1,02,1","07,5,+06000,1,99,9",,"07,99,1,99,9,99,9,99999,9,99,9,99,9","10159,1,99999,9",,,,"MET067METAR GVBA 110900Z VRB03KT 9999 FEW014TCU BKN200 25/23 Q1016 NOSIG;",
"08594499999","2010-11-11T10:00:00","4","16.136531","-22.888897","21.03","BOA VISTA RABIL, CV","FM-15","GVBA ","V020","070,1,N,0031,1","06000,1,C,N","011265,1,N,1","+0280,1","+0230,1","99999,9","04,5,+00420,1,99,9","07,5,+06000,1,99,9",,"07,99,1,99,9,99,9,99999,9,99,9,99,9","10159,1,99999,9",,,,"MET064METAR GVBA 111000Z 07006KT 9999 SCT014 BKN200 28/23 Q1016 NOSIG;",
"08594499999","2010-11-11T11:00:00","4","16.136531","-22.888897","21.03","BOA VISTA RABIL, CV","FM-15","GVBA ","V020","090,1,N,0051,1","06000,1,C,N","011265,1,N,1","+0290,1","+0230,1","99999,9","04,5,+00420,1,99,9","07,5,+06000,1,99,9",,"07,99,1,99,9,99,9,99999,9,99,9,99,9","10169,1,99999,9",,,,"MET064METAR GVBA 111100Z 09010KT 9999 SCT014 BKN200 29/23 Q1017 NOSIG;",
"08594499999","2010-11-11T12:00:00","4","16.136531","-22.888897","21.03","BOA VISTA RABIL, CV","FM-15","GVBA ","V020","080,1,N,0051,1","06000,1,C,N","011265,1,N,1","+0310,1","+0220,1","99999,9","02,5,+00450,1,99,9","07,5,+06000,1,99,9",,"07,99,1,99,9,99,9,99999,9,99,9,99,9","10159,1,99999,9",,,,"MET064METAR GVBA 111200Z 08010KT 9999 FEW015 BKN200 31/22 Q1016 NOSIG;",
"08594499999","2010-11-11T13:00:00","4","16.136531","-22.888897","21.03","BOA VISTA RABIL, CV","FM-15","GVBA ","V020","110,1,N,0051,1","06000,1,C,N","011265,1,N,1","+0300,1","+0210,1","99999,9","02,5,+00450,1,99,9","07,5,+06000,1,99,9",,"07,99,1,99,9,99,9,99999,9,99,9,99,9","10159,1,99999,9",,,,"MET064METAR GVBA 111300Z 11010KT 9999 FEW015 BKN200 30/21 Q1016 NOSIG;",
"08594499999","2010-11-11T14:00:00","4","16.136531","-22.888897","21.03","BOA VISTA RABIL, CV","FM-15","GVBA ","V020","110,1,N,0031,1","06000,1,C,N","011265,1,N,1","+0310,1","+0210,1","99999,9","02,5,+00450,1,99,9","07,5,+06000,1,99,9",,"07,99,1,99,9,99,9,99999,9,99,9,99,9","10159,1,99999,9",,,,"MET064METAR GVBA 111400Z 11006KT 9999 FEW015 BKN200 31/21 Q1016 NOSIG;",
"08594499999","2010-11-11T15:00:00","4","16.136531","-22.888897","21.03","BOA VISTA RABIL, CV","FM-15","GVBA ","V020","100,1,N,0031,1","06000,1,C,N","011265,1,N,1","+0320,1","+0210,1","99999,9","02,5,+00450,1,99,9","07,5,+06000,1,99,9",,"07,99,1,99,9,99,9,99999,9,99,9,99,9","10149,1,99999,9",,,,"MET064METAR GVBA 111500Z 10006KT 9999 FEW015 BKN200 32/21 Q1015 NOSIG;",
"08594499999","2010-11-11T16:00:00","4","16.136531","-22.888897","21.03","BOA VISTA RABIL, CV","FM-15","GVBA ","V020","080,1,N,0036,1","06000,1,C,N","011265,1,N,1","+0320,1","+0200,1","99999,9","02,5,+00450,1,99,9","07,5,+06000,1,99,9",,"07,99,1,99,9,99,9,99999,9,99,9,99,9","10149,1,99999,9",,,,"MET064METAR GVBA 111600Z 08007KT 9999 FEW015 BKN200 32/20 Q1015 NOSIG;",
"08594499999","2010-11-11T19:00:00","4","16.136531","-22.888897","21.03","BOA VISTA RABIL, CV","FM-15","GVBA ","V020","090,1,N,0036,1","03000,1,C,N","011265,1,N,1","+0280,1","+0230,1","99999,9","02,5,+00450,1,99,9","04,5,+03000,1,99,9","07,5,+06000,1,99,9","07,99,1,99,9,99,9,99999,9,99,9,99,9","10159,1,99999,9",,,,"MET071METAR GVBA 111900Z 09007KT 9999 FEW015 SCT100 BKN200 28/23 Q1016 NOSIG;",
"08594499999","2010-11-12T08:00:00","4","16.136531","-22.888897","21.03","BOA VISTA RABIL, CV","FM-15","GVBA ","V020","070,1,N,0026,1","03000,1,C,N","011265,1,N,1","+0260,1","+0240,1","99999,9","02,5,+00390,1,99,9","04,5,+03000,1,99,9","07,5,+06000,1,99,9","07,99,1,99,9,99,9,99999,9,99,9,99,9","10159,1,99999,9",,,,"MET071METAR GVBA 120800Z 07005KT 9999 FEW013 SCT100 BKN200 26/24 Q1016 NOSIG;",
"08594499999","2010-11-12T09:00:00","4","16.136531","-22.888897","21.03","BOA VISTA RABIL, CV","FM-15","GVBA ","V020","050,1,N,0031,1","03000,1,C,N","011265,1,N,1","+0270,1","+0250,1","99999,9","02,5,+00390,1,99,9","04,5,+03000,1,99,9","07,5,+06000,1,99,9","07,99,1,99,9,99,9,99999,9,99,9,99,9","10169,1,99999,9",,,,"MET071METAR GVBA 120900Z 05006KT 9999 FEW013 SCT100 BKN200 27/25 Q1017 NOSIG;",
"08594499999","2010-11-12T10:00:00","4","16.136531","-22.888897","21.03","BOA VISTA RABIL, CV","FM-15","GVBA ","V020","050,1,N,0051,1","03000,1,C,N","011265,1,N,1","+0280,1","+0250,1","99999,9","02,5,+00420,1,99,9","04,5,+03000,1,99,9","07,5,+06000,1,99,9","07,99,1,99,9,99,9,99999,9,99,9,99,9","10169,1,99999,9",,,,"MET071METAR GVBA 121000Z 05010KT 9999 FEW014 SCT100 BKN200 28/25 Q1017 NOSIG;",
"08594499999","2010-11-12T11:00:00","4","16.136531","-22.888897","21.03","BOA VISTA RABIL, CV","FM-15","GVBA ","V020","050,1,N,0062,1","03000,1,C,N","011265,1,N,1","+0300,1","+0230,1","99999,9","02,5,+00450,1,99,9","04,5,+03000,1,99,9","07,5,+06000,1,99,9","07,99,1,99,9,99,9,99999,9,99,9,99,9","10169,1,99999,9",,,,"MET071METAR GVBA 121100Z 05012KT 9999 FEW015 SCT100 BKN200 30/23 Q1017 NOSIG;",
"08594499999","2010-11-12T12:00:00","4","16.136531","-22.888897","21.03","BOA VISTA RABIL, CV","FM-15","GVBA ","V020","060,1,N,0062,1","03000,1,C,N","011265,1,N,1","+0300,1","+0230,1","99999,9","02,5,+00450,1,99,9","04,5,+03000,1,99,9","07,5,+06000,1,99,9","07,99,1,99,9,99,9,99999,9,99,9,99,9","10169,1,99999,9",,,,"MET071METAR GVBA 121200Z 06012KT 9999 FEW015 SCT100 BKN200 30/23 Q1017 NOSIG;",
"08594499999","2010-11-12T13:00:00","4","16.136531","-22.888897","21.03","BOA VISTA RABIL, CV","FM-15","GVBA ","V020","040,1,N,0057,1","03000,1,C,N","011265,1,N,1","+0300,1","+0220,1","99999,9","02,5,+00450,1,99,9","07,5,+03000,1,99,9",,"07,99,1,99,9,99,9,99999,9,99,9,99,9","10159,1,99999,9",,,,"MET064METAR GVBA 121300Z 04011KT 9999 FEW015 BKN100 30/22 Q1016 NOSIG;",
"08594499999","2010-11-12T14:00:00","4","16.136531","-22.888897","21.03","BOA VISTA RABIL, CV","FM-15","GVBA ","V020","040,1,N,0072,1","03000,1,C,N","011265,1,N,1","+0310,1","+0220,1","99999,9","02,5,+00450,1,99,9","07,5,+03000,1,99,9",,"07,99,1,99,9,99,9,99999,9,99,9,99,9","10149,1,99999,9",,,,"MET064METAR GVBA 121400Z 04014KT 9999 FEW015 BKN100 31/22 Q1015 NOSIG;",
"08594499999","2010-11-12T15:00:00","4","16.136531","-22.888897","21.03","BOA VISTA RABIL, CV","FM-15","GVBA ","V020","030,1,N,0077,1","03000,1,C,N","011265,1,N,1","+0310,1","+0230,1","99999,9","02,5,+00450,1,99,9","04,5,+03000,1,99,9","07,5,+06000,1,99,9","07,99,1,99,9,99,9,99999,9,99,9,99,9","10139,1,99999,9",,,,"MET071METAR GVBA 121500Z 03015KT 9999 FEW015 SCT100 BKN200 31/23 Q1014 NOSIG;",
"08594499999","2010-11-12T16:00:00","4","16.136531","-22.888897","21.03","BOA VISTA RABIL, CV","FM-15","GVBA ","V020","040,1,N,0077,1","06000,1,C,N","011265,1,N,1","+0320,1","+0220,1","99999,9","02,5,+00450,1,99,9","07,5,+06000,1,99,9",,"07,99,1,99,9,99,9,99999,9,99,9,99,9","10139,1,99999,9",,,,"MET064METAR GVBA 121600Z 04015KT 9999 FEW015 BKN200 32/22 Q1014 NOSIG;",
"08594499999","2010-11-12T17:00:00","4","16.136531","-22.888897","21.03","BOA VISTA RABIL, CV","FM-15","GVBA ","V020","030,1,N,0072,1","99999,9,C,N","011265,1,N,1","+0290,1","+0220,1","99999,9","02,5,+00450,1,99,9","04,5,+03000,1,99,9",,"04,99,1,99,9,99,9,99999,9,99,9,99,9","10139,1,99999,9",,,,"MET064METAR GVBA 121700Z 03014KT 9999 FEW015 SCT100 29/22 Q1014 NOSIG;","P01 030003SCOCIG"
"08594499999","2010-11-12T18:00:00","4","16.136531","-22.888897","21.03","BOA VISTA RABIL, CV","FM-15","GVBA ","V020","020,1,N,0062,1","06000,1,C,N","011265,1,N,1","+0280,1","+0230,1","99999,9","02,5,+00450,1,99,9","07,5,+06000,1,99,9",,"07,99,1,99,9,99,9,99999,9,99,9,99,9","10139,1,99999,9",,,,"MET064METAR GVBA 121800Z 02012KT 9999 FEW015 BKN200 28/23 Q1014 NOSIG;",
"08594499999","2010-11-12T19:00:00","4","16.136531","-22.888897","21.03","BOA VISTA RABIL, CV","FM-15","GVBA ","V020","020,1,N,0067,1","06000,1,C,N","011265,1,N,1","+0270,1","+0230,1","99999,9","02,5,+00450,1,99,9","08,5,+06000,1,99,9",,"08,99,1,99,9,99,9,99999,9,99,9,99,9","10139,1,99999,9",,,,"MET064METAR GVBA 121900Z 02013KT 9999 FEW015 OVC200 27/23 Q1014 NOSIG;",
"08594499999","2010-11-13T08:00:00","4","16.136531","-22.888897","21.03","BOA VISTA RABIL, CV","FM-15","GVBA ","V020","030,1,N,0077,1","03000,1,C,N","011265,1,N,1","+0260,1","+0230,1","99999,9","02,5,+00450,1,99,9","07,5,+03000,1,99,9",,"07,99,1,99,9,99,9,99999,9,99,9,99,9","10129,1,99999,9",,,,"MET064METAR GVBA 130800Z 03015KT 9999 FEW015 BKN100 26/23 Q1013 NOSIG;",
"08594499999","2010-11-13T09:00:00","4","16.136531","-22.888897","21.03","BOA VISTA RABIL, CV","FM-15","GVBA ","V020","030,1,N,0082,1","03000,1,C,N","011265,1,N,1","+0270,1","+0220,1","99999,9","02,5,+00450,1,99,9","07,5,+03000,1,99,9","07,5,+06000,1,99,9","07,99,1,99,9,99,9,99999,9,99,9,99,9","10139,1,99999,9",,,,"MET071METAR GVBA 130900Z 03016KT 9999 FEW015 BKN100 BKN200 27/22 Q1014 NOSIG;",
"08594499999","2010-11-13T10:00:00","4","16.136531","-22.888897","21.03","BOA VISTA RABIL, CV","FM-15","GVBA ","V020","050,1,N,0087,1","03000,1,C,N","011265,1,N,1","+0280,1","+0210,1","99999,9","02,5,+00450,1,99,9","07,5,+03000,1,99,9",,"07,99,1,99,9,99,9,99999,9,99,9,99,9","10139,1,99999,9",,,,"MET064METAR GVBA 131000Z 05017KT 9999 FEW015 BKN100 28/21 Q1014 NOSIG;",
"08594499999","2010-11-13T11:00:00","4","16.136531","-22.888897","21.03","BOA VISTA RABIL, CV","FM-15","GVBA ","V020","050,1,N,0098,1","03000,1,C,N","011265,1,N,1","+0290,1","+0210,1","99999,9","02,5,+00450,1,99,9","07,5,+03000,1,99,9",,"07,99,1,99,9,99,9,99999,9,99,9,99,9","10149,1,99999,9",,,,"MET064METAR GVBA 131100Z 05019KT 9999 FEW015 BKN100 29/21 Q1015 NOSIG;",
"08594499999","2010-11-13T12:00:00","4","16.136531","-22.888897","21.03","BOA VISTA RABIL, CV","FM-15","GVBA ","V020","060,1,N,0098,1","03000,1,C,N","011265,1,N,1","+0300,1","+0210,1","99999,9","02,5,+00450,1,99,9","04,5,+03000,1,99,9","07,5,+06000,1,99,9","07,99,1,99,9,99,9,99999,9,99,9,99,9","10139,1,99999,9",,,,"MET071METAR GVBA 131200Z 06019KT 9999 FEW015 SCT100 BKN200 30/21 Q1014 NOSIG;",
"08594499999","2010-11-13T13:00:00","4","16.136531","-22.888897","21.03","BOA VISTA RABIL, CV","FM-15","GVBA ","V020","060,1,N,0093,1","03000,1,C,N","011265,1,N,1","+0310,1","+0190,1","99999,9","02,5,+00450,1,99,9","04,5,+03000,1,99,9","07,5,+06000,1,99,9","07,99,1,99,9,99,9,99999,9,99,9,99,9","10129,1,99999,9",,,,"MET071METAR GVBA 131300Z 06018KT 9999 FEW015 SCT100 BKN200 31/19 Q1013 NOSIG;",
"08594499999","2010-11-13T15:00:00","4","16.136531","-22.888897","21.03","BOA VISTA RABIL, CV","FM-15","GVBA ","V020","030,1,N,0072,1","03000,1,C,N","011265,1,N,1","+0290,1","+0220,1","99999,9","02,5,+00450,1,99,9","04,5,+03000,1,99,9","07,5,+06000,1,99,9","07,99,1,99,9,99,9,99999,9,99,9,99,9","10119,1,99999,9",,,,"MET071METAR GVBA 131500Z 03014KT 9999 FEW015 SCT100 BKN200 29/22 Q1012 NOSIG;",
"08594499999","2010-11-13T17:00:00","4","16.136531","-22.888897","21.03","BOA VISTA RABIL, CV","FM-15","GVBA ","V020","040,1,N,0062,1","03000,1,C,N","011265,1,N,1","+0280,1","+0220,1","99999,9","02,5,+00450,1,99,9","04,5,+03000,1,99,9","07,5,+06000,1,99,9","07,99,1,99,9,99,9,99999,9,99,9,99,9","10108,1,99999,9",,,,"MET071METAR GVBA 131700Z 04012KT 9999 FEW015 SCT100 BKN200 28/22 Q1011 NOSIG;",
"08594499999","2010-11-13T18:00:00","4","16.136531","-22.888897","21.03","BOA VISTA RABIL, CV","FM-15","GVBA ","V020","050,1,N,0057,1","03000,1,C,N","011265,1,N,1","+0280,1","+0200,1","99999,9","02,5,+00450,1,99,9","07,5,+03000,1,99,9",,"07,99,1,99,9,99,9,99999,9,99,9,99,9","10108,1,99999,9",,,,"MET064METAR GVBA 131800Z 05011KT 9999 FEW015 BKN100 28/20 Q1011 NOSIG;",
"08594499999","2010-11-13T19:00:00","4","16.136531","-22.888897","21.03","BOA VISTA RABIL, CV","FM-15","GVBA ","V020","040,1,N,0051,1","03000,1,C,N","011265,1,N,1","+9999,9","+9999,9","99999,9","02,5,+00450,1,99,9","07,5,+03000,1,99,9",,"07,99,1,99,9,99,9,99999,9,99,9,99,9","10110,1,99999,9",,,,"MET065METAR GVBA 131900Z 04010KT 9999 FEW015 BKN100 27 /20 Q1011 NOSIG;",
"08594499999","2010-11-14T08:00:00","4","16.136531","-22.888897","21.03","BOA VISTA RABIL, CV","FM-15","GVBA ","V020","050,1,N,0046,1","22000,1,9,N","011265,1,N,1","+0240,1","+0210,1","99999,9","04,5,+00450,1,99,9",,,"04,99,1,99,9,99,9,99999,9,99,9,99,9","10119,1,99999,9",,,,"MET057METAR GVBA 140800Z 05009KT 9999 SCT015 24/21 Q1012 NOSIG;",
"08594499999","2010-11-14T09:00:00","4","16.136531","-22.888897","21.03","BOA VISTA RABIL, CV","FM-15","GVBA ","V020","050,1,N,0057,1","22000,1,9,N","011265,1,N,1","+0260,1","+0220,1","99999,9","04,5,+00450,1,99,9",,,"04,99,1,99,9,99,9,99999,9,99,9,99,9","10129,1,99999,9",,,,"MET057METAR GVBA 140900Z 05011KT 9999 SCT015 26/22 Q1013 NOSIG;",
"08594499999","2010-11-14T10:00:00","4","16.136531","-22.888897","21.03","BOA VISTA RABIL, CV","FM-15","GVBA ","V020","060,1,N,0051,1","00450,1,C,N","011265,1,N,1","+0270,1","+0210,1","99999,9","07,5,+00450,1,99,9",,,"07,99,1,99,9,99,9,99999,9,99,9,99,9","10129,1,99999,9",,,,"MET057METAR GVBA 141000Z 06010KT 9999 BKN015 27/21 Q1013 NOSIG;",
"08594499999","2010-11-14T11:00:00","4","16.136531","-22.888897","21.03","BOA VISTA RABIL, CV","FM-15","GVBA ","V020","060,1,N,0067,1","00450,1,C,N","011265,1,N,1","+0280,1","+0210,1","99999,9","07,5,+00450,1,99,9",,,"07,99,1,99,9,99,9,99999,9,99,9,99,9","10129,1,99999,9",,,,"MET057METAR GVBA 141100Z 06013KT 9999 BKN015 28/21 Q1013 NOSIG;",
"08594499999","2010-11-14T12:00:00","4","16.136531","-22.888897","21.03","BOA VISTA RABIL, CV","FM-15","GVBA ","V020","060,1,N,0072,1","22000,1,9,N","011265,1,N,1","+0290,1","+0210,1","99999,9","04,5,+00450,1,99,9",,,"04,99,1,99,9,99,9,99999,9,99,9,99,9","10129,1,99999,9",,,,"MET057METAR GVBA 141200Z 06014KT 9999 SCT015 29/21 Q1013 NOSIG;",
"08594499999","2010-11-14T13:00:00","4","16.136531","-22.888897","21.03","BOA VISTA RABIL, CV","FM-15","GVBA ","V020","060,1,N,0067,1","22000,1,9,N","011265,1,N,1","+0300,1","+0200,1","99999,9","04,5,+00450,1,99,9",,,"04,99,1,99,9,99,9,99999,9,99,9,99,9","10119,1,99999,9",,,,"MET057METAR GVBA 141300Z 06013KT 9999 SCT015 30/20 Q1012 NOSIG;",
"08594499999","2010-11-14T14:00:00","4","16.136531","-22.888897","21.03","BOA VISTA RABIL, CV","FM-15","GVBA ","V020","030,1,N,0087,1","00450,1,C,N","011265,1,N,1","+0300,1","+0210,1","99999,9","07,5,+00450,1,99,9",,,"07,99,1,99,9,99,9,99999,9,99,9,99,9","10108,1,99999,9",,,,"MET057METAR GVBA 141400Z 03017KT 9999 BKN015 30/21 Q1011 NOSIG;",
"08594499999","2010-11-14T15:00:00","4","16.136531","-22.888897","21.03","BOA VISTA RABIL, CV","FM-15","GVBA ","V020","050,1,N,0087,1","00450,1,C,N","011265,1,N,1","+0300,1","+0200,1","99999,9","07,5,+00450,1,99,9",,,"07,99,1,99,9,99,9,99999,9,99,9,99,9","10108,1,99999,9",,,,"MET057METAR GVBA 141500Z 05017KT 9999 BKN015 30/20 Q1011 NOSIG;",
"08594499999","2010-11-14T16:00:00","4","16.136531","-22.888897","21.03","BOA VISTA RABIL, CV","FM-15","GVBA ","V020","050,1,N,0072,1","00450,1,C,N","011265,1,N,1","+0290,1","+0200,1","99999,9","07,5,+00450,1,99,9",,,"07,99,1,99,9,99,9,99999,9,99,9,99,9","10102,1,99999,9",,,,"MET057METAR GVBA 141600Z 05014KT 9999 BKN015 29/20 Q1010 NOSIG;",
"08594499999","2010-11-14T17:00:00","4","16.136531","-22.888897","21.03","BOA VISTA RABIL, CV","FM-15","GVBA ","V020","040,1,N,0077,1","00450,1,C,N","011265,1,N,1","+0280,1","+0200,1","99999,9","07,5,+00450,1,99,9",,,"07,99,1,99,9,99,9,99999,9,99,9,99,9","10102,1,99999,9",,,,"MET057METAR GVBA 141700Z 04015KT 9999 BKN015 28/20 Q1010 NOSIG;",
"08594499999","2010-11-14T18:00:00","4","16.136531","-22.888897","21.03","BOA VISTA RABIL, CV","FM-15","GVBA ","V020","060,1,N,0077,1","00450,1,C,N","011265,1,N,1","+0280,1","+0200,1","99999,9","07,5,+00450,1,99,9",,,"07,99,1,99,9,99,9,99999,9,99,9,99,9","10108,1,99999,9",,,,"MET057METAR GVBA 141800Z 06015KT 9999 BKN015 28/20 Q1011 NOSIG;",
"08594499999","2010-11-14T19:00:00","4","16.136531","-22.888897","21.03","BOA VISTA RABIL, CV","FM-15","GVBA ","V020","040,1,N,0077,1","00450,1,C,N","011265,1,N,1","+0260,1","+0200,1","99999,9","07,5,+00450,1,99,9",,,"07,99,1,99,9,99,9,99999,9,99,9,99,9","10108,1,99999,9",,,,"MET057METAR GVBA 141900Z 04015KT 9999 BKN015 26/20 Q1011 NOSIG;",
"08594499999","2010-11-15T08:00:00","4","16.136531","-22.888897","21.03","BOA VISTA RABIL, CV","FM-15","GVBA ","V020","070,1,N,0021,1","22000,1,9,N","011265,1,N,1","+0220,1","+0180,1","99999,9","04,5,+00450,1,99,9",,,"04,99,1,99,9,99,9,99999,9,99,9,99,9","10139,1,99999,9",,,,"MET057METAR GVBA 150800Z 07004KT 9999 SCT015 22/18 Q1014 NOSIG;",
"08594499999","2010-11-15T09:00:00","4","16.136531","-22.888897","21.03","BOA VISTA RABIL, CV","FM-15","GVBA ","V020","050,1,N,0026,1","22000,1,9,N","011265,1,N,1","+0250,1","+0190,1","99999,9","04,5,+00450,1,99,9",,,"04,99,1,99,9,99,9,99999,9,99,9,99,9","10139,1,99999,9",,,,"MET057METAR GVBA 150900Z 05005KT 9999 SCT015 25/19 Q1014 NOSIG;",
"08594499999","2010-11-15T10:00:00","4","16.136531","-22.888897","21.03","BOA VISTA RABIL, CV","FM-15","GVBA ","V020","040,1,N,0057,1","22000,1,9,N","011265,1,N,1","+0270,1","+0190,1","99999,9","04,5,+00450,1,99,9",,,"04,99,1,99,9,99,9,99999,9,99,9,99,9","10149,1,99999,9",,,,"MET057METAR GVBA 151000Z 04011KT 9999 SCT015 27/19 Q1015 NOSIG;",
"08594499999","2010-11-15T11:00:00","4","16.136531","-22.888897","21.03","BOA VISTA RABIL, CV","FM-15","GVBA ","V020","050,1,N,0057,1","00450,1,C,N","011265,1,N,1","+0280,1","+0190,1","99999,9","07,5,+00450,1,99,9",,,"07,99,1,99,9,99,9,99999,9,99,9,99,9","10149,1,99999,9",,,,"MET057METAR GVBA 151100Z 05011KT 9999 BKN015 28/19 Q1015 NOSIG;",
"08594499999","2010-11-15T12:00:00","4","16.136531","-22.888897","21.03","BOA VISTA RABIL, CV","FM-15","GVBA ","V020","050,1,N,0072,1","00450,1,C,N","011265,1,N,1","+0280,1","+0190,1","99999,9","07,5,+00450,1,99,9",,,"07,99,1,99,9,99,9,99999,9,99,9,99,9","10139,1,99999,9",,,,"MET057METAR GVBA 151200Z 05014KT 9999 BKN015 28/19 Q1014 NOSIG;",
"08594499999","2010-11-15T13:00:00","4","16.136531","-22.888897","21.03","BOA VISTA RABIL, CV","FM-15","GVBA ","V020","040,1,N,0072,1","00450,1,C,N","011265,1,N,1","+0290,1","+0190,1","99999,9","07,5,+00450,1,99,9",,,"07,99,1,99,9,99,9,99999,9,99,9,99,9","10139,1,99999,9",,,,"MET057METAR GVBA 151300Z 04014KT 9999 BKN015 29/19 Q1014 NOSIG;",
"08594499999","2010-11-15T14:00:00","4","16.136531","-22.888897","21.03","BOA VISTA RABIL, CV","FM-15","GVBA ","V020","040,1,N,0072,1","22000,1,9,N","011265,1,N,1","+0290,1","+0180,1","99999,9","04,5,+00450,1,99,9",,,"04,99,1,99,9,99,9,99999,9,99,9,99,9","10129,1,99999,9",,,,"MET057METAR GVBA 151400Z 04014KT 9999 SCT015 29/18 Q1013 NOSIG;",
"08594499999","2010-11-15T15:00:00","4","16.136531","-22.888897","21.03","BOA VISTA RABIL, CV","FM-15","GVBA ","V020","050,1,N,0067,1","00450,1,C,N","011265,1,N,1","+0290,1","+0180,1","99999,9","07,5,+00450,1,99,9",,,"07,99,1,99,9,99,9,99999,9,99,9,99,9","10129,1,99999,9",,,,"MET057METAR GVBA 151500Z 05013KT 9999 BKN015 29/18 Q1013 NOSIG;",
"08594499999","2010-11-15T16:00:00","4","16.136531","-22.888897","21.03","BOA VISTA RABIL, CV","FM-15","GVBA ","V020","050,1,N,0072,1","22000,1,9,N","011265,1,N,1","+0290,1","+0180,1","99999,9","02,5,+00450,1,99,9",,,"02,99,1,99,9,99,9,99999,9,99,9,99,9","10119,1,99999,9",,,,"MET057METAR GVBA 151600Z 05014KT 9999 FEW015 29/18 Q1012 NOSIG;",
"08594499999","2010-11-15T17:00:00","4","16.136531","-22.888897","21.03","BOA VISTA RABIL, CV","FM-15","GVBA ","V020","040,1,N,0067,1","22000,1,9,N","011265,1,N,1","+0280,1","+0180,1","99999,9","02,5,+00450,1,99,9",,,"02,99,1,99,9,99,9,99999,9,99,9,99,9","10119,1,99999,9",,,,"MET057METAR GVBA 151700Z 04013KT 9999 FEW015 28/18 Q1012 NOSIG;",
"08594499999","2010-11-15T18:00:00","4","16.136531","-22.888897","21.03","BOA VISTA RABIL, CV","FM-15","GVBA ","V020","050,1,N,0057,1","22000,1,9,N","011265,1,N,1","+0270,1","+0180,1","99999,9","02,5,+00450,1,99,9",,,"02,99,1,99,9,99,9,99999,9,99,9,99,9","10129,1,99999,9",,,,"MET057METAR GVBA 151800Z 05011KT 9999 FEW015 27/18 Q1013 NOSIG;",
"08594499999","2010-11-15T19:00:00","4","16.136531","-22.888897","21.03","BOA VISTA RABIL, CV","FM-15","GVBA ","V020","050,1,N,0051,1","22000,1,9,N","011265,1,N,1","+0260,1","+0170,1","99999,9","02,5,+00450,1,99,9",,,"02,99,1,99,9,99,9,99999,9,99,9,99,9","10139,1,99999,9",,,,"MET057METAR GVBA 151900Z 05010KT 9999 FEW015 26/17 Q1014 NOSIG;",
"08594499999","2010-11-16T08:00:00","4","16.136531","-22.888897","21.03","BOA VISTA RABIL, CV","FM-15","GVBA ","V020","070,1,N,0015,1","22000,1,9,N","011265,1,N,1","+0210,1","+0170,1","99999,9","04,5,+00450,1,99,9",,,"04,99,1,99,9,99,9,99999,9,99,9,99,9","10159,1,99999,9",,,,"MET057METAR GVBA 160800Z 07003KT 9999 SCT015 21/17 Q1016 NOSIG;",
"08594499999","2010-11-16T10:00:00","4","16.136531","-22.888897","21.03","BOA VISTA RABIL, CV","FM-15","GVBA ","V020","060,1,N,0057,1","00450,1,C,N","011265,1,N,1","+0270,1","+0180,1","99999,9","07,5,+00450,1,99,9",,,"07,99,1,99,9,99,9,99999,9,99,9,99,9","10169,1,99999,9",,,,"MET057METAR GVBA 161000Z 06011KT 9999 BKN015 27/18 Q1017 NOSIG;",
"08594499999","2010-11-16T11:00:00","4","16.136531","-22.888897","21.03","BOA VISTA RABIL, CV","FM-15","GVBA ","V020","050,1,N,0051,1","00450,1,C,N","011265,1,N,1","+0280,1","+0190,1","99999,9","07,5,+00450,1,99,9",,,"07,99,1,99,9,99,9,99999,9,99,9,99,9","10169,1,99999,9",,,,"MET057METAR GVBA 161100Z 05010KT 9999 BKN015 28/19 Q1017 NOSIG;",
"08594499999","2010-11-16T12:00:00","4","16.136531","-22.888897","21.03","BOA VISTA RABIL, CV","FM-15","GVBA ","V020","010,1,N,0051,1","00450,1,C,N","011265,1,N,1","+0280,1","+0170,1","99999,9","07,5,+00450,1,99,9",,,"07,99,1,99,9,99,9,99999,9,99,9,99,9","10169,1,99999,9",,,,"MET057METAR GVBA 161200Z 01010KT 9999 BKN015 28/17 Q1017 NOSIG;",
"08594499999","2010-11-16T13:00:00","4","16.136531","-22.888897","21.03","BOA VISTA RABIL, CV","FM-15","GVBA ","V020","020,1,N,0041,1","99999,9,C,N","011265,1,N,1","+0290,1","+0170,1","99999,9","04,5,+00450,1,99,9","04,5,+06000,1,99,9",,"04,99,1,99,9,99,9,99999,9,99,9,99,9","10159,1,99999,9",,,,"MET064METAR GVBA 161300Z 02008KT 9999 SCT015 SCT200 29/17 Q1016 NOSIG;","P01 060003SCOCIG"
"08594499999","2010-11-16T14:00:00","4","16.136531","-22.888897","21.03","BOA VISTA RABIL, CV","FM-15","GVBA ","V020","020,1,N,0057,1","22000,1,9,N","011265,1,N,1","+0290,1","+0170,1","99999,9","04,5,+00450,1,99,9",,,"04,99,1,99,9,99,9,99999,9,99,9,99,9","10149,1,99999,9",,,,"MET057METAR GVBA 161400Z 02011KT 9999 SCT015 29/17 Q1015 NOSIG;",
"08594499999","2010-11-16T15:00:00","4","16.136531","-22.888897","21.03","BOA VISTA RABIL, CV","FM-15","GVBA ","V020","030,1,N,0057,1","22000,1,9,N","011265,1,N,1","+0290,1","+0170,1","99999,9","04,5,+00450,1,99,9",,,"04,99,1,99,9,99,9,99999,9,99,9,99,9","10139,1,99999,9",,,,"MET057METAR GVBA 161500Z 03011KT 9999 SCT015 29/17 Q1014 NOSIG;",
"08594499999","2010-11-16T16:00:00","4","16.136531","-22.888897","21.03","BOA VISTA RABIL, CV","FM-15","GVBA ","V020","030,1,N,0051,1","22000,1,9,N","011265,1,N,1","+0290,1","+0180,1","99999,9","04,5,+00450,1,99,9",,,"04,99,1,99,9,99,9,99999,9,99,9,99,9","10139,1,99999,9",,,,"MET057METAR GVBA 161600Z 03010KT 9999 SCT015 29/18 Q1014 NOSIG;",
"08594499999","2010-11-16T17:00:00","4","16.136531","-22.888897","21.03","BOA VISTA RABIL, CV","FM-15","GVBA ","V020","050,1,N,0046,1","22000,1,9,N","011265,1,N,1","+0290,1","+0180,1","99999,9","04,5,+00450,1,99,9",,,"04,99,1,99,9,99,9,99999,9,99,9,99,9","10139,1,99999,9",,,,"MET057METAR GVBA 161700Z 05009KT 9999 SCT015 29/18 Q1014 NOSIG;",
"08594499999","2010-11-16T18:00:00","4","16.136531","-22.888897","21.03","BOA VISTA RABIL, CV","FM-15","GVBA ","V020","040,1,N,0046,1","22000,1,9,N","011265,1,N,1","+0270,1","+0180,1","99999,9","02,5,+00450,1,99,9",,,"02,99,1,99,9,99,9,99999,9,99,9,99,9","10139,1,99999,9",,,,"MET057METAR GVBA 161800Z 04009KT 9999 FEW015 27/18 Q1014 NOSIG;",
"08594499999","2010-11-16T19:00:00","4","16.136531","-22.888897","21.03","BOA VISTA RABIL, CV","FM-15","GVBA ","V020","020,1,N,0051,1","22000,1,9,N","011265,1,N,1","+0260,1","+0180,1","99999,9","02,5,+00450,1,99,9",,,"02,99,1,99,9,99,9,99999,9,99,9,99,9","10139,1,99999,9",,,,"MET057METAR GVBA 161900Z 02010KT 9999 FEW015 26/18 Q1014 NOSIG;",
"08594499999","2010-11-17T08:00:00","4","16.136531","-22.888897","21.03","BOA VISTA RABIL, CV","FM-15","GVBA ","V020","050,1,N,0021,1","99999,9,C,N","011265,1,N,1","+0210,1","+0180,1","99999,9","02,5,+00420,1,99,9","04,5,+06000,1,99,9",,"04,99,1,99,9,99,9,99999,9,99,9,99,9","10139,1,99999,9",,,,"MET064METAR GVBA 170800Z 05004KT 9999 FEW014 SCT200 21/18 Q1014 NOSIG;","P01 060003SCOCIG"
"08594499999","2010-11-17T09:00:00","4","16.136531","-22.888897","21.03","BOA VISTA RABIL, CV","FM-15","GVBA ","V020","020,1,N,0036,1","22000,1,9,N","011265,1,N,1","+0240,1","+0190,1","99999,9","02,5,+00420,1,99,9",,,"02,99,1,99,9,99,9,99999,9,99,9,99,9","10139,1,99999,9",,,,"MET057METAR GVBA 170900Z 02007KT 9999 FEW014 24/19 Q1014 NOSIG;",
"08594499999","2010-11-17T10:00:00","4","16.136531","-22.888897","21.03","BOA VISTA RABIL, CV","FM-15","GVBA ","V020","030,1,N,0051,1","22000,1,9,N","011265,1,N,1","+0260,1","+0190,1","99999,9","04,5,+00450,1,99,9",,,"04,99,1,99,9,99,9,99999,9,99,9,99,9","10149,1,99999,9",,,,"MET057METAR GVBA 171000Z 03010KT 9999 SCT015 26/19 Q1015 NOSIG;",
"08594499999","2010-11-17T11:00:00","4","16.136531","-22.888897","21.03","BOA VISTA RABIL, CV","FM-15","GVBA ","V020","030,1,N,0062,1","22000,1,9,N","011265,1,N,1","+0270,1","+0190,1","99999,9","04,5,+00450,1,99,9",,,"04,99,1,99,9,99,9,99999,9,99,9,99,9","10149,1,99999,9",,,,"MET057METAR GVBA 171100Z 03012KT 9999 SCT015 27/19 Q1015 NOSIG;",
"08594499999","2010-11-17T12:00:00","4","16.136531","-22.888897","21.03","BOA VISTA RABIL, CV","FM-15","GVBA ","V020","040,1,N,0057,1","00450,1,C,N","011265,1,N,1","+0280,1","+0190,1","99999,9","07,5,+00450,1,99,9",,,"07,99,1,99,9,99,9,99999,9,99,9,99,9","10149,1,99999,9",,,,"MET057METAR GVBA 171200Z 04011KT 9999 BKN015 28/19 Q1015 NOSIG;",
"08594499999","2010-11-17T13:00:00","4","16.136531","-22.888897","21.03","BOA VISTA RABIL, CV","FM-15","GVBA ","V020","030,1,N,0041,1","22000,1,9,N","011265,1,N,1","+0290,1","+0190,1","99999,9","04,5,+00450,1,99,9",,,"04,99,1,99,9,99,9,99999,9,99,9,99,9","10149,1,99999,9",,,,"MET057METAR GVBA 171300Z 03008KT 9999 SCT015 29/19 Q1015 NOSIG;",
"08594499999","2010-11-17T15:00:00","4","16.136531","-22.888897","21.03","BOA VISTA RABIL, CV","FM-15","GVBA ","V020","010,1,N,0051,1","22000,1,9,N","011265,1,N,1","+0290,1","+0200,1","99999,9","02,5,+00450,1,99,9",,,"02,99,1,99,9,99,9,99999,9,99,9,99,9","10129,1,99999,9",,,,"MET057METAR GVBA 171500Z 01010KT 9999 FEW015 29/20 Q1013 NOSIG;",
"08594499999","2010-11-17T16:00:00","4","16.136531","-22.888897","21.03","BOA VISTA RABIL, CV","FM-15","GVBA ","V020","020,1,N,0041,1","22000,1,9,N","011265,1,N,1","+0290,1","+0200,1","99999,9","02,5,+00450,1,99,9",,,"02,99,1,99,9,99,9,99999,9,99,9,99,9","10129,1,99999,9",,,,"MET057METAR GVBA 171600Z 02008KT 9999 FEW015 29/20 Q1013 NOSIG;",
"08594499999","2010-11-17T17:00:00","4","16.136531","-22.888897","21.03","BOA VISTA RABIL, CV","FM-15","GVBA ","V020","030,1,N,0041,1","22000,1,9,N","011265,1,N,1","+0290,1","+0200,1","99999,9","02,5,+00450,1,99,9",,,"02,99,1,99,9,99,9,99999,9,99,9,99,9","10119,1,99999,9",,,,"MET057METAR GVBA 171700Z 03008KT 9999 FEW015 29/20 Q1012 NOSIG;",
"08594499999","2010-11-17T18:00:00","4","16.136531","-22.888897","21.03","BOA VISTA RABIL, CV","FM-15","GVBA ","V020","040,1,N,0041,1","22000,1,9,N","011265,1,N,1","+0270,1","+0200,1","99999,9","02,5,+00450,1,99,9",,,"02,99,1,99,9,99,9,99999,9,99,9,99,9","10119,1,99999,9",,,,"MET057METAR GVBA 171800Z 04008KT 9999 FEW015 27/20 Q1012 NOSIG;",
"08594499999","2010-11-18T10:00:00","4","16.136531","-22.888897","21.03","BOA VISTA RABIL, CV","FM-15","GVBA ","V020","040,1,N,0072,1","00450,1,C,N","011265,1,N,1","+0270,1","+0220,1","99999,9","07,5,+00450,1,99,9",,,"07,99,1,99,9,99,9,99999,9,99,9,99,9","10129,1,99999,9",,,,"MET057METAR GVBA 181000Z 04014KT 9999 BKN015 27/22 Q1013 NOSIG;",
"08594499999","2010-11-18T11:00:00","4","16.136531","-22.888897","21.03","BOA VISTA RABIL, CV","FM-15","GVBA ","V020","030,1,N,0062,1","00450,1,C,N","011265,1,N,1","+0280,1","+0220,1","99999,9","07,5,+00450,1,99,9",,,"07,99,1,99,9,99,9,99999,9,99,9,99,9","10129,1,99999,9",,,,"MET057METAR GVBA 181100Z 03012KT 9999 BKN015 28/22 Q1013 NOSIG;",
"08594499999","2010-11-18T12:00:00","4","16.136531","-22.888897","21.03","BOA VISTA RABIL, CV","FM-15","GVBA ","V020","020,1,N,0051,1","22000,1,9,N","011265,1,N,1","+0290,1","+0220,1","99999,9","04,5,+00450,1,99,9",,,"04,99,1,99,9,99,9,99999,9,99,9,99,9","10119,1,99999,9",,,,"MET057METAR GVBA 181200Z 02010KT 9999 SCT015 29/22 Q1012 NOSIG;",
"08594499999","2010-11-18T13:00:00","4","16.136531","-22.888897","21.03","BOA VISTA RABIL, CV","FM-15","GVBA ","V020","030,1,N,0057,1","22000,1,9,N","011265,1,N,1","+0300,1","+0220,1","99999,9","04,5,+00450,1,99,9",,,"04,99,1,99,9,99,9,99999,9,99,9,99,9","10108,1,99999,9",,,,"MET057METAR GVBA 181300Z 03011KT 9999 SCT015 30/22 Q1011 NOSIG;",
"08594499999","2010-11-18T14:00:00","4","16.136531","-22.888897","21.03","BOA VISTA RABIL, CV","FM-15","GVBA ","V020","030,1,N,0072,1","22000,1,9,N","011265,1,N,1","+0300,1","+0220,1","99999,9","02,5,+00450,1,99,9",,,"02,99,1,99,9,99,9,99999,9,99,9,99,9","10108,1,99999,9",,,,"MET057METAR GVBA 181400Z 03014KT 9999 FEW015 30/22 Q1011 NOSIG;",
"08594499999","2010-11-18T15:00:00","4","16.136531","-22.888897","21.03","BOA VISTA RABIL, CV","FM-15","GVBA ","V020","050,1,N,0077,1","22000,1,9,N","011265,1,N,1","+0300,1","+0220,1","99999,9","02,5,+00450,1,99,9",,,"02,99,1,99,9,99,9,99999,9,99,9,99,9","10102,1,99999,9",,,,"MET057METAR GVBA 181500Z 05015KT 9999 FEW015 30/22 Q1010 NOSIG;",
"08594499999","2010-11-18T16:00:00","4","16.136531","-22.888897","21.03","BOA VISTA RABIL, CV","FM-15","GVBA ","V020","040,1,N,0067,1","22000,1,9,N","011265,1,N,1","+0300,1","+0220,1","99999,9","02,5,+00450,1,99,9",,,"02,99,1,99,9,99,9,99999,9,99,9,99,9","10102,1,99999,9",,,,"MET057METAR GVBA 181600Z 04013KT 9999 FEW015 30/22 Q1010 NOSIG;",
"08594499999","2010-11-18T17:00:00","4","16.136531","-22.888897","21.03","BOA VISTA RABIL, CV","FM-15","GVBA ","V020","040,1,N,0051,1","22000,1,9,N","011265,1,N,1","+0300,1","+0220,1","99999,9","02,5,+00450,1,99,9",,,"02,99,1,99,9,99,9,99999,9,99,9,99,9","10102,1,99999,9",,,,"MET057METAR GVBA 181700Z 04010KT 9999 FEW015 30/22 Q1010 NOSIG;",
"08594499999","2010-11-18T18:00:00","4","16.136531","-22.888897","21.03","BOA VISTA RABIL, CV","FM-15","GVBA ","V020","040,1,N,0057,1","22000,1,9,N","011265,1,N,1","+0290,1","+0220,1","99999,9","02,5,+00450,1,99,9",,,"02,99,1,99,9,99,9,99999,9,99,9,99,9","10102,1,99999,9",,,,"MET057METAR GVBA 181800Z 04011KT 9999 FEW015 29/22 Q1010 NOSIG;",
"08594499999","2010-11-18T19:00:00","4","16.136531","-22.888897","21.03","BOA VISTA RABIL, CV","FM-15","GVBA ","V020","050,1,N,0046,1","22000,1,9,N","011265,1,N,1","+0270,1","+0220,1","99999,9","02,5,+00450,1,99,9",,,"02,99,1,99,9,99,9,99999,9,99,9,99,9","10108,1,99999,9",,,,"MET057METAR GVBA 181900Z 05009KT 9999 FEW015 27/22 Q1011 NOSIG;",
"08594499999","2010-11-19T08:00:00","4","16.136531","-22.888897","21.03","BOA VISTA RABIL, CV","FM-15","GVBA ","V020","060,1,N,0041,1","22000,1,9,N","011265,1,N,1","+0240,1","+0230,1","99999,9","02,5,+00420,1,99,9",,,"02,99,1,99,9,99,9,99999,9,99,9,99,9","10108,1,99999,9",,,,"MET057METAR GVBA 190800Z 06008KT 9999 FEW014 24/23 Q1011 NOSIG;",
"08594499999","2010-11-19T09:00:00","4","16.136531","-22.888897","21.03","BOA VISTA RABIL, CV","FM-15","GVBA ","V020","040,1,N,0041,1","22000,1,9,N","011265,1,N,1","+0250,1","+0230,1","99999,9","04,5,+00420,1,99,9",,,"04,99,1,99,9,99,9,99999,9,99,9,99,9","10119,1,99999,9",,,,"MET057METAR GVBA 190900Z 04008KT 9999 SCT014 25/23 Q1012 NOSIG;",
"08594499999","2010-11-19T10:00:00","4","16.136531","-22.888897","21.03","BOA VISTA RABIL, CV","FM-15","GVBA ","V020","040,1,N,0057,1","22000,1,9,N","011265,1,N,1","+0270,1","+0230,1","99999,9","04,5,+00450,1,99,9",,,"04,99,1,99,9,99,9,99999,9,99,9,99,9","10119,1,99999,9",,,,"MET057METAR GVBA 191000Z 04011KT 9999 SCT015 27/23 Q1012 NOSIG;",
"08594499999","2010-11-19T11:00:00","4","16.136531","-22.888897","21.03","BOA VISTA RABIL, CV","FM-15","GVBA ","V020","040,1,N,0067,1","22000,1,9,N","011265,1,N,1","+0290,1","+0230,1","99999,9","02,5,+00450,1,99,9",,,"02,99,1,99,9,99,9,99999,9,99,9,99,9","10129,1,99999,9",,,,"MET057METAR GVBA 191100Z 04013KT 9999 FEW015 29/23 Q1013 NOSIG;",
"08594499999","2010-11-19T12:00:00","4","16.136531","-22.888897","21.03","BOA VISTA RABIL, CV","FM-15","GVBA ","V020","030,1,N,0067,1","22000,1,9,N","011265,1,N,1","+0290,1","+0230,1","99999,9","02,5,+00450,1,99,9",,,"02,99,1,99,9,99,9,99999,9,99,9,99,9","10120,1,99999,9",,,,"MET069METAR GVBA 191200Z 03013KT 9999 FEW015 SCT 20000FT 29/23 Q1012 NOSIG;",
"08594499999","2010-11-19T13:00:00","4","16.136531","-22.888897","21.03","BOA VISTA RABIL, CV","FM-15","GVBA ","V020","040,1,N,0072,1","22000,1,9,N","011265,1,N,1","+0300,1","+0230,1","99999,9","02,5,+00450,1,99,9",,,"02,99,1,99,9,99,9,99999,9,99,9,99,9","10120,1,99999,9",,,,"MET069METAR GVBA 191300Z 04014KT 9999 FEW015 SCT 20000FT 30/23 Q1012 NOSIG;",
"08594499999","2010-11-19T14:00:00","4","16.136531","-22.888897","21.03","BOA VISTA RABIL, CV","FM-15","GVBA ","V020","050,1,N,0077,1","99999,9,9,Y","009900,1,N,1","+0320,1","+0160,1","99999,9",,,,,"10108,1,99999,9",,,,"MET059METAR GVBA 191400Z 05015KT 050V110 CAVOK 32/16 Q1011 NOSIG;",
"08594499999","2010-11-19T15:00:00","4","16.136531","-22.888897","21.03","BOA VISTA RABIL, CV","FM-15","GVBA ","V020","070,1,N,0077,1","99999,9,9,Y","009900,1,N,1","+0320,1","+0190,1","99999,9",,,,,"10108,1,99999,9",,,,"MET051METAR GVBA 191500Z 07015KT CAVOK 32/19 Q1011 NOSIG;",
"08594499999","2010-11-19T16:00:00","4","16.136531","-22.888897","21.03","BOA VISTA RABIL, CV","FM-15","GVBA ","V020","070,1,N,0072,1","99999,9,9,Y","009900,1,N,1","+0310,1","+0210,1","99999,9",,,,,"10108,1,99999,9",,,,"MET051METAR GVBA 191600Z 07014KT CAVOK 31/21 Q1011 NOSIG;",
"08594499999","2010-11-19T17:00:00","4","16.136531","-22.888897","21.03","BOA VISTA RABIL, CV","FM-15","GVBA ","V020","070,1,N,0041,1","99999,9,9,Y","009900,1,N,1","+0310,1","+0210,1","99999,9",,,,,"10108,1,99999,9",,,,"MET051METAR GVBA 191700Z 07008KT CAVOK 31/21 Q1011 NOSIG;",
"08594499999","2010-11-19T18:00:00","4","16.136531","-22.888897","21.03","BOA VISTA RABIL, CV","FM-15","GVBA ","V020","050,1,N,0051,1","99999,9,9,Y","009900,1,N,1","+0290,1","+0220,1","99999,9",,,,,"10108,1,99999,9",,,,"MET051METAR GVBA 191800Z 05010KT CAVOK 29/22 Q1011 NOSIG;",
"08594499999","2010-11-19T19:00:00","4","16.136531","-22.888897","21.03","BOA VISTA RABIL, CV","FM-15","GVBA ","V020","060,1,N,0036,1","99999,9,9,Y","009900,1,N,1","+0270,1","+0220,1","99999,9",,,,,"10119,1,99999,9",,,,"MET051METAR GVBA 191900Z 06007KT CAVOK 27/22 Q1012 NOSIG;",
"08594499999","2010-11-20T08:00:00","4","16.136531","-22.888897","21.03","BOA VISTA RABIL, CV","FM-15","GVBA ","V020","040,1,N,0021,1","99999,9,9,Y","009900,1,N,1","+0240,1","+0220,1","99999,9",,,,,"10139,1,99999,9",,,,"MET051METAR GVBA 200800Z 04004KT CAVOK 24/22 Q1014 NOSIG;",
"08594499999","2010-11-20T09:00:00","4","16.136531","-22.888897","21.03","BOA VISTA RABIL, CV","FM-15","GVBA ","V020","999,9,C,0000,1","99999,9,9,Y","009900,1,N,1","+0250,1","+0220,1","99999,9",,,,,"10149,1,99999,9",,,,"MET051METAR GVBA 200900Z 00000KT CAVOK 25/22 Q1015 NOSIG;",
"08594499999","2010-11-20T10:00:00","4","16.136531","-22.888897","21.03","BOA VISTA RABIL, CV","FM-15","GVBA ","V020","060,1,N,0031,1","99999,9,9,Y","009900,1,N,1","+0280,1","+0210,1","99999,9",,,,,"10149,1,99999,9",,,,"MET051METAR GVBA 201000Z 06006KT CAVOK 28/21 Q1015 NOSIG;",
"08594499999","2010-11-20T11:00:00","4","16.136531","-22.888897","21.03","BOA VISTA RABIL, CV","FM-15","GVBA ","V020","050,1,N,0036,1","99999,9,9,Y","009900,1,N,1","+0300,1","+0190,1","99999,9",,,,,"10149,1,99999,9",,,,"MET051METAR GVBA 201100Z 05007KT CAVOK 30/19 Q1015 NOSIG;",
"08594499999","2010-11-20T12:00:00","4","16.136531","-22.888897","21.03","BOA VISTA RABIL, CV","FM-15","GVBA ","V020","060,1,N,0072,1","99999,9,9,Y","009900,1,N,1","+0310,1","+0200,1","99999,9",,,,,"10149,1,99999,9",,,,"MET051METAR GVBA 201200Z 06014KT CAVOK 31/20 Q1015 NOSIG;",
"08594499999","2010-11-20T13:00:00","4","16.136531","-22.888897","21.03","BOA VISTA RABIL, CV","FM-15","GVBA ","V020","050,1,N,0082,1","99999,9,9,Y","009900,1,N,1","+0300,1","+0200,1","99999,9",,,,,"10139,1,99999,9",,,,"MET051METAR GVBA 201300Z 05016KT CAVOK 30/20 Q1014 NOSIG;",
"08594499999","2010-11-20T14:00:00","4","16.136531","-22.888897","21.03","BOA VISTA RABIL, CV","FM-15","GVBA ","V020","999,9,9,9999,9","06000,5,9,N","999999,9,N,1","+0310,1","+0200,1","99999,9","02,5,+00450,5,99,9","07,5,+06000,5,99,9",,,"10140,1,99999,9",,,,"MET060METAR GVBA 201400Z 056014KT FEW015 BKN200 31/20 Q1014 NOSIG;",
"08594499999","2010-11-20T15:00:00","4","16.136531","-22.888897","21.03","BOA VISTA RABIL, CV","FM-15","GVBA ","V020","060,1,N,0067,1","06000,5,9,N","999999,9,N,1","+0310,1","+0190,1","99999,9","02,5,+00450,5,99,9","07,5,+06000,5,99,9",,,"10130,1,99999,9",,,,"MET059METAR GVBA 201500Z 06013KT FEW015 BKN200 31/19 Q1013 NOSIG;",
"08594499999","2010-11-20T16:00:00","4","16.136531","-22.888897","21.03","BOA VISTA RABIL, CV","FM-15","GVBA ","V020","040,1,N,0057,1","06000,5,9,N","999999,9,N,1","+0310,1","+0180,1","99999,9","02,5,+00450,5,99,9","07,5,+06000,5,99,9",,,"10130,1,99999,9",,,,"MET059METAR GVBA 201600Z 04011KT FEW015 BKN200 31/18 Q1013 NOSIG;",
"08594499999","2010-11-20T17:00:00","4","16.136531","-22.888897","21.03","BOA VISTA RABIL, CV","FM-15","GVBA ","V020","050,1,N,0046,1","06000,5,9,N","999999,9,N,1","+0300,1","+0190,1","99999,9","02,5,+00450,5,99,9","07,5,+06000,5,99,9",,,"10130,1,99999,9",,,,"MET059METAR GVBA 201700Z 05009KT FEW015 BKN200 30/19 Q1013 NOSIG;",
"08594499999","2010-11-20T18:00:00","4","16.136531","-22.888897","21.03","BOA VISTA RABIL, CV","FM-15","GVBA ","V020","040,1,N,0041,1","99999,9,9,Y","009900,1,N,1","+0260,1","+0200,1","99999,9",,,,,"10139,1,99999,9",,,,"MET051METAR GVBA 201800Z 04008KT CAVOK 26/20 Q1014 NOSIG;",
"08594499999","2010-11-21T08:00:00","4","16.136531","-22.888897","21.03","BOA VISTA RABIL, CV","FM-15","GVBA ","V020","040,1,N,0015,1","06000,1,C,N","011265,1,N,1","+0210,1","+0200,1","99999,9","02,5,+00420,1,99,9","07,5,+06000,1,99,9",,"07,99,1,99,9,99,9,99999,9,99,9,99,9","10139,1,99999,9",,,,"MET064METAR GVBA 210800Z 04003KT 9999 FEW014 BKN200 21/20 Q1014 NOSIG;",
"08594499999","2010-11-21T09:00:00","4","16.136531","-22.888897","21.03","BOA VISTA RABIL, CV","FM-15","GVBA ","V020","060,1,N,0015,1","06000,1,C,N","011265,1,N,1","+0230,1","+0210,1","99999,9","02,5,+00420,1,99,9","07,5,+06000,1,99,9",,"07,99,1,99,9,99,9,99999,9,99,9,99,9","10139,1,99999,9",,,,"MET064METAR GVBA 210900Z 06003KT 9999 FEW014 BKN200 23/21 Q1014 NOSIG;",
"08594499999","2010-11-21T10:00:00","4","16.136531","-22.888897","21.03","BOA VISTA RABIL, CV","FM-15","GVBA ","V020","020,1,N,0046,1","06000,1,C,N","011265,1,N,1","+0270,1","+0210,1","99999,9","02,5,+00450,1,99,9","07,5,+06000,1,99,9",,"07,99,1,99,9,99,9,99999,9,99,9,99,9","10149,1,99999,9",,,,"MET064METAR GVBA 211000Z 02009KT 9999 FEW015 BKN200 27/21 Q1015 NOSIG;",
"08594499999","2010-11-21T11:00:00","4","16.136531","-22.888897","21.03","BOA VISTA RABIL, CV","FM-15","GVBA ","V020","030,1,N,0046,1","06000,1,C,N","011265,1,N,1","+0280,1","+0210,1","99999,9","02,5,+00450,1,99,9","07,5,+06000,1,99,9",,"07,99,1,99,9,99,9,99999,9,99,9,99,9","10149,1,99999,9",,,,"MET064METAR GVBA 211100Z 03009KT 9999 FEW015 BKN200 28/21 Q1015 NOSIG;",
"08594499999","2010-11-21T12:00:00","4","16.136531","-22.888897","21.03","BOA VISTA RABIL, CV","FM-15","GVBA ","V020","030,1,N,0041,1","06000,1,C,N","011265,1,N,1","+0290,1","+0200,1","99999,9","02,5,+00450,1,99,9","07,5,+06000,1,99,9",,"07,99,1,99,9,99,9,99999,9,99,9,99,9","10139,1,99999,9",,,,"MET064METAR GVBA 211200Z 03008KT 9999 FEW015 BKN200 29/20 Q1014 NOSIG;",
"08594499999","2010-11-21T13:00:00","4","16.136531","-22.888897","21.03","BOA VISTA RABIL, CV","FM-15","GVBA ","V020","020,1,N,0057,1","06000,1,C,N","011265,1,N,1","+0290,1","+0200,1","99999,9","02,5,+00450,1,99,9","07,5,+06000,1,99,9",,"07,99,1,99,9,99,9,99999,9,99,9,99,9","10139,1,99999,9",,,,"MET064METAR GVBA 211300Z 02011KT 9999 FEW015 BKN200 29/20 Q1014 NOSIG;",
"08594499999","2010-11-21T14:00:00","4","16.136531","-22.888897","21.03","BOA VISTA RABIL, CV","FM-15","GVBA ","V020","010,1,N,0062,1","99999,9,9,Y","009900,1,N,1","+0300,1","+0180,1","99999,9",,,,,"10119,1,99999,9",,,,"MET051METAR GVBA 211400Z 01012KT CAVOK 30/18 Q1012 NOSIG;",
"08594499999","2010-11-21T15:00:00","4","16.136531","-22.888897","21.03","BOA VISTA RABIL, CV","FM-15","GVBA ","V020","020,1,N,0051,1","99999,9,9,Y","009900,1,N,1","+0300,1","+0180,1","99999,9",,,,,"10119,1,99999,9",,,,"MET051METAR GVBA 211500Z 02010KT CAVOK 30/18 Q1012 NOSIG;",
"08594499999","2010-11-21T16:00:00","4","16.136531","-22.888897","21.03","BOA VISTA RABIL, CV","FM-15","GVBA ","V020","010,1,N,0041,1","99999,9,9,Y","009900,1,N,1","+0300,1","+0180,1","99999,9",,,,,"10108,1,99999,9",,,,"MET051METAR GVBA 211600Z 01008KT CAVOK 30/18 Q1011 NOSIG;",
"08594499999","2010-11-21T17:00:00","4","16.136531","-22.888897","21.03","BOA VISTA RABIL, CV","FM-15","GVBA ","V020","010,1,N,0041,1","99999,9,9,Y","009900,1,N,1","+0290,1","+0170,1","99999,9",,,,,"10108,1,99999,9",,,,"MET051METAR GVBA 211700Z 01008KT CAVOK 29/17 Q1011 NOSIG;",
"08594499999","2010-11-21T18:00:00","4","16.136531","-22.888897","21.03","BOA VISTA RABIL, CV","FM-15","GVBA ","V020","020,1,N,0051,1","99999,9,9,Y","009900,1,N,1","+0280,1","+0190,1","99999,9",,,,,"10108,1,99999,9",,,,"MET051METAR GVBA 211800Z 02010KT CAVOK 28/19 Q1011 NOSIG;",
"08594499999","2010-11-21T19:00:00","4","16.136531","-22.888897","21.03","BOA VISTA RABIL, CV","FM-15","GVBA ","V020","020,1,N,0031,1","06000,1,C,N","011265,1,N,1","+0260,1","+0190,1","99999,9","02,5,+00450,1,99,9","07,5,+06000,1,99,9",,"07,99,1,99,9,99,9,99999,9,99,9,99,9","10108,1,99999,9",,,,"MET064METAR GVBA 211900Z 02006KT 9999 FEW015 BKN200 26/19 Q1011 NOSIG;",
"08594499999","2010-11-22T08:00:00","4","16.136531","-22.888897","21.03","BOA VISTA RABIL, CV","FM-15","GVBA ","V020","999,9,C,0000,1","06000,1,C,N","011265,1,N,1","+0190,1","+0180,1","99999,9","02,5,+00450,1,99,9","07,5,+06000,1,99,9",,"07,99,1,99,9,99,9,99999,9,99,9,99,9","10108,1,99999,9",,,,"MET064METAR GVBA 220800Z 00000KT 9999 FEW015 BKN200 19/18 Q1011 NOSIG;",
"08594499999","2010-11-22T09:00:00","4","16.136531","-22.888897","21.03","BOA VISTA RABIL, CV","FM-15","GVBA ","V020","020,1,N,0015,1","99999,9,C,N","011265,1,N,1","+0230,1","+0200,1","99999,9","02,5,+00450,1,99,9","04,5,+06000,1,99,9",,"04,99,1,99,9,99,9,99999,9,99,9,99,9","10119,1,99999,9",,,,"MET064METAR GVBA 220900Z 02003KT 9999 FEW015 SCT200 23/20 Q1012 NOSIG;","P01 060003SCOCIG"
"08594499999","2010-11-22T10:00:00","4","16.136531","-22.888897","21.03","BOA VISTA RABIL, CV","FM-15","GVBA ","V020","020,1,N,0031,1","22000,1,9,N","011265,1,N,1","+0260,1","+0190,1","99999,9","02,5,+00450,1,99,9",,,"02,99,1,99,9,99,9,99999,9,99,9,99,9","10119,1,99999,9",,,,"MET057METAR GVBA 221000Z 02006KT 9999 FEW015 26/19 Q1012 NOSIG;",
"08594499999","2010-11-22T11:00:00","4","16.136531","-22.888897","21.03","BOA VISTA RABIL, CV","FM-15","GVBA ","V020","010,1,N,0031,1","22000,1,9,N","011265,1,N,1","+0270,1","+0200,1","99999,9","02,5,+00450,1,99,9",,,"02,99,1,99,9,99,9,99999,9,99,9,99,9","10119,1,99999,9",,,,"MET057METAR GVBA 221100Z 01006KT 9999 FEW015 27/20 Q1012 NOSIG;",
"08594499999","2010-11-22T12:00:00","4","16.136531","-22.888897","21.03","BOA VISTA RABIL, CV","FM-15","GVBA ","V020","010,1,N,0041,1","22000,1,9,N","011265,1,N,1","+0280,1","+0190,1","99999,9","02,5,+00450,1,99,9",,,"02,99,1,99,9,99,9,99999,9,99,9,99,9","10108,1,99999,9",,,,"MET057METAR GVBA 221200Z 01008KT 9999 FEW015 28/19 Q1011 NOSIG;",
"08594499999","2010-11-22T13:00:00","4","16.136531","-22.888897","21.03","BOA VISTA RABIL, CV","FM-15","GVBA ","V020","010,1,N,0041,1","22000,1,9,N","011265,1,N,1","+0290,1","+0190,1","99999,9","02,5,+00450,1,99,9",,,"02,99,1,99,9,99,9,99999,9,99,9,99,9","10108,1,99999,9",,,,"MET057METAR GVBA 221300Z 01008KT 9999 FEW015 29/19 Q1011 NOSIG;",
"08594499999","2010-11-22T14:00:00","4","16.136531","-22.888897","21.03","BOA VISTA RABIL, CV","FM-15","GVBA ","V020","030,1,N,0051,1","22000,1,9,N","011265,1,N,1","+0290,1","+0190,1","99999,9","02,5,+00450,1,99,9",,,"02,99,1,99,9,99,9,99999,9,99,9,99,9","10102,1,99999,9",,,,"MET057METAR GVBA 221400Z 03010KT 9999 FEW015 29/19 Q1010 NOSIG;",
"08594499999","2010-11-22T15:00:00","4","16.136531","-22.888897","21.03","BOA VISTA RABIL, CV","FM-15","GVBA ","V020","020,1,N,0051,1","22000,1,9,N","011265,1,N,1","+0290,1","+0190,1","99999,9","02,5,+00450,1,99,9",,,"02,99,1,99,9,99,9,99999,9,99,9,99,9","10091,1,99999,9",,,,"MET057METAR GVBA 221500Z 02010KT 9999 FEW015 29/19 Q1009 NOSIG;",
"08594499999","2010-11-22T16:00:00","4","16.136531","-22.888897","21.03","BOA VISTA RABIL, CV","FM-15","GVBA ","V020","030,1,N,0051,1","22000,1,9,N","011265,1,N,1","+0290,1","+0190,1","99999,9","02,5,+00450,1,99,9",,,"02,99,1,99,9,99,9,99999,9,99,9,99,9","10091,1,99999,9",,,,"MET057METAR GVBA 221600Z 03010KT 9999 FEW015 29/19 Q1009 NOSIG;",
"08594499999","2010-11-22T17:00:00","4","16.136531","-22.888897","21.03","BOA VISTA RABIL, CV","FM-15","GVBA ","V020","030,1,N,0051,1","22000,1,9,N","011265,1,N,1","+0290,1","+0190,1","99999,9","02,5,+00450,1,99,9",,,"02,99,1,99,9,99,9,99999,9,99,9,99,9","10091,1,99999,9",,,,"MET057METAR GVBA 221700Z 03010KT 9999 FEW015 29/19 Q1009 NOSIG;",
"08594499999","2010-11-22T18:00:00","4","16.136531","-22.888897","21.03","BOA VISTA RABIL, CV","FM-15","GVBA ","V020","030,1,N,0041,1","22000,1,9,N","011265,1,N,1","+0270,1","+0190,1","99999,9","02,5,+00450,1,99,9",,,"02,99,1,99,9,99,9,99999,9,99,9,99,9","10091,1,99999,9",,,,"MET057METAR GVBA 221800Z 03008KT 9999 FEW015 27/19 Q1009 NOSIG;",
"08594499999","2010-11-22T19:00:00","4","16.136531","-22.888897","21.03","BOA VISTA RABIL, CV","FM-15","GVBA ","V020","050,1,N,0041,1","22000,1,9,N","011265,1,N,1","+0250,1","+0190,1","99999,9","02,5,+00450,1,99,9",,,"02,99,1,99,9,99,9,99999,9,99,9,99,9","10091,1,99999,9",,,,"MET057METAR GVBA 221900Z 05008KT 9999 FEW015 25/19 Q1009 NOSIG;",
"08594499999","2010-11-23T08:00:00","4","16.136531","-22.888897","21.03","BOA VISTA RABIL, CV","FM-15","GVBA ","V020","999,9,C,0000,1","99999,9,9,Y","009900,1,N,1","+0180,1","+0170,1","99999,9",,,,,"10108,1,99999,9",,,,"MET051METAR GVBA 230800Z 00000KT CAVOK 18/17 Q1011 NOSIG;",
"08594499999","2010-11-23T09:00:00","4","16.136531","-22.888897","21.03","BOA VISTA RABIL, CV","FM-15","GVBA ","V020","999,9,C,0000,1","99999,9,9,Y","009900,1,N,1","+0220,1","+0200,1","99999,9",,,,,"10108,1,99999,9",,,,"MET051METAR GVBA 230900Z 00000KT CAVOK 22/20 Q1011 NOSIG;",
"08594499999","2010-11-23T10:00:00","4","16.136531","-22.888897","21.03","BOA VISTA RABIL, CV","FM-15","GVBA ","V020","030,1,N,0036,1","99999,9,9,Y","009900,1,N,1","+0270,1","+0200,1","99999,9",,,,,"10108,1,99999,9",,,,"MET051METAR GVBA 231000Z 03007KT CAVOK 27/20 Q1011 NOSIG;",
"08594499999","2010-11-23T11:00:00","4","16.136531","-22.888897","21.03","BOA VISTA RABIL, CV","FM-15","GVBA ","V020","030,1,N,0057,1","99999,9,9,Y","009900,1,N,1","+0280,1","+0200,1","99999,9",,,,,"10108,1,99999,9",,,,"MET051METAR GVBA 231100Z 03011KT CAVOK 28/20 Q1011 NOSIG;",
"08594499999","2010-11-23T12:00:00","4","16.136531","-22.888897","21.03","BOA VISTA RABIL, CV","FM-15","GVBA ","V020","030,1,N,0062,1","99999,9,9,Y","009900,1,N,1","+0290,1","+0200,1","99999,9",,,,,"10102,1,99999,9",,,,"MET051METAR GVBA 231200Z 03012KT CAVOK 29/20 Q1010 NOSIG;",
"08594499999","2010-11-23T13:00:00","4","16.136531","-22.888897","21.03","BOA VISTA RABIL, CV","FM-15","GVBA ","V020","050,1,N,0062,1","99999,9,9,Y","009900,1,N,1","+0290,1","+0200,1","99999,9",,,,,"10102,1,99999,9",,,,"MET051METAR GVBA 231300Z 05012KT CAVOK 29/20 Q1010 NOSIG;",
"08594499999","2010-11-23T14:00:00","4","16.136531","-22.888897","21.03","BOA VISTA RABIL, CV","FM-15","GVBA ","V020","020,1,N,0051,1","22000,1,9,N","011265,1,N,1","+0300,1","+0200,1","99999,9","02,5,+00450,1,99,9",,,"02,99,1,99,9,99,9,99999,9,99,9,99,9","10091,1,99999,9",,,,"MET057METAR GVBA 231400Z 02010KT 9999 FEW015 30/20 Q1009 NOSIG;",
"08594499999","2010-11-23T15:00:00","4","16.136531","-22.888897","21.03","BOA VISTA RABIL, CV","FM-15","GVBA ","V020","360,1,N,0041,1","22000,1,9,N","011265,1,N,1","+0300,1","+0200,1","99999,9","02,5,+00450,1,99,9",,,"02,99,1,99,9,99,9,99999,9,99,9,99,9","10081,1,99999,9",,,,"MET057METAR GVBA 231500Z 36008KT 9999 FEW015 30/20 Q1008 NOSIG;",
"08594499999","2010-11-23T17:00:00","4","16.136531","-22.888897","21.03","BOA VISTA RABIL, CV","FM-15","GVBA ","V020","040,1,N,0051,1","22000,1,9,N","011265,1,N,1","+0290,1","+0200,1","99999,9","02,5,+00450,1,99,9",,,"02,99,1,99,9,99,9,99999,9,99,9,99,9","10081,1,99999,9",,,,"MET057METAR GVBA 231700Z 04010KT 9999 FEW015 29/20 Q1008 NOSIG;",
"08594499999","2010-11-23T18:00:00","4","16.136531","-22.888897","21.03","BOA VISTA RABIL, CV","FM-15","GVBA ","V020","050,1,N,0046,1","22000,1,9,N","011265,1,N,1","+0280,1","+0200,1","99999,9","02,5,+00450,1,99,9",,,"02,99,1,99,9,99,9,99999,9,99,9,99,9","10081,1,99999,9",,,,"MET057METAR GVBA 231800Z 05009KT 9999 FEW015 28/20 Q1008 NOSIG;",
"08594499999","2010-11-23T19:00:00","4","16.136531","-22.888897","21.03","BOA VISTA RABIL, CV","FM-15","GVBA ","V020","040,1,N,0041,1","22000,1,9,N","011265,1,N,1","+0260,1","+0200,1","99999,9","02,5,+00450,1,99,9",,,"02,99,1,99,9,99,9,99999,9,99,9,99,9","10091,1,99999,9",,,,"MET057METAR GVBA 231900Z 04008KT 9999 FEW015 26/20 Q1009 NOSIG;",
"08594499999","2010-11-24T08:00:00","4","16.136531","-22.888897","21.03","BOA VISTA RABIL, CV","FM-15","GVBA ","V020","999,9,C,0000,1","99999,9,C,N","011265,1,N,1","+0210,1","+0200,1","99999,9","02,5,+00450,1,99,9","04,5,+06000,1,99,9",,"04,99,1,99,9,99,9,99999,9,99,9,99,9","10108,1,99999,9",,,,"MET064METAR GVBA 240800Z 00000KT 9999 FEW015 SCT200 21/20 Q1011 NOSIG;","P01 060003SCOCIG"
"08594499999","2010-11-24T09:00:00","4","16.136531","-22.888897","21.03","BOA VISTA RABIL, CV","FM-15","GVBA ","V020","080,1,N,0015,1","06000,1,C,N","011265,1,N,1","+0230,1","+0220,1","99999,9","02,5,+00450,1,99,9","07,5,+06000,1,99,9",,"07,99,1,99,9,99,9,99999,9,99,9,99,9","10119,1,99999,9",,,,"MET064METAR GVBA 240900Z 08003KT 9999 FEW015 BKN200 23/22 Q1012 NOSIG;",
"08594499999","2010-11-24T10:00:00","4","16.136531","-22.888897","21.03","BOA VISTA RABIL, CV","FM-15","GVBA ","V020","030,1,N,0051,1","06000,1,C,N","011265,1,N,1","+0260,1","+0220,1","99999,9","02,5,+00450,1,99,9","07,5,+06000,1,99,9",,"07,99,1,99,9,99,9,99999,9,99,9,99,9","10119,1,99999,9",,,,"MET064METAR GVBA 241000Z 03010KT 9999 FEW015 BKN200 26/22 Q1012 NOSIG;",
"08594499999","2010-11-24T11:00:00","4","16.136531","-22.888897","21.03","BOA VISTA RABIL, CV","FM-15","GVBA ","V020","020,1,N,0031,1","06000,1,C,N","011265,1,N,1","+0280,1","+0220,1","99999,9","02,5,+00450,1,99,9","07,5,+06000,1,99,9",,"07,99,1,99,9,99,9,99999,9,99,9,99,9","10119,1,99999,9",,,,"MET064METAR GVBA 241100Z 02006KT 9999 FEW015 BKN200 28/22 Q1012 NOSIG;",
"08594499999","2010-11-24T12:00:00","4","16.136531","-22.888897","21.03","BOA VISTA RABIL, CV","FM-15","GVBA ","V020","010,1,N,0031,1","06000,1,C,N","011265,1,N,1","+0290,1","+0210,1","99999,9","02,5,+00420,1,99,9","07,5,+06000,1,99,9",,"07,99,1,99,9,99,9,99999,9,99,9,99,9","10119,1,99999,9",,,,"MET064METAR GVBA 241200Z 01006KT 9999 FEW014 BKN200 29/21 Q1012 NOSIG;",
"08594499999","2010-11-24T13:00:00","4","16.136531","-22.888897","21.03","BOA VISTA RABIL, CV","FM-15","GVBA ","V020","020,1,N,0041,1","99999,9,9,Y","009900,1,N,1","+0290,1","+0210,1","99999,9",,,,,"10119,1,99999,9",,,,"MET051METAR GVBA 241300Z 02008KT CAVOK 29/21 Q1012 NOSIG;",
"08594499999","2010-11-24T14:00:00","4","16.136531","-22.888897","21.03","BOA VISTA RABIL, CV","FM-15","GVBA ","V020","040,1,N,0051,1","99999,9,9,Y","009900,1,N,1","+0310,1","+0210,1","99999,9",,,,,"10108,1,99999,9",,,,"MET052METAR GVBA 241400Z 04010KT CAVOK 319/21 Q1011 NOSIG;",
"08594499999","2010-11-24T15:00:00","4","16.136531","-22.888897","21.03","BOA VISTA RABIL, CV","FM-15","GVBA ","V020","050,1,N,0041,1","99999,9,9,Y","009900,1,N,1","+0310,1","+0210,1","99999,9",,,,,"10102,1,99999,9",,,,"MET051METAR GVBA 241500Z 05008KT CAVOK 31/21 Q1010 NOSIG;",
"08594499999","2010-11-24T16:00:00","4","16.136531","-22.888897","21.03","BOA VISTA RABIL, CV","FM-15","GVBA ","V020","040,1,N,0036,1","99999,9,9,Y","009900,1,N,1","+0320,1","+0210,1","99999,9",,,,,"10102,1,99999,9",,,,"MET051METAR GVBA 241600Z 04007KT CAVOK 32/21 Q1010 NOSIG;",
"08594499999","2010-11-24T17:00:00","4","16.136531","-22.888897","21.03","BOA VISTA RABIL, CV","FM-15","GVBA ","V020","050,1,N,0051,1","99999,9,9,Y","009900,1,N,1","+0300,1","+0200,1","99999,9",,,,,"10102,1,99999,9",,,,"MET051METAR GVBA 241700Z 05010KT CAVOK 30/20 Q1010 NOSIG;",
"08594499999","2010-11-24T18:00:00","4","16.136531","-22.888897","21.03","BOA VISTA RABIL, CV","FM-15","GVBA ","V020","040,1,N,0051,1","99999,9,9,Y","009900,1,N,1","+0280,1","+0220,1","99999,9",,,,,"10108,1,99999,9",,,,"MET051METAR GVBA 241800Z 04010KT CAVOK 28/22 Q1011 NOSIG;",
"08594499999","2010-11-24T19:00:00","4","16.136531","-22.888897","21.03","BOA VISTA RABIL, CV","FM-15","GVBA ","V020","050,1,N,0041,1","99999,9,9,Y","009900,1,N,1","+0260,1","+0220,1","99999,9",,,,,"10108,1,99999,9",,,,"MET051METAR GVBA 241900Z 05008KT CAVOK 26/22 Q1011 NOSIG;",
"08594499999","2010-11-25T08:00:00","4","16.136531","-22.888897","21.03","BOA VISTA RABIL, CV","FM-15","GVBA ","V020","010,1,N,0021,1","99999,9,9,Y","009900,1,N,1","+0230,1","+0220,1","99999,9",,,,,"10119,1,99999,9",,,,"MET051METAR GVBA 250800Z 01004KT CAVOK 23/22 Q1012 NOSIG;",
"08594499999","2010-11-25T09:00:00","4","16.136531","-22.888897","21.03","BOA VISTA RABIL, CV","FM-15","GVBA ","V020","030,1,N,0036,1","99999,9,9,Y","009900,1,N,1","+0250,1","+0230,1","99999,9",,,,,"10129,1,99999,9",,,,"MET051METAR GVBA 250900Z 03007KT CAVOK 25/23 Q1013 NOSIG;",
"08594499999","2010-11-25T10:00:00","4","16.136531","-22.888897","21.03","BOA VISTA RABIL, CV","FM-15","GVBA ","V020","030,1,N,0041,1","99999,9,9,Y","009900,1,N,1","+0260,1","+0230,1","99999,9",,,,,"10129,1,99999,9",,,,"MET051METAR GVBA 251000Z 03008KT CAVOK 26/23 Q1013 NOSIG;",
"08594499999","2010-11-25T11:00:00","4","16.136531","-22.888897","21.03","BOA VISTA RABIL, CV","FM-15","GVBA ","V020","030,1,N,0051,1","99999,9,9,Y","009900,1,N,1","+0290,1","+0220,1","99999,9",,,,,"10139,1,99999,9",,,,"MET051METAR GVBA 251100Z 03010KT CAVOK 29/22 Q1014 NOSIG;",
"08594499999","2010-11-25T12:00:00","4","16.136531","-22.888897","21.03","BOA VISTA RABIL, CV","FM-15","GVBA ","V020","040,1,N,0062,1","99999,9,9,Y","009900,1,N,1","+0290,1","+0220,1","99999,9",,,,,"10129,1,99999,9",,,,"MET051METAR GVBA 251200Z 04012KT CAVOK 29/22 Q1013 NOSIG;",
"08594499999","2010-11-25T13:00:00","4","16.136531","-22.888897","21.03","BOA VISTA RABIL, CV","FM-15","GVBA ","V020","040,1,N,0067,1","99999,9,9,Y","009900,1,N,1","+0300,1","+0220,1","99999,9",,,,,"10129,1,99999,9",,,,"MET051METAR GVBA 251300Z 04013KT CAVOK 30/22 Q1013 NOSIG;",
"08594499999","2010-11-25T14:00:00","4","16.136531","-22.888897","21.03","BOA VISTA RABIL, CV","FM-15","GVBA ","V020","010,1,N,0051,1","99999,9,9,Y","009900,1,N,1","+0300,1","+0190,1","99999,9",,,,,"10119,1,99999,9",,,,"MET051METAR GVBA 251400Z 01010KT CAVOK 30/19 Q1012 NOSIG;",
"08594499999","2010-11-25T15:00:00","4","16.136531","-22.888897","21.03","BOA VISTA RABIL, CV","FM-15","GVBA ","V020","030,1,N,0051,1","99999,9,9,Y","009900,1,N,1","+0300,1","+0200,1","99999,9",,,,,"10108,1,99999,9",,,,"MET051METAR GVBA 251500Z 03010KT CAVOK 30/20 Q1011 NOSIG;",
"08594499999","2010-11-25T16:00:00","4","16.136531","-22.888897","21.03","BOA VISTA RABIL, CV","FM-15","GVBA ","V020","350,1,N,0062,1","99999,9,9,Y","009900,1,N,1","+0300,1","+0210,1","99999,9",,,,,"10119,1,99999,9",,,,"MET051METAR GVBA 251600Z 35012KT CAVOK 30/21 Q1012 NOSIG;",
"08594499999","2010-11-25T18:00:00","4","16.136531","-22.888897","21.03","BOA VISTA RABIL, CV","FM-15","GVBA ","V020","030,1,N,0057,1","99999,9,9,Y","009900,1,N,1","+0280,1","+0220,1","99999,9",,,,,"10119,1,99999,9",,,,"MET051METAR GVBA 251800Z 03011KT CAVOK 28/22 Q1012 NOSIG;",
"08594499999","2010-11-25T19:00:00","4","16.136531","-22.888897","21.03","BOA VISTA RABIL, CV","FM-15","GVBA ","V020","030,1,N,0051,1","06000,1,C,N","011265,1,N,1","+0280,1","+0220,1","99999,9","02,5,+00450,1,99,9","07,5,+06000,1,99,9",,"07,99,1,99,9,99,9,99999,9,99,9,99,9","10119,1,99999,9",,,,"MET064METAR GVBA 251900Z 03010KT 9999 FEW015 BKN200 28/22 Q1012 NOSIG;",
"08594499999","2010-11-26T08:00:00","4","16.136531","-22.888897","21.03","BOA VISTA RABIL, CV","FM-15","GVBA ","V020","040,1,N,0021,1","06000,1,C,N","011265,1,N,1","+0240,1","+0220,1","99999,9","02,5,+00420,1,99,9","07,5,+06000,1,99,9",,"07,99,1,99,9,99,9,99999,9,99,9,99,9","10119,1,99999,9",,,,"MET064METAR GVBA 260800Z 04004KT 9999 FEW014 BKN200 24/22 Q1012 NOSIG;",
"08594499999","2010-11-26T09:00:00","4","16.136531","-22.888897","21.03","BOA VISTA RABIL, CV","FM-15","GVBA ","V020","050,1,N,0046,1","06000,1,C,N","011265,1,N,1","+0250,1","+0220,1","99999,9","02,5,+00420,1,99,9","07,5,+06000,1,99,9",,"07,99,1,99,9,99,9,99999,9,99,9,99,9","10119,1,99999,9",,,,"MET064METAR GVBA 260900Z 05009KT 9999 FEW014 BKN200 25/22 Q1012 NOSIG;",
"08594499999","2010-11-26T10:00:00","4","16.136531","-22.888897","21.03","BOA VISTA RABIL, CV","FM-15","GVBA ","V020","040,1,N,0046,1","06000,1,C,N","011265,1,N,1","+0260,1","+0220,1","99999,9","02,5,+00450,1,99,9","07,5,+06000,1,99,9",,"07,99,1,99,9,99,9,99999,9,99,9,99,9","10129,1,99999,9",,,,"MET064METAR GVBA 261000Z 04009KT 9999 FEW015 BKN200 26/22 Q1013 NOSIG;",
"08594499999","2010-11-26T11:00:00","4","16.136531","-22.888897","21.03","BOA VISTA RABIL, CV","FM-15","GVBA ","V020","050,1,N,0046,1","06000,1,C,N","011265,1,N,1","+0280,1","+0220,1","99999,9","02,5,+00450,1,99,9","07,5,+06000,1,99,9",,"07,99,1,99,9,99,9,99999,9,99,9,99,9","10129,1,99999,9",,,,"MET064METAR GVBA 261100Z 05009KT 9999 FEW015 BKN200 28/22 Q1013 NOSIG;",
"08594499999","2010-11-26T12:00:00","4","16.136531","-22.888897","21.03","BOA VISTA RABIL, CV","FM-15","GVBA ","V020","030,1,N,0051,1","06000,1,C,N","011265,1,N,1","+0290,1","+0210,1","99999,9","02,5,+00450,1,99,9","07,5,+06000,1,99,9",,"07,99,1,99,9,99,9,99999,9,99,9,99,9","10129,1,99999,9",,,,"MET064METAR GVBA 261200Z 03010KT 9999 FEW015 BKN200 29/21 Q1013 NOSIG;",
"08594499999","2010-11-26T13:00:00","4","16.136531","-22.888897","21.03","BOA VISTA RABIL, CV","FM-15","GVBA ","V020","030,1,N,0051,1","06000,1,C,N","011265,1,N,1","+0300,1","+0210,1","99999,9","02,5,+00450,1,99,9","07,5,+06000,1,99,9",,"07,99,1,99,9,99,9,99999,9,99,9,99,9","10119,1,99999,9",,,,"MET064METAR GVBA 261300Z 03010KT 9999 FEW015 BKN200 30/21 Q1012 NOSIG;",
"08594499999","2010-11-26T14:00:00","4","16.136531","-22.888897","21.03","BOA VISTA RABIL, CV","FM-15","GVBA ","V020","050,1,N,0051,1","06000,1,C,N","011265,1,N,1","+0300,1","+0220,1","99999,9","02,5,+00450,1,99,9","07,5,+06000,1,99,9",,"07,99,1,99,9,99,9,99999,9,99,9,99,9","10108,1,99999,9",,,,"MET063METAR GVBA 261400Z 05010KT 9999 FEW015 BKN200 30/22 Q1011NOSIG;",
"08594499999","2010-11-26T15:00:00","4","16.136531","-22.888897","21.03","BOA VISTA RABIL, CV","FM-15","GVBA ","V020","060,1,N,0051,1","06000,1,C,N","011265,1,N,1","+0300,1","+0200,1","99999,9","02,5,+00450,1,99,9","07,5,+06000,1,99,9",,"07,99,1,99,9,99,9,99999,9,99,9,99,9","10102,1,99999,9",,,,"MET064METAR GVBA 261500Z 06010KT 9999 FEW015 BKN200 30/20 Q1010 NOSIG;",
"08594499999","2010-11-26T16:00:00","4","16.136531","-22.888897","21.03","BOA VISTA RABIL, CV","FM-15","GVBA ","V020","060,1,N,0051,1","22000,1,9,N","011265,1,N,1","+0300,1","+0210,1","99999,9","02,5,+00450,1,99,9",,,"02,99,1,99,9,99,9,99999,9,99,9,99,9","10102,1,99999,9",,,,"MET057METAR GVBA 261600Z 06010KT 9999 FEW015 30/21 Q1010 NOSIG;",
"08594499999","2010-11-26T17:00:00","4","16.136531","-22.888897","21.03","BOA VISTA RABIL, CV","FM-15","GVBA ","V020","050,1,N,0051,1","22000,1,9,N","011265,1,N,1","+0290,1","+0210,1","99999,9","02,5,+00450,1,99,9",,,"02,99,1,99,9,99,9,99999,9,99,9,99,9","10102,1,99999,9",,,,"MET057METAR GVBA 261700Z 05010KT 9999 FEW015 29/21 Q1010 NOSIG;",
"08594499999","2010-11-26T18:00:00","4","16.136531","-22.888897","21.03","BOA VISTA RABIL, CV","FM-15","GVBA ","V020","050,1,N,0051,1","22000,1,9,N","011265,1,N,1","+0280,1","+0210,1","99999,9","04,5,+00450,1,99,9",,,"04,99,1,99,9,99,9,99999,9,99,9,99,9","10102,1,99999,9",,,,"MET057METAR GVBA 261800Z 05010KT 9999 SCT015 28/21 Q1010 NOSIG;",
"08594499999","2010-11-26T19:00:00","4","16.136531","-22.888897","21.03","BOA VISTA RABIL, CV","FM-15","GVBA ","V020","050,1,N,0051,1","22000,1,9,N","011265,1,N,1","+0260,1","+0210,1","99999,9","02,5,+00450,1,99,9",,,"02,99,1,99,9,99,9,99999,9,99,9,99,9","10108,1,99999,9",,,,"MET057METAR GVBA 261900Z 05010KT 9999 FEW015 26/21 Q1011 NOSIG;",
"08594499999","2010-11-27T08:00:00","4","16.136531","-22.888897","21.03","BOA VISTA RABIL, CV","FM-15","GVBA ","V020","999,9,C,0000,1","06000,1,C,N","011265,1,N,1","+0210,1","+0200,1","99999,9","04,5,+00450,1,99,9","07,5,+06000,1,99,9",,"07,99,1,99,9,99,9,99999,9,99,9,99,9","10119,1,99999,9",,,,"MET064METAR GVBA 270800Z 00000KT 9999 SCT015 BKN200 21/20 Q1012 NOSIG;",
"08594499999","2010-11-27T09:00:00","4","16.136531","-22.888897","21.03","BOA VISTA RABIL, CV","FM-15","GVBA ","V020","060,1,N,0021,1","22000,1,9,N","011265,1,N,1","+0240,1","+0210,1","99999,9","04,5,+00450,1,99,9",,,"04,99,1,99,9,99,9,99999,9,99,9,99,9","10129,1,99999,9",,,,"MET057METAR GVBA 270900Z 06004KT 9999 SCT015 24/21 Q1013 NOSIG;",
"08594499999","2010-11-27T10:00:00","4","16.136531","-22.888897","21.03","BOA VISTA RABIL, CV","FM-15","GVBA ","V020","060,1,N,0041,1","99999,9,C,N","011265,1,N,1","+0270,1","+0210,1","99999,9","02,5,+00450,1,99,9","04,5,+06000,1,99,9",,"04,99,1,99,9,99,9,99999,9,99,9,99,9","10129,1,99999,9",,,,"MET064METAR GVBA 271000Z 06008KT 9999 FEW015 SCT200 27/21 Q1013 NOSIG;","P01 060003SCOCIG"
"08594499999","2010-11-27T11:00:00","4","16.136531","-22.888897","21.03","BOA VISTA RABIL, CV","FM-15","GVBA ","V020","070,1,N,0026,1","06000,1,C,N","011265,1,N,1","+0280,1","+0210,1","99999,9","02,5,+00450,1,99,9","07,5,+06000,1,99,9",,"07,99,1,99,9,99,9,99999,9,99,9,99,9","10129,1,99999,9",,,,"MET064METAR GVBA 271100Z 07005KT 9999 FEW015 BKN200 28/21 Q1013 NOSIG;",
"08594499999","2010-11-27T12:00:00","4","16.136531","-22.888897","21.03","BOA VISTA RABIL, CV","FM-15","GVBA ","V020","070,1,N,0031,1","06000,1,C,N","011265,1,N,1","+0290,1","+0210,1","99999,9","02,5,+00450,1,99,9","07,5,+06000,1,99,9",,"07,99,1,99,9,99,9,99999,9,99,9,99,9","10129,1,99999,9",,,,"MET064METAR GVBA 271200Z 07006KT 9999 FEW015 BKN200 29/21 Q1013 NOSIG;",
"08594499999","2010-11-27T13:00:00","4","16.136531","-22.888897","21.03","BOA VISTA RABIL, CV","FM-15","GVBA ","V020","090,1,N,0046,1","06000,1,C,N","011265,1,N,1","+0300,1","+0210,1","99999,9","02,5,+00450,1,99,9","07,5,+06000,1,99,9",,"07,99,1,99,9,99,9,99999,9,99,9,99,9","10119,1,99999,9",,,,"MET064METAR GVBA 271300Z 09009KT 9999 FEW015 BKN200 30/21 Q1012 NOSIG;",
"08594499999","2010-11-27T14:00:00","4","16.136531","-22.888897","21.03","BOA VISTA RABIL, CV","FM-15","GVBA ","V020","070,1,N,0041,1","06000,1,C,N","011265,1,N,1","+0300,1","+0200,1","99999,9","02,5,+00450,1,99,9","07,5,+06000,1,99,9",,"07,99,1,99,9,99,9,99999,9,99,9,99,9","10108,1,99999,9",,,,"MET064METAR GVBA 271400Z 07008KT 9999 FEW015 BKN200 30/20 Q1011 NOSIG;",
"08594499999","2010-11-27T15:00:00","4","16.136531","-22.888897","21.03","BOA VISTA RABIL, CV","FM-15","GVBA ","V020","060,1,N,0051,1","06000,1,C,N","011265,1,N,1","+0310,1","+0200,1","99999,9","02,5,+00450,1,99,9","07,5,+06000,1,99,9",,"07,99,1,99,9,99,9,99999,9,99,9,99,9","10102,1,99999,9",,,,"MET064METAR GVBA 271500Z 06010KT 9999 FEW015 BKN200 31/20 Q1010 NOSIG;",
"08594499999","2010-11-27T16:00:00","4","16.136531","-22.888897","21.03","BOA VISTA RABIL, CV","FM-15","GVBA ","V020","060,1,N,0062,1","06000,1,C,N","011265,1,N,1","+0310,1","+0210,1","99999,9","02,5,+00450,1,99,9","07,5,+06000,1,99,9",,"07,99,1,99,9,99,9,99999,9,99,9,99,9","10102,1,99999,9",,,,"MET064METAR GVBA 271600Z 06012KT 9999 FEW015 BKN200 31/21 Q1010 NOSIG;",
"08594499999","2010-11-27T17:00:00","4","16.136531","-22.888897","21.03","BOA VISTA RABIL, CV","FM-15","GVBA ","V020","070,1,N,0041,1","03000,1,C,N","011265,1,N,1","+0300,1","+0210,1","99999,9","02,5,+00450,1,99,9","04,5,+03000,1,99,9","07,5,+06000,1,99,9","07,99,1,99,9,99,9,99999,9,99,9,99,9","10102,1,99999,9",,,,"MET071METAR GVBA 271700Z 07008KT 9999 FEW015 SCT100 BKN200 30/21 Q1010 NOSIG;",
"08594499999","2010-11-27T18:00:00","4","16.136531","-22.888897","21.03","BOA VISTA RABIL, CV","FM-15","GVBA ","V020","090,1,N,0031,1","03000,1,C,N","011265,1,N,1","+0280,1","+0210,1","99999,9","02,5,+00450,1,99,9","07,5,+03000,1,99,9","07,5,+06000,1,99,9","07,99,1,99,9,99,9,99999,9,99,9,99,9","10102,1,99999,9",,,,"MET071METAR GVBA 271800Z 09006KT 9999 FEW015 BKN100 BKN200 28/21 Q1010 NOSIG;",
"08594499999","2010-11-27T19:00:00","4","16.136531","-22.888897","21.03","BOA VISTA RABIL, CV","FM-15","GVBA ","V020","100,1,N,0026,1","03000,1,C,N","011265,1,N,1","+0270,1","+0210,1","99999,9","02,5,+00450,1,99,9","07,5,+03000,1,99,9","07,5,+06000,1,99,9","07,99,1,99,9,99,9,99999,9,99,9,99,9","10102,1,99999,9",,,,"MET071METAR GVBA 271900Z 10005KT 9999 FEW015 BKN100 BKN200 27/21 Q1010 NOSIG;",
"08594499999","2010-11-28T08:00:00","4","16.136531","-22.888897","21.03","BOA VISTA RABIL, CV","FM-15","GVBA ","V020","999,9,V,0010,1","06000,1,C,N","011265,1,N,1","+9999,9","+9999,9","99999,9","02,5,+00420,1,99,9","07,5,+06000,1,99,9",,"07,99,1,99,9,99,9,99999,9,99,9,99,9","10102,1,99999,9",,,,"MET058METAR GVBA 280800Z VRB02KT 9999 FEW014 BKN200 Q1010 NOSIG;",
"08594499999","2010-11-28T09:00:00","4","16.136531","-22.888897","21.03","BOA VISTA RABIL, CV","FM-15","GVBA ","V020","999,9,C,0000,1","06000,1,C,N","011265,1,N,1","+0240,1","+0220,1","99999,9","04,5,+00420,1,99,9","07,5,+06000,1,99,9",,"07,99,1,99,9,99,9,99999,9,99,9,99,9","10108,1,99999,9",,,,"MET064METAR GVBA 280900Z 00000KT 9999 SCT014 BKN200 24/22 Q1011 NOSIG;",
"08594499999","2010-11-28T10:00:00","4","16.136531","-22.888897","21.03","BOA VISTA RABIL, CV","FM-15","GVBA ","V020","999,9,V,0010,1","06000,1,C,N","011265,1,N,1","+0270,1","+0230,1","99999,9","04,5,+00450,1,99,9","07,5,+06000,1,99,9",,"07,99,1,99,9,99,9,99999,9,99,9,99,9","10119,1,99999,9",,,,"MET064METAR GVBA 281000Z VRB02KT 9999 SCT015 BKN200 27/23 Q1012 NOSIG;",
"08594499999","2010-11-28T11:00:00","4","16.136531","-22.888897","21.03","BOA VISTA RABIL, CV","FM-15","GVBA ","V020","999,9,V,0010,1","06000,1,C,N","011265,1,N,1","+0290,1","+0220,1","99999,9","02,5,+00450,1,99,9","07,5,+06000,1,99,9",,"07,99,1,99,9,99,9,99999,9,99,9,99,9","10119,1,99999,9",,,,"MET064METAR GVBA 281100Z VRB02KT 9999 FEW015 BKN200 29/22 Q1012 NOSIG;",
"08594499999","2010-11-28T12:00:00","4","16.136531","-22.888897","21.03","BOA VISTA RABIL, CV","FM-15","GVBA ","V020","999,9,V,0010,1","06000,1,C,N","011265,1,N,1","+0310,1","+0200,1","99999,9","02,5,+00450,1,99,9","07,5,+06000,1,99,9",,"07,99,1,99,9,99,9,99999,9,99,9,99,9","10119,1,99999,9",,,,"MET064METAR GVBA 281200Z VRB02KT 9999 FEW015 BKN200 31/20 Q1012 NOSIG;",
"08594499999","2010-11-28T13:00:00","4","16.136531","-22.888897","21.03","BOA VISTA RABIL, CV","FM-15","GVBA ","V020","310,1,N,0031,1","06000,1,C,N","011265,1,N,1","+0300,1","+0230,1","99999,9","02,5,+00450,1,99,9","07,5,+06000,1,99,9",,"07,99,1,99,9,99,9,99999,9,99,9,99,9","10108,1,99999,9",,,,"MET064METAR GVBA 281300Z 31006KT 9999 FEW015 BKN200 30/23 Q1011 NOSIG;",
"08594499999","2010-11-28T14:00:00","4","16.136531","-22.888897","21.03","BOA VISTA RABIL, CV","FM-15","GVBA ","V020","310,1,N,0026,1","03000,1,C,N","011265,1,N,1","+0300,1","+0230,1","99999,9","02,5,+00450,1,99,9","07,5,+03000,1,99,9",,"07,99,1,99,9,99,9,99999,9,99,9,99,9","10108,1,99999,9",,,,"MET064METAR GVBA 281400Z 31005KT 9999 FEW015 BKN100 30/23 Q1011 NOSIG;",
"08594499999","2010-11-28T15:00:00","4","16.136531","-22.888897","21.03","BOA VISTA RABIL, CV","FM-15","GVBA ","V020","300,1,N,0031,1","03000,1,C,N","011265,1,N,1","+0290,1","+0230,1","99999,9","02,5,+00450,1,99,9","07,5,+03000,1,99,9",,"07,99,1,99,9,99,9,99999,9,99,9,99,9","10102,1,99999,9",,,,"MET064METAR GVBA 281500Z 30006KT 9999 FEW015 BKN100 29/23 Q1010 NOSIG;",
"08594499999","2010-11-28T16:00:00","4","16.136531","-22.888897","21.03","BOA VISTA RABIL, CV","FM-15","GVBA ","V020","310,1,N,0036,1","03000,1,C,N","011265,1,N,1","+0290,1","+0230,1","99999,9","02,5,+00450,1,99,9","04,5,+03000,1,99,9","07,5,+06000,1,99,9","07,99,1,99,9,99,9,99999,9,99,9,99,9","10102,1,99999,9",,,,"MET071METAR GVBA 281600Z 31007KT 9999 FEW015 SCT100 BKN200 29/23 Q1010 NOSIG;",
"08594499999","2010-11-28T17:00:00","4","16.136531","-22.888897","21.03","BOA VISTA RABIL, CV","FM-15","GVBA ","V020","310,1,N,0031,1","03000,1,C,N","011265,1,N,1","+0280,1","+0230,1","99999,9","02,5,+00450,1,99,9","04,5,+03000,1,99,9","07,5,+06000,1,99,9","07,99,1,99,9,99,9,99999,9,99,9,99,9","10102,1,99999,9",,,,"MET071METAR GVBA 281700Z 31006KT 9999 FEW015 SCT100 BKN200 28/23 Q1010 NOSIG;",
"08594499999","2010-11-28T18:00:00","4","16.136531","-22.888897","21.03","BOA VISTA RABIL, CV","FM-15","GVBA ","V020","330,1,N,0026,1","99999,9,9,Y","009900,1,N,1","+0280,1","+0230,1","99999,9",,,,,"10102,1,99999,9",,,,"MET051METAR GVBA 281800Z 33005KT CAVOK 28/23 Q1010 NOSIG;",
"08594499999","2010-11-28T19:00:00","4","16.136531","-22.888897","21.03","BOA VISTA RABIL, CV","FM-15","GVBA ","V020","999,9,C,0000,1","99999,9,9,Y","009900,1,N,1","+0260,1","+0230,1","99999,9",,,,,"10102,1,99999,9",,,,"MET051METAR GVBA 281900Z 00000KT CAVOK 26/23 Q1010 NOSIG;",
"08594499999","2010-11-29T08:00:00","4","16.136531","-22.888897","21.03","BOA VISTA RABIL, CV","FM-15","GVBA ","V020","999,9,C,0000,1","03000,1,C,N","011265,1,N,1","+0230,1","+0220,1","99999,9","02,5,+00420,1,99,9","04,5,+03000,1,99,9","07,5,+06000,1,99,9","07,99,1,99,9,99,9,99999,9,99,9,99,9","10102,1,99999,9",,,,"MET071METAR GVBA 290800Z 00000KT 9999 FEW014 SCT100 BKN200 23/22 Q1010 NOSIG;",
"08594499999","2010-11-29T09:00:00","4","16.136531","-22.888897","21.03","BOA VISTA RABIL, CV","FM-15","GVBA ","V020","150,1,N,0021,1","06000,1,C,N","011265,1,N,1","+0240,1","+0220,1","99999,9","04,5,+00420,1,99,9","07,5,+06000,1,99,9",,"07,99,1,99,9,99,9,99999,9,99,9,99,9","10108,1,99999,9",,,,"MET064METAR GVBA 290900Z 15004KT 9999 SCT014 BKN200 24/22 Q1011 NOSIG;",
"08594499999","2010-11-29T10:00:00","4","16.136531","-22.888897","21.03","BOA VISTA RABIL, CV","FM-15","GVBA ","V020","180,1,N,0031,1","06000,1,C,N","011265,1,N,1","+0270,1","+0220,1","99999,9","04,5,+00450,1,99,9","07,5,+06000,1,99,9",,"07,99,1,99,9,99,9,99999,9,99,9,99,9","10108,1,99999,9",,,,"MET064METAR GVBA 291000Z 18006KT 9999 SCT015 BKN200 27/22 Q1011 NOSIG;",
"08594499999","2010-11-29T11:00:00","4","16.136531","-22.888897","21.03","BOA VISTA RABIL, CV","FM-15","GVBA ","V020","180,1,N,0041,1","06000,1,C,N","011265,1,N,1","+0290,1","+0220,1","99999,9","02,5,+00450,1,99,9","07,5,+06000,1,99,9",,"07,99,1,99,9,99,9,99999,9,99,9,99,9","10108,1,99999,9",,,,"MET064METAR GVBA 291100Z 18008KT 9999 FEW015 BKN200 29/22 Q1011 NOSIG;",
"08594499999","2010-11-29T12:00:00","4","16.136531","-22.888897","21.03","BOA VISTA RABIL, CV","FM-15","GVBA ","V020","200,1,N,0031,1","06000,1,C,N","011265,1,N,1","+0310,1","+0210,1","99999,9","02,5,+00450,1,99,9","07,5,+06000,1,99,9",,"07,99,1,99,9,99,9,99999,9,99,9,99,9","10108,1,99999,9",,,,"MET064METAR GVBA 291200Z 20006KT 9999 FEW015 BKN200 31/21 Q1011 NOSIG;",
"08594499999","2010-11-29T13:00:00","4","16.136531","-22.888897","21.03","BOA VISTA RABIL, CV","FM-15","GVBA ","V020","220,1,N,0041,1","06000,1,C,N","011265,1,N,1","+0320,1","+0220,1","99999,9","02,5,+00450,1,99,9","07,5,+06000,1,99,9",,"07,99,1,99,9,99,9,99999,9,99,9,99,9","10102,1,99999,9",,,,"MET064METAR GVBA 291300Z 22008KT 9999 FEW015 BKN200 32/22 Q1010 NOSIG;",
"08594499999","2010-11-29T14:00:00","4","16.136531","-22.888897","21.03","BOA VISTA RABIL, CV","FM-15","GVBA ","V020","250,1,N,0046,1","06000,1,C,N","011265,1,N,1","+0300,1","+0230,1","99999,9","02,5,+00450,1,99,9","07,5,+06000,1,99,9",,"07,99,1,99,9,99,9,99999,9,99,9,99,9","10102,1,99999,9",,,,"MET064METAR GVBA 291400Z 25009KT 9999 FEW015 BKN200 30/23 Q1010 NOSIG;",
"08594499999","2010-11-29T15:00:00","4","16.136531","-22.888897","21.03","BOA VISTA RABIL, CV","FM-15","GVBA ","V020","270,1,N,0046,1","06000,1,C,N","011265,1,N,1","+0300,1","+0220,1","99999,9","02,5,+00450,1,99,9","07,5,+06000,1,99,9",,"07,99,1,99,9,99,9,99999,9,99,9,99,9","10091,1,99999,9",,,,"MET064METAR GVBA 291500Z 27009KT 9999 FEW015 BKN200 30/22 Q1009 NOSIG;",
"08594499999","2010-11-29T16:00:00","4","16.136531","-22.888897","21.03","BOA VISTA RABIL, CV","FM-15","GVBA ","V020","280,1,N,0041,1","06000,1,C,N","011265,1,N,1","+0300,1","+0220,1","99999,9","02,5,+00450,1,99,9","07,5,+06000,1,99,9",,"07,99,1,99,9,99,9,99999,9,99,9,99,9","10091,1,99999,9",,,,"MET064METAR GVBA 291600Z 28008KT 9999 FEW015 BKN200 30/22 Q1009 NOSIG;",
"08594499999","2010-11-29T17:00:00","4","16.136531","-22.888897","21.03","BOA VISTA RABIL, CV","FM-15","GVBA ","V020","270,1,N,0036,1","06000,1,C,N","011265,1,N,1","+0290,1","+0220,1","99999,9","02,5,+00450,1,99,9","07,5,+06000,1,99,9",,"07,99,1,99,9,99,9,99999,9,99,9,99,9","10091,1,99999,9",,,,"MET064METAR GVBA 291700Z 27007KT 9999 FEW015 BKN200 29/22 Q1009 NOSIG;",
"08594499999","2010-11-29T18:00:00","4","16.136531","-22.888897","21.03","BOA VISTA RABIL, CV","FM-15","GVBA ","V020","260,1,N,0026,1","06000,1,C,N","011265,1,N,1","+0280,1","+0240,1","99999,9","02,5,+00450,1,99,9","07,5,+06000,1,99,9",,"07,99,1,99,9,99,9,99999,9,99,9,99,9","10091,1,99999,9",,,,"MET064METAR GVBA 291800Z 26005KT 9999 FEW015 BKN200 28/24 Q1009 NOSIG;",
"08594499999","2010-11-29T19:00:00","4","16.136531","-22.888897","21.03","BOA VISTA RABIL, CV","FM-15","GVBA ","V020","270,1,N,0021,1","06000,1,C,N","011265,1,N,1","+0270,1","+0240,1","99999,9","02,5,+00450,1,99,9","07,5,+06000,1,99,9",,"07,99,1,99,9,99,9,99999,9,99,9,99,9","10102,1,99999,9",,,,"MET064METAR GVBA 291900Z 27004KT 9999 FEW015 BKN200 27/24 Q1010 NOSIG;",
"08594499999","2010-11-30T08:00:00","4","16.136531","-22.888897","21.03","BOA VISTA RABIL, CV","FM-15","GVBA ","V020","120,1,N,0010,1","06000,1,C,N","011265,1,N,1","+0230,1","+0220,1","99999,9","04,5,+00390,1,99,9","07,5,+06000,1,99,9",,"07,99,1,99,9,99,9,99999,9,99,9,99,9","10119,1,99999,9",,,,"MET064METAR GVBA 300800Z 12002KT 9999 SCT013 BKN200 23/22 Q1012 NOSIG;",
"08594499999","2010-11-30T09:00:00","4","16.136531","-22.888897","21.03","BOA VISTA RABIL, CV","FM-15","GVBA ","V020","110,1,N,0015,1","06000,1,C,N","011265,1,N,1","+0240,1","+0230,1","99999,9","02,5,+00390,1,99,9","07,5,+06000,1,99,9",,"07,99,1,99,9,99,9,99999,9,99,9,99,9","10129,1,99999,9",,,,"MET064METAR GVBA 300900Z 11003KT 9999 FEW013 BKN200 24/23 Q1013 NOSIG;",
"08594499999","2010-11-30T10:00:00","4","16.136531","-22.888897","21.03","BOA VISTA RABIL, CV","FM-15","GVBA ","V020","999,9,V,0005,1","06000,1,C,N","011265,1,N,1","+0280,1","+0240,1","99999,9","04,5,+00420,1,99,9","07,5,+06000,1,99,9",,"07,99,1,99,9,99,9,99999,9,99,9,99,9","10139,1,99999,9",,,,"MET064METAR GVBA 301000Z VRB01KT 9999 SCT014 BKN200 28/24 Q1014 NOSIG;",
"08594499999","2010-11-30T11:00:00","4","16.136531","-22.888897","21.03","BOA VISTA RABIL, CV","FM-15","GVBA ","V020","999,9,V,0010,1","00450,1,C,N","011265,1,N,1","+0290,1","+0240,1","99999,9","07,5,+00450,1,99,9",,,"07,99,1,99,9,99,9,99999,9,99,9,99,9","10139,1,99999,9",,,,"MET057METAR GVBA 301100Z VRB02KT 9999 BKN015 29/24 Q1014 NOSIG;",
"08594499999","2010-11-30T12:00:00","4","16.136531","-22.888897","21.03","BOA VISTA RABIL, CV","FM-15","GVBA ","V020","250,1,N,0026,1","22000,1,9,N","011265,1,N,1","+0300,1","+0240,1","99999,9","02,5,+00450,1,99,9",,,"02,99,1,99,9,99,9,99999,9,99,9,99,9","10139,1,99999,9",,,,"MET057METAR GVBA 301200Z 25005KT 9999 FEW015 30/24 Q1014 NOSIG;",
"08594499999","2010-11-30T14:00:00","4","16.136531","-22.888897","21.03","BOA VISTA RABIL, CV","FM-15","GVBA ","V020","270,1,N,0041,1","06000,1,C,N","011265,1,N,1","+0310,1","+0240,1","99999,9","04,5,+00450,1,99,9","07,5,+06000,1,99,9",,"07,99,1,99,9,99,9,99999,9,99,9,99,9","10119,1,99999,9",,,,"MET072METAR GVBA 301400Z 27008KT 290V350 9999 SCT015 BKN200 31/24 Q1012 NOSIG;",
"08594499999","2010-11-30T15:00:00","4","16.136531","-22.888897","21.03","BOA VISTA RABIL, CV","FM-15","GVBA ","V020","280,1,N,0051,1","06000,1,C,N","011265,1,N,1","+0310,1","+0240,1","99999,9","04,5,+00450,1,99,9","07,5,+06000,1,99,9",,"07,99,1,99,9,99,9,99999,9,99,9,99,9","10108,1,99999,9",,,,"MET064METAR GVBA 301500Z 28010KT 9999 SCT015 BKN200 31/24 Q1011 NOSIG;",
"08594499999","2010-11-30T17:00:00","4","16.136531","-22.888897","21.03","BOA VISTA RABIL, CV","FM-15","GVBA ","V020","310,1,N,0051,1","06000,1,C,N","011265,1,N,1","+0300,1","+0230,1","99999,9","02,5,+00450,1,99,9","07,5,+06000,1,99,9",,"07,99,1,99,9,99,9,99999,9,99,9,99,9","10108,1,99999,9",,,,"MET064METAR GVBA 301700Z 31010KT 9999 FEW015 BKN200 30/23 Q1011 NOSIG;",
"08594499999","2010-11-30T18:00:00","4","16.136531","-22.888897","21.03","BOA VISTA RABIL, CV","FM-15","GVBA ","V020","360,1,N,0026,1","06000,1,C,N","011265,1,N,1","+0290,1","+0230,1","99999,9","04,5,+00450,1,99,9","07,5,+06000,1,99,9",,"07,99,1,99,9,99,9,99999,9,99,9,99,9","10108,1,99999,9",,,,"MET064METAR GVBA 301800Z 36005KT 9999 SCT015 BKN200 29/23 Q1011 NOSIG;",
"08594499999","2010-11-30T19:00:00","4","16.136531","-22.888897","21.03","BOA VISTA RABIL, CV","FM-15","GVBA ","V020","010,1,N,0026,1","06000,1,C,N","011265,1,N,1","+0280,1","+0230,1","99999,9","04,5,+00450,1,99,9","07,5,+06000,1,99,9",,"07,99,1,99,9,99,9,99999,9,99,9,99,9","10108,1,99999,9",,,,"MET064METAR GVBA 301900Z 01005KT 9999 SCT015 BKN200 28/23 Q1011 NOSIG;",
"08594499999","2010-12-01T08:00:00","4","16.136531","-22.888897","21.03","BOA VISTA RABIL, CV","FM-15","GVBA ","V020","999,9,C,0000,1","22000,1,9,N","011265,1,N,1","+0230,1","+0230,1","99999,9","04,5,+00420,1,99,9",,,"04,99,1,99,9,99,9,99999,9,99,9,99,9","10129,1,99999,9",,,,"MET057METAR GVBA 010800Z 00000KT 9999 SCT014 23/23 Q1013 NOSIG;",
"08594499999","2010-12-01T09:00:00","4","16.136531","-22.888897","21.03","BOA VISTA RABIL, CV","FM-15","GVBA ","V020","090,1,N,0021,1","22000,1,9,N","011265,1,N,1","+0250,1","+0230,1","99999,9","04,5,+00420,1,99,9",,,"04,99,1,99,9,99,9,99999,9,99,9,99,9","10129,1,99999,9",,,,"MET057METAR GVBA 010900Z 09004KT 9999 SCT014 25/23 Q1013 NOSIG;",
"08594499999","2010-12-01T10:00:00","4","16.136531","-22.888897","21.03","BOA VISTA RABIL, CV","FM-15","GVBA ","V020","070,1,N,0031,1","00450,1,C,N","011265,1,N,1","+0280,1","+0230,1","99999,9","07,5,+00450,1,99,9",,,"07,99,1,99,9,99,9,99999,9,99,9,99,9","10139,1,99999,9",,,,"MET057METAR GVBA 011000Z 07006KT 9999 BKN015 28/23 Q1014 NOSIG;",
"08594499999","2010-12-01T11:00:00","4","16.136531","-22.888897","21.03","BOA VISTA RABIL, CV","FM-15","GVBA ","V020","060,1,N,0026,1","22000,1,9,N","011265,1,N,1","+0300,1","+0210,1","99999,9","04,5,+00450,1,99,9",,,"04,99,1,99,9,99,9,99999,9,99,9,99,9","10139,1,99999,9",,,,"MET057METAR GVBA 011100Z 06005KT 9999 SCT015 30/21 Q1014 NOSIG;",
"08594499999","2010-12-01T12:00:00","4","16.136531","-22.888897","21.03","BOA VISTA RABIL, CV","FM-15","GVBA ","V020","060,1,N,0051,1","22000,1,9,N","011265,1,N,1","+0310,1","+0210,1","99999,9","02,5,+00450,1,99,9",,,"02,99,1,99,9,99,9,99999,9,99,9,99,9","10129,1,99999,9",,,,"MET057METAR GVBA 011200Z 06010KT 9999 FEW015 31/21 Q1013 NOSIG;",
"08594499999","2010-12-01T13:00:00","4","16.136531","-22.888897","21.03","BOA VISTA RABIL, CV","FM-15","GVBA ","V020","050,1,N,0051,1","22000,1,9,N","011265,1,N,1","+0320,1","+0210,1","99999,9","02,5,+00450,1,99,9",,,"02,99,1,99,9,99,9,99999,9,99,9,99,9","10119,1,99999,9",,,,"MET057METAR GVBA 011300Z 05010KT 9999 FEW015 32/21 Q1012 NOSIG;",
"08594499999","2010-12-01T14:00:00","4","16.136531","-22.888897","21.03","BOA VISTA RABIL, CV","FM-15","GVBA ","V020","050,1,N,0051,1","22000,1,9,N","011265,1,N,1","+0310,1","+0220,1","99999,9","02,5,+00450,1,99,9",,,"02,99,1,99,9,99,9,99999,9,99,9,99,9","10119,1,99999,9",,,,"MET057METAR GVBA 011400Z 05010KT 9999 FEW015 31/22 Q1012 NOSIG;",
"08594499999","2010-12-01T15:00:00","4","16.136531","-22.888897","21.03","BOA VISTA RABIL, CV","FM-15","GVBA ","V020","060,1,N,0041,1","22000,1,9,N","011265,1,N,1","+0320,1","+0220,1","99999,9","02,5,+00450,1,99,9",,,"02,99,1,99,9,99,9,99999,9,99,9,99,9","10108,1,99999,9",,,,"MET057METAR GVBA 011500Z 06008KT 9999 FEW015 32/22 Q1011 NOSIG;",
"08594499999","2010-12-01T16:00:00","4","16.136531","-22.888897","21.03","BOA VISTA RABIL, CV","FM-15","GVBA ","V020","050,1,N,0062,1","22000,1,9,N","011265,1,N,1","+0310,1","+0220,1","99999,9","02,5,+00450,1,99,9",,,"02,99,1,99,9,99,9,99999,9,99,9,99,9","10108,1,99999,9",,,,"MET057METAR GVBA 011600Z 05012KT 9999 FEW015 31/22 Q1011 NOSIG;",
"08594499999","2010-12-01T17:00:00","4","16.136531","-22.888897","21.03","BOA VISTA RABIL, CV","FM-15","GVBA ","V020","030,1,N,0057,1","22000,1,9,N","011265,1,N,1","+0300,1","+0220,1","99999,9","02,5,+00450,1,99,9",,,"02,99,1,99,9,99,9,99999,9,99,9,99,9","10108,1,99999,9",,,,"MET057METAR GVBA 011700Z 03011KT 9999 FEW015 30/22 Q1011 NOSIG;",
"08594499999","2010-12-01T19:00:00","4","16.136531","-22.888897","21.03","BOA VISTA RABIL, CV","FM-15","GVBA ","V020","060,1,N,0041,1","22000,1,9,N","011265,1,N,1","+0270,1","+0220,1","99999,9","02,5,+00450,1,99,9",,,"02,99,1,99,9,99,9,99999,9,99,9,99,9","10108,1,99999,9",,,,"MET057METAR GVBA 011900Z 06008KT 9999 FEW015 27/22 Q1011 NOSIG;",
"08594499999","2010-12-02T08:00:00","4","16.136531","-22.888897","21.03","BOA VISTA RABIL, CV","FM-15","GVBA ","V020","070,1,N,0026,1","00450,1,C,N","011265,1,N,1","+0250,1","+0220,1","99999,9","07,5,+00450,1,99,9",,,"07,99,1,99,9,99,9,99999,9,99,9,99,9","10108,1,99999,9",,,,"MET057METAR GVBA 020800Z 07005KT 9999 BKN015 25/22 Q1011 NOSIG;",
"08594499999","2010-12-02T09:00:00","4","16.136531","-22.888897","21.03","BOA VISTA RABIL, CV","FM-15","GVBA ","V020","050,1,N,0026,1","00450,1,C,N","011265,1,N,1","+0260,1","+0220,1","99999,9","07,5,+00450,1,99,9",,,"07,99,1,99,9,99,9,99999,9,99,9,99,9","10119,1,99999,9",,,,"MET057METAR GVBA 020900Z 05005KT 9999 BKN015 26/22 Q1012 NOSIG;",
"08594499999","2010-12-02T11:00:00","4","16.136531","-22.888897","21.03","BOA VISTA RABIL, CV","FM-15","GVBA ","V020","100,1,N,0051,1","22000,1,9,N","011265,1,N,1","+0290,1","+0210,1","99999,9","04,5,+00480,1,99,9",,,"04,99,1,99,9,99,9,99999,9,99,9,99,9","10119,1,99999,9",,,,"MET057METAR GVBA 021100Z 10010KT 9999 SCT016 29/21 Q1012 NOSIG;",
"08594499999","2010-12-02T12:00:00","4","16.136531","-22.888897","21.03","BOA VISTA RABIL, CV","FM-15","GVBA ","V020","060,1,N,0051,1","22000,1,9,N","011265,1,N,1","+0300,1","+0220,1","99999,9","04,5,+00480,1,99,9",,,"04,99,1,99,9,99,9,99999,9,99,9,99,9","10119,1,99999,9",,,,"MET057METAR GVBA 021200Z 06010KT 9999 SCT016 30/22 Q1012 NOSIG;",
"08594499999","2010-12-02T13:00:00","4","16.136531","-22.888897","21.03","BOA VISTA RABIL, CV","FM-15","GVBA ","V020","060,1,N,0067,1","22000,1,9,N","011265,1,N,1","+0300,1","+0210,1","99999,9","02,5,+00480,1,99,9",,,"02,99,1,99,9,99,9,99999,9,99,9,99,9","10119,1,99999,9",,,,"MET057METAR GVBA 021300Z 06013KT 9999 FEW016 30/21 Q1012 NOSIG;",
"08594499999","2010-12-02T14:00:00","4","16.136531","-22.888897","21.03","BOA VISTA RABIL, CV","FM-15","GVBA ","V020","030,1,N,0051,1","22000,1,9,N","011265,1,N,1","+0310,1","+0210,1","99999,9","02,5,+00450,1,99,9",,,"02,99,1,99,9,99,9,99999,9,99,9,99,9","10108,1,99999,9",,,,"MET057METAR GVBA 021400Z 03010KT 9999 FEW015 31/21 Q1011 NOSIG;",
"08594499999","2010-12-02T15:00:00","4","16.136531","-22.888897","21.03","BOA VISTA RABIL, CV","FM-15","GVBA ","V020","020,1,N,0062,1","22000,1,9,N","011265,1,N,1","+0300,1","+0220,1","99999,9","02,5,+00450,1,99,9",,,"02,99,1,99,9,99,9,99999,9,99,9,99,9","10108,1,99999,9",,,,"MET057METAR GVBA 021500Z 02012KT 9999 FEW015 30/22 Q1011 NOSIG;",
"08594499999","2010-12-02T16:00:00","4","16.136531","-22.888897","21.03","BOA VISTA RABIL, CV","FM-15","GVBA ","V020","020,1,N,0067,1","22000,1,9,N","011265,1,N,1","+0300,1","+0220,1","99999,9","02,5,+00450,1,99,9",,,"02,99,1,99,9,99,9,99999,9,99,9,99,9","10102,1,99999,9",,,,"MET057METAR GVBA 021600Z 02013KT 9999 FEW015 30/22 Q1010 NOSIG;",
"08594499999","2010-12-02T17:00:00","4","16.136531","-22.888897","21.03","BOA VISTA RABIL, CV","FM-15","GVBA ","V020","010,1,N,0067,1","99999,9,C,N","011265,1,N,1","+0290,1","+0220,1","99999,9","02,5,+00450,1,99,9","04,5,+06000,1,99,9",,"04,99,1,99,9,99,9,99999,9,99,9,99,9","10102,1,99999,9",,,,"MET064METAR GVBA 021700Z 01013KT 9999 FEW015 SCT200 29/22 Q1010 NOSIG;","P01 060003SCOCIG"
"08594499999","2010-12-02T18:00:00","4","16.136531","-22.888897","21.03","BOA VISTA RABIL, CV","FM-15","GVBA ","V020","020,1,N,0062,1","99999,9,C,N","011265,1,N,1","+0270,1","+0220,1","99999,9","04,5,+00450,1,99,9","04,5,+06000,1,99,9",,"04,99,1,99,9,99,9,99999,9,99,9,99,9","10108,1,99999,9",,,,"MET064METAR GVBA 021800Z 02012KT 9999 SCT015 SCT200 27/22 Q1011 NOSIG;","P01 060003SCOCIG"
"08594499999","2010-12-03T08:00:00","4","16.136531","-22.888897","21.03","BOA VISTA RABIL, CV","FM-15","GVBA ","V020","070,1,N,0051,1","06000,1,C,N","011265,1,N,1","+0240,1","+0210,1","99999,9","04,5,+00450,1,99,9","07,5,+06000,1,99,9",,"07,99,1,99,9,99,9,99999,9,99,9,99,9","10119,1,99999,9",,,,"MET064METAR GVBA 030800Z 07010KT 9999 SCT015 BKN200 24/21 Q1012 NOSIG;",
"08594499999","2010-12-03T09:00:00","4","16.136531","-22.888897","21.03","BOA VISTA RABIL, CV","FM-15","GVBA ","V020","060,1,N,0062,1","06000,1,C,N","011265,1,N,1","+0250,1","+0220,1","99999,9","04,5,+00450,1,99,9","07,5,+06000,1,99,9",,"07,99,1,99,9,99,9,99999,9,99,9,99,9","10119,1,99999,9",,,,"MET064METAR GVBA 030900Z 06012KT 9999 SCT015 BKN200 25/22 Q1012 NOSIG;",
"08594499999","2010-12-03T10:00:00","4","16.136531","-22.888897","21.03","BOA VISTA RABIL, CV","FM-15","GVBA ","V020","060,1,N,0062,1","99999,9,C,N","011265,1,N,1","+0280,1","+0220,1","99999,9","02,5,+00450,1,99,9","04,5,+06000,1,99,9",,"04,99,1,99,9,99,9,99999,9,99,9,99,9","10129,1,99999,9",,,,"MET064METAR GVBA 031000Z 06012KT 9999 FEW015 SCT200 28/22 Q1013 NOSIG;","P01 060003SCOCIG"
"08594499999","2010-12-03T11:00:00","4","16.136531","-22.888897","21.03","BOA VISTA RABIL, CV","FM-15","GVBA ","V020","050,1,N,0062,1","06000,1,C,N","011265,1,N,1","+0290,1","+0220,1","99999,9","02,5,+00450,1,99,9","07,5,+06000,1,99,9",,"07,99,1,99,9,99,9,99999,9,99,9,99,9","10129,1,99999,9",,,,"MET064METAR GVBA 031100Z 05012KT 9999 FEW015 BKN200 29/22 Q1013 NOSIG;",
"08594499999","2010-12-03T12:00:00","4","16.136531","-22.888897","21.03","BOA VISTA RABIL, CV","FM-15","GVBA ","V020","070,1,N,0041,1","06000,1,C,N","011265,1,N,1","+0310,1","+0200,1","99999,9","02,5,+00450,1,99,9","07,5,+06000,1,99,9",,"07,99,1,99,9,99,9,99999,9,99,9,99,9","10129,1,99999,9",,,,"MET064METAR GVBA 031200Z 07008KT 9999 FEW015 BKN200 31/20 Q1013 NOSIG;",
"08594499999","2010-12-03T13:00:00","4","16.136531","-22.888897","21.03","BOA VISTA RABIL, CV","FM-15","GVBA ","V020","080,1,N,0031,1","06000,1,C,N","011265,1,N,1","+0320,1","+0190,1","99999,9","02,5,+00450,1,99,9","07,5,+06000,1,99,9",,"07,99,1,99,9,99,9,99999,9,99,9,99,9","10119,1,99999,9",,,,"MET064METAR GVBA 031300Z 08006KT 9999 FEW015 BKN200 32/19 Q1012 NOSIG;",
"08594499999","2010-12-03T14:00:00","4","16.136531","-22.888897","21.03","BOA VISTA RABIL, CV","FM-15","GVBA ","V020","120,1,N,0026,1","06000,1,C,N","011265,1,N,1","+0330,1","+0190,1","99999,9","02,5,+00450,1,99,9","07,5,+06000,1,99,9",,"07,99,1,99,9,99,9,99999,9,99,9,99,9","10108,1,99999,9",,,,"MET064METAR GVBA 031400Z 12005KT 9999 FEW015 BKN200 33/19 Q1011 NOSIG;",
"08594499999","2010-12-03T15:00:00","4","16.136531","-22.888897","21.03","BOA VISTA RABIL, CV","FM-15","GVBA ","V020","260,1,N,0041,1","99999,9,9,Y","009900,1,N,1","+0310,1","+0230,1","99999,9",,,,,"10108,1,99999,9",,,,"MET051METAR GVBA 031500Z 26008KT CAVOK 31/23 Q1011 NOSIG;",
"08594499999","2010-12-03T16:00:00","4","16.136531","-22.888897","21.03","BOA VISTA RABIL, CV","FM-15","GVBA ","V020","250,1,N,0041,1","99999,9,9,Y","009900,1,N,1","+0310,1","+0230,1","99999,9",,,,,"10102,1,99999,9",,,,"MET051METAR GVBA 031600Z 25008KT CAVOK 31/23 Q1010 NOSIG;",
"08594499999","2010-12-03T17:00:00","4","16.136531","-22.888897","21.03","BOA VISTA RABIL, CV","FM-15","GVBA ","V020","240,1,N,0046,1","99999,9,9,Y","009900,1,N,1","+0290,1","+0230,1","99999,9",,,,,"10102,1,99999,9",,,,"MET051METAR GVBA 031700Z 24009KT CAVOK 29/23 Q1010 NOSIG;",
"08594499999","2010-12-03T18:00:00","4","16.136531","-22.888897","21.03","BOA VISTA RABIL, CV","FM-15","GVBA ","V020","240,1,N,0036,1","99999,9,9,Y","009900,1,N,1","+0280,1","+0230,1","99999,9",,,,,"10102,1,99999,9",,,,"MET051METAR GVBA 031800Z 24007KT CAVOK 28/23 Q1010 NOSIG;",
"08594499999","2010-12-03T19:00:00","4","16.136531","-22.888897","21.03","BOA VISTA RABIL, CV","FM-15","GVBA ","V020","250,1,N,0031,1","06000,1,C,N","011265,1,N,1","+0260,1","+0230,1","99999,9","02,5,+00450,1,99,9","07,5,+06000,1,99,9",,"07,99,1,99,9,99,9,99999,9,99,9,99,9","10108,1,99999,9",,,,"MET064METAR GVBA 031900Z 25006KT 9999 FEW015 BKN200 26/23 Q1011 NOSIG;",
"08594499999","2010-12-04T09:00:00","4","16.136531","-22.888897","21.03","BOA VISTA RABIL, CV","FM-15","GVBA ","V020","010,1,N,0015,1","06000,1,C,N","011265,1,N,1","+0230,1","+0220,1","99999,9","04,5,+00420,1,99,9","07,5,+06000,1,99,9",,"07,99,1,99,9,99,9,99999,9,99,9,99,9","10129,1,99999,9",,,,"MET064METAR GVBA 040900Z 01003KT 9999 SCT014 BKN200 23/22 Q1013 NOSIG;",
"08594499999","2010-12-04T10:00:00","4","16.136531","-22.888897","21.03","BOA VISTA RABIL, CV","FM-15","GVBA ","V020","010,1,N,0015,1","06000,1,C,N","011265,1,N,1","+0250,1","+0230,1","99999,9","04,5,+00420,1,99,9","07,5,+06000,1,99,9",,"07,99,1,99,9,99,9,99999,9,99,9,99,9","10129,1,99999,9",,,,"MET064METAR GVBA 041000Z 01003KT 9999 SCT014 BKN200 25/23 Q1013 NOSIG;",
"08594499999","2010-12-04T11:00:00","4","16.136531","-22.888897","21.03","BOA VISTA RABIL, CV","FM-15","GVBA ","V020","020,1,N,0051,1","06000,1,C,N","011265,1,N,1","+0270,1","+0230,1","99999,9","04,5,+00450,1,99,9","07,5,+06000,1,99,9",,"07,99,1,99,9,99,9,99999,9,99,9,99,9","10139,1,99999,9",,,,"MET064METAR GVBA 041100Z 02010KT 9999 SCT015 BKN200 27/23 Q1014 NOSIG;",
"08594499999","2010-12-04T12:00:00","4","16.136531","-22.888897","21.03","BOA VISTA RABIL, CV","FM-15","GVBA ","V020","020,1,N,0062,1","06000,1,C,N","011265,1,N,1","+0280,1","+0220,1","99999,9","04,5,+00450,1,99,9","07,5,+06000,1,99,9",,"07,99,1,99,9,99,9,99999,9,99,9,99,9","10129,1,99999,9",,,,"MET064METAR GVBA 041200Z 02012KT 9999 SCT015 BKN200 28/22 Q1013 NOSIG;",
"08594499999","2010-12-04T13:00:00","4","16.136531","-22.888897","21.03","BOA VISTA RABIL, CV","FM-15","GVBA ","V020","020,1,N,0041,1","06000,1,C,N","011265,1,N,1","+0280,1","+0220,1","99999,9","02,5,+00450,1,99,9","07,5,+06000,1,99,9",,"07,99,1,99,9,99,9,99999,9,99,9,99,9","10119,1,99999,9",,,,"MET064METAR GVBA 041300Z 02008KT 9999 FEW015 BKN200 28/22 Q1012 NOSIG;",
"08594499999","2010-12-04T14:00:00","4","16.136531","-22.888897","21.03","BOA VISTA RABIL, CV","FM-15","GVBA ","V020","030,1,N,0041,1","06000,1,C,N","011265,1,N,1","+0310,1","+0190,1","99999,9","02,5,+00450,1,99,9","07,5,+06000,1,99,9",,"07,99,1,99,9,99,9,99999,9,99,9,99,9","10108,1,99999,9",,,,"MET064METAR GVBA 041400Z 03008KT 9999 FEW015 BKN200 31/19 Q1011 NOSIG;",
"08594499999","2010-12-04T15:00:00","4","16.136531","-22.888897","21.03","BOA VISTA RABIL, CV","FM-15","GVBA ","V020","020,1,N,0031,1","06000,1,C,N","011265,1,N,1","+0300,1","+0210,1","99999,9","02,5,+00450,1,99,9","07,5,+06000,1,99,9",,"07,99,1,99,9,99,9,99999,9,99,9,99,9","10108,1,99999,9",,,,"MET064METAR GVBA 041500Z 02006KT 9999 FEW015 BKN200 30/21 Q1011 NOSIG;",
"08594499999","2010-12-04T17:00:00","4","16.136531","-22.888897","21.03","BOA VISTA RABIL, CV","FM-15","GVBA ","V020","020,1,N,0041,1","06000,1,C,N","011265,1,N,1","+0290,1","+0210,1","99999,9","02,5,+00450,1,99,9","07,5,+06000,1,99,9",,"07,99,1,99,9,99,9,99999,9,99,9,99,9","10102,1,99999,9",,,,"MET064METAR GVBA 041700Z 02008KT 9999 FEW015 BKN200 29/21 Q1010 NOSIG;",
"08594499999","2010-12-04T18:00:00","4","16.136531","-22.888897","21.03","BOA VISTA RABIL, CV","FM-15","GVBA ","V020","010,1,N,0026,1","06000,1,C,N","011265,1,N,1","+0270,1","+0210,1","99999,9","02,5,+00450,1,99,9","07,5,+06000,1,99,9",,"07,99,1,99,9,99,9,99999,9,99,9,99,9","10108,1,99999,9",,,,"MET064METAR GVBA 041800Z 01005KT 9999 FEW015 BKN200 27/21 Q1011 NOSIG;",
"08594499999","2010-12-04T19:00:00","4","16.136531","-22.888897","21.03","BOA VISTA RABIL, CV","FM-15","GVBA ","V020","010,1,N,0026,1","06000,1,C,N","011265,1,N,1","+0270,1","+0210,1","99999,9","02,5,+00450,1,99,9","07,5,+06000,1,99,9",,"07,99,1,99,9,99,9,99999,9,99,9,99,9","10108,1,99999,9",,,,"MET064METAR GVBA 041900Z 01005KT 9999 FEW015 BKN200 27/21 Q1011 NOSIG;",
"08594499999","2010-12-05T08:00:00","4","16.136531","-22.888897","21.03","BOA VISTA RABIL, CV","FM-15","GVBA ","V020","999,9,C,0000,1","22000,1,9,N","011265,1,N,1","+0210,1","+0200,1","99999,9","02,5,+00420,1,99,9",,,"02,99,1,99,9,99,9,99999,9,99,9,99,9","10129,1,99999,9",,,,"MET057METAR GVBA 050800Z 00000KT 9999 FEW014 21/20 Q1013 NOSIG;",
"08594499999","2010-12-05T09:00:00","4","16.136531","-22.888897","21.03","BOA VISTA RABIL, CV","FM-15","GVBA ","V020","999,9,C,0000,1","22000,1,9,N","011265,1,N,1","+0230,1","+0220,1","99999,9","02,5,+00420,1,99,9",,,"02,99,1,99,9,99,9,99999,9,99,9,99,9","10139,1,99999,9",,,,"MET057METAR GVBA 050900Z 00000KT 9999 FEW014 23/22 Q1014 NOSIG;",
"08594499999","2010-12-05T10:00:00","4","16.136531","-22.888897","21.03","BOA VISTA RABIL, CV","FM-15","GVBA ","V020","020,1,N,0041,1","00450,1,C,N","011265,1,N,1","+0260,1","+0230,1","99999,9","07,5,+00450,1,99,9",,,"07,99,1,99,9,99,9,99999,9,99,9,99,9","10139,1,99999,9",,,,"MET057METAR GVBA 051000Z 02008KT 9999 BKN015 26/23 Q1014 NOSIG;",
"08594499999","2010-12-05T11:00:00","4","16.136531","-22.888897","21.03","BOA VISTA RABIL, CV","FM-15","GVBA ","V020","020,1,N,0031,1","22000,1,9,N","011265,1,N,1","+0280,1","+0220,1","99999,9","02,5,+00450,1,99,9",,,"02,99,1,99,9,99,9,99999,9,99,9,99,9","10139,1,99999,9",,,,"MET057METAR GVBA 051100Z 02006KT 9999 FEW015 28/22 Q1014 NOSIG;",
"08594499999","2010-12-05T12:00:00","4","16.136531","-22.888897","21.03","BOA VISTA RABIL, CV","FM-15","GVBA ","V020","010,1,N,0031,1","22000,1,9,N","011265,1,N,1","+0300,1","+0200,1","99999,9","02,5,+00450,1,99,9",,,"02,99,1,99,9,99,9,99999,9,99,9,99,9","10139,1,99999,9",,,,"MET057METAR GVBA 051200Z 01006KT 9999 FEW015 30/20 Q1014 NOSIG;",
"08594499999","2010-12-05T13:00:00","4","16.136531","-22.888897","21.03","BOA VISTA RABIL, CV","FM-15","GVBA ","V020","020,1,N,0041,1","99999,9,9,Y","009900,1,N,1","+0300,1","+0210,1","99999,9",,,,,"10129,1,99999,9",,,,"MET051METAR GVBA 051300Z 02008KT CAVOK 30/21 Q1013 NOSIG;",
"08594499999","2010-12-05T14:00:00","4","16.136531","-22.888897","21.03","BOA VISTA RABIL, CV","FM-15","GVBA ","V020","040,1,N,0062,1","99999,9,9,Y","009900,1,N,1","+0300,1","+0210,1","99999,9",,,,,"10129,1,99999,9",,,,"MET051METAR GVBA 051400Z 04012KT CAVOK 30/21 Q1013 NOSIG;",
"08594499999","2010-12-05T15:00:00","4","16.136531","-22.888897","21.03","BOA VISTA RABIL, CV","FM-15","GVBA ","V020","040,1,N,0051,1","99999,9,9,Y","009900,1,N,1","+0300,1","+0210,1","99999,9",,,,,"10119,1,99999,9",,,,"MET051METAR GVBA 051500Z 04010KT CAVOK 30/21 Q1012 NOSIG;",
"08594499999","2010-12-05T16:00:00","4","16.136531","-22.888897","21.03","BOA VISTA RABIL, CV","FM-15","GVBA ","V020","050,1,N,0051,1","99999,9,9,Y","009900,1,N,1","+0310,1","+0200,1","99999,9",,,,,"10119,1,99999,9",,,,"MET051METAR GVBA 051600Z 05010KT CAVOK 31/20 Q1012 NOSIG;",
"08594499999","2010-12-05T17:00:00","4","16.136531","-22.888897","21.03","BOA VISTA RABIL, CV","FM-15","GVBA ","V020","040,1,N,0051,1","22000,1,9,N","011265,1,N,1","+0290,1","+0220,1","99999,9","02,5,+00450,1,99,9",,,"02,99,1,99,9,99,9,99999,9,99,9,99,9","10119,1,99999,9",,,,"MET057METAR GVBA 051700Z 04010KT 9999 FEW015 29/22 Q1012 NOSIG;",
"08594499999","2010-12-05T18:00:00","4","16.136531","-22.888897","21.03","BOA VISTA RABIL, CV","FM-15","GVBA ","V020","050,1,N,0051,1","22000,1,9,N","011265,1,N,1","+0280,1","+0220,1","99999,9","02,5,+00450,1,99,9",,,"02,99,1,99,9,99,9,99999,9,99,9,99,9","10119,1,99999,9",,,,"MET057METAR GVBA 051800Z 05010KT 9999 FEW015 28/22 Q1012 NOSIG;",
"08594499999","2010-12-05T19:00:00","4","16.136531","-22.888897","21.03","BOA VISTA RABIL, CV","FM-15","GVBA ","V020","050,1,N,0041,1","22000,1,9,N","011265,1,N,1","+0260,1","+0220,1","99999,9","02,5,+00450,1,99,9",,,"02,99,1,99,9,99,9,99999,9,99,9,99,9","10129,1,99999,9",,,,"MET057METAR GVBA 051900Z 05008KT 9999 FEW015 26/22 Q1013 NOSIG;",
"08594499999","2010-12-06T08:00:00","4","16.136531","-22.888897","21.03","BOA VISTA RABIL, CV","FM-15","GVBA ","V020","060,1,N,0026,1","22000,1,9,N","011265,1,N,1","+0230,1","+0210,1","99999,9","04,5,+00450,1,99,9",,,"04,99,1,99,9,99,9,99999,9,99,9,99,9","10139,1,99999,9",,,,"MET057METAR GVBA 060800Z 06005KT 9999 SCT015 23/21 Q1014 NOSIG;",
"08594499999","2010-12-06T09:00:00","4","16.136531","-22.888897","21.03","BOA VISTA RABIL, CV","FM-15","GVBA ","V020","060,1,N,0021,1","22000,1,9,N","011265,1,N,1","+0250,1","+0220,1","99999,9","04,5,+00450,1,99,9",,,"04,99,1,99,9,99,9,99999,9,99,9,99,9","10139,1,99999,9",,,,"MET057METAR GVBA 060900Z 06004KT 9999 SCT015 25/22 Q1014 NOSIG;",
"08594499999","2010-12-06T10:00:00","4","16.136531","-22.888897","21.03","BOA VISTA RABIL, CV","FM-15","GVBA ","V020","050,1,N,0046,1","00450,1,C,N","011265,1,N,1","+0270,1","+0220,1","99999,9","07,5,+00450,1,99,9",,,"07,99,1,99,9,99,9,99999,9,99,9,99,9","10149,1,99999,9",,,,"MET057METAR GVBA 061000Z 05009KT 9999 BKN015 27/22 Q1015 NOSIG;",
"08594499999","2010-12-06T11:00:00","4","16.136531","-22.888897","21.03","BOA VISTA RABIL, CV","FM-15","GVBA ","V020","050,1,N,0051,1","00450,1,C,N","011265,1,N,1","+0280,1","+0220,1","99999,9","07,5,+00450,1,99,9",,,"07,99,1,99,9,99,9,99999,9,99,9,99,9","10149,1,99999,9",,,,"MET057METAR GVBA 061100Z 05010KT 9999 BKN015 28/22 Q1015 NOSIG;",
"08594499999","2010-12-06T12:00:00","4","16.136531","-22.888897","21.03","BOA VISTA RABIL, CV","FM-15","GVBA ","V020","050,1,N,0051,1","22000,1,9,N","011265,1,N,1","+0290,1","+0220,1","99999,9","02,5,+00450,1,99,9",,,"02,99,1,99,9,99,9,99999,9,99,9,99,9","10149,1,99999,9",,,,"MET057METAR GVBA 061200Z 05010KT 9999 FEW015 29/22 Q1015 NOSIG;",
"08594499999","2010-12-06T13:00:00","4","16.136531","-22.888897","21.03","BOA VISTA RABIL, CV","FM-15","GVBA ","V020","040,1,N,0062,1","22000,1,9,N","011265,1,N,1","+0300,1","+0220,1","99999,9","04,5,+00450,1,99,9",,,"04,99,1,99,9,99,9,99999,9,99,9,99,9","10139,1,99999,9",,,,"MET057METAR GVBA 061300Z 04012KT 9999 SCT015 30/22 Q1014 NOSIG;",
"08594499999","2010-12-06T14:00:00","4","16.136531","-22.888897","21.03","BOA VISTA RABIL, CV","FM-15","GVBA ","V020","030,1,N,0057,1","22000,1,9,N","011265,1,N,1","+0300,1","+0220,1","99999,9","04,5,+00450,1,99,9",,,"04,99,1,99,9,99,9,99999,9,99,9,99,9","10129,1,99999,9",,,,"MET057METAR GVBA 061400Z 03011KT 9999 SCT015 30/22 Q1013 NOSIG;",
"08594499999","2010-12-06T15:00:00","4","16.136531","-22.888897","21.03","BOA VISTA RABIL, CV","FM-15","GVBA ","V020","040,1,N,0057,1","22000,1,9,N","011265,1,N,1","+0300,1","+0220,1","99999,9","04,5,+00450,1,99,9",,,"04,99,1,99,9,99,9,99999,9,99,9,99,9","10119,1,99999,9",,,,"MET057METAR GVBA 061500Z 04011KT 9999 SCT015 30/22 Q1012 NOSIG;",
"08594499999","2010-12-06T16:00:00","4","16.136531","-22.888897","21.03","BOA VISTA RABIL, CV","FM-15","GVBA ","V020","030,1,N,0046,1","22000,1,9,N","011265,1,N,1","+0300,1","+0220,1","99999,9","04,5,+00450,1,99,9",,,"04,99,1,99,9,99,9,99999,9,99,9,99,9","10108,1,99999,9",,,,"MET057METAR GVBA 061600Z 03009KT 9999 SCT015 30/22 Q1011 NOSIG;",
"08594499999","2010-12-06T17:00:00","4","16.136531","-22.888897","21.03","BOA VISTA RABIL, CV","FM-15","GVBA ","V020","050,1,N,0062,1","22000,1,9,N","011265,1,N,1","+0290,1","+0210,1","99999,9","04,5,+00450,1,99,9",,,"04,99,1,99,9,99,9,99999,9,99,9,99,9","10108,1,99999,9",,,,"MET057METAR GVBA 061700Z 05012KT 9999 SCT015 29/21 Q1011 NOSIG;",
"08594499999","2010-12-06T18:00:00","4","16.136531","-22.888897","21.03","BOA VISTA RABIL, CV","FM-15","GVBA ","V020","040,1,N,0062,1","22000,1,9,N","011265,1,N,1","+0280,1","+0210,1","99999,9","04,5,+00450,1,99,9",,,"04,99,1,99,9,99,9,99999,9,99,9,99,9","10119,1,99999,9",,,,"MET057METAR GVBA 061800Z 04012KT 9999 SCT015 28/21 Q1012 NOSIG;",
"08594499999","2010-12-06T19:00:00","4","16.136531","-22.888897","21.03","BOA VISTA RABIL, CV","FM-15","GVBA ","V020","040,1,N,0051,1","22000,1,9,N","011265,1,N,1","+0260,1","+0210,1","99999,9","04,5,+00450,1,99,9",,,"04,99,1,99,9,99,9,99999,9,99,9,99,9","10119,1,99999,9",,,,"MET057METAR GVBA 061900Z 04010KT 9999 SCT015 26/21 Q1012 NOSIG;",
"08594499999","2010-12-07T08:00:00","4","16.136531","-22.888897","21.03","BOA VISTA RABIL, CV","FM-15","GVBA ","V020","030,1,N,0026,1","22000,1,9,N","011265,1,N,1","+0230,1","+0200,1","99999,9","04,5,+00420,1,99,9",,,"04,99,1,99,9,99,9,99999,9,99,9,99,9","10129,1,99999,9",,,,"MET057METAR GVBA 070800Z 03005KT 9999 SCT014 23/20 Q1013 NOSIG;",
"08594499999","2010-12-07T09:00:00","4","16.136531","-22.888897","21.03","BOA VISTA RABIL, CV","FM-15","GVBA ","V020","040,1,N,0036,1","00420,1,C,N","011265,1,N,1","+0250,1","+0200,1","99999,9","07,5,+00420,1,99,9",,,"07,99,1,99,9,99,9,99999,9,99,9,99,9","10129,1,99999,9",,,,"MET057METAR GVBA 070900Z 04007KT 9999 BKN014 25/20 Q1013 NOSIG;",
"08594499999","2010-12-07T10:00:00","4","16.136531","-22.888897","21.03","BOA VISTA RABIL, CV","FM-15","GVBA ","V020","040,1,N,0057,1","22000,1,9,N","011265,1,N,1","+0270,1","+0200,1","99999,9","04,5,+00450,1,99,9",,,"04,99,1,99,9,99,9,99999,9,99,9,99,9","10139,1,99999,9",,,,"MET057METAR GVBA 071000Z 04011KT 9999 SCT015 27/20 Q1014 NOSIG;",
"08594499999","2010-12-07T11:00:00","4","16.136531","-22.888897","21.03","BOA VISTA RABIL, CV","FM-15","GVBA ","V020","030,1,N,0051,1","22000,1,9,N","011265,1,N,1","+0280,1","+0210,1","99999,9","04,5,+00450,1,99,9",,,"04,99,1,99,9,99,9,99999,9,99,9,99,9","10139,1,99999,9",,,,"MET057METAR GVBA 071100Z 03010KT 9999 SCT015 28/21 Q1014 NOSIG;",
"08594499999","2010-12-07T12:00:00","4","16.136531","-22.888897","21.03","BOA VISTA RABIL, CV","FM-15","GVBA ","V020","030,1,N,0057,1","22000,1,9,N","011265,1,N,1","+0290,1","+0200,1","99999,9","04,5,+00450,1,99,9",,,"04,99,1,99,9,99,9,99999,9,99,9,99,9","10139,1,99999,9",,,,"MET057METAR GVBA 071200Z 03011KT 9999 SCT015 29/20 Q1014 NOSIG;",
"08594499999","2010-12-07T13:00:00","4","16.136531","-22.888897","21.03","BOA VISTA RABIL, CV","FM-15","GVBA ","V020","020,1,N,0057,1","22000,1,9,N","011265,1,N,1","+0290,1","+0210,1","99999,9","04,5,+00450,1,99,9",,,"04,99,1,99,9,99,9,99999,9,99,9,99,9","10129,1,99999,9",,,,"MET057METAR GVBA 071300Z 02011KT 9999 SCT015 29/21 Q1013 NOSIG;",
"08594499999","2010-12-07T14:00:00","4","16.136531","-22.888897","21.03","BOA VISTA RABIL, CV","FM-15","GVBA ","V020","010,1,N,0051,1","22000,1,9,N","011265,1,N,1","+0300,1","+0190,1","99999,9","02,5,+00450,1,99,9",,,"02,99,1,99,9,99,9,99999,9,99,9,99,9","10119,1,99999,9",,,,"MET057METAR GVBA 071400Z 01010KT 9999 FEW015 30/19 Q1012 NOSIG;",
"08594499999","2010-12-07T15:00:00","4","16.136531","-22.888897","21.03","BOA VISTA RABIL, CV","FM-15","GVBA ","V020","360,1,N,0051,1","22000,1,9,N","011265,1,N,1","+0300,1","+0190,1","99999,9","02,5,+00450,1,99,9",,,"02,99,1,99,9,99,9,99999,9,99,9,99,9","10108,1,99999,9",,,,"MET057METAR GVBA 071500Z 36010KT 9999 FEW015 30/19 Q1011 NOSIG;",
"08594499999","2010-12-07T16:00:00","4","16.136531","-22.888897","21.03","BOA VISTA RABIL, CV","FM-15","GVBA ","V020","020,1,N,0041,1","99999,9,C,N","011265,1,N,1","+0300,1","+0200,1","99999,9","04,5,+00450,1,99,9","04,5,+06000,1,99,9",,"04,99,1,99,9,99,9,99999,9,99,9,99,9","10108,1,99999,9",,,,"MET064METAR GVBA 071600Z 02008KT 9999 SCT015 SCT200 30/20 Q1011 NOSIG;","P01 060003SCOCIG"
"08594499999","2010-12-07T17:00:00","4","16.136531","-22.888897","21.03","BOA VISTA RABIL, CV","FM-15","GVBA ","V020","020,1,N,0051,1","06000,1,C,N","011265,1,N,1","+0290,1","+0190,1","99999,9","02,5,+00450,1,99,9","07,5,+06000,1,99,9",,"07,99,1,99,9,99,9,99999,9,99,9,99,9","10108,1,99999,9",,,,"MET064METAR GVBA 071700Z 02010KT 9999 FEW015 BKN200 29/19 Q1011 NOSIG;",
"08594499999","2010-12-07T19:00:00","4","16.136531","-22.888897","21.03","BOA VISTA RABIL, CV","FM-15","GVBA ","V020","030,1,N,0041,1","06000,1,C,N","011265,1,N,1","+0260,1","+0200,1","99999,9","02,5,+00450,1,99,9","07,5,+06000,1,99,9",,"07,99,1,99,9,99,9,99999,9,99,9,99,9","10119,1,99999,9",,,,"MET064METAR GVBA 071900Z 03008KT 9999 FEW015 BKN200 26/20 Q1012 NOSIG;",
"08594499999","2010-12-08T09:00:00","4","16.136531","-22.888897","21.03","BOA VISTA RABIL, CV","FM-15","GVBA ","V020","999,9,V,0010,1","22000,1,9,N","011265,1,N,1","+0230,1","+0190,1","99999,9","04,5,+00420,1,99,9",,,"04,99,1,99,9,99,9,99999,9,99,9,99,9","10119,1,99999,9",,,,"MET057METAR GVBA 080900Z VRB02KT 9999 SCT014 23/19 Q1012 NOSIG;",
"08594499999","2010-12-08T11:00:00","4","16.136531","-22.888897","21.03","BOA VISTA RABIL, CV","FM-15","GVBA ","V020","340,1,N,0041,1","00450,1,C,N","011265,1,N,1","+0270,1","+0200,1","99999,9","07,5,+00450,1,99,9",,,"07,99,1,99,9,99,9,99999,9,99,9,99,9","10129,1,99999,9",,,,"MET057METAR GVBA 081100Z 34008KT 9999 BKN015 27/20 Q1013 NOSIG;",
"08594499999","2010-12-08T12:00:00","4","16.136531","-22.888897","21.03","BOA VISTA RABIL, CV","FM-15","GVBA ","V020","350,1,N,0041,1","00450,1,C,N","011265,1,N,1","+0280,1","+0200,1","99999,9","07,5,+00450,1,99,9",,,"07,99,1,99,9,99,9,99999,9,99,9,99,9","10119,1,99999,9",,,,"MET057METAR GVBA 081200Z 35008KT 9999 BKN015 28/20 Q1012 NOSIG;",
"08594499999","2010-12-08T13:00:00","4","16.136531","-22.888897","21.03","BOA VISTA RABIL, CV","FM-15","GVBA ","V020","010,1,N,0031,1","00450,1,C,N","011265,1,N,1","+0290,1","+0190,1","99999,9","07,5,+00450,1,99,9",,,"07,99,1,99,9,99,9,99999,9,99,9,99,9","10119,1,99999,9",,,,"MET057METAR GVBA 081300Z 01006KT 9999 BKN015 29/19 Q1012 NOSIG;",
"08594499999","2010-12-08T14:00:00","4","16.136531","-22.888897","21.03","BOA VISTA RABIL, CV","FM-15","GVBA ","V020","360,1,N,0026,1","22000,1,9,N","011265,1,N,1","+0290,1","+0190,1","99999,9","04,5,+00450,1,99,9",,,"04,99,1,99,9,99,9,99999,9,99,9,99,9","10108,1,99999,9",,,,"MET057METAR GVBA 081400Z 36005KT 9999 SCT015 29/19 Q1011 NOSIG;",
"08594499999","2010-12-08T15:00:00","4","16.136531","-22.888897","21.03","BOA VISTA RABIL, CV","FM-15","GVBA ","V020","310,1,N,0041,1","22000,1,9,N","011265,1,N,1","+0300,1","+0200,1","99999,9","04,5,+00450,1,99,9",,,"04,99,1,99,9,99,9,99999,9,99,9,99,9","10108,1,99999,9",,,,"MET057METAR GVBA 081500Z 31008KT 9999 SCT015 30/20 Q1011 NOSIG;",
"08594499999","2010-12-08T16:00:00","4","16.136531","-22.888897","21.03","BOA VISTA RABIL, CV","FM-15","GVBA ","V020","320,1,N,0051,1","22000,1,9,N","011265,1,N,1","+0290,1","+0200,1","99999,9","04,5,+00450,1,99,9",,,"04,99,1,99,9,99,9,99999,9,99,9,99,9","10102,1,99999,9",,,,"MET057METAR GVBA 081600Z 32010KT 9999 SCT015 29/20 Q1010 NOSIG;",
"08594499999","2010-12-08T17:00:00","4","16.136531","-22.888897","21.03","BOA VISTA RABIL, CV","FM-15","GVBA ","V020","320,1,N,0041,1","22000,1,9,N","011265,1,N,1","+0280,1","+0190,1","99999,9","04,5,+00450,1,99,9",,,"04,99,1,99,9,99,9,99999,9,99,9,99,9","10108,1,99999,9",,,,"MET057METAR GVBA 081700Z 32008KT 9999 SCT015 28/19 Q1011 NOSIG;",
"08594499999","2010-12-08T18:00:00","4","16.136531","-22.888897","21.03","BOA VISTA RABIL, CV","FM-15","GVBA ","V020","330,1,N,0036,1","22000,1,9,N","011265,1,N,1","+0270,1","+0180,1","99999,9","02,5,+00450,1,99,9",,,"02,99,1,99,9,99,9,99999,9,99,9,99,9","10108,1,99999,9",,,,"MET057METAR GVBA 081800Z 33007KT 9999 FEW015 27/18 Q1011 NOSIG;",
"08594499999","2010-12-08T19:00:00","4","16.136531","-22.888897","21.03","BOA VISTA RABIL, CV","FM-15","GVBA ","V020","350,1,N,0031,1","22000,1,9,N","011265,1,N,1","+0260,1","+0180,1","99999,9","02,5,+00450,1,99,9",,,"02,99,1,99,9,99,9,99999,9,99,9,99,9","10108,1,99999,9",,,,"MET057METAR GVBA 081900Z 35006KT 9999 FEW015 26/18 Q1011 NOSIG;",
"08594499999","2010-12-09T08:00:00","4","16.136531","-22.888897","21.03","BOA VISTA RABIL, CV","FM-15","GVBA ","V020","050,1,N,0015,1","22000,1,9,N","011265,1,N,1","+0200,1","+0170,1","99999,9","02,5,+00420,1,99,9",,,"02,99,1,99,9,99,9,99999,9,99,9,99,9","10108,1,99999,9",,,,"MET057METAR GVBA 090800Z 05003KT 9999 FEW014 20/17 Q1011 NOSIG;",
"08594499999","2010-12-09T09:00:00","4","16.136531","-22.888897","21.03","BOA VISTA RABIL, CV","FM-15","GVBA ","V020","040,1,N,0010,1","22000,1,9,N","011265,1,N,1","+0230,1","+0190,1","99999,9","02,5,+00420,1,99,9",,,"02,99,1,99,9,99,9,99999,9,99,9,99,9","10119,1,99999,9",,,,"MET057METAR GVBA 090900Z 04002KT 9999 FEW014 23/19 Q1012 NOSIG;",
"08594499999","2010-12-09T10:00:00","4","16.136531","-22.888897","21.03","BOA VISTA RABIL, CV","FM-15","GVBA ","V020","030,1,N,0041,1","22000,1,9,N","011265,1,N,1","+0260,1","+0180,1","99999,9","02,5,+00450,1,99,9",,,"02,99,1,99,9,99,9,99999,9,99,9,99,9","10129,1,99999,9",,,,"MET057METAR GVBA 091000Z 03008KT 9999 FEW015 26/18 Q1013 NOSIG;",
"08594499999","2010-12-09T11:00:00","4","16.136531","-22.888897","21.03","BOA VISTA RABIL, CV","FM-15","GVBA ","V020","010,1,N,0041,1","22000,1,9,N","011265,1,N,1","+0280,1","+0180,1","99999,9","04,5,+00450,1,99,9",,,"04,99,1,99,9,99,9,99999,9,99,9,99,9","10129,1,99999,9",,,,"MET057METAR GVBA 091100Z 01008KT 9999 SCT015 28/18 Q1013 NOSIG;",
"08594499999","2010-12-09T12:00:00","4","16.136531","-22.888897","21.03","BOA VISTA RABIL, CV","FM-15","GVBA ","V020","020,1,N,0046,1","22000,1,9,N","011265,1,N,1","+0280,1","+0170,1","99999,9","04,5,+00450,1,99,9",,,"04,99,1,99,9,99,9,99999,9,99,9,99,9","10129,1,99999,9",,,,"MET057METAR GVBA 091200Z 02009KT 9999 SCT015 28/17 Q1013 NOSIG;",
"08594499999","2010-12-09T13:00:00","4","16.136531","-22.888897","21.03","BOA VISTA RABIL, CV","FM-15","GVBA ","V020","010,1,N,0041,1","22000,1,9,N","011265,1,N,1","+0280,1","+0180,1","99999,9","04,5,+00450,1,99,9",,,"04,99,1,99,9,99,9,99999,9,99,9,99,9","10129,1,99999,9",,,,"MET057METAR GVBA 091300Z 01008KT 9999 SCT015 28/18 Q1013 NOSIG;",
"08594499999","2010-12-09T14:00:00","4","16.136531","-22.888897","21.03","BOA VISTA RABIL, CV","FM-15","GVBA ","V020","350,1,N,0051,1","00450,1,C,N","011265,1,N,1","+0290,1","+0190,1","99999,9","07,5,+00450,1,99,9",,,"07,99,1,99,9,99,9,99999,9,99,9,99,9","10119,1,99999,9",,,,"MET057METAR GVBA 091400Z 35010KT 9999 BKN015 29/19 Q1012 NOSIG;",
"08594499999","2010-12-09T15:00:00","4","16.136531","-22.888897","21.03","BOA VISTA RABIL, CV","FM-15","GVBA ","V020","020,1,N,0051,1","00450,1,C,N","011265,1,N,1","+0280,1","+0190,1","99999,9","07,5,+00450,1,99,9",,,"07,99,1,99,9,99,9,99999,9,99,9,99,9","10108,1,99999,9",,,,"MET057METAR GVBA 091500Z 02010KT 9999 BKN015 28/19 Q1011 NOSIG;",
"08594499999","2010-12-09T16:00:00","4","16.136531","-22.888897","21.03","BOA VISTA RABIL, CV","FM-15","GVBA ","V020","010,1,N,0051,1","00450,1,C,N","011265,1,N,1","+0290,1","+0180,1","99999,9","07,5,+00450,1,99,9",,,"07,99,1,99,9,99,9,99999,9,99,9,99,9","10108,1,99999,9",,,,"MET057METAR GVBA 091600Z 01010KT 9999 BKN015 29/18 Q1011 NOSIG;",
"08594499999","2010-12-09T17:00:00","4","16.136531","-22.888897","21.03","BOA VISTA RABIL, CV","FM-15","GVBA ","V020","350,1,N,0051,1","00450,1,C,N","011265,1,N,1","+0270,1","+0180,1","99999,9","02,5,+00390,1,99,9","07,5,+00450,1,99,9",,"07,99,1,99,9,99,9,99999,9,99,9,99,9","10119,1,99999,9",,,,"MET064METAR GVBA 091700Z 35010KT 9999 FEW013 BKN015 27/18 Q1012 NOSIG;",
"08594499999","2010-12-09T18:00:00","4","16.136531","-22.888897","21.03","BOA VISTA RABIL, CV","FM-15","GVBA ","V020","020,1,N,0051,1","00450,1,C,N","011265,1,N,1","+0280,1","+0180,1","99999,9","02,5,+00390,1,99,9","07,5,+00450,1,99,9",,"07,99,1,99,9,99,9,99999,9,99,9,99,9","10119,1,99999,9",,,,"MET064METAR GVBA 091800Z 02010KT 9999 FEW013 BKN015 28/18 Q1012 NOSIG;",
"08594499999","2010-12-09T19:00:00","4","16.136531","-22.888897","21.03","BOA VISTA RABIL, CV","FM-15","GVBA ","V020","030,1,N,0051,1","99999,9,C,N","011265,1,N,1","+0260,1","+0190,1","99999,9","02,5,+00390,1,99,9","04,5,+00450,1,99,9",,"04,99,1,99,9,99,9,99999,9,99,9,99,9","10119,1,99999,9",,,,"MET064METAR GVBA 091900Z 03010KT 9999 FEW013 SCT015 26/19 Q1012 NOSIG;","P01 004503SCOCIG"
"08594499999","2010-12-10T08:00:00","4","16.136531","-22.888897","21.03","BOA VISTA RABIL, CV","FM-15","GVBA ","V020","060,1,N,0021,1","22000,1,9,N","011265,1,N,1","+0210,1","+0180,1","99999,9","04,5,+00450,1,99,9",,,"04,99,1,99,9,99,9,99999,9,99,9,99,9","10129,1,99999,9",,,,"MET057METAR GVBA 100800Z 06004KT 9999 SCT015 21/18 Q1013 NOSIG;",
"08594499999","2010-12-10T09:00:00","4","16.136531","-22.888897","21.03","BOA VISTA RABIL, CV","FM-15","GVBA ","V020","060,1,N,0031,1","22000,1,9,N","011265,1,N,1","+0240,1","+0180,1","99999,9","04,5,+00450,1,99,9",,,"04,99,1,99,9,99,9,99999,9,99,9,99,9","10139,1,99999,9",,,,"MET057METAR GVBA 100900Z 06006KT 9999 SCT015 24/18 Q1014 NOSIG;",
"08594499999","2010-12-10T11:00:00","4","16.136531","-22.888897","21.03","BOA VISTA RABIL, CV","FM-15","GVBA ","V020","050,1,N,0082,1","00450,1,C,N","011265,1,N,1","+0270,1","+0190,1","99999,9","07,5,+00450,1,99,9",,,"07,99,1,99,9,99,9,99999,9,99,9,99,9","10139,1,99999,9",,,,"MET057METAR GVBA 101100Z 05016KT 9999 BKN015 27/19 Q1014 NOSIG;",
"08594499999","2010-12-10T12:00:00","4","16.136531","-22.888897","21.03","BOA VISTA RABIL, CV","FM-15","GVBA ","V020","020,1,N,0082,1","00450,1,C,N","011265,1,N,1","+0280,1","+0190,1","99999,9","07,5,+00450,1,99,9",,,"07,99,1,99,9,99,9,99999,9,99,9,99,9","10139,1,99999,9",,,,"MET057METAR GVBA 101200Z 02016KT 9999 BKN015 28/19 Q1014 NOSIG;",
"08594499999","2010-12-10T13:00:00","4","16.136531","-22.888897","21.03","BOA VISTA RABIL, CV","FM-15","GVBA ","V020","030,1,N,0087,1","00450,1,C,N","011265,1,N,1","+0290,1","+0180,1","99999,9","07,5,+00450,1,99,9",,,"07,99,1,99,9,99,9,99999,9,99,9,99,9","10139,1,99999,9",,,,"MET057METAR GVBA 101300Z 03017KT 9999 BKN015 29/18 Q1014 NOSIG;",
"08594499999","2010-12-10T14:00:00","4","16.136531","-22.888897","21.03","BOA VISTA RABIL, CV","FM-15","GVBA ","V020","030,1,N,0077,1","22000,1,9,N","011265,1,N,1","+0290,1","+0180,1","99999,9","04,5,+00450,1,99,9",,,"04,99,1,99,9,99,9,99999,9,99,9,99,9","10129,1,99999,9",,,,"MET057METAR GVBA 101400Z 03015KT 9999 SCT015 29/18 Q1013 NOSIG;",
"08594499999","2010-12-10T15:00:00","4","16.136531","-22.888897","21.03","BOA VISTA RABIL, CV","FM-15","GVBA ","V020","040,1,N,0072,1","22000,1,9,N","011265,1,N,1","+0280,1","+0180,1","99999,9","04,5,+00450,1,99,9",,,"04,99,1,99,9,99,9,99999,9,99,9,99,9","10129,1,99999,9",,,,"MET057METAR GVBA 101500Z 04014KT 9999 SCT015 28/18 Q1013 NOSIG;",
"08594499999","2010-12-10T16:00:00","4","16.136531","-22.888897","21.03","BOA VISTA RABIL, CV","FM-15","GVBA ","V020","060,1,N,0072,1","22000,1,9,N","011265,1,N,1","+0280,1","+0180,1","99999,9","04,5,+00450,1,99,9",,,"04,99,1,99,9,99,9,99999,9,99,9,99,9","10119,1,99999,9",,,,"MET057METAR GVBA 101600Z 06014KT 9999 SCT015 28/18 Q1012 NOSIG;",
"08594499999","2010-12-10T17:00:00","4","16.136531","-22.888897","21.03","BOA VISTA RABIL, CV","FM-15","GVBA ","V020","050,1,N,0067,1","22000,1,9,N","011265,1,N,1","+0280,1","+0180,1","99999,9","04,5,+00450,1,99,9",,,"04,99,1,99,9,99,9,99999,9,99,9,99,9","10129,1,99999,9",,,,"MET057METAR GVBA 101700Z 05013KT 9999 SCT015 28/18 Q1013 NOSIG;",
"08594499999","2010-12-10T18:00:00","4","16.136531","-22.888897","21.03","BOA VISTA RABIL, CV","FM-15","GVBA ","V020","040,1,N,0067,1","22000,1,9,N","011265,1,N,1","+0270,1","+0180,1","99999,9","04,5,+00450,1,99,9",,,"04,99,1,99,9,99,9,99999,9,99,9,99,9","10129,1,99999,9",,,,"MET057METAR GVBA 101800Z 04013KT 9999 SCT015 27/18 Q1013 NOSIG;",
"08594499999","2010-12-10T19:00:00","4","16.136531","-22.888897","21.03","BOA VISTA RABIL, CV","FM-15","GVBA ","V020","050,1,N,0057,1","22000,1,9,N","011265,1,N,1","+0260,1","+0190,1","99999,9","04,5,+00450,1,99,9",,,"04,99,1,99,9,99,9,99999,9,99,9,99,9","10139,1,99999,9",,,,"MET057METAR GVBA 101900Z 05011KT 9999 SCT015 26/19 Q1014 NOSIG;",
"08594499999","2010-12-11T08:00:00","4","16.136531","-22.888897","21.03","BOA VISTA RABIL, CV","FM-15","GVBA ","V020","040,1,N,0067,1","06000,1,C,N","011265,1,N,1","+0240,1","+0180,1","99999,9","04,5,+00420,1,99,9","07,5,+06000,1,99,9",,"07,99,1,99,9,99,9,99999,9,99,9,99,9","10149,1,99999,9",,,,"MET064METAR GVBA 110800Z 04013KT 9999 SCT014 BKN200 24/18 Q1015 NOSIG;",
"08594499999","2010-12-11T09:00:00","4","16.136531","-22.888897","21.03","BOA VISTA RABIL, CV","FM-15","GVBA ","V020","030,1,N,0057,1","06000,1,C,N","011265,1,N,1","+0240,1","+0180,1","99999,9","04,5,+00420,1,99,9","07,5,+06000,1,99,9",,"07,99,1,99,9,99,9,99999,9,99,9,99,9","10149,1,99999,9",,,,"MET064METAR GVBA 110900Z 03011KT 9999 SCT014 BKN200 24/18 Q1015 NOSIG;",
"08594499999","2010-12-11T10:00:00","4","16.136531","-22.888897","21.03","BOA VISTA RABIL, CV","FM-15","GVBA ","V020","050,1,N,0057,1","06000,1,C,N","011265,1,N,1","+0260,1","+0180,1","99999,9","04,5,+00450,1,99,9","07,5,+06000,1,99,9",,"07,99,1,99,9,99,9,99999,9,99,9,99,9","10159,1,99999,9",,,,"MET064METAR GVBA 111000Z 05011KT 9999 SCT015 BKN200 26/18 Q1016 NOSIG;",
"08594499999","2010-12-11T11:00:00","4","16.136531","-22.888897","21.03","BOA VISTA RABIL, CV","FM-15","GVBA ","V020","060,1,N,0062,1","06000,1,C,N","011265,1,N,1","+0270,1","+0180,1","99999,9","04,5,+00450,1,99,9","07,5,+06000,1,99,9",,"07,99,1,99,9,99,9,99999,9,99,9,99,9","10159,1,99999,9",,,,"MET064METAR GVBA 111100Z 06012KT 9999 SCT015 BKN200 27/18 Q1016 NOSIG;",
"08594499999","2010-12-11T12:00:00","4","16.136531","-22.888897","21.03","BOA VISTA RABIL, CV","FM-15","GVBA ","V020","060,1,N,0067,1","06000,1,C,N","011265,1,N,1","+0270,1","+0180,1","99999,9","04,5,+00450,1,99,9","07,5,+06000,1,99,9",,"07,99,1,99,9,99,9,99999,9,99,9,99,9","10149,1,99999,9",,,,"MET064METAR GVBA 111200Z 06013KT 9999 SCT015 BKN200 27/18 Q1015 NOSIG;",
"08594499999","2010-12-11T13:00:00","4","16.136531","-22.888897","21.03","BOA VISTA RABIL, CV","FM-15","GVBA ","V020","040,1,N,0072,1","06000,1,C,N","011265,1,N,1","+0280,1","+0180,1","99999,9","02,5,+00450,1,99,9","07,5,+06000,1,99,9",,"07,99,1,99,9,99,9,99999,9,99,9,99,9","10139,1,99999,9",,,,"MET064METAR GVBA 111300Z 04014KT 9999 FEW015 BKN200 28/18 Q1014 NOSIG;",
"08594499999","2010-12-11T14:00:00","4","16.136531","-22.888897","21.03","BOA VISTA RABIL, CV","FM-15","GVBA ","V020","050,1,N,0072,1","06000,1,C,N","011265,1,N,1","+0280,1","+0180,1","99999,9","04,5,+00450,1,99,9","07,5,+06000,1,99,9",,"07,99,1,99,9,99,9,99999,9,99,9,99,9","10139,1,99999,9",,,,"MET064METAR GVBA 111400Z 05014KT 9999 SCT015 BKN200 28/18 Q1014 NOSIG;",
"08594499999","2010-12-11T15:00:00","4","16.136531","-22.888897","21.03","BOA VISTA RABIL, CV","FM-15","GVBA ","V020","030,1,N,0082,1","06000,1,C,N","011265,1,N,1","+0280,1","+0180,1","99999,9","04,5,+00450,1,99,9","07,5,+06000,1,99,9",,"07,99,1,99,9,99,9,99999,9,99,9,99,9","10139,1,99999,9",,,,"MET064METAR GVBA 111500Z 03016KT 9999 SCT015 BKN200 28/18 Q1014 NOSIG;",
"08594499999","2010-12-11T18:00:00","4","16.136531","-22.888897","21.03","BOA VISTA RABIL, CV","FM-15","GVBA ","V020","040,1,N,0082,1","00450,1,C,N","011265,1,N,1","+0270,1","+0200,1","99999,9","07,5,+00450,1,99,9",,,"07,99,1,99,9,99,9,99999,9,99,9,99,9","10139,1,99999,9",,,,"MET057METAR GVBA 111800Z 04016KT 9999 BKN015 27/20 Q1014 NOSIG;",
"08594499999","2010-12-11T19:00:00","4","16.136531","-22.888897","21.03","BOA VISTA RABIL, CV","FM-15","GVBA ","V020","040,1,N,0072,1","00450,1,C,N","011265,1,N,1","+0250,1","+0180,1","99999,9","07,5,+00450,1,99,9",,,"07,99,1,99,9,99,9,99999,9,99,9,99,9","10139,1,99999,9",,,,"MET057METAR GVBA 111900Z 04014KT 9999 BKN015 25/18 Q1014 NOSIG;",
"08594499999","2010-12-12T08:00:00","4","16.136531","-22.888897","21.03","BOA VISTA RABIL, CV","FM-15","GVBA ","V020","020,1,N,0077,1","03000,1,C,N","011265,1,N,1","+0240,1","+0160,1","99999,9","04,5,+00420,1,99,9","07,5,+03000,1,99,9",,"07,99,1,99,9,99,9,99999,9,99,9,99,9","10129,1,99999,9",,,,"MET064METAR GVBA 120800Z 02015KT 9999 SCT014 BKN100 24/16 Q1013 NOSIG;",
"08594499999","2010-12-12T09:00:00","4","16.136531","-22.888897","21.03","BOA VISTA RABIL, CV","FM-15","GVBA ","V020","010,1,N,0082,1","03000,1,C,N","011265,1,N,1","+0240,1","+0160,1","99999,9","04,5,+00420,1,99,9","07,5,+03000,1,99,9",,"07,99,1,99,9,99,9,99999,9,99,9,99,9","10129,1,99999,9",,,,"MET064METAR GVBA 120900Z 01016KT 9999 SCT014 BKN100 24/16 Q1013 NOSIG;",
"08594499999","2010-12-12T10:00:00","4","16.136531","-22.888897","21.03","BOA VISTA RABIL, CV","FM-15","GVBA ","V020","010,1,N,0093,1","03000,1,C,N","011265,1,N,1","+0250,1","+0160,1","99999,9","04,5,+00420,1,99,9","07,5,+03000,1,99,9",,"07,99,1,99,9,99,9,99999,9,99,9,99,9","10139,1,99999,9",,,,"MET064METAR GVBA 121000Z 01018KT 9999 SCT014 BKN100 25/16 Q1014 NOSIG;",
"08594499999","2010-12-12T11:00:00","4","16.136531","-22.888897","21.03","BOA VISTA RABIL, CV","FM-15","GVBA ","V020","030,1,N,0087,1","22000,1,9,N","011265,1,N,1","+0260,1","+0160,1","99999,9","02,5,+00420,1,99,9",,,"02,99,1,99,9,99,9,99999,9,99,9,99,9","10129,1,99999,9",,,,"MET057METAR GVBA 121100Z 03017KT 9999 FEW014 26/16 Q1013 NOSIG;",
"08594499999","2010-12-12T12:00:00","4","16.136531","-22.888897","21.03","BOA VISTA RABIL, CV","FM-15","GVBA ","V020","030,1,N,0093,1","22000,1,9,N","011265,1,N,1","+0270,1","+0160,1","99999,9","02,5,+00420,1,99,9",,,"02,99,1,99,9,99,9,99999,9,99,9,99,9","10129,1,99999,9",,,,"MET057METAR GVBA 121200Z 03018KT 9999 FEW014 27/16 Q1013 NOSIG;",
"08594499999","2010-12-12T13:00:00","4","16.136531","-22.888897","21.03","BOA VISTA RABIL, CV","FM-15","GVBA ","V020","040,1,N,0093,1","22000,1,9,N","011265,1,N,1","+0280,1","+0160,1","99999,9","04,5,+00450,1,99,9",,,"04,99,1,99,9,99,9,99999,9,99,9,99,9","10119,1,99999,9",,,,"MET057METAR GVBA 121300Z 04018KT 9999 SCT015 28/16 Q1012 NOSIG;",
"08594499999","2010-12-12T14:00:00","4","16.136531","-22.888897","21.03","BOA VISTA RABIL, CV","FM-15","GVBA ","V020","030,1,N,0087,1","22000,1,9,N","011265,1,N,1","+0280,1","+0150,1","99999,9","02,5,+00450,1,99,9",,,"02,99,1,99,9,99,9,99999,9,99,9,99,9","10119,1,99999,9",,,,"MET057METAR GVBA 121400Z 03017KT 9999 FEW015 28/15 Q1012 NOSIG;",
"08594499999","2010-12-12T15:00:00","4","16.136531","-22.888897","21.03","BOA VISTA RABIL, CV","FM-15","GVBA ","V020","040,1,N,0077,1","22000,1,9,N","011265,1,N,1","+0280,1","+0170,1","99999,9","02,5,+00450,1,99,9",,,"02,99,1,99,9,99,9,99999,9,99,9,99,9","10108,1,99999,9",,,,"MET057METAR GVBA 121500Z 04015KT 9999 FEW015 28/17 Q1011 NOSIG;",
"08594499999","2010-12-12T16:00:00","4","16.136531","-22.888897","21.03","BOA VISTA RABIL, CV","FM-15","GVBA ","V020","050,1,N,0082,1","22000,1,9,N","011265,1,N,1","+0270,1","+0180,1","99999,9","04,5,+00450,1,99,9",,,"04,99,1,99,9,99,9,99999,9,99,9,99,9","10102,1,99999,9",,,,"MET057METAR GVBA 121600Z 05016KT 9999 SCT015 27/18 Q1010 NOSIG;",
"08594499999","2010-12-12T17:00:00","4","16.136531","-22.888897","21.03","BOA VISTA RABIL, CV","FM-15","GVBA ","V020","030,1,N,0082,1","22000,1,9,N","011265,1,N,1","+0270,1","+0170,1","99999,9","04,5,+00450,1,99,9",,,"04,99,1,99,9,99,9,99999,9,99,9,99,9","10102,1,99999,9",,,,"MET057METAR GVBA 121700Z 03016KT 9999 SCT015 27/17 Q1010 NOSIG;",
"08594499999","2010-12-12T18:00:00","4","16.136531","-22.888897","21.03","BOA VISTA RABIL, CV","FM-15","GVBA ","V020","040,1,N,0072,1","22000,1,9,N","011265,1,N,1","+0260,1","+0170,1","99999,9","04,5,+00450,1,99,9",,,"04,99,1,99,9,99,9,99999,9,99,9,99,9","10102,1,99999,9",,,,"MET057METAR GVBA 121800Z 04014KT 9999 SCT015 26/17 Q1010 NOSIG;",
"08594499999","2010-12-12T19:00:00","4","16.136531","-22.888897","21.03","BOA VISTA RABIL, CV","FM-15","GVBA ","V020","040,1,N,0067,1","22000,1,9,N","011265,1,N,1","+0250,1","+0170,1","99999,9","04,5,+00450,1,99,9",,,"04,99,1,99,9,99,9,99999,9,99,9,99,9","10102,1,99999,9",,,,"MET057METAR GVBA 121900Z 04013KT 9999 SCT015 25/17 Q1010 NOSIG;",
"08594499999","2010-12-13T08:00:00","4","16.136531","-22.888897","21.03","BOA VISTA RABIL, CV","FM-15","GVBA ","V020","060,1,N,0021,1","00420,1,C,N","011265,1,N,1","+0220,1","+0160,1","99999,9","07,5,+00420,1,99,9",,,"07,99,1,99,9,99,9,99999,9,99,9,99,9","10102,1,99999,9",,,,"MET057METAR GVBA 130800Z 06004KT 9999 BKN014 22/16 Q1010 NOSIG;",
"08594499999","2010-12-13T09:00:00","4","16.136531","-22.888897","21.03","BOA VISTA RABIL, CV","FM-15","GVBA ","V020","070,1,N,0026,1","00450,1,C,N","011265,1,N,1","+0240,1","+0160,1","99999,9","07,5,+00450,1,99,9",,,"07,99,1,99,9,99,9,99999,9,99,9,99,9","10102,1,99999,9",,,,"MET057METAR GVBA 130900Z 07005KT 9999 BKN015 24/16 Q1010 NOSIG;",
"08594499999","2010-12-13T11:00:00","4","16.136531","-22.888897","21.03","BOA VISTA RABIL, CV","FM-15","GVBA ","V020","060,1,N,0041,1","00450,1,C,N","011265,1,N,1","+0260,1","+0160,1","99999,9","07,5,+00450,1,99,9",,,"07,99,1,99,9,99,9,99999,9,99,9,99,9","10102,1,99999,9",,,,"MET057METAR GVBA 131100Z 06008KT 9999 BKN015 26/16 Q1010 NOSIG;",
"08594499999","2010-12-13T13:00:00","4","16.136531","-22.888897","21.03","BOA VISTA RABIL, CV","FM-15","GVBA ","V020","040,1,N,0072,1","00450,1,C,N","011265,1,N,1","+0280,1","+0160,1","99999,9","07,5,+00450,1,99,9",,,"07,99,1,99,9,99,9,99999,9,99,9,99,9","10091,1,99999,9",,,,"MET057METAR GVBA 131300Z 04014KT 9999 BKN015 28/16 Q1009 NOSIG;",
"08594499999","2010-12-13T14:00:00","4","16.136531","-22.888897","21.03","BOA VISTA RABIL, CV","FM-15","GVBA ","V020","040,1,N,0077,1","00450,1,C,N","011265,1,N,1","+0280,1","+0160,1","99999,9","07,5,+00450,1,99,9",,,"07,99,1,99,9,99,9,99999,9,99,9,99,9","10081,1,99999,9",,,,"MET057METAR GVBA 131400Z 04015KT 9999 BKN015 28/16 Q1008 NOSIG;",
"08594499999","2010-12-13T15:00:00","4","16.136531","-22.888897","21.03","BOA VISTA RABIL, CV","FM-15","GVBA ","V020","030,1,N,0082,1","00450,1,C,N","011265,1,N,1","+0280,1","+0180,1","99999,9","07,5,+00450,1,99,9",,,"07,99,1,99,9,99,9,99999,9,99,9,99,9","10071,1,99999,9",,,,"MET057METAR GVBA 131500Z 03016KT 9999 BKN015 28/18 Q1007 NOSIG;",
"08594499999","2010-12-13T16:00:00","4","16.136531","-22.888897","21.03","BOA VISTA RABIL, CV","FM-15","GVBA ","V020","030,1,N,0082,1","00450,1,C,N","011265,1,N,1","+0270,1","+0180,1","99999,9","07,5,+00450,1,99,9",,,"07,99,1,99,9,99,9,99999,9,99,9,99,9","10071,1,99999,9",,,,"MET057METAR GVBA 131600Z 03016KT 9999 BKN015 27/18 Q1007 NOSIG;",
"08594499999","2010-12-13T17:00:00","4","16.136531","-22.888897","21.03","BOA VISTA RABIL, CV","FM-15","GVBA ","V020","040,1,N,0072,1","00450,1,C,N","011265,1,N,1","+0270,1","+0180,1","99999,9","07,5,+00450,1,99,9",,,"07,99,1,99,9,99,9,99999,9,99,9,99,9","10071,1,99999,9",,,,"MET057METAR GVBA 131700Z 04014KT 9999 BKN015 27/18 Q1007 NOSIG;",
"08594499999","2010-12-13T18:00:00","4","16.136531","-22.888897","21.03","BOA VISTA RABIL, CV","FM-15","GVBA ","V020","030,1,N,0062,1","00450,1,C,N","011265,1,N,1","+0260,1","+0170,1","99999,9","07,5,+00450,1,99,9",,,"07,99,1,99,9,99,9,99999,9,99,9,99,9","10081,1,99999,9",,,,"MET057METAR GVBA 131800Z 03012KT 9999 BKN015 26/17 Q1008 NOSIG;",
"08594499999","2010-12-13T19:00:00","4","16.136531","-22.888897","21.03","BOA VISTA RABIL, CV","FM-15","GVBA ","V020","040,1,N,0051,1","00450,1,C,N","011265,1,N,1","+0250,1","+0180,1","99999,9","07,5,+00450,1,99,9",,,"07,99,1,99,9,99,9,99999,9,99,9,99,9","10081,1,99999,9",,,,"MET057METAR GVBA 131900Z 04010KT 9999 BKN015 25/18 Q1008 NOSIG;",
"08594499999","2010-12-14T08:00:00","4","16.136531","-22.888897","21.03","BOA VISTA RABIL, CV","FM-15","GVBA ","V020","120,1,N,0026,1","06000,1,C,N","011265,1,N,1","+0200,1","+0180,1","99999,9","02,5,+00450,1,99,9","07,5,+06000,1,99,9",,"07,99,1,99,9,99,9,99999,9,99,9,99,9","10091,1,99999,9",,,,"MET064METAR GVBA 140800Z 12005KT 9999 FEW015 BKN200 20/18 Q1009 NOSIG;",
"08594499999","2010-12-14T09:00:00","4","16.136531","-22.888897","21.03","BOA VISTA RABIL, CV","FM-15","GVBA ","V020","130,1,N,0015,1","99999,9,C,N","011265,1,N,1","+0210,1","+0180,1","99999,9","02,5,+00450,1,99,9","04,5,+06000,1,99,9",,"04,99,1,99,9,99,9,99999,9,99,9,99,9","10091,1,99999,9",,,,"MET064METAR GVBA 140900Z 13003KT 9999 FEW015 SCT200 21/18 Q1009 NOSIG;","P01 060003SCOCIG"
"08594499999","2010-12-14T10:00:00","4","16.136531","-22.888897","21.03","BOA VISTA RABIL, CV","FM-15","GVBA ","V020","130,1,N,0010,1","99999,9,C,N","011265,1,N,1","+0250,1","+0190,1","99999,9","02,5,+00450,1,99,9","04,5,+06000,1,99,9",,"04,99,1,99,9,99,9,99999,9,99,9,99,9","10102,1,99999,9",,,,"MET064METAR GVBA 141000Z 13002KT 9999 FEW015 SCT200 25/19 Q1010 NOSIG;","P01 060003SCOCIG"
"08594499999","2010-12-14T11:00:00","4","16.136531","-22.888897","21.03","BOA VISTA RABIL, CV","FM-15","GVBA ","V020","999,9,C,0000,1","00450,1,C,N","011265,1,N,1","+0280,1","+0180,1","99999,9","07,5,+00450,1,99,9",,,"07,99,1,99,9,99,9,99999,9,99,9,99,9","10102,1,99999,9",,,,"MET057METAR GVBA 141100Z 00000KT 9999 BKN015 28/18 Q1010 NOSIG;",
"08594499999","2010-12-14T12:00:00","4","16.136531","-22.888897","21.03","BOA VISTA RABIL, CV","FM-15","GVBA ","V020","010,1,N,0041,1","00450,1,C,N","011265,1,N,1","+0280,1","+0190,1","99999,9","07,5,+00450,1,99,9",,,"07,99,1,99,9,99,9,99999,9,99,9,99,9","10102,1,99999,9",,,,"MET057METAR GVBA 141200Z 01008KT 9999 BKN015 28/19 Q1010 NOSIG;",
"08594499999","2010-12-14T13:00:00","4","16.136531","-22.888897","21.03","BOA VISTA RABIL, CV","FM-15","GVBA ","V020","020,1,N,0041,1","00450,1,C,N","011265,1,N,1","+0280,1","+0190,1","99999,9","07,5,+00450,1,99,9",,,"07,99,1,99,9,99,9,99999,9,99,9,99,9","10102,1,99999,9",,,,"MET057METAR GVBA 141300Z 02008KT 9999 BKN015 28/19 Q1010 NOSIG;",
"08594499999","2010-12-14T14:00:00","4","16.136531","-22.888897","21.03","BOA VISTA RABIL, CV","FM-15","GVBA ","V020","060,1,N,0031,1","22000,1,9,N","011265,1,N,1","+0300,1","+0200,1","99999,9","04,5,+00450,1,99,9",,,"04,99,1,99,9,99,9,99999,9,99,9,99,9","10091,1,99999,9",,,,"MET057METAR GVBA 141400Z 06006KT 9999 SCT015 30/20 Q1009 NOSIG;",
"08594499999","2010-12-14T16:00:00","4","16.136531","-22.888897","21.03","BOA VISTA RABIL, CV","FM-15","GVBA ","V020","999,9,V,0036,1","00450,1,C,N","011265,1,N,1","+0280,1","+0200,1","99999,9","07,5,+00450,1,99,9",,,"07,99,1,99,9,99,9,99999,9,99,9,99,9","10091,1,99999,9",,,,"MET057METAR GVBA 141600Z VRB07KT 9999 BKN015 28/20 Q1009 NOSIG;",
"08594499999","2010-12-14T17:00:00","4","16.136531","-22.888897","21.03","BOA VISTA RABIL, CV","FM-15","GVBA ","V020","999,9,V,0021,1","00450,1,C,N","011265,1,N,1","+0280,1","+0200,1","99999,9","07,5,+00450,1,99,9","07,5,+06000,1,99,9",,"07,99,1,99,9,99,9,99999,9,99,9,99,9","10091,1,99999,9",,,,"MET064METAR GVBA 141700Z VRB04KT 9999 BKN015 BKN200 28/20 Q1009 NOSIG;",
"08594499999","2010-12-14T18:00:00","4","16.136531","-22.888897","21.03","BOA VISTA RABIL, CV","FM-15","GVBA ","V020","999,9,V,0010,1","06000,1,C,N","011265,1,N,1","+0280,1","+0200,1","99999,9","04,5,+00450,1,99,9","07,5,+06000,1,99,9",,"07,99,1,99,9,99,9,99999,9,99,9,99,9","10091,1,99999,9",,,,"MET064METAR GVBA 141800Z VRB02KT 9999 SCT015 BKN200 28/20 Q1009 NOSIG;",
"08594499999","2010-12-14T19:00:00","4","16.136531","-22.888897","21.03","BOA VISTA RABIL, CV","FM-15","GVBA ","V020","100,1,N,0031,1","06000,1,C,N","011265,1,N,1","+0260,1","+0200,1","99999,9","02,5,+00450,1,99,9","07,5,+06000,1,99,9",,"07,99,1,99,9,99,9,99999,9,99,9,99,9","10102,1,99999,9",,,,"MET064METAR GVBA 141900Z 10006KT 9999 FEW015 BKN200 26/20 Q1010 NOSIG;",
"08594499999","2010-12-15T09:00:00","4","16.136531","-22.888897","21.03","BOA VISTA RABIL, CV","FM-15","GVBA ","V020","999,9,C,0000,1","99999,9,C,N","011265,1,N,1","+0200,1","+0190,1","99999,9","02,5,+00450,1,99,9","04,5,+06000,1,99,9",,"04,99,1,99,9,99,9,99999,9,99,9,99,9","10129,1,99999,9",,,,"MET064METAR GVBA 150900Z 00000KT 9999 FEW015 SCT200 20/19 Q1013 NOSIG;","P01 060003SCOCIG"
"08594499999","2010-12-15T10:00:00","4","16.136531","-22.888897","21.03","BOA VISTA RABIL, CV","FM-15","GVBA ","V020","999,9,V,0021,1","99999,9,9,Y","009900,1,N,1","+0240,1","+0200,1","99999,9",,,,,"10129,1,99999,9",,,,"MET051METAR GVBA 151000Z VRB04KT CAVOK 24/20 Q1013 NOSIG;",
"08594499999","2010-12-15T11:00:00","4","16.136531","-22.888897","21.03","BOA VISTA RABIL, CV","FM-15","GVBA ","V020","999,9,V,0015,1","22000,1,9,N","011265,1,N,1","+0280,1","+0200,1","99999,9","02,5,+00450,1,99,9",,,"02,99,1,99,9,99,9,99999,9,99,9,99,9","10139,1,99999,9",,,,"MET057METAR GVBA 151100Z VRB03KT 9999 FEW015 28/20 Q1014 NOSIG;",
"08594499999","2010-12-15T12:00:00","4","16.136531","-22.888897","21.03","BOA VISTA RABIL, CV","FM-15","GVBA ","V020","999,9,V,0036,1","22000,1,9,N","011265,1,N,1","+0290,1","+0190,1","99999,9","02,5,+00450,1,99,9",,,"02,99,1,99,9,99,9,99999,9,99,9,99,9","10129,1,99999,9",,,,"MET057METAR GVBA 151200Z VRB07KT 9999 FEW015 29/19 Q1013 NOSIG;",
"08594499999","2010-12-15T13:00:00","4","16.136531","-22.888897","21.03","BOA VISTA RABIL, CV","FM-15","GVBA ","V020","999,9,V,0036,1","99999,9,C,N","011265,1,N,1","+0300,1","+0190,1","99999,9","02,5,+00450,1,99,9","04,5,+06000,1,99,9",,"04,99,1,99,9,99,9,99999,9,99,9,99,9","10129,1,99999,9",,,,"MET064METAR GVBA 151300Z VRB07KT 9999 FEW015 SCT200 30/19 Q1013 NOSIG;","P01 060003SCOCIG"
"08594499999","2010-12-15T14:00:00","4","16.136531","-22.888897","21.03","BOA VISTA RABIL, CV","FM-15","GVBA ","V020","350,1,N,0036,1","99999,9,C,N","011265,1,N,1","+0300,1","+0200,1","99999,9","02,5,+00450,1,99,9","04,5,+06000,1,99,9",,"04,99,1,99,9,99,9,99999,9,99,9,99,9","10139,1,99999,9",,,,"MET064METAR GVBA 151400Z 35007KT 9999 FEW015 SCT200 30/20 Q1014 NOSIG;","P01 060003SCOCIG"
"08594499999","2010-12-15T15:00:00","4","16.136531","-22.888897","21.03","BOA VISTA RABIL, CV","FM-15","GVBA ","V020","360,1,N,0046,1","99999,9,C,N","011265,1,N,1","+0300,1","+0200,1","99999,9","02,5,+00450,1,99,9","04,5,+06000,1,99,9",,"04,99,1,99,9,99,9,99999,9,99,9,99,9","10119,1,99999,9",,,,"MET064METAR GVBA 151500Z 36009KT 9999 FEW015 SCT200 30/20 Q1012 NOSIG;","P01 060003SCOCIG"
"08594499999","2010-12-15T17:00:00","4","16.136531","-22.888897","21.03","BOA VISTA RABIL, CV","FM-15","GVBA ","V020","340,1,N,0041,1","22000,1,9,N","011265,1,N,1","+0290,1","+0200,1","99999,9","02,5,+00450,1,99,9",,,"02,99,1,99,9,99,9,99999,9,99,9,99,9","10108,1,99999,9",,,,"MET057METAR GVBA 151700Z 34008KT 9999 FEW015 29/20 Q1011 NOSIG;",
"08594499999","2010-12-15T18:00:00","4","16.136531","-22.888897","21.03","BOA VISTA RABIL, CV","FM-15","GVBA ","V020","320,1,N,0041,1","22000,1,9,N","011265,1,N,1","+0290,1","+0190,1","99999,9","02,5,+00450,1,99,9",,,"02,99,1,99,9,99,9,99999,9,99,9,99,9","10119,1,99999,9",,,,"MET057METAR GVBA 151800Z 32008KT 9999 FEW015 29/19 Q1012 NOSIG;",
"08594499999","2010-12-15T19:00:00","4","16.136531","-22.888897","21.03","BOA VISTA RABIL, CV","FM-15","GVBA ","V020","340,1,N,0051,1","22000,1,9,N","011265,1,N,1","+0260,1","+0200,1","99999,9","02,5,+00450,1,99,9",,,"02,99,1,99,9,99,9,99999,9,99,9,99,9","10119,1,99999,9",,,,"MET057METAR GVBA 151900Z 34010KT 9999 FEW015 26/20 Q1012 NOSIG;",
"08594499999","2010-12-16T08:00:00","4","16.136531","-22.888897","21.03","BOA VISTA RABIL, CV","FM-15","GVBA ","V020","010,1,N,0021,1","22000,1,9,N","011265,1,N,1","+0210,1","+0190,1","99999,9","02,5,+00450,1,99,9",,,"02,99,1,99,9,99,9,99999,9,99,9,99,9","10119,1,99999,9",,,,"MET057METAR GVBA 160800Z 01004KT 9999 FEW015 21/19 Q1012 NOSIG;",
"08594499999","2010-12-16T09:00:00","4","16.136531","-22.888897","21.03","BOA VISTA RABIL, CV","FM-15","GVBA ","V020","030,1,N,0026,1","22000,1,9,N","011265,1,N,1","+0220,1","+0190,1","99999,9","02,5,+00450,1,99,9",,,"02,99,1,99,9,99,9,99999,9,99,9,99,9","10119,1,99999,9",,,,"MET057METAR GVBA 160900Z 03005KT 9999 FEW015 22/19 Q1012 NOSIG;",
"08594499999","2010-12-16T10:00:00","4","16.136531","-22.888897","21.03","BOA VISTA RABIL, CV","FM-15","GVBA ","V020","040,1,N,0062,1","22000,1,9,N","011265,1,N,1","+0260,1","+0200,1","99999,9","02,5,+00450,1,99,9",,,"02,99,1,99,9,99,9,99999,9,99,9,99,9","10129,1,99999,9",,,,"MET057METAR GVBA 161000Z 04012KT 9999 FEW015 26/20 Q1013 NOSIG;",
"08594499999","2010-12-16T11:00:00","4","16.136531","-22.888897","21.03","BOA VISTA RABIL, CV","FM-15","GVBA ","V020","020,1,N,0062,1","99999,9,C,N","011265,1,N,1","+0270,1","+0190,1","99999,9","04,5,+00450,1,99,9","04,5,+06000,1,99,9",,"04,99,1,99,9,99,9,99999,9,99,9,99,9","10129,1,99999,9",,,,"MET064METAR GVBA 161100Z 02012KT 9999 SCT015 SCT200 27/19 Q1013 NOSIG;","P01 060003SCOCIG"
"08594499999","2010-12-16T12:00:00","4","16.136531","-22.888897","21.03","BOA VISTA RABIL, CV","FM-15","GVBA ","V020","010,1,N,0067,1","99999,9,C,N","011265,1,N,1","+0280,1","+0190,1","99999,9","04,5,+00450,1,99,9","04,5,+06000,1,99,9",,"04,99,1,99,9,99,9,99999,9,99,9,99,9","10129,1,99999,9",,,,"MET064METAR GVBA 161200Z 01013KT 9999 SCT015 SCT200 28/19 Q1013 NOSIG;","P01 060003SCOCIG"
"08594499999","2010-12-16T13:00:00","4","16.136531","-22.888897","21.03","BOA VISTA RABIL, CV","FM-15","GVBA ","V020","020,1,N,0067,1","22000,1,9,N","011265,1,N,1","+0290,1","+0190,1","99999,9","04,5,+00450,1,99,9",,,"04,99,1,99,9,99,9,99999,9,99,9,99,9","10119,1,99999,9",,,,"MET057METAR GVBA 161300Z 02013KT 9999 SCT015 29/19 Q1012 NOSIG;",
"08594499999","2010-12-16T14:00:00","4","16.136531","-22.888897","21.03","BOA VISTA RABIL, CV","FM-15","GVBA ","V020","050,1,N,0072,1","00450,1,C,N","011265,1,N,1","+9999,9","+9999,9","99999,9","07,5,+00450,1,99,9",,,"07,99,1,99,9,99,9,99999,9,99,9,99,9","10110,1,99999,9",,,,"MET060METAR GVBA 161400Z 05014KT 9999 BKN015 T29 DP19 Q1011 NOSIG;",
"08594499999","2010-12-16T15:00:00","4","16.136531","-22.888897","21.03","BOA VISTA RABIL, CV","FM-15","GVBA ","V020","030,1,N,0067,1","00450,1,C,N","011265,1,N,1","+0290,1","+0180,1","99999,9","07,5,+00450,1,99,9",,,"07,99,1,99,9,99,9,99999,9,99,9,99,9","10102,1,99999,9",,,,"MET058METAR GVBA 161500Z 03013KT 9999 BKN015 29/18 Q10101 NOSIG;",
"08594499999","2010-12-16T16:00:00","4","16.136531","-22.888897","21.03","BOA VISTA RABIL, CV","FM-15","GVBA ","V020","030,1,N,0062,1","00450,1,C,N","011265,1,N,1","+0290,1","+0190,1","99999,9","07,5,+00450,1,99,9","04,5,+06000,1,99,9",,,"10102,1,99999,9",,,,"MET064METAR GVBA 161600Z 03012KT 9999 BKN015 SCT200 29/19 Q1010 NOSIG;","Q01+000042SCOTCV"
"08594499999","2010-12-16T17:00:00","4","16.136531","-22.888897","21.03","BOA VISTA RABIL, CV","FM-15","GVBA ","V020","050,1,N,0051,1","00450,1,C,N","011265,1,N,1","+0280,1","+0190,1","99999,9","02,5,+00390,1,99,9","07,5,+00450,1,99,9",,"07,99,1,99,9,99,9,99999,9,99,9,99,9","10102,1,99999,9",,,,"MET064METAR GVBA 161700Z 05010KT 9999 FEW013 BKN015 28/19 Q1010 NOSIG;",
"08594499999","2010-12-16T18:00:00","4","16.136531","-22.888897","21.03","BOA VISTA RABIL, CV","FM-15","GVBA ","V020","050,1,N,0051,1","99999,9,C,N","011265,1,N,1","+0270,1","+0190,1","99999,9","04,5,+00450,1,99,9","04,5,+06000,1,99,9",,"04,99,1,99,9,99,9,99999,9,99,9,99,9","10108,1,99999,9",,,,"MET064METAR GVBA 161800Z 05010KT 9999 SCT015 SCT200 27/19 Q1011 NOSIG;","P01 060003SCOCIG"
"08594499999","2010-12-16T19:00:00","4","16.136531","-22.888897","21.03","BOA VISTA RABIL, CV","FM-15","GVBA ","V020","050,1,N,0412,2","06000,1,C,N","011265,1,N,1","+0260,1","+0190,1","99999,9","04,5,+00450,1,99,9","07,5,+06000,1,99,9",,"07,99,1,99,9,99,9,99999,9,99,9,99,9","10108,1,99999,9",,,,"MET065METAR GVBA 161900Z 050080KT 9999 SCT015 BKN200 26/19 Q1011 NOSIG;","Q01+004123WOSPD "
"08594499999","2010-12-17T08:00:00","4","16.136531","-22.888897","21.03","BOA VISTA RABIL, CV","FM-15","GVBA ","V020","010,1,N,0026,1","22000,1,9,N","011265,1,N,1","+0190,1","+0160,1","99999,9","02,5,+00450,1,99,9",,,"02,99,1,99,9,99,9,99999,9,99,9,99,9","10108,1,99999,9",,,,"MET057METAR GVBA 170800Z 01005KT 9999 FEW015 19/16 Q1011 NOSIG;",
"08594499999","2010-12-17T09:00:00","4","16.136531","-22.888897","21.03","BOA VISTA RABIL, CV","FM-15","GVBA ","V020","010,1,N,0031,1","22000,1,9,N","011265,1,N,1","+0220,1","+0160,1","99999,9","02,5,+00450,1,99,9",,,"02,99,1,99,9,99,9,99999,9,99,9,99,9","10108,1,99999,9",,,,"MET057METAR GVBA 170900Z 01006KT 9999 FEW015 22/16 Q1011 NOSIG;",
"08594499999","2010-12-17T10:00:00","4","16.136531","-22.888897","21.03","BOA VISTA RABIL, CV","FM-15","GVBA ","V020","030,1,N,0041,1","22000,1,9,N","011265,1,N,1","+0260,1","+0150,1","99999,9","02,5,+00450,1,99,9",,,"02,99,1,99,9,99,9,99999,9,99,9,99,9","10119,1,99999,9",,,,"MET057METAR GVBA 171000Z 03008KT 9999 FEW015 26/15 Q1012 NOSIG;",
"08594499999","2010-12-17T11:00:00","4","16.136531","-22.888897","21.03","BOA VISTA RABIL, CV","FM-15","GVBA ","V020","020,1,N,0041,1","22000,1,9,N","011265,1,N,1","+0270,1","+0160,1","99999,9","02,5,+00450,1,99,9",,,"02,99,1,99,9,99,9,99999,9,99,9,99,9","10119,1,99999,9",,,,"MET057METAR GVBA 171100Z 02008KT 9999 FEW015 27/16 Q1012 NOSIG;",
"08594499999","2010-12-17T12:00:00","4","16.136531","-22.888897","21.03","BOA VISTA RABIL, CV","FM-15","GVBA ","V020","030,1,N,0051,1","22000,1,9,N","011265,1,N,1","+0270,1","+0160,1","99999,9","02,5,+00450,1,99,9",,,"02,99,1,99,9,99,9,99999,9,99,9,99,9","10119,1,99999,9",,,,"MET057METAR GVBA 171200Z 03010KT 9999 FEW015 27/16 Q1012 NOSIG;",
"08594499999","2010-12-17T13:00:00","4","16.136531","-22.888897","21.03","BOA VISTA RABIL, CV","FM-15","GVBA ","V020","040,1,N,0041,1","22000,1,9,N","011265,1,N,1","+0280,1","+0160,1","99999,9","02,5,+00450,1,99,9",,,"02,99,1,99,9,99,9,99999,9,99,9,99,9","10108,1,99999,9",,,,"MET057METAR GVBA 171300Z 04008KT 9999 FEW015 28/16 Q1011 NOSIG;",
"08594499999","2010-12-17T14:00:00","4","16.136531","-22.888897","21.03","BOA VISTA RABIL, CV","FM-15","GVBA ","V020","030,1,N,0057,1","22000,1,9,N","011265,1,N,1","+0280,1","+0160,1","99999,9","02,5,+00450,1,99,9",,,"02,99,1,99,9,99,9,99999,9,99,9,99,9","10102,1,99999,9",,,,"MET057METAR GVBA 171400Z 03011KT 9999 FEW015 28/16 Q1010 NOSIG;",
"08594499999","2010-12-17T15:00:00","4","16.136531","-22.888897","21.03","BOA VISTA RABIL, CV","FM-15","GVBA ","V020","020,1,N,0051,1","22000,1,9,N","011265,1,N,1","+0280,1","+0160,1","99999,9","02,5,+00450,1,99,9",,,"02,99,1,99,9,99,9,99999,9,99,9,99,9","10091,1,99999,9",,,,"MET057METAR GVBA 171500Z 02010KT 9999 FEW015 28/16 Q1009 NOSIG;",
"08594499999","2010-12-17T16:00:00","4","16.136531","-22.888897","21.03","BOA VISTA RABIL, CV","FM-15","GVBA ","V020","010,1,N,0051,1","22000,1,9,N","011265,1,N,1","+0280,1","+0160,1","99999,9","02,5,+00450,1,99,9",,,"02,99,1,99,9,99,9,99999,9,99,9,99,9","10091,1,99999,9",,,,"MET057METAR GVBA 171600Z 01010KT 9999 FEW015 28/16 Q1009 NOSIG;",
"08594499999","2010-12-17T17:00:00","4","16.136531","-22.888897","21.03","BOA VISTA RABIL, CV","FM-15","GVBA ","V020","360,1,N,0041,1","99999,9,C,N","011265,1,N,1","+0270,1","+0170,1","99999,9","02,5,+00450,1,99,9","04,5,+06000,1,99,9",,"04,99,1,99,9,99,9,99999,9,99,9,99,9","10081,1,99999,9",,,,"MET064METAR GVBA 171700Z 36008KT 9999 FEW015 SCT200 27/17 Q1008 NOSIG;","P01 060003SCOCIG"
"08594499999","2010-12-17T18:00:00","4","16.136531","-22.888897","21.03","BOA VISTA RABIL, CV","FM-15","GVBA ","V020","010,1,N,0041,1","06000,1,C,N","011265,1,N,1","+0260,1","+0170,1","99999,9","02,5,+00450,1,99,9","07,5,+06000,1,99,9",,"07,99,1,99,9,99,9,99999,9,99,9,99,9","10091,1,99999,9",,,,"MET064METAR GVBA 171800Z 01008KT 9999 FEW015 BKN200 26/17 Q1009 NOSIG;",
"08594499999","2010-12-17T19:00:00","4","16.136531","-22.888897","21.03","BOA VISTA RABIL, CV","FM-15","GVBA ","V020","020,1,N,0041,1","06000,1,C,N","011265,1,N,1","+0250,1","+0170,1","99999,9","02,5,+00450,1,99,9","07,5,+06000,1,99,9",,"07,99,1,99,9,99,9,99999,9,99,9,99,9","10091,1,99999,9",,,,"MET064METAR GVBA 171900Z 02008KT 9999 FEW015 BKN200 25/17 Q1009 NOSIG;",
"08594499999","2010-12-18T08:00:00","4","16.136531","-22.888897","21.03","BOA VISTA RABIL, CV","FM-15","GVBA ","V020","999,9,C,0000,1","99999,9,C,N","011265,1,N,1","+0180,1","+0150,1","99999,9","02,5,+00450,1,99,9","04,5,+06000,1,99,9",,"04,99,1,99,9,99,9,99999,9,99,9,99,9","10108,1,99999,9",,,,"MET064METAR GVBA 180800Z 00000KT 9999 FEW015 SCT200 18/15 Q1011 NOSIG;","P01 060003SCOCIG"
"08594499999","2010-12-18T09:00:00","4","16.136531","-22.888897","21.03","BOA VISTA RABIL, CV","FM-15","GVBA ","V020","999,9,C,0000,1","22000,1,9,N","011265,1,N,1","+0210,1","+0160,1","99999,9","04,5,+00450,1,99,9",,,"04,99,1,99,9,99,9,99999,9,99,9,99,9","10108,1,99999,9",,,,"MET057METAR GVBA 180900Z 00000KT 9999 SCT015 21/16 Q1011 NOSIG;",
"08594499999","2010-12-18T10:00:00","4","16.136531","-22.888897","21.03","BOA VISTA RABIL, CV","FM-15","GVBA ","V020","320,1,N,0031,1","99999,9,C,N","011265,1,N,1","+0250,1","+0170,1","99999,9","02,5,+00450,1,99,9","04,5,+06000,1,99,9",,"04,99,1,99,9,99,9,99999,9,99,9,99,9","10119,1,99999,9",,,,"MET064METAR GVBA 181000Z 32006KT 9999 FEW015 SCT200 25/17 Q1012 NOSIG;","P01 060003SCOCIG"
"08594499999","2010-12-18T11:00:00","4","16.136531","-22.888897","21.03","BOA VISTA RABIL, CV","FM-15","GVBA ","V020","020,1,N,0041,1","99999,9,C,N","011265,1,N,1","+0260,1","+0160,1","99999,9","02,5,+00450,1,99,9","04,5,+06000,1,99,9",,"04,99,1,99,9,99,9,99999,9,99,9,99,9","10119,1,99999,9",,,,"MET064METAR GVBA 181100Z 02008KT 9999 FEW015 SCT200 26/16 Q1012 NOSIG;","P01 060003SCOCIG"
"08594499999","2010-12-18T12:00:00","4","16.136531","-22.888897","21.03","BOA VISTA RABIL, CV","FM-15","GVBA ","V020","030,1,N,0031,1","99999,9,9,Y","009900,1,N,1","+0280,1","+0160,1","99999,9",,,,,"10119,1,99999,9",,,,"MET051METAR GVBA 181200Z 03006KT CAVOK 28/16 Q1012 NOSIG;",
"08594499999","2010-12-18T13:00:00","4","16.136531","-22.888897","21.03","BOA VISTA RABIL, CV","FM-15","GVBA ","V020","040,1,N,0031,1","99999,9,9,Y","009900,1,N,1","+0280,1","+0160,1","99999,9",,,,,"10108,1,99999,9",,,,"MET051METAR GVBA 181300Z 04006KT CAVOK 28/16 Q1011 NOSIG;",
"08594499999","2010-12-18T14:00:00","4","16.136531","-22.888897","21.03","BOA VISTA RABIL, CV","FM-15","GVBA ","V020","040,1,N,0041,1","22000,1,9,N","011265,1,N,1","+0280,1","+0160,1","99999,9","02,5,+00450,1,99,9",,,"02,99,1,99,9,99,9,99999,9,99,9,99,9","10108,1,99999,9",,,,"MET065METAR GVBA 181400Z 04008KT 340V050 9999 FEW015 28/16 Q1011 NOSIG;",
"08594499999","2010-12-18T15:00:00","4","16.136531","-22.888897","21.03","BOA VISTA RABIL, CV","FM-15","GVBA ","V020","040,1,N,0041,1","22000,1,9,N","011265,1,N,1","+0280,1","+0160,1","99999,9","02,5,+00450,1,99,9",,,"02,99,1,99,9,99,9,99999,9,99,9,99,9","10102,1,99999,9",,,,"MET057METAR GVBA 181500Z 04008KT 9999 FEW015 28/16 Q1010 NOSIG;",
"08594499999","2010-12-18T16:00:00","4","16.136531","-22.888897","21.03","BOA VISTA RABIL, CV","FM-15","GVBA ","V020","040,1,N,0036,1","22000,1,9,N","011265,1,N,1","+0280,1","+0170,1","99999,9","02,5,+00450,1,99,9",,,"02,99,1,99,9,99,9,99999,9,99,9,99,9","10102,1,99999,9",,,,"MET057METAR GVBA 181600Z 04007KT 9999 FEW015 28/17 Q1010 NOSIG;",
"08594499999","2010-12-18T17:00:00","4","16.136531","-22.888897","21.03","BOA VISTA RABIL, CV","FM-15","GVBA ","V020","020,1,N,0036,1","22000,1,9,N","011265,1,N,1","+0270,1","+0170,1","99999,9","04,5,+00450,1,99,9",,,"04,99,1,99,9,99,9,99999,9,99,9,99,9","10102,1,99999,9",,,,"MET057METAR GVBA 181700Z 02007KT 9999 SCT015 27/17 Q1010 NOSIG;",
"08594499999","2010-12-18T19:00:00","4","16.136531","-22.888897","21.03","BOA VISTA RABIL, CV","FM-15","GVBA ","V020","040,1,N,0036,1","00450,1,C,N","011265,1,N,1","+0250,1","+0170,1","99999,9","07,5,+00450,1,99,9","04,5,+06000,1,99,9",,,"10102,1,99999,9",,,,"MET064METAR GVBA 181900Z 04007KT 9999 BKN015 SCT200 25/17 Q1010 NOSIG;","Q01+000042SCOTCV"
"08594499999","2010-12-19T09:00:00","4","16.136531","-22.888897","21.03","BOA VISTA RABIL, CV","FM-15","GVBA ","V020","999,9,V,0015,1","99999,9,C,N","011265,1,N,1","+0220,1","+0180,1","99999,9","02,5,+00450,1,99,9","04,5,+06000,1,99,9",,"04,99,1,99,9,99,9,99999,9,99,9,99,9","10129,1,99999,9",,,,"MET064METAR GVBA 190900Z VRB03KT 9999 FEW015 SCT200 22/18 Q1013 NOSIG;","P01 060003SCOCIG"
"08594499999","2010-12-19T10:00:00","4","16.136531","-22.888897","21.03","BOA VISTA RABIL, CV","FM-15","GVBA ","V020","999,9,V,0010,1","22000,1,9,N","011265,1,N,1","+0250,1","+0190,1","99999,9","02,5,+00450,1,99,9",,,"02,99,1,99,9,99,9,99999,9,99,9,99,9","10129,1,99999,9",,,,"MET057METAR GVBA 191000Z VRB02KT 9999 FEW015 25/19 Q1013 NOSIG;",
"08594499999","2010-12-19T11:00:00","4","16.136531","-22.888897","21.03","BOA VISTA RABIL, CV","FM-15","GVBA ","V020","999,9,V,0036,1","22000,1,9,N","011265,1,N,1","+0280,1","+0190,1","99999,9","04,5,+00450,1,99,9",,,"04,99,1,99,9,99,9,99999,9,99,9,99,9","10139,1,99999,9",,,,"MET057METAR GVBA 191100Z VRB07KT 9999 SCT015 28/19 Q1014 NOSIG;",
"08594499999","2010-12-19T12:00:00","4","16.136531","-22.888897","21.03","BOA VISTA RABIL, CV","FM-15","GVBA ","V020","080,1,N,0036,1","00450,1,C,N","011265,1,N,1","+0290,1","+0190,1","99999,9","07,5,+00450,1,99,9",,,"07,99,1,99,9,99,9,99999,9,99,9,99,9","10129,1,99999,9",,,,"MET057METAR GVBA 191200Z 08007KT 9999 BKN015 29/19 Q1013 NOSIG;",
"08594499999","2010-12-19T13:00:00","4","16.136531","-22.888897","21.03","BOA VISTA RABIL, CV","FM-15","GVBA ","V020","090,1,N,0031,1","22000,1,9,N","011265,1,N,1","+0300,1","+0190,1","99999,9","02,5,+00450,1,99,9",,,"02,99,1,99,9,99,9,99999,9,99,9,99,9","10129,1,99999,9",,,,"MET065METAR GVBA 191300Z 09006KT 040V120 9999 FEW015 30/19 Q1013 NOSIG;",
"08594499999","2010-12-19T14:00:00","4","16.136531","-22.888897","21.03","BOA VISTA RABIL, CV","FM-15","GVBA ","V020","080,1,N,0036,1","22000,1,9,N","011265,1,N,1","+0300,1","+0180,1","99999,9","02,5,+00450,1,99,9",,,"02,99,1,99,9,99,9,99999,9,99,9,99,9","10119,1,99999,9",,,,"MET057METAR GVBA 191400Z 08007KT 9999 FEW015 30/18 Q1012 NOSIG;",
"08594499999","2010-12-19T15:00:00","4","16.136531","-22.888897","21.03","BOA VISTA RABIL, CV","FM-15","GVBA ","V020","050,1,N,0062,1","22000,1,9,N","011265,1,N,1","+0300,1","+0190,1","99999,9","02,5,+00450,1,99,9",,,"02,99,1,99,9,99,9,99999,9,99,9,99,9","10119,1,99999,9",,,,"MET057METAR GVBA 191500Z 05012KT 9999 FEW015 30/19 Q1012 NOSIG;",
"08594499999","2010-12-19T16:00:00","4","16.136531","-22.888897","21.03","BOA VISTA RABIL, CV","FM-15","GVBA ","V020","070,1,N,0046,1","99999,9,C,N","011265,1,N,1","+0290,1","+0190,1","99999,9","02,5,+00450,1,99,9","04,5,+06000,1,99,9",,"04,99,1,99,9,99,9,99999,9,99,9,99,9","10108,1,99999,9",,,,"MET064METAR GVBA 191600Z 07009KT 9999 FEW015 SCT200 29/19 Q1011 NOSIG;","P01 060003SCOCIG"
"08594499999","2010-12-19T17:00:00","4","16.136531","-22.888897","21.03","BOA VISTA RABIL, CV","FM-15","GVBA ","V020","040,1,N,0067,1","06000,1,C,N","011265,1,N,1","+0280,1","+0200,1","99999,9","04,5,+00450,1,99,9","07,5,+06000,1,99,9",,"07,99,1,99,9,99,9,99999,9,99,9,99,9","10119,1,99999,9",,,,"MET064METAR GVBA 191700Z 04013KT 9999 SCT015 BKN200 28/20 Q1012 NOSIG;",
"08594499999","2010-12-19T18:00:00","4","16.136531","-22.888897","21.03","BOA VISTA RABIL, CV","FM-15","GVBA ","V020","050,1,N,0057,1","06000,1,C,N","011265,1,N,1","+0270,1","+0190,1","99999,9","02,5,+00450,1,99,9","07,5,+06000,1,99,9",,"07,99,1,99,9,99,9,99999,9,99,9,99,9","10119,1,99999,9",,,,"MET064METAR GVBA 191800Z 05011KT 9999 FEW015 BKN200 27/19 Q1012 NOSIG;",
"08594499999","2010-12-19T19:00:00","4","16.136531","-22.888897","21.03","BOA VISTA RABIL, CV","FM-15","GVBA ","V020","040,1,N,0051,1","06000,1,C,N","011265,1,N,1","+0250,1","+0190,1","99999,9","02,5,+00450,1,99,9","07,5,+06000,1,99,9",,"07,99,1,99,9,99,9,99999,9,99,9,99,9","10129,1,99999,9",,,,"MET064METAR GVBA 191900Z 04010KT 9999 FEW015 BKN200 25/19 Q1013 NOSIG;",
"08594499999","2010-12-20T08:00:00","4","16.136531","-22.888897","21.03","BOA VISTA RABIL, CV","FM-15","GVBA ","V020","070,1,N,0021,1","06000,1,C,N","011265,1,N,1","+0210,1","+0200,1","99999,9","02,5,+00420,1,99,9","07,5,+06000,1,99,9",,"07,99,1,99,9,99,9,99999,9,99,9,99,9","10149,1,99999,9",,,,"MET064METAR GVBA 200800Z 07004KT 9999 FEW014 BKN200 21/20 Q1015 NOSIG;",
"08594499999","2010-12-20T09:00:00","4","16.136531","-22.888897","21.03","BOA VISTA RABIL, CV","FM-15","GVBA ","V020","060,1,N,0015,1","06000,1,C,N","011265,1,N,1","+0220,1","+0200,1","99999,9","02,5,+00420,1,99,9","07,5,+06000,1,99,9",,"07,99,1,99,9,99,9,99999,9,99,9,99,9","10159,1,99999,9",,,,"MET064METAR GVBA 200900Z 06003KT 9999 FEW014 BKN200 22/20 Q1016 NOSIG;",
"08594499999","2010-12-20T10:00:00","4","16.136531","-22.888897","21.03","BOA VISTA RABIL, CV","FM-15","GVBA ","V020","040,1,N,0041,1","99999,9,C,N","011265,1,N,1","+0260,1","+0200,1","99999,9","02,5,+00450,1,99,9","04,5,+06000,1,99,9",,"04,99,1,99,9,99,9,99999,9,99,9,99,9","10169,1,99999,9",,,,"MET064METAR GVBA 201000Z 04008KT 9999 FEW015 SCT200 26/20 Q1017 NOSIG;","P01 060003SCOCIG"
"08594499999","2010-12-20T11:00:00","4","16.136531","-22.888897","21.03","BOA VISTA RABIL, CV","FM-15","GVBA ","V020","030,1,N,0046,1","99999,9,C,N","011265,1,N,1","+0270,1","+0210,1","99999,9","02,5,+00450,1,99,9","04,5,+06000,1,99,9",,"04,99,1,99,9,99,9,99999,9,99,9,99,9","10169,1,99999,9",,,,"MET064METAR GVBA 201100Z 03009KT 9999 FEW015 SCT200 27/21 Q1017 NOSIG;","P01 060003SCOCIG"
"08594499999","2010-12-20T12:00:00","4","16.136531","-22.888897","21.03","BOA VISTA RABIL, CV","FM-15","GVBA ","V020","050,1,N,0046,1","06000,1,C,N","011265,1,N,1","+0270,1","+0200,1","99999,9","02,5,+00450,1,99,9","07,5,+06000,1,99,9",,"07,99,1,99,9,99,9,99999,9,99,9,99,9","10169,1,99999,9",,,,"MET064METAR GVBA 201200Z 05009KT 9999 FEW015 BKN200 27/20 Q1017 NOSIG;",
"08594499999","2010-12-20T13:00:00","4","16.136531","-22.888897","21.03","BOA VISTA RABIL, CV","FM-15","GVBA ","V020","040,1,N,0051,1","06000,1,C,N","011265,1,N,1","+0280,1","+0190,1","99999,9","02,5,+00450,1,99,9","07,5,+06000,1,99,9",,"07,99,1,99,9,99,9,99999,9,99,9,99,9","10169,1,99999,9",,,,"MET064METAR GVBA 201300Z 04010KT 9999 FEW015 BKN200 28/19 Q1017 NOSIG;",
"08594499999","2010-12-20T14:00:00","4","16.136531","-22.888897","21.03","BOA VISTA RABIL, CV","FM-15","GVBA ","V020","020,1,N,0062,1","06000,1,C,N","011265,1,N,1","+0280,1","+0190,1","99999,9","02,5,+00450,1,99,9","07,5,+06000,1,99,9",,"07,99,1,99,9,99,9,99999,9,99,9,99,9","10159,1,99999,9",,,,"MET064METAR GVBA 201400Z 02012KT 9999 FEW015 BKN200 28/19 Q1016 NOSIG;",
"08594499999","2010-12-20T15:00:00","4","16.136531","-22.888897","21.03","BOA VISTA RABIL, CV","FM-15","GVBA ","V020","010,1,N,0062,1","06000,1,C,N","011265,1,N,1","+0280,1","+0200,1","99999,9","02,5,+00450,1,99,9","07,5,+06000,1,99,9",,"07,99,1,99,9,99,9,99999,9,99,9,99,9","10149,1,99999,9",,,,"MET064METAR GVBA 201500Z 01012KT 9999 FEW015 BKN200 28/20 Q1015 NOSIG;",
"08594499999","2010-12-20T16:00:00","4","16.136531","-22.888897","21.03","BOA VISTA RABIL, CV","FM-15","GVBA ","V020","010,1,N,0062,1","06000,1,C,N","011265,1,N,1","+0280,1","+0190,1","99999,9","02,5,+00450,1,99,9","07,5,+06000,1,99,9",,"07,99,1,99,9,99,9,99999,9,99,9,99,9","10149,1,99999,9",,,,"MET064METAR GVBA 201600Z 01012KT 9999 FEW015 BKN200 28/19 Q1015 NOSIG;",
"08594499999","2010-12-20T17:00:00","4","16.136531","-22.888897","21.03","BOA VISTA RABIL, CV","FM-15","GVBA ","V020","020,1,N,0067,1","03000,1,C,N","011265,1,N,1","+0280,1","+0200,1","99999,9","04,5,+00450,1,99,9","04,5,+03000,1,99,9","07,5,+06000,1,99,9","07,99,1,99,9,99,9,99999,9,99,9,99,9","10149,1,99999,9",,,,"MET071METAR GVBA 201700Z 02013KT 9999 SCT015 SCT100 BKN200 28/20 Q1015 NOSIG;",
"08594499999","2010-12-20T18:00:00","4","16.136531","-22.888897","21.03","BOA VISTA RABIL, CV","FM-15","GVBA ","V020","020,1,N,0067,1","03000,1,C,N","011265,1,N,1","+0270,1","+0200,1","99999,9","04,5,+00450,1,99,9","04,5,+03000,1,99,9","07,5,+06000,1,99,9","07,99,1,99,9,99,9,99999,9,99,9,99,9","10149,1,99999,9",,,,"MET071METAR GVBA 201800Z 02013KT 9999 SCT015 SCT100 BKN200 27/20 Q1015 NOSIG;",
"08594499999","2010-12-20T19:00:00","4","16.136531","-22.888897","21.03","BOA VISTA RABIL, CV","FM-15","GVBA ","V020","010,1,N,0067,1","06000,1,C,N","011265,1,N,1","+0250,1","+0200,1","99999,9","04,5,+00450,1,99,9","07,5,+06000,1,99,9",,"07,99,1,99,9,99,9,99999,9,99,9,99,9","10159,1,99999,9",,,,"MET064METAR GVBA 201900Z 01013KT 9999 SCT015 BKN200 25/20 Q1016 NOSIG;",
"08594499999","2010-12-21T08:00:00","4","16.136531","-22.888897","21.03","BOA VISTA RABIL, CV","FM-15","GVBA ","V020","030,1,N,0031,1","03000,1,C,N","011265,1,N,1","+0240,1","+0200,1","99999,9","02,5,+00420,1,99,9","04,5,+03000,1,99,9","07,5,+06000,1,99,9","07,99,1,99,9,99,9,99999,9,99,9,99,9","10159,1,99999,9",,,,"MET071METAR GVBA 210800Z 03006KT 9999 FEW014 SCT100 BKN200 24/20 Q1016 NOSIG;",
"08594499999","2010-12-21T09:00:00","4","16.136531","-22.888897","21.03","BOA VISTA RABIL, CV","FM-15","GVBA ","V020","030,1,N,0051,1","99999,9,C,N","011265,1,N,1","+0240,1","+0200,1","99999,9","04,5,+00420,1,99,9","04,5,+03000,1,99,9",,"04,99,1,99,9,99,9,99999,9,99,9,99,9","10159,1,99999,9",,,,"MET064METAR GVBA 210900Z 03010KT 9999 SCT014 SCT100 24/20 Q1016 NOSIG;","P01 030003SCOCIG"
"08594499999","2010-12-21T10:00:00","4","16.136531","-22.888897","21.03","BOA VISTA RABIL, CV","FM-15","GVBA ","V020","040,1,N,0057,1","06000,1,C,N","011265,1,N,1","+0260,1","+0200,1","99999,9","04,5,+00420,1,99,9","07,5,+06000,1,99,9",,"07,99,1,99,9,99,9,99999,9,99,9,99,9","10169,1,99999,9",,,,"MET064METAR GVBA 211000Z 04011KT 9999 SCT014 BKN200 26/20 Q1017 NOSIG;",
"08594499999","2010-12-21T11:00:00","4","16.136531","-22.888897","21.03","BOA VISTA RABIL, CV","FM-15","GVBA ","V020","040,1,N,0062,1","03000,1,C,N","011265,1,N,1","+0270,1","+0210,1","99999,9","04,5,+00420,1,99,9","07,5,+03000,1,99,9",,"07,99,1,99,9,99,9,99999,9,99,9,99,9","10169,1,99999,9",,,,"MET064METAR GVBA 211100Z 04012KT 9999 SCT014 BKN100 27/21 Q1017 NOSIG;",
"08594499999","2010-12-21T12:00:00","4","16.136531","-22.888897","21.03","BOA VISTA RABIL, CV","FM-15","GVBA ","V020","030,1,N,0072,1","03000,1,C,N","011265,1,N,1","+0270,1","+0200,1","99999,9","04,5,+00420,1,99,9","04,5,+03000,1,99,9","07,5,+06000,1,99,9","07,99,1,99,9,99,9,99999,9,99,9,99,9","10159,1,99999,9",,,,"MET071METAR GVBA 211200Z 03014KT 9999 SCT014 SCT100 BKN200 27/20 Q1016 NOSIG;",
"08594499999","2010-12-21T13:00:00","4","16.136531","-22.888897","21.03","BOA VISTA RABIL, CV","FM-15","GVBA ","V020","040,1,N,0082,1","06000,1,C,N","011265,1,N,1","+0280,1","+0200,1","99999,9","04,5,+00420,1,99,9","07,5,+06000,1,99,9",,"07,99,1,99,9,99,9,99999,9,99,9,99,9","10149,1,99999,9",,,,"MET064METAR GVBA 211300Z 04016KT 9999 SCT014 BKN200 28/20 Q1015 NOSIG;",
"08594499999","2010-12-21T14:00:00","4","16.136531","-22.888897","21.03","BOA VISTA RABIL, CV","FM-15","GVBA ","V020","050,1,N,0077,1","03000,1,C,N","011265,1,N,1","+0280,1","+0200,1","99999,9","04,5,+00450,1,99,9","07,5,+03000,1,99,9",,"07,99,1,99,9,99,9,99999,9,99,9,99,9","10139,1,99999,9",,,,"MET064METAR GVBA 211400Z 05015KT 9999 SCT015 BKN100 28/20 Q1014 NOSIG;",
"08594499999","2010-12-21T15:00:00","4","16.136531","-22.888897","21.03","BOA VISTA RABIL, CV","FM-15","GVBA ","V020","030,1,N,0077,1","00450,1,C,N","011265,1,N,1","+0280,1","+0200,1","99999,9","07,5,+00450,1,99,9","07,5,+03000,1,99,9",,"07,99,1,99,9,99,9,99999,9,99,9,99,9","10139,1,99999,9",,,,"MET064METAR GVBA 211500Z 03015KT 9999 BKN015 BKN100 28/20 Q1014 NOSIG;",
"08594499999","2010-12-21T16:00:00","4","16.136531","-22.888897","21.03","BOA VISTA RABIL, CV","FM-15","GVBA ","V020","030,1,N,0077,1","03000,1,C,N","011265,1,N,1","+0280,1","+0200,1","99999,9","04,5,+00450,1,99,9","07,5,+03000,1,99,9","07,5,+06000,1,99,9","07,99,1,99,9,99,9,99999,9,99,9,99,9","10129,1,99999,9",,,,"MET071METAR GVBA 211600Z 03015KT 9999 SCT015 BKN100 BKN200 28/20 Q1013 NOSIG;",
"08594499999","2010-12-21T17:00:00","4","16.136531","-22.888897","21.03","BOA VISTA RABIL, CV","FM-15","GVBA ","V020","040,1,N,0077,1","03000,1,C,N","011265,1,N,1","+0270,1","+0200,1","99999,9","04,5,+00450,1,99,9","04,5,+03000,1,99,9","07,5,+06000,1,99,9","07,99,1,99,9,99,9,99999,9,99,9,99,9","10129,1,99999,9",,,,"MET071METAR GVBA 211700Z 04015KT 9999 SCT015 SCT100 BKN200 27/20 Q1013 NOSIG;",
"08594499999","2010-12-21T18:00:00","4","16.136531","-22.888897","21.03","BOA VISTA RABIL, CV","FM-15","GVBA ","V020","030,1,N,0077,1","03000,1,C,N","011265,1,N,1","+0260,1","+0200,1","99999,9","04,5,+00450,1,99,9","07,5,+03000,1,99,9",,"07,99,1,99,9,99,9,99999,9,99,9,99,9","10129,1,99999,9",,,,"MET064METAR GVBA 211800Z 03015KT 9999 SCT015 BKN100 26/20 Q1013 NOSIG;",
"08594499999","2010-12-21T19:00:00","4","16.136531","-22.888897","21.03","BOA VISTA RABIL, CV","FM-15","GVBA ","V020","030,1,N,0067,1","03000,1,C,N","011265,1,N,1","+0250,1","+0200,1","99999,9","04,5,+00450,1,99,9","07,5,+03000,1,99,9",,"07,99,1,99,9,99,9,99999,9,99,9,99,9","10129,1,99999,9",,,,"MET064METAR GVBA 211900Z 03013KT 9999 SCT015 BKN100 25/20 Q1013 NOSIG;",
"08594499999","2010-12-22T08:00:00","4","16.136531","-22.888897","21.03","BOA VISTA RABIL, CV","FM-15","GVBA ","V020","030,1,N,0051,1","00420,1,C,N","011265,1,N,1","+0230,1","+0190,1","99999,9","07,5,+00420,1,99,9",,,"07,99,1,99,9,99,9,99999,9,99,9,99,9","10129,1,99999,9",,,,"MET057METAR GVBA 220800Z 03010KT 9999 BKN014 23/19 Q1013 NOSIG;",
"08594499999","2010-12-22T09:00:00","4","16.136531","-22.888897","21.03","BOA VISTA RABIL, CV","FM-15","GVBA ","V020","050,1,N,0051,1","00420,1,C,N","011265,1,N,1","+0240,1","+0190,1","99999,9","07,5,+00420,1,99,9",,,"07,99,1,99,9,99,9,99999,9,99,9,99,9","10139,1,99999,9",,,,"MET057METAR GVBA 220900Z 05010KT 9999 BKN014 24/19 Q1014 NOSIG;",
"08594499999","2010-12-22T11:00:00","4","16.136531","-22.888897","21.03","BOA VISTA RABIL, CV","FM-15","GVBA ","V020","050,1,N,0082,1","22000,1,9,N","011265,1,N,1","+0270,1","+0180,1","99999,9","04,5,+00450,1,99,9",,,"04,99,1,99,9,99,9,99999,9,99,9,99,9","10149,1,99999,9",,,,"MET057METAR GVBA 221100Z 05016KT 9999 SCT015 27/18 Q1015 NOSIG;",
"08594499999","2010-12-22T12:00:00","4","16.136531","-22.888897","21.03","BOA VISTA RABIL, CV","FM-15","GVBA ","V020","050,1,N,0087,1","00450,1,C,N","011265,1,N,1","+0270,1","+0180,1","99999,9","07,5,+00450,1,99,9",,,"07,99,1,99,9,99,9,99999,9,99,9,99,9","10139,1,99999,9",,,,"MET057METAR GVBA 221200Z 05017KT 9999 BKN015 27/18 Q1014 NOSIG;",
"08594499999","2010-12-22T13:00:00","4","16.136531","-22.888897","21.03","BOA VISTA RABIL, CV","FM-15","GVBA ","V020","050,1,N,0082,1","00450,1,C,N","011265,1,N,1","+0280,1","+0190,1","99999,9","07,5,+00450,1,99,9",,,"07,99,1,99,9,99,9,99999,9,99,9,99,9","10139,1,99999,9",,,,"MET057METAR GVBA 221300Z 05016KT 9999 BKN015 28/19 Q1014 NOSIG;",
"08594499999","2010-12-22T14:00:00","4","16.136531","-22.888897","21.03","BOA VISTA RABIL, CV","FM-15","GVBA ","V020","030,1,N,0093,1","00450,1,C,N","011265,1,N,1","+0280,1","+0180,1","99999,9","07,5,+00450,1,99,9",,,"07,99,1,99,9,99,9,99999,9,99,9,99,9","10129,1,99999,9",,,,"MET057METAR GVBA 221400Z 03018KT 9999 BKN015 28/18 Q1013 NOSIG;",
"08594499999","2010-12-22T15:00:00","4","16.136531","-22.888897","21.03","BOA VISTA RABIL, CV","FM-15","GVBA ","V020","040,1,N,0093,1","00450,1,C,N","011265,1,N,1","+0270,1","+0180,1","99999,9","07,5,+00450,1,99,9",,,"07,99,1,99,9,99,9,99999,9,99,9,99,9","10129,1,99999,9",,,,"MET057METAR GVBA 221500Z 04018KT 9999 BKN015 27/18 Q1013 NOSIG;",
"08594499999","2010-12-22T16:00:00","4","16.136531","-22.888897","21.03","BOA VISTA RABIL, CV","FM-15","GVBA ","V020","040,1,N,0087,1","00450,1,C,N","011265,1,N,1","+0270,1","+0180,1","99999,9","07,5,+00450,1,99,9",,,"07,99,1,99,9,99,9,99999,9,99,9,99,9","10119,1,99999,9",,,,"MET057METAR GVBA 221600Z 04017KT 9999 BKN015 27/18 Q1012 NOSIG;",
"08594499999","2010-12-22T17:00:00","4","16.136531","-22.888897","21.03","BOA VISTA RABIL, CV","FM-15","GVBA ","V020","020,1,N,0072,1","00450,1,C,N","011265,1,N,1","+0270,1","+0190,1","99999,9","07,5,+00450,1,99,9",,,"07,99,1,99,9,99,9,99999,9,99,9,99,9","10119,1,99999,9",,,,"MET057METAR GVBA 221700Z 02014KT 9999 BKN015 27/19 Q1012 NOSIG;",
"08594499999","2010-12-22T18:00:00","4","16.136531","-22.888897","21.03","BOA VISTA RABIL, CV","FM-15","GVBA ","V020","050,1,N,0087,1","00450,1,C,N","011265,1,N,1","+0260,1","+0190,1","99999,9","07,5,+00450,1,99,9",,,"07,99,1,99,9,99,9,99999,9,99,9,99,9","10119,1,99999,9",,,,"MET057METAR GVBA 221800Z 05017KT 9999 BKN015 26/19 Q1012 NOSIG;",
"08594499999","2010-12-22T19:00:00","4","16.136531","-22.888897","21.03","BOA VISTA RABIL, CV","FM-15","GVBA ","V020","040,1,N,0082,1","00450,1,C,N","011265,1,N,1","+0250,1","+0180,1","99999,9","07,5,+00450,1,99,9",,,"07,99,1,99,9,99,9,99999,9,99,9,99,9","10129,1,99999,9",,,,"MET057METAR GVBA 221900Z 04016KT 9999 BKN015 25/18 Q1013 NOSIG;",
"08594499999","2010-12-23T08:00:00","4","16.136531","-22.888897","21.03","BOA VISTA RABIL, CV","FM-15","GVBA ","V020","040,1,N,0062,1","00450,1,C,N","011265,1,N,1","+0240,1","+0170,1","99999,9","07,5,+00450,1,99,9",,,"07,99,1,99,9,99,9,99999,9,99,9,99,9","10129,1,99999,9",,,,"MET057METAR GVBA 230800Z 04012KT 9999 BKN015 24/17 Q1013 NOSIG;",
"08594499999","2010-12-23T09:00:00","4","16.136531","-22.888897","21.03","BOA VISTA RABIL, CV","FM-15","GVBA ","V020","050,1,N,0062,1","00450,1,C,N","011265,1,N,1","+0240,1","+0170,1","99999,9","07,5,+00450,1,99,9",,,"07,99,1,99,9,99,9,99999,9,99,9,99,9","10139,1,99999,9",,,,"MET057METAR GVBA 230900Z 05012KT 9999 BKN015 24/17 Q1014 NOSIG;",
"08594499999","2010-12-23T10:00:00","4","16.136531","-22.888897","21.03","BOA VISTA RABIL, CV","FM-15","GVBA ","V020","040,1,N,0051,1","00450,1,C,N","011265,1,N,1","+0260,1","+0180,1","99999,9","07,5,+00450,1,99,9",,,"07,99,1,99,9,99,9,99999,9,99,9,99,9","10139,1,99999,9",,,,"MET057METAR GVBA 231000Z 04010KT 9999 BKN015 26/18 Q1014 NOSIG;",
"08594499999","2010-12-23T11:00:00","4","16.136531","-22.888897","21.03","BOA VISTA RABIL, CV","FM-15","GVBA ","V020","999,9,N,0072,1","00450,1,C,N","011265,1,N,1","+0270,1","+0180,1","99999,9","07,5,+00450,1,99,9",,,"07,99,1,99,9,99,9,99999,9,99,9,99,9","10139,1,99999,9",,,,"MET058METAR GVBA 231100Z 005014KT 9999 BKN015 27/18 Q1014 NOSIG;",
"08594499999","2010-12-23T12:00:00","4","16.136531","-22.888897","21.03","BOA VISTA RABIL, CV","FM-15","GVBA ","V020","040,1,N,0077,1","00450,1,C,N","011265,1,N,1","+0270,1","+0180,1","99999,9","07,5,+00450,1,99,9",,,"07,99,1,99,9,99,9,99999,9,99,9,99,9","10139,1,99999,9",,,,"MET057METAR GVBA 231200Z 04015KT 9999 BKN015 27/18 Q1014 NOSIG;",
"08594499999","2010-12-23T13:00:00","4","16.136531","-22.888897","21.03","BOA VISTA RABIL, CV","FM-15","GVBA ","V020","040,1,N,0082,1","00450,1,C,N","011265,1,N,1","+0280,1","+0180,1","99999,9","07,5,+00450,1,99,9",,,"07,99,1,99,9,99,9,99999,9,99,9,99,9","10129,1,99999,9",,,,"MET057METAR GVBA 231300Z 04016KT 9999 BKN015 28/18 Q1013 NOSIG;",
"08594499999","2010-12-23T14:00:00","4","16.136531","-22.888897","21.03","BOA VISTA RABIL, CV","FM-15","GVBA ","V020","050,1,N,0072,1","00450,1,C,N","011265,1,N,1","+0280,1","+0180,1","99999,9","07,5,+00450,1,99,9",,,"07,99,1,99,9,99,9,99999,9,99,9,99,9","10129,1,99999,9",,,,"MET057METAR GVBA 231400Z 05014KT 9999 BKN015 28/18 Q1013 NOSIG;",
"08594499999","2010-12-23T15:00:00","4","16.136531","-22.888897","21.03","BOA VISTA RABIL, CV","FM-15","GVBA ","V020","050,1,N,0072,1","00450,1,C,N","011265,1,N,1","+0280,1","+0180,1","99999,9","07,5,+00450,1,99,9",,,"07,99,1,99,9,99,9,99999,9,99,9,99,9","10119,1,99999,9",,,,"MET057METAR GVBA 231500Z 05014KT 9999 BKN015 28/18 Q1012 NOSIG;",
"08594499999","2010-12-23T16:00:00","4","16.136531","-22.888897","21.03","BOA VISTA RABIL, CV","FM-15","GVBA ","V020","060,1,N,0062,1","00450,1,C,N","011265,1,N,1","+0280,1","+0180,1","99999,9","07,5,+00450,1,99,9",,,"07,99,1,99,9,99,9,99999,9,99,9,99,9","10119,1,99999,9",,,,"MET057METAR GVBA 231600Z 06012KT 9999 BKN015 28/18 Q1012 NOSIG;",
"08594499999","2010-12-23T17:00:00","4","16.136531","-22.888897","21.03","BOA VISTA RABIL, CV","FM-15","GVBA ","V020","050,1,N,0067,1","00450,1,C,N","011265,1,N,1","+0280,1","+0180,1","99999,9","07,5,+00450,1,99,9",,,"07,99,1,99,9,99,9,99999,9,99,9,99,9","10119,1,99999,9",,,,"MET057METAR GVBA 231700Z 05013KT 9999 BKN015 28/18 Q1012 NOSIG;",
"08594499999","2010-12-23T18:00:00","4","16.136531","-22.888897","21.03","BOA VISTA RABIL, CV","FM-15","GVBA ","V020","070,1,N,0051,1","00450,1,C,N","011265,1,N,1","+0270,1","+0180,1","99999,9","07,5,+00450,1,99,9",,,"07,99,1,99,9,99,9,99999,9,99,9,99,9","10119,1,99999,9",,,,"MET057METAR GVBA 231800Z 07010KT 9999 BKN015 27/18 Q1012 NOSIG;",
"08594499999","2010-12-23T19:00:00","4","16.136531","-22.888897","21.03","BOA VISTA RABIL, CV","FM-15","GVBA ","V020","060,1,N,0051,1","00450,1,C,N","011265,1,N,1","+0250,1","+0180,1","99999,9","07,5,+00450,1,99,9",,,"07,99,1,99,9,99,9,99999,9,99,9,99,9","10119,1,99999,9",,,,"MET057METAR GVBA 231900Z 06010KT 9999 BKN015 25/18 Q1012 NOSIG;",
"08594499999","2010-12-24T08:00:00","4","16.136531","-22.888897","21.03","BOA VISTA RABIL, CV","FM-15","GVBA ","V020","050,1,N,0051,1","00450,1,C,N","011265,1,N,1","+0240,1","+0180,1","99999,9","07,5,+00450,1,99,9",,,"07,99,1,99,9,99,9,99999,9,99,9,99,9","10129,1,99999,9",,,,"MET057METAR GVBA 240800Z 05010KT 9999 BKN015 24/18 Q1013 NOSIG;",
"08594499999","2010-12-24T09:00:00","4","16.136531","-22.888897","21.03","BOA VISTA RABIL, CV","FM-15","GVBA ","V020","050,1,N,0062,1","00450,1,C,N","011265,1,N,1","+0240,1","+0170,1","99999,9","07,5,+00450,1,99,9",,,"07,99,1,99,9,99,9,99999,9,99,9,99,9","10139,1,99999,9",,,,"MET057METAR GVBA 240900Z 05012KT 9999 BKN015 24/17 Q1014 NOSIG;",
"08594499999","2010-12-24T10:00:00","4","16.136531","-22.888897","21.03","BOA VISTA RABIL, CV","FM-15","GVBA ","V020","050,1,N,0051,1","22000,1,9,N","011265,1,N,1","+0260,1","+0180,1","99999,9","02,5,+00450,1,99,9",,,"02,99,1,99,9,99,9,99999,9,99,9,99,9","10149,1,99999,9",,,,"MET057METAR GVBA 241000Z 05010KT 9999 FEW015 26/18 Q1015 NOSIG;",
"08594499999","2010-12-24T11:00:00","4","16.136531","-22.888897","21.03","BOA VISTA RABIL, CV","FM-15","GVBA ","V020","050,1,N,0067,1","00450,1,C,N","011265,1,N,1","+0270,1","+0180,1","99999,9","07,5,+00450,1,99,9",,,"07,99,1,99,9,99,9,99999,9,99,9,99,9","10149,1,99999,9",,,,"MET057METAR GVBA 241100Z 05013KT 9999 BKN015 27/18 Q1015 NOSIG;",
"08594499999","2010-12-24T12:00:00","4","16.136531","-22.888897","21.03","BOA VISTA RABIL, CV","FM-15","GVBA ","V020","050,1,N,0067,1","22000,1,9,N","011265,1,N,1","+0280,1","+0170,1","99999,9","04,5,+00450,1,99,9",,,"04,99,1,99,9,99,9,99999,9,99,9,99,9","10149,1,99999,9",,,,"MET057METAR GVBA 241200Z 05013KT 9999 SCT015 28/17 Q1015 NOSIG;",
"08594499999","2010-12-24T13:00:00","4","16.136531","-22.888897","21.03","BOA VISTA RABIL, CV","FM-15","GVBA ","V020","050,1,N,0067,1","22000,1,9,N","011265,1,N,1","+0280,1","+0180,1","99999,9","04,5,+00450,1,99,9",,,"04,99,1,99,9,99,9,99999,9,99,9,99,9","10139,1,99999,9",,,,"MET057METAR GVBA 241300Z 05013KT 9999 SCT015 28/18 Q1014 NOSIG;",
"08594499999","2010-12-24T14:00:00","4","16.136531","-22.888897","21.03","BOA VISTA RABIL, CV","FM-15","GVBA ","V020","040,1,N,0072,1","00450,1,C,N","011265,1,N,1","+0280,1","+0180,1","99999,9","07,5,+00450,1,99,9",,,"07,99,1,99,9,99,9,99999,9,99,9,99,9","10129,1,99999,9",,,,"MET057METAR GVBA 241400Z 04014KT 9999 BKN015 28/18 Q1013 NOSIG;",
"08594499999","2010-12-24T15:00:00","4","16.136531","-22.888897","21.03","BOA VISTA RABIL, CV","FM-15","GVBA ","V020","030,1,N,0072,1","00450,1,C,N","011265,1,N,1","+0280,1","+0180,1","99999,9","07,5,+00450,1,99,9",,,"07,99,1,99,9,99,9,99999,9,99,9,99,9","10129,1,99999,9",,,,"MET057METAR GVBA 241500Z 03014KT 9999 BKN015 28/18 Q1013 NOSIG;",
"08594499999","2010-12-24T16:00:00","4","16.136531","-22.888897","21.03","BOA VISTA RABIL, CV","FM-15","GVBA ","V020","040,1,N,0077,1","00450,1,C,N","011265,1,N,1","+0270,1","+0180,1","99999,9","07,5,+00450,1,99,9",,,"07,99,1,99,9,99,9,99999,9,99,9,99,9","10129,1,99999,9",,,,"MET057METAR GVBA 241600Z 04015KT 9999 BKN015 27/18 Q1013 NOSIG;",
"08594499999","2010-12-24T17:00:00","4","16.136531","-22.888897","21.03","BOA VISTA RABIL, CV","FM-15","GVBA ","V020","030,1,N,0082,1","00450,1,C,N","011265,1,N,1","+0270,1","+0180,1","99999,9","07,5,+00450,1,99,9",,,"07,99,1,99,9,99,9,99999,9,99,9,99,9","10129,1,99999,9",,,,"MET057METAR GVBA 241700Z 03016KT 9999 BKN015 27/18 Q1013 NOSIG;",
"08594499999","2010-12-24T18:00:00","4","16.136531","-22.888897","21.03","BOA VISTA RABIL, CV","FM-15","GVBA ","V020","050,1,N,0082,1","00450,1,C,N","011265,1,N,1","+0260,1","+0180,1","99999,9","07,5,+00450,1,99,9",,,"07,99,1,99,9,99,9,99999,9,99,9,99,9","10129,1,99999,9",,,,"MET057METAR GVBA 241800Z 05016KT 9999 BKN015 26/18 Q1013 NOSIG;",
"08594499999","2010-12-24T19:00:00","4","16.136531","-22.888897","21.03","BOA VISTA RABIL, CV","FM-15","GVBA ","V020","030,1,N,0077,1","00450,1,C,N","011265,1,N,1","+0250,1","+0180,1","99999,9","07,5,+00450,1,99,9",,,"07,99,1,99,9,99,9,99999,9,99,9,99,9","10129,1,99999,9",,,,"MET057METAR GVBA 241900Z 03015KT 9999 BKN015 25/18 Q1013 NOSIG;",
"08594499999","2010-12-25T08:00:00","4","16.136531","-22.888897","21.03","BOA VISTA RABIL, CV","FM-15","GVBA ","V020","050,1,N,0051,1","00450,1,C,N","011265,1,N,1","+0230,1","+0170,1","99999,9","07,5,+00450,1,99,9",,,"07,99,1,99,9,99,9,99999,9,99,9,99,9","10149,1,99999,9",,,,"MET057METAR GVBA 250800Z 05010KT 9999 BKN015 23/17 Q1015 NOSIG;",
"08594499999","2010-12-25T09:00:00","4","16.136531","-22.888897","21.03","BOA VISTA RABIL, CV","FM-15","GVBA ","V020","050,1,N,0051,1","22000,1,9,N","011265,1,N,1","+0240,1","+0160,1","99999,9","04,5,+00450,1,99,9",,,"04,99,1,99,9,99,9,99999,9,99,9,99,9","10149,1,99999,9",,,,"MET057METAR GVBA 250900Z 05010KT 9999 SCT015 24/16 Q1015 NOSIG;",
"08594499999","2010-12-25T10:00:00","4","16.136531","-22.888897","21.03","BOA VISTA RABIL, CV","FM-15","GVBA ","V020","040,1,N,0062,1","22000,1,9,N","011265,1,N,1","+0260,1","+0170,1","99999,9","04,5,+00450,1,99,9",,,"04,99,1,99,9,99,9,99999,9,99,9,99,9","10149,1,99999,9",,,,"MET057METAR GVBA 251000Z 04012KT 9999 SCT015 26/17 Q1015 NOSIG;",
"08594499999","2010-12-25T11:00:00","4","16.136531","-22.888897","21.03","BOA VISTA RABIL, CV","FM-15","GVBA ","V020","040,1,N,0067,1","22000,1,9,N","011265,1,N,1","+0270,1","+0160,1","99999,9","04,5,+00450,1,99,9",,,"04,99,1,99,9,99,9,99999,9,99,9,99,9","10159,1,99999,9",,,,"MET057METAR GVBA 251100Z 04013KT 9999 SCT015 27/16 Q1016 NOSIG;",
"08594499999","2010-12-25T12:00:00","4","16.136531","-22.888897","21.03","BOA VISTA RABIL, CV","FM-15","GVBA ","V020","030,1,N,0077,1","22000,1,9,N","011265,1,N,1","+0270,1","+0170,1","99999,9","04,5,+00450,1,99,9",,,"04,99,1,99,9,99,9,99999,9,99,9,99,9","10149,1,99999,9",,,,"MET057METAR GVBA 251200Z 03015KT 9999 SCT015 27/17 Q1015 NOSIG;",
"08594499999","2010-12-25T13:00:00","4","16.136531","-22.888897","21.03","BOA VISTA RABIL, CV","FM-15","GVBA ","V020","040,1,N,0087,1","22000,1,9,N","011265,1,N,1","+0270,1","+0170,1","99999,9","04,5,+00450,1,99,9",,,"04,99,1,99,9,99,9,99999,9,99,9,99,9","10149,1,99999,9",,,,"MET057METAR GVBA 251300Z 04017KT 9999 SCT015 27/17 Q1015 NOSIG;",
"08594499999","2010-12-25T14:00:00","4","16.136531","-22.888897","21.03","BOA VISTA RABIL, CV","FM-15","GVBA ","V020","040,1,N,0082,1","00450,1,C,N","011265,1,N,1","+0280,1","+0170,1","99999,9","07,5,+00450,1,99,9",,,"07,99,1,99,9,99,9,99999,9,99,9,99,9","10139,1,99999,9",,,,"MET057METAR GVBA 251400Z 04016KT 9999 BKN015 28/17 Q1014 NOSIG;",
"08594499999","2010-12-25T15:00:00","4","16.136531","-22.888897","21.03","BOA VISTA RABIL, CV","FM-15","GVBA ","V020","030,1,N,0082,1","00450,1,C,N","011265,1,N,1","+0280,1","+0170,1","99999,9","07,5,+00450,1,99,9",,,"07,99,1,99,9,99,9,99999,9,99,9,99,9","10129,1,99999,9",,,,"MET057METAR GVBA 251500Z 03016KT 9999 BKN015 28/17 Q1013 NOSIG;",
"08594499999","2010-12-25T16:00:00","4","16.136531","-22.888897","21.03","BOA VISTA RABIL, CV","FM-15","GVBA ","V020","050,1,N,0082,1","00450,1,C,N","011265,1,N,1","+0270,1","+0170,1","99999,9","07,5,+00450,1,99,9",,,"07,99,1,99,9,99,9,99999,9,99,9,99,9","10129,1,99999,9",,,,"MET057METAR GVBA 251600Z 05016KT 9999 BKN015 27/17 Q1013 NOSIG;",
"08594499999","2010-12-25T17:00:00","4","16.136531","-22.888897","21.03","BOA VISTA RABIL, CV","FM-15","GVBA ","V020","040,1,N,0082,1","00450,1,C,N","011265,1,N,1","+0270,1","+0170,1","99999,9","07,5,+00450,1,99,9",,,"07,99,1,99,9,99,9,99999,9,99,9,99,9","10119,1,99999,9",,,,"MET057METAR GVBA 251700Z 04016KT 9999 BKN015 27/17 Q1012 NOSIG;",
"08594499999","2010-12-25T18:00:00","4","16.136531","-22.888897","21.03","BOA VISTA RABIL, CV","FM-15","GVBA ","V020","050,1,N,0077,1","00450,1,C,N","011265,1,N,1","+0260,1","+0170,1","99999,9","07,5,+00450,1,99,9",,,"07,99,1,99,9,99,9,99999,9,99,9,99,9","10129,1,99999,9",,,,"MET057METAR GVBA 251800Z 05015KT 9999 BKN015 26/17 Q1013 NOSIG;",
"08594499999","2010-12-25T19:00:00","4","16.136531","-22.888897","21.03","BOA VISTA RABIL, CV","FM-15","GVBA ","V020","060,1,N,0067,1","00450,1,C,N","011265,1,N,1","+0250,1","+0180,1","99999,9","07,5,+00450,1,99,9",,,"07,99,1,99,9,99,9,99999,9,99,9,99,9","10129,1,99999,9",,,,"MET057METAR GVBA 251900Z 06013KT 9999 BKN015 25/18 Q1013 NOSIG;",
"08594499999","2010-12-26T08:00:00","4","16.136531","-22.888897","21.03","BOA VISTA RABIL, CV","FM-15","GVBA ","V020","080,1,N,0021,1","00450,1,C,N","011265,1,N,1","+0220,1","+0160,1","99999,9","07,5,+00450,1,99,9",,,"07,99,1,99,9,99,9,99999,9,99,9,99,9","10139,1,99999,9",,,,"MET057METAR GVBA 260800Z 08004KT 9999 BKN015 22/16 Q1014 NOSIG;",
"08594499999","2010-12-26T09:00:00","4","16.136531","-22.888897","21.03","BOA VISTA RABIL, CV","FM-15","GVBA ","V020","050,1,N,0036,1","00450,1,C,N","011265,1,N,1","+0230,1","+0170,1","99999,9","07,5,+00450,1,99,9",,,"07,99,1,99,9,99,9,99999,9,99,9,99,9","10149,1,99999,9",,,,"MET057METAR GVBA 260900Z 05007KT 9999 BKN015 23/17 Q1015 NOSIG;",
"08594499999","2010-12-26T10:00:00","4","16.136531","-22.888897","21.03","BOA VISTA RABIL, CV","FM-15","GVBA ","V020","050,1,N,0051,1","00450,1,C,N","011265,1,N,1","+0250,1","+0170,1","99999,9","07,5,+00450,1,99,9",,,"07,99,1,99,9,99,9,99999,9,99,9,99,9","10149,1,99999,9",,,,"MET057METAR GVBA 261000Z 05010KT 9999 BKN015 25/17 Q1015 NOSIG;",
"08594499999","2010-12-26T11:00:00","4","16.136531","-22.888897","21.03","BOA VISTA RABIL, CV","FM-15","GVBA ","V020","050,1,N,0051,1","00450,1,C,N","011265,1,N,1","+0270,1","+0170,1","99999,9","07,5,+00450,1,99,9",,,"07,99,1,99,9,99,9,99999,9,99,9,99,9","10149,1,99999,9",,,,"MET057METAR GVBA 261100Z 05010KT 9999 BKN015 27/17 Q1015 NOSIG;",
"08594499999","2010-12-26T12:00:00","4","16.136531","-22.888897","21.03","BOA VISTA RABIL, CV","FM-15","GVBA ","V020","040,1,N,0062,1","00450,1,C,N","011265,1,N,1","+0270,1","+0170,1","99999,9","07,5,+00450,1,99,9",,,"07,99,1,99,9,99,9,99999,9,99,9,99,9","10149,1,99999,9",,,,"MET057METAR GVBA 261200Z 04012KT 9999 BKN015 27/17 Q1015 NOSIG;",
"08594499999","2010-12-26T13:00:00","4","16.136531","-22.888897","21.03","BOA VISTA RABIL, CV","FM-15","GVBA ","V020","050,1,N,0072,1","00450,1,C,N","011265,1,N,1","+0280,1","+0170,1","99999,9","07,5,+00450,1,99,9",,,"07,99,1,99,9,99,9,99999,9,99,9,99,9","10139,1,99999,9",,,,"MET057METAR GVBA 261300Z 05014KT 9999 BKN015 28/17 Q1014 NOSIG;",
"08594499999","2010-12-26T14:00:00","4","16.136531","-22.888897","21.03","BOA VISTA RABIL, CV","FM-15","GVBA ","V020","030,1,N,0082,1","22000,1,9,N","011265,1,N,1","+0280,1","+0170,1","99999,9","04,5,+00450,1,99,9",,,"04,99,1,99,9,99,9,99999,9,99,9,99,9","10129,1,99999,9",,,,"MET057METAR GVBA 261400Z 03016KT 9999 SCT015 28/17 Q1013 NOSIG;",
"08594499999","2010-12-26T15:00:00","4","16.136531","-22.888897","21.03","BOA VISTA RABIL, CV","FM-15","GVBA ","V020","030,1,N,0087,1","22000,1,9,N","011265,1,N,1","+0280,1","+0180,1","99999,9","04,5,+00450,1,99,9",,,"04,99,1,99,9,99,9,99999,9,99,9,99,9","10129,1,99999,9",,,,"MET057METAR GVBA 261500Z 03017KT 9999 SCT015 28/18 Q1013 NOSIG;",
"08594499999","2010-12-26T16:00:00","4","16.136531","-22.888897","21.03","BOA VISTA RABIL, CV","FM-15","GVBA ","V020","020,1,N,0087,1","22000,1,9,N","011265,1,N,1","+0280,1","+0180,1","99999,9","04,5,+00450,1,99,9",,,"04,99,1,99,9,99,9,99999,9,99,9,99,9","10119,1,99999,9",,,,"MET057METAR GVBA 261600Z 02017KT 9999 SCT015 28/18 Q1012 NOSIG;",
"08594499999","2010-12-26T17:00:00","4","16.136531","-22.888897","21.03","BOA VISTA RABIL, CV","FM-15","GVBA ","V020","020,1,N,0087,1","22000,1,9,N","011265,1,N,1","+0270,1","+0180,1","99999,9","04,5,+00450,1,99,9",,,"04,99,1,99,9,99,9,99999,9,99,9,99,9","10119,1,99999,9",,,,"MET057METAR GVBA 261700Z 02017KT 9999 SCT015 27/18 Q1012 NOSIG;",
"08594499999","2010-12-26T18:00:00","4","16.136531","-22.888897","21.03","BOA VISTA RABIL, CV","FM-15","GVBA ","V020","030,1,N,0082,1","22000,1,9,N","011265,1,N,1","+0270,1","+0180,1","99999,9","04,5,+00450,1,99,9",,,"04,99,1,99,9,99,9,99999,9,99,9,99,9","10119,1,99999,9",,,,"MET057METAR GVBA 261800Z 03016KT 9999 SCT015 27/18 Q1012 NOSIG;",
"08594499999","2010-12-26T19:00:00","4","16.136531","-22.888897","21.03","BOA VISTA RABIL, CV","FM-15","GVBA ","V020","030,1,N,0077,1","22000,1,9,N","011265,1,N,1","+0250,1","+0180,1","99999,9","04,5,+00450,1,99,9",,,"04,99,1,99,9,99,9,99999,9,99,9,99,9","10119,1,99999,9",,,,"MET057METAR GVBA 261900Z 03015KT 9999 SCT015 25/18 Q1012 NOSIG;",
"08594499999","2010-12-27T08:00:00","4","16.136531","-22.888897","21.03","BOA VISTA RABIL, CV","FM-15","GVBA ","V020","060,1,N,0026,1","22000,1,9,N","011265,1,N,1","+0210,1","+0170,1","99999,9","02,5,+00450,1,99,9",,,"02,99,1,99,9,99,9,99999,9,99,9,99,9","10129,1,99999,9",,,,"MET057METAR GVBA 270800Z 06005KT 9999 FEW015 21/17 Q1013 NOSIG;",
"08594499999","2010-12-27T09:00:00","4","16.136531","-22.888897","21.03","BOA VISTA RABIL, CV","FM-15","GVBA ","V020","070,1,N,0026,1","22000,1,9,N","011265,1,N,1","+0220,1","+0170,1","99999,9","02,5,+00450,1,99,9",,,"02,99,1,99,9,99,9,99999,9,99,9,99,9","10129,1,99999,9",,,,"MET057METAR GVBA 270900Z 07005KT 9999 FEW015 22/17 Q1013 NOSIG;",
"08594499999","2010-12-27T10:00:00","4","16.136531","-22.888897","21.03","BOA VISTA RABIL, CV","FM-15","GVBA ","V020","050,1,N,0062,1","22000,1,9,N","011265,1,N,1","+0250,1","+0180,1","99999,9","04,5,+00450,1,99,9",,,"04,99,1,99,9,99,9,99999,9,99,9,99,9","10119,1,99999,9",,,,"MET057METAR GVBA 271000Z 05012KT 9999 SCT015 25/18 Q1012 NOSIG;",
"08594499999","2010-12-27T11:00:00","4","16.136531","-22.888897","21.03","BOA VISTA RABIL, CV","FM-15","GVBA ","V020","060,1,N,0067,1","22000,1,9,N","011265,1,N,1","+0260,1","+0170,1","99999,9","04,5,+00450,1,99,9",,,"04,99,1,99,9,99,9,99999,9,99,9,99,9","10129,1,99999,9",,,,"MET057METAR GVBA 271100Z 06013KT 9999 SCT015 26/17 Q1013 NOSIG;",
"08594499999","2010-12-27T13:00:00","4","16.136531","-22.888897","21.03","BOA VISTA RABIL, CV","FM-15","GVBA ","V020","040,1,N,0067,1","22000,1,9,N","011265,1,N,1","+0280,1","+0170,1","99999,9","04,5,+00450,1,99,9",,,"04,99,1,99,9,99,9,99999,9,99,9,99,9","10129,1,99999,9",,,,"MET057METAR GVBA 271300Z 04013KT 9999 SCT015 28/17 Q1013 NOSIG;",
"08594499999","2010-12-27T14:00:00","4","16.136531","-22.888897","21.03","BOA VISTA RABIL, CV","FM-15","GVBA ","V020","060,1,N,0067,1","22000,1,9,N","011265,1,N,1","+0280,1","+0170,1","99999,9","04,5,+00450,1,99,9",,,"04,99,1,99,9,99,9,99999,9,99,9,99,9","10119,1,99999,9",,,,"MET057METAR GVBA 271400Z 06013KT 9999 SCT015 28/17 Q1012 NOSIG;",
"08594499999","2010-12-27T16:00:00","4","16.136531","-22.888897","21.03","BOA VISTA RABIL, CV","FM-15","GVBA ","V020","050,1,N,0067,1","22000,1,9,N","011265,1,N,1","+0280,1","+0180,1","99999,9","04,5,+00450,1,99,9",,,"04,99,1,99,9,99,9,99999,9,99,9,99,9","10108,1,99999,9",,,,"MET057METAR GVBA 271600Z 05013KT 9999 SCT015 28/18 Q1011 NOSIG;",
"08594499999","2010-12-27T17:00:00","4","16.136531","-22.888897","21.03","BOA VISTA RABIL, CV","FM-15","GVBA ","V020","050,1,N,0062,1","22000,1,9,N","011265,1,N,1","+0280,1","+0180,1","99999,9","04,5,+00450,1,99,9",,,"04,99,1,99,9,99,9,99999,9,99,9,99,9","10108,1,99999,9",,,,"MET057METAR GVBA 271700Z 05012KT 9999 SCT015 28/18 Q1011 NOSIG;",
"08594499999","2010-12-27T18:00:00","4","16.136531","-22.888897","21.03","BOA VISTA RABIL, CV","FM-15","GVBA ","V020","040,1,N,0067,1","22000,1,9,N","011265,1,N,1","+0270,1","+0180,1","99999,9","04,5,+00450,1,99,9",,,"04,99,1,99,9,99,9,99999,9,99,9,99,9","10108,1,99999,9",,,,"MET057METAR GVBA 271800Z 04013KT 9999 SCT015 27/18 Q1011 NOSIG;",
"08594499999","2010-12-27T19:00:00","4","16.136531","-22.888897","21.03","BOA VISTA RABIL, CV","FM-15","GVBA ","V020","040,1,N,0062,1","22000,1,9,N","011265,1,N,1","+0250,1","+0180,1","99999,9","02,5,+00450,1,99,9",,,"02,99,1,99,9,99,9,99999,9,99,9,99,9","10119,1,99999,9",,,,"MET057METAR GVBA 271900Z 04012KT 9999 FEW015 25/18 Q1012 NOSIG;",
"08594499999","2010-12-28T08:00:00","4","16.136531","-22.888897","21.03","BOA VISTA RABIL, CV","FM-15","GVBA ","V020","060,1,N,0031,1","00450,1,C,N","011265,1,N,1","+0210,1","+0170,1","99999,9","07,5,+00450,1,99,9",,,"07,99,1,99,9,99,9,99999,9,99,9,99,9","10119,1,99999,9",,,,"MET057METAR GVBA 280800Z 06006KT 9999 BKN015 21/17 Q1012 NOSIG;",
"08594499999","2010-12-28T09:00:00","4","16.136531","-22.888897","21.03","BOA VISTA RABIL, CV","FM-15","GVBA ","V020","050,1,N,0051,1","22000,1,9,N","011265,1,N,1","+0230,1","+0170,1","99999,9","04,5,+00450,1,99,9",,,"04,99,1,99,9,99,9,99999,9,99,9,99,9","10129,1,99999,9",,,,"MET057METAR GVBA 280900Z 05010KT 9999 SCT015 23/17 Q1013 NOSIG;",
"08594499999","2010-12-28T10:00:00","4","16.136531","-22.888897","21.03","BOA VISTA RABIL, CV","FM-15","GVBA ","V020","050,1,N,9999,9","22000,1,9,N","011265,1,N,1","+0250,1","+0170,1","99999,9","02,5,+00450,1,99,9",,,"02,99,1,99,9,99,9,99999,9,99,9,99,9","10129,1,99999,9",,,,"MET058METAR GVBA 281000Z 050120KT 9999 FEW015 25/17 Q1013 NOSIG;","Q01+006173WOSPD "
"08594499999","2010-12-28T11:00:00","4","16.136531","-22.888897","21.03","BOA VISTA RABIL, CV","FM-15","GVBA ","V020","040,1,N,0072,1","22000,1,9,N","011265,1,N,1","+0260,1","+0170,1","99999,9","02,5,+00450,1,99,9",,,"02,99,1,99,9,99,9,99999,9,99,9,99,9","10129,1,99999,9",,,,"MET057METAR GVBA 281100Z 04014KT 9999 FEW015 26/17 Q1013 NOSIG;",
"08594499999","2010-12-28T12:00:00","4","16.136531","-22.888897","21.03","BOA VISTA RABIL, CV","FM-15","GVBA ","V020","050,1,N,0077,1","22000,1,9,N","011265,1,N,1","+0270,1","+0170,1","99999,9","02,5,+00450,1,99,9",,,"02,99,1,99,9,99,9,99999,9,99,9,99,9","10129,1,99999,9",,,,"MET057METAR GVBA 281200Z 05015KT 9999 FEW015 27/17 Q1013 NOSIG;",
"08594499999","2010-12-28T13:00:00","4","16.136531","-22.888897","21.03","BOA VISTA RABIL, CV","FM-15","GVBA ","V020","050,1,N,0077,1","22000,1,9,N","011265,1,N,1","+0270,1","+0170,1","99999,9","02,5,+00450,1,99,9",,,"02,99,1,99,9,99,9,99999,9,99,9,99,9","10119,1,99999,9",,,,"MET057METAR GVBA 281300Z 05015KT 9999 FEW015 27/17 Q1012 NOSIG;",
"08594499999","2010-12-28T14:00:00","4","16.136531","-22.888897","21.03","BOA VISTA RABIL, CV","FM-15","GVBA ","V020","030,1,N,0077,1","22000,1,9,N","011265,1,N,1","+0270,1","+0170,1","99999,9","04,5,+00450,1,99,9",,,"04,99,1,99,9,99,9,99999,9,99,9,99,9","10119,1,99999,9",,,,"MET057METAR GVBA 281400Z 03015KT 9999 SCT015 27/17 Q1012 NOSIG;",
"08594499999","2010-12-28T15:00:00","4","16.136531","-22.888897","21.03","BOA VISTA RABIL, CV","FM-15","GVBA ","V020","040,1,N,0082,1","22000,1,9,N","011265,1,N,1","+0270,1","+0170,1","99999,9","04,5,+00450,1,99,9",,,"04,99,1,99,9,99,9,99999,9,99,9,99,9","10108,1,99999,9",,,,"MET057METAR GVBA 281500Z 04016KT 9999 SCT015 27/17 Q1011 NOSIG;",
"08594499999","2010-12-28T16:00:00","4","16.136531","-22.888897","21.03","BOA VISTA RABIL, CV","FM-15","GVBA ","V020","040,1,N,0077,1","22000,1,9,N","011265,1,N,1","+0270,1","+0170,1","99999,9","02,5,+00450,1,99,9",,,"02,99,1,99,9,99,9,99999,9,99,9,99,9","10102,1,99999,9",,,,"MET057METAR GVBA 281600Z 04015KT 9999 FEW015 27/17 Q1010 NOSIG;",
"08594499999","2010-12-28T17:00:00","4","16.136531","-22.888897","21.03","BOA VISTA RABIL, CV","FM-15","GVBA ","V020","040,1,N,0082,1","22000,1,9,N","011265,1,N,1","+0260,1","+0170,1","99999,9","04,5,+00450,1,99,9",,,"04,99,1,99,9,99,9,99999,9,99,9,99,9","10102,1,99999,9",,,,"MET057METAR GVBA 281700Z 04016KT 9999 SCT015 26/17 Q1010 NOSIG;",
"08594499999","2010-12-28T18:00:00","4","16.136531","-22.888897","21.03","BOA VISTA RABIL, CV","FM-15","GVBA ","V020","050,1,N,0082,1","22000,1,9,N","011265,1,N,1","+0260,1","+0170,1","99999,9","02,5,+00450,1,99,9",,,"02,99,1,99,9,99,9,99999,9,99,9,99,9","10102,1,99999,9",,,,"MET057METAR GVBA 281800Z 05016KT 9999 FEW015 26/17 Q1010 NOSIG;",
"08594499999","2010-12-28T19:00:00","4","16.136531","-22.888897","21.03","BOA VISTA RABIL, CV","FM-15","GVBA ","V020","050,1,N,0077,1","22000,1,9,N","011265,1,N,1","+0250,1","+0170,1","99999,9","04,5,+00450,1,99,9",,,"04,99,1,99,9,99,9,99999,9,99,9,99,9","10108,1,99999,9",,,,"MET057METAR GVBA 281900Z 05015KT 9999 SCT015 25/17 Q1011 NOSIG;",
"08594499999","2010-12-29T08:00:00","4","16.136531","-22.888897","21.03","BOA VISTA RABIL, CV","FM-15","GVBA ","V020","050,1,N,0036,1","22000,1,9,N","011265,1,N,1","+0210,1","+0160,1","99999,9","04,5,+00420,1,99,9",,,"04,99,1,99,9,99,9,99999,9,99,9,99,9","10119,1,99999,9",,,,"MET057METAR GVBA 290800Z 05007KT 9999 SCT014 21/16 Q1012 NOSIG;",
"08594499999","2010-12-29T09:00:00","4","16.136531","-22.888897","21.03","BOA VISTA RABIL, CV","FM-15","GVBA ","V020","060,1,N,0021,1","22000,1,9,N","011265,1,N,1","+0210,1","+0170,1","99999,9","02,5,+00420,1,99,9",,,"02,99,1,99,9,99,9,99999,9,99,9,99,9","10129,1,99999,9",,,,"MET057METAR GVBA 290900Z 06004KT 9999 FEW014 21/17 Q1013 NOSIG;",
"08594499999","2010-12-29T10:00:00","4","16.136531","-22.888897","21.03","BOA VISTA RABIL, CV","FM-15","GVBA ","V020","040,1,N,0051,1","22000,1,9,N","011265,1,N,1","+0250,1","+0170,1","99999,9","02,5,+00450,1,99,9",,,"02,99,1,99,9,99,9,99999,9,99,9,99,9","10129,1,99999,9",,,,"MET057METAR GVBA 291000Z 04010KT 9999 FEW015 25/17 Q1013 NOSIG;",
"08594499999","2010-12-29T11:00:00","4","16.136531","-22.888897","21.03","BOA VISTA RABIL, CV","FM-15","GVBA ","V020","040,1,N,0062,1","22000,1,9,N","011265,1,N,1","+0260,1","+0160,1","99999,9","02,5,+00450,1,99,9",,,"02,99,1,99,9,99,9,99999,9,99,9,99,9","10139,1,99999,9",,,,"MET057METAR GVBA 291100Z 04012KT 9999 FEW015 26/16 Q1014 NOSIG;",
"08594499999","2010-12-29T12:00:00","4","16.136531","-22.888897","21.03","BOA VISTA RABIL, CV","FM-15","GVBA ","V020","040,1,N,0072,1","22000,1,9,N","011265,1,N,1","+0260,1","+0160,1","99999,9","02,5,+00450,1,99,9",,,"02,99,1,99,9,99,9,99999,9,99,9,99,9","10129,1,99999,9",,,,"MET057METAR GVBA 291200Z 04014KT 9999 FEW015 26/16 Q1013 NOSIG;",
"08594499999","2010-12-29T13:00:00","4","16.136531","-22.888897","21.03","BOA VISTA RABIL, CV","FM-15","GVBA ","V020","050,1,N,0067,1","22000,1,9,N","011265,1,N,1","+0270,1","+0170,1","99999,9","02,5,+00450,1,99,9",,,"02,99,1,99,9,99,9,99999,9,99,9,99,9","10119,1,99999,9",,,,"MET057METAR GVBA 291300Z 05013KT 9999 FEW015 27/17 Q1012 NOSIG;",
"08594499999","2010-12-29T14:00:00","4","16.136531","-22.888897","21.03","BOA VISTA RABIL, CV","FM-15","GVBA ","V020","020,1,N,0067,1","22000,1,9,N","011265,1,N,1","+0280,1","+0170,1","99999,9","02,5,+00450,1,99,9",,,"02,99,1,99,9,99,9,99999,9,99,9,99,9","10119,1,99999,9",,,,"MET057METAR GVBA 291400Z 02013KT 9999 FEW015 28/17 Q1012 NOSIG;",
"08594499999","2010-12-29T15:00:00","4","16.136531","-22.888897","21.03","BOA VISTA RABIL, CV","FM-15","GVBA ","V020","030,1,N,0072,1","22000,1,9,N","011265,1,N,1","+0270,1","+0170,1","99999,9","02,5,+00450,1,99,9",,,"02,99,1,99,9,99,9,99999,9,99,9,99,9","10108,1,99999,9",,,,"MET057METAR GVBA 291500Z 03014KT 9999 FEW015 27/17 Q1011 NOSIG;",
"08594499999","2010-12-29T16:00:00","4","16.136531","-22.888897","21.03","BOA VISTA RABIL, CV","FM-15","GVBA ","V020","040,1,N,0077,1","22000,1,9,N","011265,1,N,1","+0270,1","+0170,1","99999,9","04,5,+00450,1,99,9",,,"04,99,1,99,9,99,9,99999,9,99,9,99,9","10108,1,99999,9",,,,"MET057METAR GVBA 291600Z 04015KT 9999 SCT015 27/17 Q1011 NOSIG;",
"08594499999","2010-12-29T17:00:00","4","16.136531","-22.888897","21.03","BOA VISTA RABIL, CV","FM-15","GVBA ","V020","050,1,N,0077,1","22000,1,9,N","011265,1,N,1","+0270,1","+0170,1","99999,9","04,5,+00450,1,99,9",,,"04,99,1,99,9,99,9,99999,9,99,9,99,9","10108,1,99999,9",,,,"MET057METAR GVBA 291700Z 05015KT 9999 SCT015 27/17 Q1011 NOSIG;",
"08594499999","2010-12-29T18:00:00","4","16.136531","-22.888897","21.03","BOA VISTA RABIL, CV","FM-15","GVBA ","V020","040,1,N,0077,1","22000,1,9,N","011265,1,N,1","+0260,1","+0170,1","99999,9","04,5,+00450,1,99,9",,,"04,99,1,99,9,99,9,99999,9,99,9,99,9","10108,1,99999,9",,,,"MET057METAR GVBA 291800Z 04015KT 9999 SCT015 26/17 Q1011 NOSIG;",
"08594499999","2010-12-29T19:00:00","4","16.136531","-22.888897","21.03","BOA VISTA RABIL, CV","FM-15","GVBA ","V020","050,1,N,0067,1","22000,1,9,N","011265,1,N,1","+0240,1","+0170,1","99999,9","02,5,+00450,1,99,9",,,"02,99,1,99,9,99,9,99999,9,99,9,99,9","10108,1,99999,9",,,,"MET057METAR GVBA 291900Z 05013KT 9999 FEW015 24/17 Q1011 NOSIG;",
"08594499999","2010-12-30T08:00:00","4","16.136531","-22.888897","21.03","BOA VISTA RABIL, CV","FM-15","GVBA ","V020","040,1,N,0051,1","22000,1,9,N","011265,1,N,1","+0220,1","+0180,1","99999,9","02,5,+00450,1,99,9",,,"02,99,1,99,9,99,9,99999,9,99,9,99,9","10119,1,99999,9",,,,"MET057METAR GVBA 300800Z 04010KT 9999 FEW015 22/18 Q1012 NOSIG;",
"08594499999","2010-12-30T09:00:00","4","16.136531","-22.888897","21.03","BOA VISTA RABIL, CV","FM-15","GVBA ","V020","050,1,N,0051,1","22000,1,9,N","011265,1,N,1","+0230,1","+0190,1","99999,9","02,5,+00450,1,99,9",,,"02,99,1,99,9,99,9,99999,9,99,9,99,9","10129,1,99999,9",,,,"MET057METAR GVBA 300900Z 05010KT 9999 FEW015 23/19 Q1013 NOSIG;",
"08594499999","2010-12-30T10:00:00","4","16.136531","-22.888897","21.03","BOA VISTA RABIL, CV","FM-15","GVBA ","V020","050,1,N,0067,1","00450,1,C,N","011265,1,N,1","+0250,1","+0190,1","99999,9","07,5,+00450,1,99,9",,,"07,99,1,99,9,99,9,99999,9,99,9,99,9","10139,1,99999,9",,,,"MET057METAR GVBA 301000Z 05013KT 9999 BKN015 25/19 Q1014 NOSIG;",
"08594499999","2010-12-30T11:00:00","4","16.136531","-22.888897","21.03","BOA VISTA RABIL, CV","FM-15","GVBA ","V020","060,1,N,0087,1","00450,1,C,N","011265,1,N,1","+0260,1","+0190,1","99999,9","07,5,+00450,1,99,9",,,"07,99,1,99,9,99,9,99999,9,99,9,99,9","10139,1,99999,9",,,,"MET057METAR GVBA 301100Z 06017KT 9999 BKN015 26/19 Q1014 NOSIG;",
"08594499999","2010-12-30T12:00:00","4","16.136531","-22.888897","21.03","BOA VISTA RABIL, CV","FM-15","GVBA ","V020","050,1,N,0087,1","00450,1,C,N","011265,1,N,1","+0270,1","+0200,1","99999,9","07,5,+00450,1,99,9",,,"07,99,1,99,9,99,9,99999,9,99,9,99,9","10139,1,99999,9",,,,"MET057METAR GVBA 301200Z 05017KT 9999 BKN015 27/20 Q1014 NOSIG;",
"08594499999","2010-12-30T13:00:00","4","16.136531","-22.888897","21.03","BOA VISTA RABIL, CV","FM-15","GVBA ","V020","050,1,N,0093,1","00450,1,C,N","011265,1,N,1","+0270,1","+0190,1","99999,9","07,5,+00450,1,99,9",,,"07,99,1,99,9,99,9,99999,9,99,9,99,9","10139,1,99999,9",,,,"MET057METAR GVBA 301300Z 05018KT 9999 BKN015 27/19 Q1014 NOSIG;",
"08594499999","2010-12-30T14:00:00","4","16.136531","-22.888897","21.03","BOA VISTA RABIL, CV","FM-15","GVBA ","V020","040,1,N,0082,1","22000,1,9,N","011265,1,N,1","+0280,1","+0190,1","99999,9","04,5,+00450,1,99,9",,,"04,99,1,99,9,99,9,99999,9,99,9,99,9","10129,1,99999,9",,,,"MET057METAR GVBA 301400Z 04016KT 9999 SCT015 28/19 Q1013 NOSIG;",
"08594499999","2010-12-30T15:00:00","4","16.136531","-22.888897","21.03","BOA VISTA RABIL, CV","FM-15","GVBA ","V020","030,1,N,0082,1","22000,1,9,N","011265,1,N,1","+0280,1","+0190,1","99999,9","04,5,+00450,1,99,9",,,"04,99,1,99,9,99,9,99999,9,99,9,99,9","10119,1,99999,9",,,,"MET057METAR GVBA 301500Z 03016KT 9999 SCT015 28/19 Q1012 NOSIG;",
"08594499999","2010-12-30T16:00:00","4","16.136531","-22.888897","21.03","BOA VISTA RABIL, CV","FM-15","GVBA ","V020","050,1,N,0077,1","00450,1,C,N","011265,1,N,1","+0270,1","+0190,1","99999,9","07,5,+00450,1,99,9",,,"07,99,1,99,9,99,9,99999,9,99,9,99,9","10119,1,99999,9",,,,"MET057METAR GVBA 301600Z 05015KT 9999 BKN015 27/19 Q1012 NOSIG;",
"08594499999","2010-12-30T17:00:00","4","16.136531","-22.888897","21.03","BOA VISTA RABIL, CV","FM-15","GVBA ","V020","050,1,N,0082,1","22000,1,9,N","011265,1,N,1","+0270,1","+0190,1","99999,9","04,5,+00450,1,99,9",,,"04,99,1,99,9,99,9,99999,9,99,9,99,9","10119,1,99999,9",,,,"MET057METAR GVBA 301700Z 05016KT 9999 SCT015 27/19 Q1012 NOSIG;",
"08594499999","2010-12-30T18:00:00","4","16.136531","-22.888897","21.03","BOA VISTA RABIL, CV","FM-15","GVBA ","V020","060,1,N,0072,1","22000,1,9,N","011265,1,N,1","+0260,1","+0190,1","99999,9","02,5,+00450,1,99,9",,,"02,99,1,99,9,99,9,99999,9,99,9,99,9","10119,1,99999,9",,,,"MET057METAR GVBA 301800Z 06014KT 9999 FEW015 26/19 Q1012 NOSIG;",
"08594499999","2010-12-30T19:00:00","4","16.136531","-22.888897","21.03","BOA VISTA RABIL, CV","FM-15","GVBA ","V020","050,1,N,0067,1","22000,1,9,N","011265,1,N,1","+0250,1","+0190,1","99999,9","02,5,+00450,1,99,9",,,"02,99,1,99,9,99,9,99999,9,99,9,99,9","10119,1,99999,9",,,,"MET057METAR GVBA 301900Z 05013KT 9999 FEW015 25/19 Q1012 NOSIG;",
"08594499999","2010-12-31T08:00:00","4","16.136531","-22.888897","21.03","BOA VISTA RABIL, CV","FM-15","GVBA ","V020","060,1,N,0031,1","22000,1,9,N","011265,1,N,1","+0220,1","+0200,1","99999,9","04,5,+00450,1,99,9",,,"04,99,1,99,9,99,9,99999,9,99,9,99,9","10139,1,99999,9",,,,"MET057METAR GVBA 310800Z 06006KT 9999 SCT015 22/20 Q1014 NOSIG;",
"08594499999","2010-12-31T09:00:00","4","16.136531","-22.888897","21.03","BOA VISTA RABIL, CV","FM-15","GVBA ","V020","060,1,N,0051,1","22000,1,9,N","011265,1,N,1","+0230,1","+0200,1","99999,9","02,5,+00450,1,99,9",,,"02,99,1,99,9,99,9,99999,9,99,9,99,9","10139,1,99999,9",,,,"MET057METAR GVBA 310900Z 06010KT 9999 FEW015 23/20 Q1014 NOSIG;",
"08594499999","2010-12-31T10:00:00","4","16.136531","-22.888897","21.03","BOA VISTA RABIL, CV","FM-15","GVBA ","V020","050,1,N,0072,1","22000,1,9,N","011265,1,N,1","+0250,1","+0200,1","99999,9","02,5,+00450,1,99,9",,,"02,99,1,99,9,99,9,99999,9,99,9,99,9","10139,1,99999,9",,,,"MET057METAR GVBA 311000Z 05014KT 9999 FEW015 25/20 Q1014 NOSIG;",
"08594499999","2010-12-31T11:00:00","4","16.136531","-22.888897","21.03","BOA VISTA RABIL, CV","FM-15","GVBA ","V020","060,1,N,0077,1","22000,1,9,N","011265,1,N,1","+0260,1","+0190,1","99999,9","02,5,+00450,1,99,9",,,"02,99,1,99,9,99,9,99999,9,99,9,99,9","10149,1,99999,9",,,,"MET057METAR GVBA 311100Z 06015KT 9999 FEW015 26/19 Q1015 NOSIG;",
"08594499999","2010-12-31T12:00:00","4","16.136531","-22.888897","21.03","BOA VISTA RABIL, CV","FM-15","GVBA ","V020","040,1,N,0093,1","22000,1,9,N","011265,1,N,1","+0270,1","+0200,1","99999,9","02,5,+00450,1,99,9",,,"02,99,1,99,9,99,9,99999,9,99,9,99,9","10139,1,99999,9",,,,"MET057METAR GVBA 311200Z 04018KT 9999 FEW015 27/20 Q1014 NOSIG;",
"08594499999","2010-12-31T13:00:00","4","16.136531","-22.888897","21.03","BOA VISTA RABIL, CV","FM-15","GVBA ","V020","050,1,N,0093,1","22000,1,9,N","011265,1,N,1","+0280,1","+0200,1","99999,9","02,5,+00450,1,99,9",,,"02,99,1,99,9,99,9,99999,9,99,9,99,9","10139,1,99999,9",,,,"MET057METAR GVBA 311300Z 05018KT 9999 FEW015 28/20 Q1014 NOSIG;",
"08594499999","2010-12-31T14:00:00","4","16.136531","-22.888897","21.03","BOA VISTA RABIL, CV","FM-15","GVBA ","V020","050,1,N,0098,1","22000,1,9,N","011265,1,N,1","+0280,1","+0200,1","99999,9","04,5,+00450,1,99,9",,,"04,99,1,99,9,99,9,99999,9,99,9,99,9","10129,1,99999,9",,,,"MET057METAR GVBA 311400Z 05019KT 9999 SCT015 28/20 Q1013 NOSIG;",
"08594499999","2010-12-31T15:00:00","4","16.136531","-22.888897","21.03","BOA VISTA RABIL, CV","FM-15","GVBA ","V020","060,1,N,0103,1","22000,1,9,N","011265,1,N,1","+0290,1","+0200,1","99999,9","04,5,+00450,1,99,9",,,"04,99,1,99,9,99,9,99999,9,99,9,99,9","10119,1,99999,9",,,,"MET057METAR GVBA 311500Z 06020KT 9999 SCT015 29/20 Q1012 NOSIG;",
"08594499999","2010-12-31T16:00:00","4","16.136531","-22.888897","21.03","BOA VISTA RABIL, CV","FM-15","GVBA ","V020","050,1,N,0103,1","22000,1,9,N","011265,1,N,1","+0280,1","+0200,1","99999,9","04,5,+00450,1,99,9",,,"04,99,1,99,9,99,9,99999,9,99,9,99,9","10108,1,99999,9",,,,"MET057METAR GVBA 311600Z 05020KT 9999 SCT015 28/20 Q1011 NOSIG;",
"08594499999","2010-12-31T17:00:00","4","16.136531","-22.888897","21.03","BOA VISTA RABIL, CV","FM-15","GVBA ","V020","040,1,N,0093,1","22000,1,9,N","011265,1,N,1","+0270,1","+0200,1","99999,9","04,5,+00450,1,99,9",,,"04,99,1,99,9,99,9,99999,9,99,9,99,9","10108,1,99999,9",,,,"MET057METAR GVBA 311700Z 04018KT 9999 SCT015 27/20 Q1011 NOSIG;",
"08594499999","2010-12-31T18:00:00","4","16.136531","-22.888897","21.03","BOA VISTA RABIL, CV","FM-15","GVBA ","V020","060,1,N,0093,1","22000,1,9,N","011265,1,N,1","+0270,1","+0200,1","99999,9","02,5,+00450,1,99,9",,,"02,99,1,99,9,99,9,99999,9,99,9,99,9","10108,1,99999,9",,,,"MET057METAR GVBA 311800Z 06018KT 9999 FEW015 27/20 Q1011 NOSIG;",
"08594499999","2010-12-31T19:00:00","4","16.136531","-22.888897","21.03","BOA VISTA RABIL, CV","FM-15","GVBA ","V020","060,1,N,0093,1","22000,1,9,N","011265,1,N,1","+0250,1","+0200,1","99999,9","02,5,+00450,1,99,9",,,"02,99,1,99,9,99,9,99999,9,99,9,99,9","10119,1,99999,9",,,,"MET057METAR GVBA 311900Z 06018KT 9999 FEW015 25/20 Q1012 NOSIG;",
