"STATION","DATE","SOURCE","LATITUDE","LONGITUDE","ELEVATION","NAME","REPORT_TYPE","CALL_SIGN","QUALITY_CONTROL","WND","CIG","VIS","TMP","DEW","SLP","ED1","GA1","GA2","GA3","GF1","MA1","MW1","MW2","MW3","OC1","REM","EQD"
"10122099999","2010-01-11T06:20:00","4","53.5335","7.888667","7.31","JEVER, GM","FM-15","ETNJ ","V020","040,1,N,0051,1","01260,1,C,N","011265,1,N,1","-0010,1","-0030,1","99999,9",,"02,5,+00420,1,99,9","07,5,+01260,1,99,9",,"07,99,1,99,9,99,9,99999,9,99,9,99,9","10200,1,99999,9",,,,,"MET064METAR ETNJ 110620Z 04010KT 9999 FEW014 BKN042 M01/M03 Q1020 BLU;",
"10122099999","2010-01-11T07:20:00","4","53.5335","7.888667","7.31","JEVER, GM","FM-15","ETNJ ","V020","040,1,N,0057,1","01350,1,C,N","011265,1,N,1","-0010,1","-0030,1","99999,9",,"04,5,+00420,1,99,9","07,5,+01350,1,99,9",,"07,99,1,99,9,99,9,99999,9,99,9,99,9","10200,1,99999,9",,,,,"MET064METAR ETNJ 110720Z 04011KT 9999 SCT014 BKN045 M01/M03 Q1020 BLU;",
"10122099999","2010-01-11T08:20:00","4","53.5335","7.888667","7.31","JEVER, GM","FM-15","ETNJ ","V020","040,1,N,0051,1","01500,1,C,N","011265,1,N,1","-0010,1","-0020,1","99999,9",,"02,5,+00600,1,99,9","07,5,+01500,1,99,9",,"07,99,1,99,9,99,9,99999,9,99,9,99,9","10200,1,99999,9","71,1",,,,"MET082METAR ETNJ 110820Z 04010KT 9999 -SN FEW020 BKN050 M01/M02 Q1020 BLU BLU TEMPO GRN;",
"10122099999","2010-01-11T08:37:00","4","53.5335","7.888667","7.31","JEVER, GM","FM-16","ETNJ ","V020","040,1,N,0051,1","00960,1,C,N","011265,1,N,1","-0010,1","-0020,1","99999,9",,"02,5,+00360,1,99,9","07,5,+00960,1,99,9",,"07,99,1,99,9,99,9,99999,9,99,9,99,9","10200,1,99999,9","71,1",,,,"MET087SPECI ETNJ 110837Z 04010KT 9999 -SN FEW012 BKN032 M01/M02 Q1020 BLACKBLU BLU TEMPO GRN;",
"10122099999","2010-01-11T09:20:00","4","53.5335","7.888667","7.31","JEVER, GM","FM-15","ETNJ ","V020","040,1,N,0046,1","00780,1,C,N","011265,1,N,1","-0010,1","-0020,1","99999,9",,"02,5,+00360,1,99,9","07,5,+00780,1,99,9",,"07,99,1,99,9,99,9,99999,9,99,9,99,9","10200,1,99999,9",,,,,"MET083METAR ETNJ 110920Z 04009KT 9999 FEW012 BKN026 M01/M02 Q1020 BLACKBLU BLU TEMPO GRN;",
"10122099999","2010-01-11T10:20:00","4","53.5335","7.888667","7.31","JEVER, GM","FM-15","ETNJ ","V020","040,1,N,0046,1","00780,1,C,N","011265,1,N,1","-0010,1","-0020,1","99999,9",,"02,5,+00300,1,99,9","07,5,+00780,1,99,9",,"07,99,1,99,9,99,9,99999,9,99,9,99,9","10200,1,99999,9","71,1",,,,"MET087METAR ETNJ 111020Z 04009KT 9999 -SN FEW010 BKN026 M01/M02 Q1020 BLACKBLU BLU TEMPO GRN;",
"10122099999","2010-01-11T11:20:00","4","53.5335","7.888667","7.31","JEVER, GM","FM-15","ETNJ ","V020","040,1,N,0046,1","01200,1,C,N","011265,1,N,1","+0000,1","-0020,1","99999,9",,"02,5,+00300,1,99,9","07,5,+01200,1,99,9",,"07,99,1,99,9,99,9,99999,9,99,9,99,9","10210,1,99999,9",,,,,"MET083METAR ETNJ 111120Z 04009KT 9999 FEW010 BKN040 M00/M02 Q1021 BLACKBLU BLU TEMPO YLO;",
"10122099999","2010-01-11T12:20:00","4","53.5335","7.888667","7.31","JEVER, GM","FM-15","ETNJ ","V020","040,1,N,0046,1","00990,1,C,N","011265,1,N,1","+0000,1","-0020,1","99999,9",,"02,5,+00300,1,99,9","04,5,+00990,1,99,9","07,5,+01500,1,99,9","07,99,1,99,9,99,9,99999,9,99,9,99,9","10210,1,99999,9","71,1",,,,"MET094METAR ETNJ 111220Z 04009KT 9999 -SN FEW010 SCT033 BKN050 M00/M02 Q1021 BLACKBLU BLU TEMPO YLO;",
"10122099999","2010-01-11T13:20:00","4","53.5335","7.888667","7.31","JEVER, GM","FM-15","ETNJ ","V020","020,1,N,0036,1","00930,1,C,N","011265,1,N,1","+0000,1","-0020,1","99999,9",,"04,5,+00630,1,99,9","07,5,+00930,1,99,9",,"07,99,1,99,9,99,9,99999,9,99,9,99,9","10190,1,99999,9","71,1",,,,"MET087METAR ETNJ 111320Z 02007KT 9999 -SN SCT021 BKN031 M00/M02 Q1019 BLACKBLU BLU TEMPO YLO;",
"10122099999","2010-01-11T14:20:00","4","53.5335","7.888667","7.31","JEVER, GM","FM-15","ETNJ ","V020","020,1,N,0046,1","00630,1,C,N","011265,1,N,1","+0000,1","-0020,1","99999,9",,"02,5,+00300,1,99,9","07,5,+00630,1,99,9",,"07,99,1,99,9,99,9,99999,9,99,9,99,9","10200,1,99999,9","71,1",,,,"MET087METAR ETNJ 111420Z 02009KT 9999 -SN FEW010 BKN021 M00/M02 Q1020 BLACKWHT BLU TEMPO YLO;",
"10122099999","2010-01-11T15:00:00","4","53.5335","7.888667","7.31","JEVER, GM","FM-15","ETNJ ","V020","030,1,N,0046,1","00630,1,C,N","011265,1,N,1","+0000,1","-0020,1","99999,9",,"02,5,+00300,1,99,9","04,5,+00630,1,99,9","07,5,+00930,1,99,9","07,99,1,99,9,99,9,99999,9,99,9,99,9","10200,1,99999,9","71,1",,,,"MET092SPECI ETNJ 111459Z 03009KT 9999 -SN FEW010 SCT021 BKN031 M00/M02 Q1020 BLACKBLU FCST CANCEL;",
"10122099999","2010-01-12T06:20:00","4","53.5335","7.888667","7.31","JEVER, GM","FM-15","ETNJ ","V020","090,1,N,0051,1","00330,1,C,N","011265,1,N,1","-0020,1","-0040,1","99999,9",,"07,5,+00330,1,99,9",,,"07,99,1,99,9,99,9,99999,9,99,9,99,9","10190,1,99999,9",,,,,"MET062METAR ETNJ 120620Z 09010KT 9999 BKN011 M02/M04 Q1019 BLACKGRN;",
"10122099999","2010-01-12T07:20:00","4","53.5335","7.888667","7.31","JEVER, GM","FM-15","ETNJ ","V020","100,1,N,0041,1","00960,1,C,N","011265,1,N,1","-0020,1","-0040,1","99999,9",,"02,5,+00330,1,99,9","07,5,+00960,1,99,9",,"07,99,1,99,9,99,9,99999,9,99,9,99,9","10190,1,99999,9",,,,,"MET073METAR ETNJ 120720Z 10008KT 9999 FEW011 BKN032 M02/M04 Q1019 BLACKBLU BLU;",
"10122099999","2010-01-12T08:20:00","4","53.5335","7.888667","7.31","JEVER, GM","FM-15","ETNJ ","V020","090,1,N,0046,1","00900,1,C,N","011265,1,N,1","-0020,1","-0040,1","99999,9",,"02,5,+00300,1,99,9","07,5,+00900,1,99,9",,"07,99,1,99,9,99,9,99999,9,99,9,99,9","10190,1,99999,9",,,,,"MET073METAR ETNJ 120820Z 09009KT 9999 FEW010 BKN030 M02/M04 Q1019 BLACKBLU BLU;",
"10122099999","2010-01-12T09:20:00","4","53.5335","7.888667","7.31","JEVER, GM","FM-15","ETNJ ","V020","100,1,N,0051,1","00840,1,C,N","008000,1,N,1","-0020,1","-0040,1","99999,9",,"02,5,+00300,1,99,9","07,5,+00840,1,99,9",,"07,99,1,99,9,99,9,99999,9,99,9,99,9","10190,1,99999,9",,,,,"MET073METAR ETNJ 120920Z 10010KT 8000 FEW010 BKN028 M02/M04 Q1019 BLACKBLU BLU;",
"10122099999","2010-01-12T10:20:00","4","53.5335","7.888667","7.31","JEVER, GM","FM-15","ETNJ ","V020","090,1,N,0057,1","00840,1,C,N","008000,1,N,1","-0020,1","-0040,1","99999,9",,"02,5,+00300,1,99,9","07,5,+00840,1,99,9",,"07,99,1,99,9,99,9,99999,9,99,9,99,9","10190,1,99999,9",,,,,"MET073METAR ETNJ 121020Z 09011KT 8000 FEW010 BKN028 M02/M04 Q1019 BLACKBLU BLU;",
"10122099999","2010-01-12T11:20:00","4","53.5335","7.888667","7.31","JEVER, GM","FM-15","ETNJ ","V020","090,1,N,0057,1","00840,1,C,N","008000,1,N,1","-0020,1","-0040,1","99999,9",,"02,5,+00300,1,99,9","07,5,+00840,1,99,9",,"07,99,1,99,9,99,9,99999,9,99,9,99,9","10180,1,99999,9",,,,,"MET073METAR ETNJ 121120Z 09011KT 8000 FEW010 BKN028 M02/M04 Q1018 BLACKBLU BLU;",
"10122099999","2010-01-12T12:20:00","4","53.5335","7.888667","7.31","JEVER, GM","FM-15","ETNJ ","V020","090,1,N,0067,1","00840,1,C,N","008000,1,N,1","-0020,1","-0040,1","99999,9",,"07,5,+00840,1,99,9",,,"07,99,1,99,9,99,9,99999,9,99,9,99,9","10180,1,99999,9",,,,,"MET066METAR ETNJ 121220Z 09013KT 8000 BKN028 M02/M04 Q1018 BLACKBLU BLU;",
"10122099999","2010-01-12T13:20:00","4","53.5335","7.888667","7.31","JEVER, GM","FM-15","ETNJ ","V020","090,1,N,0067,1","00840,1,C,N","007000,1,N,1","-0020,1","-0040,1","99999,9",,"07,5,+00840,1,99,9",,,"07,99,1,99,9,99,9,99999,9,99,9,99,9","10169,1,99999,9",,,,,"MET066METAR ETNJ 121320Z 09013KT 7000 BKN028 M02/M04 Q1017 BLACKWHT WHT;",
"10122099999","2010-01-12T14:20:00","4","53.5335","7.888667","7.31","JEVER, GM","FM-15","ETNJ ","V020","080,1,N,0062,1","00960,1,C,N","007000,1,N,1","-0020,1","-0050,1","99999,9",,"07,5,+00960,1,99,9",,,"07,99,1,99,9,99,9,99999,9,99,9,99,9","10169,1,99999,9",,,,,"MET066METAR ETNJ 121420Z 08012KT 7000 BKN032 M02/M05 Q1017 BLACKWHT WHT;",
"10122099999","2010-01-12T15:00:00","4","53.5335","7.888667","7.31","JEVER, GM","FM-15","ETNJ ","V020","080,1,N,0062,1","00930,1,C,N","007000,1,N,1","-0020,1","-0050,1","99999,9",,"07,5,+00930,1,99,9",,,"07,99,1,99,9,99,9,99999,9,99,9,99,9","10159,1,99999,9",,,,,"MET074SPECI ETNJ 121459Z 08012KT 7000 BKN031 M02/M05 Q1016 BLACKWHT FCST CANCEL;",
"10122099999","2010-01-13T06:20:00","4","53.5335","7.888667","7.31","JEVER, GM","FM-15","ETNJ ","V020","090,1,N,0093,1","00270,1,C,N","008000,1,N,1","-0020,1","-0040,1","99999,9",,"07,5,+00270,1,99,9",,,"07,99,1,99,9,99,9,99999,9,99,9,99,9","10108,1,99999,9","36,1",,,,"MET067METAR ETNJ 130620Z 09018KT 8000 DRSN BKN009 M02/M04 Q1011 BLACKGRN;",
"10122099999","2010-01-13T07:20:00","4","53.5335","7.888667","7.31","JEVER, GM","FM-15","ETNJ ","V020","100,1,N,0082,1","00270,1,C,N","008000,1,N,1","-0020,1","-0040,1","99999,9",,"07,5,+00270,1,99,9",,,"07,99,1,99,9,99,9,99999,9,99,9,99,9","10102,1,99999,9","36,1",,,,"MET071METAR ETNJ 130720Z 10016KT 8000 DRSN BKN009 M02/M04 Q1010 BLACKGRN GRN;",
"10122099999","2010-01-13T08:20:00","4","53.5335","7.888667","7.31","JEVER, GM","FM-15","ETNJ ","V020","090,1,N,0087,1","00300,1,C,N","006000,1,N,1","-0020,1","-0040,1","99999,9",,"07,5,+00300,1,99,9",,,"07,99,1,99,9,99,9,99999,9,99,9,99,9","10102,1,99999,9","36,1",,,,"MET071METAR ETNJ 130820Z 09017KT 6000 DRSN BKN010 M02/M04 Q1010 BLACKGRN GRN;",
"10122099999","2010-01-13T09:20:00","4","53.5335","7.888667","7.31","JEVER, GM","FM-15","ETNJ ","V020","090,1,N,0103,1","00300,1,C,N","006000,1,N,1","-0020,1","-0040,1","99999,9",,"07,5,+00300,1,99,9",,,"07,99,1,99,9,99,9,99999,9,99,9,99,9","10102,1,99999,9","36,1",,,,"MET071METAR ETNJ 130920Z 09020KT 6000 DRSN BKN010 M02/M04 Q1010 BLACKGRN GRN;",
"10122099999","2010-01-13T10:20:00","4","53.5335","7.888667","7.31","JEVER, GM","FM-15","ETNJ ","V020","090,1,N,0103,1","00300,1,C,N","006000,1,N,1","-0020,1","-0040,1","99999,9",,"07,5,+00300,1,99,9",,,"07,99,1,99,9,99,9,99999,9,99,9,99,9","10102,1,99999,9","38,1",,,,"MET072METAR ETNJ 131020Z 09020KT 6000 -BLSN BKN010 M02/M04 Q1010 BLACKGRN GRN;",
"10122099999","2010-01-13T11:20:00","4","53.5335","7.888667","7.31","JEVER, GM","FM-15","ETNJ ","V020","100,1,N,0093,1","00270,1,C,N","006000,1,N,1","-0020,1","-0040,1","99999,9",,"07,5,+00270,1,99,9",,,"07,99,1,99,9,99,9,99999,9,99,9,99,9","10108,1,99999,9","38,1",,,,"MET072METAR ETNJ 131120Z 10018KT 6000 -BLSN BKN009 M02/M04 Q1011 BLACKGRN GRN;",
"10122099999","2010-01-13T12:20:00","4","53.5335","7.888667","7.31","JEVER, GM","FM-15","ETNJ ","V020","100,1,N,0098,1","00270,1,C,N","006000,1,N,1","-0020,1","-0040,1","99999,9",,"07,5,+00270,1,99,9",,,"07,99,1,99,9,99,9,99999,9,99,9,99,9","10091,1,99999,9","38,1",,,,"MET072METAR ETNJ 131220Z 10019KT 6000 -BLSN BKN009 M02/M04 Q1009 BLACKGRN GRN;",
"10122099999","2010-01-13T13:20:00","4","53.5335","7.888667","7.31","JEVER, GM","FM-15","ETNJ ","V020","090,1,N,0093,1","00270,1,C,N","006000,1,N,1","-0020,1","-0030,1","99999,9",,"07,5,+00270,1,99,9",,,"07,99,1,99,9,99,9,99999,9,99,9,99,9","10091,1,99999,9","36,1",,,,"MET071METAR ETNJ 131320Z 09018KT 6000 DRSN BKN009 M02/M03 Q1009 BLACKGRN GRN;",
"10122099999","2010-01-13T14:20:00","4","53.5335","7.888667","7.31","JEVER, GM","FM-15","ETNJ ","V020","100,1,N,0093,1","00270,1,C,N","005000,1,N,1","-0020,1","-0030,1","99999,9",,"07,5,+00270,1,99,9",,,"07,99,1,99,9,99,9,99999,9,99,9,99,9","10091,1,99999,9","10,1","36,1",,,"MET074METAR ETNJ 131420Z 10018KT 5000 DRSN BR BKN009 M02/M03 Q1009 BLACKGRN GRN;",
"10122099999","2010-01-13T15:00:00","4","53.5335","7.888667","7.31","JEVER, GM","FM-16","ETNJ ","V020","100,1,N,0093,1","00270,1,C,N","005000,1,N,1","-0020,1","-0030,1","99999,9",,"07,5,+00270,1,99,9",,,"07,99,1,99,9,99,9,99999,9,99,9,99,9","10091,1,99999,9","10,1","36,1",,,"MET082SPECI ETNJ 131500Z 10018KT 5000 DRSN BR BKN009 M02/M03 Q1009 BLACKGRN FCST CANCEL;",
"10122099999","2010-01-14T06:20:00","4","53.5335","7.888667","7.31","JEVER, GM","FM-15","ETNJ ","V020","100,1,N,0057,1","00360,1,C,N","007000,1,N,1","-0010,1","-0030,1","99999,9",,"07,5,+00360,1,99,9",,,"07,99,1,99,9,99,9,99999,9,99,9,99,9","10091,1,99999,9",,,,,"MET066METAR ETNJ 140620Z 10011KT 7000 BKN012 M01/M03 Q1009 BLACKGRN GRN;",
"10122099999","2010-01-14T07:20:00","4","53.5335","7.888667","7.31","JEVER, GM","FM-15","ETNJ ","V020","100,1,N,0051,1","00420,1,C,N","007000,1,N,1","-0010,1","-0030,1","99999,9",,"07,5,+00420,1,99,9",,,"07,99,1,99,9,99,9,99999,9,99,9,99,9","10091,1,99999,9",,,,,"MET066METAR ETNJ 140720Z 10010KT 7000 BKN014 M01/M03 Q1009 BLACKGRN GRN;",
"10122099999","2010-01-14T08:20:00","4","53.5335","7.888667","7.31","JEVER, GM","FM-15","ETNJ ","V020","100,1,N,0057,1","00420,1,C,N","005000,1,N,1","-0010,1","-0030,1","99999,9",,"07,5,+00420,1,99,9",,,"07,99,1,99,9,99,9,99999,9,99,9,99,9","10102,1,99999,9","10,1",,,,"MET069METAR ETNJ 140820Z 10011KT 5000 BR BKN014 M01/M03 Q1010 BLACKGRN GRN;",
"10122099999","2010-01-14T09:20:00","4","53.5335","7.888667","7.31","JEVER, GM","FM-15","ETNJ ","V020","100,1,N,0046,1","00420,1,C,N","005000,1,N,1","-0010,1","-0020,1","99999,9",,"07,5,+00420,1,99,9",,,"07,99,1,99,9,99,9,99999,9,99,9,99,9","10102,1,99999,9","10,1",,,,"MET069METAR ETNJ 140920Z 10009KT 5000 BR BKN014 M01/M02 Q1010 BLACKGRN GRN;",
"10122099999","2010-01-14T10:20:00","4","53.5335","7.888667","7.31","JEVER, GM","FM-15","ETNJ ","V020","100,1,N,0051,1","00360,1,C,N","005000,1,N,1","-0010,1","-0020,1","99999,9",,"07,5,+00360,1,99,9",,,"07,99,1,99,9,99,9,99999,9,99,9,99,9","10102,1,99999,9","10,1",,,,"MET069METAR ETNJ 141020Z 10010KT 5000 BR BKN012 M01/M02 Q1010 BLACKGRN GRN;",
"10122099999","2010-01-14T11:20:00","4","53.5335","7.888667","7.31","JEVER, GM","FM-15","ETNJ ","V020","100,1,N,0051,1","00390,1,C,N","005000,1,N,1","+0000,1","-0020,1","99999,9",,"07,5,+00390,1,99,9","07,5,+00660,1,99,9",,"07,99,1,99,9,99,9,99999,9,99,9,99,9","10108,1,99999,9","10,1",,,,"MET076METAR ETNJ 141120Z 10010KT 5000 BR BKN013 BKN022 M00/M02 Q1011 BLACKGRN GRN;",
"10122099999","2010-01-14T12:20:00","4","53.5335","7.888667","7.31","JEVER, GM","FM-15","ETNJ ","V020","100,1,N,0051,1","00390,1,C,N","005000,1,N,1","+0000,1","-0020,1","99999,9",,"07,5,+00390,1,99,9","07,5,+00660,1,99,9",,"07,99,1,99,9,99,9,99999,9,99,9,99,9","10108,1,99999,9","10,1",,,,"MET084METAR ETNJ 141220Z 10010KT 5000 BR BKN013 BKN022 M00/M02 Q1011 BLACKGRN FCST CANCEL;",
"10122099999","2010-01-14T13:20:00","4","53.5335","7.888667","7.31","JEVER, GM","FM-15","ETNJ ","V020","100,1,N,0062,1","00660,1,C,N","005000,1,N,1","+0000,1","-0020,1","99999,9",,"04,5,+00390,1,99,9","07,5,+00660,1,99,9",,"07,99,1,99,9,99,9,99999,9,99,9,99,9","10102,1,99999,9","10,1",,,,"MET071METAR ETNJ 141320Z 10012KT 5000 BR SCT013 BKN022 00/M02 Q1010 BLACKWHT;",
"10122099999","2010-01-14T14:20:00","4","53.5335","7.888667","7.31","JEVER, GM","FM-15","ETNJ ","V020","100,1,N,0051,1","00630,1,C,N","005000,1,N,1","+0000,1","-0020,1","99999,9",,"02,5,+00360,1,99,9","07,5,+00630,1,99,9",,"07,99,1,99,9,99,9,99999,9,99,9,99,9","10108,1,99999,9","10,1",,,,"MET071METAR ETNJ 141420Z 10010KT 5000 BR FEW012 BKN021 00/M02 Q1011 BLACKWHT;",
"10122099999","2010-01-18T06:20:00","4","53.5335","7.888667","7.31","JEVER, GM","FM-15","ETNJ ","V020","090,1,N,0026,1","00015,1,9,N","000300,1,N,1","+0010,1","+0010,1","99999,9","10,U,0200,9","09,1,+00015,1,99,9",,,"09,99,1,99,9,99,9,00025,1,99,9,99,9","10220,1,99999,9","45,1",,,,"MET071METAR ETNJ 180620Z 09005KT 0300 R10/0200 FG VV000 01/01 Q1022 BLACKRED;",
"10122099999","2010-01-18T07:20:00","4","53.5335","7.888667","7.31","JEVER, GM","FM-15","ETNJ ","V020","110,1,N,0010,1","00015,1,9,N","000300,1,N,1","+0000,1","+0000,1","99999,9","10,U,0150,9","09,1,+00015,1,99,9",,,"09,99,1,99,9,99,9,00025,1,99,9,99,9","10220,1,99999,9","45,1",,,,"MET072METAR ETNJ 180720Z 11002KT 0300 R10/0150N FG VV000 00/00 Q1022 BLACKRED;",
"10122099999","2010-01-18T08:20:00","4","53.5335","7.888667","7.31","JEVER, GM","FM-15","ETNJ ","V020","120,1,N,0015,1","00015,1,9,N","000200,1,N,1","+0000,1","+0000,1","99999,9","10,U,0150,9","09,1,+00015,1,99,9",,,"09,99,1,99,9,99,9,00025,1,99,9,99,9","10220,1,99999,9","45,1",,,,"MET072METAR ETNJ 180820Z 12003KT 0200 R10/0150N FG VV000 00/00 Q1022 BLACKRED;",
"10122099999","2010-01-18T09:20:00","4","53.5335","7.888667","7.31","JEVER, GM","FM-15","ETNJ ","V020","170,1,N,0015,1","00015,1,9,N","000200,1,N,1","+0010,1","+0010,1","99999,9","28,U,0150,9","09,1,+00015,1,99,9",,,"09,99,1,99,9,99,9,00025,1,99,9,99,9","10220,1,99999,9","45,1",,,,"MET072METAR ETNJ 180920Z 17003KT 0200 R28/0150N FG VV000 01/01 Q1022 BLACKRED;",
"10122099999","2010-01-18T10:20:00","4","53.5335","7.888667","7.31","JEVER, GM","FM-15","ETNJ ","V020","220,1,N,0021,1","00015,1,9,N","000300,1,N,1","+0020,1","+0020,1","99999,9","28,U,0400,9","09,1,+00015,1,99,9",,,"09,99,1,99,9,99,9,00025,1,99,9,99,9","10230,1,99999,9","45,1",,,,"MET072METAR ETNJ 181020Z 22004KT 0300 R28/0400N FG VV000 02/02 Q1023 BLACKRED;",
"10122099999","2010-01-18T11:20:00","4","53.5335","7.888667","7.31","JEVER, GM","FM-15","ETNJ ","V020","230,1,N,0021,1","00030,1,9,N","000400,1,N,1","+0020,1","+0020,1","99999,9","28,U,0300,9","09,1,+00030,1,99,9",,,"09,99,1,99,9,99,9,00025,1,99,9,99,9","10220,1,99999,9","45,1",,,,"MET072METAR ETNJ 181120Z 23004KT 0400 R28/0300N FG VV001 02/02 Q1022 BLACKRED;",
"10122099999","2010-01-18T12:02:00","4","53.5335","7.888667","7.31","JEVER, GM","FM-16","ETNJ ","V020","200,1,N,0036,1","00030,1,9,N","000500,1,N,1","+0020,1","+0020,1","99999,9","28,U,0450,9","09,1,+00030,1,99,9",,,"09,99,1,99,9,99,9,00025,1,99,9,99,9","10220,1,99999,9","45,1",,,,"MET067SPECI ETNJ 181202Z 20007KT 0500 R28/0450N FG VV001 02/02 Q1022 RED;",
"10122099999","2010-01-18T12:20:00","4","53.5335","7.888667","7.31","JEVER, GM","FM-15","ETNJ ","V020","200,1,N,0026,1","00030,1,9,N","000400,1,N,1","+0020,1","+0020,1","99999,9","28,U,0300,9","09,1,+00030,1,99,9",,,"09,99,1,99,9,99,9,00025,1,99,9,99,9","10220,1,99999,9","45,1",,,,"MET066METAR ETNJ 181220Z 20005KT 0400 R28/0300 FG VV001 02/02 Q1022 RED;",
"10122099999","2010-01-18T13:20:00","4","53.5335","7.888667","7.31","JEVER, GM","FM-15","ETNJ ","V020","180,1,N,0021,1","00030,1,9,N","000400,1,N,1","+0020,1","+0020,1","99999,9","28,U,0300,9","09,1,+00030,1,99,9",,,"09,99,1,99,9,99,9,00025,1,99,9,99,9","10220,1,99999,9","45,1",,,,"MET067METAR ETNJ 181320Z 18004KT 0400 R28/0300N FG VV001 02/02 Q1022 RED;",
"10122099999","2010-01-18T14:20:00","4","53.5335","7.888667","7.31","JEVER, GM","FM-15","ETNJ ","V020","180,1,N,0021,1","00030,1,9,N","000400,1,N,1","+0020,1","+0020,1","99999,9","28,U,0400,9","09,1,+00030,1,99,9",,,"09,99,1,99,9,99,9,00025,1,99,9,99,9","10220,1,99999,9","45,1","51,1","61,1",,"MET073METAR ETNJ 181420Z 18004KT 0400 R28/0400N -RADZ FG VV001 02/02 Q1022 RED;",
"10122099999","2010-01-19T06:20:00","4","53.5335","7.888667","7.31","JEVER, GM","FM-15","ETNJ ","V020","220,1,N,0026,1","00120,1,C,N","003000,1,N,1","+0030,1","+0030,1","99999,9",,"07,5,+00120,1,99,9",,,"07,99,1,99,9,99,9,99999,9,99,9,99,9","10200,1,99999,9","10,1","51,1",,,"MET062METAR ETNJ 190620Z 22005KT 3000 -DZ BR BKN004 03/03 Q1020 YLO;",
"10122099999","2010-01-19T07:20:00","4","53.5335","7.888667","7.31","JEVER, GM","FM-15","ETNJ ","V020","220,1,N,0015,1","00120,1,C,N","000900,1,N,1","+0020,1","+0020,1","99999,9","28,U,2200,9","07,5,+00120,1,99,9",,,"07,99,1,99,9,99,9,99999,9,99,9,99,9","10200,1,99999,9","44,1","51,1",,,"MET072METAR ETNJ 190720Z 22003KT 0900 R28/2200N -DZ FG BKN004 02/02 Q1020 AMB;",
"10122099999","2010-01-19T08:20:00","4","53.5335","7.888667","7.31","JEVER, GM","FM-15","ETNJ ","V020","230,1,N,0010,1","00015,1,9,N","000400,1,N,1","+0020,1","+0020,1","99999,9","28,U,0300,9","09,1,+00015,1,99,9",,,"09,99,1,99,9,99,9,00025,1,99,9,99,9","10210,1,99999,9","45,1",,,,"MET066METAR ETNJ 190820Z 23002KT 0400 R28/0300 FG VV000 02/02 Q1021 RED;",
"10122099999","2010-01-19T09:20:00","4","53.5335","7.888667","7.31","JEVER, GM","FM-15","ETNJ ","V020","290,1,N,0010,1","00015,1,9,N","000300,1,N,1","+0020,1","+0020,1","99999,9","28,U,0250,9","09,1,+00015,1,99,9",,,"09,99,1,99,9,99,9,00025,1,99,9,99,9","10210,1,99999,9","45,1",,,,"MET067METAR ETNJ 190920Z 29002KT 0300 R28/0250N FG VV000 02/02 Q1021 RED;",
"10122099999","2010-01-19T10:20:00","4","53.5335","7.888667","7.31","JEVER, GM","FM-15","ETNJ ","V020","030,1,N,0031,1","00015,1,9,N","000400,1,N,1","+0020,1","+0020,1","99999,9","28,U,0550,9","09,1,+00015,1,99,9",,,"09,99,1,99,9,99,9,00025,1,99,9,99,9","10220,1,99999,9","45,1","51,1",,,"MET071METAR ETNJ 191020Z 03006KT 0400 R28/0550N -DZ FG VV000 02/02 Q1022 RED;",
"10122099999","2010-01-19T11:20:00","4","53.5335","7.888667","7.31","JEVER, GM","FM-15","ETNJ ","V020","040,1,N,0036,1","00030,1,C,N","001200,1,N,1","+0010,1","+0010,1","99999,9","28,U,1900,9","07,5,+00030,1,99,9","07,5,+00090,1,99,9",,"07,99,1,99,9,99,9,99999,9,99,9,99,9","10220,1,99999,9","10,1",,,,"MET074METAR ETNJ 191120Z 04007KT 1200 R28/1900 BR BKN001 BKN003 01/01 Q1022 RED;",
"10122099999","2010-01-19T11:37:00","4","53.5335","7.888667","7.31","JEVER, GM","FM-16","ETNJ ","V020","040,1,N,0041,1","00090,1,C,N","001700,1,N,1","+0010,1","+0010,1","99999,9","10,U,0300,9","02,5,+00030,1,99,9","07,5,+00090,1,99,9",,"07,99,1,99,9,99,9,99999,9,99,9,99,9","10220,1,99999,9","10,1",,,,"MET075SPECI ETNJ 191137Z 04008KT 1700 R10/0300N BR FEW001 BKN003 01/01 Q1022 YLO;",
"10122099999","2010-01-19T12:20:00","4","53.5335","7.888667","7.31","JEVER, GM","FM-15","ETNJ ","V020","040,1,N,0036,1","00090,1,C,N","001700,1,N,1","+0010,1","+0010,1","99999,9","10,U,0300,9","02,5,+00030,1,99,9","07,5,+00090,1,99,9",,"07,99,1,99,9,99,9,99999,9,99,9,99,9","10220,1,99999,9","10,1",,,,"MET074METAR ETNJ 191220Z 04007KT 1700 R10/0300 BR FEW001 BKN003 01/01 Q1022 YLO;",
"10122099999","2010-01-19T13:07:00","4","53.5335","7.888667","7.31","JEVER, GM","FM-16","ETNJ ","V020","040,1,N,0036,1","00060,1,9,N","000900,1,N,1","+0010,1","+0010,1","99999,9","10,U,0250,9","09,1,+00060,1,99,9",,,"09,99,1,99,9,99,9,00025,1,99,9,99,9","10220,1,99999,9","45,1",,,,"MET067SPECI ETNJ 191307Z 04007KT 0900 R10/0250N FG VV002 01/01 Q1022 AMB;",
"10122099999","2010-01-19T13:20:00","4","53.5335","7.888667","7.31","JEVER, GM","FM-15","ETNJ ","V020","040,1,N,0031,1","00030,1,9,N","000600,1,N,1","+0010,1","+0010,1","99999,9","10,U,0250,9","09,1,+00030,1,99,9",,,"09,99,1,99,9,99,9,00025,1,99,9,99,9","10220,1,99999,9","45,1",,,,"MET066METAR ETNJ 191320Z 04006KT 0600 R10/0250 FG VV001 01/01 Q1022 RED;",
"10122099999","2010-01-19T14:20:00","4","53.5335","7.888667","7.31","JEVER, GM","FM-15","ETNJ ","V020","050,1,N,0036,1","00090,1,C,N","000900,1,N,1","+0000,1","+0000,1","99999,9","10,U,1400,9","04,5,+00030,1,99,9","07,5,+00090,1,99,9",,"07,99,1,99,9,99,9,99999,9,99,9,99,9","10220,1,99999,9","44,1",,,,"MET074METAR ETNJ 191420Z 05007KT 0900 R10/1400 FG SCT001 BKN003 00/00 Q1022 AMB;",
"10122099999","2010-01-19T14:53:00","4","53.5335","7.888667","7.31","JEVER, GM","FM-16","ETNJ ","V020","040,1,N,0031,1","00090,1,C,N","001700,1,N,1","+0000,1","+0000,1","99999,9","10,U,1800,9","07,5,+00090,1,99,9",,,"07,99,1,99,9,99,9,99999,9,99,9,99,9","10220,1,99999,9","10,1","51,1",,,"MET072SPECI ETNJ 191453Z 04006KT 1700 R10/1800N -DZ BR BKN003 00/00 Q1022 YLO;",
"10122099999","2010-01-20T06:20:00","4","53.5335","7.888667","7.31","JEVER, GM","FM-15","ETNJ ","V020","070,1,N,0031,1","00180,1,C,N","003200,1,N,1","+0000,1","-0010,1","99999,9",,"07,5,+00180,1,99,9",,,"07,99,1,99,9,99,9,99999,9,99,9,99,9","10180,1,99999,9","10,1",,,,"MET060METAR ETNJ 200620Z 07006KT 3200 BR BKN006 M00/M01 Q1018 YLO;",
"10122099999","2010-01-20T07:20:00","4","53.5335","7.888667","7.31","JEVER, GM","FM-15","ETNJ ","V020","070,1,N,0041,1","00180,1,C,N","003000,1,N,1","+0000,1","-0010,1","99999,9",,"07,5,+00180,1,99,9",,,"07,99,1,99,9,99,9,99999,9,99,9,99,9","10180,1,99999,9","10,1",,,,"MET065METAR ETNJ 200720Z 07008KT 3000 BR BKN006 M00/M01 Q1018 BLACKYLO;",
"10122099999","2010-01-20T08:20:00","4","53.5335","7.888667","7.31","JEVER, GM","FM-15","ETNJ ","V020","080,1,N,0041,1","00120,1,C,N","003000,1,N,1","+0000,1","+0000,1","99999,9",,"07,5,+00120,1,99,9",,,"07,99,1,99,9,99,9,99999,9,99,9,99,9","10180,1,99999,9","10,1",,,,"MET065METAR ETNJ 200820Z 08008KT 3000 BR BKN004 M00/M00 Q1018 BLACKYLO;",
"10122099999","2010-01-20T09:20:00","4","53.5335","7.888667","7.31","JEVER, GM","FM-15","ETNJ ","V020","080,1,N,0041,1","00120,1,C,N","003000,1,N,1","+0000,1","+0000,1","99999,9",,"07,5,+00120,1,99,9",,,"07,99,1,99,9,99,9,99999,9,99,9,99,9","10180,1,99999,9","10,1",,,,"MET065METAR ETNJ 200920Z 08008KT 3000 BR BKN004 M00/M00 Q1018 BLACKYLO;",
"10122099999","2010-01-20T10:20:00","4","53.5335","7.888667","7.31","JEVER, GM","FM-15","ETNJ ","V020","090,1,N,0057,1","00120,1,C,N","002500,1,N,1","+0000,1","+0000,1","99999,9","10,U,1700,9","07,5,+00120,1,99,9",,,"07,99,1,99,9,99,9,99999,9,99,9,99,9","10180,1,99999,9","10,1",,,,"MET075METAR ETNJ 201020Z 09011KT 2500 R10/1700N BR BKN004 M00/M00 Q1018 BLACKYLO;",
"10122099999","2010-01-20T11:20:00","4","53.5335","7.888667","7.31","JEVER, GM","FM-15","ETNJ ","V020","090,1,N,0057,1","00090,1,C,N","002000,1,N,1","+0000,1","+0000,1","99999,9",,"07,5,+00090,1,99,9",,,"07,99,1,99,9,99,9,99999,9,99,9,99,9","10169,1,99999,9","10,1",,,,"MET065METAR ETNJ 201120Z 09011KT 2000 BR BKN003 M00/M00 Q1017 BLACKYLO;",
"10122099999","2010-01-20T12:20:00","4","53.5335","7.888667","7.31","JEVER, GM","FM-15","ETNJ ","V020","090,1,N,0057,1","00090,1,C,N","002000,1,N,1","+0000,1","+0000,1","99999,9","10,U,1800,9","07,5,+00090,1,99,9",,,"07,99,1,99,9,99,9,99999,9,99,9,99,9","10169,1,99999,9","10,1","77,1",,,"MET077METAR ETNJ 201220Z 09011KT 2000 R10/1800N -SG BR BKN003 00/00 Q1017 BLACKYLO;",
"10122099999","2010-01-20T12:43:00","4","53.5335","7.888667","7.31","JEVER, GM","FM-16","ETNJ ","V020","090,1,N,0051,1","00090,1,C,N","002500,1,N,1","+0000,1","+0000,1","99999,9",,"07,5,+00090,1,99,9",,,"07,99,1,99,9,99,9,99999,9,99,9,99,9","10169,1,99999,9","10,1","77,1",,,"MET062SPECI ETNJ 201243Z 09010KT 2500 -SG BR BKN003 00/00 Q1017 YLO;",
"10122099999","2010-01-20T13:20:00","4","53.5335","7.888667","7.31","JEVER, GM","FM-15","ETNJ ","V020","090,1,N,0062,1","00120,1,C,N","003000,1,N,1","+0000,1","+0000,1","99999,9",,"07,5,+00120,1,99,9",,,"07,99,1,99,9,99,9,99999,9,99,9,99,9","10169,1,99999,9","10,1",,,,"MET058METAR ETNJ 201320Z 09012KT 3000 BR BKN004 00/00 Q1017 YLO;",
"10122099999","2010-01-20T14:20:00","4","53.5335","7.888667","7.31","JEVER, GM","FM-15","ETNJ ","V020","090,1,N,0057,1","00120,1,C,N","003500,1,N,1","+0000,1","+0000,1","99999,9",,"07,5,+00120,1,99,9",,,"07,99,1,99,9,99,9,99999,9,99,9,99,9","10169,1,99999,9","10,1",,,,"MET058METAR ETNJ 201420Z 09011KT 3500 BR BKN004 00/00 Q1017 YLO;",
"10122099999","2010-01-21T06:20:00","4","53.5335","7.888667","7.31","JEVER, GM","FM-15","ETNJ ","V020","090,1,N,0062,1","00090,1,C,N","003500,1,N,1","-0040,1","-0040,1","99999,9",,"07,5,+00090,1,99,9",,,"07,99,1,99,9,99,9,99999,9,99,9,99,9","10230,1,99999,9","10,1",,,,"MET060METAR ETNJ 210620Z 09012KT 3500 BR BKN003 M04/M04 Q1023 YLO;",
"10122099999","2010-01-21T07:20:00","4","53.5335","7.888667","7.31","JEVER, GM","FM-15","ETNJ ","V020","080,1,N,0057,1","00090,1,C,N","002500,1,N,1","-0040,1","-0040,1","99999,9",,"07,5,+00090,1,99,9",,,"07,99,1,99,9,99,9,99999,9,99,9,99,9","10240,1,99999,9","10,1",,,,"MET060METAR ETNJ 210720Z 08011KT 2500 BR BKN003 M04/M04 Q1024 YLO;",
"10122099999","2010-01-21T08:20:00","4","53.5335","7.888667","7.31","JEVER, GM","FM-15","ETNJ ","V020","110,1,N,0057,1","00090,1,C,N","002000,1,N,1","-0040,1","-0040,1","99999,9",,"07,5,+00090,1,99,9",,,"07,99,1,99,9,99,9,99999,9,99,9,99,9","10251,1,99999,9","10,1",,,,"MET060METAR ETNJ 210820Z 11011KT 2000 BR BKN003 M04/M04 Q1025 YLO;",
"10122099999","2010-01-21T09:20:00","4","53.5335","7.888667","7.31","JEVER, GM","FM-15","ETNJ ","V020","100,1,N,0067,1","00090,1,C,N","002000,1,N,1","-0050,1","-0050,1","99999,9",,"07,5,+00090,1,99,9",,,"07,99,1,99,9,99,9,99999,9,99,9,99,9","10251,1,99999,9","10,1",,,,"MET060METAR ETNJ 210920Z 10013KT 2000 BR BKN003 M05/M05 Q1025 YLO;",
"10122099999","2010-01-21T10:20:00","4","53.5335","7.888667","7.31","JEVER, GM","FM-15","ETNJ ","V020","110,1,N,0051,1","00120,1,C,N","003000,1,N,1","-0050,1","-0050,1","99999,9",,"07,5,+00120,1,99,9",,,"07,99,1,99,9,99,9,99999,9,99,9,99,9","10261,1,99999,9","10,1",,,,"MET060METAR ETNJ 211020Z 11010KT 3000 BR BKN004 M05/M05 Q1026 YLO;",
"10122099999","2010-01-21T11:20:00","4","53.5335","7.888667","7.31","JEVER, GM","FM-15","ETNJ ","V020","090,1,N,0057,1","00120,1,C,N","003000,1,N,1","-0040,1","-0040,1","99999,9",,"07,5,+00120,1,99,9",,,"07,99,1,99,9,99,9,99999,9,99,9,99,9","10251,1,99999,9","10,1","77,1",,,"MET064METAR ETNJ 211120Z 09011KT 3000 -SG BR BKN004 M04/M04 Q1025 YLO;",
"10122099999","2010-01-21T12:20:00","4","53.5335","7.888667","7.31","JEVER, GM","FM-15","ETNJ ","V020","100,1,N,0062,1","00150,1,C,N","003800,1,N,1","-0050,1","-0050,1","99999,9",,"07,5,+00150,1,99,9",,,"07,99,1,99,9,99,9,99999,9,99,9,99,9","10251,1,99999,9","10,1",,,,"MET060METAR ETNJ 211220Z 10012KT 3800 BR BKN005 M05/M05 Q1025 YLO;",
"10122099999","2010-01-21T13:20:00","4","53.5335","7.888667","7.31","JEVER, GM","FM-15","ETNJ ","V020","090,1,N,0067,1","00120,1,C,N","003500,1,N,1","-0050,1","-0050,1","99999,9",,"07,5,+00120,1,99,9",,,"07,99,1,99,9,99,9,99999,9,99,9,99,9","10251,1,99999,9","10,1",,,,"MET060METAR ETNJ 211320Z 09013KT 3500 BR BKN004 M05/M05 Q1025 YLO;",
"10122099999","2010-02-01T06:20:00","4","53.5335","7.888667","7.31","JEVER, GM","FM-15","ETNJ ","V020","210,1,N,0046,1","00120,1,C,N","003500,1,N,1","+0000,1","+0000,1","99999,9",,"07,5,+00120,1,99,9",,,"07,99,1,99,9,99,9,99999,9,99,9,99,9","10010,1,99999,9","10,1","71,1",,,"MET068METAR ETNJ 010620Z 21009KT 3500 -SN BR BKN004 M00/M00 Q1001 YLO YLO;",
"10122099999","2010-02-02T07:20:00","4","53.5335","7.888667","7.31","JEVER, GM","FM-15","ETNJ ","V020","170,1,N,0057,1","00150,1,C,N","001500,1,N,1","+0000,1","+0000,1","99999,9","10,U,1000,9","07,5,+00150,1,99,9",,,"07,99,1,99,9,99,9,99999,9,99,9,99,9","10031,1,99999,9","10,1","73,1",,,"MET087METAR ETNJ 020720Z 17011KT 1500 R10/1000N SN BR BKN005 M00/M00 Q1003 AMB YLO TEMPO AMB;",
"10122099999","2010-02-02T07:31:00","4","53.5335","7.888667","7.31","JEVER, GM","FM-16","ETNJ ","V020","170,1,N,0062,1","00150,1,C,N","001500,1,N,1","+0000,1","+0000,1","99999,9","10,U,0900,9","07,5,+00150,1,99,9",,,"07,99,1,99,9,99,9,99999,9,99,9,99,9","10031,1,99999,9","10,1","73,1",,,"MET092SPECI ETNJ 020731Z 17012KT 1500 R10/0900N SN BR BKN005 M00/M00 Q1003 BLACKAMB YLO TEMPO AMB;",
"10122099999","2010-02-02T08:20:00","4","53.5335","7.888667","7.31","JEVER, GM","FM-15","ETNJ ","V020","190,1,N,0057,1","00150,1,C,N","001200,1,N,1","+0000,1","+0000,1","99999,9","10,U,0800,9","07,5,+00150,1,99,9",,,"07,99,1,99,9,99,9,99999,9,99,9,99,9","10010,1,99999,9","73,1",,,,"MET086METAR ETNJ 020820Z 19011KT 1200 R10/0800 SN BKN005 00/00 Q1001 BLACKAMB YLO TEMPO AMB;",
"10122099999","2010-02-02T09:20:00","4","53.5335","7.888667","7.31","JEVER, GM","FM-15","ETNJ ","V020","190,1,N,0057,1","00150,1,C,N","001500,1,N,1","+0000,1","+0000,1","99999,9","10,U,1300,9","07,5,+00150,1,99,9",,,"07,99,1,99,9,99,9,99999,9,99,9,99,9","10000,1,99999,9","73,1",,,,"MET087METAR ETNJ 020920Z 19011KT 1500 R10/1300N SN BKN005 00/00 Q1000 BLACKAMB YLO TEMPO AMB;",
"10122099999","2010-02-02T10:20:00","4","53.5335","7.888667","7.31","JEVER, GM","FM-15","ETNJ ","V020","200,1,N,0062,1","00150,1,C,N","001500,1,N,1","+0010,1","+0010,1","99999,9","10,U,1300,9","07,5,+00150,1,99,9",,,"07,99,1,99,9,99,9,99999,9,99,9,99,9","09990,1,99999,9","73,1",,,,"MET087METAR ETNJ 021020Z 20012KT 1500 R10/1300N SN BKN005 01/01 Q0999 BLACKAMB YLO TEMPO AMB;",
"10122099999","2010-02-02T11:08:00","4","53.5335","7.888667","7.31","JEVER, GM","FM-16","ETNJ ","V020","210,1,N,0067,1","00150,1,C,N","002000,1,N,1","+0010,1","+0010,1","99999,9",,"07,5,+00150,1,99,9",,,"07,99,1,99,9,99,9,99999,9,99,9,99,9","09980,1,99999,9","10,1","71,1",,,"MET086SPECI ETNJ 021108Z 21013KT 2000 -SN BR BKN005 01/01 Q0998 RESN BLACKYLO YLO TEMPO AMB;",
"10122099999","2010-02-02T11:20:00","4","53.5335","7.888667","7.31","JEVER, GM","FM-15","ETNJ ","V020","210,1,N,0072,1","00150,1,C,N","002500,1,N,1","+0010,1","+0010,1","99999,9",,"07,5,+00150,1,99,9",,,"07,99,1,99,9,99,9,99999,9,99,9,99,9","09980,1,99999,9","10,1","71,1",,"0123,1","MET089METAR ETNJ 021120Z 21014G24KT 2500 -SN BR BKN005 01/01 Q0998 RESN BLACKYLO YLO TEMPO AMB;",
"10122099999","2010-02-02T11:43:00","4","53.5335","7.888667","7.31","JEVER, GM","FM-16","ETNJ ","V020","200,1,N,0067,1","00150,1,C,N","003500,1,N,1","+0010,1","+0010,1","99999,9",,"07,5,+00150,1,99,9","07,5,+00240,1,99,9",,"07,99,1,99,9,99,9,99999,9,99,9,99,9","09980,1,99999,9","10,1","61,1","71,1",,"MET090SPECI ETNJ 021143Z 20013KT 3500 -SNRA BR BKN005 BKN008 01/01 Q0998 BLACKYLO YLO TEMPO AMB;",
"10122099999","2010-02-02T12:20:00","4","53.5335","7.888667","7.31","JEVER, GM","FM-15","ETNJ ","V020","210,1,N,0077,1","00150,1,C,N","003500,1,N,1","+0010,1","+0010,1","99999,9",,"07,5,+00150,1,99,9","07,5,+00210,1,99,9",,"07,99,1,99,9,99,9,99999,9,99,9,99,9","09970,1,99999,9","10,1","61,1","71,1",,"MET090METAR ETNJ 021220Z 21015KT 3500 -SNRA BR BKN005 BKN007 01/01 Q0997 BLACKYLO YLO TEMPO AMB;",
"10122099999","2010-02-02T13:20:00","4","53.5335","7.888667","7.31","JEVER, GM","FM-15","ETNJ ","V020","210,1,N,0082,1","00150,1,C,N","003500,1,N,1","+0010,1","+0010,1","99999,9",,"07,5,+00150,1,99,9",,,"07,99,1,99,9,99,9,99999,9,99,9,99,9","09959,1,99999,9","10,1","61,1","71,1","0134,1","MET086METAR ETNJ 021320Z 21016G26KT 3500 -SNRA BR BKN005 01/01 Q0996 BLACKYLO YLO TEMPO AMB;",
"10122099999","2010-02-02T14:20:00","4","53.5335","7.888667","7.31","JEVER, GM","FM-15","ETNJ ","V020","210,1,N,0077,1","00150,1,C,N","003000,1,N,1","+0010,1","+0010,1","99999,9",,"07,5,+00150,1,99,9",,,"07,99,1,99,9,99,9,99999,9,99,9,99,9","09949,1,99999,9","10,1","61,1","71,1",,"MET081METAR ETNJ 021420Z 21015KT 3000 -SNRA BR BKN005 01/01 Q0995 BLACKYLO FCST CANCEL;",
"10122099999","2010-02-22T06:20:00","4","53.5335","7.888667","7.31","JEVER, GM","FM-15","ETNJ ","V020","140,1,N,0026,1","00330,1,C,N","004500,1,N,1","+0010,1","+0010,1","99999,9",,"07,5,+00330,1,99,9",,,"07,99,1,99,9,99,9,99999,9,99,9,99,9","09909,1,99999,9","10,1","51,1","61,1",,"MET064METAR ETNJ 220620Z 14005KT 4500 -DZRA BR BKN011 01/01 Q0991 GRN;",
"10122099999","2010-02-22T07:20:00","4","53.5335","7.888667","7.31","JEVER, GM","FM-15","ETNJ ","V020","150,1,N,0026,1","00390,1,C,N","004500,1,N,1","+0010,1","+0010,1","99999,9",,"07,5,+00390,1,99,9","07,5,+00780,1,99,9",,"07,99,1,99,9,99,9,99999,9,99,9,99,9","09909,1,99999,9","10,1","51,1","61,1",,"MET071METAR ETNJ 220720Z 15005KT 4500 -DZRA BR BKN013 BKN026 01/01 Q0991 GRN;",
"10122099999","2010-02-22T08:20:00","4","53.5335","7.888667","7.31","JEVER, GM","FM-15","ETNJ ","V020","140,1,N,0021,1","00390,1,C,N","004000,1,N,1","+0020,1","+0020,1","99999,9",,"07,5,+00390,1,99,9",,,"07,99,1,99,9,99,9,99999,9,99,9,99,9","09909,1,99999,9","10,1","51,1","61,1",,"MET064METAR ETNJ 220820Z 14004KT 4000 -DZRA BR BKN013 02/02 Q0991 GRN;",
"10122099999","2010-02-22T08:46:00","4","53.5335","7.888667","7.31","JEVER, GM","FM-16","ETNJ ","V020","130,1,N,0015,1","00450,1,C,N","003000,1,N,1","+0020,1","+0020,1","99999,9",,"07,5,+00450,1,99,9",,,"07,99,1,99,9,99,9,99999,9,99,9,99,9","09909,1,99999,9","10,1","51,1","61,1",,"MET064SPECI ETNJ 220846Z 13003KT 3000 -DZRA BR BKN015 02/02 Q0991 YLO;",
"10122099999","2010-02-22T09:20:00","4","53.5335","7.888667","7.31","JEVER, GM","FM-15","ETNJ ","V020","110,1,N,0021,1","00540,1,C,N","003500,1,N,1","+0030,1","+0020,1","99999,9",,"07,5,+00540,1,99,9","07,5,+00750,1,99,9",,"07,99,1,99,9,99,9,99999,9,99,9,99,9","09909,1,99999,9","10,1","61,1",,,"MET069METAR ETNJ 220920Z 11004KT 3500 -RA BR BKN018 BKN025 03/02 Q0991 YLO;",
"10122099999","2010-02-22T10:20:00","4","53.5335","7.888667","7.31","JEVER, GM","FM-15","ETNJ ","V020","120,1,N,0026,1","00600,1,C,N","003500,1,N,1","+0020,1","+0020,1","99999,9",,"07,5,+00600,1,99,9","07,5,+00780,1,99,9",,"07,99,1,99,9,99,9,99999,9,99,9,99,9","09909,1,99999,9","10,1","51,1","61,1",,"MET071METAR ETNJ 221020Z 12005KT 3500 -DZRA BR BKN020 BKN026 02/02 Q0991 YLO;",
"10122099999","2010-02-22T11:20:00","4","53.5335","7.888667","7.31","JEVER, GM","FM-15","ETNJ ","V020","110,1,N,0021,1","00690,1,C,N","003200,1,N,1","+0030,1","+0030,1","99999,9",,"07,5,+00690,1,99,9",,,"07,99,1,99,9,99,9,99999,9,99,9,99,9","09898,1,99999,9","10,1","61,1",,,"MET062METAR ETNJ 221120Z 11004KT 3200 -RA BR BKN023 03/03 Q0990 YLO;",
"10122099999","2010-02-22T12:20:00","4","53.5335","7.888667","7.31","JEVER, GM","FM-15","ETNJ ","V020","110,1,N,0021,1","00690,1,C,N","004500,1,N,1","+0040,1","+0040,1","99999,9",,"04,5,+00450,1,99,9","07,5,+00690,1,99,9",,"07,99,1,99,9,99,9,99999,9,99,9,99,9","09892,1,99999,9","10,1","61,1",,,"MET069METAR ETNJ 221220Z 11004KT 4500 -RA BR SCT015 BKN023 04/04 Q0989 GRN;",
"10122099999","2010-02-22T12:22:00","4","53.5335","7.888667","7.31","JEVER, GM","FM-16","ETNJ ","V020","110,1,N,0021,1","00690,1,C,N","004500,1,N,1","+0040,1","+0040,1","99999,9",,"04,5,+00450,1,99,9","07,5,+00690,1,99,9",,"07,99,1,99,9,99,9,99999,9,99,9,99,9","09892,1,99999,9","10,1","61,1",,,"MET069SPECI ETNJ 221222Z 11004KT 4500 -RA BR SCT015 BKN023 04/04 Q0989 GRN;",
"10122099999","2010-02-22T13:20:00","4","53.5335","7.888667","7.31","JEVER, GM","FM-15","ETNJ ","V020","090,1,N,0026,1","00450,1,C,N","004500,1,N,1","+0040,1","+0030,1","99999,9",,"02,5,+00180,1,99,9","04,5,+00450,1,99,9","07,5,+00750,1,99,9","07,99,1,99,9,99,9,99999,9,99,9,99,9","09892,1,99999,9","10,1","61,1",,,"MET076METAR ETNJ 221320Z 09005KT 4500 -RA BR FEW006 SCT015 BKN025 04/03 Q0989 GRN;",
"10122099999","2010-02-24T06:20:00","4","53.5335","7.888667","7.31","JEVER, GM","FM-15","ETNJ ","V020","080,1,N,0072,1","00150,1,C,N","002800,1,N,1","-0020,1","-0020,1","99999,9",,"07,5,+00150,1,99,9","07,5,+00210,1,99,9",,"07,99,1,99,9,99,9,99999,9,99,9,99,9","09980,1,99999,9","10,1","71,1",,,"MET076METAR ETNJ 240620Z 08014KT 2800 -SN BR BKN005 BKN007 M02/M02 Q0998 BLACKYLO;",
"10122099999","2010-02-24T07:20:00","4","53.5335","7.888667","7.31","JEVER, GM","FM-15","ETNJ ","V020","090,1,N,0072,1","00120,1,C,N","002500,1,N,1","-0010,1","-0010,1","99999,9",,"07,5,+00120,1,99,9",,,"07,99,1,99,9,99,9,99999,9,99,9,99,9","09990,1,99999,9","10,1","56,1",,,"MET071METAR ETNJ 240720Z 09014KT 2500 -FZDZ BR BKN004 M01/M01 Q0999 BLACKYLO;",
"10122099999","2010-02-24T08:20:00","4","53.5335","7.888667","7.31","JEVER, GM","FM-15","ETNJ ","V020","090,1,N,0072,1","00150,1,C,N","003500,1,N,1","-0010,1","-0020,1","99999,9",,"07,5,+00150,1,99,9","07,5,+00210,1,99,9",,"07,99,1,99,9,99,9,99999,9,99,9,99,9","09990,1,99999,9","10,1",,,,"MET072METAR ETNJ 240820Z 09014KT 3500 BR BKN005 BKN007 M01/M02 Q0999 BLACKYLO;",
"10122099999","2010-02-24T09:20:00","4","53.5335","7.888667","7.31","JEVER, GM","FM-15","ETNJ ","V020","090,1,N,0077,1","00180,1,C,N","003500,1,N,1","-0010,1","-0020,1","99999,9",,"07,5,+00180,1,99,9",,,"07,99,1,99,9,99,9,99999,9,99,9,99,9","09980,1,99999,9","10,1","61,1","71,1",,"MET071METAR ETNJ 240920Z 09015KT 3500 -SNRA BR BKN006 M01/M02 Q0998 BLACKYLO;",
"10122099999","2010-02-24T10:20:00","4","53.5335","7.888667","7.31","JEVER, GM","FM-15","ETNJ ","V020","100,1,N,0077,1","00180,1,C,N","004000,1,N,1","-0010,1","-0010,1","99999,9",,"07,5,+00180,1,99,9",,,"07,99,1,99,9,99,9,99999,9,99,9,99,9","09980,1,99999,9","10,1","66,1",,,"MET071METAR ETNJ 241020Z 10015KT 4000 -FZRA BR BKN006 M01/M01 Q0998 BLACKYLO;",
"10122099999","2010-02-24T11:20:00","4","53.5335","7.888667","7.31","JEVER, GM","FM-15","ETNJ ","V020","100,1,N,0067,1","00150,1,C,N","003500,1,N,1","+0000,1","+0000,1","99999,9",,"07,5,+00150,1,99,9",,,"07,99,1,99,9,99,9,99999,9,99,9,99,9","09980,1,99999,9","10,1","66,1",,,"MET071METAR ETNJ 241120Z 10013KT 3500 -FZRA BR BKN005 M00/M00 Q0998 BLACKYLO;",
"10122099999","2010-02-24T11:44:00","4","53.5335","7.888667","7.31","JEVER, GM","FM-16","ETNJ ","V020","110,1,N,0067,1","00090,1,C,N","003500,1,N,1","+0000,1","+0000,1","99999,9",,"07,5,+00090,1,99,9",,,"07,99,1,99,9,99,9,99999,9,99,9,99,9","09980,1,99999,9","10,1","66,1",,,"MET071SPECI ETNJ 241144Z 11013KT 3500 -FZRA BR BKN003 M00/M00 Q0998 BLACKYLO;",
"10122099999","2010-02-24T12:20:00","4","53.5335","7.888667","7.31","JEVER, GM","FM-15","ETNJ ","V020","100,1,N,0051,1","00090,1,C,N","001400,1,N,1","+0000,1","+0000,1","99999,9","10,U,1200,9","07,5,+00090,1,99,9",,,"07,99,1,99,9,99,9,99999,9,99,9,99,9","09980,1,99999,9","10,1","66,1",,,"MET079METAR ETNJ 241220Z 10010KT 1400 R10/1200N -FZRA BR BKN003 00/00 Q0998 BLACKAMB;",
"10122099999","2010-02-24T13:20:00","4","53.5335","7.888667","7.31","JEVER, GM","FM-15","ETNJ ","V020","100,1,N,0046,1","00060,1,C,N","001200,1,N,1","+0000,1","+0000,1","99999,9","10,U,1100,9","07,5,+00060,1,99,9",,,"07,99,1,99,9,99,9,99999,9,99,9,99,9","09980,1,99999,9","10,1","66,1",,,"MET079METAR ETNJ 241320Z 10009KT 1200 R10/1100N -FZRA BR BKN002 00/00 Q0998 BLACKAMB;",
"10122099999","2010-02-24T14:20:00","4","53.5335","7.888667","7.31","JEVER, GM","FM-15","ETNJ ","V020","110,1,N,0046,1","00060,1,C,N","001400,1,N,1","+0010,1","+0010,1","99999,9","10,U,1400,9","07,5,+00060,1,99,9",,,"07,99,1,99,9,99,9,99999,9,99,9,99,9","09980,1,99999,9","10,1",,,,"MET073METAR ETNJ 241420Z 11009KT 1400 R10/1400N BR BKN002 01/01 Q0998 BLACKAMB;",
"10122099999","2010-02-25T06:20:00","4","53.5335","7.888667","7.31","JEVER, GM","FM-15","ETNJ ","V020","100,1,N,0041,1","01050,1,C,N","004500,1,N,1","+0040,1","+0040,1","99999,9",,"02,5,+00450,1,99,9","07,5,+01050,1,99,9",,"07,99,1,99,9,99,9,99999,9,99,9,99,9","09919,1,99999,9","10,1",,,,"MET065METAR ETNJ 250620Z 10008KT 4500 BR FEW015 BKN035 04/04 Q0992 GRN;",
"10122099999","2010-02-25T07:20:00","4","53.5335","7.888667","7.31","JEVER, GM","FM-15","ETNJ ","V020","100,1,N,0041,1","01140,1,C,N","004500,1,N,1","+0040,1","+0040,1","99999,9",,"07,5,+01140,1,99,9",,,"07,99,1,99,9,99,9,99999,9,99,9,99,9","09919,1,99999,9","10,1",,,,"MET058METAR ETNJ 250720Z 10008KT 4500 BR BKN038 04/04 Q0992 GRN;",
"10122099999","2010-02-25T07:41:00","4","53.5335","7.888667","7.31","JEVER, GM","FM-16","ETNJ ","V020","110,1,N,0041,1","01140,1,C,N","006000,1,N,1","+0050,1","+0050,1","99999,9",,"07,5,+01140,1,99,9",,,"07,99,1,99,9,99,9,99999,9,99,9,99,9","09919,1,99999,9",,,,,"MET055SPECI ETNJ 250741Z 11008KT 6000 BKN038 05/05 Q0992 WHT;",
"10122099999","2010-02-25T08:20:00","4","53.5335","7.888667","7.31","JEVER, GM","FM-15","ETNJ ","V020","120,1,N,0036,1","00600,1,C,N","006000,1,N,1","+0050,1","+0050,1","99999,9",,"02,5,+00300,1,99,9","07,5,+00600,1,99,9",,"07,99,1,99,9,99,9,99999,9,99,9,99,9","09909,1,99999,9",,,,,"MET062METAR ETNJ 250820Z 12007KT 6000 FEW010 BKN020 05/05 Q0991 WHT;",
"10122099999","2010-02-25T09:20:00","4","53.5335","7.888667","7.31","JEVER, GM","FM-15","ETNJ ","V020","130,1,N,0036,1","00480,1,C,N","008000,1,N,1","+0070,1","+0060,1","99999,9",,"04,5,+00390,1,99,9","07,5,+00480,1,99,9",,"07,99,1,99,9,99,9,99999,9,99,9,99,9","09909,1,99999,9","51,1",,,,"MET066METAR ETNJ 250920Z 13007KT 8000 -DZ SCT013 BKN016 07/06 Q0991 WHT;",
"10122099999","2010-02-25T09:44:00","4","53.5335","7.888667","7.31","JEVER, GM","FM-16","ETNJ ","V020","130,1,N,0046,1","00390,1,C,N","008000,1,N,1","+0070,1","+0060,1","99999,9",,"02,5,+00300,1,99,9","07,5,+00390,1,99,9",,"07,99,1,99,9,99,9,99999,9,99,9,99,9","09909,1,99999,9","51,1","61,1",,,"MET068SPECI ETNJ 250944Z 13009KT 8000 -DZRA FEW010 BKN013 07/06 Q0991 GRN;",
"10122099999","2010-02-25T10:20:00","4","53.5335","7.888667","7.31","JEVER, GM","FM-15","ETNJ ","V020","140,1,N,0036,1","00300,1,C,N","006000,1,N,1","+0060,1","+0060,1","99999,9",,"04,5,+00180,1,99,9","07,5,+00300,1,99,9",,"07,99,1,99,9,99,9,99999,9,99,9,99,9","09909,1,99999,9","51,1","61,1",,,"MET068METAR ETNJ 251020Z 14007KT 6000 -DZRA SCT006 BKN010 06/06 Q0991 GRN;",
"10122099999","2010-02-25T11:20:00","4","53.5335","7.888667","7.31","JEVER, GM","FM-15","ETNJ ","V020","150,1,N,0051,1","00300,1,C,N","007000,1,N,1","+0070,1","+0070,1","99999,9",,"04,5,+00150,1,99,9","07,5,+00300,1,99,9","07,5,+00930,1,99,9","07,99,1,99,9,99,9,99999,9,99,9,99,9","09909,1,99999,9","51,1","61,1",,,"MET075METAR ETNJ 251120Z 15010KT 7000 -RADZ SCT005 BKN010 BKN031 07/07 Q0991 GRN;",
"10122099999","2010-02-25T12:20:00","4","53.5335","7.888667","7.31","JEVER, GM","FM-15","ETNJ ","V020","170,1,N,0041,1","00150,1,C,N","004500,1,N,1","+0070,1","+0060,1","99999,9",,"07,5,+00150,1,99,9","07,5,+00390,1,99,9",,"07,99,1,99,9,99,9,99999,9,99,9,99,9","09909,1,99999,9","10,1","53,1","63,1",,"MET070METAR ETNJ 251220Z 17008KT 4500 RADZ BR BKN005 BKN013 07/06 Q0991 YLO;",
"10122099999","2010-02-25T13:20:00","4","53.5335","7.888667","7.31","JEVER, GM","FM-15","ETNJ ","V020","190,1,N,0036,1","00300,1,C,N","006000,1,N,1","+0070,1","+0060,1","99999,9",,"04,5,+00150,1,99,9","07,5,+00300,1,99,9","07,5,+00600,1,99,9","07,99,1,99,9,99,9,99999,9,99,9,99,9","09909,1,99999,9","51,1","61,1",,,"MET080METAR ETNJ 251320Z 19007KT 6000 -RADZ SCT005 BKN010 BKN020 07/06 Q0991 RERA GRN;",
"10122099999","2010-02-25T14:20:00","4","53.5335","7.888667","7.31","JEVER, GM","FM-15","ETNJ ","V020","200,1,N,0046,1","00300,1,C,N","005000,1,N,1","+0070,1","+0060,1","99999,9",,"02,5,+00150,1,99,9","07,5,+00300,1,99,9","07,5,+00510,1,99,9","07,99,1,99,9,99,9,99999,9,99,9,99,9","09909,1,99999,9","10,1","51,1","61,1",,"MET078METAR ETNJ 251420Z 20009KT 5000 -RADZ BR FEW005 BKN010 BKN017 07/06 Q0991 GRN;",
"10122099999","2010-02-25T14:31:00","4","53.5335","7.888667","7.31","JEVER, GM","FM-16","ETNJ ","V020","200,1,N,0041,1","00300,1,C,N","004000,1,N,1","+0070,1","+0060,1","99999,9",,"02,5,+00150,1,99,9","07,5,+00300,1,99,9",,"07,99,1,99,9,99,9,99999,9,99,9,99,9","09909,1,99999,9","10,1","51,1","61,1",,"MET071SPECI ETNJ 251431Z 20008KT 4000 -DZRA BR FEW005 BKN010 07/06 Q0991 GRN;",
"10122099999","2010-03-01T06:20:00","4","53.5335","7.888667","7.31","JEVER, GM","FM-15","ETNJ ","V020","260,1,N,0072,1","00180,1,C,N","008000,1,N,1","+0020,1","+0010,1","99999,9",,"07,5,+00180,1,99,9",,,"07,99,1,99,9,99,9,99999,9,99,9,99,9","09970,1,99999,9","61,1",,,,"MET073METAR ETNJ 010620Z 26014KT 8000 -RA BKN006 02/01 Q0997 YLO YLO BECMG GRN;",
"10122099999","2010-03-01T07:20:00","4","53.5335","7.888667","7.31","JEVER, GM","FM-15","ETNJ ","V020","270,1,N,0072,1","00240,1,C,N","011265,1,N,1","+0020,1","+0010,1","99999,9",,"07,5,+00240,1,99,9","04,5,+00510,1,99,9","07,5,+06600,1,99,9","07,99,1,99,9,99,9,99999,9,99,9,99,9","09990,1,99999,9","61,1",,,,"MET087METAR ETNJ 010720Z 27014KT 9999 -RA BKN008 SCT017 BKN220 02/01 Q0999 GRN GRN BECMG BLU;",
"10122099999","2010-03-01T07:38:00","4","53.5335","7.888667","7.31","JEVER, GM","FM-16","ETNJ ","V020","260,1,N,0067,1","00600,1,C,N","011265,1,N,1","+0020,1","+0020,1","99999,9",,"02,5,+00270,1,99,9","04,5,+00600,1,99,9","07,5,+01500,1,99,9","07,99,1,99,9,99,9,99999,9,99,9,99,9","09990,1,99999,9",,,,,"MET083SPECI ETNJ 010738Z 26013KT 9999 FEW009 SCT020 BKN050 02/02 Q0999 BLU BLU TEMPO GRN;",
"10122099999","2010-03-01T08:00:00","4","53.5335","7.888667","7.31","JEVER, GM","FM-15","ETNJ ","V020","260,1,N,0062,1","00390,1,C,N","008000,1,N,1","+0030,1","+0030,1","99999,9",,"07,5,+00390,1,99,9","07,5,+01350,1,99,9",,"07,99,1,99,9,99,9,99999,9,99,9,99,9","10000,1,99999,9","61,1",,,,"MET080SPECI ETNJ 010759Z 26012KT 8000 -RA BKN013 BKN045 03/03 Q1000 GRN BLU TEMPO GRN;",
"10122099999","2010-03-01T08:20:00","4","53.5335","7.888667","7.31","JEVER, GM","FM-15","ETNJ ","V020","260,1,N,0067,1","00390,1,C,N","011265,1,N,1","+0020,1","+0020,1","99999,9",,"02,5,+00270,1,99,9","07,5,+00390,1,99,9","07,5,+01050,1,99,9","07,99,1,99,9,99,9,99999,9,99,9,99,9","10000,1,99999,9","61,1",,,,"MET087METAR ETNJ 010820Z 26013KT 9999 -RA FEW009 BKN013 BKN035 02/02 Q1000 GRN BLU TEMPO GRN;",
"10122099999","2010-03-01T09:00:00","4","53.5335","7.888667","7.31","JEVER, GM","FM-15","ETNJ ","V020","260,1,N,0072,1","00750,1,C,N","011265,1,N,1","+0030,1","+0020,1","99999,9",,"04,5,+00270,1,99,9","04,5,+00750,1,99,9","07,5,+01350,1,99,9","07,99,1,99,9,99,9,99999,9,99,9,99,9","10010,1,99999,9",,,,,"MET083SPECI ETNJ 010855Z 26014KT 9999 SCT009 SCT025 BKN045 03/02 Q1001 BLU BLU TEMPO GRN;",
"10122099999","2010-03-01T09:20:00","4","53.5335","7.888667","7.31","JEVER, GM","FM-15","ETNJ ","V020","260,1,N,0082,1","00480,1,C,N","011265,1,N,1","+0030,1","+0020,1","99999,9",,"02,5,+00270,1,99,9","04,5,+00480,1,99,9","07,5,+00900,1,99,9","07,99,1,99,9,99,9,99999,9,99,9,99,9","10010,1,99999,9",,,,,"MET083METAR ETNJ 010920Z 26016KT 9999 FEW009 SCT016 BKN030 03/02 Q1001 BLU BLU TEMPO GRN;",
"10122099999","2010-03-01T10:20:00","4","53.5335","7.888667","7.31","JEVER, GM","FM-15","ETNJ ","V020","280,1,N,0082,1","01200,1,C,N","011265,1,N,1","+0050,1","+0000,1","99999,9",,"02,5,+00600,1,99,9","04,5,+01200,1,99,9","07,5,+06600,1,99,9","07,99,1,99,9,99,9,99999,9,99,9,99,9","10031,1,99999,9",,,,,"MET084METAR ETNJ 011020Z 28016KT 9999 FEW020 SCT040 BKN220 05/00 Q1003 BLU/BLU/ TEMPO GRN;",
"10122099999","2010-03-01T11:20:00","4","53.5335","7.888667","7.31","JEVER, GM","FM-15","ETNJ ","V020","270,1,N,0077,1","06600,1,C,N","011265,1,N,1","+0050,1","+0000,1","99999,9",,"04,5,+00750,1,99,9","07,5,+06600,1,99,9",,"07,99,1,99,9,99,9,99999,9,99,9,99,9","10041,1,99999,9",,,,,"MET077METAR ETNJ 011120Z 27015KT 9999 SCT025 BKN220 05/00 Q1004 BLU/BLU/ TEMPO WHT;",
"10122099999","2010-03-01T12:20:00","4","53.5335","7.888667","7.31","JEVER, GM","FM-15","ETNJ ","V020","270,1,N,0103,1","99999,9,C,N","011265,1,N,1","+0060,1","+0010,1","99999,9",,"04,5,+00750,1,99,9","04,5,+06600,1,99,9",,"04,99,1,99,9,99,9,99999,9,99,9,99,9","10051,1,99999,9",,,,,"MET077METAR ETNJ 011220Z 27020KT 9999 SCT025 SCT220 06/01 Q1005 BLU/BLU/ TEMPO GRN;","P01 066003SCOCIG"
"10122099999","2010-03-01T13:20:00","4","53.5335","7.888667","7.31","JEVER, GM","FM-15","ETNJ ","V020","260,1,N,0098,1","99999,9,C,N","011265,1,N,1","+0060,1","+0010,1","99999,9",,"04,5,+00750,1,99,9","04,5,+06600,1,99,9",,"04,99,1,99,9,99,9,99999,9,99,9,99,9","10051,1,99999,9",,,,,"MET077METAR ETNJ 011320Z 26019KT 9999 SCT025 SCT220 06/01 Q1005 BLU/BLU/ TEMPO WHT;","P01 066003SCOCIG"
"10122099999","2010-03-01T14:20:00","4","53.5335","7.888667","7.31","JEVER, GM","FM-15","ETNJ ","V020","260,1,N,0087,1","22000,1,9,N","011265,1,N,1","+0060,1","+0000,1","99999,9",,"04,5,+00810,1,99,9",,,"04,99,1,99,9,99,9,99999,9,99,9,99,9","10061,1,99999,9",,,,,"MET070METAR ETNJ 011420Z 26017KT 9999 SCT027 06/00 Q1006 BLU/BLU/ TEMPO WHT;",
"10122099999","2010-03-01T15:00:00","4","53.5335","7.888667","7.31","JEVER, GM","FM-16","ETNJ ","V020","260,1,N,0077,1","22000,1,9,N","011265,1,N,1","+0050,1","+0010,1","99999,9",,"04,5,+00720,1,99,9",,,"04,99,1,99,9,99,9,99999,9,99,9,99,9","10071,1,99999,9",,,,,"MET067SPECI ETNJ 011500Z 26015KT 9999 SCT024 05/01 Q1007 BLU/FCST CANCEL;",
"10122099999","2010-03-03T06:20:00","4","53.5335","7.888667","7.31","JEVER, GM","FM-15","ETNJ ","V020","250,1,N,0036,1","99999,9,C,N","011265,1,N,1","+0010,1","+0000,1","99999,9",,"02,5,+00540,1,99,9","04,5,+01260,1,99,9",,"04,99,1,99,9,99,9,99999,9,99,9,99,9","10210,1,99999,9",,,,,"MET068METAR ETNJ 030620Z 25007KT 9999 FEW018 SCT042 01/M00 Q1021 BLU/BLU/;","P01 012603SCOCIG"
"10122099999","2010-03-03T07:20:00","4","53.5335","7.888667","7.31","JEVER, GM","FM-15","ETNJ ","V020","280,1,N,0041,1","22000,1,9,N","011265,1,N,1","+0020,1","+0010,1","99999,9",,"02,5,+00540,1,99,9",,,"02,99,1,99,9,99,9,99999,9,99,9,99,9","10210,1,99999,9",,,,,"MET060METAR ETNJ 030720Z 28008KT 9999 FEW018 02/01 Q1021 BLU/BLU/;",
"10122099999","2010-03-03T08:20:00","4","53.5335","7.888667","7.31","JEVER, GM","FM-15","ETNJ ","V020","280,1,N,0041,1","22000,1,9,N","011265,1,N,1","+0030,1","+0020,1","99999,9",,"02,5,+06600,1,99,9",,,"02,99,1,99,9,99,9,99999,9,99,9,99,9","10220,1,99999,9",,,,,"MET060METAR ETNJ 030820Z 28008KT 9999 FEW220 03/02 Q1022 BLU/BLU/;",
"10122099999","2010-03-03T09:20:00","4","53.5335","7.888667","7.31","JEVER, GM","FM-15","ETNJ ","V020","280,1,N,0051,1","99999,9,C,N","011265,1,N,1","+0040,1","+0010,1","99999,9",,"02,5,+00300,1,99,9","04,5,+01500,1,99,9",,"04,99,1,99,9,99,9,99999,9,99,9,99,9","10220,1,99999,9",,,,,"MET067METAR ETNJ 030920Z 28010KT 9999 FEW010 SCT050 04/01 Q1022 BLU/BLU/;","P01 015003SCOCIG"
"10122099999","2010-03-03T10:20:00","4","53.5335","7.888667","7.31","JEVER, GM","FM-15","ETNJ ","V020","290,1,N,0057,1","01440,1,C,N","011265,1,N,1","+0050,1","+0000,1","99999,9",,"02,5,+00600,1,99,9","07,5,+01440,1,99,9",,"07,99,1,99,9,99,9,99999,9,99,9,99,9","10220,1,99999,9",,,,,"MET066METAR ETNJ 031020Z 29011KT 9999 FEW020 BKN048 05/00 Q1022 BLU BLU;",
"10122099999","2010-03-03T11:20:00","4","53.5335","7.888667","7.31","JEVER, GM","FM-15","ETNJ ","V020","290,1,N,0051,1","00660,1,C,N","007000,1,N,1","+0050,1","+0000,1","99999,9",,"07,5,+00660,1,99,9","07,5,+01500,1,99,9",,"07,99,1,99,9,99,9,99999,9,99,9,99,9","10220,1,99999,9","83,1",,,,"MET085METAR ETNJ 031120Z 29010KT 7000 -SHRASN BKN022 BKN050 05/M00 Q1022 WHT BLU TEMPO WHT;",
"10122099999","2010-03-03T11:30:00","4","53.5335","7.888667","7.31","JEVER, GM","FM-16","ETNJ ","V020","310,1,N,0057,1","00540,1,C,N","003800,1,N,1","+0030,1","+0000,1","99999,9",,"02,5,+00240,1,99,9","07,5,+00540,1,99,9","07,5,+01500,1,99,9","07,99,1,99,9,99,9,99999,9,99,9,99,9","10230,1,99999,9","63,1","73,1","88,1",,"MET092SPECI ETNJ 031130Z 31011KT 3800 SHGSSNRA FEW008 BKN018 BKN050 03/00 Q1023 GRN BLU TEMPO WHT;",
"10122099999","2010-03-03T11:42:00","4","53.5335","7.888667","7.31","JEVER, GM","FM-16","ETNJ ","V020","330,1,N,0041,1","00540,1,C,N","006000,1,N,1","+0020,1","+0000,1","99999,9",,"02,5,+00240,1,99,9","07,5,+00540,1,99,9","07,5,+01500,1,99,9","07,99,1,99,9,99,9,99999,9,99,9,99,9","10230,1,99999,9","63,1","73,1","87,1",,"MET098SPECI ETNJ 031142Z 33008KT 6000 -SHGSRASN FEW008 BKN018 BKN050 02/00 Q1023 REGS WHT BLU TEMPO WHT;",
"10122099999","2010-03-03T12:20:00","4","53.5335","7.888667","7.31","JEVER, GM","FM-15","ETNJ ","V020","260,1,N,0026,1","00540,1,C,N","011265,1,N,1","+0030,1","+0020,1","99999,9",,"02,5,+00300,1,99,9","04,5,+00540,1,99,9","07,5,+01500,1,99,9","07,99,1,99,9,99,9,99999,9,99,9,99,9","10220,1,99999,9",,,,,"MET089METAR ETNJ 031220Z 26005KT 9999 FEW010 SCT018 BKN050 03/02 Q1022 REGS BLU BLU/ TEMPO WHT;",
"10122099999","2010-03-03T13:20:00","4","53.5335","7.888667","7.31","JEVER, GM","FM-15","ETNJ ","V020","260,1,N,0046,1","99999,9,C,N","011265,1,N,1","+0060,1","+0010,1","99999,9",,"02,5,+00450,1,99,9","04,5,+00840,1,99,9",,"04,99,1,99,9,99,9,99999,9,99,9,99,9","10220,1,99999,9",,,,,"MET077METAR ETNJ 031320Z 26009KT 9999 FEW015 SCT028 06/01 Q1022 BLU/BLU/ TEMPO WHT;","P01 008403SCOCIG"
"10122099999","2010-03-03T14:20:00","4","53.5335","7.888667","7.31","JEVER, GM","FM-15","ETNJ ","V020","290,1,N,0051,1","99999,9,C,N","011265,1,N,1","+0060,1","+0000,1","99999,9",,"02,5,+00600,1,99,9","04,5,+01500,1,99,9",,"04,99,1,99,9,99,9,99999,9,99,9,99,9","10210,1,99999,9",,,,,"MET078METAR ETNJ 031420Z 29010KT 9999 FEW020 SCT050 06/M00 Q1021 BLU/BLU/ TEMPO WHT;","P01 015003SCOCIG"
"10122099999","2010-03-03T15:00:00","4","53.5335","7.888667","7.31","JEVER, GM","FM-16","ETNJ ","V020","310,1,N,0046,1","01500,1,C,N","011265,1,N,1","+0050,1","-0010,1","99999,9",,"02,5,+00600,1,99,9","07,5,+01500,1,99,9",,"07,99,1,99,9,99,9,99999,9,99,9,99,9","10210,1,99999,9",,,,,"MET075SPECI ETNJ 031500Z 31009KT 9999 FEW020 BKN050 05/M01 Q1021 BLU FCST CANCEL;",
"10122099999","2010-03-08T06:20:00","4","53.5335","7.888667","7.31","JEVER, GM","FM-15","ETNJ ","V020","060,1,N,0021,1","00150,1,C,N","003500,1,N,1","+0000,1","+0000,1","99999,9",,"04,5,+00090,1,99,9","07,5,+00150,1,99,9",,"07,99,1,99,9,99,9,99999,9,99,9,99,9","10281,1,99999,9","10,1",,,,"MET069METAR ETNJ 080620Z 06004KT 3500 BR SCT003 BKN005 00/00 Q1028 YLO YLO;",
"10122099999","2010-03-08T07:20:00","4","53.5335","7.888667","7.31","JEVER, GM","FM-15","ETNJ ","V020","080,1,N,0031,1","00120,1,C,N","001600,1,N,1","-0010,1","-0010,1","99999,9","28,U,1500,9","07,5,+00120,1,99,9",,,"07,99,1,99,9,99,9,99999,9,99,9,99,9","10281,1,99999,9","10,1",,,,"MET074METAR ETNJ 080720Z 08006KT 1600 R28/1500D BR BKN004 M01/M01 Q1028 YLO YLO;",
"10122099999","2010-03-08T08:20:00","4","53.5335","7.888667","7.31","JEVER, GM","FM-15","ETNJ ","V020","080,1,N,0026,1","00120,1,C,N","002500,1,N,1","-0010,1","-0010,1","99999,9",,"07,5,+00120,1,99,9",,,"07,99,1,99,9,99,9,99999,9,99,9,99,9","10281,1,99999,9","10,1",,,,"MET069METAR ETNJ 080820Z 08005KT 2500 BR BKN004 M01/M01 Q1028 BLACKYLO YLO;",
"10122099999","2010-03-08T09:20:00","4","53.5335","7.888667","7.31","JEVER, GM","FM-15","ETNJ ","V020","090,1,N,0036,1","00180,1,C,N","003500,1,N,1","-0010,1","-0020,1","99999,9",,"07,5,+00180,1,99,9",,,"07,99,1,99,9,99,9,99999,9,99,9,99,9","10291,1,99999,9","10,1",,,,"MET069METAR ETNJ 080920Z 09007KT 3500 BR BKN006 M01/M02 Q1029 BLACKYLO YLO;",
"10122099999","2010-03-08T09:53:00","4","53.5335","7.888667","7.31","JEVER, GM","FM-16","ETNJ ","V020","080,1,N,0026,1","00210,1,C,N","005000,1,N,1","-0010,1","-0010,1","99999,9",,"07,5,+00210,1,99,9",,,"07,99,1,99,9,99,9,99999,9,99,9,99,9","10291,1,99999,9","10,1",,,,"MET069SPECI ETNJ 080953Z 08005KT 5000 BR BKN007 M01/M01 Q1029 BLACKGRN GRN;",
"10122099999","2010-03-08T10:20:00","4","53.5335","7.888667","7.31","JEVER, GM","FM-15","ETNJ ","V020","100,1,N,0041,1","00210,1,C,N","005000,1,N,1","-0010,1","-0020,1","99999,9",,"07,5,+00210,1,99,9",,,"07,99,1,99,9,99,9,99999,9,99,9,99,9","10291,1,99999,9","10,1",,,,"MET069METAR ETNJ 081020Z 10008KT 5000 BR BKN007 M01/M02 Q1029 BLACKGRN GRN;",
"10122099999","2010-03-08T11:20:00","4","53.5335","7.888667","7.31","JEVER, GM","FM-15","ETNJ ","V020","100,1,N,0031,1","00210,1,C,N","008000,1,N,1","-0010,1","-0020,1","99999,9",,"07,5,+00210,1,99,9",,,"07,99,1,99,9,99,9,99999,9,99,9,99,9","10291,1,99999,9",,,,,"MET076METAR ETNJ 081120Z 10006KT 8000 BKN007 M01/M02 Q1029 BLACKGRN GRN BECMG WHT;",
"10122099999","2010-03-08T12:07:00","4","53.5335","7.888667","7.31","JEVER, GM","FM-16","ETNJ ","V020","110,1,N,0036,1","00270,1,C,N","011265,1,N,1","+0000,1","-0020,1","99999,9",,"07,5,+00270,1,99,9",,,"07,99,1,99,9,99,9,99999,9,99,9,99,9","10291,1,99999,9",,,,,"MET071SPECI ETNJ 081207Z 11007KT 9999 BKN009 M00/M02 Q1029 GRN GRN BECMG WHT;",
"10122099999","2010-03-08T12:20:00","4","53.5335","7.888667","7.31","JEVER, GM","FM-15","ETNJ ","V020","110,1,N,0031,1","00270,1,C,N","011265,1,N,1","+0000,1","-0020,1","99999,9",,"07,5,+00270,1,99,9",,,"07,99,1,99,9,99,9,99999,9,99,9,99,9","10281,1,99999,9",,,,,"MET070METAR ETNJ 081220Z 11006KT 9999 BKN009 00/M02 Q1028 GRN GRN BECMG WHT;",
"10122099999","2010-03-08T13:20:00","4","53.5335","7.888667","7.31","JEVER, GM","FM-15","ETNJ ","V020","070,1,N,0031,1","00300,1,C,N","011265,1,N,1","+0000,1","-0020,1","99999,9",,"07,5,+00300,1,99,9",,,"07,99,1,99,9,99,9,99999,9,99,9,99,9","10281,1,99999,9",,,,,"MET071METAR ETNJ 081320Z 07006KT 9999 BKN010 M00/M02 Q1028 GRN GRN BECMG WHT;",
"10122099999","2010-03-08T14:20:00","4","53.5335","7.888667","7.31","JEVER, GM","FM-15","ETNJ ","V020","050,1,N,0021,1","00450,1,C,N","011265,1,N,1","+0000,1","-0030,1","99999,9",,"04,5,+00300,1,99,9","07,5,+00450,1,99,9",,"07,99,1,99,9,99,9,99999,9,99,9,99,9","10281,1,99999,9",,,,,"MET068METAR ETNJ 081420Z 05004KT 9999 SCT010 BKN015 M00/M03 Q1028 WHT WHT;",
"10122099999","2010-03-08T15:00:00","4","53.5335","7.888667","7.31","JEVER, GM","FM-16","ETNJ ","V020","060,1,N,0021,1","00420,1,C,N","011265,1,N,1","+0000,1","-0030,1","99999,9",,"07,5,+00420,1,99,9",,,"07,99,1,99,9,99,9,99999,9,99,9,99,9","10281,1,99999,9",,,,,"MET069SPECI ETNJ 081500Z 06004KT 9999 BKN014 M00/M03 Q1028 GRN FCST CANCEL;",
"10122099999","2010-03-09T06:20:00","4","53.5335","7.888667","7.31","JEVER, GM","FM-15","ETNJ ","V020","100,1,N,0010,1","22000,1,9,N","000100,1,N,1","-0070,1","-0070,1","99999,9",,"02,5,+06600,1,99,9",,,"02,99,1,99,9,99,9,99999,9,99,9,99,9","10281,1,99999,9","48,1",,,,"MET066METAR ETNJ 090620Z 10002KT 0100 FZFG FEW220 M07/M07 Q1028 RED RED;",
"10122099999","2010-03-09T07:20:00","4","53.5335","7.888667","7.31","JEVER, GM","FM-15","ETNJ ","V020","090,1,N,0010,1","22000,1,9,N","000400,1,N,1","-0050,1","-0070,1","99999,9",,"02,5,+06600,1,99,9",,,"02,99,1,99,9,99,9,99999,9,99,9,99,9","10281,1,99999,9","48,1",,,,"MET076METAR ETNJ 090720Z 09002KT 0400 FZFG FEW220 M05/M07 Q1028 RED RED BECMG GRN;",
"10122099999","2010-03-09T07:24:00","4","53.5335","7.888667","7.31","JEVER, GM","FM-16","ETNJ ","V020","090,1,N,0015,1","22000,1,9,N","000800,1,N,1","-0040,1","-0070,1","99999,9",,"02,5,+06600,1,99,9",,,"02,99,1,99,9,99,9,99999,9,99,9,99,9","10281,1,99999,9","48,1",,,,"MET076SPECI ETNJ 090724Z 09003KT 0800 FZFG FEW220 M04/M07 Q1028 AMB AMB BECMG GRN;",
"10122099999","2010-03-09T08:20:00","4","53.5335","7.888667","7.31","JEVER, GM","FM-15","ETNJ ","V020","100,1,N,0015,1","22000,1,9,N","000800,1,N,1","-0040,1","-0070,1","99999,9",,"02,5,+06600,1,99,9",,,"02,99,1,99,9,99,9,99999,9,99,9,99,9","10291,1,99999,9","48,1",,,,"MET076METAR ETNJ 090820Z 10003KT 0800 FZFG FEW220 M04/M07 Q1029 AMB AMB BECMG GRN;",
"10122099999","2010-03-09T09:20:00","4","53.5335","7.888667","7.31","JEVER, GM","FM-15","ETNJ ","V020","090,1,N,0015,1","22000,1,9,N","000800,1,N,1","-0010,1","-0010,1","99999,9","28,U,0300,9","02,5,+00540,1,99,9",,,"02,99,1,99,9,99,9,99999,9,99,9,99,9","10301,1,99999,9","48,1",,,,"MET086METAR ETNJ 090920Z 09003KT 0800 R28/0300U FZFG FEW018 M01/M01 Q1030 AMB AMB BECMG WHT;",
"10122099999","2010-03-09T09:40:00","4","53.5335","7.888667","7.31","JEVER, GM","FM-16","ETNJ ","V020","090,1,N,0021,1","00540,1,C,N","000600,1,N,1","-0010,1","-0010,1","99999,9","28,U,0450,9","07,5,+00540,1,99,9",,,"07,99,1,99,9,99,9,99999,9,99,9,99,9","10301,1,99999,9","48,1","77,1",,,"MET089SPECI ETNJ 090940Z 09004KT 0600 R28/0450 -SG FZFG BKN018 M01/M01 Q1030 RED RED BECMG WHT;",
"10122099999","2010-03-09T10:20:00","4","53.5335","7.888667","7.31","JEVER, GM","FM-15","ETNJ ","V020","100,1,N,0021,1","00015,1,9,N","000300,1,N,1","+0000,1","+0000,1","99999,9","28,U,0300,9","09,1,+00015,1,99,9",,,"09,99,1,99,9,99,9,00025,1,99,9,99,9","10301,1,99999,9","45,1",,,,"MET081METAR ETNJ 091020Z 10004KT 0300 R28/0300 FG VV000 00/M00 Q1030 RED RED BECMG WHT;",
"10122099999","2010-03-09T11:00:00","4","53.5335","7.888667","7.31","JEVER, GM","FM-15","ETNJ ","V020","090,1,N,0021,1","99999,9,C,N","001300,1,N,1","+0010,1","-0010,1","99999,9","28,U,0350,9","02,5,+00060,1,99,9","04,5,+00540,1,99,9",,"04,99,1,99,9,99,9,99999,9,99,9,99,9","10301,1,99999,9","10,1",,,,"MET090SPECI ETNJ 091057Z 09004KT 1300 R28/0350N BR FEW002 SCT018 01/M01 Q1030 AMB AMB BECMG WHT;","P01 005403SCOCIG"
"10122099999","2010-03-09T11:20:00","4","53.5335","7.888667","7.31","JEVER, GM","FM-15","ETNJ ","V020","080,1,N,0021,1","22000,1,9,N","001400,1,N,1","+0020,1","-0010,1","99999,9","28,U,1200,9","02,5,+00060,1,99,9",,,"02,99,1,99,9,99,9,99999,9,99,9,99,9","10301,1,99999,9","10,1",,,,"MET083METAR ETNJ 091120Z 08004KT 1400 R28/1200N BR FEW002 02/M01 Q1030 AMB AMB BECMG WHT;",
"10122099999","2010-03-09T11:34:00","4","53.5335","7.888667","7.31","JEVER, GM","FM-16","ETNJ ","V020","090,1,N,0021,1","22000,1,9,N","001600,1,N,1","+0020,1","-0010,1","99999,9","28,U,2100,9","02,5,+00060,1,99,9",,,"02,99,1,99,9,99,9,99999,9,99,9,99,9","10301,1,99999,9","10,1",,,,"MET083SPECI ETNJ 091134Z 09004KT 1600 R28/2100N BR FEW002 02/M01 Q1030 YLO YLO BECMG WHT;",
"10122099999","2010-03-09T12:20:00","4","53.5335","7.888667","7.31","JEVER, GM","FM-15","ETNJ ","V020","090,1,N,0026,1","22000,1,9,N","003000,1,N,1","+0020,1","-0010,1","99999,9",,"02,5,+00120,1,99,9",,,"02,99,1,99,9,99,9,99999,9,99,9,99,9","10301,1,99999,9","10,1",,,,"MET073METAR ETNJ 091220Z 09005KT 3000 BR FEW004 02/M01 Q1030 YLO YLO BECMG WHT;",
"10122099999","2010-03-09T12:42:00","4","53.5335","7.888667","7.31","JEVER, GM","FM-16","ETNJ ","V020","090,1,N,0021,1","22000,1,9,N","005000,1,N,1","+0040,1","+0000,1","99999,9",,"02,5,+00300,1,99,9",,,"02,99,1,99,9,99,9,99999,9,99,9,99,9","10301,1,99999,9","05,1",,,,"MET063SPECI ETNJ 091242Z 09004KT 5000 HZ FEW010 04/M00 Q1030 WHT WHT;",
"10122099999","2010-03-09T13:20:00","4","53.5335","7.888667","7.31","JEVER, GM","FM-15","ETNJ ","V020","100,1,N,0021,1","22000,1,9,N","005000,1,N,1","+0030,1","-0010,1","99999,9",,"02,5,+00300,1,99,9",,,"02,99,1,99,9,99,9,99999,9,99,9,99,9","10301,1,99999,9","05,1",,,,"MET063METAR ETNJ 091320Z 10004KT 5000 HZ FEW010 03/M01 Q1030 WHT WHT;",
"10122099999","2010-03-09T14:20:00","4","53.5335","7.888667","7.31","JEVER, GM","FM-15","ETNJ ","V020","999,9,V,0005,1","22000,1,9,N","007000,1,N,1","+0060,1","-0010,1","99999,9",,"02,5,+00300,1,99,9",,,"02,99,1,99,9,99,9,99999,9,99,9,99,9","10301,1,99999,9",,,,,"MET060METAR ETNJ 091420Z VRB01KT 7000 FEW010 06/M01 Q1030 WHT WHT;",
"10122099999","2010-03-09T15:00:00","4","53.5335","7.888667","7.31","JEVER, GM","FM-16","ETNJ ","V020","100,1,N,0015,1","22000,1,9,N","007000,1,N,1","+0040,1","-0020,1","99999,9",,"02,5,+00360,1,99,9",,,"02,99,1,99,9,99,9,99999,9,99,9,99,9","10301,1,99999,9",,,,,"MET068SPECI ETNJ 091500Z 10003KT 7000 FEW012 04/M02 Q1030 WHT FCST CANCEL;",
"10122099999","2010-03-10T06:20:00","4","53.5335","7.888667","7.31","JEVER, GM","FM-15","ETNJ ","V020","110,1,N,0015,1","00420,1,C,N","002000,1,N,1","-0040,1","-0040,1","99999,9",,"07,5,+00420,1,99,9",,,"07,99,1,99,9,99,9,99999,9,99,9,99,9","10301,1,99999,9","10,1",,,,"MET064METAR ETNJ 100620Z 11003KT 2000 BR BKN014 M04/M04 Q1030 YLO YLO;",
"10122099999","2010-03-10T07:20:00","4","53.5335","7.888667","7.31","JEVER, GM","FM-15","ETNJ ","V020","110,1,N,0010,1","00360,1,C,N","002000,1,N,1","-0030,1","-0030,1","99999,9",,"07,5,+00360,1,99,9",,,"07,99,1,99,9,99,9,99999,9,99,9,99,9","10301,1,99999,9","10,1",,,,"MET064METAR ETNJ 100720Z 11002KT 2000 BR BKN012 M03/M03 Q1030 YLO YLO;",
"10122099999","2010-03-10T08:20:00","4","53.5335","7.888667","7.31","JEVER, GM","FM-15","ETNJ ","V020","120,1,N,0015,1","00360,1,C,N","002500,1,N,1","-0020,1","-0030,1","99999,9",,"07,5,+00360,1,99,9",,,"07,99,1,99,9,99,9,99999,9,99,9,99,9","10301,1,99999,9","10,1",,,,"MET064METAR ETNJ 100820Z 12003KT 2500 BR BKN012 M02/M03 Q1030 YLO YLO;",
"10122099999","2010-03-10T09:20:00","4","53.5335","7.888667","7.31","JEVER, GM","FM-15","ETNJ ","V020","130,1,N,0015,1","00330,1,C,N","003500,1,N,1","-0010,1","-0010,1","99999,9",,"07,5,+00330,1,99,9",,,"07,99,1,99,9,99,9,99999,9,99,9,99,9","10301,1,99999,9","10,1",,,,"MET064METAR ETNJ 100920Z 13003KT 3500 BR BKN011 M01/M01 Q1030 YLO YLO;",
"10122099999","2010-03-10T10:20:00","4","53.5335","7.888667","7.31","JEVER, GM","FM-15","ETNJ ","V020","999,9,V,0005,1","00300,1,C,N","003500,1,N,1","+0000,1","+0000,1","99999,9",,"08,5,+00300,1,99,9",,,"08,99,1,99,9,99,9,99999,9,99,9,99,9","10301,1,99999,9","10,1",,,,"MET074METAR ETNJ 101020Z VRB01KT 3500 BR OVC010 M00/M00 Q1030 YLO YLO BECMG GRN;",
"10122099999","2010-03-10T11:20:00","4","53.5335","7.888667","7.31","JEVER, GM","FM-15","ETNJ ","V020","100,1,N,0010,1","00330,1,C,N","004000,1,N,1","+0010,1","+0010,1","99999,9",,"08,5,+00330,1,99,9",,,"08,99,1,99,9,99,9,99999,9,99,9,99,9","10301,1,99999,9","10,1",,,,"MET072METAR ETNJ 101120Z 10002KT 4000 BR OVC011 01/01 Q1030 GRN GRN TEMPO WHT;",
"10122099999","2010-03-10T12:20:00","4","53.5335","7.888667","7.31","JEVER, GM","FM-15","ETNJ ","V020","090,1,N,0010,1","00360,1,C,N","005000,1,N,1","+0020,1","+0000,1","99999,9",,"08,5,+00360,1,99,9",,,"08,99,1,99,9,99,9,99999,9,99,9,99,9","10291,1,99999,9","10,1",,,,"MET072METAR ETNJ 101220Z 09002KT 5000 BR OVC012 02/00 Q1029 GRN GRN TEMPO WHT;",
"10122099999","2010-03-10T13:20:00","4","53.5335","7.888667","7.31","JEVER, GM","FM-15","ETNJ ","V020","040,1,N,0026,1","00300,1,C,N","007000,1,N,1","+0010,1","-0010,1","99999,9",,"08,5,+00300,1,99,9",,,"08,99,1,99,9,99,9,99999,9,99,9,99,9","10281,1,99999,9",,,,,"MET070METAR ETNJ 101320Z 04005KT 7000 OVC010 01/M01 Q1028 GRN GRN TEMPO WHT;",
"10122099999","2010-03-10T14:20:00","4","53.5335","7.888667","7.31","JEVER, GM","FM-15","ETNJ ","V020","040,1,N,0026,1","00300,1,C,N","008000,1,N,1","+0010,1","-0010,1","99999,9",,"08,5,+00300,1,99,9",,,"08,99,1,99,9,99,9,99999,9,99,9,99,9","10281,1,99999,9",,,,,"MET070METAR ETNJ 101420Z 04005KT 8000 OVC010 01/M01 Q1028 GRN GRN TEMPO WHT;",
"10122099999","2010-03-10T15:00:00","4","53.5335","7.888667","7.31","JEVER, GM","FM-15","ETNJ ","V020","030,1,N,0026,1","00330,1,C,N","008000,1,N,1","+0010,1","-0010,1","99999,9",,"08,5,+00330,1,99,9",,,"08,99,1,99,9,99,9,99999,9,99,9,99,9","10281,1,99999,9",,,,,"MET068SPECI ETNJ 101459Z 03005KT 8000 OVC011 01/M01 Q1028 GRN FCST CANCEL;",
"10122099999","2010-03-11T06:20:00","4","53.5335","7.888667","7.31","JEVER, GM","FM-15","ETNJ ","V020","150,1,N,0010,1","00420,1,C,N","003000,1,N,1","+0000,1","+0000,1","99999,9",,"07,5,+00420,1,99,9",,,"07,99,1,99,9,99,9,99999,9,99,9,99,9","10220,1,99999,9","10,1",,,,"MET064METAR ETNJ 110620Z 15002KT 3000 BR BKN014 M00/M00 Q1022 YLO YLO;",
"10122099999","2010-03-11T07:20:00","4","53.5335","7.888667","7.31","JEVER, GM","FM-15","ETNJ ","V020","240,1,N,0010,1","01200,1,C,N","005000,1,N,1","+0010,1","+0010,1","99999,9",,"04,5,+00270,1,99,9","07,5,+01200,1,99,9",,"07,99,1,99,9,99,9,99999,9,99,9,99,9","10220,1,99999,9","10,1",,,,"MET069METAR ETNJ 110720Z 24002KT 5000 BR SCT009 BKN040 01/01 Q1022 WHT WHT;",
"10122099999","2010-03-11T08:20:00","4","53.5335","7.888667","7.31","JEVER, GM","FM-15","ETNJ ","V020","280,1,N,0005,1","00240,1,C,N","006000,1,N,1","+0040,1","+0040,1","99999,9",,"07,5,+00240,1,99,9","07,5,+01200,1,99,9",,"07,99,1,99,9,99,9,99999,9,99,9,99,9","10220,1,99999,9",,,,,"MET076METAR ETNJ 110820Z 28001KT 6000 BKN008 BKN040 04/04 Q1022 GRN GRN BECMG BLU;",
"10122099999","2010-03-11T09:20:00","4","53.5335","7.888667","7.31","JEVER, GM","FM-15","ETNJ ","V020","220,1,N,0021,1","00240,1,C,N","008000,1,N,1","+0030,1","+0010,1","99999,9",,"07,5,+00240,1,99,9",,,"07,99,1,99,9,99,9,99999,9,99,9,99,9","10220,1,99999,9",,,,,"MET069METAR ETNJ 110920Z 22004KT 8000 BKN008 03/01 Q1022 GRN GRN BECMG BLU;",
"10122099999","2010-03-11T10:20:00","4","53.5335","7.888667","7.31","JEVER, GM","FM-15","ETNJ ","V020","230,1,N,0021,1","00270,1,C,N","008000,1,N,1","+0030,1","+0010,1","99999,9",,"07,5,+00270,1,99,9",,,"07,99,1,99,9,99,9,99999,9,99,9,99,9","10210,1,99999,9",,,,,"MET069METAR ETNJ 111020Z 23004KT 8000 BKN009 03/01 Q1021 GRN BLU TEMPO GRN;",
"10122099999","2010-03-11T11:20:00","4","53.5335","7.888667","7.31","JEVER, GM","FM-15","ETNJ ","V020","220,1,N,0026,1","00300,1,C,N","008000,1,N,1","+0040,1","+0010,1","99999,9",,"07,5,+00300,1,99,9","07,5,+00510,1,99,9",,"07,99,1,99,9,99,9,99999,9,99,9,99,9","10210,1,99999,9",,,,,"MET076METAR ETNJ 111120Z 22005KT 8000 BKN010 BKN017 04/01 Q1021 GRN GRN TEMPO BLU;",
"10122099999","2010-03-11T12:00:00","4","53.5335","7.888667","7.31","JEVER, GM","FM-15","ETNJ ","V020","230,1,N,0026,1","00480,1,C,N","008000,1,N,1","+0040,1","+0020,1","99999,9",,"02,5,+00300,1,99,9","07,5,+00480,1,99,9",,"07,99,1,99,9,99,9,99999,9,99,9,99,9","10200,1,99999,9",,,,,"MET076SPECI ETNJ 111157Z 23005KT 8000 FEW010 BKN016 04/02 Q1020 WHT GRN TEMPO BLU;",
"10122099999","2010-03-11T12:09:00","4","53.5335","7.888667","7.31","JEVER, GM","FM-16","ETNJ ","V020","240,1,N,0031,1","00330,1,C,N","008000,1,N,1","+0040,1","+0020,1","99999,9",,"07,5,+00330,1,99,9","07,5,+00480,1,99,9",,"07,99,1,99,9,99,9,99999,9,99,9,99,9","10200,1,99999,9",,,,,"MET076SPECI ETNJ 111209Z 24006KT 8000 BKN011 BKN016 04/02 Q1020 GRN GRN TEMPO BLU;",
"10122099999","2010-03-11T12:20:00","4","53.5335","7.888667","7.31","JEVER, GM","FM-15","ETNJ ","V020","240,1,N,0031,1","00300,1,C,N","008000,1,N,1","+0040,1","+0020,1","99999,9",,"07,5,+00300,1,99,9",,,"07,99,1,99,9,99,9,99999,9,99,9,99,9","10200,1,99999,9",,,,,"MET069METAR ETNJ 111220Z 24006KT 8000 BKN010 04/02 Q1020 GRN GRN TEMPO BLU;",
"10122099999","2010-03-11T13:20:00","4","53.5335","7.888667","7.31","JEVER, GM","FM-15","ETNJ ","V020","280,1,N,0036,1","00330,1,C,N","008000,1,N,1","+0050,1","+0030,1","99999,9",,"07,5,+00330,1,99,9","07,5,+00510,1,99,9",,"07,99,1,99,9,99,9,99999,9,99,9,99,9","10190,1,99999,9",,,,,"MET076METAR ETNJ 111320Z 28007KT 8000 BKN011 BKN017 05/03 Q1019 GRN GRN TEMPO BLU;",
"10122099999","2010-03-11T13:32:00","4","53.5335","7.888667","7.31","JEVER, GM","FM-16","ETNJ ","V020","270,1,N,0036,1","00330,1,C,N","009000,1,N,1","+0050,1","+0030,1","99999,9",,"02,5,+00240,1,99,9","04,5,+00330,1,99,9","07,5,+00510,1,99,9","07,99,1,99,9,99,9,99999,9,99,9,99,9","10190,1,99999,9",,,,,"MET083SPECI ETNJ 111332Z 27007KT 9000 FEW008 SCT011 BKN017 05/03 Q1019 WHT WHT TEMPO GRN;",
"10122099999","2010-03-11T13:52:00","4","53.5335","7.888667","7.31","JEVER, GM","FM-16","ETNJ ","V020","280,1,N,0031,1","00330,1,C,N","009000,1,N,1","+0050,1","+0020,1","99999,9",,"07,5,+00330,1,99,9","07,5,+00480,1,99,9",,"07,99,1,99,9,99,9,99999,9,99,9,99,9","10180,1,99999,9",,,,,"MET076SPECI ETNJ 111352Z 28006KT 9000 BKN011 BKN016 05/02 Q1018 GRN WHT TEMPO GRN;",
"10122099999","2010-03-11T14:20:00","4","53.5335","7.888667","7.31","JEVER, GM","FM-15","ETNJ ","V020","290,1,N,0041,1","00300,1,C,N","009000,1,N,1","+0050,1","+0030,1","99999,9",,"02,5,+00210,1,99,9","07,5,+00300,1,99,9","07,5,+00480,1,99,9","07,99,1,99,9,99,9,99999,9,99,9,99,9","10180,1,99999,9",,,,,"MET083METAR ETNJ 111420Z 29008KT 9000 FEW007 BKN010 BKN016 05/03 Q1018 GRN WHT TEMPO GRN;",
"10122099999","2010-03-11T15:00:00","4","53.5335","7.888667","7.31","JEVER, GM","FM-15","ETNJ ","V020","290,1,N,0041,1","00240,1,C,N","009000,1,N,1","+0040,1","+0030,1","99999,9",,"07,5,+00240,1,99,9",,,"07,99,1,99,9,99,9,99999,9,99,9,99,9","10180,1,99999,9","61,1",,,,"MET071SPECI ETNJ 111457Z 29008KT 9000 -RA BKN008 04/03 Q1018 GRN FCST CANCEL;",
"10122099999","2010-03-24T06:20:00","4","53.5335","7.888667","7.31","JEVER, GM","FM-15","ETNJ ","V020","110,1,N,0046,1","05700,1,C,N","008000,1,N,1","+0050,1","+0030,1","99999,9",,"04,5,+02100,1,99,9","07,5,+05700,1,99,9",,"07,99,1,99,9,99,9,99999,9,99,9,99,9","10139,1,99999,9",,,,,"MET066METAR ETNJ 240620Z 11009KT 8000 SCT070 BKN190 05/03 Q1014 BLU BLU;",
"10122099999","2010-03-24T07:20:00","4","53.5335","7.888667","7.31","JEVER, GM","FM-15","ETNJ ","V020","110,1,N,0046,1","05700,1,C,N","008000,1,N,1","+0070,1","+0040,1","99999,9",,"02,5,+02100,1,99,9","07,5,+05700,1,99,9",,"07,99,1,99,9,99,9,99999,9,99,9,99,9","10139,1,99999,9",,,,,"MET066METAR ETNJ 240720Z 11009KT 8000 FEW070 BKN190 07/04 Q1014 BLU BLU;",
"10122099999","2010-03-24T08:20:00","4","53.5335","7.888667","7.31","JEVER, GM","FM-15","ETNJ ","V020","110,1,N,0051,1","05700,1,C,N","008000,1,N,1","+0090,1","+0040,1","99999,9",,"07,5,+05700,1,99,9",,,"07,99,1,99,9,99,9,99999,9,99,9,99,9","10139,1,99999,9",,,,,"MET059METAR ETNJ 240820Z 11010KT 8000 BKN190 09/04 Q1014 BLU BLU;",
"10122099999","2010-03-24T09:20:00","4","53.5335","7.888667","7.31","JEVER, GM","FM-15","ETNJ ","V020","110,1,N,0046,1","05700,1,C,N","009000,1,N,1","+0120,1","+0060,1","99999,9",,"07,5,+05700,1,99,9",,,"07,99,1,99,9,99,9,99999,9,99,9,99,9","10139,1,99999,9",,,,,"MET059METAR ETNJ 240920Z 11009KT 9000 BKN190 12/06 Q1014 BLU BLU;",
"10122099999","2010-03-24T10:20:00","4","53.5335","7.888667","7.31","JEVER, GM","FM-15","ETNJ ","V020","110,1,N,0051,1","05700,1,C,N","009000,1,N,1","+0130,1","+0060,1","99999,9",,"07,5,+05700,1,99,9",,,"07,99,1,99,9,99,9,99999,9,99,9,99,9","10129,1,99999,9",,,,,"MET059METAR ETNJ 241020Z 11010KT 9000 BKN190 13/06 Q1013 BLU BLU;",
"10122099999","2010-03-24T11:20:00","4","53.5335","7.888667","7.31","JEVER, GM","FM-15","ETNJ ","V020","110,1,N,0057,1","05700,1,C,N","009000,1,N,1","+0140,1","+0070,1","99999,9",,"07,5,+05700,1,99,9",,,"07,99,1,99,9,99,9,99999,9,99,9,99,9","10119,1,99999,9",,,,,"MET059METAR ETNJ 241120Z 11011KT 9000 BKN190 14/07 Q1012 BLU BLU;",
"10122099999","2010-03-24T12:20:00","4","53.5335","7.888667","7.31","JEVER, GM","FM-15","ETNJ ","V020","110,1,N,0057,1","05700,1,C,N","009000,1,N,1","+0150,1","+0070,1","99999,9",,"07,5,+05700,1,99,9",,,"07,99,1,99,9,99,9,99999,9,99,9,99,9","10119,1,99999,9",,,,,"MET059METAR ETNJ 241220Z 11011KT 9000 BKN190 15/07 Q1012 BLU BLU;",
"10122099999","2010-03-24T13:20:00","4","53.5335","7.888667","7.31","JEVER, GM","FM-15","ETNJ ","V020","110,1,N,0062,1","05700,1,C,N","011265,1,N,1","+0150,1","+0060,1","99999,9",,"07,5,+05700,1,99,9",,,"07,99,1,99,9,99,9,99999,9,99,9,99,9","10108,1,99999,9",,,,,"MET059METAR ETNJ 241320Z 11012KT 9999 BKN190 15/06 Q1011 BLU BLU;",
"10122099999","2010-03-24T14:20:00","4","53.5335","7.888667","7.31","JEVER, GM","FM-15","ETNJ ","V020","110,1,N,0062,1","05700,1,C,N","011265,1,N,1","+0160,1","+0070,1","99999,9",,"07,5,+05700,1,99,9",,,"07,99,1,99,9,99,9,99999,9,99,9,99,9","10102,1,99999,9",,,,,"MET067METAR ETNJ 241420Z 11012KT 9999 BKN190 16/07 Q1010 BLU FCST CANCEL;",
"10122099999","2010-03-25T06:20:00","4","53.5335","7.888667","7.31","JEVER, GM","FM-15","ETNJ ","V020","120,1,N,0041,1","06900,1,C,N","005000,1,N,1","+0090,1","+0060,1","99999,9",,"07,5,+06900,1,99,9",,,"07,99,1,99,9,99,9,99999,9,99,9,99,9","10081,1,99999,9","10,1",,,,"MET062METAR ETNJ 250620Z 12008KT 5000 BR BKN230 09/06 Q1008 WHT WHT;",
"10122099999","2010-03-25T07:20:00","4","53.5335","7.888667","7.31","JEVER, GM","FM-15","ETNJ ","V020","120,1,N,0041,1","06900,1,C,N","005000,1,N,1","+0110,1","+0080,1","99999,9",,"07,5,+06900,1,99,9",,,"07,99,1,99,9,99,9,99999,9,99,9,99,9","10071,1,99999,9","05,1",,,,"MET073METAR ETNJ 250720Z 12008KT 5000 HZ BKN230 11/08 Q1007 WHT WHT BECMG BLU/;",
"10122099999","2010-03-25T08:20:00","4","53.5335","7.888667","7.31","JEVER, GM","FM-15","ETNJ ","V020","110,1,N,0046,1","06900,1,C,N","006000,1,N,1","+0140,1","+0080,1","99999,9",,"07,5,+06900,1,99,9",,,"07,99,1,99,9,99,9,99999,9,99,9,99,9","10071,1,99999,9",,,,,"MET070METAR ETNJ 250820Z 11009KT 6000 BKN230 14/08 Q1007 WHT WHT BECMG BLU/;",
"10122099999","2010-03-25T09:20:00","4","53.5335","7.888667","7.31","JEVER, GM","FM-15","ETNJ ","V020","120,1,N,0046,1","06900,1,C,N","011265,1,N,1","+0160,1","+0080,1","99999,9",,"02,5,+04500,1,99,9","07,5,+06900,1,99,9",,"07,99,1,99,9,99,9,99999,9,99,9,99,9","10071,1,99999,9",,,,,"MET067METAR ETNJ 250920Z 12009KT 9999 FEW150 BKN230 16/08 Q1007 BLU/BLU/;",
"10122099999","2010-03-25T10:20:00","4","53.5335","7.888667","7.31","JEVER, GM","FM-15","ETNJ ","V020","120,1,N,0046,1","06900,1,C,N","011265,1,N,1","+0180,1","+0090,1","99999,9",,"02,5,+04500,1,99,9","07,5,+06900,1,99,9",,"07,99,1,99,9,99,9,99999,9,99,9,99,9","10061,1,99999,9",,,,,"MET067METAR ETNJ 251020Z 12009KT 9999 FEW150 BKN230 18/09 Q1006 BLU/BLU/;",
"10122099999","2010-03-25T11:20:00","4","53.5335","7.888667","7.31","JEVER, GM","FM-15","ETNJ ","V020","130,1,N,0046,1","06900,1,C,N","011265,1,N,1","+0200,1","+0090,1","99999,9",,"02,5,+04500,1,99,9","07,5,+06900,1,99,9",,"07,99,1,99,9,99,9,99999,9,99,9,99,9","10061,1,99999,9",,,,,"MET067METAR ETNJ 251120Z 13009KT 9999 FEW150 BKN230 20/09 Q1006 BLU/BLU/;",
"10122099999","2010-03-25T12:20:00","4","53.5335","7.888667","7.31","JEVER, GM","FM-15","ETNJ ","V020","130,1,N,0041,1","06900,1,C,N","011265,1,N,1","+0210,1","+0090,1","99999,9",,"04,5,+03900,1,99,9","07,5,+06900,1,99,9",,"07,99,1,99,9,99,9,99999,9,99,9,99,9","10051,1,99999,9",,,,,"MET067METAR ETNJ 251220Z 13008KT 9999 SCT130 BKN230 21/09 Q1005 BLU/BLU/;",
"10122099999","2010-03-25T13:20:00","4","53.5335","7.888667","7.31","JEVER, GM","FM-15","ETNJ ","V020","120,1,N,0041,1","06900,1,C,N","011265,1,N,1","+0200,1","+0080,1","99999,9",,"04,5,+03900,1,99,9","07,5,+06900,1,99,9",,"07,99,1,99,9,99,9,99999,9,99,9,99,9","10041,1,99999,9",,,,,"MET067METAR ETNJ 251320Z 12008KT 9999 SCT130 BKN230 20/08 Q1004 BLU/BLU/;",
"10122099999","2010-03-25T14:20:00","4","53.5335","7.888667","7.31","JEVER, GM","FM-15","ETNJ ","V020","120,1,N,0057,1","06900,1,C,N","011265,1,N,1","+0210,1","+0080,1","99999,9",,"04,5,+03300,1,99,9","07,5,+06900,1,99,9",,"07,99,1,99,9,99,9,99999,9,99,9,99,9","10041,1,99999,9",,,,,"MET067METAR ETNJ 251420Z 12011KT 9999 SCT110 BKN230 21/08 Q1004 BLU/BLU/;",
"10122099999","2010-03-25T15:00:00","4","53.5335","7.888667","7.31","JEVER, GM","FM-16","ETNJ ","V020","120,1,N,0057,1","06900,1,C,N","011265,1,N,1","+0210,1","+0080,1","99999,9",,"04,5,+03300,1,99,9","07,5,+06900,1,99,9",,"07,99,1,99,9,99,9,99999,9,99,9,99,9","10041,1,99999,9",,,,,"MET074SPECI ETNJ 251500Z 12011KT 9999 SCT110 BKN230 21/08 Q1004 BLU/FCST CANCEL;",
"10122099999","2010-04-06T05:20:00","4","53.5335","7.888667","7.31","JEVER, GM","FM-15","ETNJ ","V020","150,1,N,0031,1","01500,1,C,N","011265,1,N,1","+0060,1","+0030,1","99999,9",,"07,5,+01500,1,99,9",,,"07,99,1,99,9,99,9,99999,9,99,9,99,9","10251,1,99999,9",,,,,"MET070METAR ETNJ 060520Z 15006KT 9999 BKN050 06/03 Q1025 BLU BLU BECMG BLU/;",
"10122099999","2010-04-06T06:20:00","4","53.5335","7.888667","7.31","JEVER, GM","FM-15","ETNJ ","V020","150,1,N,0036,1","01500,1,C,N","011265,1,N,1","+0070,1","+0040,1","99999,9",,"07,5,+01500,1,99,9",,,"07,99,1,99,9,99,9,99999,9,99,9,99,9","10251,1,99999,9",,,,,"MET060METAR ETNJ 060620Z 15007KT 9999 BKN050 07/04 Q1025 BLU BLU/;",
"10122099999","2010-04-06T07:20:00","4","53.5335","7.888667","7.31","JEVER, GM","FM-15","ETNJ ","V020","150,1,N,0031,1","01500,1,C,N","011265,1,N,1","+0080,1","+0040,1","99999,9",,"07,5,+01500,1,99,9",,,"07,99,1,99,9,99,9,99999,9,99,9,99,9","10251,1,99999,9",,,,,"MET060METAR ETNJ 060720Z 15006KT 9999 BKN050 08/04 Q1025 BLU BLU/;",
"10122099999","2010-04-06T08:20:00","4","53.5335","7.888667","7.31","JEVER, GM","FM-15","ETNJ ","V020","170,1,N,0026,1","99999,9,C,N","011265,1,N,1","+0110,1","+0060,1","99999,9",,"04,5,+01650,5,99,9","04,5,+06000,1,99,9",,"04,99,1,99,9,99,9,99999,9,99,9,99,9","10251,1,99999,9",,,,,"MET067METAR ETNJ 060820Z 17005KT 9999 SCT055 SCT200 11/06 Q1025 BLU/BLU/;","P01 060003SCOCIG"
"10122099999","2010-04-06T09:20:00","4","53.5335","7.888667","7.31","JEVER, GM","FM-15","ETNJ ","V020","180,1,N,0036,1","22000,1,9,N","011265,1,N,1","+0130,1","+0050,1","99999,9",,"02,5,+01650,5,99,9",,,"02,99,1,99,9,99,9,99999,9,99,9,99,9","10240,1,99999,9",,,,,"MET060METAR ETNJ 060920Z 18007KT 9999 FEW055 13/05 Q1024 BLU/BLU/;",
"10122099999","2010-04-06T10:20:00","4","53.5335","7.888667","7.31","JEVER, GM","FM-15","ETNJ ","V020","160,1,N,0046,1","22000,1,9,N","011265,1,N,1","+0140,1","+0030,1","99999,9",,"02,5,+01500,1,99,9",,,"02,99,1,99,9,99,9,99999,9,99,9,99,9","10240,1,99999,9",,,,,"MET060METAR ETNJ 061020Z 16009KT 9999 FEW050 14/03 Q1024 BLU/BLU/;",
"10122099999","2010-04-06T11:20:00","4","53.5335","7.888667","7.31","JEVER, GM","FM-15","ETNJ ","V020","140,1,N,0046,1","01350,1,C,N","011265,1,N,1","+0140,1","+0030,1","99999,9",,"07,5,+01350,1,99,9",,,"07,99,1,99,9,99,9,99999,9,99,9,99,9","10230,1,99999,9",,,,,"MET059METAR ETNJ 061120Z 14009KT 9999 BKN045 14/03 Q1023 BLU BLU;",
"10122099999","2010-04-06T12:20:00","4","53.5335","7.888667","7.31","JEVER, GM","FM-15","ETNJ ","V020","130,1,N,0041,1","01350,1,C,N","011265,1,N,1","+0140,1","+0030,1","99999,9",,"07,5,+01350,1,99,9",,,"07,99,1,99,9,99,9,99999,9,99,9,99,9","10230,1,99999,9",,,,,"MET059METAR ETNJ 061220Z 13008KT 9999 BKN045 14/03 Q1023 BLU BLU;",
"10122099999","2010-04-06T13:20:00","4","53.5335","7.888667","7.31","JEVER, GM","FM-15","ETNJ ","V020","150,1,N,0046,1","22000,1,9,N","011265,1,N,1","+0150,1","+0030,1","99999,9",,"02,5,+01350,1,99,9",,,"02,99,1,99,9,99,9,99999,9,99,9,99,9","10220,1,99999,9",,,,,"MET060METAR ETNJ 061320Z 15009KT 9999 FEW045 15/03 Q1022 BLU/BLU/;",
"10122099999","2010-04-06T14:00:00","4","53.5335","7.888667","7.31","JEVER, GM","FM-16","ETNJ ","V020","150,1,N,0046,1","22000,1,9,N","011265,1,N,1","+0150,1","+0030,1","99999,9",,"02,5,+01350,1,99,9",,,"02,99,1,99,9,99,9,99999,9,99,9,99,9","10220,1,99999,9",,,,,"MET067SPECI ETNJ 061400Z 15009KT 9999 FEW045 15/03 Q1022 BLU/FCST CANCEL;",
"10122099999","2010-04-07T05:20:00","4","53.5335","7.888667","7.31","JEVER, GM","FM-15","ETNJ ","V020","110,1,N,0046,1","06600,1,C,N","011265,1,N,1","+0060,1","+0030,1","99999,9",,"07,5,+06600,1,99,9",,,"07,99,1,99,9,99,9,99999,9,99,9,99,9","10190,1,99999,9",,,,,"MET060METAR ETNJ 070520Z 11009KT 9999 BKN220 06/03 Q1019 BLU/BLU/;",
"10122099999","2010-04-07T06:20:00","4","53.5335","7.888667","7.31","JEVER, GM","FM-15","ETNJ ","V020","110,1,N,0046,1","06600,1,C,N","011265,1,N,1","+0070,1","+0030,1","99999,9",,"07,5,+06600,1,99,9",,,"07,99,1,99,9,99,9,99999,9,99,9,99,9","10190,1,99999,9",,,,,"MET060METAR ETNJ 070620Z 11009KT 9999 BKN220 07/03 Q1019 BLU/BLU/;",
"10122099999","2010-04-07T07:20:00","4","53.5335","7.888667","7.31","JEVER, GM","FM-15","ETNJ ","V020","120,1,N,0057,1","06600,1,C,N","011265,1,N,1","+0100,1","+0040,1","99999,9",,"07,5,+06600,1,99,9",,,"07,99,1,99,9,99,9,99999,9,99,9,99,9","10180,1,99999,9",,,,,"MET060METAR ETNJ 070720Z 12011KT 9999 BKN220 10/04 Q1018 BLU/BLU/;",
"10122099999","2010-04-07T08:20:00","4","53.5335","7.888667","7.31","JEVER, GM","FM-15","ETNJ ","V020","110,1,N,0062,1","06600,1,C,N","011265,1,N,1","+0120,1","+0040,1","99999,9",,"07,5,+06600,1,99,9",,,"07,99,1,99,9,99,9,99999,9,99,9,99,9","10180,1,99999,9",,,,,"MET060METAR ETNJ 070820Z 11012KT 9999 BKN220 12/04 Q1018 BLU/BLU/;",
"10122099999","2010-04-07T09:20:00","4","53.5335","7.888667","7.31","JEVER, GM","FM-15","ETNJ ","V020","110,1,N,0057,1","06600,1,C,N","011265,1,N,1","+0140,1","+0050,1","99999,9",,"07,5,+06600,1,99,9",,,"07,99,1,99,9,99,9,99999,9,99,9,99,9","10180,1,99999,9",,,,,"MET060METAR ETNJ 070920Z 11011KT 9999 BKN220 14/05 Q1018 BLU/BLU/;",
"10122099999","2010-04-07T10:20:00","4","53.5335","7.888667","7.31","JEVER, GM","FM-15","ETNJ ","V020","110,1,N,0057,1","06600,1,C,N","011265,1,N,1","+0160,1","+0050,1","99999,9",,"07,5,+06600,1,99,9",,,"07,99,1,99,9,99,9,99999,9,99,9,99,9","10169,1,99999,9",,,,,"MET060METAR ETNJ 071020Z 11011KT 9999 BKN220 16/05 Q1017 BLU/BLU/;",
"10122099999","2010-04-07T11:20:00","4","53.5335","7.888667","7.31","JEVER, GM","FM-15","ETNJ ","V020","130,1,N,0046,1","06600,1,C,N","011265,1,N,1","+0170,1","+0050,1","99999,9",,"07,5,+06600,1,99,9",,,"07,99,1,99,9,99,9,99999,9,99,9,99,9","10169,1,99999,9",,,,,"MET056METAR ETNJ 071120Z 13009KT 9999 BKN220 17/05 Q1017 BLU/;",
"10122099999","2010-04-07T12:20:00","4","53.5335","7.888667","7.31","JEVER, GM","FM-15","ETNJ ","V020","120,1,N,0046,1","06600,1,C,N","011265,1,N,1","+0170,1","+0040,1","99999,9",,"02,5,+03600,1,99,9","07,5,+06600,1,99,9",,"07,99,1,99,9,99,9,99999,9,99,9,99,9","10169,1,99999,9",,,,,"MET067METAR ETNJ 071220Z 12009KT 9999 FEW120 BKN220 17/04 Q1017 BLU/BLU/;",
"10122099999","2010-04-07T13:20:00","4","53.5335","7.888667","7.31","JEVER, GM","FM-15","ETNJ ","V020","150,1,N,0046,1","06600,1,C,N","011265,1,N,1","+0180,1","+0050,1","99999,9",,"04,5,+03900,1,99,9","07,5,+06600,1,99,9",,"07,99,1,99,9,99,9,99999,9,99,9,99,9","10169,1,99999,9",,,,,"MET067METAR ETNJ 071320Z 15009KT 9999 SCT130 BKN220 18/05 Q1017 BLU/BLU/;",
"10122099999","2010-04-07T14:00:00","4","53.5335","7.888667","7.31","JEVER, GM","FM-16","ETNJ ","V020","120,1,N,0046,1","06600,1,C,N","011265,1,N,1","+0190,1","+0050,1","99999,9",,"04,5,+03900,1,99,9","07,5,+06600,1,99,9",,"07,99,1,99,9,99,9,99999,9,99,9,99,9","10169,1,99999,9",,,,,"MET074SPECI ETNJ 071400Z 12009KT 9999 SCT130 BKN220 19/05 Q1017 BLU/FCST CANCEL;",
"10122099999","2010-04-12T05:20:00","4","53.5335","7.888667","7.31","JEVER, GM","FM-15","ETNJ ","V020","010,1,N,0031,1","22000,1,9,N","011265,1,N,1","+0060,1","+0030,1","99999,9",,"02,5,+03600,1,99,9",,,"02,99,1,99,9,99,9,99999,9,99,9,99,9","10261,1,99999,9",,,,,"MET060METAR ETNJ 120520Z 01006KT 9999 FEW120 06/03 Q1026 BLU/BLU/;",
"10122099999","2010-04-12T06:20:00","4","53.5335","7.888667","7.31","JEVER, GM","FM-15","ETNJ ","V020","010,1,N,0041,1","22000,1,9,N","011265,1,N,1","+0070,1","+0030,1","99999,9",,"02,5,+03600,1,99,9",,,"02,99,1,99,9,99,9,99999,9,99,9,99,9","10261,1,99999,9",,,,,"MET060METAR ETNJ 120620Z 01008KT 9999 FEW120 07/03 Q1026 BLU/BLU/;",
"10122099999","2010-04-12T07:20:00","4","53.5335","7.888667","7.31","JEVER, GM","FM-15","ETNJ ","V020","020,1,N,0051,1","22000,1,9,N","011265,1,N,1","+0080,1","+0030,1","99999,9",,"02,5,+07500,1,99,9",,,"02,99,1,99,9,99,9,99999,9,99,9,99,9","10261,1,99999,9",,,,,"MET060METAR ETNJ 120720Z 02010KT 9999 FEW250 08/03 Q1026 BLU/BLU/;",
"10122099999","2010-04-12T08:20:00","4","53.5335","7.888667","7.31","JEVER, GM","FM-15","ETNJ ","V020","030,1,N,0067,1","22000,1,9,N","011265,1,N,1","+0090,1","+0030,1","99999,9",,"02,5,+07500,1,99,9",,,"02,99,1,99,9,99,9,99999,9,99,9,99,9","10261,1,99999,9",,,,,"MET060METAR ETNJ 120820Z 03013KT 9999 FEW250 09/03 Q1026 BLU/BLU/;",
"10122099999","2010-04-12T09:20:00","4","53.5335","7.888667","7.31","JEVER, GM","FM-15","ETNJ ","V020","030,1,N,0062,1","22000,1,9,N","011265,1,N,1","+0090,1","+0030,1","99999,9",,"02,5,+07500,1,99,9",,,"02,99,1,99,9,99,9,99999,9,99,9,99,9","10251,1,99999,9",,,,,"MET060METAR ETNJ 120920Z 03012KT 9999 FEW250 09/03 Q1025 BLU/BLU/;",
"10122099999","2010-04-12T10:20:00","4","53.5335","7.888667","7.31","JEVER, GM","FM-15","ETNJ ","V020","040,1,N,0062,1","22000,1,9,N","011265,1,N,1","+0100,1","+0040,1","99999,9",,,,,,"10251,1,99999,9",,,,,"MET053METAR ETNJ 121020Z 04012KT 9999 10/04 Q1025 BLU/BLU/;",
"10122099999","2010-04-12T11:20:00","4","53.5335","7.888667","7.31","JEVER, GM","FM-15","ETNJ ","V020","030,1,N,0062,1","22000,1,9,N","011265,1,N,1","+0110,1","+0040,1","99999,9",,,,,,"10251,1,99999,9",,,,,"MET053METAR ETNJ 121120Z 03012KT 9999 11/04 Q1025 BLU/BLU/;",
"10122099999","2010-04-12T12:20:00","4","53.5335","7.888667","7.31","JEVER, GM","FM-15","ETNJ ","V020","040,1,N,0057,1","22000,1,9,N","011265,1,N,1","+0120,1","+0040,1","99999,9",,,,,,"10240,1,99999,9",,,,,"MET053METAR ETNJ 121220Z 04011KT 9999 12/04 Q1024 BLU/BLU/;",
"10122099999","2010-04-12T13:20:00","4","53.5335","7.888667","7.31","JEVER, GM","FM-15","ETNJ ","V020","030,1,N,0051,1","22000,1,9,N","011265,1,N,1","+0130,1","+0040,1","99999,9",,"02,5,+01050,1,99,9",,,"02,99,1,99,9,99,9,99999,9,99,9,99,9","10240,1,99999,9",,,,,"MET060METAR ETNJ 121320Z 03010KT 9999 FEW035 13/04 Q1024 BLU/BLU/;",
"10122099999","2010-04-12T14:00:00","4","53.5335","7.888667","7.31","JEVER, GM","FM-16","ETNJ ","V020","030,1,N,0057,1","22000,1,9,N","011265,1,N,1","+0130,1","+0040,1","99999,9",,"02,5,+01050,1,99,9",,,"02,99,1,99,9,99,9,99999,9,99,9,99,9","10230,1,99999,9",,,,,"MET067SPECI ETNJ 121400Z 03011KT 9999 FEW035 13/04 Q1023 BLU/FCST CANCEL;",
"10122099999","2010-04-13T05:20:00","4","53.5335","7.888667","7.31","JEVER, GM","FM-15","ETNJ ","V020","010,1,N,0021,1","22000,1,9,N","003000,1,N,1","+0030,1","+0030,1","99999,9",,"02,5,+07500,1,99,9",,,"02,99,1,99,9,99,9,99999,9,99,9,99,9","10220,1,99999,9","10,1",,,,"MET073METAR ETNJ 130520Z 01004KT 3000 BR FEW250 03/03 Q1022 YLO YLO BECMG BLU/;",
"10122099999","2010-04-13T06:20:00","4","53.5335","7.888667","7.31","JEVER, GM","FM-15","ETNJ ","V020","360,1,N,0021,1","22000,1,9,N","003500,1,N,1","+0060,1","+0060,1","99999,9",,"02,5,+07500,1,99,9",,,"02,99,1,99,9,99,9,99999,9,99,9,99,9","10220,1,99999,9","10,1",,,,"MET073METAR ETNJ 130620Z 36004KT 3500 BR FEW250 06/06 Q1022 YLO YLO BECMG BLU/;",
"10122099999","2010-04-13T06:36:00","4","53.5335","7.888667","7.31","JEVER, GM","FM-16","ETNJ ","V020","360,1,N,0026,1","22000,1,9,N","004000,1,N,1","+0070,1","+0060,1","99999,9",,"02,5,+07500,1,99,9",,,"02,99,1,99,9,99,9,99999,9,99,9,99,9","10220,1,99999,9","10,1",,,,"MET073SPECI ETNJ 130636Z 36005KT 4000 BR FEW250 07/06 Q1022 GRN GRN BECMG BLU/;",
"10122099999","2010-04-13T07:20:00","4","53.5335","7.888667","7.31","JEVER, GM","FM-15","ETNJ ","V020","010,1,N,0026,1","22000,1,9,N","006000,1,N,1","+0090,1","+0060,1","99999,9",,"04,5,+07500,1,99,9",,,"04,99,1,99,9,99,9,99999,9,99,9,99,9","10220,1,99999,9",,,,,"MET070METAR ETNJ 130720Z 01005KT 6000 SCT250 09/06 Q1022 WHT WHT BECMG BLU/;",
"10122099999","2010-04-13T08:20:00","4","53.5335","7.888667","7.31","JEVER, GM","FM-15","ETNJ ","V020","360,1,N,0031,1","22000,1,9,N","008000,1,N,1","+0110,1","+0050,1","99999,9",,"04,5,+07500,1,99,9",,,"04,99,1,99,9,99,9,99999,9,99,9,99,9","10220,1,99999,9",,,,,"MET060METAR ETNJ 130820Z 36006KT 8000 SCT250 11/05 Q1022 BLU/BLU/;",
"10122099999","2010-04-13T09:20:00","4","53.5335","7.888667","7.31","JEVER, GM","FM-15","ETNJ ","V020","360,1,N,0031,1","07500,1,C,N","008000,1,N,1","+0120,1","+0050,1","99999,9",,"07,5,+07500,1,99,9",,,"07,99,1,99,9,99,9,99999,9,99,9,99,9","10220,1,99999,9",,,,,"MET060METAR ETNJ 130920Z 36006KT 8000 BKN250 12/05 Q1022 BLU/BLU/;",
"10122099999","2010-04-13T10:20:00","4","53.5335","7.888667","7.31","JEVER, GM","FM-15","ETNJ ","V020","350,1,N,0031,1","07500,1,C,N","011265,1,N,1","+0120,1","+0040,1","99999,9",,"07,5,+07500,1,99,9",,,"07,99,1,99,9,99,9,99999,9,99,9,99,9","10220,1,99999,9",,,,,"MET060METAR ETNJ 131020Z 35006KT 9999 BKN250 12/04 Q1022 BLU/BLU/;",
"10122099999","2010-04-13T11:20:00","4","53.5335","7.888667","7.31","JEVER, GM","FM-15","ETNJ ","V020","330,1,N,0046,1","07500,1,C,N","011265,1,N,1","+0120,1","+0050,1","99999,9",,"07,5,+07500,1,99,9",,,"07,99,1,99,9,99,9,99999,9,99,9,99,9","10220,1,99999,9",,,,,"MET060METAR ETNJ 131120Z 33009KT 9999 BKN250 12/05 Q1022 BLU/BLU/;",
"10122099999","2010-04-13T12:20:00","4","53.5335","7.888667","7.31","JEVER, GM","FM-15","ETNJ ","V020","330,1,N,0036,1","07500,1,C,N","011265,1,N,1","+0120,1","+0050,1","99999,9",,"02,5,+00900,1,99,9","07,5,+07500,1,99,9",,"07,99,1,99,9,99,9,99999,9,99,9,99,9","10210,1,99999,9",,,,,"MET067METAR ETNJ 131220Z 33007KT 9999 FEW030 BKN250 12/05 Q1021 BLU/BLU/;",
"10122099999","2010-04-13T13:20:00","4","53.5335","7.888667","7.31","JEVER, GM","FM-15","ETNJ ","V020","320,1,N,0046,1","99999,9,C,N","011265,1,N,1","+0110,1","+0040,1","99999,9",,"02,5,+00900,1,99,9","04,5,+07500,1,99,9",,"04,99,1,99,9,99,9,99999,9,99,9,99,9","10200,1,99999,9",,,,,"MET067METAR ETNJ 131320Z 32009KT 9999 FEW030 SCT250 11/04 Q1020 BLU/BLU/;","P01 075003SCOCIG"
"10122099999","2010-04-13T14:00:00","4","53.5335","7.888667","7.31","JEVER, GM","FM-16","ETNJ ","V020","330,1,N,0041,1","99999,9,C,N","011265,1,N,1","+0110,1","+0040,1","99999,9",,"02,5,+00900,1,99,9","04,5,+07500,1,99,9",,"04,99,1,99,9,99,9,99999,9,99,9,99,9","10200,1,99999,9",,,,,"MET074SPECI ETNJ 131400Z 33008KT 9999 FEW030 SCT250 11/04 Q1020 BLU/FCST CANCEL;","P01 075003SCOCIG"
"10122099999","2010-04-14T05:20:00","4","53.5335","7.888667","7.31","JEVER, GM","FM-15","ETNJ ","V020","999,9,V,0010,1","22000,1,9,N","004000,1,N,1","+0020,1","+0020,1","99999,9",,"02,5,+03600,1,99,9",,,"02,99,1,99,9,99,9,99999,9,99,9,99,9","10200,1,99999,9","10,1","12,1",,,"MET078METAR ETNJ 140520Z VRB02KT 4000 MIFG BR FEW120 02/02 Q1020 GRN GRN BECMG BLU/;",
"10122099999","2010-04-14T06:20:00","4","53.5335","7.888667","7.31","JEVER, GM","FM-15","ETNJ ","V020","360,1,N,0026,1","22000,1,9,N","005000,1,N,1","+0060,1","+0060,1","99999,9",,,,,,"10200,1,99999,9","10,1",,,,"MET066METAR ETNJ 140620Z 36005KT 5000 BR 06/06 Q1020 WHT WHT BECMG BLU/;",
"10122099999","2010-04-14T07:20:00","4","53.5335","7.888667","7.31","JEVER, GM","FM-15","ETNJ ","V020","020,1,N,0031,1","22000,1,9,N","008000,1,N,1","+0080,1","+0050,1","99999,9",,"02,5,+07500,1,99,9",,,"02,99,1,99,9,99,9,99999,9,99,9,99,9","10200,1,99999,9",,,,,"MET060METAR ETNJ 140720Z 02006KT 8000 FEW250 08/05 Q1020 BLU/BLU/;",
"10122099999","2010-04-14T08:20:00","4","53.5335","7.888667","7.31","JEVER, GM","FM-15","ETNJ ","V020","020,1,N,0036,1","22000,1,9,N","008000,1,N,1","+0090,1","+0040,1","99999,9",,,,,,"10200,1,99999,9",,,,,"MET053METAR ETNJ 140820Z 02007KT 8000 09/04 Q1020 BLU/BLU/;",
"10122099999","2010-04-14T09:20:00","4","53.5335","7.888667","7.31","JEVER, GM","FM-15","ETNJ ","V020","040,1,N,0051,1","22000,1,9,N","008000,1,N,1","+0100,1","+0040,1","99999,9",,"02,5,+00360,1,99,9",,,"02,99,1,99,9,99,9,99999,9,99,9,99,9","10210,1,99999,9",,,,,"MET060METAR ETNJ 140920Z 04010KT 8000 FEW012 10/04 Q1021 BLU/BLU/;",
"10122099999","2010-04-14T10:20:00","4","53.5335","7.888667","7.31","JEVER, GM","FM-15","ETNJ ","V020","060,1,N,0041,1","22000,1,9,N","011265,1,N,1","+0120,1","+0040,1","99999,9",,"02,5,+00750,1,99,9",,,"02,99,1,99,9,99,9,99999,9,99,9,99,9","10200,1,99999,9",,,,,"MET060METAR ETNJ 141020Z 06008KT 9999 FEW025 12/04 Q1020 BLU/BLU/;",
"10122099999","2010-04-14T11:20:00","4","53.5335","7.888667","7.31","JEVER, GM","FM-15","ETNJ ","V020","050,1,N,0051,1","22000,1,9,N","011265,1,N,1","+0120,1","+0040,1","99999,9",,"02,5,+00750,1,99,9",,,"02,99,1,99,9,99,9,99999,9,99,9,99,9","10200,1,99999,9",,,,"0103,1","MET063METAR ETNJ 141120Z 05010G20KT 9999 FEW025 12/04 Q1020 BLU/BLU/;",
"10122099999","2010-04-14T12:20:00","4","53.5335","7.888667","7.31","JEVER, GM","FM-15","ETNJ ","V020","030,1,N,0046,1","22000,1,9,N","011265,1,N,1","+0130,1","+0040,1","99999,9",,"02,5,+00750,1,99,9",,,"02,99,1,99,9,99,9,99999,9,99,9,99,9","10200,1,99999,9",,,,,"MET060METAR ETNJ 141220Z 03009KT 9999 FEW025 13/04 Q1020 BLU/BLU/;",
"10122099999","2010-04-14T13:20:00","4","53.5335","7.888667","7.31","JEVER, GM","FM-15","ETNJ ","V020","020,1,N,0057,1","22000,1,9,N","011265,1,N,1","+0120,1","+0040,1","99999,9",,"02,5,+00900,1,99,9",,,"02,99,1,99,9,99,9,99999,9,99,9,99,9","10200,1,99999,9",,,,,"MET060METAR ETNJ 141320Z 02011KT 9999 FEW030 12/04 Q1020 BLU/BLU/;",
"10122099999","2010-04-14T14:00:00","4","53.5335","7.888667","7.31","JEVER, GM","FM-15","ETNJ ","V020","020,1,N,0062,1","22000,1,9,N","011265,1,N,1","+0120,1","+0030,1","99999,9",,"02,5,+00900,1,99,9",,,"02,99,1,99,9,99,9,99999,9,99,9,99,9","10200,1,99999,9",,,,,"MET067SPECI ETNJ 141359Z 02012KT 9999 FEW030 12/03 Q1020 BLU/FCST CANCEL;",
"10122099999","2010-04-15T05:20:00","4","53.5335","7.888667","7.31","JEVER, GM","FM-15","ETNJ ","V020","270,1,N,0015,1","22000,1,9,N","011265,1,N,1","+0010,1","+0000,1","99999,9",,,,,,"10210,1,99999,9",,,,,"MET053METAR ETNJ 150520Z 27003KT 9999 01/00 Q1021 BLU/BLU/;",
"10122099999","2010-04-15T06:20:00","4","53.5335","7.888667","7.31","JEVER, GM","FM-15","ETNJ ","V020","350,1,N,0015,1","22000,1,9,N","011265,1,N,1","+0060,1","+0040,1","99999,9",,"02,5,+07500,1,99,9",,,"02,99,1,99,9,99,9,99999,9,99,9,99,9","10210,1,99999,9",,,,,"MET060METAR ETNJ 150620Z 35003KT 9999 FEW250 06/04 Q1021 BLU/BLU/;",
"10122099999","2010-04-15T07:20:00","4","53.5335","7.888667","7.31","JEVER, GM","FM-15","ETNJ ","V020","020,1,N,0026,1","22000,1,9,N","011265,1,N,1","+0090,1","+0020,1","99999,9",,,,,,"10210,1,99999,9",,,,,"MET053METAR ETNJ 150720Z 02005KT 9999 09/02 Q1021 BLU/BLU/;",
"10122099999","2010-04-15T08:20:00","4","53.5335","7.888667","7.31","JEVER, GM","FM-15","ETNJ ","V020","010,1,N,0031,1","22000,1,9,N","011265,1,N,1","+0110,1","+0020,1","99999,9",,"02,5,+00450,1,99,9",,,"02,99,1,99,9,99,9,99999,9,99,9,99,9","10210,1,99999,9",,,,,"MET060METAR ETNJ 150820Z 01006KT 9999 FEW015 11/02 Q1021 BLU/BLU/;",
"10122099999","2010-04-15T09:20:00","4","53.5335","7.888667","7.31","JEVER, GM","FM-15","ETNJ ","V020","020,1,N,0031,1","22000,1,9,N","011265,1,N,1","+0120,1","+0010,1","99999,9",,"02,5,+01800,1,99,9",,,"02,99,1,99,9,99,9,99999,9,99,9,99,9","10210,1,99999,9",,,,,"MET060METAR ETNJ 150920Z 02006KT 9999 FEW060 12/01 Q1021 BLU/BLU/;",
"10122099999","2010-04-15T10:20:00","4","53.5335","7.888667","7.31","JEVER, GM","FM-15","ETNJ ","V020","330,1,N,0036,1","22000,1,9,N","011265,1,N,1","+0130,1","+0020,1","99999,9",,"02,5,+01200,1,99,9",,,"02,99,1,99,9,99,9,99999,9,99,9,99,9","10220,1,99999,9",,,,,"MET060METAR ETNJ 151020Z 33007KT 9999 FEW040 13/02 Q1022 BLU/BLU/;",
"10122099999","2010-04-15T11:00:00","4","53.5335","7.888667","7.31","JEVER, GM","FM-16","ETNJ ","V020","350,1,N,0031,1","22000,1,9,N","011265,1,N,1","+0130,1","+0010,1","99999,9",,"02,5,+01200,1,99,9",,,"02,99,1,99,9,99,9,99999,9,99,9,99,9","10210,1,99999,9",,,,,"MET067SPECI ETNJ 151100Z 35006KT 9999 FEW040 13/01 Q1021 BLU/FCST CANCEL;",
"10122099999","2010-04-26T05:20:00","4","53.5335","7.888667","7.31","JEVER, GM","FM-15","ETNJ ","V020","240,1,N,0021,1","01500,1,C,N","002000,1,N,1","+0100,1","+0080,1","99999,9",,"07,5,+01500,1,99,9",,,"07,99,1,99,9,99,9,99999,9,99,9,99,9","10200,1,99999,9","10,1","63,1",,,"MET065METAR ETNJ 260520Z 24004KT 2000 RA BR BKN050 10/08 Q1020 YLO YLO;",
"10122099999","2010-04-26T05:47:00","4","53.5335","7.888667","7.31","JEVER, GM","FM-16","ETNJ ","V020","250,1,N,0021,1","01200,1,C,N","001200,1,N,1","+0100,1","+0080,1","99999,9",,"07,5,+01200,1,99,9",,,"07,99,1,99,9,99,9,99999,9,99,9,99,9","10200,1,99999,9","10,1","63,1",,,"MET075SPECI ETNJ 260547Z 25004KT 1200 RA BR BKN040 10/08 Q1020 AMB YLO TEMPO AMB;",
"10122099999","2010-04-26T06:20:00","4","53.5335","7.888667","7.31","JEVER, GM","FM-15","ETNJ ","V020","230,1,N,0015,1","01200,1,C,N","001200,1,N,1","+0100,1","+0090,1","99999,9",,"07,5,+01200,1,99,9",,,"07,99,1,99,9,99,9,99999,9,99,9,99,9","10200,1,99999,9","10,1","61,1",,,"MET081METAR ETNJ 260620Z 23003KT 1200 -RA BR BKN040 10/09 Q1020 RERA AMB YLO TEMPO AMB;",
"10122099999","2010-04-26T07:20:00","4","53.5335","7.888667","7.31","JEVER, GM","FM-15","ETNJ ","V020","230,1,N,0021,1","00900,1,C,N","001200,1,N,1","+0100,1","+0090,1","99999,9",,"07,5,+00900,1,99,9","07,5,+02700,1,99,9",,"07,99,1,99,9,99,9,99999,9,99,9,99,9","10200,1,99999,9","10,1",,,,"MET079METAR ETNJ 260720Z 23004KT 1200 BR BKN030 BKN090 10/09 Q1020 AMB YLO TEMPO AMB;",
"10122099999","2010-04-26T08:20:00","4","53.5335","7.888667","7.31","JEVER, GM","FM-15","ETNJ ","V020","230,1,N,0036,1","00900,1,C,N","002000,1,N,1","+0110,1","+0100,1","99999,9","28,U,1100,9","04,5,+00180,1,99,9","07,5,+00900,1,99,9",,"07,99,1,99,9,99,9,99999,9,99,9,99,9","10200,1,99999,9","10,1",,,,"MET079METAR ETNJ 260820Z 23007KT 2000 R28/1100N BR SCT006 BKN030 11/10 Q1020 YLO YLO;",
"10122099999","2010-04-26T09:20:00","4","53.5335","7.888667","7.31","JEVER, GM","FM-15","ETNJ ","V020","220,1,N,0026,1","00180,1,C,N","002000,1,N,1","+0120,1","+0100,1","99999,9","28,U,1300,9","07,5,+00180,1,99,9","07,5,+00270,1,99,9",,"07,99,1,99,9,99,9,99999,9,99,9,99,9","10210,1,99999,9","10,1",,,,"MET079METAR ETNJ 260920Z 22005KT 2000 R28/1300N BR BKN006 BKN009 12/10 Q1021 YLO YLO;",
"10122099999","2010-04-26T10:20:00","4","53.5335","7.888667","7.31","JEVER, GM","FM-15","ETNJ ","V020","240,1,N,0036,1","00210,1,C,N","003000,1,N,1","+0120,1","+0100,1","99999,9","28,U,1900,9","07,5,+00210,1,99,9",,,"07,99,1,99,9,99,9,99999,9,99,9,99,9","10210,1,99999,9","10,1",,,,"MET072METAR ETNJ 261020Z 24007KT 3000 R28/1900U BR BKN007 12/10 Q1021 YLO YLO;",
"10122099999","2010-04-26T11:20:00","4","53.5335","7.888667","7.31","JEVER, GM","FM-15","ETNJ ","V020","230,1,N,0046,1","00180,1,C,N","003000,1,N,1","+0120,1","+0100,1","99999,9","28,U,1900,9","07,5,+00180,1,99,9",,,"07,99,1,99,9,99,9,99999,9,99,9,99,9","10210,1,99999,9","10,1","80,1",,,"MET087METAR ETNJ 261120Z 23009KT 3000 R28/1900 -SHRA BR BKN006 12/10 Q1021 YLO YLO BECMG GRN;",
"10122099999","2010-04-26T12:20:00","4","53.5335","7.888667","7.31","JEVER, GM","FM-15","ETNJ ","V020","250,1,N,0051,1","00210,1,C,N","004000,1,N,1","+0130,1","+0110,1","99999,9",,"07,5,+00210,1,99,9","07,5,+00450,1,99,9",,"07,99,1,99,9,99,9,99999,9,99,9,99,9","10210,1,99999,9","10,1",,,,"MET079METAR ETNJ 261220Z 25010KT 4000 BR BKN007 BKN015 13/11 Q1021 GRN GRN BECMG BLU;",
"10122099999","2010-04-26T13:00:00","4","53.5335","7.888667","7.31","JEVER, GM","FM-16","ETNJ ","V020","260,1,N,0057,1","00450,1,C,N","006000,1,N,1","+0140,1","+0110,1","99999,9",,"04,5,+00210,1,99,9","04,5,+00450,1,99,9","07,5,+02700,1,99,9","07,99,1,99,9,99,9,99999,9,99,9,99,9","10210,1,99999,9",,,,,"MET083SPECI ETNJ 261300Z 26011KT 6000 SCT007 SCT015 BKN090 14/11 Q1021 WHT WHT BECMG BLU;",
"10122099999","2010-04-26T13:20:00","4","53.5335","7.888667","7.31","JEVER, GM","FM-15","ETNJ ","V020","260,1,N,0062,1","02700,1,C,N","008000,1,N,1","+0150,1","+0110,1","99999,9",,"02,5,+00540,1,99,9","07,5,+02700,1,99,9",,"07,99,1,99,9,99,9,99999,9,99,9,99,9","10210,1,99999,9",,,,,"MET066METAR ETNJ 261320Z 26012KT 8000 FEW018 BKN090 15/11 Q1021 BLU BLU;",
"10122099999","2010-04-26T14:00:00","4","53.5335","7.888667","7.31","JEVER, GM","FM-15","ETNJ ","V020","280,1,N,0067,1","02700,1,C,N","011265,1,N,1","+0160,1","+0100,1","99999,9",,"02,5,+00690,1,99,9","07,5,+02700,1,99,9",,"07,99,1,99,9,99,9,99999,9,99,9,99,9","10210,1,99999,9",,,,,"MET074SPECI ETNJ 261359Z 28013KT 9999 FEW023 BKN090 16/10 Q1021 BLU FCST CANCEL;",
"10122099999","2010-04-27T05:20:00","4","53.5335","7.888667","7.31","JEVER, GM","FM-15","ETNJ ","V020","240,1,N,0026,1","01800,1,C,N","003000,1,N,1","+0090,1","+0080,1","99999,9",,"04,5,+00120,1,99,9","07,5,+01800,1,99,9",,"07,99,1,99,9,99,9,99999,9,99,9,99,9","10251,1,99999,9","10,1",,,,"MET065METAR ETNJ 270520Z 24005KT 3000 BR SCT004 BKN060 09/08 Q1025 YLO;",
"10122099999","2010-04-27T06:20:00","4","53.5335","7.888667","7.31","JEVER, GM","FM-15","ETNJ ","V020","240,1,N,0031,1","22000,1,9,N","004000,1,N,1","+0110,1","+0100,1","99999,9",,"04,5,+00150,1,99,9",,,"04,99,1,99,9,99,9,99999,9,99,9,99,9","10251,1,99999,9","10,1",,,,"MET058METAR ETNJ 270620Z 24006KT 4000 BR SCT005 11/10 Q1025 GRN;",
"10122099999","2010-04-27T06:48:00","4","53.5335","7.888667","7.31","JEVER, GM","FM-16","ETNJ ","V020","240,1,N,0031,1","22000,1,9,N","006000,1,N,1","+0120,1","+0100,1","99999,9",,"02,5,+00150,1,99,9",,,"02,99,1,99,9,99,9,99999,9,99,9,99,9","10251,1,99999,9",,,,,"MET055SPECI ETNJ 270648Z 24006KT 6000 FEW005 12/10 Q1025 WHT;",
"10122099999","2010-04-27T07:07:00","4","53.5335","7.888667","7.31","JEVER, GM","FM-16","ETNJ ","V020","250,1,N,0036,1","00240,1,C,N","008000,1,N,1","+0120,1","+0100,1","99999,9",,"07,5,+00240,1,99,9",,,"07,99,1,99,9,99,9,99999,9,99,9,99,9","10261,1,99999,9",,,,,"MET055SPECI ETNJ 270707Z 25007KT 8000 BKN008 12/10 Q1026 GRN;",
"10122099999","2010-04-27T07:20:00","4","53.5335","7.888667","7.31","JEVER, GM","FM-15","ETNJ ","V020","260,1,N,0046,1","99999,9,C,N","008000,1,N,1","+0110,1","+0090,1","99999,9",,"02,5,+00240,1,99,9","04,5,+00360,1,99,9",,"04,99,1,99,9,99,9,99999,9,99,9,99,9","10261,1,99999,9",,,,,"MET063METAR ETNJ 270720Z 26009KT 8000 FEW008 SCT012 11/09 Q1026 BLU/;","P01 003603SCOCIG"
"10122099999","2010-04-27T08:20:00","4","53.5335","7.888667","7.31","JEVER, GM","FM-15","ETNJ ","V020","270,1,N,0041,1","22000,1,9,N","011265,1,N,1","+0140,1","+0090,1","99999,9",,"04,5,+00630,1,99,9",,,"04,99,1,99,9,99,9,99999,9,99,9,99,9","10261,1,99999,9",,,,,"MET056METAR ETNJ 270820Z 27008KT 9999 SCT021 14/09 Q1026 BLU/;",
"10122099999","2010-04-27T09:20:00","4","53.5335","7.888667","7.31","JEVER, GM","FM-15","ETNJ ","V020","290,1,N,0041,1","22000,1,9,N","011265,1,N,1","+0140,1","+0080,1","99999,9",,"04,5,+00600,1,99,9",,,"04,99,1,99,9,99,9,99999,9,99,9,99,9","10261,1,99999,9",,,,,"MET056METAR ETNJ 270920Z 29008KT 9999 SCT020 14/08 Q1026 BLU/;",
"10122099999","2010-04-27T10:20:00","4","53.5335","7.888667","7.31","JEVER, GM","FM-15","ETNJ ","V020","290,1,N,0046,1","22000,1,9,N","011265,1,N,1","+0150,1","+0080,1","99999,9",,"02,5,+00750,1,99,9",,,"02,99,1,99,9,99,9,99999,9,99,9,99,9","10271,1,99999,9",,,,,"MET056METAR ETNJ 271020Z 29009KT 9999 FEW025 15/08 Q1027 BLU/;",
"10122099999","2010-04-27T11:20:00","4","53.5335","7.888667","7.31","JEVER, GM","FM-15","ETNJ ","V020","280,1,N,0041,1","22000,1,9,N","011265,1,N,1","+0160,1","+0060,1","99999,9",,"02,5,+00900,1,99,9",,,"02,99,1,99,9,99,9,99999,9,99,9,99,9","10271,1,99999,9",,,,,"MET056METAR ETNJ 271120Z 28008KT 9999 FEW030 16/06 Q1027 BLU/;",
"10122099999","2010-04-27T12:20:00","4","53.5335","7.888667","7.31","JEVER, GM","FM-15","ETNJ ","V020","290,1,N,0046,1","22000,1,9,N","011265,1,N,1","+0170,1","+0050,1","99999,9",,"02,5,+00900,1,99,9",,,"02,99,1,99,9,99,9,99999,9,99,9,99,9","10271,1,99999,9",,,,,"MET056METAR ETNJ 271220Z 29009KT 9999 FEW030 17/05 Q1027 BLU/;",
"10122099999","2010-04-27T13:20:00","4","53.5335","7.888667","7.31","JEVER, GM","FM-15","ETNJ ","V020","280,1,N,0051,1","22000,1,9,N","011265,1,N,1","+0170,1","+0050,1","99999,9",,"02,5,+01020,1,99,9",,,"02,99,1,99,9,99,9,99999,9,99,9,99,9","10271,1,99999,9",,,,,"MET056METAR ETNJ 271320Z 28010KT 9999 FEW034 17/05 Q1027 BLU/;",
"10122099999","2010-04-28T05:20:00","4","53.5335","7.888667","7.31","JEVER, GM","FM-15","ETNJ ","V020","999,9,V,0005,1","22000,1,9,N","003000,1,N,1","+0080,1","+0080,1","99999,9",,"02,5,+08100,1,99,9",,,"02,99,1,99,9,99,9,99999,9,99,9,99,9","10251,1,99999,9","10,1",,,,"MET073METAR ETNJ 280520Z VRB01KT 3000 BR FEW270 08/08 Q1025 YLO YLO BECMG BLU/;",
"10122099999","2010-04-28T06:00:00","4","53.5335","7.888667","7.31","JEVER, GM","FM-16","ETNJ ","V020","160,1,N,0010,1","22000,1,9,N","006000,1,N,1","+0110,1","+0110,1","99999,9",,"02,5,+08100,1,99,9",,,"02,99,1,99,9,99,9,99999,9,99,9,99,9","10261,1,99999,9",,,,,"MET070SPECI ETNJ 280600Z 16002KT 6000 FEW270 11/11 Q1026 WHT WHT BECMG BLU/;",
"10122099999","2010-04-28T06:20:00","4","53.5335","7.888667","7.31","JEVER, GM","FM-15","ETNJ ","V020","190,1,N,0021,1","22000,1,9,N","006000,1,N,1","+0110,1","+0090,1","99999,9",,"04,5,+08100,1,99,9",,,"04,99,1,99,9,99,9,99999,9,99,9,99,9","10261,1,99999,9",,,,,"MET070METAR ETNJ 280620Z 19004KT 6000 SCT270 11/09 Q1026 WHT WHT BECMG BLU/;",
"10122099999","2010-04-28T07:20:00","4","53.5335","7.888667","7.31","JEVER, GM","FM-15","ETNJ ","V020","200,1,N,0021,1","22000,1,9,N","011265,1,N,1","+0140,1","+0100,1","99999,9",,"04,5,+08100,1,99,9",,,"04,99,1,99,9,99,9,99999,9,99,9,99,9","10261,1,99999,9",,,,,"MET060METAR ETNJ 280720Z 20004KT 9999 SCT270 14/10 Q1026 BLU/BLU/;",
"10122099999","2010-04-28T08:20:00","4","53.5335","7.888667","7.31","JEVER, GM","FM-15","ETNJ ","V020","190,1,N,0026,1","22000,1,9,N","011265,1,N,1","+0160,1","+0090,1","99999,9",,"04,5,+08100,1,99,9",,,"04,99,1,99,9,99,9,99999,9,99,9,99,9","10251,1,99999,9",,,,,"MET060METAR ETNJ 280820Z 19005KT 9999 SCT270 16/09 Q1025 BLU/BLU/;",
"10122099999","2010-04-28T09:20:00","4","53.5335","7.888667","7.31","JEVER, GM","FM-15","ETNJ ","V020","170,1,N,0031,1","22000,1,9,N","011265,1,N,1","+0170,1","+0070,1","99999,9",,"04,5,+08100,1,99,9",,,"04,99,1,99,9,99,9,99999,9,99,9,99,9","10251,1,99999,9",,,,,"MET060METAR ETNJ 280920Z 17006KT 9999 SCT270 17/07 Q1025 BLU/BLU/;",
"10122099999","2010-04-28T10:20:00","4","53.5335","7.888667","7.31","JEVER, GM","FM-15","ETNJ ","V020","160,1,N,0036,1","22000,1,9,N","011265,1,N,1","+0180,1","+0070,1","99999,9",,"04,5,+08100,1,99,9",,,"04,99,1,99,9,99,9,99999,9,99,9,99,9","10251,1,99999,9",,,,,"MET060METAR ETNJ 281020Z 16007KT 9999 SCT270 18/07 Q1025 BLU/BLU/;",
"10122099999","2010-04-28T11:20:00","4","53.5335","7.888667","7.31","JEVER, GM","FM-15","ETNJ ","V020","190,1,N,0041,1","08100,1,C,N","011265,1,N,1","+0190,1","+0070,1","99999,9",,"02,5,+01200,1,99,9","07,5,+08100,1,99,9",,"07,99,1,99,9,99,9,99999,9,99,9,99,9","10240,1,99999,9",,,,,"MET067METAR ETNJ 281120Z 19008KT 9999 FEW040 BKN270 19/07 Q1024 BLU/BLU/;",
"10122099999","2010-04-28T12:20:00","4","53.5335","7.888667","7.31","JEVER, GM","FM-15","ETNJ ","V020","230,1,N,0036,1","08100,1,C,N","011265,1,N,1","+0200,1","+0070,1","99999,9",,"02,5,+01500,1,99,9","07,5,+08100,1,99,9",,"07,99,1,99,9,99,9,99999,9,99,9,99,9","10230,1,99999,9",,,,,"MET067METAR ETNJ 281220Z 23007KT 9999 FEW050 BKN270 20/07 Q1023 BLU/BLU/;",
"10122099999","2010-04-28T13:20:00","4","53.5335","7.888667","7.31","JEVER, GM","FM-15","ETNJ ","V020","240,1,N,0031,1","08100,1,C,N","011265,1,N,1","+0210,1","+0070,1","99999,9",,"02,5,+01500,1,99,9","07,5,+08100,1,99,9",,"07,99,1,99,9,99,9,99999,9,99,9,99,9","10230,1,99999,9",,,,,"MET067METAR ETNJ 281320Z 24006KT 9999 FEW050 BKN270 21/07 Q1023 BLU/BLU/;",
"10122099999","2010-04-28T14:00:00","4","53.5335","7.888667","7.31","JEVER, GM","FM-15","ETNJ ","V020","210,1,N,0031,1","08100,1,C,N","011265,1,N,1","+0210,1","+0070,1","99999,9",,"02,5,+01500,1,99,9","07,5,+08100,1,99,9",,"07,99,1,99,9,99,9,99999,9,99,9,99,9","10220,1,99999,9",,,,,"MET074SPECI ETNJ 281358Z 21006KT 9999 FEW050 BKN270 21/07 Q1022 BLU/FCST CANCEL;",
"10122099999","2010-04-29T05:20:00","4","53.5335","7.888667","7.31","JEVER, GM","FM-15","ETNJ ","V020","170,1,N,0031,1","06000,1,C,N","007000,1,N,1","+0140,1","+0070,1","99999,9",,"07,5,+06000,1,99,9",,,"07,99,1,99,9,99,9,99999,9,99,9,99,9","10129,1,99999,9",,,,,"MET069METAR ETNJ 290520Z 17006KT 7000 BKN200 14/07 Q1013 WHT WHT BECMG BLU;",
"10122099999","2010-04-29T06:20:00","4","53.5335","7.888667","7.31","JEVER, GM","FM-15","ETNJ ","V020","180,1,N,0031,1","06000,1,C,N","008000,1,N,1","+0160,1","+0070,1","99999,9",,"07,5,+06000,1,99,9",,,"07,99,1,99,9,99,9,99999,9,99,9,99,9","10129,1,99999,9",,,,,"MET060METAR ETNJ 290620Z 18006KT 8000 BKN200 16/07 Q1013 BLU/BLU/;",
"10122099999","2010-04-29T07:20:00","4","53.5335","7.888667","7.31","JEVER, GM","FM-15","ETNJ ","V020","200,1,N,0036,1","06000,1,C,N","011265,1,N,1","+0180,1","+0080,1","99999,9",,"07,5,+06000,1,99,9",,,"07,99,1,99,9,99,9,99999,9,99,9,99,9","10119,1,99999,9",,,,,"MET060METAR ETNJ 290720Z 20007KT 9999 BKN200 18/08 Q1012 BLU/BLU/;",
"10122099999","2010-04-29T08:20:00","4","53.5335","7.888667","7.31","JEVER, GM","FM-15","ETNJ ","V020","200,1,N,0041,1","06000,1,C,N","011265,1,N,1","+0190,1","+0080,1","99999,9",,"07,5,+06000,1,99,9",,,"07,99,1,99,9,99,9,99999,9,99,9,99,9","10119,1,99999,9",,,,,"MET060METAR ETNJ 290820Z 20008KT 9999 BKN200 19/08 Q1012 BLU/BLU/;",
"10122099999","2010-04-29T09:20:00","4","53.5335","7.888667","7.31","JEVER, GM","FM-15","ETNJ ","V020","220,1,N,0036,1","06000,1,C,N","011265,1,N,1","+0210,1","+0090,1","99999,9",,"07,5,+06000,1,99,9",,,"07,99,1,99,9,99,9,99999,9,99,9,99,9","10119,1,99999,9",,,,,"MET060METAR ETNJ 290920Z 22007KT 9999 BKN200 21/09 Q1012 BLU/BLU/;",
"10122099999","2010-04-29T10:20:00","4","53.5335","7.888667","7.31","JEVER, GM","FM-15","ETNJ ","V020","240,1,N,0041,1","06000,1,C,N","011265,1,N,1","+0210,1","+0090,1","99999,9",,"07,5,+06000,1,99,9",,,"07,99,1,99,9,99,9,99999,9,99,9,99,9","10108,1,99999,9",,,,,"MET060METAR ETNJ 291020Z 24008KT 9999 BKN200 21/09 Q1011 BLU/BLU/;",
"10122099999","2010-04-29T11:20:00","4","53.5335","7.888667","7.31","JEVER, GM","FM-15","ETNJ ","V020","220,1,N,0046,1","06000,1,C,N","011265,1,N,1","+0220,1","+0090,1","99999,9",,"08,5,+06000,1,99,9",,,"08,99,1,99,9,99,9,99999,9,99,9,99,9","10108,1,99999,9",,,,,"MET060METAR ETNJ 291120Z 22009KT 9999 OVC200 22/09 Q1011 BLU/BLU/;",
"10122099999","2010-04-29T12:20:00","4","53.5335","7.888667","7.31","JEVER, GM","FM-15","ETNJ ","V020","220,1,N,0046,1","06900,1,C,N","011265,1,N,1","+0230,1","+0090,1","99999,9",,"08,5,+06900,1,99,9",,,"08,99,1,99,9,99,9,99999,9,99,9,99,9","10102,1,99999,9",,,,,"MET060METAR ETNJ 291220Z 22009KT 9999 OVC230 23/09 Q1010 BLU/BLU/;",
"10122099999","2010-04-29T13:20:00","4","53.5335","7.888667","7.31","JEVER, GM","FM-15","ETNJ ","V020","250,1,N,0051,1","06900,1,C,N","011265,1,N,1","+0240,1","+0090,1","99999,9",,"08,5,+06900,1,99,9",,,"08,99,1,99,9,99,9,99999,9,99,9,99,9","10102,1,99999,9",,,,,"MET060METAR ETNJ 291320Z 25010KT 9999 OVC230 24/09 Q1010 BLU/BLU/;",
"10122099999","2010-04-29T14:00:00","4","53.5335","7.888667","7.31","JEVER, GM","FM-15","ETNJ ","V020","240,1,N,0051,1","06900,1,C,N","011265,1,N,1","+0240,1","+0090,1","99999,9",,"08,5,+06900,1,99,9",,,"08,99,1,99,9,99,9,99999,9,99,9,99,9","10091,1,99999,9",,,,,"MET067SPECI ETNJ 291359Z 24010KT 9999 OVC230 24/09 Q1009 BLU/FCST CANCEL;",
"10122099999","2010-05-03T05:20:00","4","53.5335","7.888667","7.31","JEVER, GM","FM-15","ETNJ ","V020","040,1,N,0036,1","00240,1,C,N","006000,1,N,1","+0070,1","+0060,1","99999,9",,"07,5,+00240,1,99,9",,,"07,99,1,99,9,99,9,99999,9,99,9,99,9","10102,1,99999,9",,,,,"MET055METAR ETNJ 030520Z 04007KT 6000 BKN008 07/06 Q1010 GRN;",
"10122099999","2010-05-03T06:20:00","4","53.5335","7.888667","7.31","JEVER, GM","FM-15","ETNJ ","V020","040,1,N,0046,1","00240,1,C,N","006000,1,N,1","+0070,1","+0050,1","99999,9",,"07,5,+00240,1,99,9",,,"07,99,1,99,9,99,9,99999,9,99,9,99,9","10108,1,99999,9","51,1",,,,"MET059METAR ETNJ 030620Z 04009KT 6000 -DZ BKN008 07/05 Q1011 GRN;",
"10122099999","2010-05-03T07:20:00","4","53.5335","7.888667","7.31","JEVER, GM","FM-15","ETNJ ","V020","040,1,N,0041,1","00240,1,C,N","008000,1,N,1","+0070,1","+0050,1","99999,9",,"07,5,+00240,1,99,9",,,"07,99,1,99,9,99,9,99999,9,99,9,99,9","10108,1,99999,9",,,,,"MET055METAR ETNJ 030720Z 04008KT 8000 BKN008 07/05 Q1011 GRN;",
"10122099999","2010-05-03T08:20:00","4","53.5335","7.888667","7.31","JEVER, GM","FM-15","ETNJ ","V020","040,1,N,0046,1","00360,1,C,N","011265,1,N,1","+0070,1","+0050,1","99999,9",,"04,5,+00240,1,99,9","07,5,+00360,1,99,9",,"07,99,1,99,9,99,9,99999,9,99,9,99,9","10108,1,99999,9",,,,,"MET062METAR ETNJ 030820Z 04009KT 9999 SCT008 BKN012 07/05 Q1011 GRN;",
"10122099999","2010-05-03T09:20:00","4","53.5335","7.888667","7.31","JEVER, GM","FM-15","ETNJ ","V020","050,1,N,0051,1","00360,1,C,N","011265,1,N,1","+0070,1","+0050,1","99999,9",,"02,5,+00240,1,99,9","07,5,+00360,1,99,9",,"07,99,1,99,9,99,9,99999,9,99,9,99,9","10119,1,99999,9",,,,,"MET062METAR ETNJ 030920Z 05010KT 9999 FEW008 BKN012 07/05 Q1012 GRN;",
"10122099999","2010-05-03T10:20:00","4","53.5335","7.888667","7.31","JEVER, GM","FM-15","ETNJ ","V020","040,1,N,0036,1","00360,1,C,N","011265,1,N,1","+0070,1","+0050,1","99999,9",,"07,5,+00360,1,99,9",,,"07,99,1,99,9,99,9,99999,9,99,9,99,9","10119,1,99999,9",,,,,"MET055METAR ETNJ 031020Z 04007KT 9999 BKN012 07/05 Q1012 GRN;",
"10122099999","2010-05-03T11:20:00","4","53.5335","7.888667","7.31","JEVER, GM","FM-15","ETNJ ","V020","030,1,N,0036,1","00510,1,C,N","011265,1,N,1","+0080,1","+0050,1","99999,9",,"04,5,+00300,1,99,9","07,5,+00510,1,99,9",,"07,99,1,99,9,99,9,99999,9,99,9,99,9","10119,1,99999,9",,,,,"MET062METAR ETNJ 031120Z 03007KT 9999 SCT010 BKN017 08/05 Q1012 WHT;",
"10122099999","2010-05-03T12:20:00","4","53.5335","7.888667","7.31","JEVER, GM","FM-15","ETNJ ","V020","040,1,N,0031,1","00600,1,C,N","011265,1,N,1","+0090,1","+0040,1","99999,9",,"02,5,+00480,1,99,9","07,5,+00600,1,99,9",,"07,99,1,99,9,99,9,99999,9,99,9,99,9","10129,1,99999,9",,,,,"MET062METAR ETNJ 031220Z 04006KT 9999 FEW016 BKN020 09/04 Q1013 WHT;",
"10122099999","2010-05-03T13:20:00","4","53.5335","7.888667","7.31","JEVER, GM","FM-15","ETNJ ","V020","030,1,N,0036,1","00810,1,C,N","011265,1,N,1","+0090,1","+0030,1","99999,9",,"04,5,+00720,1,99,9","07,5,+00810,1,99,9",,"07,99,1,99,9,99,9,99999,9,99,9,99,9","10139,1,99999,9",,,,,"MET062METAR ETNJ 031320Z 03007KT 9999 SCT024 BKN027 09/03 Q1014 BLU;",
"10122099999","2010-05-04T05:20:00","4","53.5335","7.888667","7.31","JEVER, GM","FM-15","ETNJ ","V020","310,1,N,0036,1","22000,1,9,N","011265,1,N,1","+0060,1","+0030,1","99999,9",,"04,5,+00750,1,99,9",,,"04,99,1,99,9,99,9,99999,9,99,9,99,9","10200,1,99999,9",,,,,"MET056METAR ETNJ 040520Z 31007KT 9999 SCT025 06/03 Q1020 BLU/;",
"10122099999","2010-05-04T06:20:00","4","53.5335","7.888667","7.31","JEVER, GM","FM-15","ETNJ ","V020","310,1,N,0046,1","22000,1,9,N","011265,1,N,1","+0070,1","+0020,1","99999,9",,"04,5,+00750,1,99,9",,,"04,99,1,99,9,99,9,99999,9,99,9,99,9","10210,1,99999,9",,,,,"MET056METAR ETNJ 040620Z 31009KT 9999 SCT025 07/02 Q1021 BLU/;",
"10122099999","2010-05-04T07:20:00","4","53.5335","7.888667","7.31","JEVER, GM","FM-15","ETNJ ","V020","320,1,N,0051,1","22000,1,9,N","011265,1,N,1","+0080,1","+0020,1","99999,9",,"04,5,+00840,1,99,9",,,"04,99,1,99,9,99,9,99999,9,99,9,99,9","10210,1,99999,9",,,,,"MET056METAR ETNJ 040720Z 32010KT 9999 SCT028 08/02 Q1021 BLU/;",
"10122099999","2010-05-04T08:20:00","4","53.5335","7.888667","7.31","JEVER, GM","FM-15","ETNJ ","V020","320,1,N,0051,1","99999,9,C,N","011265,1,N,1","+0080,1","+0000,1","99999,9",,"02,5,+00840,1,99,9","04,5,+01320,1,99,9",,"04,99,1,99,9,99,9,99999,9,99,9,99,9","10220,1,99999,9",,,,,"MET064METAR ETNJ 040820Z 32010KT 9999 FEW028 SCT044 08/M00 Q1022 BLU/;","P01 013203SCOCIG"
"10122099999","2010-05-04T09:20:00","4","53.5335","7.888667","7.31","JEVER, GM","FM-15","ETNJ ","V020","310,1,N,0057,1","01050,1,C,N","011265,1,N,1","+0080,1","+0010,1","99999,9",,"07,5,+01050,1,99,9",,,"07,99,1,99,9,99,9,99999,9,99,9,99,9","10220,1,99999,9",,,,,"MET055METAR ETNJ 040920Z 31011KT 9999 BKN035 08/01 Q1022 BLU;",
"10122099999","2010-05-04T10:20:00","4","53.5335","7.888667","7.31","JEVER, GM","FM-15","ETNJ ","V020","320,1,N,0062,1","22000,1,9,N","011265,1,N,1","+0090,1","+0010,1","99999,9",,"04,5,+01050,1,99,9",,,"04,99,1,99,9,99,9,99999,9,99,9,99,9","10230,1,99999,9",,,,,"MET056METAR ETNJ 041020Z 32012KT 9999 SCT035 09/01 Q1023 BLU/;",
"10122099999","2010-05-04T11:20:00","4","53.5335","7.888667","7.31","JEVER, GM","FM-15","ETNJ ","V020","320,1,N,0057,1","01050,1,C,N","011265,1,N,1","+0090,1","+0010,1","99999,9",,"07,5,+01050,1,99,9",,,"07,99,1,99,9,99,9,99999,9,99,9,99,9","10220,1,99999,9",,,,,"MET055METAR ETNJ 041120Z 32011KT 9999 BKN035 09/01 Q1022 BLU;",
"10122099999","2010-05-04T12:20:00","4","53.5335","7.888667","7.31","JEVER, GM","FM-15","ETNJ ","V020","310,1,N,0062,1","22000,1,9,N","011265,1,N,1","+0090,1","+0010,1","99999,9",,"04,5,+01050,1,99,9",,,"04,99,1,99,9,99,9,99999,9,99,9,99,9","10220,1,99999,9",,,,,"MET056METAR ETNJ 041220Z 31012KT 9999 SCT035 09/01 Q1022 BLU/;",
"10122099999","2010-05-04T13:20:00","4","53.5335","7.888667","7.31","JEVER, GM","FM-15","ETNJ ","V020","320,1,N,0067,1","01050,1,C,N","011265,1,N,1","+0090,1","+0020,1","99999,9",,"07,5,+01050,1,99,9",,,"07,99,1,99,9,99,9,99999,9,99,9,99,9","10220,1,99999,9",,,,,"MET055METAR ETNJ 041320Z 32013KT 9999 BKN035 09/02 Q1022 BLU;",
"10122099999","2010-05-05T05:20:00","4","53.5335","7.888667","7.31","JEVER, GM","FM-15","ETNJ ","V020","290,1,N,0010,1","00720,1,C,N","011265,1,N,1","+0060,1","+0060,1","99999,9",,"02,5,+00090,1,99,9","04,5,+00720,1,99,9","07,5,+00930,1,99,9","07,99,1,99,9,99,9,99999,9,99,9,99,9","10200,1,99999,9",,,,,"MET069METAR ETNJ 050520Z 29002KT 9999 FEW003 SCT024 BKN031 06/06 Q1020 BLU;",
"10122099999","2010-05-05T06:20:00","4","53.5335","7.888667","7.31","JEVER, GM","FM-15","ETNJ ","V020","999,9,V,0010,1","00600,1,C,N","011265,1,N,1","+0070,1","+0060,1","99999,9",,"02,5,+00090,1,99,9","04,5,+00600,1,99,9","07,5,+00750,1,99,9","07,99,1,99,9,99,9,99999,9,99,9,99,9","10210,1,99999,9",,,,,"MET069METAR ETNJ 050620Z VRB02KT 9999 FEW003 SCT020 BKN025 07/06 Q1021 BLU;",
"10122099999","2010-05-05T07:20:00","4","53.5335","7.888667","7.31","JEVER, GM","FM-15","ETNJ ","V020","080,1,N,0021,1","99999,9,C,N","011265,1,N,1","+0090,1","+0050,1","99999,9",,"04,5,+00540,1,99,9","04,5,+01200,1,99,9",,"04,99,1,99,9,99,9,99999,9,99,9,99,9","10210,1,99999,9",,,,,"MET063METAR ETNJ 050720Z 08004KT 9999 SCT018 SCT040 09/05 Q1021 BLU/;","P01 012003SCOCIG"
"10122099999","2010-05-05T08:20:00","4","53.5335","7.888667","7.31","JEVER, GM","FM-15","ETNJ ","V020","360,1,N,0026,1","22000,1,9,N","011265,1,N,1","+0090,1","+0020,1","99999,9",,"04,5,+00900,1,99,9",,,"04,99,1,99,9,99,9,99999,9,99,9,99,9","10210,1,99999,9",,,,,"MET056METAR ETNJ 050820Z 36005KT 9999 SCT030 09/02 Q1021 BLU/;",
"10122099999","2010-05-05T09:20:00","4","53.5335","7.888667","7.31","JEVER, GM","FM-15","ETNJ ","V020","010,1,N,0021,1","22000,1,9,N","011265,1,N,1","+0100,1","+0010,1","99999,9",,"04,5,+00900,1,99,9",,,"04,99,1,99,9,99,9,99999,9,99,9,99,9","10210,1,99999,9",,,,,"MET056METAR ETNJ 050920Z 01004KT 9999 SCT030 10/01 Q1021 BLU/;",
"10122099999","2010-05-05T10:20:00","4","53.5335","7.888667","7.31","JEVER, GM","FM-15","ETNJ ","V020","240,1,N,0026,1","22000,1,9,N","011265,1,N,1","+0100,1","-0010,1","99999,9",,"02,5,+01200,1,99,9",,,"02,99,1,99,9,99,9,99999,9,99,9,99,9","10210,1,99999,9",,,,,"MET057METAR ETNJ 051020Z 24005KT 9999 FEW040 10/M01 Q1021 BLU/;",
"10122099999","2010-05-05T11:20:00","4","53.5335","7.888667","7.31","JEVER, GM","FM-15","ETNJ ","V020","060,1,N,0026,1","22000,1,9,N","011265,1,N,1","+0100,1","-0020,1","99999,9",,"02,5,+01200,1,99,9",,,"02,99,1,99,9,99,9,99999,9,99,9,99,9","10200,1,99999,9",,,,,"MET057METAR ETNJ 051120Z 06005KT 9999 FEW040 10/M02 Q1020 BLU/;",
"10122099999","2010-05-05T12:20:00","4","53.5335","7.888667","7.31","JEVER, GM","FM-15","ETNJ ","V020","050,1,N,0036,1","22000,1,9,N","011265,1,N,1","+0100,1","+0000,1","99999,9",,"02,5,+01170,1,99,9",,,"02,99,1,99,9,99,9,99999,9,99,9,99,9","10200,1,99999,9",,,,,"MET056METAR ETNJ 051220Z 05007KT 9999 FEW039 10/00 Q1020 BLU/;",
"10122099999","2010-05-05T13:20:00","4","53.5335","7.888667","7.31","JEVER, GM","FM-15","ETNJ ","V020","040,1,N,0041,1","22000,1,9,N","011265,1,N,1","+0100,1","+0020,1","99999,9",,"02,5,+00960,1,99,9",,,"02,99,1,99,9,99,9,99999,9,99,9,99,9","10190,1,99999,9",,,,,"MET056METAR ETNJ 051320Z 04008KT 9999 FEW032 10/02 Q1019 BLU/;",
"10122099999","2010-05-06T05:20:00","4","53.5335","7.888667","7.31","JEVER, GM","FM-15","ETNJ ","V020","030,1,N,0026,1","06300,1,C,N","011265,1,N,1","+0060,1","+0030,1","99999,9",,"07,5,+06300,1,99,9",,,"07,99,1,99,9,99,9,99999,9,99,9,99,9","10119,1,99999,9",,,,,"MET060METAR ETNJ 060520Z 03005KT 9999 BKN210 06/03 Q1012 BLU/BLU/;",
"10122099999","2010-05-06T06:20:00","4","53.5335","7.888667","7.31","JEVER, GM","FM-15","ETNJ ","V020","030,1,N,0031,1","06300,1,C,N","011265,1,N,1","+0060,1","+0030,1","99999,9",,"07,5,+06300,1,99,9",,,"07,99,1,99,9,99,9,99999,9,99,9,99,9","10119,1,99999,9",,,,,"MET060METAR ETNJ 060620Z 03006KT 9999 BKN210 06/03 Q1012 BLU/BLU/;",
"10122099999","2010-05-06T07:20:00","4","53.5335","7.888667","7.31","JEVER, GM","FM-15","ETNJ ","V020","030,1,N,0036,1","06300,1,C,N","011265,1,N,1","+0070,1","+0040,1","99999,9",,"02,5,+00600,1,99,9","07,5,+06300,1,99,9",,"07,99,1,99,9,99,9,99999,9,99,9,99,9","10108,1,99999,9",,,,,"MET067METAR ETNJ 060720Z 03007KT 9999 FEW020 BKN210 07/04 Q1011 BLU/BLU/;",
"10122099999","2010-05-06T08:20:00","4","53.5335","7.888667","7.31","JEVER, GM","FM-15","ETNJ ","V020","030,1,N,0046,1","06300,1,C,N","011265,1,N,1","+0080,1","+0040,1","99999,9",,"02,5,+00450,1,99,9","07,5,+06300,1,99,9",,"07,99,1,99,9,99,9,99999,9,99,9,99,9","10108,1,99999,9",,,,,"MET077METAR ETNJ 060820Z 03009KT 9999 FEW015 BKN210 08/04 Q1011 BLU/BLU/ BECMG BLU;",
"10122099999","2010-05-06T09:20:00","4","53.5335","7.888667","7.31","JEVER, GM","FM-15","ETNJ ","V020","030,1,N,0051,1","05400,1,C,N","011265,1,N,1","+0110,1","+0050,1","99999,9",,"02,5,+00600,1,99,9","07,5,+05400,1,99,9",,"07,99,1,99,9,99,9,99999,9,99,9,99,9","10102,1,99999,9",,,,,"MET066METAR ETNJ 060920Z 03010KT 9999 FEW020 BKN180 11/05 Q1010 BLU BLU;",
"10122099999","2010-05-06T10:20:00","4","53.5335","7.888667","7.31","JEVER, GM","FM-15","ETNJ ","V020","030,1,N,0062,1","05400,1,C,N","011265,1,N,1","+0120,1","+0050,1","99999,9",,"02,5,+00780,1,99,9","07,5,+05400,1,99,9",,"07,99,1,99,9,99,9,99999,9,99,9,99,9","10102,1,99999,9",,,,,"MET066METAR ETNJ 061020Z 03012KT 9999 FEW026 BKN180 12/05 Q1010 BLU BLU;",
"10122099999","2010-05-06T11:20:00","4","53.5335","7.888667","7.31","JEVER, GM","FM-15","ETNJ ","V020","040,1,N,0062,1","05400,1,C,N","011265,1,N,1","+0130,1","+0040,1","99999,9",,"04,5,+00900,1,99,9","07,5,+05400,1,99,9",,"07,99,1,99,9,99,9,99999,9,99,9,99,9","10091,1,99999,9",,,,,"MET066METAR ETNJ 061120Z 04012KT 9999 SCT030 BKN180 13/04 Q1009 BLU BLU;",
"10122099999","2010-05-06T12:20:00","4","53.5335","7.888667","7.31","JEVER, GM","FM-15","ETNJ ","V020","020,1,N,0051,1","01500,1,C,N","011265,1,N,1","+0120,1","+0040,1","99999,9",,"04,5,+00900,1,99,9","04,5,+01500,1,99,9","07,5,+05400,1,99,9","07,99,1,99,9,99,9,99999,9,99,9,99,9","10091,1,99999,9",,,,,"MET073METAR ETNJ 061220Z 02010KT 9999 SCT030 SCT050 BKN180 12/04 Q1009 BLU BLU;",
"10122099999","2010-05-06T13:20:00","4","53.5335","7.888667","7.31","JEVER, GM","FM-15","ETNJ ","V020","030,1,N,0062,1","04500,1,C,N","011265,1,N,1","+0120,1","+0050,1","99999,9",,"04,5,+00810,1,99,9","07,5,+04500,1,99,9",,"07,99,1,99,9,99,9,99999,9,99,9,99,9","10091,1,99999,9",,,,,"MET066METAR ETNJ 061320Z 03012KT 9999 SCT027 BKN150 12/05 Q1009 BLU BLU;",
"10122099999","2010-05-06T14:00:00","4","53.5335","7.888667","7.31","JEVER, GM","FM-16","ETNJ ","V020","010,1,N,0067,1","04500,1,C,N","011265,1,N,1","+0110,1","+0050,1","99999,9",,"04,5,+00750,1,99,9","07,5,+04500,1,99,9",,"07,99,1,99,9,99,9,99999,9,99,9,99,9","10091,1,99999,9",,,,,"MET074SPECI ETNJ 061400Z 01013KT 9999 SCT025 BKN150 11/05 Q1009 BLU FCST CANCEL;",
"10122099999","2010-05-17T05:20:00","4","53.5335","7.888667","7.31","JEVER, GM","FM-15","ETNJ ","V020","210,1,N,0026,1","00060,1,C,N","001600,1,N,1","+0080,1","+0070,1","99999,9",,"07,5,+00060,1,99,9",,,"07,99,1,99,9,99,9,99999,9,99,9,99,9","10169,1,99999,9","10,1",,,,"MET072METAR ETNJ 170520Z 21005KT 1600 BR BKN002 08/07 Q1017 AMB AMB BECMG YLO;",
"10122099999","2010-05-17T06:20:00","4","53.5335","7.888667","7.31","JEVER, GM","FM-15","ETNJ ","V020","250,1,N,0051,1","00120,1,C,N","003000,1,N,1","+0080,1","+0070,1","99999,9",,"02,5,+00060,1,99,9","07,5,+00120,1,99,9",,"07,99,1,99,9,99,9,99999,9,99,9,99,9","10169,1,99999,9","10,1",,,,"MET069METAR ETNJ 170620Z 25010KT 3000 BR FEW002 BKN004 08/07 Q1017 YLO YLO;",
"10122099999","2010-05-17T06:36:00","4","53.5335","7.888667","7.31","JEVER, GM","FM-16","ETNJ ","V020","250,1,N,0036,1","22000,1,9,N","008000,1,N,1","+0100,1","+0090,1","99999,9",,"04,5,+00180,1,99,9",,,"04,99,1,99,9,99,9,99999,9,99,9,99,9","10169,1,99999,9",,,,,"MET060SPECI ETNJ 170636Z 25007KT 8000 SCT006 10/09 Q1017 BLU/BLU/;",
"10122099999","2010-05-17T07:20:00","4","53.5335","7.888667","7.31","JEVER, GM","FM-15","ETNJ ","V020","240,1,N,0036,1","22000,1,9,N","011265,1,N,1","+0120,1","+0080,1","99999,9",,"04,5,+00300,1,99,9",,,"04,99,1,99,9,99,9,99999,9,99,9,99,9","10180,1,99999,9",,,,,"MET060METAR ETNJ 170720Z 24007KT 9999 SCT010 12/08 Q1018 BLU/BLU/;",
"10122099999","2010-05-17T08:20:00","4","53.5335","7.888667","7.31","JEVER, GM","FM-15","ETNJ ","V020","250,1,N,0046,1","22000,1,9,N","011265,1,N,1","+0120,1","+0070,1","99999,9",,"04,5,+00570,1,99,9",,,"04,99,1,99,9,99,9,99999,9,99,9,99,9","10180,1,99999,9",,,,,"MET060METAR ETNJ 170820Z 25009KT 9999 SCT019 12/07 Q1018 BLU/BLU/;",
"10122099999","2010-05-17T09:20:00","4","53.5335","7.888667","7.31","JEVER, GM","FM-15","ETNJ ","V020","250,1,N,0057,1","99999,9,C,N","011265,1,N,1","+0130,1","+0070,1","99999,9",,"02,5,+00660,1,99,9","04,5,+00900,1,99,9",,"04,99,1,99,9,99,9,99999,9,99,9,99,9","10180,1,99999,9",,,,,"MET067METAR ETNJ 170920Z 25011KT 9999 FEW022 SCT030 13/07 Q1018 BLU/BLU/;","P01 009003SCOCIG"
"10122099999","2010-05-17T10:20:00","4","53.5335","7.888667","7.31","JEVER, GM","FM-15","ETNJ ","V020","260,1,N,0062,1","99999,9,C,N","011265,1,N,1","+0120,1","+0050,1","99999,9",,"02,5,+00750,1,99,9","04,5,+01440,1,99,9",,"04,99,1,99,9,99,9,99999,9,99,9,99,9","10190,1,99999,9",,,,,"MET067METAR ETNJ 171020Z 26012KT 9999 FEW025 SCT048 12/05 Q1019 BLU/BLU/;","P01 014403SCOCIG"
"10122099999","2010-05-17T11:20:00","4","53.5335","7.888667","7.31","JEVER, GM","FM-15","ETNJ ","V020","300,1,N,0046,1","01140,1,C,N","011265,1,N,1","+0120,1","+0070,1","99999,9",,"04,5,+00540,1,99,9","07,5,+01140,1,99,9",,"07,99,1,99,9,99,9,99999,9,99,9,99,9","10190,1,99999,9",,,,,"MET066METAR ETNJ 171120Z 30009KT 9999 SCT018 BKN038 12/07 Q1019 BLU BLU;",
"10122099999","2010-05-17T12:20:00","4","53.5335","7.888667","7.31","JEVER, GM","FM-15","ETNJ ","V020","300,1,N,0046,1","99999,9,C,N","011265,1,N,1","+0130,1","+0070,1","99999,9",,"04,5,+00600,1,99,9","04,5,+01500,1,99,9",,"04,99,1,99,9,99,9,99999,9,99,9,99,9","10200,1,99999,9",,,,,"MET067METAR ETNJ 171220Z 30009KT 9999 SCT020 SCT050 13/07 Q1020 BLU/BLU/;","P01 015003SCOCIG"
"10122099999","2010-05-17T13:20:00","4","53.5335","7.888667","7.31","JEVER, GM","FM-15","ETNJ ","V020","280,1,N,0057,1","99999,9,C,N","011265,1,N,1","+0140,1","+0070,1","99999,9",,"02,5,+00600,1,99,9","04,5,+01500,1,99,9",,"04,99,1,99,9,99,9,99999,9,99,9,99,9","10200,1,99999,9",,,,,"MET067METAR ETNJ 171320Z 28011KT 9999 FEW020 SCT050 14/07 Q1020 BLU/BLU/;","P01 015003SCOCIG"
"10122099999","2010-05-17T14:00:00","4","53.5335","7.888667","7.31","JEVER, GM","FM-16","ETNJ ","V020","300,1,N,0051,1","99999,9,C,N","011265,1,N,1","+0130,1","+0070,1","99999,9",,"02,5,+00600,1,99,9","04,5,+01500,1,99,9",,"04,99,1,99,9,99,9,99999,9,99,9,99,9","10200,1,99999,9",,,,,"MET082SPECI ETNJ 171400Z 30010KT 9999 FEW020 SCT050 13/07 Q1020 BLU/FCST CANCEL/BY ETNT;","P01 015003SCOCIG"
"10122099999","2010-05-18T05:20:00","4","53.5335","7.888667","7.31","JEVER, GM","FM-15","ETNJ ","V020","280,1,N,0036,1","99999,9,C,N","011265,1,N,1","+0080,1","+0070,1","99999,9",,"02,5,+00510,1,99,9","04,5,+01140,1,99,9",,"04,99,1,99,9,99,9,99999,9,99,9,99,9","10251,1,99999,9",,,,,"MET067METAR ETNJ 180520Z 28007KT 9999 FEW017 SCT038 08/07 Q1025 BLU/BLU/;","P01 011403SCOCIG"
"10122099999","2010-05-18T06:20:00","4","53.5335","7.888667","7.31","JEVER, GM","FM-15","ETNJ ","V020","290,1,N,0051,1","99999,9,C,N","011265,1,N,1","+0100,1","+0060,1","99999,9",,"02,5,+00510,1,99,9","04,5,+00660,1,99,9",,"04,99,1,99,9,99,9,99999,9,99,9,99,9","10251,1,99999,9",,,,,"MET067METAR ETNJ 180620Z 29010KT 9999 FEW017 SCT022 10/06 Q1025 BLU/BLU/;","P01 006603SCOCIG"
"10122099999","2010-05-18T07:20:00","4","53.5335","7.888667","7.31","JEVER, GM","FM-15","ETNJ ","V020","290,1,N,0057,1","99999,9,C,N","011265,1,N,1","+0100,1","+0060,1","99999,9",,"04,5,+00510,1,99,9","04,5,+01350,1,99,9",,"04,99,1,99,9,99,9,99999,9,99,9,99,9","10261,1,99999,9",,,,,"MET077METAR ETNJ 180720Z 29011KT 9999 SCT017 SCT045 10/06 Q1026 BLU/BLU/ TEMPO WHT;","P01 013503SCOCIG"
"10122099999","2010-05-18T08:20:00","4","53.5335","7.888667","7.31","JEVER, GM","FM-15","ETNJ ","V020","290,1,N,0067,1","99999,9,C,N","011265,1,N,1","+0110,1","+0060,1","99999,9",,"04,5,+00600,1,99,9","04,5,+01320,1,99,9",,"04,99,1,99,9,99,9,99999,9,99,9,99,9","10261,1,99999,9",,,,,"MET077METAR ETNJ 180820Z 29013KT 9999 SCT020 SCT044 11/06 Q1026 BLU/BLU/ TEMPO WHT;","P01 013203SCOCIG"
"10122099999","2010-05-18T09:20:00","4","53.5335","7.888667","7.31","JEVER, GM","FM-15","ETNJ ","V020","300,1,N,0062,1","99999,9,C,N","011265,1,N,1","+0110,1","+0060,1","99999,9",,"02,5,+00600,1,99,9","04,5,+01200,1,99,9",,"04,99,1,99,9,99,9,99999,9,99,9,99,9","10251,1,99999,9",,,,,"MET077METAR ETNJ 180920Z 30012KT 9999 FEW020 SCT040 11/06 Q1025 BLU/BLU/ TEMPO WHT;","P01 012003SCOCIG"
"10122099999","2010-05-18T10:20:00","4","53.5335","7.888667","7.31","JEVER, GM","FM-15","ETNJ ","V020","290,1,N,0072,1","99999,9,C,N","011265,1,N,1","+0120,1","+0060,1","99999,9",,"04,5,+00600,1,99,9","04,5,+06900,1,99,9",,"04,99,1,99,9,99,9,99999,9,99,9,99,9","10251,1,99999,9",,,,,"MET067METAR ETNJ 181020Z 29014KT 9999 SCT020 SCT230 12/06 Q1025 BLU/BLU/;","P01 069003SCOCIG"
"10122099999","2010-05-18T11:20:00","4","53.5335","7.888667","7.31","JEVER, GM","FM-15","ETNJ ","V020","290,1,N,0062,1","06900,1,C,N","011265,1,N,1","+0120,1","+0050,1","99999,9",,"04,5,+00690,1,99,9","07,5,+06900,1,99,9",,"07,99,1,99,9,99,9,99999,9,99,9,99,9","10261,1,99999,9",,,,,"MET067METAR ETNJ 181120Z 29012KT 9999 SCT023 BKN230 12/05 Q1026 BLU/BLU/;",
"10122099999","2010-05-18T12:20:00","4","53.5335","7.888667","7.31","JEVER, GM","FM-15","ETNJ ","V020","300,1,N,0067,1","06900,1,C,N","011265,1,N,1","+0120,1","+0050,1","99999,9",,"04,5,+00750,1,99,9","07,5,+06900,1,99,9",,"07,99,1,99,9,99,9,99999,9,99,9,99,9","10261,1,99999,9",,,,,"MET067METAR ETNJ 181220Z 30013KT 9999 SCT025 BKN230 12/05 Q1026 BLU/BLU/;",
"10122099999","2010-05-18T13:20:00","4","53.5335","7.888667","7.31","JEVER, GM","FM-15","ETNJ ","V020","300,1,N,0062,1","06900,1,C,N","011265,1,N,1","+0120,1","+0050,1","99999,9",,"04,5,+00750,1,99,9","07,5,+06900,1,99,9",,"07,99,1,99,9,99,9,99999,9,99,9,99,9","10261,1,99999,9",,,,,"MET067METAR ETNJ 181320Z 30012KT 9999 SCT025 BKN230 12/05 Q1026 BLU/BLU/;",
"10122099999","2010-05-18T14:00:00","4","53.5335","7.888667","7.31","JEVER, GM","FM-16","ETNJ ","V020","290,1,N,0072,1","06900,1,C,N","011265,1,N,1","+0120,1","+0050,1","99999,9",,"04,5,+00750,1,99,9","07,5,+06900,1,99,9",,"07,99,1,99,9,99,9,99999,9,99,9,99,9","10261,1,99999,9",,,,,"MET074SPECI ETNJ 181400Z 29014KT 9999 SCT025 BKN230 12/05 Q1026 BLU/FCST CANCEL;",
"10122099999","2010-05-19T05:20:00","4","53.5335","7.888667","7.31","JEVER, GM","FM-15","ETNJ ","V020","290,1,N,0062,1","00390,1,C,N","011265,1,N,1","+0090,1","+0070,1","99999,9",,"07,5,+00390,1,99,9",,,"07,99,1,99,9,99,9,99999,9,99,9,99,9","10251,1,99999,9",,,,,"MET059METAR ETNJ 190520Z 29012KT 9999 BKN013 09/07 Q1025 GRN GRN;",
"10122099999","2010-05-19T06:20:00","4","53.5335","7.888667","7.31","JEVER, GM","FM-15","ETNJ ","V020","310,1,N,0057,1","00450,1,C,N","011265,1,N,1","+0100,1","+0070,1","99999,9",,"07,5,+00450,1,99,9",,,"07,99,1,99,9,99,9,99999,9,99,9,99,9","10251,1,99999,9",,,,,"MET069METAR ETNJ 190620Z 31011KT 9999 BKN015 10/07 Q1025 WHT WHT BECMG BLU;",
"10122099999","2010-05-19T07:20:00","4","53.5335","7.888667","7.31","JEVER, GM","FM-15","ETNJ ","V020","310,1,N,0067,1","00510,1,C,N","011265,1,N,1","+0110,1","+0070,1","99999,9",,"02,5,+00360,1,99,9","07,5,+00510,1,99,9",,"07,99,1,99,9,99,9,99999,9,99,9,99,9","10261,1,99999,9",,,,,"MET076METAR ETNJ 190720Z 31013KT 9999 FEW012 BKN017 11/07 Q1026 WHT BLU TEMPO GRN;",
"10122099999","2010-05-19T08:20:00","4","53.5335","7.888667","7.31","JEVER, GM","FM-15","ETNJ ","V020","310,1,N,0067,1","00420,1,C,N","011265,1,N,1","+0110,1","+0070,1","99999,9",,"07,5,+00420,1,99,9",,,"07,99,1,99,9,99,9,99999,9,99,9,99,9","10261,1,99999,9",,,,,"MET069METAR ETNJ 190820Z 31013KT 9999 BKN014 11/07 Q1026 GRN BLU TEMPO GRN;",
"10122099999","2010-05-19T09:20:00","4","53.5335","7.888667","7.31","JEVER, GM","FM-15","ETNJ ","V020","310,1,N,0067,1","22000,1,9,N","011265,1,N,1","+0120,1","+0070,1","99999,9",,"04,5,+00420,1,99,9",,,"04,99,1,99,9,99,9,99999,9,99,9,99,9","10261,1,99999,9",,,,,"MET069METAR ETNJ 190920Z 31013KT 9999 SCT014 12/07 Q1026 BLU/BLU TEMPO GRN;",
"10122099999","2010-05-19T10:20:00","4","53.5335","7.888667","7.31","JEVER, GM","FM-15","ETNJ ","V020","310,1,N,0067,1","99999,9,C,N","011265,1,N,1","+0130,1","+0070,1","99999,9",,"04,5,+00480,1,99,9","04,5,+01500,1,99,9",,"04,99,1,99,9,99,9,99999,9,99,9,99,9","10261,1,99999,9",,,,,"MET066METAR ETNJ 191020Z 31013KT 9999 SCT016 SCT050 13/07 Q1026 BLU/BLU;","P01 015003SCOCIG"
"10122099999","2010-05-19T11:20:00","4","53.5335","7.888667","7.31","JEVER, GM","FM-15","ETNJ ","V020","300,1,N,0072,1","01500,1,C,N","011265,1,N,1","+0130,1","+0070,1","99999,9",,"02,5,+00510,1,99,9","07,5,+01500,1,99,9",,"07,99,1,99,9,99,9,99999,9,99,9,99,9","10261,1,99999,9",,,,,"MET066METAR ETNJ 191120Z 30014KT 9999 FEW017 BKN050 13/07 Q1026 BLU BLU;",
"10122099999","2010-05-19T12:20:00","4","53.5335","7.888667","7.31","JEVER, GM","FM-15","ETNJ ","V020","300,1,N,0072,1","01440,1,C,N","011265,1,N,1","+0120,1","+0070,1","99999,9",,"02,5,+00600,1,99,9","07,5,+01440,1,99,9",,"07,99,1,99,9,99,9,99999,9,99,9,99,9","10261,1,99999,9",,,,,"MET062METAR ETNJ 191220Z 30014KT 9999 FEW020 BKN048 12/07 Q1026 BLU;",
"10122099999","2010-05-19T13:20:00","4","53.5335","7.888667","7.31","JEVER, GM","FM-15","ETNJ ","V020","310,1,N,0062,1","01470,1,C,N","011265,1,N,1","+0120,1","+0070,1","99999,9",,"02,5,+00600,1,99,9","07,5,+01470,1,99,9",,"07,99,1,99,9,99,9,99999,9,99,9,99,9","10271,1,99999,9",,,,,"MET062METAR ETNJ 191320Z 31012KT 9999 FEW020 BKN049 12/07 Q1027 BLU;",
"10122099999","2010-05-20T05:20:00","4","53.5335","7.888667","7.31","JEVER, GM","FM-15","ETNJ ","V020","310,1,N,0036,1","02100,1,C,N","011265,1,N,1","+0110,1","+0050,1","99999,9",,"07,5,+02100,1,99,9",,,"07,99,1,99,9,99,9,99999,9,99,9,99,9","10281,1,99999,9",,,,,"MET059METAR ETNJ 200520Z 31007KT 9999 BKN070 11/05 Q1028 BLU BLU;",
"10122099999","2010-05-20T06:20:00","4","53.5335","7.888667","7.31","JEVER, GM","FM-15","ETNJ ","V020","320,1,N,0041,1","02400,1,C,N","011265,1,N,1","+0110,1","+0050,1","99999,9",,"07,5,+02400,1,99,9",,,"07,99,1,99,9,99,9,99999,9,99,9,99,9","10291,1,99999,9",,,,,"MET059METAR ETNJ 200620Z 32008KT 9999 BKN080 11/05 Q1029 BLU BLU;",
"10122099999","2010-05-20T07:20:00","4","53.5335","7.888667","7.31","JEVER, GM","FM-15","ETNJ ","V020","310,1,N,0051,1","99999,9,C,N","011265,1,N,1","+0120,1","+0050,1","99999,9",,"02,5,+02700,1,99,9","04,5,+06300,1,99,9",,"04,99,1,99,9,99,9,99999,9,99,9,99,9","10291,1,99999,9",,,,,"MET067METAR ETNJ 200720Z 31010KT 9999 FEW090 SCT210 12/05 Q1029 BLU/BLU/;","P01 063003SCOCIG"
"10122099999","2010-05-20T08:20:00","4","53.5335","7.888667","7.31","JEVER, GM","FM-15","ETNJ ","V020","320,1,N,0051,1","22000,1,9,N","011265,1,N,1","+0140,1","+0050,1","99999,9",,"02,5,+01500,1,99,9",,,"02,99,1,99,9,99,9,99999,9,99,9,99,9","10301,1,99999,9",,,,,"MET060METAR ETNJ 200820Z 32010KT 9999 FEW050 14/05 Q1030 BLU/BLU/;",
"10122099999","2010-05-20T09:20:00","4","53.5335","7.888667","7.31","JEVER, GM","FM-15","ETNJ ","V020","320,1,N,0057,1","22000,1,9,N","011265,1,N,1","+0140,1","+0040,1","99999,9",,"02,5,+01500,1,99,9",,,"02,99,1,99,9,99,9,99999,9,99,9,99,9","10301,1,99999,9",,,,,"MET060METAR ETNJ 200920Z 32011KT 9999 FEW050 14/04 Q1030 BLU/BLU/;",
"10122099999","2010-05-20T10:20:00","4","53.5335","7.888667","7.31","JEVER, GM","FM-15","ETNJ ","V020","300,1,N,0062,1","22000,1,9,N","011265,1,N,1","+0160,1","+0050,1","99999,9",,"02,5,+01500,1,99,9",,,"02,99,1,99,9,99,9,99999,9,99,9,99,9","10301,1,99999,9",,,,,"MET060METAR ETNJ 201020Z 30012KT 9999 FEW050 16/05 Q1030 BLU/BLU/;",
"10122099999","2010-05-20T11:20:00","4","53.5335","7.888667","7.31","JEVER, GM","FM-15","ETNJ ","V020","300,1,N,0057,1","22000,1,9,N","011265,1,N,1","+0160,1","+0040,1","99999,9",,"02,5,+03600,1,99,9",,,"02,99,1,99,9,99,9,99999,9,99,9,99,9","10301,1,99999,9",,,,,"MET060METAR ETNJ 201120Z 30011KT 9999 FEW120 16/04 Q1030 BLU/BLU/;",
"10122099999","2010-05-20T12:20:00","4","53.5335","7.888667","7.31","JEVER, GM","FM-15","ETNJ ","V020","320,1,N,0046,1","22000,1,9,N","011265,1,N,1","+0160,1","+0040,1","99999,9",,"02,5,+03600,1,99,9",,,"02,99,1,99,9,99,9,99999,9,99,9,99,9","10301,1,99999,9",,,,,"MET060METAR ETNJ 201220Z 32009KT 9999 FEW120 16/04 Q1030 BLU/BLU/;",
"10122099999","2010-05-20T13:20:00","4","53.5335","7.888667","7.31","JEVER, GM","FM-15","ETNJ ","V020","320,1,N,0057,1","22000,1,9,N","011265,1,N,1","+0160,1","+0030,1","99999,9",,"02,5,+03600,1,99,9",,,"02,99,1,99,9,99,9,99999,9,99,9,99,9","10301,1,99999,9",,,,,"MET060METAR ETNJ 201320Z 32011KT 9999 FEW120 16/03 Q1030 BLU/BLU/;",
"10122099999","2010-05-20T14:00:00","4","53.5335","7.888667","7.31","JEVER, GM","FM-16","ETNJ ","V020","310,1,N,0041,1","22000,1,9,N","011265,1,N,1","+0160,1","+0020,1","99999,9",,"02,5,+03600,1,99,9",,,"02,99,1,99,9,99,9,99999,9,99,9,99,9","10301,1,99999,9",,,,,"MET067SPECI ETNJ 201400Z 31008KT 9999 FEW120 16/02 Q1030 BLU/FCST CANCEL;",
"10122099999","2010-05-25T05:20:00","4","53.5335","7.888667","7.31","JEVER, GM","FM-15","ETNJ ","V020","270,1,N,0036,1","22000,1,9,N","011265,1,N,1","+0100,1","+0060,1","99999,9",,"02,5,+00600,1,99,9",,,"02,99,1,99,9,99,9,99999,9,99,9,99,9","10108,1,99999,9",,,,,"MET060METAR ETNJ 250520Z 27007KT 9999 FEW020 10/06 Q1011 BLU/BLU/;",
"10122099999","2010-05-25T06:20:00","4","53.5335","7.888667","7.31","JEVER, GM","FM-15","ETNJ ","V020","270,1,N,0051,1","99999,9,C,N","011265,1,N,1","+0110,1","+0050,1","99999,9",,"04,5,+00660,1,99,9","04,5,+01350,1,99,9",,"04,99,1,99,9,99,9,99999,9,99,9,99,9","10108,1,99999,9",,,,,"MET067METAR ETNJ 250620Z 27010KT 9999 SCT022 SCT045 11/05 Q1011 BLU/BLU/;","P01 013503SCOCIG"
"10122099999","2010-05-25T07:20:00","4","53.5335","7.888667","7.31","JEVER, GM","FM-15","ETNJ ","V020","280,1,N,0051,1","99999,9,C,N","011265,1,N,1","+0110,1","+0050,1","99999,9",,"02,5,+00750,1,99,9","04,5,+01500,1,99,9",,"04,99,1,99,9,99,9,99999,9,99,9,99,9","10108,1,99999,9",,,,,"MET067METAR ETNJ 250720Z 28010KT 9999 FEW025 SCT050 11/05 Q1011 BLU/BLU/;","P01 015003SCOCIG"
"10122099999","2010-05-25T08:20:00","4","53.5335","7.888667","7.31","JEVER, GM","FM-15","ETNJ ","V020","280,1,N,0062,1","22000,1,9,N","011265,1,N,1","+0120,1","+0050,1","99999,9",,"04,5,+00750,1,99,9",,,"04,99,1,99,9,99,9,99999,9,99,9,99,9","10119,1,99999,9",,,,,"MET060METAR ETNJ 250820Z 28012KT 9999 SCT025 12/05 Q1012 BLU/BLU/;",
"10122099999","2010-05-25T09:20:00","4","53.5335","7.888667","7.31","JEVER, GM","FM-15","ETNJ ","V020","290,1,N,0072,1","22000,1,9,N","011265,1,N,1","+0120,1","+0040,1","99999,9",,"04,5,+00900,1,99,9",,,"04,99,1,99,9,99,9,99999,9,99,9,99,9","10129,1,99999,9",,,,,"MET060METAR ETNJ 250920Z 29014KT 9999 SCT030 12/04 Q1013 BLU/BLU/;",
"10122099999","2010-05-25T10:20:00","4","53.5335","7.888667","7.31","JEVER, GM","FM-15","ETNJ ","V020","290,1,N,0072,1","01410,1,C,N","011265,1,N,1","+0120,1","+0030,1","99999,9",,"02,5,+00900,1,99,9","07,5,+01410,1,99,9",,"07,99,1,99,9,99,9,99999,9,99,9,99,9","10119,1,99999,9",,,,,"MET066METAR ETNJ 251020Z 29014KT 9999 FEW030 BKN047 12/03 Q1012 BLU BLU;",
"10122099999","2010-05-25T11:20:00","4","53.5335","7.888667","7.31","JEVER, GM","FM-15","ETNJ ","V020","280,1,N,0067,1","99999,9,C,N","011265,1,N,1","+0130,1","+0030,1","99999,9",,"02,5,+00900,1,99,9","04,5,+01350,1,99,9",,"04,99,1,99,9,99,9,99999,9,99,9,99,9","10129,1,99999,9",,,,,"MET067METAR ETNJ 251120Z 28013KT 9999 FEW030 SCT045 13/03 Q1013 BLU/BLU/;","P01 013503SCOCIG"
"10122099999","2010-05-25T12:20:00","4","53.5335","7.888667","7.31","JEVER, GM","FM-15","ETNJ ","V020","300,1,N,0062,1","22000,1,9,N","011265,1,N,1","+0130,1","+0040,1","99999,9",,"04,5,+01020,1,99,9",,,"04,99,1,99,9,99,9,99999,9,99,9,99,9","10129,1,99999,9",,,,,"MET060METAR ETNJ 251220Z 30012KT 9999 SCT034 13/04 Q1013 BLU/BLU/;",
"10122099999","2010-05-25T13:20:00","4","53.5335","7.888667","7.31","JEVER, GM","FM-15","ETNJ ","V020","300,1,N,0067,1","22000,1,9,N","011265,1,N,1","+0120,1","+0050,1","99999,9",,"04,5,+01080,1,99,9",,,"04,99,1,99,9,99,9,99999,9,99,9,99,9","10129,1,99999,9",,,,,"MET060METAR ETNJ 251320Z 30013KT 9999 SCT036 12/05 Q1013 BLU/BLU/;",
"10122099999","2010-05-25T14:00:00","4","53.5335","7.888667","7.31","JEVER, GM","FM-15","ETNJ ","V020","290,1,N,0067,1","22000,1,9,N","011265,1,N,1","+0130,1","+0030,1","99999,9",,"04,5,+01080,1,99,9",,,"04,99,1,99,9,99,9,99999,9,99,9,99,9","10129,1,99999,9",,,,,"MET067SPECI ETNJ 251359Z 29013KT 9999 SCT036 13/03 Q1013 BLU/FCST CANCEL;",
"10122099999","2010-05-26T05:20:00","4","53.5335","7.888667","7.31","JEVER, GM","FM-15","ETNJ ","V020","270,1,N,0010,1","22000,1,9,N","011265,1,N,1","+0080,1","+0080,1","99999,9",,"02,5,+00750,1,99,9",,,"02,99,1,99,9,99,9,99999,9,99,9,99,9","10119,1,99999,9",,,,,"MET060METAR ETNJ 260520Z 27002KT 9999 FEW025 08/08 Q1012 BLU/BLU/;",
"10122099999","2010-05-26T06:20:00","4","53.5335","7.888667","7.31","JEVER, GM","FM-15","ETNJ ","V020","310,1,N,0015,1","99999,9,C,N","011265,1,N,1","+0110,1","+0060,1","99999,9",,"02,5,+00750,1,99,9","04,5,+06300,1,99,9",,"04,99,1,99,9,99,9,99999,9,99,9,99,9","10119,1,99999,9",,,,,"MET067METAR ETNJ 260620Z 31003KT 9999 FEW025 SCT210 11/06 Q1012 BLU/BLU/;","P01 063003SCOCIG"
"10122099999","2010-05-26T07:20:00","4","53.5335","7.888667","7.31","JEVER, GM","FM-15","ETNJ ","V020","350,1,N,0021,1","99999,9,C,N","011265,1,N,1","+0110,1","+0030,1","99999,9",,"04,5,+01050,1,99,9","04,5,+07500,1,99,9",,"04,99,1,99,9,99,9,99999,9,99,9,99,9","10108,1,99999,9",,,,,"MET067METAR ETNJ 260720Z 35004KT 9999 SCT035 SCT250 11/03 Q1011 BLU/BLU/;","P01 075003SCOCIG"
"10122099999","2010-05-26T08:20:00","4","53.5335","7.888667","7.31","JEVER, GM","FM-15","ETNJ ","V020","030,1,N,0021,1","99999,9,C,N","011265,1,N,1","+0120,1","+0030,1","99999,9",,"04,5,+01050,1,99,9","04,5,+07500,1,99,9",,"04,99,1,99,9,99,9,99999,9,99,9,99,9","10119,1,99999,9",,,,,"MET067METAR ETNJ 260820Z 03004KT 9999 SCT035 SCT250 12/03 Q1012 BLU/BLU/;","P01 075003SCOCIG"
"10122099999","2010-05-26T08:43:00","4","53.5335","7.888667","7.31","JEVER, GM","FM-16","ETNJ ","V020","070,1,N,0021,1","99999,9,C,N","011265,1,N,1","+0120,1","+0030,1","99999,9",,"04,5,+01110,1,99,9","04,5,+07500,1,99,9",,"04,99,1,99,9,99,9,99999,9,99,9,99,9","10108,1,99999,9",,,,,"MET067SPECI ETNJ 260843Z 07004KT 9999 SCT037 SCT250 12/03 Q1011 BLU/BLU/;","P01 075003SCOCIG"
"10122099999","2010-05-26T09:20:00","4","53.5335","7.888667","7.31","JEVER, GM","FM-15","ETNJ ","V020","040,1,N,0021,1","99999,9,C,N","011265,1,N,1","+0120,1","+0020,1","99999,9",,"04,5,+01200,1,99,9","04,5,+07500,1,99,9",,"04,99,1,99,9,99,9,99999,9,99,9,99,9","10108,1,99999,9",,,,,"MET067METAR ETNJ 260920Z 04004KT 9999 SCT040 SCT250 12/02 Q1011 BLU/BLU/;","P01 075003SCOCIG"
"10122099999","2010-05-26T10:20:00","4","53.5335","7.888667","7.31","JEVER, GM","FM-15","ETNJ ","V020","020,1,N,0026,1","07500,1,C,N","011265,1,N,1","+0120,1","+0030,1","99999,9",,"04,5,+01200,1,99,9","07,5,+07500,1,99,9",,"07,99,1,99,9,99,9,99999,9,99,9,99,9","10108,1,99999,9",,,,,"MET067METAR ETNJ 261020Z 02005KT 9999 SCT040 BKN250 12/03 Q1011 BLU/BLU/;",
"10122099999","2010-05-26T11:20:00","4","53.5335","7.888667","7.31","JEVER, GM","FM-15","ETNJ ","V020","030,1,N,0021,1","06300,1,C,N","011265,1,N,1","+0130,1","+0020,1","99999,9",,"04,5,+01500,1,99,9","07,5,+06300,1,99,9",,"07,99,1,99,9,99,9,99999,9,99,9,99,9","10108,1,99999,9",,,,,"MET067METAR ETNJ 261120Z 03004KT 9999 SCT050 BKN210 13/02 Q1011 BLU/BLU/;",
"10122099999","2010-05-26T12:20:00","4","53.5335","7.888667","7.31","JEVER, GM","FM-15","ETNJ ","V020","020,1,N,0031,1","06300,1,C,N","011265,1,N,1","+0130,1","+0020,1","99999,9",,"04,5,+01500,1,99,9","07,5,+06300,1,99,9",,"07,99,1,99,9,99,9,99999,9,99,9,99,9","10108,1,99999,9",,,,,"MET067METAR ETNJ 261220Z 02006KT 9999 SCT050 BKN210 13/02 Q1011 BLU/BLU/;",
"10122099999","2010-05-26T13:20:00","4","53.5335","7.888667","7.31","JEVER, GM","FM-15","ETNJ ","V020","010,1,N,0021,1","06300,1,C,N","011265,1,N,1","+0130,1","+0030,1","99999,9",,"04,5,+01500,1,99,9","07,5,+06300,1,99,9",,"07,99,1,99,9,99,9,99999,9,99,9,99,9","10108,1,99999,9",,,,,"MET067METAR ETNJ 261320Z 01004KT 9999 SCT050 BKN210 13/03 Q1011 BLU/BLU/;",
"10122099999","2010-05-26T14:00:00","4","53.5335","7.888667","7.31","JEVER, GM","FM-16","ETNJ ","V020","020,1,N,0041,1","06300,1,C,N","011265,1,N,1","+0120,1","+0040,1","99999,9",,"02,5,+01140,1,99,9","07,5,+06300,1,99,9",,"07,99,1,99,9,99,9,99999,9,99,9,99,9","10102,1,99999,9",,,,,"MET074SPECI ETNJ 261400Z 02008KT 9999 FEW038 BKN210 12/04 Q1010 BLU/FCST CANCEL;",
"10122099999","2010-05-27T05:20:00","4","53.5335","7.888667","7.31","JEVER, GM","FM-15","ETNJ ","V020","030,1,N,0026,1","22000,1,9,N","011265,1,N,1","+0100,1","+0060,1","99999,9",,"04,5,+02100,1,99,9",,,"04,99,1,99,9,99,9,99999,9,99,9,99,9","10081,1,99999,9",,,,,"MET060METAR ETNJ 270520Z 03005KT 9999 SCT070 10/06 Q1008 BLU/BLU/;",
"10122099999","2010-05-27T06:20:00","4","53.5335","7.888667","7.31","JEVER, GM","FM-15","ETNJ ","V020","030,1,N,0036,1","99999,9,C,N","011265,1,N,1","+0110,1","+0060,1","99999,9",,"02,5,+00600,1,99,9","04,5,+01650,5,99,9",,"04,99,1,99,9,99,9,99999,9,99,9,99,9","10091,1,99999,9",,,,,"MET067METAR ETNJ 270620Z 03007KT 9999 FEW020 SCT055 11/06 Q1009 BLU/BLU/;","P01 016503SCOCIG"
"10122099999","2010-05-27T07:20:00","4","53.5335","7.888667","7.31","JEVER, GM","FM-15","ETNJ ","V020","040,1,N,0031,1","99999,9,C,N","011265,1,N,1","+0110,1","+0060,1","99999,9",,"02,5,+00600,1,99,9","04,5,+04500,1,99,9",,"04,99,1,99,9,99,9,99999,9,99,9,99,9","10091,1,99999,9",,,,,"MET067METAR ETNJ 270720Z 04006KT 9999 FEW020 SCT150 11/06 Q1009 BLU/BLU/;","P01 045003SCOCIG"
"10122099999","2010-05-27T08:20:00","4","53.5335","7.888667","7.31","JEVER, GM","FM-15","ETNJ ","V020","060,1,N,0026,1","03900,1,C,N","011265,1,N,1","+0130,1","+0060,1","99999,9",,"02,5,+00750,1,99,9","04,5,+03900,1,99,9","07,5,+06300,1,99,9","07,99,1,99,9,99,9,99999,9,99,9,99,9","10091,1,99999,9",,,,,"MET074METAR ETNJ 270820Z 06005KT 9999 FEW025 SCT130 BKN210 13/06 Q1009 BLU/BLU/;",
"10122099999","2010-05-27T09:20:00","4","53.5335","7.888667","7.31","JEVER, GM","FM-15","ETNJ ","V020","080,1,N,0031,1","03900,1,C,N","011265,1,N,1","+0140,1","+0050,1","99999,9",,"02,5,+00750,1,99,9","07,5,+03900,1,99,9","07,5,+06300,1,99,9","07,99,1,99,9,99,9,99999,9,99,9,99,9","10091,1,99999,9",,,,,"MET073METAR ETNJ 270920Z 08006KT 9999 FEW025 BKN130 BKN210 14/05 Q1009 BLU BLU;",
"10122099999","2010-05-27T10:20:00","4","53.5335","7.888667","7.31","JEVER, GM","FM-15","ETNJ ","V020","010,1,N,0021,1","03900,1,C,N","011265,1,N,1","+0140,1","+0040,1","99999,9",,"02,5,+00750,1,99,9","04,5,+03900,1,99,9","07,5,+06300,1,99,9","07,99,1,99,9,99,9,99999,9,99,9,99,9","10091,1,99999,9",,,,,"MET073METAR ETNJ 271020Z 01004KT 9999 FEW025 SCT130 BKN210 14/04 Q1009 BLU/BLU;",
"10122099999","2010-05-27T11:20:00","4","53.5335","7.888667","7.31","JEVER, GM","FM-15","ETNJ ","V020","999,9,V,0010,1","03300,1,C,N","011265,1,N,1","+0150,1","+0040,1","99999,9",,"04,5,+01050,1,99,9","07,5,+03300,1,99,9","07,5,+06300,1,99,9","07,99,1,99,9,99,9,99999,9,99,9,99,9","10091,1,99999,9",,,,,"MET073METAR ETNJ 271120Z VRB02KT 9999 SCT035 BKN110 BKN210 15/04 Q1009 BLU BLU;",
"10122099999","2010-05-27T12:20:00","4","53.5335","7.888667","7.31","JEVER, GM","FM-15","ETNJ ","V020","020,1,N,0026,1","01290,1,C,N","011265,1,N,1","+0140,1","+0050,1","99999,9",,"04,5,+00900,1,99,9","07,5,+01290,1,99,9",,"07,99,1,99,9,99,9,99999,9,99,9,99,9","10091,1,99999,9",,,,,"MET066METAR ETNJ 271220Z 02005KT 9999 SCT030 BKN043 14/05 Q1009 BLU BLU;",
"10122099999","2010-05-27T13:20:00","4","53.5335","7.888667","7.31","JEVER, GM","FM-15","ETNJ ","V020","030,1,N,0036,1","99999,9,C,N","011265,1,N,1","+0150,1","+0060,1","99999,9",,"04,5,+01050,1,99,9","04,5,+01500,1,99,9",,"04,99,1,99,9,99,9,99999,9,99,9,99,9","10091,1,99999,9",,,,,"MET067METAR ETNJ 271320Z 03007KT 9999 SCT035 SCT050 15/06 Q1009 BLU/BLU/;","P01 015003SCOCIG"
"10122099999","2010-05-27T14:00:00","4","53.5335","7.888667","7.31","JEVER, GM","FM-15","ETNJ ","V020","080,1,N,0031,1","01800,1,C,N","011265,1,N,1","+0150,1","+0050,1","99999,9",,"04,5,+01050,1,99,9","07,5,+01800,1,99,9",,"07,99,1,99,9,99,9,99999,9,99,9,99,9","10091,1,99999,9",,,,,"MET074SPECI ETNJ 271357Z 08006KT 9999 SCT035 BKN060 15/05 Q1009 BLU FCST CANCEL;",
"10122099999","2010-06-28T05:24:00","4","53.5335","7.888667","7.31","JEVER, GM","FM-16","ETNJ ","V020","110,1,N,0036,1","09600,5,C,N","011265,1,N,1","+0190,1","+0140,1","99999,9",,"07,5,+09600,5,99,9",,,"07,99,1,99,9,99,9,99999,9,99,9,99,9","10190,1,99999,9",,,,,"MET060SPECI ETNJ 280524Z 11007KT 9999 BKN320 19/14 Q1019 BLU/BLU/;",
"10122099999","2010-06-28T06:20:00","4","53.5335","7.888667","7.31","JEVER, GM","FM-15","ETNJ ","V020","120,1,N,0031,1","22000,1,9,N","011265,1,N,1","+0210,1","+0140,1","99999,9",,"04,5,+09600,5,99,9",,,"04,99,1,99,9,99,9,99999,9,99,9,99,9","10190,1,99999,9",,,,,"MET060METAR ETNJ 280620Z 12006KT 9999 SCT320 21/14 Q1019 BLU/BLU/;",
"10122099999","2010-06-28T07:20:00","4","53.5335","7.888667","7.31","JEVER, GM","FM-15","ETNJ ","V020","130,1,N,0031,1","22000,1,9,N","011265,1,N,1","+0230,1","+0150,1","99999,9",,"04,5,+08100,1,99,9",,,"04,99,1,99,9,99,9,99999,9,99,9,99,9","10190,1,99999,9",,,,,"MET060METAR ETNJ 280720Z 13006KT 9999 SCT270 23/15 Q1019 BLU/BLU/;",
"10122099999","2010-06-28T08:20:00","4","53.5335","7.888667","7.31","JEVER, GM","FM-15","ETNJ ","V020","110,1,N,0026,1","22000,1,9,N","011265,1,N,1","+0260,1","+0160,1","99999,9",,"02,5,+08100,1,99,9",,,"02,99,1,99,9,99,9,99999,9,99,9,99,9","10190,1,99999,9",,,,,"MET060METAR ETNJ 280820Z 11005KT 9999 FEW270 26/16 Q1019 BLU/BLU/;",
"10122099999","2010-06-28T09:20:00","4","53.5335","7.888667","7.31","JEVER, GM","FM-15","ETNJ ","V020","110,1,N,0031,1","22000,1,9,N","011265,1,N,1","+0280,1","+0150,1","99999,9",,"02,5,+08100,1,99,9",,,"02,99,1,99,9,99,9,99999,9,99,9,99,9","10190,1,99999,9",,,,,"MET060METAR ETNJ 280920Z 11006KT 9999 FEW270 28/15 Q1019 BLU/BLU/;",
"10122099999","2010-06-28T10:20:00","4","53.5335","7.888667","7.31","JEVER, GM","FM-15","ETNJ ","V020","110,1,N,0036,1","22000,1,9,N","011265,1,N,1","+0280,1","+0130,1","99999,9",,"02,5,+01200,1,99,9",,,"02,99,1,99,9,99,9,99999,9,99,9,99,9","10190,1,99999,9",,,,,"MET060METAR ETNJ 281020Z 11007KT 9999 FEW040 28/13 Q1019 BLU/BLU/;",
"10122099999","2010-06-28T11:20:00","4","53.5335","7.888667","7.31","JEVER, GM","FM-15","ETNJ ","V020","140,1,N,0036,1","22000,1,9,N","011265,1,N,1","+0290,1","+0120,1","99999,9",,"02,5,+01200,1,99,9",,,"02,99,1,99,9,99,9,99999,9,99,9,99,9","10190,1,99999,9",,,,,"MET060METAR ETNJ 281120Z 14007KT 9999 FEW040 29/12 Q1019 BLU/BLU/;",
"10122099999","2010-06-28T12:20:00","4","53.5335","7.888667","7.31","JEVER, GM","FM-15","ETNJ ","V020","120,1,N,0021,1","22000,1,9,N","011265,1,N,1","+0300,1","+0120,1","99999,9",,"02,5,+01800,1,99,9",,,"02,99,1,99,9,99,9,99999,9,99,9,99,9","10180,1,99999,9",,,,,"MET060METAR ETNJ 281220Z 12004KT 9999 FEW060 30/12 Q1018 BLU/BLU/;",
"10122099999","2010-06-28T13:20:00","4","53.5335","7.888667","7.31","JEVER, GM","FM-15","ETNJ ","V020","060,1,N,0026,1","99999,9,C,N","011265,1,N,1","+0300,1","+0110,1","99999,9",,"02,5,+01800,1,99,9","04,5,+07500,1,99,9",,"04,99,1,99,9,99,9,99999,9,99,9,99,9","10180,1,99999,9",,,,,"MET067METAR ETNJ 281320Z 06005KT 9999 FEW060 SCT250 30/11 Q1018 BLU/BLU/;","P01 075003SCOCIG"
"10122099999","2010-06-28T14:00:00","4","53.5335","7.888667","7.31","JEVER, GM","FM-16","ETNJ ","V020","060,1,N,0026,1","22000,1,9,N","011265,1,N,1","+0300,1","+0110,1","99999,9",,"02,5,+01800,1,99,9",,,"02,99,1,99,9,99,9,99999,9,99,9,99,9","10180,1,99999,9",,,,,"MET067SPECI ETNJ 281400Z 06005KT 9999 FEW060 30/11 Q1018 BLU/FCST CANCEL;",
"10122099999","2010-06-29T05:20:00","4","53.5335","7.888667","7.31","JEVER, GM","FM-15","ETNJ ","V020","260,1,N,0026,1","22000,1,9,N","000800,1,N,1","+0160,1","+0160,1","99999,9",,"02,5,+01800,1,99,9",,,"02,99,1,99,9,99,9,99999,9,99,9,99,9","10169,1,99999,9","44,1",,,,"MET073METAR ETNJ 290520Z 26005KT 0800 FG FEW060 16/16 Q1017 AMB AMB BECMG BLU/;",
"10122099999","2010-06-29T05:34:00","4","53.5335","7.888667","7.31","JEVER, GM","FM-16","ETNJ ","V020","270,1,N,0026,1","22000,1,9,N","002000,1,N,1","+0160,1","+0160,1","99999,9",,"02,5,+01800,1,99,9",,,"02,99,1,99,9,99,9,99999,9,99,9,99,9","10169,1,99999,9","10,1",,,,"MET073SPECI ETNJ 290534Z 27005KT 2000 BR FEW060 16/16 Q1017 YLO YLO BECMG BLU/;",
"10122099999","2010-06-29T06:20:00","4","53.5335","7.888667","7.31","JEVER, GM","FM-15","ETNJ ","V020","270,1,N,0031,1","22000,1,9,N","006000,1,N,1","+0180,1","+0170,1","99999,9",,,,,,"10180,1,99999,9",,,,,"MET063METAR ETNJ 290620Z 27006KT 6000 18/17 Q1018 WHT WHT BECMG BLU/;",
"10122099999","2010-06-29T07:20:00","4","53.5335","7.888667","7.31","JEVER, GM","FM-15","ETNJ ","V020","290,1,N,0031,1","22000,1,9,N","011265,1,N,1","+0220,1","+0160,1","99999,9",,"02,5,+02100,1,99,9",,,"02,99,1,99,9,99,9,99999,9,99,9,99,9","10180,1,99999,9",,,,,"MET060METAR ETNJ 290720Z 29006KT 9999 FEW070 22/16 Q1018 BLU/BLU/;",
"10122099999","2010-06-29T08:20:00","4","53.5335","7.888667","7.31","JEVER, GM","FM-15","ETNJ ","V020","270,1,N,0031,1","22000,1,9,N","011265,1,N,1","+0230,1","+0160,1","99999,9",,"02,5,+06600,1,99,9",,,"02,99,1,99,9,99,9,99999,9,99,9,99,9","10180,1,99999,9",,,,,"MET060METAR ETNJ 290820Z 27006KT 9999 FEW220 23/16 Q1018 BLU/BLU/;",
"10122099999","2010-06-29T09:20:00","4","53.5335","7.888667","7.31","JEVER, GM","FM-15","ETNJ ","V020","270,1,N,0026,1","06600,1,C,N","011265,1,N,1","+0250,1","+0150,1","99999,9",,"07,5,+06600,1,99,9",,,"07,99,1,99,9,99,9,99999,9,99,9,99,9","10180,1,99999,9",,,,,"MET060METAR ETNJ 290920Z 27005KT 9999 BKN220 25/15 Q1018 BLU/BLU/;",
"10122099999","2010-06-29T10:20:00","4","53.5335","7.888667","7.31","JEVER, GM","FM-15","ETNJ ","V020","320,1,N,0036,1","06600,1,C,N","011265,1,N,1","+0250,1","+0140,1","99999,9",,"02,5,+01500,1,99,9","07,5,+06600,1,99,9",,"07,99,1,99,9,99,9,99999,9,99,9,99,9","10180,1,99999,9",,,,,"MET067METAR ETNJ 291020Z 32007KT 9999 FEW050 BKN220 25/14 Q1018 BLU/BLU/;",
"10122099999","2010-06-29T11:20:00","4","53.5335","7.888667","7.31","JEVER, GM","FM-15","ETNJ ","V020","330,1,N,0036,1","06600,1,C,N","011265,1,N,1","+0250,1","+0130,1","99999,9",,"02,5,+03000,1,99,9","07,5,+06600,1,99,9",,"07,99,1,99,9,99,9,99999,9,99,9,99,9","10180,1,99999,9",,,,,"MET067METAR ETNJ 291120Z 33007KT 9999 FEW100 BKN220 25/13 Q1018 BLU/BLU/;",
"10122099999","2010-06-29T12:20:00","4","53.5335","7.888667","7.31","JEVER, GM","FM-15","ETNJ ","V020","300,1,N,0026,1","06600,1,C,N","011265,1,N,1","+0260,1","+0130,1","99999,9",,"04,5,+03600,1,99,9","07,5,+06600,1,99,9",,"07,99,1,99,9,99,9,99999,9,99,9,99,9","10180,1,99999,9",,,,,"MET067METAR ETNJ 291220Z 30005KT 9999 SCT120 BKN220 26/13 Q1018 BLU/BLU/;",
"10122099999","2010-06-29T13:20:00","4","53.5335","7.888667","7.31","JEVER, GM","FM-15","ETNJ ","V020","320,1,N,0026,1","03600,1,C,N","011265,1,N,1","+0260,1","+0130,1","99999,9",,"02,5,+01500,1,99,9","04,5,+03600,1,99,9","07,5,+06600,1,99,9","07,99,1,99,9,99,9,99999,9,99,9,99,9","10180,1,99999,9",,,,,"MET074METAR ETNJ 291320Z 32005KT 9999 FEW050 SCT120 BKN220 26/13 Q1018 BLU/BLU/;",
"10122099999","2010-06-29T14:00:00","4","53.5335","7.888667","7.31","JEVER, GM","FM-16","ETNJ ","V020","300,1,N,0036,1","99999,9,C,N","011265,1,N,1","+0270,1","+0120,1","99999,9",,"02,5,+01500,1,99,9","04,5,+03600,1,99,9",,"04,99,1,99,9,99,9,99999,9,99,9,99,9","10180,1,99999,9",,,,,"MET074SPECI ETNJ 291400Z 30007KT 9999 FEW050 SCT120 27/12 Q1018 BLU/FCST CANCEL;","P01 036003SCOCIG"
"10122099999","2010-06-30T05:20:00","4","53.5335","7.888667","7.31","JEVER, GM","FM-15","ETNJ ","V020","260,1,N,0026,1","00450,1,C,N","011265,1,N,1","+0160,1","+0140,1","99999,9",,"02,5,+00240,1,99,9","07,5,+00450,1,99,9",,"07,99,1,99,9,99,9,99999,9,99,9,99,9","10190,1,99999,9",,,,,"MET076METAR ETNJ 300520Z 26005KT 9999 FEW008 BKN015 16/14 Q1019 WHT WHT BECMG GRN;",
"10122099999","2010-06-30T06:20:00","4","53.5335","7.888667","7.31","JEVER, GM","FM-15","ETNJ ","V020","270,1,N,0036,1","00390,1,C,N","011265,1,N,1","+0170,1","+0140,1","99999,9",,"02,5,+00240,1,99,9","04,5,+00390,1,99,9","07,5,+00540,1,99,9","07,99,1,99,9,99,9,99999,9,99,9,99,9","10190,1,99999,9",,,,,"MET073METAR ETNJ 300620Z 27007KT 9999 FEW008 SCT013 BKN018 17/14 Q1019 WHT WHT;",
"10122099999","2010-06-30T07:20:00","4","53.5335","7.888667","7.31","JEVER, GM","FM-15","ETNJ ","V020","280,1,N,0026,1","07200,1,C,N","011265,1,N,1","+0180,1","+0130,1","99999,9",,"04,5,+00540,1,99,9","07,5,+07200,1,99,9",,"07,99,1,99,9,99,9,99999,9,99,9,99,9","10200,1,99999,9",,,,,"MET067METAR ETNJ 300720Z 28005KT 9999 SCT018 BKN240 18/13 Q1020 BLU/BLU/;",
"10122099999","2010-06-30T08:20:00","4","53.5335","7.888667","7.31","JEVER, GM","FM-15","ETNJ ","V020","330,1,N,0021,1","07200,1,C,N","011265,1,N,1","+0190,1","+0130,1","99999,9",,"04,5,+00600,1,99,9","07,5,+07200,1,99,9",,"07,99,1,99,9,99,9,99999,9,99,9,99,9","10200,1,99999,9",,,,,"MET067METAR ETNJ 300820Z 33004KT 9999 SCT020 BKN240 19/13 Q1020 BLU/BLU/;",
"10122099999","2010-06-30T09:20:00","4","53.5335","7.888667","7.31","JEVER, GM","FM-15","ETNJ ","V020","270,1,N,0021,1","05400,1,C,N","011265,1,N,1","+0200,1","+0130,1","99999,9",,"02,5,+00660,1,99,9","07,5,+05400,1,99,9",,"07,99,1,99,9,99,9,99999,9,99,9,99,9","10200,1,99999,9",,,,,"MET066METAR ETNJ 300920Z 27004KT 9999 FEW022 BKN180 20/13 Q1020 BLU BLU;",
"10122099999","2010-06-30T10:20:00","4","53.5335","7.888667","7.31","JEVER, GM","FM-15","ETNJ ","V020","280,1,N,0015,1","05400,1,C,N","011265,1,N,1","+0210,1","+0130,1","99999,9",,"02,5,+00750,1,99,9","07,5,+05400,1,99,9",,"07,99,1,99,9,99,9,99999,9,99,9,99,9","10200,1,99999,9",,,,,"MET066METAR ETNJ 301020Z 28003KT 9999 FEW025 BKN180 21/13 Q1020 BLU BLU;",
"10122099999","2010-06-30T11:20:00","4","53.5335","7.888667","7.31","JEVER, GM","FM-15","ETNJ ","V020","300,1,N,0015,1","05400,1,C,N","011265,1,N,1","+0210,1","+0120,1","99999,9",,"02,5,+00750,1,99,9","07,5,+05400,1,99,9",,"07,99,1,99,9,99,9,99999,9,99,9,99,9","10200,1,99999,9",,,,,"MET066METAR ETNJ 301120Z 30003KT 9999 FEW025 BKN180 21/12 Q1020 BLU BLU;",
"10122099999","2010-06-30T12:20:00","4","53.5335","7.888667","7.31","JEVER, GM","FM-15","ETNJ ","V020","320,1,N,0026,1","99999,9,C,N","011265,1,N,1","+0230,1","+0110,1","99999,9",,"02,5,+00900,1,99,9","04,5,+10800,5,99,9",,"04,99,1,99,9,99,9,99999,9,99,9,99,9","10200,1,99999,9",,,,,"MET067METAR ETNJ 301220Z 32005KT 9999 FEW030 SCT360 23/11 Q1020 BLU/BLU/;","P01 108003SCOCIG"
"10122099999","2010-06-30T13:20:00","4","53.5335","7.888667","7.31","JEVER, GM","FM-15","ETNJ ","V020","310,1,N,0036,1","99999,9,C,N","011265,1,N,1","+0220,1","+0120,1","99999,9",,"02,5,+01500,1,99,9","04,5,+04800,1,99,9",,"04,99,1,99,9,99,9,99999,9,99,9,99,9","10200,1,99999,9",,,,,"MET067METAR ETNJ 301320Z 31007KT 9999 FEW050 SCT160 22/12 Q1020 BLU/BLU/;","P01 048003SCOCIG"
"10122099999","2010-06-30T14:00:00","4","53.5335","7.888667","7.31","JEVER, GM","FM-16","ETNJ ","V020","340,1,N,0036,1","22000,1,9,N","011265,1,N,1","+0220,1","+0120,1","99999,9",,"02,5,+01200,1,99,9",,,"02,99,1,99,9,99,9,99999,9,99,9,99,9","10200,1,99999,9",,,,,"MET067SPECI ETNJ 301400Z 34007KT 9999 FEW040 22/12 Q1020 BLU/FCST CANCEL;",
"10122099999","2010-07-01T05:20:00","4","53.5335","7.888667","7.31","JEVER, GM","FM-15","ETNJ ","V020","100,1,N,0051,1","99999,9,C,N","011265,1,N,1","+0160,1","+0130,1","99999,9",,"02,5,+01500,1,99,9","04,5,+08700,1,99,9",,"04,99,1,99,9,99,9,99999,9,99,9,99,9","10169,1,99999,9",,,,,"MET067METAR ETNJ 010520Z 10010KT 9999 FEW050 SCT290 16/13 Q1017 BLU/BLU/;","P01 087003SCOCIG"
"10122099999","2010-07-01T06:20:00","4","53.5335","7.888667","7.31","JEVER, GM","FM-15","ETNJ ","V020","110,1,N,0057,1","08700,1,C,N","011265,1,N,1","+0170,1","+0130,1","99999,9",,"02,5,+01800,1,99,9","07,5,+08700,1,99,9",,"07,99,1,99,9,99,9,99999,9,99,9,99,9","10169,1,99999,9",,,,,"MET067METAR ETNJ 010620Z 11011KT 9999 FEW060 BKN290 17/13 Q1017 BLU/BLU/;",
"10122099999","2010-07-01T07:20:00","4","53.5335","7.888667","7.31","JEVER, GM","FM-15","ETNJ ","V020","110,1,N,0051,1","99999,9,C,N","011265,1,N,1","+0190,1","+0130,1","99999,9",,"02,5,+01800,1,99,9","04,5,+08700,1,99,9",,"04,99,1,99,9,99,9,99999,9,99,9,99,9","10159,1,99999,9",,,,,"MET067METAR ETNJ 010720Z 11010KT 9999 FEW060 SCT290 19/13 Q1016 BLU/BLU/;","P01 087003SCOCIG"
"10122099999","2010-07-01T08:20:00","4","53.5335","7.888667","7.31","JEVER, GM","FM-15","ETNJ ","V020","120,1,N,0051,1","08700,1,C,N","011265,1,N,1","+0210,1","+0130,1","99999,9",,"04,5,+01500,1,99,9","07,5,+08700,1,99,9",,"07,99,1,99,9,99,9,99999,9,99,9,99,9","10159,1,99999,9",,,,,"MET067METAR ETNJ 010820Z 12010KT 9999 SCT050 BKN290 21/13 Q1016 BLU/BLU/;",
"10122099999","2010-07-01T09:20:00","4","53.5335","7.888667","7.31","JEVER, GM","FM-15","ETNJ ","V020","120,1,N,0036,1","08700,1,C,N","011265,1,N,1","+0230,1","+0140,1","99999,9",,"04,5,+01800,1,99,9","07,5,+08700,1,99,9",,"07,99,1,99,9,99,9,99999,9,99,9,99,9","10159,1,99999,9",,,,,"MET067METAR ETNJ 010920Z 12007KT 9999 SCT060 BKN290 23/14 Q1016 BLU/BLU/;",
"10122099999","2010-07-01T10:20:00","4","53.5335","7.888667","7.31","JEVER, GM","FM-15","ETNJ ","V020","110,1,N,0031,1","08700,1,C,N","011265,1,N,1","+0250,1","+0150,1","99999,9",,"02,5,+01800,1,99,9","07,5,+08700,1,99,9",,"07,99,1,99,9,99,9,99999,9,99,9,99,9","10159,1,99999,9",,,,,"MET067METAR ETNJ 011020Z 11006KT 9999 FEW060 BKN290 25/15 Q1016 BLU/BLU/;",
"10122099999","2010-07-01T11:20:00","4","53.5335","7.888667","7.31","JEVER, GM","FM-15","ETNJ ","V020","110,1,N,0026,1","08700,1,C,N","011265,1,N,1","+0260,1","+0150,1","99999,9",,"02,5,+01800,1,99,9","07,5,+08700,1,99,9",,"07,99,1,99,9,99,9,99999,9,99,9,99,9","10149,1,99999,9",,,,,"MET067METAR ETNJ 011120Z 11005KT 9999 FEW060 BKN290 26/15 Q1015 BLU/BLU/;",
"10122099999","2010-07-01T12:20:00","4","53.5335","7.888667","7.31","JEVER, GM","FM-15","ETNJ ","V020","160,1,N,0031,1","08700,1,C,N","011265,1,N,1","+0280,1","+0150,1","99999,9",,"02,5,+01800,1,99,9","07,5,+08700,1,99,9",,"07,99,1,99,9,99,9,99999,9,99,9,99,9","10149,1,99999,9",,,,,"MET067METAR ETNJ 011220Z 16006KT 9999 FEW060 BKN290 28/15 Q1015 BLU/BLU/;",
"10122099999","2010-07-01T13:20:00","4","53.5335","7.888667","7.31","JEVER, GM","FM-15","ETNJ ","V020","170,1,N,0036,1","08700,1,C,N","011265,1,N,1","+0290,1","+0150,1","99999,9",,"02,5,+01500,1,99,9","07,5,+08700,1,99,9",,"07,99,1,99,9,99,9,99999,9,99,9,99,9","10139,1,99999,9",,,,,"MET067METAR ETNJ 011320Z 17007KT 9999 FEW050 BKN290 29/15 Q1014 BLU/BLU/;",
"10122099999","2010-07-01T14:00:00","4","53.5335","7.888667","7.31","JEVER, GM","FM-15","ETNJ ","V020","130,1,N,0041,1","07200,1,C,N","011265,1,N,1","+0280,1","+0150,1","99999,9",,"04,5,+01440,1,99,9","07,5,+07200,1,99,9",,"07,99,1,99,9,99,9,99999,9,99,9,99,9","10139,1,99999,9",,,,,"MET074SPECI ETNJ 011355Z 13008KT 9999 SCT048 BKN240 28/15 Q1014 BLU/FCST CANCEL;",
"10122099999","2010-07-28T05:20:00","4","53.5335","7.888667","7.31","JEVER, GM","FM-15","ETNJ ","V020","310,1,N,0031,1","00240,1,C,N","008000,1,N,1","+0160,1","+0150,1","99999,9",,"02,5,+00120,1,99,9","07,5,+00240,1,99,9",,"07,99,1,99,9,99,9,99999,9,99,9,99,9","10119,1,99999,9","61,1",,,,"MET070METAR ETNJ 280520Z 31006KT 8000 -RA FEW004 BKN008 16/15 Q1012 GRN GRN;",
"10122099999","2010-07-28T06:20:00","4","53.5335","7.888667","7.31","JEVER, GM","FM-15","ETNJ ","V020","310,1,N,0026,1","00480,1,C,N","008000,1,N,1","+0160,1","+0150,1","99999,9",,"02,5,+00180,1,99,9","07,5,+00480,1,99,9",,"07,99,1,99,9,99,9,99999,9,99,9,99,9","10119,1,99999,9","61,1",,,,"MET080METAR ETNJ 280620Z 31005KT 8000 -RA FEW006 BKN016 16/15 Q1012 WHT WHT BECMG BLU;",
"10122099999","2010-07-28T07:20:00","4","53.5335","7.888667","7.31","JEVER, GM","FM-15","ETNJ ","V020","290,1,N,0026,1","00810,1,C,N","011265,1,N,1","+0160,1","+0150,1","99999,9",,"02,5,+00480,1,99,9","07,5,+00810,1,99,9",,"07,99,1,99,9,99,9,99999,9,99,9,99,9","10129,1,99999,9",,,,,"MET066METAR ETNJ 280720Z 29005KT 9999 FEW016 BKN027 16/15 Q1013 BLU BLU;",
"10122099999","2010-07-28T08:20:00","4","53.5335","7.888667","7.31","JEVER, GM","FM-15","ETNJ ","V020","310,1,N,0046,1","05100,1,C,N","011265,1,N,1","+0170,1","+0150,1","99999,9",,"02,5,+00480,1,99,9","07,5,+05100,1,99,9",,"07,99,1,99,9,99,9,99999,9,99,9,99,9","10129,1,99999,9",,,,,"MET067METAR ETNJ 280820Z 31009KT 9999 FEW016 BKN170 17/15 Q1013 BLU BLU/;",
"10122099999","2010-07-28T09:20:00","4","53.5335","7.888667","7.31","JEVER, GM","FM-15","ETNJ ","V020","320,1,N,0051,1","05100,1,C,N","011265,1,N,1","+0180,1","+0150,1","99999,9",,"04,5,+00480,1,99,9","07,5,+05100,1,99,9",,"07,99,1,99,9,99,9,99999,9,99,9,99,9","10129,1,99999,9",,,,,"MET066METAR ETNJ 280920Z 32010KT 9999 SCT016 BKN170 18/15 Q1013 BLU BLU;",
"10122099999","2010-07-28T10:20:00","4","53.5335","7.888667","7.31","JEVER, GM","FM-15","ETNJ ","V020","320,1,N,0057,1","99999,9,C,N","011265,1,N,1","+0190,1","+0140,1","99999,9",,"04,5,+00600,1,99,9","04,5,+05100,1,99,9",,"04,99,1,99,9,99,9,99999,9,99,9,99,9","10129,1,99999,9",,,,,"MET066METAR ETNJ 281020Z 32011KT 9999 SCT020 SCT170 19/14 Q1013 BLU/BLU;","P01 051003SCOCIG"
"10122099999","2010-07-28T11:20:00","4","53.5335","7.888667","7.31","JEVER, GM","FM-15","ETNJ ","V020","310,1,N,0051,1","22000,1,9,N","011265,1,N,1","+0210,1","+0130,1","99999,9",,"02,5,+00600,1,99,9",,,"02,99,1,99,9,99,9,99999,9,99,9,99,9","10129,1,99999,9",,,,,"MET059METAR ETNJ 281120Z 31010KT 9999 FEW020 21/13 Q1013 BLU/BLU;",
"10122099999","2010-07-28T12:00:00","4","53.5335","7.888667","7.31","JEVER, GM","FM-16","ETNJ ","V020","320,1,N,0057,1","22000,1,9,N","011265,1,N,1","+0210,1","+0120,1","99999,9",,"02,5,+00690,1,99,9",,,"02,99,1,99,9,99,9,99999,9,99,9,99,9","10129,1,99999,9",,,,,"MET067SPECI ETNJ 281200Z 32011KT 9999 FEW023 21/12 Q1013 BLU/FCST CANCEL;",
"10122099999","2010-07-29T05:20:00","4","53.5335","7.888667","7.31","JEVER, GM","FM-15","ETNJ ","V020","260,1,N,0031,1","01500,1,C,N","011265,1,N,1","+0140,1","+0130,1","99999,9",,"02,5,+00600,1,99,9","07,5,+01500,1,99,9",,"07,99,1,99,9,99,9,99999,9,99,9,99,9","10091,1,99999,9",,,,,"MET076METAR ETNJ 290520Z 26006KT 9999 FEW020 BKN050 14/13 Q1009 BLU BLU TEMPO WHT;",
"10122099999","2010-07-29T06:20:00","4","53.5335","7.888667","7.31","JEVER, GM","FM-15","ETNJ ","V020","250,1,N,0026,1","01290,1,C,N","011265,1,N,1","+0150,1","+0130,1","99999,9",,"02,5,+00600,1,99,9","07,5,+01290,1,99,9",,"07,99,1,99,9,99,9,99999,9,99,9,99,9","10091,1,99999,9",,,,,"MET076METAR ETNJ 290620Z 25005KT 9999 FEW020 BKN043 15/13 Q1009 BLU BLU TEMPO WHT;",
"10122099999","2010-07-29T07:20:00","4","53.5335","7.888667","7.31","JEVER, GM","FM-15","ETNJ ","V020","260,1,N,0041,1","01200,1,C,N","011265,1,N,1","+0170,1","+0150,1","99999,9",,"02,5,+00600,1,99,9","04,5,+01200,1,99,9","07,5,+02400,1,99,9","07,99,1,99,9,99,9,99999,9,99,9,99,9","10091,1,99999,9",,,,,"MET083METAR ETNJ 290720Z 26008KT 9999 FEW020 SCT040 BKN080 17/15 Q1009 BLU BLU TEMPO WHT;",
"10122099999","2010-07-29T08:20:00","4","53.5335","7.888667","7.31","JEVER, GM","FM-15","ETNJ ","V020","290,1,N,0041,1","99999,9,C,N","011265,1,N,1","+0170,1","+0140,1","99999,9",,"02,5,+00600,1,99,9","04,5,+01050,1,99,9",,"04,99,1,99,9,99,9,99999,9,99,9,99,9","10081,1,99999,9",,,,,"MET076METAR ETNJ 290820Z 29008KT 9999 FEW020 SCT035 17/14 Q1008 BLU/BLU TEMPO WHT;","P01 010503SCOCIG"
"10122099999","2010-07-29T09:20:00","4","53.5335","7.888667","7.31","JEVER, GM","FM-15","ETNJ ","V020","340,1,N,0051,1","99999,9,C,N","008000,1,N,1","+0190,1","+0120,1","99999,9",,"02,5,+00600,1,99,9","04,5,+00750,1,09,5",,"04,99,1,99,9,99,9,99999,9,99,9,99,9","10091,1,99999,9","16,1",,,,"MET083METAR ETNJ 290920Z 34010KT 8000 VCSH FEW020 SCT025CB 19/12 Q1009 BLU/BLU TEMPO WHT;","P01 007503SCOCIG"
"10122099999","2010-07-29T09:54:00","4","53.5335","7.888667","7.31","JEVER, GM","FM-16","ETNJ ","V020","340,1,N,0041,1","00750,1,C,N","004500,1,N,1","+0160,1","+0120,1","99999,9",,"02,5,+00540,1,99,9","04,5,+00750,1,09,5","07,5,+01500,1,99,9","07,99,1,99,9,99,9,99999,9,99,9,99,9","10091,1,99999,9","81,1",,,,"MET090SPECI ETNJ 290954Z 34008KT 4500 SHRA FEW018 SCT025CB BKN050 16/12 Q1009 GRN BLU TEMPO WHT;",
"10122099999","2010-07-29T10:00:00","4","53.5335","7.888667","7.31","JEVER, GM","FM-15","ETNJ ","V020","340,1,N,0041,1","00750,1,C,N","004500,1,N,1","+0150,1","+0120,1","99999,9",,"02,5,+00540,1,99,9","04,5,+00750,1,09,5","07,5,+01500,1,99,9","07,99,1,99,9,99,9,99999,9,99,9,99,9","10091,1,99999,9","81,1",,,,"MET090SPECI ETNJ 290956Z 34008KT 4500 SHRA FEW018 SCT025CB BKN050 15/12 Q1009 GRN BLU TEMPO WHT;",
"10122099999","2010-07-29T10:01:00","4","53.5335","7.888667","7.31","JEVER, GM","FM-16","ETNJ ","V020","340,1,N,0031,1","00750,1,C,N","003000,1,N,1","+0150,1","+0120,1","99999,9",,"02,5,+00540,1,99,9","07,5,+00750,1,09,5","07,5,+01500,1,99,9","07,99,1,99,9,99,9,99999,9,99,9,99,9","10091,1,99999,9","10,1","81,1",,,"MET093SPECI ETNJ 291001Z 34006KT 3000 SHRA BR FEW018 BKN025CB BKN050 15/12 Q1009 YLO BLU TEMPO YLO;",
"10122099999","2010-07-29T10:06:00","4","53.5335","7.888667","7.31","JEVER, GM","FM-16","ETNJ ","V020","340,1,N,0026,1","00750,1,C,N","006000,1,N,1","+0150,1","+0120,1","99999,9",,"02,5,+00540,1,99,9","04,5,+00750,1,09,5","07,5,+01500,1,99,9","07,99,1,99,9,99,9,99999,9,99,9,99,9","10091,1,99999,9","80,1",,,,"MET091SPECI ETNJ 291006Z 34005KT 6000 -SHRA FEW018 SCT025CB BKN050 15/12 Q1009 WHT BLU TEMPO YLO;",
"10122099999","2010-07-29T10:20:00","4","53.5335","7.888667","7.31","JEVER, GM","FM-15","ETNJ ","V020","310,1,N,0021,1","00750,1,C,N","008000,1,N,1","+0150,1","+0120,1","99999,9",,"02,5,+00600,1,99,9","04,5,+00750,1,09,5","07,5,+01500,1,99,9","07,99,1,99,9,99,9,99999,9,99,9,99,9","10091,1,99999,9",,,,,"MET090METAR ETNJ 291020Z 31004KT 8000 FEW020 SCT025CB BKN050 15/12 Q1009 RERA BLU BLU TEMPO YLO;",
"10122099999","2010-07-29T11:20:00","4","53.5335","7.888667","7.31","JEVER, GM","FM-15","ETNJ ","V020","260,1,N,0031,1","01800,1,C,N","011265,1,N,1","+0160,1","+0140,1","99999,9",,"04,5,+00900,1,02,1","07,5,+01800,1,99,9",,"07,99,1,99,9,99,9,99999,9,99,9,99,9","10091,1,99999,9",,,,,"MET079METAR ETNJ 291120Z 26006KT 9999 SCT030TCU BKN060 16/14 Q1009 BLU BLU TEMPO YLO;",
"10122099999","2010-07-29T12:20:00","4","53.5335","7.888667","7.31","JEVER, GM","FM-15","ETNJ ","V020","320,1,N,0046,1","99999,9,C,N","011265,1,N,1","+0190,1","+0140,1","99999,9",,"04,5,+00750,1,99,9","04,5,+01800,1,99,9",,"04,99,1,99,9,99,9,99999,9,99,9,99,9","10091,1,99999,9",,,,,"MET067METAR ETNJ 291220Z 32009KT 9999 SCT025 SCT060 19/14 Q1009 BLU/BLU/;","P01 018003SCOCIG"
"10122099999","2010-07-29T13:20:00","4","53.5335","7.888667","7.31","JEVER, GM","FM-15","ETNJ ","V020","320,1,N,0062,1","99999,9,C,N","011265,1,N,1","+0190,1","+0130,1","99999,9",,"04,5,+00840,1,99,9","04,5,+02700,1,99,9",,"04,99,1,99,9,99,9,99999,9,99,9,99,9","10091,1,99999,9",,,,,"MET067METAR ETNJ 291320Z 32012KT 9999 SCT028 SCT090 19/13 Q1009 BLU/BLU/;","P01 027003SCOCIG"
"10122099999","2010-07-29T14:20:00","4","53.5335","7.888667","7.31","JEVER, GM","FM-15","ETNJ ","V020","320,1,N,0057,1","99999,9,C,N","011265,1,N,1","+0190,1","+0120,1","99999,9",,"04,5,+00900,1,99,9","04,5,+01800,1,99,9",,"04,99,1,99,9,99,9,99999,9,99,9,99,9","10102,1,99999,9",,,,,"MET074METAR ETNJ 291420Z 32011KT 9999 SCT030 SCT060 19/12 Q1010 BLU/FCST CANCEL;","P01 018003SCOCIG"
"10122099999","2010-07-29T15:20:00","4","53.5335","7.888667","7.31","JEVER, GM","FM-15","ETNJ ","V020","310,1,N,0077,1","99999,9,C,N","011265,1,N,1","+0190,1","+0120,1","99999,9",,"04,5,+00840,1,99,9","04,5,+01800,1,99,9",,"04,99,1,99,9,99,9,99999,9,99,9,99,9","10091,1,99999,9",,,,,"MET063METAR ETNJ 291520Z 31015KT 9999 SCT028 SCT060 19/12 Q1009 BLU/;","P01 018003SCOCIG"
"10122099999","2010-07-29T16:20:00","4","53.5335","7.888667","7.31","JEVER, GM","FM-15","ETNJ ","V020","330,1,N,0051,1","99999,9,C,N","011265,1,N,1","+0190,1","+0120,1","99999,9",,"04,5,+00900,1,99,9","04,5,+02400,1,99,9",,"04,99,1,99,9,99,9,99999,9,99,9,99,9","10102,1,99999,9",,,,,"MET063METAR ETNJ 291620Z 33010KT 9999 SCT030 SCT080 19/12 Q1010 BLU/;","P01 024003SCOCIG"
"10122099999","2010-07-29T17:20:00","4","53.5335","7.888667","7.31","JEVER, GM","FM-15","ETNJ ","V020","320,1,N,0046,1","01500,1,C,N","011265,1,N,1","+0180,1","+0120,1","99999,9",,"04,5,+00660,1,02,1","07,5,+01500,1,99,9",,"07,99,1,99,9,99,9,99999,9,99,9,99,9","10091,1,99999,9","80,1",,,,"MET071METAR ETNJ 291720Z 32009KT 9999 -SHRA SCT022TCU BKN050 18/12 Q1009 BLU;",
"10122099999","2010-07-29T18:20:00","4","53.5335","7.888667","7.31","JEVER, GM","FM-15","ETNJ ","V020","310,1,N,0041,1","99999,9,C,N","011265,1,N,1","+0170,1","+0120,1","99999,9",,"02,5,+00660,1,02,1","04,5,+01500,1,99,9",,"04,99,1,99,9,99,9,99999,9,99,9,99,9","10091,1,99999,9",,,,,"MET066METAR ETNJ 291820Z 31008KT 9999 FEW022TCU SCT050 17/12 Q1009 BLU/;","P01 015003SCOCIG"
"10122099999","2010-07-29T19:21:00","4","53.5335","7.888667","7.31","JEVER, GM","FM-16","ETNJ ","V020","290,1,N,0036,1","01500,1,C,N","011265,1,N,1","+0160,1","+0120,1","99999,9",,"02,5,+00600,1,02,1","07,5,+01500,1,99,9",,"07,99,1,99,9,99,9,99999,9,99,9,99,9","10091,1,99999,9",,,,,"MET065SPECI ETNJ 291921Z 29007KT 9999 FEW020TCU BKN050 16/12 Q1009 BLU;",
"10122099999","2010-07-29T20:20:00","4","53.5335","7.888667","7.31","JEVER, GM","FM-15","ETNJ ","V020","280,1,N,0026,1","01800,1,C,N","011265,1,N,1","+0160,1","+0120,1","99999,9",,"02,5,+00600,1,02,1","07,5,+01800,1,99,9",,"07,99,1,99,9,99,9,99999,9,99,9,99,9","10091,1,99999,9","80,1",,,,"MET071METAR ETNJ 292020Z 28005KT 9999 -SHRA FEW020TCU BKN060 16/12 Q1009 BLU;",
"10122099999","2010-07-29T21:20:00","4","53.5335","7.888667","7.31","JEVER, GM","FM-15","ETNJ ","V020","270,1,N,0026,1","02100,1,C,N","011265,1,N,1","+0160,1","+0120,1","99999,9",,"02,5,+00900,1,99,9","07,5,+02100,1,99,9",,"07,99,1,99,9,99,9,99999,9,99,9,99,9","10091,1,99999,9",,,,,"MET062METAR ETNJ 292120Z 27005KT 9999 FEW030 BKN070 16/12 Q1009 BLU;",
"10122099999","2010-07-29T21:24:00","4","53.5335","7.888667","7.31","JEVER, GM","FM-16","ETNJ ","V020","270,1,N,0026,1","02100,1,C,N","011265,1,N,1","+0160,1","+0120,1","99999,9",,"02,5,+00900,1,99,9","07,5,+02100,1,99,9",,"07,99,1,99,9,99,9,99999,9,99,9,99,9","10091,1,99999,9",,,,,"MET062SPECI ETNJ 292124Z 27005KT 9999 FEW030 BKN070 16/12 Q1009 BLU;",
"10122099999","2010-07-29T22:20:00","4","53.5335","7.888667","7.31","JEVER, GM","FM-15","ETNJ ","V020","260,1,N,0026,1","99999,9,C,N","011265,1,N,1","+0150,1","+0110,1","99999,9",,"02,5,+00900,1,99,9","04,5,+02100,1,99,9",,"04,99,1,99,9,99,9,99999,9,99,9,99,9","10091,1,99999,9",,,,,"MET063METAR ETNJ 292220Z 26005KT 9999 FEW030 SCT070 15/11 Q1009 BLU/;","P01 021003SCOCIG"
"10122099999","2010-07-29T23:20:00","4","53.5335","7.888667","7.31","JEVER, GM","FM-15","ETNJ ","V020","250,1,N,0026,1","22000,1,9,N","011265,1,N,1","+0140,1","+0120,1","99999,9",,"02,5,+02100,1,99,9",,,"02,99,1,99,9,99,9,99999,9,99,9,99,9","10091,1,99999,9",,,,,"MET056METAR ETNJ 292320Z 25005KT 9999 FEW070 14/12 Q1009 BLU/;",
"10122099999","2010-07-30T00:20:00","4","53.5335","7.888667","7.31","JEVER, GM","FM-15","ETNJ ","V020","260,1,N,0036,1","22000,1,9,N","011265,1,N,1","+0140,1","+0120,1","99999,9",,"04,5,+02400,1,99,9",,,"04,99,1,99,9,99,9,99999,9,99,9,99,9","10091,1,99999,9",,,,,"MET056METAR ETNJ 300020Z 26007KT 9999 SCT080 14/12 Q1009 BLU/;",
"10122099999","2010-07-30T01:20:00","4","53.5335","7.888667","7.31","JEVER, GM","FM-15","ETNJ ","V020","260,1,N,0026,1","02400,1,C,N","011265,1,N,1","+0140,1","+0120,1","99999,9",,"02,5,+00600,1,02,1","07,5,+02400,1,99,9",,"07,99,1,99,9,99,9,99999,9,99,9,99,9","10091,1,99999,9",,,,,"MET065METAR ETNJ 300120Z 26005KT 9999 FEW020TCU BKN080 14/12 Q1009 BLU;",
"10122099999","2010-07-30T02:20:00","4","53.5335","7.888667","7.31","JEVER, GM","FM-15","ETNJ ","V020","270,1,N,0036,1","99999,9,C,N","011265,1,N,1","+0130,1","+0120,1","99999,9",,"02,5,+00600,1,02,1","04,5,+02400,1,99,9",,"04,99,1,99,9,99,9,99999,9,99,9,99,9","10102,1,99999,9",,,,,"MET066METAR ETNJ 300220Z 27007KT 9999 FEW020TCU SCT080 13/12 Q1010 BLU/;","P01 024003SCOCIG"
"10122099999","2010-07-30T03:20:00","4","53.5335","7.888667","7.31","JEVER, GM","FM-15","ETNJ ","V020","260,1,N,0031,1","01410,1,C,N","011265,1,N,1","+0130,1","+0120,1","99999,9",,"07,5,+01410,1,99,9",,,"07,99,1,99,9,99,9,99999,9,99,9,99,9","10102,1,99999,9",,,,,"MET055METAR ETNJ 300320Z 26006KT 9999 BKN047 13/12 Q1010 BLU;",
"10122099999","2010-07-30T04:20:00","4","53.5335","7.888667","7.31","JEVER, GM","FM-15","ETNJ ","V020","270,1,N,0036,1","01410,1,C,N","011265,1,N,1","+0130,1","+0100,1","99999,9",,"02,5,+00600,1,99,9","07,5,+01410,1,99,9",,"07,99,1,99,9,99,9,99999,9,99,9,99,9","10102,1,99999,9",,,,,"MET066METAR ETNJ 300420Z 27007KT 9999 FEW020 BKN047 13/10 Q1010 BLU BLU;",
"10122099999","2010-07-30T05:20:00","4","53.5335","7.888667","7.31","JEVER, GM","FM-15","ETNJ ","V020","240,1,N,0031,1","99999,9,C,N","011265,1,N,1","+0150,1","+0120,1","99999,9",,"02,5,+00600,1,99,9","04,5,+01500,1,99,9",,"04,99,1,99,9,99,9,99999,9,99,9,99,9","10102,1,99999,9",,,,,"MET067METAR ETNJ 300520Z 24006KT 9999 FEW020 SCT050 15/12 Q1010 BLU/BLU/;","P01 015003SCOCIG"
"10122099999","2010-07-30T06:20:00","4","53.5335","7.888667","7.31","JEVER, GM","FM-15","ETNJ ","V020","240,1,N,0041,1","22000,1,9,N","011265,1,N,1","+0160,1","+0120,1","99999,9",,"02,5,+00600,1,99,9",,,"02,99,1,99,9,99,9,99999,9,99,9,99,9","10102,1,99999,9",,,,,"MET060METAR ETNJ 300620Z 24008KT 9999 FEW020 16/12 Q1010 BLU/BLU/;",
"10122099999","2010-07-30T07:20:00","4","53.5335","7.888667","7.31","JEVER, GM","FM-15","ETNJ ","V020","260,1,N,0051,1","99999,9,C,N","011265,1,N,1","+0180,1","+0120,1","99999,9",,"02,5,+00600,1,99,9","04,5,+01470,1,99,9",,"04,99,1,99,9,99,9,99999,9,99,9,99,9","10108,1,99999,9",,,,,"MET067METAR ETNJ 300720Z 26010KT 9999 FEW020 SCT049 18/12 Q1011 BLU/BLU/;","P01 014703SCOCIG"
"10122099999","2010-07-30T08:20:00","4","53.5335","7.888667","7.31","JEVER, GM","FM-15","ETNJ ","V020","290,1,N,0072,1","01500,1,C,N","011265,1,N,1","+0190,1","+0110,1","99999,9",,"02,5,+00840,1,99,9","07,5,+01500,1,99,9",,"07,99,1,99,9,99,9,99999,9,99,9,99,9","10108,1,99999,9",,,,,"MET066METAR ETNJ 300820Z 29014KT 9999 FEW028 BKN050 19/11 Q1011 BLU BLU;",
"10122099999","2010-07-30T09:20:00","4","53.5335","7.888667","7.31","JEVER, GM","FM-15","ETNJ ","V020","270,1,N,0067,1","01500,1,C,N","011265,1,N,1","+0190,1","+0110,1","99999,9",,"02,5,+00840,1,99,9","07,5,+01500,1,99,9",,"07,99,1,99,9,99,9,99999,9,99,9,99,9","10108,1,99999,9",,,,,"MET066METAR ETNJ 300920Z 27013KT 9999 FEW028 BKN050 19/11 Q1011 BLU BLU;",
"10122099999","2010-07-30T10:20:00","4","53.5335","7.888667","7.31","JEVER, GM","FM-15","ETNJ ","V020","270,1,N,0067,1","01500,1,C,N","011265,1,N,1","+0190,1","+0090,1","99999,9",,"02,5,+00840,1,99,9","07,5,+01500,1,99,9",,"07,99,1,99,9,99,9,99999,9,99,9,99,9","10119,1,99999,9",,,,,"MET074METAR ETNJ 301020Z 27013KT 9999 FEW028 BKN050 19/09 Q1012 BLU FCST CANCEL;",
"10122099999","2010-07-30T11:20:00","4","53.5335","7.888667","7.31","JEVER, GM","FM-15","ETNJ ","V020","270,1,N,0062,1","01500,1,C,N","011265,1,N,1","+0180,1","+0100,1","99999,9",,"02,5,+00840,1,99,9","07,5,+01500,1,99,9",,"07,99,1,99,9,99,9,99999,9,99,9,99,9","10119,1,99999,9",,,,,"MET062METAR ETNJ 301120Z 27012KT 9999 FEW028 BKN050 18/10 Q1012 BLU;",
"10122099999","2010-07-30T12:20:00","4","53.5335","7.888667","7.31","JEVER, GM","FM-15","ETNJ ","V020","260,1,N,0041,1","01500,1,C,N","011265,1,N,1","+0190,1","+0100,1","99999,9",,"02,5,+00990,1,99,9","07,5,+01500,1,99,9",,"07,99,1,99,9,99,9,99999,9,99,9,99,9","10129,1,99999,9",,,,,"MET062METAR ETNJ 301220Z 26008KT 9999 FEW033 BKN050 19/10 Q1013 BLU;",
"10122099999","2010-07-30T13:20:00","4","53.5335","7.888667","7.31","JEVER, GM","FM-15","ETNJ ","V020","280,1,N,0062,1","01500,1,C,N","011265,1,N,1","+0190,1","+0120,1","99999,9",,"02,5,+00990,1,99,9","07,5,+01500,1,99,9",,"07,99,1,99,9,99,9,99999,9,99,9,99,9","10129,1,99999,9",,,,,"MET062METAR ETNJ 301320Z 28012KT 9999 FEW033 BKN050 19/12 Q1013 BLU;",
"10122099999","2010-07-30T14:20:00","4","53.5335","7.888667","7.31","JEVER, GM","FM-15","ETNJ ","V020","290,1,N,0062,1","01500,1,C,N","011265,1,N,1","+0190,1","+0110,1","99999,9",,"04,5,+00990,1,99,9","07,5,+01500,1,99,9",,"07,99,1,99,9,99,9,99999,9,99,9,99,9","10129,1,99999,9",,,,,"MET062METAR ETNJ 301420Z 29012KT 9999 SCT033 BKN050 19/11 Q1013 BLU;",
"10122099999","2010-07-30T15:20:00","4","53.5335","7.888667","7.31","JEVER, GM","FM-15","ETNJ ","V020","280,1,N,0072,1","99999,9,C,N","011265,1,N,1","+0190,1","+0110,1","99999,9",,"04,5,+00990,1,99,9","04,5,+01500,1,99,9",,"04,99,1,99,9,99,9,99999,9,99,9,99,9","10139,1,99999,9",,,,,"MET063METAR ETNJ 301520Z 28014KT 9999 SCT033 SCT050 19/11 Q1014 BLU/;","P01 015003SCOCIG"
"10122099999","2010-07-30T16:20:00","4","53.5335","7.888667","7.31","JEVER, GM","FM-15","ETNJ ","V020","300,1,N,0062,1","99999,9,C,N","011265,1,N,1","+0190,1","+0110,1","99999,9",,"02,5,+00990,1,99,9","04,5,+01500,1,99,9",,"04,99,1,99,9,99,9,99999,9,99,9,99,9","10139,1,99999,9",,,,,"MET063METAR ETNJ 301620Z 30012KT 9999 FEW033 SCT050 19/11 Q1014 BLU/;","P01 015003SCOCIG"
"10122099999","2010-07-30T17:20:00","4","53.5335","7.888667","7.31","JEVER, GM","FM-15","ETNJ ","V020","280,1,N,0051,1","22000,1,9,N","011265,1,N,1","+0190,1","+0110,1","99999,9",,"02,5,+00840,1,99,9",,,"02,99,1,99,9,99,9,99999,9,99,9,99,9","10139,1,99999,9",,,,,"MET056METAR ETNJ 301720Z 28010KT 9999 FEW028 19/11 Q1014 BLU/;",
"10122099999","2010-07-30T18:20:00","4","53.5335","7.888667","7.31","JEVER, GM","FM-15","ETNJ ","V020","280,1,N,0041,1","22000,1,9,N","011265,1,N,1","+0190,1","+0100,1","99999,9",,"02,5,+00750,1,99,9",,,"02,99,1,99,9,99,9,99999,9,99,9,99,9","10139,1,99999,9",,,,,"MET056METAR ETNJ 301820Z 28008KT 9999 FEW025 19/10 Q1014 BLU/;",
"10122099999","2010-07-30T19:20:00","4","53.5335","7.888667","7.31","JEVER, GM","FM-15","ETNJ ","V020","270,1,N,0010,1","22000,1,9,N","011265,1,N,1","+0150,1","+0100,1","99999,9",,,,,,"10139,1,99999,9",,,,,"MET049METAR ETNJ 301920Z 27002KT 9999 15/10 Q1014 BLU/;",
"10122099999","2010-07-30T20:20:00","4","53.5335","7.888667","7.31","JEVER, GM","FM-15","ETNJ ","V020","120,1,N,0010,1","22000,1,9,N","011265,1,N,1","+0120,1","+0090,1","99999,9",,,,,,"10139,1,99999,9",,,,,"MET049METAR ETNJ 302020Z 12002KT 9999 12/09 Q1014 BLU/;",
"10122099999","2010-07-30T21:20:00","4","53.5335","7.888667","7.31","JEVER, GM","FM-15","ETNJ ","V020","130,1,N,0015,1","22000,1,9,N","011265,1,N,1","+0110,1","+0090,1","99999,9",,"02,5,+04500,1,99,9",,,"02,99,1,99,9,99,9,99999,9,99,9,99,9","10139,1,99999,9",,,,,"MET056METAR ETNJ 302120Z 13003KT 9999 FEW150 11/09 Q1014 BLU/;",
"10122099999","2010-07-30T22:20:00","4","53.5335","7.888667","7.31","JEVER, GM","FM-15","ETNJ ","V020","160,1,N,0026,1","22000,1,9,N","011265,1,N,1","+0120,1","+0090,1","99999,9",,"02,5,+04500,1,99,9",,,"02,99,1,99,9,99,9,99999,9,99,9,99,9","10139,1,99999,9",,,,,"MET056METAR ETNJ 302220Z 16005KT 9999 FEW150 12/09 Q1014 BLU/;",
"10122099999","2010-07-30T23:20:00","4","53.5335","7.888667","7.31","JEVER, GM","FM-15","ETNJ ","V020","150,1,N,0026,1","22000,1,9,N","011265,1,N,1","+0120,1","+0090,1","99999,9",,"02,5,+04500,1,99,9",,,"02,99,1,99,9,99,9,99999,9,99,9,99,9","10139,1,99999,9",,,,,"MET056METAR ETNJ 302320Z 15005KT 9999 FEW150 12/09 Q1014 BLU/;",
"10122099999","2010-07-31T00:20:00","4","53.5335","7.888667","7.31","JEVER, GM","FM-15","ETNJ ","V020","150,1,N,0031,1","22000,1,9,N","011265,1,N,1","+0110,1","+0090,1","99999,9",,"02,5,+06000,1,99,9",,,"02,99,1,99,9,99,9,99999,9,99,9,99,9","10139,1,99999,9",,,,,"MET056METAR ETNJ 310020Z 15006KT 9999 FEW200 11/09 Q1014 BLU/;",
"10122099999","2010-07-31T01:20:00","4","53.5335","7.888667","7.31","JEVER, GM","FM-15","ETNJ ","V020","150,1,N,0031,1","06000,1,C,N","011265,1,N,1","+0120,1","+0100,1","99999,9",,"07,5,+06000,1,99,9",,,"07,99,1,99,9,99,9,99999,9,99,9,99,9","10129,1,99999,9",,,,,"MET056METAR ETNJ 310120Z 15006KT 9999 BKN200 12/10 Q1013 BLU/;",
"10122099999","2010-07-31T02:20:00","4","53.5335","7.888667","7.31","JEVER, GM","FM-15","ETNJ ","V020","150,1,N,0031,1","06000,1,C,N","011265,1,N,1","+0130,1","+0110,1","99999,9",,"04,5,+01500,1,99,9","07,5,+06000,1,99,9",,"07,99,1,99,9,99,9,99999,9,99,9,99,9","10129,1,99999,9",,,,,"MET063METAR ETNJ 310220Z 15006KT 9999 SCT050 BKN200 13/11 Q1013 BLU/;",
"10122099999","2010-07-31T03:20:00","4","53.5335","7.888667","7.31","JEVER, GM","FM-15","ETNJ ","V020","140,1,N,0031,1","01800,1,C,N","011265,1,N,1","+0140,1","+0110,1","99999,9",,"07,5,+01800,1,99,9","07,5,+06000,1,99,9",,"07,99,1,99,9,99,9,99999,9,99,9,99,9","10119,1,99999,9",,,,,"MET062METAR ETNJ 310320Z 14006KT 9999 BKN060 BKN200 14/11 Q1012 BLU;",
"10122099999","2010-07-31T04:20:00","4","53.5335","7.888667","7.31","JEVER, GM","FM-15","ETNJ ","V020","170,1,N,0031,1","01800,1,C,N","011265,1,N,1","+0150,1","+0110,1","99999,9",,"07,5,+01800,1,99,9","07,5,+06000,1,99,9",,"07,99,1,99,9,99,9,99999,9,99,9,99,9","10119,1,99999,9",,,,,"MET062METAR ETNJ 310420Z 17006KT 9999 BKN060 BKN200 15/11 Q1012 BLU;",
"10122099999","2010-07-31T05:20:00","4","53.5335","7.888667","7.31","JEVER, GM","FM-15","ETNJ ","V020","190,1,N,0036,1","99999,9,C,N","011265,1,N,1","+0160,1","+0110,1","99999,9",,"04,5,+01800,1,99,9","04,5,+05400,1,99,9",,"04,99,1,99,9,99,9,99999,9,99,9,99,9","10119,1,99999,9",,,,,"MET063METAR ETNJ 310520Z 19007KT 9999 SCT060 SCT180 16/11 Q1012 BLU/;","P01 054003SCOCIG"
"10122099999","2010-07-31T06:20:00","4","53.5335","7.888667","7.31","JEVER, GM","FM-15","ETNJ ","V020","200,1,N,0041,1","99999,9,C,N","011265,1,N,1","+0170,1","+0120,1","99999,9",,"02,5,+01800,1,99,9","04,5,+04800,1,99,9",,"04,99,1,99,9,99,9,99999,9,99,9,99,9","10119,1,99999,9",,,,,"MET063METAR ETNJ 310620Z 20008KT 9999 FEW060 SCT160 17/12 Q1012 BLU/;","P01 048003SCOCIG"
"10122099999","2010-07-31T07:20:00","4","53.5335","7.888667","7.31","JEVER, GM","FM-15","ETNJ ","V020","210,1,N,0046,1","99999,9,C,N","011265,1,N,1","+0180,1","+0120,1","99999,9",,"02,5,+03600,1,99,9","04,5,+06000,1,99,9",,"04,99,1,99,9,99,9,99999,9,99,9,99,9","10119,1,99999,9",,,,,"MET063METAR ETNJ 310720Z 21009KT 9999 FEW120 SCT200 18/12 Q1012 BLU/;","P01 060003SCOCIG"
"10122099999","2010-07-31T08:20:00","4","53.5335","7.888667","7.31","JEVER, GM","FM-15","ETNJ ","V020","220,1,N,0046,1","03000,1,C,N","011265,1,N,1","+0210,1","+0130,1","99999,9",,"02,5,+02100,1,99,9","07,5,+03000,1,99,9",,"07,99,1,99,9,99,9,99999,9,99,9,99,9","10119,1,99999,9",,,,,"MET062METAR ETNJ 310820Z 22009KT 9999 FEW070 BKN100 21/13 Q1012 BLU;",
"10122099999","2010-07-31T09:20:00","4","53.5335","7.888667","7.31","JEVER, GM","FM-15","ETNJ ","V020","210,1,N,0046,1","01800,1,C,N","011265,1,N,1","+0200,1","+0130,1","99999,9",,"02,5,+01050,1,99,9","07,5,+01800,1,99,9",,"07,99,1,99,9,99,9,99999,9,99,9,99,9","10119,1,99999,9",,,,,"MET062METAR ETNJ 310920Z 21009KT 9999 FEW035 BKN060 20/13 Q1012 BLU;",
"10122099999","2010-07-31T10:20:00","4","53.5335","7.888667","7.31","JEVER, GM","FM-15","ETNJ ","V020","220,1,N,0046,1","01800,1,C,N","011265,1,N,1","+0210,1","+0130,1","99999,9",,"02,5,+00900,1,99,9","07,5,+01800,1,99,9",,"07,99,1,99,9,99,9,99999,9,99,9,99,9","10119,1,99999,9",,,,,"MET062METAR ETNJ 311020Z 22009KT 9999 FEW030 BKN060 21/13 Q1012 BLU;",
"10122099999","2010-07-31T11:20:00","4","53.5335","7.888667","7.31","JEVER, GM","FM-15","ETNJ ","V020","220,1,N,0062,1","01800,1,C,N","011265,1,N,1","+0210,1","+0130,1","99999,9",,"04,5,+00900,1,99,9","07,5,+01800,1,99,9",,"07,99,1,99,9,99,9,99999,9,99,9,99,9","10119,1,99999,9",,,,,"MET062METAR ETNJ 311120Z 22012KT 9999 SCT030 BKN060 21/13 Q1012 BLU;",
"10122099999","2010-07-31T12:20:00","4","53.5335","7.888667","7.31","JEVER, GM","FM-15","ETNJ ","V020","220,1,N,0062,1","01080,1,C,N","011265,1,N,1","+0210,1","+0130,1","99999,9",,"02,5,+00750,1,99,9","07,5,+01080,1,99,9",,"07,99,1,99,9,99,9,99999,9,99,9,99,9","10119,1,99999,9",,,,,"MET062METAR ETNJ 311220Z 22012KT 9999 FEW025 BKN036 21/13 Q1012 BLU;",
"10122099999","2010-07-31T13:20:00","4","53.5335","7.888667","7.31","JEVER, GM","FM-15","ETNJ ","V020","230,1,N,0041,1","01110,1,C,N","007000,1,N,1","+0180,1","+0140,1","99999,9",,"04,5,+00750,1,99,9","08,5,+01110,1,99,9",,"08,99,1,99,9,99,9,99999,9,99,9,99,9","10129,1,99999,9","51,1","61,1",,,"MET068METAR ETNJ 311320Z 23008KT 7000 -RADZ SCT025 OVC037 18/14 Q1013 WHT;",
"10122099999","2010-07-31T14:20:00","4","53.5335","7.888667","7.31","JEVER, GM","FM-15","ETNJ ","V020","200,1,N,0036,1","01050,1,C,N","011265,1,N,1","+0190,1","+0150,1","99999,9",,"02,5,+00540,1,99,9","07,5,+01050,1,99,9","08,5,+02700,1,99,9","08,99,1,99,9,99,9,99999,9,99,9,99,9","10119,1,99999,9",,,,,"MET069METAR ETNJ 311420Z 20007KT 9999 FEW018 BKN035 OVC090 19/15 Q1012 BLU;",
"10122099999","2010-07-31T15:20:00","4","53.5335","7.888667","7.31","JEVER, GM","FM-15","ETNJ ","V020","210,1,N,0041,1","01050,1,C,N","008000,1,N,1","+0190,1","+0140,1","99999,9",,"04,5,+00750,1,99,9","08,5,+01050,1,99,9",,"08,99,1,99,9,99,9,99999,9,99,9,99,9","10119,1,99999,9","51,1",,,,"MET066METAR ETNJ 311520Z 21008KT 8000 -DZ SCT025 OVC035 19/14 Q1012 BLU;",
"10122099999","2010-07-31T15:26:00","4","53.5335","7.888667","7.31","JEVER, GM","FM-16","ETNJ ","V020","210,1,N,0036,1","00540,1,C,N","004500,1,N,1","+0180,1","+0150,1","99999,9",,"07,5,+00540,1,99,9","07,5,+00810,1,99,9",,"07,99,1,99,9,99,9,99999,9,99,9,99,9","10119,1,99999,9","10,1","51,1","61,1",,"MET071SPECI ETNJ 311526Z 21007KT 4500 -RADZ BR BKN018 BKN027 18/15 Q1012 GRN;",
"10122099999","2010-07-31T15:44:00","4","53.5335","7.888667","7.31","JEVER, GM","FM-16","ETNJ ","V020","210,1,N,0026,1","00930,1,C,N","008000,1,N,1","+0180,1","+0150,1","99999,9",,"02,5,+00540,1,99,9","07,5,+00930,1,99,9",,"07,99,1,99,9,99,9,99999,9,99,9,99,9","10119,1,99999,9",,,,,"MET062SPECI ETNJ 311544Z 21005KT 8000 FEW018 BKN031 18/15 Q1012 BLU;",
"10122099999","2010-07-31T16:14:00","4","53.5335","7.888667","7.31","JEVER, GM","FM-16","ETNJ ","V020","200,1,N,0021,1","00450,1,C,N","004500,1,N,1","+0180,1","+0150,1","99999,9",,"07,5,+00450,1,99,9","08,5,+00840,1,99,9",,"08,99,1,99,9,99,9,99999,9,99,9,99,9","10119,1,99999,9","10,1","51,1","61,1",,"MET071SPECI ETNJ 311614Z 20004KT 4500 -RADZ BR BKN015 OVC028 18/15 Q1012 GRN;",
"10122099999","2010-07-31T16:20:00","4","53.5335","7.888667","7.31","JEVER, GM","FM-15","ETNJ ","V020","200,1,N,0021,1","00840,1,C,N","004500,1,N,1","+0180,1","+0150,1","99999,9",,"02,5,+00540,1,99,9","07,5,+00840,1,99,9","07,5,+01200,1,99,9","07,99,1,99,9,99,9,99999,9,99,9,99,9","10119,1,99999,9","10,1","51,1","61,1",,"MET078METAR ETNJ 311620Z 20004KT 4500 -RADZ BR FEW018 BKN028 BKN040 18/15 Q1012 GRN;",
"10122099999","2010-07-31T16:25:00","4","53.5335","7.888667","7.31","JEVER, GM","FM-16","ETNJ ","V020","200,1,N,0015,1","00840,1,C,N","008000,1,N,1","+0180,1","+0150,1","99999,9",,"02,5,+00540,1,99,9","04,5,+00840,1,99,9","07,5,+01140,1,99,9","07,99,1,99,9,99,9,99999,9,99,9,99,9","10119,1,99999,9",,,,,"MET069SPECI ETNJ 311625Z 20003KT 8000 FEW018 SCT028 BKN038 18/15 Q1012 BLU;",
"10122099999","2010-07-31T17:20:00","4","53.5335","7.888667","7.31","JEVER, GM","FM-15","ETNJ ","V020","140,1,N,0015,1","01260,1,C,N","007000,1,N,1","+0180,1","+0160,1","99999,9",,"02,5,+00300,1,99,9","07,5,+01260,1,99,9",,"07,99,1,99,9,99,9,99999,9,99,9,99,9","10119,1,99999,9",,,,,"MET062METAR ETNJ 311720Z 14003KT 7000 FEW010 BKN042 18/16 Q1012 WHT;",
"10122099999","2010-07-31T18:20:00","4","53.5335","7.888667","7.31","JEVER, GM","FM-15","ETNJ ","V020","140,1,N,0015,1","01320,1,C,N","007000,1,N,1","+0190,1","+0160,1","99999,9",,"07,5,+01320,1,99,9",,,"07,99,1,99,9,99,9,99999,9,99,9,99,9","10119,1,99999,9",,,,,"MET055METAR ETNJ 311820Z 14003KT 7000 BKN044 19/16 Q1012 WHT;",
"10122099999","2010-07-31T19:20:00","4","53.5335","7.888667","7.31","JEVER, GM","FM-15","ETNJ ","V020","130,1,N,0026,1","01320,1,C,N","007000,1,N,1","+0180,1","+0160,1","99999,9",,"07,5,+01320,1,99,9",,,"07,99,1,99,9,99,9,99999,9,99,9,99,9","10108,1,99999,9",,,,,"MET055METAR ETNJ 311920Z 13005KT 7000 BKN044 18/16 Q1011 WHT;",
"10122099999","2010-07-31T20:20:00","4","53.5335","7.888667","7.31","JEVER, GM","FM-15","ETNJ ","V020","140,1,N,0026,1","01140,1,C,N","007000,1,N,1","+0180,1","+0160,1","99999,9",,"07,5,+01140,1,99,9",,,"07,99,1,99,9,99,9,99999,9,99,9,99,9","10119,1,99999,9",,,,,"MET055METAR ETNJ 312020Z 14005KT 7000 BKN038 18/16 Q1012 WHT;",
"10122099999","2010-07-31T21:20:00","4","53.5335","7.888667","7.31","JEVER, GM","FM-15","ETNJ ","V020","210,1,N,0036,1","01140,1,C,N","005000,1,N,1","+0180,1","+0160,1","99999,9",,"02,5,+00810,1,99,9","07,5,+01140,1,99,9",,"07,99,1,99,9,99,9,99999,9,99,9,99,9","10119,1,99999,9","10,1","63,1",,,"MET068METAR ETNJ 312120Z 21007KT 5000 RA BR FEW027 BKN038 18/16 Q1012 WHT;",
"10122099999","2010-07-31T22:20:00","4","53.5335","7.888667","7.31","JEVER, GM","FM-15","ETNJ ","V020","190,1,N,0021,1","00810,1,C,N","006000,1,N,1","+0170,1","+0160,1","99999,9",,"07,5,+00810,1,99,9",,,"07,99,1,99,9,99,9,99999,9,99,9,99,9","10108,1,99999,9",,,,,"MET060METAR ETNJ 312220Z 19004KT 6000 BKN027 17/16 Q1011 RERA WHT;",
"10122099999","2010-07-31T23:20:00","4","53.5335","7.888667","7.31","JEVER, GM","FM-15","ETNJ ","V020","230,1,N,0021,1","01140,1,C,N","008000,1,N,1","+0170,1","+0160,1","99999,9",,"04,5,+00450,1,99,9","07,5,+01140,1,99,9",,"07,99,1,99,9,99,9,99999,9,99,9,99,9","10108,1,99999,9",,,,,"MET062METAR ETNJ 312320Z 23004KT 8000 SCT015 BKN038 17/16 Q1011 BLU;",
"10122099999","2010-08-01T00:20:00","4","53.5335","7.888667","7.31","JEVER, GM","FM-15","ETNJ ","V020","220,1,N,0021,1","05700,1,C,N","008000,1,N,1","+0160,1","+0150,1","99999,9",,"02,5,+01140,1,99,9","07,5,+05700,1,99,9",,"07,99,1,99,9,99,9,99999,9,99,9,99,9","10108,1,99999,9",,,,,"MET062METAR ETNJ 010020Z 22004KT 8000 FEW038 BKN190 16/15 Q1011 BLU;",
"10122099999","2010-08-01T01:21:00","4","53.5335","7.888667","7.31","JEVER, GM","FM-16","ETNJ ","V020","190,1,N,0021,1","05700,1,C,N","008000,1,N,1","+0160,1","+0150,1","99999,9",,"02,5,+02400,1,99,9","07,5,+05700,1,99,9",,"07,99,1,99,9,99,9,99999,9,99,9,99,9","10108,1,99999,9",,,,,"MET062SPECI ETNJ 010121Z 19004KT 8000 FEW080 BKN190 16/15 Q1011 BLU;",
"10122099999","2010-08-01T02:20:00","4","53.5335","7.888667","7.31","JEVER, GM","FM-15","ETNJ ","V020","190,1,N,0021,1","99999,9,C,N","007000,1,N,1","+0160,1","+0150,1","99999,9",,"02,5,+00270,1,99,9","04,5,+04500,1,99,9",,"04,99,1,99,9,99,9,99999,9,99,9,99,9","10108,1,99999,9",,,,,"MET062METAR ETNJ 010220Z 19004KT 7000 FEW009 SCT150 16/15 Q1011 WHT;","P01 045003SCOCIG"
"10122099999","2010-08-01T03:20:00","4","53.5335","7.888667","7.31","JEVER, GM","FM-15","ETNJ ","V020","190,1,N,0021,1","01500,1,C,N","005000,1,N,1","+0160,1","+0150,1","99999,9",,"04,5,+00510,1,99,9","07,5,+01500,1,99,9",,"07,99,1,99,9,99,9,99999,9,99,9,99,9","10108,1,99999,9","10,1",,,,"MET065METAR ETNJ 010320Z 19004KT 5000 BR SCT017 BKN050 16/15 Q1011 WHT;",
"10122099999","2010-08-01T04:20:00","4","53.5335","7.888667","7.31","JEVER, GM","FM-15","ETNJ ","V020","160,1,N,0021,1","01440,1,C,N","005000,1,N,1","+0160,1","+0160,1","99999,9",,"02,5,+00510,1,99,9","07,5,+01440,1,99,9",,"07,99,1,99,9,99,9,99999,9,99,9,99,9","10108,1,99999,9","10,1",,,,"MET065METAR ETNJ 010420Z 16004KT 5000 BR FEW017 BKN048 16/16 Q1011 WHT;",
"10122099999","2010-08-01T05:20:00","4","53.5335","7.888667","7.31","JEVER, GM","FM-15","ETNJ ","V020","170,1,N,0021,1","01320,1,C,N","006000,1,N,1","+0170,1","+0170,1","99999,9",,"02,5,+00750,1,99,9","07,5,+01320,1,99,9",,"07,99,1,99,9,99,9,99999,9,99,9,99,9","10108,1,99999,9",,,,,"MET062METAR ETNJ 010520Z 17004KT 6000 FEW025 BKN044 17/17 Q1011 WHT;",
"10122099999","2010-08-01T06:20:00","4","53.5335","7.888667","7.31","JEVER, GM","FM-15","ETNJ ","V020","180,1,N,0015,1","01500,1,C,N","007000,1,N,1","+0180,1","+0180,1","99999,9",,"02,5,+00630,1,99,9","07,5,+01500,1,99,9",,"07,99,1,99,9,99,9,99999,9,99,9,99,9","10108,1,99999,9",,,,,"MET062METAR ETNJ 010620Z 18003KT 7000 FEW021 BKN050 18/18 Q1011 WHT;",
"10122099999","2010-08-01T07:20:00","4","53.5335","7.888667","7.31","JEVER, GM","FM-15","ETNJ ","V020","220,1,N,0021,1","00540,1,C,N","008000,1,N,1","+0200,1","+0180,1","99999,9",,"02,5,+00330,1,99,9","04,5,+00540,1,99,9","07,5,+01500,1,99,9","07,99,1,99,9,99,9,99999,9,99,9,99,9","10108,1,99999,9",,,,,"MET069METAR ETNJ 010720Z 22004KT 8000 FEW011 SCT018 BKN050 20/18 Q1011 BLU;",
"10122099999","2010-08-01T08:20:00","4","53.5335","7.888667","7.31","JEVER, GM","FM-15","ETNJ ","V020","230,1,N,0036,1","99999,9,C,N","011265,1,N,1","+0210,1","+0180,1","99999,9",,"02,5,+00420,1,99,9","04,5,+06900,1,99,9",,"04,99,1,99,9,99,9,99999,9,99,9,99,9","10119,1,99999,9",,,,,"MET063METAR ETNJ 010820Z 23007KT 9999 FEW014 SCT230 21/18 Q1012 BLU/;","P01 069003SCOCIG"
"10122099999","2010-08-01T09:20:00","4","53.5335","7.888667","7.31","JEVER, GM","FM-15","ETNJ ","V020","250,1,N,0041,1","99999,9,C,N","011265,1,N,1","+0220,1","+0170,1","99999,9",,"02,5,+00600,1,99,9","04,5,+06900,1,99,9",,"04,99,1,99,9,99,9,99999,9,99,9,99,9","10119,1,99999,9",,,,,"MET063METAR ETNJ 010920Z 25008KT 9999 FEW020 SCT230 22/17 Q1012 BLU/;","P01 069003SCOCIG"
"10122099999","2010-08-01T10:20:00","4","53.5335","7.888667","7.31","JEVER, GM","FM-15","ETNJ ","V020","230,1,N,0036,1","06900,1,C,N","011265,1,N,1","+0230,1","+0160,1","99999,9",,"02,5,+00750,1,99,9","07,5,+06900,1,99,9",,"07,99,1,99,9,99,9,99999,9,99,9,99,9","10119,1,99999,9",,,,,"MET063METAR ETNJ 011020Z 23007KT 9999 FEW025 BKN230 23/16 Q1012 BLU/;",
"10122099999","2010-08-01T11:20:00","4","53.5335","7.888667","7.31","JEVER, GM","FM-15","ETNJ ","V020","260,1,N,0036,1","03000,1,C,N","011265,1,N,1","+0230,1","+0160,1","99999,9",,"02,5,+00840,1,99,9","07,5,+03000,1,99,9",,"07,99,1,99,9,99,9,99999,9,99,9,99,9","10119,1,99999,9",,,,,"MET062METAR ETNJ 011120Z 26007KT 9999 FEW028 BKN100 23/16 Q1012 BLU;",
"10122099999","2010-08-01T12:20:00","4","53.5335","7.888667","7.31","JEVER, GM","FM-15","ETNJ ","V020","280,1,N,0036,1","03000,1,C,N","011265,1,N,1","+0230,1","+0150,1","99999,9",,"02,5,+00900,1,99,9","07,5,+03000,1,99,9",,"07,99,1,99,9,99,9,99999,9,99,9,99,9","10119,1,99999,9",,,,,"MET062METAR ETNJ 011220Z 28007KT 9999 FEW030 BKN100 23/15 Q1012 BLU;",
"10122099999","2010-08-01T13:20:00","4","53.5335","7.888667","7.31","JEVER, GM","FM-15","ETNJ ","V020","340,1,N,0036,1","03000,1,C,N","011265,1,N,1","+0220,1","+0160,1","99999,9",,"02,5,+00900,1,99,9","07,5,+03000,1,99,9",,"07,99,1,99,9,99,9,99999,9,99,9,99,9","10129,1,99999,9",,,,,"MET062METAR ETNJ 011320Z 34007KT 9999 FEW030 BKN100 22/16 Q1013 BLU;",
"10122099999","2010-08-01T14:20:00","4","53.5335","7.888667","7.31","JEVER, GM","FM-15","ETNJ ","V020","340,1,N,0041,1","03900,1,C,N","011265,1,N,1","+0210,1","+0150,1","99999,9",,"02,5,+00750,1,99,9","07,5,+03900,1,99,9","07,5,+06900,1,99,9","07,99,1,99,9,99,9,99999,9,99,9,99,9","10129,1,99999,9",,,,,"MET069METAR ETNJ 011420Z 34008KT 9999 FEW025 BKN130 BKN230 21/15 Q1013 BLU;",
"10122099999","2010-08-01T15:20:00","4","53.5335","7.888667","7.31","JEVER, GM","FM-15","ETNJ ","V020","330,1,N,0041,1","03900,1,C,N","011265,1,N,1","+0210,1","+0140,1","99999,9",,"02,5,+00750,1,99,9","04,5,+03900,1,99,9","07,5,+06900,1,99,9","07,99,1,99,9,99,9,99999,9,99,9,99,9","10129,1,99999,9",,,,,"MET070METAR ETNJ 011520Z 33008KT 9999 FEW025 SCT130 BKN230 21/14 Q1013 BLU/;",
"10122099999","2010-08-01T16:20:00","4","53.5335","7.888667","7.31","JEVER, GM","FM-15","ETNJ ","V020","350,1,N,0041,1","04200,1,C,N","011265,1,N,1","+0200,1","+0140,1","99999,9",,"02,5,+00750,1,99,9","07,5,+04200,1,99,9",,"07,99,1,99,9,99,9,99999,9,99,9,99,9","10129,1,99999,9",,,,,"MET062METAR ETNJ 011620Z 35008KT 9999 FEW025 BKN140 20/14 Q1013 BLU;",
"10122099999","2010-08-01T17:20:00","4","53.5335","7.888667","7.31","JEVER, GM","FM-15","ETNJ ","V020","010,1,N,0031,1","02400,1,C,N","011265,1,N,1","+0190,1","+0140,1","99999,9",,"02,5,+00750,1,99,9","04,5,+02400,1,99,9","07,5,+05400,1,99,9","07,99,1,99,9,99,9,99999,9,99,9,99,9","10129,1,99999,9",,,,,"MET069METAR ETNJ 011720Z 01006KT 9999 FEW025 SCT080 BKN180 19/14 Q1013 BLU;",
"10122099999","2010-08-01T18:20:00","4","53.5335","7.888667","7.31","JEVER, GM","FM-15","ETNJ ","V020","030,1,N,0021,1","03000,1,C,N","011265,1,N,1","+0190,1","+0140,1","99999,9",,"02,5,+00750,1,99,9","07,5,+03000,1,99,9","07,5,+05400,1,99,9","07,99,1,99,9,99,9,99999,9,99,9,99,9","10129,1,99999,9",,,,,"MET069METAR ETNJ 011820Z 03004KT 9999 FEW025 BKN100 BKN180 19/14 Q1013 BLU;",
"10122099999","2010-08-01T19:20:00","4","53.5335","7.888667","7.31","JEVER, GM","FM-15","ETNJ ","V020","040,1,N,0015,1","02700,1,C,N","011265,1,N,1","+0180,1","+0140,1","99999,9",,"02,5,+01500,1,99,9","07,5,+02700,1,99,9",,"07,99,1,99,9,99,9,99999,9,99,9,99,9","10129,1,99999,9",,,,,"MET062METAR ETNJ 011920Z 04003KT 9999 FEW050 BKN090 18/14 Q1013 BLU;",
"10122099999","2010-08-01T20:20:00","4","53.5335","7.888667","7.31","JEVER, GM","FM-15","ETNJ ","V020","060,1,N,0010,1","02400,1,C,N","011265,1,N,1","+0180,1","+0140,1","99999,9",,"02,5,+01800,1,99,9","07,5,+02400,1,99,9",,"07,99,1,99,9,99,9,99999,9,99,9,99,9","10139,1,99999,9",,,,,"MET062METAR ETNJ 012020Z 06002KT 9999 FEW060 BKN080 18/14 Q1014 BLU;",
"10122099999","2010-08-01T21:20:00","4","53.5335","7.888667","7.31","JEVER, GM","FM-15","ETNJ ","V020","060,1,N,0010,1","01800,1,C,N","011265,1,N,1","+0180,1","+0140,1","99999,9",,"07,5,+01800,1,99,9","07,5,+03000,1,99,9",,"07,99,1,99,9,99,9,99999,9,99,9,99,9","10139,1,99999,9",,,,,"MET062METAR ETNJ 012120Z 06002KT 9999 BKN060 BKN100 18/14 Q1014 BLU;",
"10122099999","2010-08-01T22:20:00","4","53.5335","7.888667","7.31","JEVER, GM","FM-15","ETNJ ","V020","340,1,N,0010,1","01500,1,C,N","011265,1,N,1","+0170,1","+0140,1","99999,9",,"07,5,+01500,1,99,9","08,5,+02700,1,99,9",,"08,99,1,99,9,99,9,99999,9,99,9,99,9","10129,1,99999,9","61,1",,,,"MET066METAR ETNJ 012220Z 34002KT 9999 -RA BKN050 OVC090 17/14 Q1013 BLU;",
"10122099999","2010-08-01T23:20:00","4","53.5335","7.888667","7.31","JEVER, GM","FM-15","ETNJ ","V020","310,1,N,0010,1","01500,1,C,N","011265,1,N,1","+0160,1","+0140,1","99999,9",,"07,5,+01500,1,99,9","08,5,+02700,1,99,9",,"08,99,1,99,9,99,9,99999,9,99,9,99,9","10139,1,99999,9",,,,,"MET062METAR ETNJ 012320Z 31002KT 9999 BKN050 OVC090 16/14 Q1014 BLU;",
"10122099999","2010-08-02T00:20:00","4","53.5335","7.888667","7.31","JEVER, GM","FM-15","ETNJ ","V020","350,1,N,0015,1","02400,1,C,N","011265,1,N,1","+0160,1","+0130,1","99999,9",,"04,5,+01440,1,99,9","08,5,+02400,1,99,9",,"08,99,1,99,9,99,9,99999,9,99,9,99,9","10129,1,99999,9",,,,,"MET062METAR ETNJ 020020Z 35003KT 9999 SCT048 OVC080 16/13 Q1013 BLU;",
"10122099999","2010-08-02T01:20:00","4","53.5335","7.888667","7.31","JEVER, GM","FM-15","ETNJ ","V020","240,1,N,0010,1","01440,1,C,N","011265,1,N,1","+0150,1","+0130,1","99999,9",,"07,5,+01440,1,99,9","08,5,+02400,1,99,9",,"08,99,1,99,9,99,9,99999,9,99,9,99,9","10139,1,99999,9",,,,,"MET062METAR ETNJ 020120Z 24002KT 9999 BKN048 OVC080 15/13 Q1014 BLU;",
"10122099999","2010-08-02T02:20:00","4","53.5335","7.888667","7.31","JEVER, GM","FM-15","ETNJ ","V020","170,1,N,0010,1","01440,1,C,N","011265,1,N,1","+0150,1","+0130,1","99999,9",,"07,5,+01440,1,99,9",,,"07,99,1,99,9,99,9,99999,9,99,9,99,9","10129,1,99999,9",,,,,"MET055METAR ETNJ 020220Z 17002KT 9999 BKN048 15/13 Q1013 BLU;",
"10122099999","2010-08-02T03:20:00","4","53.5335","7.888667","7.31","JEVER, GM","FM-15","ETNJ ","V020","170,1,N,0010,1","01260,1,C,N","011265,1,N,1","+0150,1","+0130,1","99999,9",,"07,5,+01260,1,99,9",,,"07,99,1,99,9,99,9,99999,9,99,9,99,9","10129,1,99999,9",,,,,"MET055METAR ETNJ 020320Z 17002KT 9999 BKN042 15/13 Q1013 BLU;",
"10122099999","2010-08-02T04:20:00","4","53.5335","7.888667","7.31","JEVER, GM","FM-15","ETNJ ","V020","270,1,N,0010,1","03300,1,C,N","011265,1,N,1","+0150,1","+0130,1","99999,9",,"04,5,+01500,1,99,9","07,5,+03300,1,99,9",,"07,99,1,99,9,99,9,99999,9,99,9,99,9","10139,1,99999,9",,,,,"MET066METAR ETNJ 020420Z 27002KT 9999 SCT050 BKN110 15/13 Q1014 BLU BLU;",
"10122099999","2010-08-02T05:20:00","4","53.5335","7.888667","7.31","JEVER, GM","FM-15","ETNJ ","V020","240,1,N,0021,1","03300,1,C,N","011265,1,N,1","+0160,1","+0130,1","99999,9",,"02,5,+01500,1,99,9","07,5,+03300,1,99,9",,"07,99,1,99,9,99,9,99999,9,99,9,99,9","10139,1,99999,9",,,,,"MET066METAR ETNJ 020520Z 24004KT 9999 FEW050 BKN110 16/13 Q1014 BLU BLU;",
"10122099999","2010-08-02T06:20:00","4","53.5335","7.888667","7.31","JEVER, GM","FM-15","ETNJ ","V020","260,1,N,0031,1","04200,1,C,N","011265,1,N,1","+0180,1","+0140,1","99999,9",,"04,5,+01200,1,99,9","07,5,+04200,1,99,9",,"07,99,1,99,9,99,9,99999,9,99,9,99,9","10139,1,99999,9",,,,,"MET066METAR ETNJ 020620Z 26006KT 9999 SCT040 BKN140 18/14 Q1014 BLU BLU;",
"10122099999","2010-08-02T07:20:00","4","53.5335","7.888667","7.31","JEVER, GM","FM-15","ETNJ ","V020","290,1,N,0031,1","03300,1,C,N","011265,1,N,1","+0180,1","+0130,1","99999,9",,"02,5,+00900,1,99,9","07,5,+03300,1,99,9",,"07,99,1,99,9,99,9,99999,9,99,9,99,9","10139,1,99999,9",,,,,"MET066METAR ETNJ 020720Z 29006KT 9999 FEW030 BKN110 18/13 Q1014 BLU BLU;",
"10122099999","2010-08-02T08:20:00","4","53.5335","7.888667","7.31","JEVER, GM","FM-15","ETNJ ","V020","250,1,N,0015,1","03300,1,C,N","011265,1,N,1","+0180,1","+0140,1","99999,9",,"02,5,+00600,1,99,9","04,5,+03300,1,99,9","07,5,+05100,1,99,9","07,99,1,99,9,99,9,99999,9,99,9,99,9","10139,1,99999,9",,,,,"MET073METAR ETNJ 020820Z 25003KT 9999 FEW020 SCT110 BKN170 18/14 Q1014 BLU BLU;",
"10122099999","2010-08-02T09:20:00","4","53.5335","7.888667","7.31","JEVER, GM","FM-15","ETNJ ","V020","270,1,N,0026,1","99999,9,C,N","011265,1,N,1","+0200,1","+0140,1","99999,9",,"04,5,+00660,1,99,9","04,5,+03300,1,99,9",,"04,99,1,99,9,99,9,99999,9,99,9,99,9","10139,1,99999,9",,,,,"MET066METAR ETNJ 020920Z 27005KT 9999 SCT022 SCT110 20/14 Q1014 BLU/BLU;","P01 033003SCOCIG"
"10122099999","2010-08-02T10:20:00","4","53.5335","7.888667","7.31","JEVER, GM","FM-15","ETNJ ","V020","210,1,N,0036,1","02400,1,C,N","011265,1,N,1","+0210,1","+0140,1","99999,9",,"02,5,+00660,1,02,1","07,5,+02400,1,99,9",,"07,99,1,99,9,99,9,99999,9,99,9,99,9","10139,1,99999,9",,,,,"MET069METAR ETNJ 021020Z 21007KT 9999 FEW022TCU BKN080 21/14 Q1014 BLU BLU;",
"10122099999","2010-08-02T11:20:00","4","53.5335","7.888667","7.31","JEVER, GM","FM-15","ETNJ ","V020","010,1,N,0021,1","02400,1,C,N","011265,1,N,1","+0180,1","+0140,1","99999,9",,"02,5,+00750,1,02,1","07,5,+02400,1,99,9",,"07,99,1,99,9,99,9,99999,9,99,9,99,9","10139,1,99999,9",,,,,"MET069METAR ETNJ 021120Z 01004KT 9999 FEW025TCU BKN080 18/14 Q1014 BLU BLU;",
"10122099999","2010-08-02T12:20:00","4","53.5335","7.888667","7.31","JEVER, GM","FM-15","ETNJ ","V020","260,1,N,0031,1","02400,1,C,N","011265,1,N,1","+0200,1","+0150,1","99999,9",,"02,5,+00750,1,02,1","07,5,+02400,1,99,9",,"07,99,1,99,9,99,9,99999,9,99,9,99,9","10139,1,99999,9",,,,,"MET069METAR ETNJ 021220Z 26006KT 9999 FEW025TCU BKN080 20/15 Q1014 BLU BLU;",
"10122099999","2010-08-02T13:20:00","4","53.5335","7.888667","7.31","JEVER, GM","FM-15","ETNJ ","V020","300,1,N,0036,1","02400,1,C,N","011265,1,N,1","+0190,1","+0140,1","99999,9",,"02,5,+00600,1,02,1","07,5,+02400,1,99,9",,"07,99,1,99,9,99,9,99999,9,99,9,99,9","10139,1,99999,9",,,,,"MET079METAR ETNJ 021320Z 30007KT 9999 FEW020TCU BKN080 19/14 Q1014 BLU BLU TEMPO WHT;",
"10122099999","2010-08-02T14:20:00","4","53.5335","7.888667","7.31","JEVER, GM","FM-15","ETNJ ","V020","310,1,N,0026,1","02400,1,C,N","011265,1,N,1","+0180,1","+0140,1","99999,9",,"02,5,+00600,1,99,9","07,5,+02400,1,99,9",,"07,99,1,99,9,99,9,99999,9,99,9,99,9","10139,1,99999,9",,,,,"MET074METAR ETNJ 021420Z 31005KT 9999 FEW020 BKN080 18/14 Q1014 BLU FCST CANCEL;",
"10122099999","2010-08-02T15:20:00","4","53.5335","7.888667","7.31","JEVER, GM","FM-15","ETNJ ","V020","300,1,N,0026,1","02400,1,C,N","011265,1,N,1","+0190,1","+0140,1","99999,9",,"02,5,+00600,1,99,9","07,5,+02400,1,99,9",,"07,99,1,99,9,99,9,99999,9,99,9,99,9","10139,1,99999,9",,,,,"MET062METAR ETNJ 021520Z 30005KT 9999 FEW020 BKN080 19/14 Q1014 BLU;",
"10122099999","2010-08-02T16:20:00","4","53.5335","7.888667","7.31","JEVER, GM","FM-15","ETNJ ","V020","320,1,N,0021,1","02100,1,C,N","011265,1,N,1","+0180,1","+0140,1","99999,9",,"02,5,+00600,1,99,9","07,5,+02100,1,99,9",,"07,99,1,99,9,99,9,99999,9,99,9,99,9","10139,1,99999,9",,,,,"MET062METAR ETNJ 021620Z 32004KT 9999 FEW020 BKN070 18/14 Q1014 BLU;",
"10122099999","2010-08-02T17:20:00","4","53.5335","7.888667","7.31","JEVER, GM","FM-15","ETNJ ","V020","310,1,N,0015,1","02400,1,C,N","011265,1,N,1","+0180,1","+0140,1","99999,9",,"02,5,+00360,1,99,9","07,5,+02400,1,99,9",,"07,99,1,99,9,99,9,99999,9,99,9,99,9","10139,1,99999,9","61,1",,,,"MET066METAR ETNJ 021720Z 31003KT 9999 -RA FEW012 BKN080 18/14 Q1014 BLU;",
"10122099999","2010-08-02T18:20:00","4","53.5335","7.888667","7.31","JEVER, GM","FM-15","ETNJ ","V020","320,1,N,0015,1","02700,1,C,N","011265,1,N,1","+0180,1","+0150,1","99999,9",,"02,5,+00360,1,99,9","07,5,+02700,1,99,9",,"07,99,1,99,9,99,9,99999,9,99,9,99,9","10139,1,99999,9",,,,,"MET062METAR ETNJ 021820Z 32003KT 9999 FEW012 BKN090 18/15 Q1014 BLU;",
"10122099999","2010-08-02T19:20:00","4","53.5335","7.888667","7.31","JEVER, GM","FM-15","ETNJ ","V020","330,1,N,0015,1","02700,1,C,N","011265,1,N,1","+0170,1","+0150,1","99999,9",,"02,5,+00450,1,99,9","07,5,+02700,1,99,9",,"07,99,1,99,9,99,9,99999,9,99,9,99,9","10139,1,99999,9",,,,,"MET062METAR ETNJ 021920Z 33003KT 9999 FEW015 BKN090 17/15 Q1014 BLU;",
"10122099999","2010-08-02T20:20:00","4","53.5335","7.888667","7.31","JEVER, GM","FM-15","ETNJ ","V020","340,1,N,0010,1","02700,1,C,N","011265,1,N,1","+0160,1","+0140,1","99999,9",,"02,5,+00450,1,99,9","07,5,+02700,1,99,9",,"07,99,1,99,9,99,9,99999,9,99,9,99,9","10139,1,99999,9",,,,,"MET062METAR ETNJ 022020Z 34002KT 9999 FEW015 BKN090 16/14 Q1014 BLU;",
"10122099999","2010-08-02T21:20:00","4","53.5335","7.888667","7.31","JEVER, GM","FM-15","ETNJ ","V020","300,1,N,0015,1","99999,9,C,N","011265,1,N,1","+0150,1","+0130,1","99999,9",,"02,5,+00450,1,99,9","04,5,+02700,1,99,9",,"04,99,1,99,9,99,9,99999,9,99,9,99,9","10139,1,99999,9",,,,,"MET063METAR ETNJ 022120Z 30003KT 9999 FEW015 SCT090 15/13 Q1014 BLU/;","P01 027003SCOCIG"
"10122099999","2010-08-02T22:20:00","4","53.5335","7.888667","7.31","JEVER, GM","FM-15","ETNJ ","V020","290,1,N,0010,1","03000,1,C,N","008000,1,N,1","+0140,1","+0120,1","99999,9",,"07,5,+03000,1,99,9",,,"07,99,1,99,9,99,9,99999,9,99,9,99,9","10139,1,99999,9","12,1",,,,"MET060METAR ETNJ 022220Z 29002KT 8000 MIFG BKN100 14/12 Q1014 BLU;",
"10122099999","2010-08-02T23:20:00","4","53.5335","7.888667","7.31","JEVER, GM","FM-15","ETNJ ","V020","240,1,N,0005,1","22000,1,9,N","006000,1,N,1","+0130,1","+0110,1","99999,9",,"04,5,+03900,1,99,9",,,"04,99,1,99,9,99,9,99999,9,99,9,99,9","10139,1,99999,9","12,1",,,,"MET060METAR ETNJ 022320Z 24001KT 6000 MIFG SCT130 13/11 Q1014 WHT;",
"10122099999","2010-08-03T00:20:00","4","53.5335","7.888667","7.31","JEVER, GM","FM-15","ETNJ ","V020","260,1,N,0005,1","22000,1,9,N","006000,1,N,1","+0120,1","+0110,1","99999,9",,"02,5,+03900,1,99,9",,,"02,99,1,99,9,99,9,99999,9,99,9,99,9","10139,1,99999,9","12,1",,,,"MET070METAR ETNJ 030020Z 26001KT 6000 R28/1200D MIFG FEW130 12/11 Q1014 WHT;",
"10122099999","2010-08-03T01:20:00","4","53.5335","7.888667","7.31","JEVER, GM","FM-15","ETNJ ","V020","250,1,N,0010,1","22000,1,9,N","007000,1,N,1","+0120,1","+0110,1","99999,9",,"02,5,+00450,1,99,9",,,"02,99,1,99,9,99,9,99999,9,99,9,99,9","10139,1,99999,9",,,,,"MET055METAR ETNJ 030120Z 25002KT 7000 FEW015 12/11 Q1014 WHT;",
"10122099999","2010-08-03T02:20:00","4","53.5335","7.888667","7.31","JEVER, GM","FM-15","ETNJ ","V020","280,1,N,0010,1","99999,9,C,N","006000,1,N,1","+0120,1","+0110,1","99999,9",,"02,5,+00450,1,99,9","04,5,+03600,1,99,9",,"04,99,1,99,9,99,9,99999,9,99,9,99,9","10139,1,99999,9","12,1",,,,"MET067METAR ETNJ 030220Z 28002KT 6000 MIFG FEW015 SCT120 12/11 Q1014 WHT;","P01 036003SCOCIG"
"10122099999","2010-08-03T03:20:00","4","53.5335","7.888667","7.31","JEVER, GM","FM-15","ETNJ ","V020","290,1,N,0010,1","22000,1,9,N","006000,1,N,1","+0110,1","+0100,1","99999,9",,"02,5,+00450,1,99,9",,,"02,99,1,99,9,99,9,99999,9,99,9,99,9","10139,1,99999,9","12,1",,,,"MET060METAR ETNJ 030320Z 29002KT 6000 MIFG FEW015 11/10 Q1014 WHT;",
"10122099999","2010-08-03T03:48:00","4","53.5335","7.888667","7.31","JEVER, GM","FM-16","ETNJ ","V020","999,9,V,0005,1","22000,1,9,N","001800,1,N,1","+0110,1","+0100,1","99999,9",,"02,5,+00450,1,99,9",,,"02,99,1,99,9,99,9,99999,9,99,9,99,9","10139,1,99999,9","41,1",,,,"MET070SPECI ETNJ 030348Z VRB01KT 1800 R28/3100N BCFG FEW015 11/10 Q1014 YLO;",
"10122099999","2010-08-03T04:20:00","4","53.5335","7.888667","7.31","JEVER, GM","FM-15","ETNJ ","V020","270,1,N,0010,1","22000,1,9,N","001800,1,N,1","+0110,1","+0100,1","99999,9",,"02,5,+00450,1,99,9",,,"02,99,1,99,9,99,9,99999,9,99,9,99,9","10139,1,99999,9","41,1",,,,"MET085METAR ETNJ 030420Z 27002KT 1800 R28/1300U BCFG FEW015 11/10 Q1014 YLO BLU/ TEMPO AMB;",
"10122099999","2010-08-03T04:48:00","4","53.5335","7.888667","7.31","JEVER, GM","FM-16","ETNJ ","V020","280,1,N,0015,1","22000,1,9,N","008000,1,N,1","+0120,1","+0120,1","99999,9",,"02,5,+00450,1,99,9",,,"02,99,1,99,9,99,9,99999,9,99,9,99,9","10139,1,99999,9","12,1",,,,"MET075SPECI ETNJ 030448Z 28003KT 8000 MIFG FEW015 12/12 Q1014 BLU/BLU/ TEMPO AMB;",
"10122099999","2010-08-03T05:20:00","4","53.5335","7.888667","7.31","JEVER, GM","FM-15","ETNJ ","V020","300,1,N,0010,1","22000,1,9,N","011265,1,N,1","+0130,1","+0130,1","99999,9",,"02,5,+00450,1,99,9",,,"02,99,1,99,9,99,9,99999,9,99,9,99,9","10139,1,99999,9",,,,,"MET070METAR ETNJ 030520Z 30002KT 9999 FEW015 13/13 Q1014 BLU/BLU/ TEMPO WHT;",
"10122099999","2010-08-03T06:20:00","4","53.5335","7.888667","7.31","JEVER, GM","FM-15","ETNJ ","V020","280,1,N,0026,1","99999,9,C,N","011265,1,N,1","+0170,1","+0150,1","99999,9",,"02,5,+00450,1,02,1","04,5,+02700,1,99,9",,"04,99,1,99,9,99,9,99999,9,99,9,99,9","10139,1,99999,9",,,,,"MET080METAR ETNJ 030620Z 28005KT 9999 FEW015TCU SCT090 17/15 Q1014 BLU/BLU/ TEMPO WHT;","P01 027003SCOCIG"
"10122099999","2010-08-03T07:20:00","4","53.5335","7.888667","7.31","JEVER, GM","FM-15","ETNJ ","V020","270,1,N,0026,1","99999,9,C,N","011265,1,N,1","+0180,1","+0140,1","99999,9",,"02,5,+00450,1,02,1","04,5,+02700,1,99,9",,"04,99,1,99,9,99,9,99999,9,99,9,99,9","10139,1,99999,9",,,,,"MET080METAR ETNJ 030720Z 27005KT 9999 FEW015TCU SCT090 18/14 Q1014 BLU/BLU/ TEMPO WHT;","P01 027003SCOCIG"
"10122099999","2010-08-03T08:20:00","4","53.5335","7.888667","7.31","JEVER, GM","FM-15","ETNJ ","V020","260,1,N,0031,1","99999,9,C,N","011265,1,N,1","+0180,1","+0130,1","99999,9",,"04,5,+00600,1,02,1","04,5,+02700,1,99,9",,"04,99,1,99,9,99,9,99999,9,99,9,99,9","10139,1,99999,9","16,1",,,,"MET075METAR ETNJ 030820Z 26006KT 9999 VCSH SCT020TCU SCT090 18/13 Q1014 BLU/BLU/;","P01 027003SCOCIG"
"10122099999","2010-08-03T09:20:00","4","53.5335","7.888667","7.31","JEVER, GM","FM-15","ETNJ ","V020","340,1,N,0021,1","02700,1,C,N","011265,1,N,1","+0180,1","+0130,1","99999,9",,"04,5,+00600,1,02,1","07,5,+02700,1,99,9",,"07,99,1,99,9,99,9,99999,9,99,9,99,9","10139,1,99999,9","80,1",,,,"MET080METAR ETNJ 030920Z 34004KT 9999 -SHRA SCT020TCU BKN090 18/13 Q1014 RERA BLU BLU;",
"10122099999","2010-08-03T10:20:00","4","53.5335","7.888667","7.31","JEVER, GM","FM-15","ETNJ ","V020","260,1,N,0051,1","02100,1,C,N","011265,1,N,1","+0170,1","+0130,1","99999,9",,"02,5,+00600,1,02,1","07,5,+02100,1,99,9",,"07,99,1,99,9,99,9,99999,9,99,9,99,9","10139,1,99999,9",,,,,"MET084METAR ETNJ 031020Z 26010KT 9999 FEW020TCU BKN070 17/13 Q1014 RERA BLU BLU TEMPO WHT;",
"10122099999","2010-08-03T11:20:00","4","53.5335","7.888667","7.31","JEVER, GM","FM-15","ETNJ ","V020","270,1,N,0051,1","02100,1,C,N","011265,1,N,1","+0180,1","+0110,1","99999,9",,"02,5,+00600,1,02,1","07,5,+02100,1,99,9",,"07,99,1,99,9,99,9,99999,9,99,9,99,9","10139,1,99999,9",,,,,"MET079METAR ETNJ 031120Z 27010KT 9999 FEW020TCU BKN070 18/11 Q1014 BLU BLU TEMPO WHT;",
"10122099999","2010-08-03T12:20:00","4","53.5335","7.888667","7.31","JEVER, GM","FM-15","ETNJ ","V020","280,1,N,0036,1","02400,1,C,N","011265,1,N,1","+0190,1","+0130,1","99999,9",,"02,5,+00600,1,02,1","07,5,+02400,1,99,9",,"07,99,1,99,9,99,9,99999,9,99,9,99,9","10129,1,99999,9",,,,,"MET079METAR ETNJ 031220Z 28007KT 9999 FEW020TCU BKN080 19/13 Q1013 BLU BLU TEMPO WHT;",
"10122099999","2010-08-03T13:20:00","4","53.5335","7.888667","7.31","JEVER, GM","FM-15","ETNJ ","V020","300,1,N,0041,1","02100,1,C,N","011265,1,N,1","+0190,1","+0130,1","99999,9",,"04,5,+00660,1,99,9","07,5,+02100,1,99,9",,"07,99,1,99,9,99,9,99999,9,99,9,99,9","10129,1,99999,9",,,,,"MET076METAR ETNJ 031320Z 30008KT 9999 SCT022 BKN070 19/13 Q1013 BLU BLU TEMPO WHT;",
"10122099999","2010-08-03T14:20:00","4","53.5335","7.888667","7.31","JEVER, GM","FM-15","ETNJ ","V020","350,1,N,0015,1","02100,1,C,N","011265,1,N,1","+0180,1","+0150,1","99999,9",,"04,5,+00660,1,99,9","07,5,+02100,1,99,9",,"07,99,1,99,9,99,9,99999,9,99,9,99,9","10129,1,99999,9",,,,,"MET079METAR ETNJ 031420Z 35003KT 9999 SCT022 BKN070 18/15 Q1013 RERA BLU FCST CANCEL;",
"10122099999","2010-08-03T15:20:00","4","53.5335","7.888667","7.31","JEVER, GM","FM-15","ETNJ ","V020","330,1,N,0026,1","99999,9,C,N","011265,1,N,1","+0190,1","+0140,1","99999,9",,"04,5,+00600,1,99,9","04,5,+02400,1,99,9",,"04,99,1,99,9,99,9,99999,9,99,9,99,9","10129,1,99999,9",,,,,"MET063METAR ETNJ 031520Z 33005KT 9999 SCT020 SCT080 19/14 Q1013 BLU/;","P01 024003SCOCIG"
"10122099999","2010-08-03T16:20:00","4","53.5335","7.888667","7.31","JEVER, GM","FM-15","ETNJ ","V020","320,1,N,0036,1","22000,1,9,N","011265,1,N,1","+0190,1","+0130,1","99999,9",,"04,5,+00750,1,99,9",,,"04,99,1,99,9,99,9,99999,9,99,9,99,9","10129,1,99999,9",,,,,"MET056METAR ETNJ 031620Z 32007KT 9999 SCT025 19/13 Q1013 BLU/;",
"10122099999","2010-08-03T17:20:00","4","53.5335","7.888667","7.31","JEVER, GM","FM-15","ETNJ ","V020","310,1,N,0041,1","22000,1,9,N","011265,1,N,1","+0190,1","+0130,1","99999,9",,"04,5,+00750,1,99,9",,,"04,99,1,99,9,99,9,99999,9,99,9,99,9","10129,1,99999,9",,,,,"MET056METAR ETNJ 031720Z 31008KT 9999 SCT025 19/13 Q1013 BLU/;",
"10122099999","2010-08-03T18:20:00","4","53.5335","7.888667","7.31","JEVER, GM","FM-15","ETNJ ","V020","300,1,N,0031,1","22000,1,9,N","011265,1,N,1","+0190,1","+0120,1","99999,9",,"02,5,+00750,1,99,9",,,"02,99,1,99,9,99,9,99999,9,99,9,99,9","10129,1,99999,9",,,,,"MET056METAR ETNJ 031820Z 30006KT 9999 FEW025 19/12 Q1013 BLU/;",
"10122099999","2010-08-03T19:20:00","4","53.5335","7.888667","7.31","JEVER, GM","FM-15","ETNJ ","V020","280,1,N,0015,1","22000,1,9,N","011265,1,N,1","+0150,1","+0110,1","99999,9",,"02,5,+00750,1,99,9",,,"02,99,1,99,9,99,9,99999,9,99,9,99,9","10129,1,99999,9",,,,,"MET056METAR ETNJ 031920Z 28003KT 9999 FEW025 15/11 Q1013 BLU/;",
"10122099999","2010-08-03T20:20:00","4","53.5335","7.888667","7.31","JEVER, GM","FM-15","ETNJ ","V020","240,1,N,0010,1","22000,1,9,N","011265,1,N,1","+0130,1","+0110,1","99999,9",,"02,5,+00750,1,99,9",,,"02,99,1,99,9,99,9,99999,9,99,9,99,9","10129,1,99999,9",,,,,"MET056METAR ETNJ 032020Z 24002KT 9999 FEW025 13/11 Q1013 BLU/;",
"10122099999","2010-08-03T21:20:00","4","53.5335","7.888667","7.31","JEVER, GM","FM-15","ETNJ ","V020","220,1,N,0010,1","22000,1,9,N","011265,1,N,1","+0120,1","+0110,1","99999,9",,"02,5,+03600,1,99,9",,,"02,99,1,99,9,99,9,99999,9,99,9,99,9","10129,1,99999,9",,,,,"MET056METAR ETNJ 032120Z 22002KT 9999 FEW120 12/11 Q1013 BLU/;",
"10122099999","2010-08-03T22:20:00","4","53.5335","7.888667","7.31","JEVER, GM","FM-15","ETNJ ","V020","130,1,N,0010,1","22000,1,9,N","011265,1,N,1","+0120,1","+0100,1","99999,9",,"02,5,+03600,1,99,9",,,"02,99,1,99,9,99,9,99999,9,99,9,99,9","10129,1,99999,9",,,,,"MET056METAR ETNJ 032220Z 13002KT 9999 FEW120 12/10 Q1013 BLU/;",
"10122099999","2010-08-03T23:20:00","4","53.5335","7.888667","7.31","JEVER, GM","FM-15","ETNJ ","V020","150,1,N,0015,1","22000,1,9,N","011265,1,N,1","+0120,1","+0100,1","99999,9",,"02,5,+03600,1,99,9",,,"02,99,1,99,9,99,9,99999,9,99,9,99,9","10119,1,99999,9",,,,,"MET056METAR ETNJ 032320Z 15003KT 9999 FEW120 12/10 Q1012 BLU/;",
"10122099999","2010-08-04T00:20:00","4","53.5335","7.888667","7.31","JEVER, GM","FM-15","ETNJ ","V020","190,1,N,0031,1","22000,1,9,N","011265,1,N,1","+0120,1","+0110,1","99999,9",,"02,5,+03600,1,99,9",,,"02,99,1,99,9,99,9,99999,9,99,9,99,9","10119,1,99999,9",,,,,"MET056METAR ETNJ 040020Z 19006KT 9999 FEW120 12/11 Q1012 BLU/;",
"10122099999","2010-08-04T01:20:00","4","53.5335","7.888667","7.31","JEVER, GM","FM-15","ETNJ ","V020","180,1,N,0031,1","22000,1,9,N","011265,1,N,1","+0120,1","+0110,1","99999,9",,"04,5,+03600,1,99,9",,,"04,99,1,99,9,99,9,99999,9,99,9,99,9","10108,1,99999,9",,,,,"MET056METAR ETNJ 040120Z 18006KT 9999 SCT120 12/11 Q1011 BLU/;",
"10122099999","2010-08-04T02:20:00","4","53.5335","7.888667","7.31","JEVER, GM","FM-15","ETNJ ","V020","180,1,N,0031,1","03000,1,C,N","011265,1,N,1","+0120,1","+0120,1","99999,9",,"07,5,+03000,1,99,9",,,"07,99,1,99,9,99,9,99999,9,99,9,99,9","10102,1,99999,9",,,,,"MET055METAR ETNJ 040220Z 18006KT 9999 BKN100 12/12 Q1010 BLU;",
"10122099999","2010-08-04T03:20:00","4","53.5335","7.888667","7.31","JEVER, GM","FM-15","ETNJ ","V020","160,1,N,0026,1","03000,1,C,N","011265,1,N,1","+0120,1","+0110,1","99999,9",,"07,5,+03000,1,99,9",,,"07,99,1,99,9,99,9,99999,9,99,9,99,9","10102,1,99999,9",,,,,"MET055METAR ETNJ 040320Z 16005KT 9999 BKN100 12/11 Q1010 BLU;",
"10122099999","2010-08-04T04:20:00","4","53.5335","7.888667","7.31","JEVER, GM","FM-15","ETNJ ","V020","160,1,N,0026,1","03000,1,C,N","011265,1,N,1","+0120,1","+0110,1","99999,9",,"07,5,+03000,1,99,9","07,5,+08100,1,99,9",,"07,99,1,99,9,99,9,99999,9,99,9,99,9","10091,1,99999,9",,,,,"MET066METAR ETNJ 040420Z 16005KT 9999 BKN100 BKN270 12/11 Q1009 BLU BLU;",
"10122099999","2010-08-04T05:20:00","4","53.5335","7.888667","7.31","JEVER, GM","FM-15","ETNJ ","V020","180,1,N,0036,1","02700,1,C,N","011265,1,N,1","+0140,1","+0130,1","99999,9",,"07,5,+02700,1,99,9","07,5,+08100,1,99,9",,"07,99,1,99,9,99,9,99999,9,99,9,99,9","10091,1,99999,9",,,,,"MET066METAR ETNJ 040520Z 18007KT 9999 BKN090 BKN270 14/13 Q1009 BLU BLU;",
"10122099999","2010-08-04T06:20:00","4","53.5335","7.888667","7.31","JEVER, GM","FM-15","ETNJ ","V020","180,1,N,0031,1","02400,1,C,N","011265,1,N,1","+0150,1","+0130,1","99999,9",,"02,5,+01800,1,99,9","07,5,+02400,1,99,9","07,5,+08100,1,99,9","07,99,1,99,9,99,9,99999,9,99,9,99,9","10081,1,99999,9",,,,,"MET073METAR ETNJ 040620Z 18006KT 9999 FEW060 BKN080 BKN270 15/13 Q1008 BLU BLU;",
"10122099999","2010-08-04T07:20:00","4","53.5335","7.888667","7.31","JEVER, GM","FM-15","ETNJ ","V020","170,1,N,0036,1","02400,1,C,N","011265,1,N,1","+0170,1","+0140,1","99999,9",,"02,5,+01800,1,99,9","07,5,+02400,1,99,9",,"07,99,1,99,9,99,9,99999,9,99,9,99,9","10081,1,99999,9",,,,,"MET066METAR ETNJ 040720Z 17007KT 9999 FEW060 BKN080 17/14 Q1008 BLU BLU;",
"10122099999","2010-08-04T08:20:00","4","53.5335","7.888667","7.31","JEVER, GM","FM-15","ETNJ ","V020","180,1,N,0031,1","02400,1,C,N","011265,1,N,1","+0190,1","+0140,1","99999,9",,"02,5,+01500,1,99,9","07,5,+02400,1,99,9","07,5,+08100,1,99,9","07,99,1,99,9,99,9,99999,9,99,9,99,9","10071,1,99999,9",,,,,"MET083METAR ETNJ 040820Z 18006KT 9999 FEW050 BKN080 BKN270 19/14 Q1007 BLU BLU TEMPO GRN;",
"10122099999","2010-08-04T09:20:00","4","53.5335","7.888667","7.31","JEVER, GM","FM-15","ETNJ ","V020","170,1,N,0046,1","01800,1,C,N","011265,1,N,1","+0210,1","+0140,1","99999,9",,"02,5,+00750,1,99,9","04,5,+01800,1,99,9","07,5,+02400,1,99,9","07,99,1,99,9,99,9,99999,9,99,9,99,9","10071,1,99999,9",,,,,"MET083METAR ETNJ 040920Z 17009KT 9999 FEW025 SCT060 BKN080 21/14 Q1007 BLU BLU TEMPO GRN;",
"10122099999","2010-08-04T10:20:00","4","53.5335","7.888667","7.31","JEVER, GM","FM-15","ETNJ ","V020","190,1,N,0051,1","02400,1,C,N","011265,1,N,1","+0200,1","+0140,1","99999,9",,"02,5,+00660,1,99,9","04,5,+02400,1,99,9","07,5,+06000,1,99,9","07,99,1,99,9,99,9,99999,9,99,9,99,9","10061,1,99999,9",,,,,"MET083METAR ETNJ 041020Z 19010KT 9999 FEW022 SCT080 BKN200 20/14 Q1006 BLU/BLU TEMPO GRN;",
"10122099999","2010-08-04T10:27:00","4","53.5335","7.888667","7.31","JEVER, GM","FM-16","ETNJ ","V020","190,1,N,0057,1","02400,1,C,N","011265,1,N,1","+0200,1","+0130,1","99999,9",,"02,5,+00660,1,99,9","04,5,+02400,1,99,9","07,5,+06000,1,99,9","07,99,1,99,9,99,9,99999,9,99,9,99,9","10061,1,99999,9",,,,,"MET073SPECI ETNJ 041027Z 19011KT 9999 FEW022 SCT080 BKN200 20/13 Q1006 BLU/BLU;",
"10122099999","2010-08-04T11:20:00","4","53.5335","7.888667","7.31","JEVER, GM","FM-15","ETNJ ","V020","210,1,N,0051,1","02400,1,C,N","011265,1,N,1","+0200,1","+0120,1","99999,9",,"02,5,+00840,1,99,9","04,5,+02400,1,99,9","07,5,+04800,1,99,9","07,99,1,99,9,99,9,99999,9,99,9,99,9","10061,1,99999,9",,,,,"MET073METAR ETNJ 041120Z 21010KT 9999 FEW028 SCT080 BKN160 20/12 Q1006 BLU BLU;",
"10122099999","2010-08-04T12:20:00","4","53.5335","7.888667","7.31","JEVER, GM","FM-15","ETNJ ","V020","200,1,N,0041,1","02700,1,C,N","011265,1,N,1","+0190,1","+0130,1","99999,9",,"04,5,+00900,1,02,1","07,5,+02700,1,99,9",,"07,99,1,99,9,99,9,99999,9,99,9,99,9","10051,1,99999,9","16,1",,,,"MET084METAR ETNJ 041220Z 20008KT 9999 VCSH SCT030TCU BKN090 19/13 Q1005 BLU BLU BECMG WHT;",
"10122099999","2010-08-04T13:20:00","4","53.5335","7.888667","7.31","JEVER, GM","FM-15","ETNJ ","V020","210,1,N,0041,1","02700,1,C,N","011265,1,N,1","+0210,1","+0130,1","99999,9",,"04,5,+00840,1,02,1","07,5,+02700,1,99,9","08,5,+04500,1,99,9","08,99,1,99,9,99,9,99999,9,99,9,99,9","10051,1,99999,9",,,,,"MET086METAR ETNJ 041320Z 21008KT 9999 SCT028TCU BKN090 OVC150 21/13 Q1005 BLU BLU BECMG WHT;",
"10122099999","2010-08-04T14:20:00","4","53.5335","7.888667","7.31","JEVER, GM","FM-15","ETNJ ","V020","250,1,N,0031,1","00900,1,C,N","008000,1,N,1","+0170,1","+0140,1","99999,9",,"02,5,+00540,1,99,9","07,5,+00900,1,99,9","08,5,+02700,1,99,9","08,99,1,99,9,99,9,99999,9,99,9,99,9","10051,1,99999,9","80,1",,,,"MET092METAR ETNJ 041420Z 25006KT 8000 -SHRA FEW018 BKN030 OVC090 17/14 Q1005 RERA BLU FCST CANCEL;",
"10122099999","2010-08-04T15:20:00","4","53.5335","7.888667","7.31","JEVER, GM","FM-15","ETNJ ","V020","210,1,N,0036,1","02400,1,C,N","011265,1,N,1","+0190,1","+0150,1","99999,9",,"02,5,+00750,1,99,9","07,5,+02400,1,99,9",,"07,99,1,99,9,99,9,99999,9,99,9,99,9","10051,1,99999,9",,,,,"MET062METAR ETNJ 041520Z 21007KT 9999 FEW025 BKN080 19/15 Q1005 BLU;",
"10122099999","2010-08-04T15:24:00","4","53.5335","7.888667","7.31","JEVER, GM","FM-16","ETNJ ","V020","220,1,N,0036,1","02400,1,C,N","011265,1,N,1","+0180,1","+0150,1","99999,9",,"02,5,+00750,1,99,9","07,5,+02400,1,99,9",,"07,99,1,99,9,99,9,99999,9,99,9,99,9","10051,1,99999,9",,,,,"MET062SPECI ETNJ 041524Z 22007KT 9999 FEW025 BKN080 18/15 Q1005 BLU;",
"10122099999","2010-08-04T16:20:00","4","53.5335","7.888667","7.31","JEVER, GM","FM-15","ETNJ ","V020","200,1,N,0041,1","00780,1,C,N","011265,1,N,1","+0170,1","+0150,1","99999,9",,"02,5,+00450,1,99,9","04,5,+00780,1,02,5","07,5,+02400,1,99,9","07,99,1,99,9,99,9,99999,9,99,9,99,9","10041,1,99999,9","80,1",,,,"MET078METAR ETNJ 041620Z 20008KT 9999 -SHRA FEW015 SCT026TCU BKN080 17/15 Q1004 BLU;",
"10122099999","2010-08-04T17:20:00","4","53.5335","7.888667","7.31","JEVER, GM","FM-15","ETNJ ","V020","190,1,N,0036,1","02400,1,C,N","011265,1,N,1","+0170,1","+0150,1","99999,9",,"02,5,+00450,1,99,9","04,5,+02400,1,99,9","07,5,+06300,1,99,9","07,99,1,99,9,99,9,99999,9,99,9,99,9","10041,1,99999,9",,,,,"MET070METAR ETNJ 041720Z 19007KT 9999 FEW015 SCT080 BKN210 17/15 Q1004 BLU/;",
"10122099999","2010-08-04T18:20:00","4","53.5335","7.888667","7.31","JEVER, GM","FM-15","ETNJ ","V020","180,1,N,0031,1","02400,1,C,N","011265,1,N,1","+0170,1","+0150,1","99999,9",,"04,5,+00420,1,99,9","07,5,+02400,1,99,9",,"07,99,1,99,9,99,9,99999,9,99,9,99,9","10041,1,99999,9",,,,,"MET062METAR ETNJ 041820Z 18006KT 9999 SCT014 BKN080 17/15 Q1004 BLU;",
"10122099999","2010-08-04T19:20:00","4","53.5335","7.888667","7.31","JEVER, GM","FM-15","ETNJ ","V020","190,1,N,0026,1","99999,9,C,N","011265,1,N,1","+0160,1","+0150,1","99999,9",,"02,5,+00420,1,99,9","04,5,+02400,1,99,9",,"04,99,1,99,9,99,9,99999,9,99,9,99,9","10041,1,99999,9",,,,,"MET063METAR ETNJ 041920Z 19005KT 9999 FEW014 SCT080 16/15 Q1004 BLU/;","P01 024003SCOCIG"
"10122099999","2010-08-04T20:20:00","4","53.5335","7.888667","7.31","JEVER, GM","FM-15","ETNJ ","V020","190,1,N,0026,1","22000,1,9,N","011265,1,N,1","+0160,1","+0140,1","99999,9",,"02,5,+00420,1,99,9",,,"02,99,1,99,9,99,9,99999,9,99,9,99,9","10041,1,99999,9",,,,,"MET056METAR ETNJ 042020Z 19005KT 9999 FEW014 16/14 Q1004 BLU/;",
"10122099999","2010-08-04T21:20:00","4","53.5335","7.888667","7.31","JEVER, GM","FM-15","ETNJ ","V020","220,1,N,0021,1","99999,9,C,N","011265,1,N,1","+0150,1","+0140,1","99999,9",,"02,5,+00420,1,99,9","04,5,+01500,1,99,9",,"04,99,1,99,9,99,9,99999,9,99,9,99,9","10041,1,99999,9",,,,,"MET063METAR ETNJ 042120Z 22004KT 9999 FEW014 SCT050 15/14 Q1004 BLU/;","P01 015003SCOCIG"
"10122099999","2010-08-04T22:20:00","4","53.5335","7.888667","7.31","JEVER, GM","FM-15","ETNJ ","V020","220,1,N,0015,1","99999,9,C,N","011265,1,N,1","+0140,1","+0130,1","99999,9",,"02,5,+00420,1,99,9","04,5,+01500,1,99,9",,"04,99,1,99,9,99,9,99999,9,99,9,99,9","10041,1,99999,9",,,,,"MET063METAR ETNJ 042220Z 22003KT 9999 FEW014 SCT050 14/13 Q1004 BLU/;","P01 015003SCOCIG"
"10122099999","2010-08-04T23:20:00","4","53.5335","7.888667","7.31","JEVER, GM","FM-15","ETNJ ","V020","220,1,N,0021,1","22000,1,9,N","011265,1,N,1","+0130,1","+0120,1","99999,9",,"02,5,+00450,1,99,9",,,"02,99,1,99,9,99,9,99999,9,99,9,99,9","10041,1,99999,9",,,,,"MET056METAR ETNJ 042320Z 22004KT 9999 FEW015 13/12 Q1004 BLU/;",
"10122099999","2010-08-05T00:20:00","4","53.5335","7.888667","7.31","JEVER, GM","FM-15","ETNJ ","V020","190,1,N,0021,1","22000,1,9,N","006000,1,N,1","+0130,1","+0130,1","99999,9",,"04,5,+01500,1,99,9",,,"04,99,1,99,9,99,9,99999,9,99,9,99,9","10041,1,99999,9",,,,,"MET055METAR ETNJ 050020Z 19004KT 6000 SCT050 13/13 Q1004 WHT;",
"10122099999","2010-08-05T00:50:00","4","53.5335","7.888667","7.31","JEVER, GM","FM-16","ETNJ ","V020","190,1,N,0021,1","22000,1,9,N","004000,1,N,1","+0130,1","+0120,1","99999,9",,"02,5,+01500,1,99,9",,,"02,99,1,99,9,99,9,99999,9,99,9,99,9","10041,1,99999,9","10,1",,,,"MET058SPECI ETNJ 050050Z 19004KT 4000 BR FEW050 13/12 Q1004 GRN;",
"10122099999","2010-08-05T01:20:00","4","53.5335","7.888667","7.31","JEVER, GM","FM-15","ETNJ ","V020","190,1,N,0021,1","99999,9,C,N","003800,1,N,1","+0130,1","+0120,1","99999,9",,"02,5,+00060,1,99,9","04,5,+02700,1,99,9",,"04,99,1,99,9,99,9,99999,9,99,9,99,9","10041,1,99999,9","10,1",,,,"MET065METAR ETNJ 050120Z 19004KT 3800 BR FEW002 SCT090 13/12 Q1004 GRN;","P01 027003SCOCIG"
"10122099999","2010-08-05T01:51:00","4","53.5335","7.888667","7.31","JEVER, GM","FM-16","ETNJ ","V020","190,1,N,0021,1","00030,1,C,N","001100,1,N,1","+0130,1","+0120,1","99999,9",,"07,5,+00030,1,99,9",,,"07,99,1,99,9,99,9,99999,9,99,9,99,9","10041,1,99999,9","10,1",,,,"MET068SPECI ETNJ 050151Z 19004KT 1100 R10/2500N BR BKN001 13/12 Q1004 RED;",
"10122099999","2010-08-05T02:20:00","4","53.5335","7.888667","7.31","JEVER, GM","FM-15","ETNJ ","V020","190,1,N,0021,1","00030,1,C,N","001400,1,N,1","+0130,1","+0120,1","99999,9",,"07,5,+00030,1,99,9","07,5,+01500,1,99,9",,"07,99,1,99,9,99,9,99999,9,99,9,99,9","10041,1,99999,9","10,1",,,,"MET075METAR ETNJ 050220Z 19004KT 1400 R10/2900U BR BKN001 BKN050 13/12 Q1004 RED;",
"10122099999","2010-08-05T02:45:00","4","53.5335","7.888667","7.31","JEVER, GM","FM-16","ETNJ ","V020","180,1,N,0021,1","01500,1,C,N","002500,1,N,1","+0130,1","+0130,1","99999,9",,"02,5,+00030,1,99,9","07,5,+01500,1,99,9",,"07,99,1,99,9,99,9,99999,9,99,9,99,9","10041,1,99999,9","10,1",,,,"MET065SPECI ETNJ 050245Z 18004KT 2500 BR FEW001 BKN050 13/13 Q1004 YLO;",
"10122099999","2010-08-05T03:20:00","4","53.5335","7.888667","7.31","JEVER, GM","FM-15","ETNJ ","V020","170,1,N,0021,1","01410,1,C,N","002000,1,N,1","+0130,1","+0130,1","99999,9",,"07,5,+01410,1,99,9",,,"07,99,1,99,9,99,9,99999,9,99,9,99,9","10041,1,99999,9","10,1",,,,"MET058METAR ETNJ 050320Z 17004KT 2000 BR BKN047 13/13 Q1004 YLO;",
"10122099999","2010-08-05T04:06:00","4","53.5335","7.888667","7.31","JEVER, GM","FM-16","ETNJ ","V020","180,1,N,0021,1","01410,1,C,N","001200,1,N,1","+0130,1","+0120,1","99999,9",,"02,5,+01080,1,99,9","07,5,+01410,1,99,9",,"07,99,1,99,9,99,9,99999,9,99,9,99,9","10041,1,99999,9","10,1",,,,"MET075SPECI ETNJ 050406Z 18004KT 1200 R10/1500N BR FEW036 BKN047 13/12 Q1004 AMB;",
"10122099999","2010-08-05T04:20:00","4","53.5335","7.888667","7.31","JEVER, GM","FM-15","ETNJ ","V020","190,1,N,0021,1","01170,1,C,N","001500,1,N,1","+0130,1","+0120,1","99999,9",,"07,5,+01170,1,99,9","07,5,+02700,1,99,9",,"07,99,1,99,9,99,9,99999,9,99,9,99,9","10041,1,99999,9","10,1",,,,"MET075METAR ETNJ 050420Z 19004KT 1500 R10/1700D BR BKN039 BKN090 13/12 Q1004 AMB;",
"10122099999","2010-08-05T04:34:00","4","53.5335","7.888667","7.31","JEVER, GM","FM-16","ETNJ ","V020","200,1,N,0021,1","01080,1,C,N","001800,1,N,1","+0130,1","+0130,1","99999,9",,"02,5,+00810,1,99,9","07,5,+01080,1,99,9","07,5,+02700,1,99,9","07,99,1,99,9,99,9,99999,9,99,9,99,9","10041,1,99999,9","10,1",,,,"MET082SPECI ETNJ 050434Z 20004KT 1800 R10/1700N BR FEW027 BKN036 BKN090 13/13 Q1004 YLO;",
"10122099999","2010-08-05T05:20:00","4","53.5335","7.888667","7.31","JEVER, GM","FM-15","ETNJ ","V020","210,1,N,0026,1","00720,1,C,N","002100,1,N,1","+0140,1","+0130,1","99999,9",,"04,5,+00090,1,99,9","04,5,+00720,1,99,9","07,5,+02400,1,99,9","07,99,1,99,9,99,9,99999,9,99,9,99,9","10051,1,99999,9","10,1",,,,"MET096METAR ETNJ 050520Z 21005KT 2100 R28/1900N BR SCT003 SCT024 BKN080 14/13 Q1005 YLO YLO BECMG GRN;",
"10122099999","2010-08-05T06:20:00","4","53.5335","7.888667","7.31","JEVER, GM","FM-15","ETNJ ","V020","220,1,N,0021,1","00120,1,C,N","002000,1,N,1","+0150,1","+0150,1","99999,9",,"07,5,+00120,1,99,9",,,"07,99,1,99,9,99,9,99999,9,99,9,99,9","10051,1,99999,9","10,1",,,,"MET072METAR ETNJ 050620Z 22004KT 2000 BR BKN004 15/15 Q1005 YLO YLO BECMG GRN;",
"10122099999","2010-08-05T06:50:00","4","53.5335","7.888667","7.31","JEVER, GM","FM-16","ETNJ ","V020","240,1,N,0021,1","00150,1,C,N","003000,1,N,1","+0150,1","+0150,1","99999,9",,"07,5,+00150,1,99,9","07,5,+01500,1,99,9",,"07,99,1,99,9,99,9,99999,9,99,9,99,9","10051,1,99999,9","10,1",,,,"MET079SPECI ETNJ 050650Z 24004KT 3000 BR BKN005 BKN050 15/15 Q1005 YLO YLO BECMG GRN;",
"10122099999","2010-08-05T07:00:00","4","53.5335","7.888667","7.31","JEVER, GM","FM-16","ETNJ ","V020","240,1,N,0026,1","01500,1,C,N","004500,1,N,1","+0150,1","+0150,1","99999,9",,"04,5,+00180,1,99,9","04,5,+01500,1,99,9","07,5,+02400,1,99,9","07,99,1,99,9,99,9,99999,9,99,9,99,9","10061,1,99999,9","10,1",,,,"MET086SPECI ETNJ 050700Z 24005KT 4500 BR SCT006 SCT050 BKN080 15/15 Q1006 GRN GRN BECMG BLU;",
"10122099999","2010-08-05T07:20:00","4","53.5335","7.888667","7.31","JEVER, GM","FM-15","ETNJ ","V020","240,1,N,0026,1","02400,1,C,N","007000,1,N,1","+0150,1","+0150,1","99999,9",,"04,5,+00210,1,99,9","07,5,+02400,1,99,9",,"07,99,1,99,9,99,9,99999,9,99,9,99,9","10061,1,99999,9",,,,,"MET076METAR ETNJ 050720Z 24005KT 7000 SCT007 BKN080 15/15 Q1006 WHT WHT BECMG BLU;",
"10122099999","2010-08-05T08:20:00","4","53.5335","7.888667","7.31","JEVER, GM","FM-15","ETNJ ","V020","260,1,N,0031,1","01800,1,C,N","011265,1,N,1","+0180,1","+0140,1","99999,9",,"04,5,+00600,1,99,9","07,5,+01800,1,99,9",,"07,99,1,99,9,99,9,99999,9,99,9,99,9","10061,1,99999,9",,,,,"MET066METAR ETNJ 050820Z 26006KT 9999 SCT020 BKN060 18/14 Q1006 BLU BLU;",
"10122099999","2010-08-05T09:20:00","4","53.5335","7.888667","7.31","JEVER, GM","FM-15","ETNJ ","V020","260,1,N,0026,1","01800,1,C,N","011265,1,N,1","+0190,1","+0130,1","99999,9",,"04,5,+00660,1,99,9","07,5,+01800,1,99,9",,"07,99,1,99,9,99,9,99999,9,99,9,99,9","10071,1,99999,9",,,,,"MET066METAR ETNJ 050920Z 26005KT 9999 SCT022 BKN060 19/13 Q1007 BLU BLU;",
"10122099999","2010-08-05T10:20:00","4","53.5335","7.888667","7.31","JEVER, GM","FM-15","ETNJ ","V020","240,1,N,0036,1","99999,9,C,N","011265,1,N,1","+0200,1","+0120,1","99999,9",,"04,5,+00900,1,99,9","04,5,+01800,1,99,9",,"04,99,1,99,9,99,9,99999,9,99,9,99,9","10071,1,99999,9",,,,,"MET076METAR ETNJ 051020Z 24007KT 9999 SCT030 SCT060 20/12 Q1007 BLU/BLU TEMPO WHT;","P01 018003SCOCIG"
"10122099999","2010-08-05T11:20:00","4","53.5335","7.888667","7.31","JEVER, GM","FM-15","ETNJ ","V020","210,1,N,0036,1","22000,1,9,N","011265,1,N,1","+0210,1","+0110,1","99999,9",,"04,5,+01200,1,99,9",,,"04,99,1,99,9,99,9,99999,9,99,9,99,9","10071,1,99999,9",,,,,"MET069METAR ETNJ 051120Z 21007KT 9999 SCT040 21/11 Q1007 BLU/BLU TEMPO WHT;",
"10122099999","2010-08-05T12:20:00","4","53.5335","7.888667","7.31","JEVER, GM","FM-15","ETNJ ","V020","260,1,N,0046,1","99999,9,C,N","011265,1,N,1","+0200,1","+0110,1","99999,9",,"04,5,+01110,1,02,1","04,5,+01800,1,99,9",,"04,99,1,99,9,99,9,99999,9,99,9,99,9","10071,1,99999,9",,,,,"MET079METAR ETNJ 051220Z 26009KT 9999 SCT037TCU SCT060 20/11 Q1007 BLU/BLU TEMPO WHT;","P01 018003SCOCIG"
"10122099999","2010-08-05T13:20:00","4","53.5335","7.888667","7.31","JEVER, GM","FM-15","ETNJ ","V020","280,1,N,0057,1","99999,9,C,N","011265,1,N,1","+0210,1","+0110,1","99999,9",,"04,5,+01020,1,02,1","04,5,+02700,1,99,9",,"04,99,1,99,9,99,9,99999,9,99,9,99,9","10081,1,99999,9",,,,,"MET079METAR ETNJ 051320Z 28011KT 9999 SCT034TCU SCT090 21/11 Q1008 BLU/BLU TEMPO WHT;","P01 027003SCOCIG"
"10122099999","2010-08-05T14:20:00","4","53.5335","7.888667","7.31","JEVER, GM","FM-15","ETNJ ","V020","290,1,N,0046,1","22000,1,9,N","011265,1,N,1","+0210,1","+0120,1","99999,9",,"04,5,+00900,1,02,1",,,"04,99,1,99,9,99,9,99999,9,99,9,99,9","10091,1,99999,9",,,,,"MET070METAR ETNJ 051420Z 29009KT 9999 SCT030TCU 21/12 Q1009 BLU/FCST CANCEL;",
"10122099999","2010-08-05T15:20:00","4","53.5335","7.888667","7.31","JEVER, GM","FM-15","ETNJ ","V020","310,1,N,0051,1","22000,1,9,N","011265,1,N,1","+0210,1","+0120,1","99999,9",,"04,5,+00900,1,02,1",,,"04,99,1,99,9,99,9,99999,9,99,9,99,9","10102,1,99999,9",,,,,"MET059METAR ETNJ 051520Z 31010KT 9999 SCT030TCU 21/12 Q1010 BLU/;",
"10122099999","2010-08-05T16:20:00","4","53.5335","7.888667","7.31","JEVER, GM","FM-15","ETNJ ","V020","300,1,N,0046,1","02700,1,C,N","011265,1,N,1","+0190,1","+0110,1","99999,9",,"04,5,+00900,1,02,1","07,5,+02700,1,99,9",,"07,99,1,99,9,99,9,99999,9,99,9,99,9","10102,1,99999,9",,,,,"MET065METAR ETNJ 051620Z 30009KT 9999 SCT030TCU BKN090 19/11 Q1010 BLU;",
"10122099999","2010-08-05T17:20:00","4","53.5335","7.888667","7.31","JEVER, GM","FM-15","ETNJ ","V020","300,1,N,0041,1","01800,1,C,N","011265,1,N,1","+0190,1","+0110,1","99999,9",,"02,5,+00900,1,02,1","07,5,+01800,1,99,9",,"07,99,1,99,9,99,9,99999,9,99,9,99,9","10102,1,99999,9",,,,,"MET065METAR ETNJ 051720Z 30008KT 9999 FEW030TCU BKN060 19/11 Q1010 BLU;",
"10122099999","2010-08-05T18:20:00","4","53.5335","7.888667","7.31","JEVER, GM","FM-15","ETNJ ","V020","300,1,N,0041,1","01800,1,C,N","011265,1,N,1","+0190,1","+0110,1","99999,9",,"02,5,+00900,1,99,9","07,5,+01800,1,99,9",,"07,99,1,99,9,99,9,99999,9,99,9,99,9","10108,1,99999,9",,,,,"MET062METAR ETNJ 051820Z 30008KT 9999 FEW030 BKN060 19/11 Q1011 BLU;",
"10122099999","2010-08-05T19:20:00","4","53.5335","7.888667","7.31","JEVER, GM","FM-15","ETNJ ","V020","300,1,N,0026,1","99999,9,C,N","011265,1,N,1","+0160,1","+0100,1","99999,9",,"02,5,+00840,1,99,9","04,5,+02700,1,99,9",,"04,99,1,99,9,99,9,99999,9,99,9,99,9","10119,1,99999,9",,,,,"MET063METAR ETNJ 051920Z 30005KT 9999 FEW028 SCT090 16/10 Q1012 BLU/;","P01 027003SCOCIG"
"10122099999","2010-08-05T20:20:00","4","53.5335","7.888667","7.31","JEVER, GM","FM-15","ETNJ ","V020","260,1,N,0015,1","99999,9,C,N","011265,1,N,1","+0140,1","+0100,1","99999,9",,"02,5,+00840,1,99,9","04,5,+01800,1,99,9",,"04,99,1,99,9,99,9,99999,9,99,9,99,9","10119,1,99999,9",,,,,"MET063METAR ETNJ 052020Z 26003KT 9999 FEW028 SCT060 14/10 Q1012 BLU/;","P01 018003SCOCIG"
"10122099999","2010-08-05T21:20:00","4","53.5335","7.888667","7.31","JEVER, GM","FM-15","ETNJ ","V020","260,1,N,0015,1","99999,9,C,N","011265,1,N,1","+0130,1","+0110,1","99999,9",,"02,5,+00840,1,99,9","04,5,+01800,1,99,9",,"04,99,1,99,9,99,9,99999,9,99,9,99,9","10129,1,99999,9",,,,,"MET063METAR ETNJ 052120Z 26003KT 9999 FEW028 SCT060 13/11 Q1013 BLU/;","P01 018003SCOCIG"
"10122099999","2010-08-05T22:20:00","4","53.5335","7.888667","7.31","JEVER, GM","FM-15","ETNJ ","V020","250,1,N,0010,1","22000,1,9,N","011265,1,N,1","+0130,1","+0110,1","99999,9",,"02,5,+00840,1,99,9",,,"02,99,1,99,9,99,9,99999,9,99,9,99,9","10129,1,99999,9",,,,,"MET056METAR ETNJ 052220Z 25002KT 9999 FEW028 13/11 Q1013 BLU/;",
"10122099999","2010-08-05T23:20:00","4","53.5335","7.888667","7.31","JEVER, GM","FM-15","ETNJ ","V020","260,1,N,0010,1","22000,1,9,N","011265,1,N,1","+0120,1","+0100,1","99999,9",,"02,5,+02700,1,99,9",,,"02,99,1,99,9,99,9,99999,9,99,9,99,9","10129,1,99999,9",,,,,"MET056METAR ETNJ 052320Z 26002KT 9999 FEW090 12/10 Q1013 BLU/;",
"10122099999","2010-08-06T00:20:00","4","53.5335","7.888667","7.31","JEVER, GM","FM-15","ETNJ ","V020","260,1,N,0010,1","22000,1,9,N","011265,1,N,1","+0110,1","+0090,1","99999,9",,"02,5,+02700,1,99,9",,,"02,99,1,99,9,99,9,99999,9,99,9,99,9","10129,1,99999,9",,,,,"MET056METAR ETNJ 060020Z 26002KT 9999 FEW090 11/09 Q1013 BLU/;",
"10122099999","2010-08-06T01:20:00","4","53.5335","7.888667","7.31","JEVER, GM","FM-15","ETNJ ","V020","230,1,N,0010,1","22000,1,9,N","011265,1,N,1","+0110,1","+0090,1","99999,9",,"02,5,+03600,1,99,9",,,"02,99,1,99,9,99,9,99999,9,99,9,99,9","10139,1,99999,9",,,,,"MET056METAR ETNJ 060120Z 23002KT 9999 FEW120 11/09 Q1014 BLU/;",
"10122099999","2010-08-06T02:20:00","4","53.5335","7.888667","7.31","JEVER, GM","FM-15","ETNJ ","V020","260,1,N,0010,1","22000,1,9,N","011265,1,N,1","+0110,1","+0100,1","99999,9",,"02,5,+03600,1,99,9",,,"02,99,1,99,9,99,9,99999,9,99,9,99,9","10139,1,99999,9",,,,,"MET056METAR ETNJ 060220Z 26002KT 9999 FEW120 11/10 Q1014 BLU/;",
"10122099999","2010-08-06T03:20:00","4","53.5335","7.888667","7.31","JEVER, GM","FM-15","ETNJ ","V020","280,1,N,0015,1","22000,1,9,N","008000,1,N,1","+0110,1","+0090,1","99999,9",,"02,5,+03600,1,99,9",,,"02,99,1,99,9,99,9,99999,9,99,9,99,9","10139,1,99999,9","12,1",,,,"MET061METAR ETNJ 060320Z 28003KT 8000 MIFG FEW120 11/09 Q1014 BLU/;",
"10122099999","2010-08-06T04:20:00","4","53.5335","7.888667","7.31","JEVER, GM","FM-15","ETNJ ","V020","270,1,N,0015,1","22000,1,9,N","008000,1,N,1","+0110,1","+0100,1","99999,9",,"02,5,+03600,1,99,9",,,"02,99,1,99,9,99,9,99999,9,99,9,99,9","10149,1,99999,9","12,1",,,,"MET065METAR ETNJ 060420Z 27003KT 8000 MIFG FEW120 11/10 Q1015 BLU/BLU/;",
"10122099999","2010-08-06T05:20:00","4","53.5335","7.888667","7.31","JEVER, GM","FM-15","ETNJ ","V020","270,1,N,0021,1","22000,1,9,N","011265,1,N,1","+0130,1","+0130,1","99999,9",,"02,5,+03600,1,99,9",,,"02,99,1,99,9,99,9,99999,9,99,9,99,9","10149,1,99999,9",,,,,"MET060METAR ETNJ 060520Z 27004KT 9999 FEW120 13/13 Q1015 BLU/BLU/;",
"10122099999","2010-08-06T06:20:00","4","53.5335","7.888667","7.31","JEVER, GM","FM-15","ETNJ ","V020","270,1,N,0026,1","22000,1,9,N","011265,1,N,1","+0160,1","+0130,1","99999,9",,"02,5,+00600,1,99,9",,,"02,99,1,99,9,99,9,99999,9,99,9,99,9","10159,1,99999,9",,,,,"MET060METAR ETNJ 060620Z 27005KT 9999 FEW020 16/13 Q1016 BLU/BLU/;",
"10122099999","2010-08-06T07:20:00","4","53.5335","7.888667","7.31","JEVER, GM","FM-15","ETNJ ","V020","260,1,N,0026,1","22000,1,9,N","011265,1,N,1","+0180,1","+0130,1","99999,9",,"02,5,+00600,1,02,1",,,"02,99,1,99,9,99,9,99999,9,99,9,99,9","10159,1,99999,9",,,,,"MET063METAR ETNJ 060720Z 26005KT 9999 FEW020TCU 18/13 Q1016 BLU/BLU/;",
"10122099999","2010-08-06T08:20:00","4","53.5335","7.888667","7.31","JEVER, GM","FM-15","ETNJ ","V020","280,1,N,0026,1","22000,1,9,N","011265,1,N,1","+0190,1","+0120,1","99999,9",,"02,5,+00720,1,99,9",,,"02,99,1,99,9,99,9,99999,9,99,9,99,9","10159,1,99999,9",,,,,"MET060METAR ETNJ 060820Z 28005KT 9999 FEW024 19/12 Q1016 BLU/BLU/;",
"10122099999","2010-08-06T09:20:00","4","53.5335","7.888667","7.31","JEVER, GM","FM-15","ETNJ ","V020","290,1,N,0031,1","22000,1,9,N","011265,1,N,1","+0200,1","+0120,1","99999,9",,"02,5,+00900,1,99,9",,,"02,99,1,99,9,99,9,99999,9,99,9,99,9","10159,1,99999,9",,,,,"MET060METAR ETNJ 060920Z 29006KT 9999 FEW030 20/12 Q1016 BLU/BLU/;",
"10122099999","2010-08-06T10:20:00","4","53.5335","7.888667","7.31","JEVER, GM","FM-15","ETNJ ","V020","200,1,N,0036,1","22000,1,9,N","011265,1,N,1","+0220,1","+0110,1","99999,9",,"02,5,+00900,1,99,9",,,"02,99,1,99,9,99,9,99999,9,99,9,99,9","10159,1,99999,9",,,,,"MET067METAR ETNJ 061020Z 20007KT 9999 FEW030 22/11 Q1016 BLU/FCST CANCEL;",
"10122099999","2010-08-06T11:20:00","4","53.5335","7.888667","7.31","JEVER, GM","FM-15","ETNJ ","V020","200,1,N,0031,1","22000,1,9,N","011265,1,N,1","+0220,1","+0100,1","99999,9",,"02,5,+01350,1,99,9",,,"02,99,1,99,9,99,9,99999,9,99,9,99,9","10159,1,99999,9",,,,,"MET056METAR ETNJ 061120Z 20006KT 9999 FEW045 22/10 Q1016 BLU/;",
"10122099999","2010-08-06T12:20:00","4","53.5335","7.888667","7.31","JEVER, GM","FM-15","ETNJ ","V020","290,1,N,0031,1","22000,1,9,N","011265,1,N,1","+0210,1","+0080,1","99999,9",,"02,5,+01500,1,99,9",,,"02,99,1,99,9,99,9,99999,9,99,9,99,9","10169,1,99999,9",,,,,"MET056METAR ETNJ 061220Z 29006KT 9999 FEW050 21/08 Q1017 BLU/;",
"10122099999","2010-08-06T13:20:00","4","53.5335","7.888667","7.31","JEVER, GM","FM-15","ETNJ ","V020","270,1,N,0021,1","22000,1,9,N","011265,1,N,1","+0230,1","+0100,1","99999,9",,"02,5,+01500,1,99,9",,,"02,99,1,99,9,99,9,99999,9,99,9,99,9","10169,1,99999,9",,,,,"MET056METAR ETNJ 061320Z 27004KT 9999 FEW050 23/10 Q1017 BLU/;",
"10122099999","2010-08-06T14:20:00","4","53.5335","7.888667","7.31","JEVER, GM","FM-15","ETNJ ","V020","340,1,N,0026,1","22000,1,9,N","011265,1,N,1","+0210,1","+0110,1","99999,9",,"02,5,+01260,1,99,9",,,"02,99,1,99,9,99,9,99999,9,99,9,99,9","10169,1,99999,9",,,,,"MET056METAR ETNJ 061420Z 34005KT 9999 FEW042 21/11 Q1017 BLU/;",
"10122099999","2010-08-06T15:20:00","4","53.5335","7.888667","7.31","JEVER, GM","FM-15","ETNJ ","V020","350,1,N,0026,1","22000,1,9,N","011265,1,N,1","+0220,1","+0120,1","99999,9",,"02,5,+01110,1,99,9",,,"02,99,1,99,9,99,9,99999,9,99,9,99,9","10169,1,99999,9",,,,,"MET056METAR ETNJ 061520Z 35005KT 9999 FEW037 22/12 Q1017 BLU/;",
"10122099999","2010-08-06T16:20:00","4","53.5335","7.888667","7.31","JEVER, GM","FM-15","ETNJ ","V020","060,1,N,0031,1","22000,1,9,N","011265,1,N,1","+0220,1","+0120,1","99999,9",,"02,5,+01020,1,99,9",,,"02,99,1,99,9,99,9,99999,9,99,9,99,9","10169,1,99999,9",,,,,"MET056METAR ETNJ 061620Z 06006KT 9999 FEW034 22/12 Q1017 BLU/;",
"10122099999","2010-08-06T17:20:00","4","53.5335","7.888667","7.31","JEVER, GM","FM-15","ETNJ ","V020","070,1,N,0031,1","22000,1,9,N","011265,1,N,1","+0210,1","+0120,1","99999,9",,"02,5,+00960,1,99,9",,,"02,99,1,99,9,99,9,99999,9,99,9,99,9","10169,1,99999,9",,,,,"MET056METAR ETNJ 061720Z 07006KT 9999 FEW032 21/12 Q1017 BLU/;",
"10122099999","2010-08-06T18:20:00","4","53.5335","7.888667","7.31","JEVER, GM","FM-15","ETNJ ","V020","040,1,N,0021,1","22000,1,9,N","011265,1,N,1","+0200,1","+0120,1","99999,9",,"02,5,+00900,1,99,9",,,"02,99,1,99,9,99,9,99999,9,99,9,99,9","10180,1,99999,9",,,,,"MET056METAR ETNJ 061820Z 04004KT 9999 FEW030 20/12 Q1018 BLU/;",
"10122099999","2010-08-06T19:20:00","4","53.5335","7.888667","7.31","JEVER, GM","FM-15","ETNJ ","V020","070,1,N,0021,1","22000,1,9,N","011265,1,N,1","+0170,1","+0120,1","99999,9",,"02,5,+00900,1,99,9",,,"02,99,1,99,9,99,9,99999,9,99,9,99,9","10180,1,99999,9",,,,,"MET056METAR ETNJ 061920Z 07004KT 9999 FEW030 17/12 Q1018 BLU/;",
"10122099999","2010-08-06T20:20:00","4","53.5335","7.888667","7.31","JEVER, GM","FM-15","ETNJ ","V020","090,1,N,0010,1","22000,1,9,N","011265,1,N,1","+0140,1","+0100,1","99999,9",,"02,5,+06600,1,99,9",,,"02,99,1,99,9,99,9,99999,9,99,9,99,9","10180,1,99999,9",,,,,"MET056METAR ETNJ 062020Z 09002KT 9999 FEW220 14/10 Q1018 BLU/;",
"10122099999","2010-08-06T21:20:00","4","53.5335","7.888667","7.31","JEVER, GM","FM-15","ETNJ ","V020","120,1,N,0015,1","22000,1,9,N","011265,1,N,1","+0130,1","+0100,1","99999,9",,"02,5,+06600,1,99,9",,,"02,99,1,99,9,99,9,99999,9,99,9,99,9","10180,1,99999,9",,,,,"MET056METAR ETNJ 062120Z 12003KT 9999 FEW220 13/10 Q1018 BLU/;",
"10122099999","2010-08-06T22:20:00","4","53.5335","7.888667","7.31","JEVER, GM","FM-15","ETNJ ","V020","120,1,N,0015,1","22000,1,9,N","011265,1,N,1","+0130,1","+0100,1","99999,9",,,,,,"10180,1,99999,9",,,,,"MET049METAR ETNJ 062220Z 12003KT 9999 13/10 Q1018 BLU/;",
"10122099999","2010-08-06T23:20:00","4","53.5335","7.888667","7.31","JEVER, GM","FM-15","ETNJ ","V020","120,1,N,0015,1","22000,1,9,N","011265,1,N,1","+0130,1","+0110,1","99999,9",,,,,,"10180,1,99999,9",,,,,"MET049METAR ETNJ 062320Z 12003KT 9999 13/11 Q1018 BLU/;",
"10122099999","2010-08-07T00:20:00","4","53.5335","7.888667","7.31","JEVER, GM","FM-15","ETNJ ","V020","120,1,N,0021,1","22000,1,9,N","011265,1,N,1","+0130,1","+0110,1","99999,9",,,,,,"10180,1,99999,9",,,,,"MET049METAR ETNJ 070020Z 12004KT 9999 13/11 Q1018 BLU/;",
"10122099999","2010-08-07T01:20:00","4","53.5335","7.888667","7.31","JEVER, GM","FM-15","ETNJ ","V020","120,1,N,0021,1","22000,1,9,N","011265,1,N,1","+0130,1","+0110,1","99999,9",,,,,,"10180,1,99999,9",,,,,"MET049METAR ETNJ 070120Z 12004KT 9999 13/11 Q1018 BLU/;",
"10122099999","2010-08-07T02:20:00","4","53.5335","7.888667","7.31","JEVER, GM","FM-15","ETNJ ","V020","160,1,N,0026,1","22000,1,9,N","011265,1,N,1","+0120,1","+0110,1","99999,9",,,,,,"10180,1,99999,9","12,1",,,,"MET054METAR ETNJ 070220Z 16005KT 9999 MIFG 12/11 Q1018 BLU/;",
"10122099999","2010-08-07T03:20:00","4","53.5335","7.888667","7.31","JEVER, GM","FM-15","ETNJ ","V020","140,1,N,0031,1","22000,1,9,N","011265,1,N,1","+0120,1","+0110,1","99999,9",,"02,5,+03600,1,99,9",,,"02,99,1,99,9,99,9,99999,9,99,9,99,9","10169,1,99999,9","12,1",,,,"MET061METAR ETNJ 070320Z 14006KT 9999 MIFG FEW120 12/11 Q1017 BLU/;",
"10122099999","2010-08-07T04:20:00","4","53.5335","7.888667","7.31","JEVER, GM","FM-15","ETNJ ","V020","150,1,N,0031,1","99999,9,C,N","011265,1,N,1","+0110,1","+0100,1","99999,9",,"02,5,+03600,1,99,9","04,5,+07500,1,99,9",,"04,99,1,99,9,99,9,99999,9,99,9,99,9","10169,1,99999,9","12,1",,,,"MET068METAR ETNJ 070420Z 15006KT 9999 MIFG FEW120 SCT250 11/10 Q1017 BLU/;","P01 075003SCOCIG"
"10122099999","2010-08-07T05:20:00","4","53.5335","7.888667","7.31","JEVER, GM","FM-15","ETNJ ","V020","150,1,N,0026,1","22000,1,9,N","011265,1,N,1","+0140,1","+0130,1","99999,9",,"02,5,+03600,1,99,9",,,"02,99,1,99,9,99,9,99999,9,99,9,99,9","10169,1,99999,9",,,,,"MET056METAR ETNJ 070520Z 15005KT 9999 FEW120 14/13 Q1017 BLU/;",
"10122099999","2010-08-07T06:20:00","4","53.5335","7.888667","7.31","JEVER, GM","FM-15","ETNJ ","V020","160,1,N,0031,1","22000,1,9,N","011265,1,N,1","+0180,1","+0130,1","99999,9",,"04,5,+05100,1,99,9",,,"04,99,1,99,9,99,9,99999,9,99,9,99,9","10169,1,99999,9",,,,,"MET056METAR ETNJ 070620Z 16006KT 9999 SCT170 18/13 Q1017 BLU/;",
"10122099999","2010-08-07T07:20:00","4","53.5335","7.888667","7.31","JEVER, GM","FM-15","ETNJ ","V020","180,1,N,0026,1","06000,1,C,N","011265,1,N,1","+0190,1","+0120,1","99999,9",,"02,5,+03600,1,99,9","07,5,+06000,1,99,9",,"07,99,1,99,9,99,9,99999,9,99,9,99,9","10169,1,99999,9",,,,,"MET063METAR ETNJ 070720Z 18005KT 9999 FEW120 BKN200 19/12 Q1017 BLU/;",
"10122099999","2010-08-07T08:20:00","4","53.5335","7.888667","7.31","JEVER, GM","FM-15","ETNJ ","V020","190,1,N,0031,1","06000,1,C,N","011265,1,N,1","+0200,1","+0120,1","99999,9",,"04,5,+03600,1,99,9","07,5,+06000,1,99,9",,"07,99,1,99,9,99,9,99999,9,99,9,99,9","10169,1,99999,9",,,,,"MET063METAR ETNJ 070820Z 19006KT 9999 SCT120 BKN200 20/12 Q1017 BLU/;",
"10122099999","2010-08-07T09:20:00","4","53.5335","7.888667","7.31","JEVER, GM","FM-15","ETNJ ","V020","200,1,N,0031,1","03600,1,C,N","011265,1,N,1","+0220,1","+0110,1","99999,9",,"07,5,+03600,1,99,9",,,"07,99,1,99,9,99,9,99999,9,99,9,99,9","10169,1,99999,9",,,,,"MET055METAR ETNJ 070920Z 20006KT 9999 BKN120 22/11 Q1017 BLU;",
"10122099999","2010-08-07T10:20:00","4","53.5335","7.888667","7.31","JEVER, GM","FM-15","ETNJ ","V020","200,1,N,0036,1","03600,1,C,N","011265,1,N,1","+0230,1","+0120,1","99999,9",,"04,5,+01800,1,99,9","07,5,+03600,1,99,9",,"07,99,1,99,9,99,9,99999,9,99,9,99,9","10169,1,99999,9",,,,,"MET062METAR ETNJ 071020Z 20007KT 9999 SCT060 BKN120 23/12 Q1017 BLU;",
"10122099999","2010-08-07T11:20:00","4","53.5335","7.888667","7.31","JEVER, GM","FM-15","ETNJ ","V020","260,1,N,0046,1","01500,1,C,N","011265,1,N,1","+0230,1","+0110,1","99999,9",,"02,5,+00900,1,99,9","07,5,+01500,1,99,9",,"07,99,1,99,9,99,9,99999,9,99,9,99,9","10159,1,99999,9",,,,,"MET062METAR ETNJ 071120Z 26009KT 9999 FEW030 BKN050 23/11 Q1016 BLU;",
"10122099999","2010-08-07T12:20:00","4","53.5335","7.888667","7.31","JEVER, GM","FM-15","ETNJ ","V020","280,1,N,0041,1","01320,1,C,N","011265,1,N,1","+0230,1","+0130,1","99999,9",,"02,5,+00900,1,99,9","07,5,+01320,1,99,9",,"07,99,1,99,9,99,9,99999,9,99,9,99,9","10159,1,99999,9",,,,,"MET062METAR ETNJ 071220Z 28008KT 9999 FEW030 BKN044 23/13 Q1016 BLU;",
"10122099999","2010-08-07T13:20:00","4","53.5335","7.888667","7.31","JEVER, GM","FM-15","ETNJ ","V020","220,1,N,0031,1","01350,1,C,N","011265,1,N,1","+0220,1","+0130,1","99999,9",,"02,5,+01050,1,99,9","07,5,+01350,1,99,9",,"07,99,1,99,9,99,9,99999,9,99,9,99,9","10159,1,99999,9",,,,,"MET062METAR ETNJ 071320Z 22006KT 9999 FEW035 BKN045 22/13 Q1016 BLU;",
"10122099999","2010-08-07T14:20:00","4","53.5335","7.888667","7.31","JEVER, GM","FM-15","ETNJ ","V020","260,1,N,0041,1","01800,1,C,N","011265,1,N,1","+0240,1","+0130,1","99999,9",,"02,5,+01050,1,99,9","07,5,+01800,1,99,9",,"07,99,1,99,9,99,9,99999,9,99,9,99,9","10159,1,99999,9",,,,,"MET062METAR ETNJ 071420Z 26008KT 9999 FEW035 BKN060 24/13 Q1016 BLU;",
"10122099999","2010-08-07T15:20:00","4","53.5335","7.888667","7.31","JEVER, GM","FM-15","ETNJ ","V020","270,1,N,0031,1","02700,1,C,N","011265,1,N,1","+0230,1","+0130,1","99999,9",,"02,5,+01050,1,99,9","07,5,+02700,1,99,9",,"07,99,1,99,9,99,9,99999,9,99,9,99,9","10159,1,99999,9",,,,,"MET062METAR ETNJ 071520Z 27006KT 9999 FEW035 BKN090 23/13 Q1016 BLU;",
"10122099999","2010-08-07T16:20:00","4","53.5335","7.888667","7.31","JEVER, GM","FM-15","ETNJ ","V020","300,1,N,0041,1","03300,1,C,N","011265,1,N,1","+0210,1","+0140,1","99999,9",,"07,5,+03300,1,99,9",,,"07,99,1,99,9,99,9,99999,9,99,9,99,9","10159,1,99999,9",,,,,"MET055METAR ETNJ 071620Z 30008KT 9999 BKN110 21/14 Q1016 BLU;",
"10122099999","2010-08-07T17:20:00","4","53.5335","7.888667","7.31","JEVER, GM","FM-15","ETNJ ","V020","280,1,N,0026,1","03000,1,C,N","011265,1,N,1","+0210,1","+0140,1","99999,9",,"07,5,+03000,1,99,9","07,5,+04200,1,99,9",,"07,99,1,99,9,99,9,99999,9,99,9,99,9","10159,1,99999,9",,,,,"MET062METAR ETNJ 071720Z 28005KT 9999 BKN100 BKN140 21/14 Q1016 BLU;",
"10122099999","2010-08-07T18:20:00","4","53.5335","7.888667","7.31","JEVER, GM","FM-15","ETNJ ","V020","330,1,N,0010,1","01470,1,C,N","011265,1,N,1","+0200,1","+0140,1","99999,9",,"07,5,+01470,1,99,9",,,"07,99,1,99,9,99,9,99999,9,99,9,99,9","10159,1,99999,9","61,1",,,,"MET059METAR ETNJ 071820Z 33002KT 9999 -RA BKN049 20/14 Q1016 BLU;",
"10122099999","2010-08-07T19:20:00","4","53.5335","7.888667","7.31","JEVER, GM","FM-15","ETNJ ","V020","220,1,N,0010,1","01470,1,C,N","011265,1,N,1","+0180,1","+0150,1","99999,9",,"07,5,+01470,1,99,9",,,"07,99,1,99,9,99,9,99999,9,99,9,99,9","10159,1,99999,9",,,,,"MET055METAR ETNJ 071920Z 22002KT 9999 BKN049 18/15 Q1016 BLU;",
"10122099999","2010-08-07T20:20:00","4","53.5335","7.888667","7.31","JEVER, GM","FM-15","ETNJ ","V020","040,1,N,0010,1","01800,1,C,N","011265,1,N,1","+0180,1","+0150,1","99999,9",,"07,5,+01800,1,99,9",,,"07,99,1,99,9,99,9,99999,9,99,9,99,9","10159,1,99999,9","61,1",,,,"MET059METAR ETNJ 072020Z 04002KT 9999 -RA BKN060 18/15 Q1016 BLU;",
"10122099999","2010-08-07T21:20:00","4","53.5335","7.888667","7.31","JEVER, GM","FM-15","ETNJ ","V020","120,1,N,0010,1","01440,1,C,N","011265,1,N,1","+0170,1","+0160,1","99999,9",,"07,5,+01440,1,99,9",,,"07,99,1,99,9,99,9,99999,9,99,9,99,9","10159,1,99999,9","61,1",,,,"MET059METAR ETNJ 072120Z 12002KT 9999 -RA BKN048 17/16 Q1016 BLU;",
"10122099999","2010-08-07T22:20:00","4","53.5335","7.888667","7.31","JEVER, GM","FM-15","ETNJ ","V020","250,1,N,0015,1","01440,1,C,N","011265,1,N,1","+0170,1","+0150,1","99999,9",,"02,5,+00870,1,99,9","07,5,+01440,1,99,9",,"07,99,1,99,9,99,9,99999,9,99,9,99,9","10159,1,99999,9","51,1","61,1",,,"MET068METAR ETNJ 072220Z 25003KT 9999 -DZRA FEW029 BKN048 17/15 Q1016 BLU;",
"10122099999","2010-08-07T23:20:00","4","53.5335","7.888667","7.31","JEVER, GM","FM-15","ETNJ ","V020","120,1,N,0010,1","01500,1,C,N","007000,1,N,1","+0170,1","+0150,1","99999,9",,"07,5,+01500,1,99,9",,,"07,99,1,99,9,99,9,99999,9,99,9,99,9","10159,1,99999,9","51,1","61,1",,,"MET061METAR ETNJ 072320Z 12002KT 7000 -DZRA BKN050 17/15 Q1016 WHT;",
"10122099999","2010-08-08T00:20:00","4","53.5335","7.888667","7.31","JEVER, GM","FM-15","ETNJ ","V020","240,1,N,0010,1","01800,1,C,N","007000,1,N,1","+0170,1","+0150,1","99999,9",,"07,5,+01800,1,99,9",,,"07,99,1,99,9,99,9,99999,9,99,9,99,9","10149,1,99999,9","61,1",,,,"MET059METAR ETNJ 080020Z 24002KT 7000 -RA BKN060 17/15 Q1015 WHT;",
"10122099999","2010-08-08T01:20:00","4","53.5335","7.888667","7.31","JEVER, GM","FM-15","ETNJ ","V020","999,9,V,0005,1","01260,1,C,N","007000,1,N,1","+0160,1","+0150,1","99999,9",,"07,5,+01260,1,99,9",,,"07,99,1,99,9,99,9,99999,9,99,9,99,9","10149,1,99999,9","61,1",,,,"MET059METAR ETNJ 080120Z VRB01KT 7000 -RA BKN042 16/15 Q1015 WHT;",
"10122099999","2010-08-08T02:20:00","4","53.5335","7.888667","7.31","JEVER, GM","FM-15","ETNJ ","V020","180,1,N,0021,1","01800,1,C,N","005000,1,N,1","+0160,1","+0150,1","99999,9",,"07,5,+01800,1,99,9",,,"07,99,1,99,9,99,9,99999,9,99,9,99,9","10149,1,99999,9","10,1","61,1",,,"MET062METAR ETNJ 080220Z 18004KT 5000 -RA BR BKN060 16/15 Q1015 WHT;",
"10122099999","2010-08-08T03:20:00","4","53.5335","7.888667","7.31","JEVER, GM","FM-15","ETNJ ","V020","110,1,N,0015,1","01290,1,C,N","005000,1,N,1","+0160,1","+0150,1","99999,9",,"07,5,+01290,1,99,9",,,"07,99,1,99,9,99,9,99999,9,99,9,99,9","10149,1,99999,9","10,1",,,,"MET058METAR ETNJ 080320Z 11003KT 5000 BR BKN043 16/15 Q1015 WHT;",
"10122099999","2010-08-08T04:07:00","4","53.5335","7.888667","7.31","JEVER, GM","FM-16","ETNJ ","V020","110,1,N,0005,1","01290,1,C,N","003500,1,N,1","+0160,1","+0150,1","99999,9",,"07,5,+01290,1,99,9",,,"07,99,1,99,9,99,9,99999,9,99,9,99,9","10139,1,99999,9","10,1","12,1",,,"MET063SPECI ETNJ 080407Z 11001KT 3500 MIFG BR BKN043 16/15 Q1014 YLO;",
"10122099999","2010-08-08T04:20:00","4","53.5335","7.888667","7.31","JEVER, GM","FM-15","ETNJ ","V020","110,1,N,0005,1","01380,1,C,N","002500,1,N,1","+0160,1","+0150,1","99999,9",,"07,5,+01380,1,99,9",,,"07,99,1,99,9,99,9,99999,9,99,9,99,9","10139,1,99999,9","10,1","12,1",,,"MET073METAR ETNJ 080420Z 11001KT 2500 R28/1800D MIFG BR BKN046 16/15 Q1014 YLO;",
"10122099999","2010-08-08T05:20:00","4","53.5335","7.888667","7.31","JEVER, GM","FM-15","ETNJ ","V020","120,1,N,0005,1","02100,1,C,N","003200,1,N,1","+0160,1","+0150,1","99999,9",,"07,5,+02100,1,99,9",,,"07,99,1,99,9,99,9,99999,9,99,9,99,9","10139,1,99999,9","10,1","12,1",,,"MET063METAR ETNJ 080520Z 12001KT 3200 MIFG BR BKN070 16/15 Q1014 YLO;",
"10122099999","2010-08-08T06:00:00","4","53.5335","7.888667","7.31","JEVER, GM","FM-15","ETNJ ","V020","130,1,N,0010,1","01800,1,C,N","004000,1,N,1","+0160,1","+0160,1","99999,9",,"02,5,+00210,1,99,9","07,5,+01800,1,99,9",,"07,99,1,99,9,99,9,99999,9,99,9,99,9","10139,1,99999,9","10,1",,,,"MET065SPECI ETNJ 080555Z 13002KT 4000 BR FEW007 BKN060 16/16 Q1014 GRN;",
"10122099999","2010-08-08T06:20:00","4","53.5335","7.888667","7.31","JEVER, GM","FM-15","ETNJ ","V020","120,1,N,0015,1","01080,1,C,N","005000,1,N,1","+0160,1","+0160,1","99999,9",,"02,5,+00210,1,99,9","04,5,+01080,1,99,9","07,5,+01500,1,99,9","07,99,1,99,9,99,9,99999,9,99,9,99,9","10139,1,99999,9","10,1",,,,"MET072METAR ETNJ 080620Z 12003KT 5000 BR FEW007 SCT036 BKN050 16/16 Q1014 WHT;",
"10122099999","2010-08-08T07:20:00","4","53.5335","7.888667","7.31","JEVER, GM","FM-15","ETNJ ","V020","150,1,N,0021,1","00930,1,C,N","008000,1,N,1","+0170,1","+0170,1","99999,9",,"02,5,+00450,1,99,9","07,5,+00930,1,99,9",,"07,99,1,99,9,99,9,99999,9,99,9,99,9","10139,1,99999,9",,,,,"MET062METAR ETNJ 080720Z 15004KT 8000 FEW015 BKN031 17/17 Q1014 BLU;",
"10122099999","2010-08-08T08:20:00","4","53.5335","7.888667","7.31","JEVER, GM","FM-15","ETNJ ","V020","130,1,N,0026,1","99999,9,C,N","011265,1,N,1","+0190,1","+0170,1","99999,9",,"02,5,+00450,1,99,9","04,5,+01500,1,99,9",,"04,99,1,99,9,99,9,99999,9,99,9,99,9","10149,1,99999,9",,,,,"MET063METAR ETNJ 080820Z 13005KT 9999 FEW015 SCT050 19/17 Q1015 BLU/;","P01 015003SCOCIG"
"10122099999","2010-08-08T09:20:00","4","53.5335","7.888667","7.31","JEVER, GM","FM-15","ETNJ ","V020","140,1,N,0021,1","99999,9,C,N","011265,1,N,1","+0210,1","+0170,1","99999,9",,"04,5,+00450,1,99,9","04,5,+01500,1,99,9",,"04,99,1,99,9,99,9,99999,9,99,9,99,9","10139,1,99999,9",,,,,"MET063METAR ETNJ 080920Z 14004KT 9999 SCT015 SCT050 21/17 Q1014 BLU/;","P01 015003SCOCIG"
"10122099999","2010-08-08T10:20:00","4","53.5335","7.888667","7.31","JEVER, GM","FM-15","ETNJ ","V020","160,1,N,0026,1","99999,9,C,N","011265,1,N,1","+0210,1","+0160,1","99999,9",,"04,5,+00390,1,02,1","04,5,+01500,1,99,9",,"04,99,1,99,9,99,9,99999,9,99,9,99,9","10139,1,99999,9",,,,,"MET066METAR ETNJ 081020Z 16005KT 9999 SCT013TCU SCT050 21/16 Q1014 BLU/;","P01 015003SCOCIG"
"10122099999","2010-08-08T11:20:00","4","53.5335","7.888667","7.31","JEVER, GM","FM-15","ETNJ ","V020","130,1,N,0031,1","99999,9,C,N","011265,1,N,1","+0240,1","+0170,1","99999,9",,"04,5,+00450,1,02,1","04,5,+01500,1,99,9",,"04,99,1,99,9,99,9,99999,9,99,9,99,9","10139,1,99999,9",,,,,"MET066METAR ETNJ 081120Z 13006KT 9999 SCT015TCU SCT050 24/17 Q1014 BLU/;","P01 015003SCOCIG"
"10122099999","2010-08-08T12:20:00","4","53.5335","7.888667","7.31","JEVER, GM","FM-15","ETNJ ","V020","330,1,N,0015,1","99999,9,C,N","011265,1,N,1","+0230,1","+0160,1","99999,9",,"04,5,+00450,1,02,1","04,5,+01380,1,99,9",,"04,99,1,99,9,99,9,99999,9,99,9,99,9","10139,1,99999,9",,,,,"MET066METAR ETNJ 081220Z 33003KT 9999 SCT015TCU SCT046 23/16 Q1014 BLU/;","P01 013803SCOCIG"
"10122099999","2010-08-08T13:20:00","4","53.5335","7.888667","7.31","JEVER, GM","FM-15","ETNJ ","V020","020,1,N,0031,1","99999,9,C,N","011265,1,N,1","+0220,1","+0160,1","99999,9",,"04,5,+00540,1,02,1","04,5,+01500,1,99,9",,"04,99,1,99,9,99,9,99999,9,99,9,99,9","10139,1,99999,9",,,,,"MET066METAR ETNJ 081320Z 02006KT 9999 SCT018TCU SCT050 22/16 Q1014 BLU/;","P01 015003SCOCIG"
"10122099999","2010-08-08T14:20:00","4","53.5335","7.888667","7.31","JEVER, GM","FM-15","ETNJ ","V020","030,1,N,0031,1","99999,9,C,N","011265,1,N,1","+0220,1","+0160,1","99999,9",,"02,5,+00540,1,02,1","04,5,+01500,1,99,9",,"04,99,1,99,9,99,9,99999,9,99,9,99,9","10139,1,99999,9",,,,,"MET066METAR ETNJ 081420Z 03006KT 9999 FEW018TCU SCT050 22/16 Q1014 BLU/;","P01 015003SCOCIG"
"10122099999","2010-08-08T15:20:00","4","53.5335","7.888667","7.31","JEVER, GM","FM-15","ETNJ ","V020","020,1,N,0031,1","99999,9,C,N","011265,1,N,1","+0220,1","+0160,1","99999,9",,"02,5,+00600,1,02,1","04,5,+01050,1,99,9",,"04,99,1,99,9,99,9,99999,9,99,9,99,9","10139,1,99999,9",,,,,"MET066METAR ETNJ 081520Z 02006KT 9999 FEW020TCU SCT035 22/16 Q1014 BLU/;","P01 010503SCOCIG"
"10122099999","2010-08-08T15:49:00","4","53.5335","7.888667","7.31","JEVER, GM","FM-16","ETNJ ","V020","030,1,N,0026,1","99999,9,C,N","011265,1,N,1","+0210,1","+0160,1","99999,9",,"02,5,+00600,1,09,1","04,5,+01500,1,99,9",,"04,99,1,99,9,99,9,99999,9,99,9,99,9","10139,1,99999,9","17,1",,,,"MET068SPECI ETNJ 081549Z 03005KT 9999 TS FEW020CB SCT050 21/16 Q1014 BLU/;","P01 015003SCOCIG"
"10122099999","2010-08-08T16:20:00","4","53.5335","7.888667","7.31","JEVER, GM","FM-15","ETNJ ","V020","360,1,N,0026,1","99999,9,C,N","011265,1,N,1","+0210,1","+0160,1","99999,9",,"02,5,+00600,1,09,1","04,5,+01800,1,99,9",,"04,99,1,99,9,99,9,99999,9,99,9,99,9","10139,1,99999,9","17,1",,,,"MET068METAR ETNJ 081620Z 36005KT 9999 TS FEW020CB SCT060 21/16 Q1014 BLU/;","P01 018003SCOCIG"
"10122099999","2010-08-08T17:20:00","4","53.5335","7.888667","7.31","JEVER, GM","FM-15","ETNJ ","V020","340,1,N,0036,1","99999,9,C,N","011265,1,N,1","+0220,1","+0150,1","99999,9",,"02,5,+00600,1,02,1","04,5,+01800,1,99,9",,"04,99,1,99,9,99,9,99999,9,99,9,99,9","10139,1,99999,9",,,,,"MET071METAR ETNJ 081720Z 34007KT 9999 FEW020TCU SCT060 22/15 Q1014 RETS BLU/;","P01 018003SCOCIG"
"10122099999","2010-08-08T18:20:00","4","53.5335","7.888667","7.31","JEVER, GM","FM-15","ETNJ ","V020","360,1,N,0026,1","99999,9,C,N","011265,1,N,1","+0200,1","+0150,1","99999,9",,"04,5,+00600,1,99,9","04,5,+01800,1,99,9",,"04,99,1,99,9,99,9,99999,9,99,9,99,9","10149,1,99999,9",,,,,"MET063METAR ETNJ 081820Z 36005KT 9999 SCT020 SCT060 20/15 Q1015 BLU/;","P01 018003SCOCIG"
"10122099999","2010-08-08T19:20:00","4","53.5335","7.888667","7.31","JEVER, GM","FM-15","ETNJ ","V020","010,1,N,0021,1","22000,1,9,N","011265,1,N,1","+0190,1","+0150,1","99999,9",,"04,5,+00600,1,99,9",,,"04,99,1,99,9,99,9,99999,9,99,9,99,9","10149,1,99999,9",,,,,"MET056METAR ETNJ 081920Z 01004KT 9999 SCT020 19/15 Q1015 BLU/;",
"10122099999","2010-08-08T20:20:00","4","53.5335","7.888667","7.31","JEVER, GM","FM-15","ETNJ ","V020","340,1,N,0015,1","22000,1,9,N","011265,1,N,1","+0180,1","+0150,1","99999,9",,"04,5,+00600,1,99,9",,,"04,99,1,99,9,99,9,99999,9,99,9,99,9","10149,1,99999,9",,,,,"MET056METAR ETNJ 082020Z 34003KT 9999 SCT020 18/15 Q1015 BLU/;",
"10122099999","2010-08-08T21:20:00","4","53.5335","7.888667","7.31","JEVER, GM","FM-15","ETNJ ","V020","310,1,N,0015,1","22000,1,9,N","011265,1,N,1","+0170,1","+0150,1","99999,9",,"02,5,+00600,1,99,9",,,"02,99,1,99,9,99,9,99999,9,99,9,99,9","10149,1,99999,9",,,,,"MET056METAR ETNJ 082120Z 31003KT 9999 FEW020 17/15 Q1015 BLU/;",
"10122099999","2010-08-08T22:20:00","4","53.5335","7.888667","7.31","JEVER, GM","FM-15","ETNJ ","V020","300,1,N,0021,1","22000,1,9,N","011265,1,N,1","+0160,1","+0140,1","99999,9",,"02,5,+00600,1,99,9",,,"02,99,1,99,9,99,9,99999,9,99,9,99,9","10149,1,99999,9",,,,,"MET056METAR ETNJ 082220Z 30004KT 9999 FEW020 16/14 Q1015 BLU/;",
"10122099999","2010-08-08T23:20:00","4","53.5335","7.888667","7.31","JEVER, GM","FM-15","ETNJ ","V020","999,9,V,0010,1","22000,1,9,N","011265,1,N,1","+0150,1","+0130,1","99999,9",,"04,5,+00900,1,99,9",,,"04,99,1,99,9,99,9,99999,9,99,9,99,9","10149,1,99999,9",,,,,"MET056METAR ETNJ 082320Z VRB02KT 9999 SCT030 15/13 Q1015 BLU/;",
"10122099999","2010-08-09T00:20:00","4","53.5335","7.888667","7.31","JEVER, GM","FM-15","ETNJ ","V020","280,1,N,0015,1","01080,1,C,N","011265,1,N,1","+0160,1","+0150,1","99999,9",,"02,5,+00420,1,99,9","07,5,+01080,1,99,9",,"07,99,1,99,9,99,9,99999,9,99,9,99,9","10149,1,99999,9",,,,,"MET062METAR ETNJ 090020Z 28003KT 9999 FEW014 BKN036 16/15 Q1015 BLU;",
"10122099999","2010-08-09T01:20:00","4","53.5335","7.888667","7.31","JEVER, GM","FM-15","ETNJ ","V020","280,1,N,0015,1","01080,1,C,N","009000,1,N,1","+0170,1","+0150,1","99999,9",,"07,5,+01080,1,99,9",,,"07,99,1,99,9,99,9,99999,9,99,9,99,9","10149,1,99999,9",,,,,"MET055METAR ETNJ 090120Z 28003KT 9000 BKN036 17/15 Q1015 BLU;",
"10122099999","2010-08-09T02:20:00","4","53.5335","7.888667","7.31","JEVER, GM","FM-15","ETNJ ","V020","300,1,N,0010,1","00600,1,C,N","008000,1,N,1","+0170,1","+0150,1","99999,9",,"02,5,+00420,1,99,9","07,5,+00600,1,99,9",,"07,99,1,99,9,99,9,99999,9,99,9,99,9","10149,1,99999,9","61,1",,,,"MET066METAR ETNJ 090220Z 30002KT 8000 -RA FEW014 BKN020 17/15 Q1015 WHT;",
"10122099999","2010-08-09T03:20:00","4","53.5335","7.888667","7.31","JEVER, GM","FM-15","ETNJ ","V020","300,1,N,0015,1","00660,1,C,N","008000,1,N,1","+0160,1","+0150,1","99999,9",,"04,5,+00420,1,99,9","07,5,+00660,1,99,9",,"07,99,1,99,9,99,9,99999,9,99,9,99,9","10149,1,99999,9",,,,,"MET062METAR ETNJ 090320Z 30003KT 8000 SCT014 BKN022 16/15 Q1015 WHT;",
"10122099999","2010-08-09T04:20:00","4","53.5335","7.888667","7.31","JEVER, GM","FM-15","ETNJ ","V020","300,1,N,0010,1","01050,1,C,N","008000,1,N,1","+0170,1","+0150,1","99999,9",,"04,5,+00600,1,99,9","07,5,+01050,1,99,9",,"07,99,1,99,9,99,9,99999,9,99,9,99,9","10149,1,99999,9",,,,,"MET066METAR ETNJ 090420Z 30002KT 8000 SCT020 BKN035 17/15 Q1015 BLU BLU;",
"10122099999","2010-08-09T05:20:00","4","53.5335","7.888667","7.31","JEVER, GM","FM-15","ETNJ ","V020","270,1,N,0021,1","01200,1,C,N","008000,1,N,1","+0160,1","+0150,1","99999,9",,"02,5,+00600,1,99,9","07,5,+01200,1,99,9",,"07,99,1,99,9,99,9,99999,9,99,9,99,9","10149,1,99999,9",,,,,"MET066METAR ETNJ 090520Z 27004KT 8000 FEW020 BKN040 16/15 Q1015 BLU BLU;",
"10122099999","2010-08-09T06:20:00","4","53.5335","7.888667","7.31","JEVER, GM","FM-15","ETNJ ","V020","260,1,N,0021,1","01140,1,C,N","011265,1,N,1","+0170,1","+0150,1","99999,9",,"02,5,+00540,1,99,9","07,5,+01140,1,99,9",,"07,99,1,99,9,99,9,99999,9,99,9,99,9","10159,1,99999,9",,,,,"MET062METAR ETNJ 090620Z 26004KT 9999 FEW018 BKN038 17/15 Q1016 BLU;",
"10122099999","2010-08-09T07:20:00","4","53.5335","7.888667","7.31","JEVER, GM","FM-15","ETNJ ","V020","260,1,N,0026,1","01500,1,C,N","011265,1,N,1","+0180,1","+0160,1","99999,9",,"02,5,+00480,1,99,9","07,5,+01500,1,99,9",,"07,99,1,99,9,99,9,99999,9,99,9,99,9","10159,1,99999,9",,,,,"MET066METAR ETNJ 090720Z 26005KT 9999 FEW016 BKN050 18/16 Q1016 BLU BLU;",
"10122099999","2010-08-09T08:20:00","4","53.5335","7.888667","7.31","JEVER, GM","FM-15","ETNJ ","V020","270,1,N,0036,1","01470,1,C,N","011265,1,N,1","+0190,1","+0150,1","99999,9",,"02,5,+00420,1,99,9","07,5,+01470,1,99,9",,"07,99,1,99,9,99,9,99999,9,99,9,99,9","10159,1,99999,9",,,,,"MET066METAR ETNJ 090820Z 27007KT 9999 FEW014 BKN049 19/15 Q1016 BLU BLU;",
"10122099999","2010-08-09T09:20:00","4","53.5335","7.888667","7.31","JEVER, GM","FM-15","ETNJ ","V020","260,1,N,0031,1","01350,1,C,N","011265,1,N,1","+0200,1","+0140,1","99999,9",,"02,5,+00570,1,99,9","07,5,+01350,1,99,9",,"07,99,1,99,9,99,9,99999,9,99,9,99,9","10159,1,99999,9",,,,,"MET066METAR ETNJ 090920Z 26006KT 9999 FEW019 BKN045 20/14 Q1016 BLU BLU;",
"10122099999","2010-08-09T10:20:00","4","53.5335","7.888667","7.31","JEVER, GM","FM-15","ETNJ ","V020","360,1,N,0021,1","01140,1,C,N","011265,1,N,1","+0170,1","+0150,1","99999,9",,"02,5,+00450,1,99,9","07,5,+01140,1,99,9",,"07,99,1,99,9,99,9,99999,9,99,9,99,9","10159,1,99999,9",,,,,"MET066METAR ETNJ 091020Z 36004KT 9999 FEW015 BKN038 17/15 Q1016 BLU BLU;",
"10122099999","2010-08-09T11:20:00","4","53.5335","7.888667","7.31","JEVER, GM","FM-15","ETNJ ","V020","360,1,N,0015,1","00990,1,C,N","011265,1,N,1","+0170,1","+0150,1","99999,9",,"02,5,+00450,1,99,9","07,5,+00990,1,99,9",,"07,99,1,99,9,99,9,99999,9,99,9,99,9","10159,1,99999,9",,,,,"MET066METAR ETNJ 091120Z 36003KT 9999 FEW015 BKN033 17/15 Q1016 BLU BLU;",
"10122099999","2010-08-09T12:20:00","4","53.5335","7.888667","7.31","JEVER, GM","FM-15","ETNJ ","V020","040,1,N,0015,1","00990,1,C,N","011265,1,N,1","+0170,1","+0150,1","99999,9",,"02,5,+00450,1,99,9","04,5,+00990,1,99,9","07,5,+01500,1,99,9","07,99,1,99,9,99,9,99999,9,99,9,99,9","10159,1,99999,9",,,,,"MET073METAR ETNJ 091220Z 04003KT 9999 FEW015 SCT033 BKN050 17/15 Q1016 BLU BLU;",
"10122099999","2010-08-09T13:20:00","4","53.5335","7.888667","7.31","JEVER, GM","FM-15","ETNJ ","V020","330,1,N,0015,1","01800,1,C,N","011265,1,N,1","+0200,1","+0160,1","99999,9",,"02,5,+00450,1,99,9","07,5,+01800,1,99,9","07,5,+06600,1,99,9","07,99,1,99,9,99,9,99999,9,99,9,99,9","10159,1,99999,9",,,,,"MET073METAR ETNJ 091320Z 33003KT 9999 FEW015 BKN060 BKN220 20/16 Q1016 BLU BLU;",
"10122099999","2010-08-09T14:20:00","4","53.5335","7.888667","7.31","JEVER, GM","FM-15","ETNJ ","V020","360,1,N,0026,1","99999,9,C,N","011265,1,N,1","+0200,1","+0140,1","99999,9",,"02,5,+00600,1,99,9","04,5,+06600,1,99,9",,"04,99,1,99,9,99,9,99999,9,99,9,99,9","10159,1,99999,9",,,,,"MET074METAR ETNJ 091420Z 36005KT 9999 FEW020 SCT220 20/14 Q1016 BLU/FCST CANCEL;","P01 066003SCOCIG"
"10122099999","2010-08-09T15:20:00","4","53.5335","7.888667","7.31","JEVER, GM","FM-15","ETNJ ","V020","300,1,N,0015,1","99999,9,C,N","011265,1,N,1","+0220,1","+0140,1","99999,9",,"02,5,+00600,1,99,9","04,5,+01800,1,99,9",,"04,99,1,99,9,99,9,99999,9,99,9,99,9","10159,1,99999,9",,,,,"MET063METAR ETNJ 091520Z 30003KT 9999 FEW020 SCT060 22/14 Q1016 BLU/;","P01 018003SCOCIG"
"10122099999","2010-08-09T16:20:00","4","53.5335","7.888667","7.31","JEVER, GM","FM-15","ETNJ ","V020","999,9,V,0010,1","22000,1,9,N","011265,1,N,1","+0210,1","+0130,1","99999,9",,"04,5,+00960,1,99,9",,,"04,99,1,99,9,99,9,99999,9,99,9,99,9","10149,1,99999,9",,,,,"MET056METAR ETNJ 091620Z VRB02KT 9999 SCT032 21/13 Q1015 BLU/;",
"10122099999","2010-08-09T17:20:00","4","53.5335","7.888667","7.31","JEVER, GM","FM-15","ETNJ ","V020","120,1,N,0026,1","00960,1,C,N","011265,1,N,1","+0190,1","+0130,1","99999,9",,"07,5,+00960,1,99,9",,,"07,99,1,99,9,99,9,99999,9,99,9,99,9","10149,1,99999,9",,,,,"MET055METAR ETNJ 091720Z 12005KT 9999 BKN032 19/13 Q1015 BLU;",
"10122099999","2010-08-09T18:20:00","4","53.5335","7.888667","7.31","JEVER, GM","FM-15","ETNJ ","V020","100,1,N,0021,1","01470,1,C,N","011265,1,N,1","+0190,1","+0140,1","99999,9",,"02,5,+00900,1,99,9","07,5,+01470,1,99,9",,"07,99,1,99,9,99,9,99999,9,99,9,99,9","10149,1,99999,9",,,,,"MET062METAR ETNJ 091820Z 10004KT 9999 FEW030 BKN049 19/14 Q1015 BLU;",
"10122099999","2010-08-09T19:20:00","4","53.5335","7.888667","7.31","JEVER, GM","FM-15","ETNJ ","V020","030,1,N,0015,1","99999,9,C,N","011265,1,N,1","+0180,1","+0130,1","99999,9",,"04,5,+00690,1,99,9","04,5,+01500,1,99,9",,"04,99,1,99,9,99,9,99999,9,99,9,99,9","10149,1,99999,9",,,,,"MET063METAR ETNJ 091920Z 03003KT 9999 SCT023 SCT050 18/13 Q1015 BLU/;","P01 015003SCOCIG"
"10122099999","2010-08-09T20:20:00","4","53.5335","7.888667","7.31","JEVER, GM","FM-15","ETNJ ","V020","050,1,N,0015,1","99999,9,C,N","011265,1,N,1","+0180,1","+0140,1","99999,9",,"04,5,+00840,1,99,9","04,5,+01800,1,99,9",,"04,99,1,99,9,99,9,99999,9,99,9,99,9","10149,1,99999,9",,,,,"MET063METAR ETNJ 092020Z 05003KT 9999 SCT028 SCT060 18/14 Q1015 BLU/;","P01 018003SCOCIG"
"10122099999","2010-08-09T21:20:00","4","53.5335","7.888667","7.31","JEVER, GM","FM-15","ETNJ ","V020","100,1,N,0010,1","99999,9,C,N","011265,1,N,1","+0150,1","+0120,1","99999,9",,"02,5,+00840,1,99,9","04,5,+06900,1,99,9",,"04,99,1,99,9,99,9,99999,9,99,9,99,9","10159,1,99999,9",,,,,"MET063METAR ETNJ 092120Z 10002KT 9999 FEW028 SCT230 15/12 Q1016 BLU/;","P01 069003SCOCIG"
"10122099999","2010-08-09T22:20:00","4","53.5335","7.888667","7.31","JEVER, GM","FM-15","ETNJ ","V020","120,1,N,0010,1","99999,9,C,N","011265,1,N,1","+0140,1","+0120,1","99999,9",,"02,5,+00750,1,99,9","04,5,+06900,1,99,9",,"04,99,1,99,9,99,9,99999,9,99,9,99,9","10159,1,99999,9",,,,,"MET063METAR ETNJ 092220Z 12002KT 9999 FEW025 SCT230 14/12 Q1016 BLU/;","P01 069003SCOCIG"
"10122099999","2010-08-09T23:20:00","4","53.5335","7.888667","7.31","JEVER, GM","FM-15","ETNJ ","V020","130,1,N,0021,1","22000,1,9,N","011265,1,N,1","+0140,1","+0120,1","99999,9",,"04,5,+06900,1,99,9",,,"04,99,1,99,9,99,9,99999,9,99,9,99,9","10149,1,99999,9",,,,,"MET056METAR ETNJ 092320Z 13004KT 9999 SCT230 14/12 Q1015 BLU/;",
"10122099999","2010-08-10T00:20:00","4","53.5335","7.888667","7.31","JEVER, GM","FM-15","ETNJ ","V020","150,1,N,0021,1","22000,1,9,N","006000,1,N,1","+0140,1","+0120,1","99999,9",,"04,5,+06900,1,99,9",,,"04,99,1,99,9,99,9,99999,9,99,9,99,9","10149,1,99999,9",,,,,"MET055METAR ETNJ 100020Z 15004KT 6000 SCT230 14/12 Q1015 WHT;",
"10122099999","2010-08-10T01:20:00","4","53.5335","7.888667","7.31","JEVER, GM","FM-15","ETNJ ","V020","170,1,N,0026,1","22000,1,9,N","005000,1,N,1","+0130,1","+0120,1","99999,9",,"04,5,+06900,1,99,9",,,"04,99,1,99,9,99,9,99999,9,99,9,99,9","10149,1,99999,9","10,1",,,,"MET058METAR ETNJ 100120Z 17005KT 5000 BR SCT230 13/12 Q1015 WHT;",
"10122099999","2010-08-10T02:20:00","4","53.5335","7.888667","7.31","JEVER, GM","FM-15","ETNJ ","V020","170,1,N,0021,1","22000,1,9,N","004000,1,N,1","+0130,1","+0120,1","99999,9",,"04,5,+06900,1,99,9",,,"04,99,1,99,9,99,9,99999,9,99,9,99,9","10139,1,99999,9","10,1","12,1",,,"MET063METAR ETNJ 100220Z 17004KT 4000 BR MIFG SCT230 13/12 Q1014 GRN;",
"10122099999","2010-08-10T03:20:00","4","53.5335","7.888667","7.31","JEVER, GM","FM-15","ETNJ ","V020","160,1,N,0026,1","22000,1,9,N","002000,1,N,1","+0120,1","+0110,1","99999,9",,"02,5,+06900,1,99,9",,,"02,99,1,99,9,99,9,99999,9,99,9,99,9","10139,1,99999,9","10,1","12,1",,,"MET063METAR ETNJ 100320Z 16005KT 2000 BR MIFG FEW230 12/11 Q1014 YLO;",
"10122099999","2010-08-10T04:20:00","4","53.5335","7.888667","7.31","JEVER, GM","FM-15","ETNJ ","V020","140,1,N,0026,1","22000,1,9,N","002500,1,N,1","+0120,1","+0110,1","99999,9",,"02,5,+06900,1,99,9",,,"02,99,1,99,9,99,9,99999,9,99,9,99,9","10139,1,99999,9","10,1",,,,"MET058METAR ETNJ 100420Z 14005KT 2500 BR FEW230 12/11 Q1014 YLO;",
"10122099999","2010-08-10T04:48:00","4","53.5335","7.888667","7.31","JEVER, GM","FM-16","ETNJ ","V020","150,1,N,0026,1","22000,1,9,N","003000,1,N,1","+0130,1","+0120,1","99999,9",,"02,5,+06900,1,99,9",,,"02,99,1,99,9,99,9,99999,9,99,9,99,9","10139,1,99999,9","10,1",,,,"MET072SPECI ETNJ 100448Z 15005KT 3000 BR FEW230 13/12 Q1014 YLO YLO BECMG GRN;",
"10122099999","2010-08-10T05:20:00","4","53.5335","7.888667","7.31","JEVER, GM","FM-15","ETNJ ","V020","150,1,N,0031,1","22000,1,9,N","003500,1,N,1","+0130,1","+0130,1","99999,9",,"02,5,+06900,1,99,9",,,"02,99,1,99,9,99,9,99999,9,99,9,99,9","10139,1,99999,9","10,1",,,,"MET072METAR ETNJ 100520Z 15006KT 3500 BR FEW230 13/13 Q1014 YLO YLO BECMG GRN;",
"10122099999","2010-08-10T06:03:00","4","53.5335","7.888667","7.31","JEVER, GM","FM-16","ETNJ ","V020","140,1,N,0031,1","22000,1,9,N","004500,1,N,1","+0150,1","+0150,1","99999,9",,"02,5,+01200,1,99,9",,,"02,99,1,99,9,99,9,99999,9,99,9,99,9","10139,1,99999,9","10,1",,,,"MET073SPECI ETNJ 100603Z 14006KT 4500 BR FEW040 15/15 Q1014 GRN GRN BECMG BLU/;",
"10122099999","2010-08-10T06:20:00","4","53.5335","7.888667","7.31","JEVER, GM","FM-15","ETNJ ","V020","150,1,N,0031,1","99999,9,C,N","006000,1,N,1","+0160,1","+0150,1","99999,9",,"02,5,+01800,1,99,9","04,5,+06900,1,99,9",,"04,99,1,99,9,99,9,99999,9,99,9,99,9","10139,1,99999,9",,,,,"MET077METAR ETNJ 100620Z 15006KT 6000 FEW060 SCT230 16/15 Q1014 WHT WHT BECMG BLU/;","P01 069003SCOCIG"
"10122099999","2010-08-10T07:20:00","4","53.5335","7.888667","7.31","JEVER, GM","FM-15","ETNJ ","V020","160,1,N,0031,1","06900,1,C,N","007000,1,N,1","+0200,1","+0160,1","99999,9",,"02,5,+01500,1,99,9","07,5,+06900,1,99,9",,"07,99,1,99,9,99,9,99999,9,99,9,99,9","10129,1,99999,9",,,,,"MET077METAR ETNJ 100720Z 16006KT 7000 FEW050 BKN230 20/16 Q1013 WHT WHT BECMG BLU/;",
"10122099999","2010-08-10T08:20:00","4","53.5335","7.888667","7.31","JEVER, GM","FM-15","ETNJ ","V020","170,1,N,0041,1","07800,1,C,N","008000,1,N,1","+0210,1","+0140,1","99999,9",,"02,5,+01500,1,99,9","07,5,+07800,1,99,9",,"07,99,1,99,9,99,9,99999,9,99,9,99,9","10129,1,99999,9",,,,,"MET067METAR ETNJ 100820Z 17008KT 8000 FEW050 BKN260 21/14 Q1013 BLU/BLU/;",
"10122099999","2010-08-10T08:23:00","4","53.5335","7.888667","7.31","JEVER, GM","FM-16","ETNJ ","V020","180,1,N,0041,1","07800,1,C,N","008000,1,N,1","+0210,1","+0140,1","99999,9",,"02,5,+01500,1,99,9","07,5,+07800,1,99,9",,"07,99,1,99,9,99,9,99999,9,99,9,99,9","10129,1,99999,9",,,,,"MET067SPECI ETNJ 100823Z 18008KT 8000 FEW050 BKN260 21/14 Q1013 BLU/BLU/;",
"10122099999","2010-08-10T09:20:00","4","53.5335","7.888667","7.31","JEVER, GM","FM-15","ETNJ ","V020","190,1,N,0057,1","08400,1,C,N","011265,1,N,1","+0230,1","+0140,1","99999,9",,"02,5,+01500,1,99,9","07,5,+08400,1,99,9",,"07,99,1,99,9,99,9,99999,9,99,9,99,9","10129,1,99999,9",,,,,"MET067METAR ETNJ 100920Z 19011KT 9999 FEW050 BKN280 23/14 Q1013 BLU/BLU/;",
"10122099999","2010-08-10T10:20:00","4","53.5335","7.888667","7.31","JEVER, GM","FM-15","ETNJ ","V020","210,1,N,0057,1","08400,1,C,N","011265,1,N,1","+0240,1","+0140,1","99999,9",,"02,5,+01200,1,99,9","07,5,+08400,1,99,9",,"07,99,1,99,9,99,9,99999,9,99,9,99,9","10119,1,99999,9",,,,,"MET067METAR ETNJ 101020Z 21011KT 9999 FEW040 BKN280 24/14 Q1012 BLU/BLU/;",
"10122099999","2010-08-10T11:20:00","4","53.5335","7.888667","7.31","JEVER, GM","FM-15","ETNJ ","V020","210,1,N,0057,1","07200,1,C,N","011265,1,N,1","+0240,1","+0130,1","99999,9",,"02,5,+01200,1,99,9","07,5,+07200,1,99,9",,"07,99,1,99,9,99,9,99999,9,99,9,99,9","10119,1,99999,9",,,,,"MET067METAR ETNJ 101120Z 21011KT 9999 FEW040 BKN240 24/13 Q1012 BLU/BLU/;",
"10122099999","2010-08-10T12:20:00","4","53.5335","7.888667","7.31","JEVER, GM","FM-15","ETNJ ","V020","210,1,N,0057,1","06900,1,C,N","011265,1,N,1","+0240,1","+0120,1","99999,9",,"02,5,+01200,1,99,9","08,5,+06900,1,99,9",,"08,99,1,99,9,99,9,99999,9,99,9,99,9","10119,1,99999,9",,,,,"MET067METAR ETNJ 101220Z 21011KT 9999 FEW040 OVC230 24/12 Q1012 BLU/BLU/;",
"10122099999","2010-08-10T13:20:00","4","53.5335","7.888667","7.31","JEVER, GM","FM-15","ETNJ ","V020","210,1,N,0057,1","06000,1,C,N","011265,1,N,1","+0250,1","+0130,1","99999,9",,"02,5,+01200,1,99,9","08,5,+06000,1,99,9",,"08,99,1,99,9,99,9,99999,9,99,9,99,9","10108,1,99999,9",,,,,"MET066METAR ETNJ 101320Z 21011KT 9999 FEW040 OVC200 25/13 Q1011 BLU/BLU;",
"10122099999","2010-08-10T14:20:00","4","53.5335","7.888667","7.31","JEVER, GM","FM-15","ETNJ ","V020","210,1,N,0041,1","03300,1,C,N","011265,1,N,1","+0250,1","+0130,1","99999,9",,"02,5,+01200,1,99,9","04,5,+03300,1,99,9","08,5,+06000,1,99,9","08,99,1,99,9,99,9,99999,9,99,9,99,9","10108,1,99999,9",,,,,"MET081METAR ETNJ 101420Z 21008KT 9999 FEW040 SCT110 OVC200 25/13 Q1011 BLU/FCST CANCEL;",
"10122099999","2010-08-10T15:20:00","4","53.5335","7.888667","7.31","JEVER, GM","FM-15","ETNJ ","V020","230,1,N,0036,1","03000,1,C,N","011265,1,N,1","+0240,1","+0140,1","99999,9",,"02,5,+01200,1,99,9","07,5,+03000,1,99,9","08,5,+05400,1,99,9","08,99,1,99,9,99,9,99999,9,99,9,99,9","10108,1,99999,9",,,,,"MET069METAR ETNJ 101520Z 23007KT 9999 FEW040 BKN100 OVC180 24/14 Q1011 BLU;",
"10122099999","2010-08-10T16:20:00","4","53.5335","7.888667","7.31","JEVER, GM","FM-15","ETNJ ","V020","270,1,N,0031,1","03000,1,C,N","011265,1,N,1","+0240,1","+0140,1","99999,9",,"02,5,+01200,1,99,9","07,5,+03000,1,99,9","08,5,+04800,1,99,9","08,99,1,99,9,99,9,99999,9,99,9,99,9","10102,1,99999,9",,,,,"MET069METAR ETNJ 101620Z 27006KT 9999 FEW040 BKN100 OVC160 24/14 Q1010 BLU;",
"10122099999","2010-08-10T17:20:00","4","53.5335","7.888667","7.31","JEVER, GM","FM-15","ETNJ ","V020","220,1,N,0031,1","03000,1,C,N","011265,1,N,1","+0230,1","+0150,1","99999,9",,"02,5,+01050,1,99,9","08,5,+03000,1,99,9",,"08,99,1,99,9,99,9,99999,9,99,9,99,9","10102,1,99999,9","61,1",,,,"MET066METAR ETNJ 101720Z 22006KT 9999 -RA FEW035 OVC100 23/15 Q1010 BLU;",
"10122099999","2010-08-10T18:20:00","4","53.5335","7.888667","7.31","JEVER, GM","FM-15","ETNJ ","V020","220,1,N,0031,1","03000,1,C,N","011265,1,N,1","+0210,1","+0130,1","99999,9",,"02,5,+01050,1,99,9","07,5,+03000,1,99,9",,"07,99,1,99,9,99,9,99999,9,99,9,99,9","10102,1,99999,9",,,,,"MET062METAR ETNJ 101820Z 22006KT 9999 FEW035 BKN100 21/13 Q1010 BLU;",
"10122099999","2010-08-10T19:20:00","4","53.5335","7.888667","7.31","JEVER, GM","FM-15","ETNJ ","V020","180,1,N,0021,1","02700,1,C,N","011265,1,N,1","+0200,1","+0130,1","99999,9",,"02,5,+01050,1,99,9","08,5,+02700,1,99,9",,"08,99,1,99,9,99,9,99999,9,99,9,99,9","10102,1,99999,9",,,,,"MET062METAR ETNJ 101920Z 18004KT 9999 FEW035 OVC090 20/13 Q1010 BLU;",
"10122099999","2010-08-10T20:20:00","4","53.5335","7.888667","7.31","JEVER, GM","FM-15","ETNJ ","V020","210,1,N,0031,1","02400,1,C,N","011265,1,N,1","+0200,1","+0140,1","99999,9",,"02,5,+01500,1,99,9","08,5,+02400,1,99,9",,"08,99,1,99,9,99,9,99999,9,99,9,99,9","10102,1,99999,9",,,,,"MET062METAR ETNJ 102020Z 21006KT 9999 FEW050 OVC080 20/14 Q1010 BLU;",
"10122099999","2010-08-10T21:20:00","4","53.5335","7.888667","7.31","JEVER, GM","FM-15","ETNJ ","V020","240,1,N,0046,1","01380,1,C,N","011265,1,N,1","+0180,1","+0150,1","99999,9",,"02,5,+00510,1,99,9","04,5,+01380,1,99,9","08,5,+02400,1,99,9","08,99,1,99,9,99,9,99999,9,99,9,99,9","10108,1,99999,9","61,1",,,,"MET073METAR ETNJ 102120Z 24009KT 9999 -RA FEW017 SCT046 OVC080 18/15 Q1011 BLU;",
"10122099999","2010-08-10T22:20:00","4","53.5335","7.888667","7.31","JEVER, GM","FM-15","ETNJ ","V020","210,1,N,0026,1","01500,1,C,N","011265,1,N,1","+0170,1","+0150,1","99999,9",,"04,5,+01020,1,99,9","07,5,+01500,1,99,9",,"07,99,1,99,9,99,9,99999,9,99,9,99,9","10102,1,99999,9",,,,,"MET062METAR ETNJ 102220Z 21005KT 9999 SCT034 BKN050 17/15 Q1010 BLU;",
"10122099999","2010-08-10T22:53:00","4","53.5335","7.888667","7.31","JEVER, GM","FM-16","ETNJ ","V020","210,1,N,0031,1","00390,1,C,N","011265,1,N,1","+0170,1","+0150,1","99999,9",,"07,5,+00390,1,99,9","07,5,+01380,1,99,9",,"07,99,1,99,9,99,9,99999,9,99,9,99,9","10102,1,99999,9",,,,,"MET062SPECI ETNJ 102253Z 21006KT 9999 BKN013 BKN046 17/15 Q1010 GRN;",
"10122099999","2010-08-10T23:20:00","4","53.5335","7.888667","7.31","JEVER, GM","FM-15","ETNJ ","V020","200,1,N,0031,1","00360,1,C,N","011265,1,N,1","+0170,1","+0150,1","99999,9",,"07,5,+00360,1,99,9","07,5,+00960,1,99,9",,"07,99,1,99,9,99,9,99999,9,99,9,99,9","10102,1,99999,9",,,,,"MET062METAR ETNJ 102320Z 20006KT 9999 BKN012 BKN032 17/15 Q1010 GRN;",
"10122099999","2010-08-11T00:20:00","4","53.5335","7.888667","7.31","JEVER, GM","FM-15","ETNJ ","V020","210,1,N,0031,1","00300,1,C,N","011265,1,N,1","+0180,1","+0150,1","99999,9",,"07,5,+00300,1,99,9",,,"07,99,1,99,9,99,9,99999,9,99,9,99,9","10102,1,99999,9","61,1",,,,"MET059METAR ETNJ 110020Z 21006KT 9999 -RA BKN010 18/15 Q1010 GRN;",
"10122099999","2010-08-11T01:20:00","4","53.5335","7.888667","7.31","JEVER, GM","FM-15","ETNJ ","V020","260,1,N,0026,1","00210,1,C,N","005000,1,N,1","+0170,1","+0150,1","99999,9",,"04,5,+00150,1,99,9","07,5,+00210,1,99,9",,"07,99,1,99,9,99,9,99999,9,99,9,99,9","10102,1,99999,9","10,1","51,1","61,1",,"MET071METAR ETNJ 110120Z 26005KT 5000 -RADZ BR SCT005 BKN007 17/15 Q1010 GRN;",
"10122099999","2010-08-11T01:27:00","4","53.5335","7.888667","7.31","JEVER, GM","FM-16","ETNJ ","V020","300,1,N,0026,1","00180,1,C,N","002800,1,N,1","+0160,1","+0150,1","99999,9",,"04,5,+00060,1,99,9","07,5,+00180,1,99,9",,"07,99,1,99,9,99,9,99999,9,99,9,99,9","10102,1,99999,9","10,1","53,1","63,1",,"MET070SPECI ETNJ 110127Z 30005KT 2800 RADZ BR SCT002 BKN006 16/15 Q1010 YLO;",
"10122099999","2010-08-11T02:00:00","4","53.5335","7.888667","7.31","JEVER, GM","FM-15","ETNJ ","V020","300,1,N,0015,1","00240,1,C,N","007000,1,N,1","+0160,1","+0140,1","99999,9",,"04,5,+00150,1,99,9","07,5,+00240,1,99,9","07,5,+00480,1,99,9","07,99,1,99,9,99,9,99999,9,99,9,99,9","10102,1,99999,9","51,1","61,1",,,"MET080SPECI ETNJ 110155Z 30003KT 7000 -RADZ SCT005 BKN008 BKN016 16/14 Q1010 RERA GRN;",
"10122099999","2010-08-11T02:20:00","4","53.5335","7.888667","7.31","JEVER, GM","FM-15","ETNJ ","V020","999,9,V,0005,1","00210,1,C,N","005000,1,N,1","+0160,1","+0150,1","99999,9",,"04,5,+00150,1,99,9","07,5,+00210,1,99,9",,"07,99,1,99,9,99,9,99999,9,99,9,99,9","10091,1,99999,9","10,1","51,1","61,1",,"MET076METAR ETNJ 110220Z VRB01KT 5000 -RADZ BR SCT005 BKN007 16/15 Q1009 RERA GRN;",
"10122099999","2010-08-11T02:41:00","4","53.5335","7.888667","7.31","JEVER, GM","FM-16","ETNJ ","V020","999,9,V,0010,1","00180,1,C,N","004000,1,N,1","+0160,1","+0150,1","99999,9",,"04,5,+00090,1,99,9","07,5,+00180,1,99,9",,"07,99,1,99,9,99,9,99999,9,99,9,99,9","10091,1,99999,9","10,1","51,1","61,1",,"MET071SPECI ETNJ 110241Z VRB02KT 4000 -RADZ BR SCT003 BKN006 16/15 Q1009 YLO;",
"10122099999","2010-08-11T03:20:00","4","53.5335","7.888667","7.31","JEVER, GM","FM-15","ETNJ ","V020","230,1,N,0021,1","00180,1,C,N","004500,1,N,1","+0160,1","+0150,1","99999,9",,"04,5,+00120,1,99,9","07,5,+00180,1,99,9","07,5,+00510,1,99,9","07,99,1,99,9,99,9,99999,9,99,9,99,9","10091,1,99999,9","10,1","51,1","61,1",,"MET078METAR ETNJ 110320Z 23004KT 4500 -RADZ BR SCT004 BKN006 BKN017 16/15 Q1009 YLO;",
"10122099999","2010-08-11T04:06:00","4","53.5335","7.888667","7.31","JEVER, GM","FM-16","ETNJ ","V020","170,1,N,0026,1","01800,1,C,N","006000,1,N,1","+0160,1","+0150,1","99999,9",,"04,5,+00180,1,99,9","07,5,+01800,1,99,9","07,5,+03000,1,99,9","07,99,1,99,9,99,9,99999,9,99,9,99,9","10091,1,99999,9",,,,,"MET069SPECI ETNJ 110406Z 17005KT 6000 SCT006 BKN060 BKN100 16/15 Q1009 WHT;",
"10122099999","2010-08-11T04:20:00","4","53.5335","7.888667","7.31","JEVER, GM","FM-15","ETNJ ","V020","180,1,N,0026,1","00420,1,C,N","007000,1,N,1","+0160,1","+0150,1","99999,9",,"02,5,+00180,1,99,9","07,5,+00420,1,99,9","07,5,+01800,1,99,9","07,99,1,99,9,99,9,99999,9,99,9,99,9","10091,1,99999,9",,,,,"MET069METAR ETNJ 110420Z 18005KT 7000 FEW006 BKN014 BKN060 16/15 Q1009 GRN;",
"10122099999","2010-08-11T05:20:00","4","53.5335","7.888667","7.31","JEVER, GM","FM-15","ETNJ ","V020","190,1,N,0036,1","00300,1,C,N","007000,1,N,1","+0160,1","+0150,1","99999,9",,"04,5,+00240,1,99,9","07,5,+00300,1,99,9",,"07,99,1,99,9,99,9,99999,9,99,9,99,9","10091,1,99999,9",,,,,"MET076METAR ETNJ 110520Z 19007KT 7000 SCT008 BKN010 16/15 Q1009 GRN WHT TEMPO GRN;",
"10122099999","2010-08-11T06:20:00","4","53.5335","7.888667","7.31","JEVER, GM","FM-15","ETNJ ","V020","200,1,N,0036,1","00240,1,C,N","006000,1,N,1","+0170,1","+0160,1","99999,9",,"02,5,+00180,1,99,9","04,5,+00240,1,99,9","07,5,+00300,1,99,9","07,99,1,99,9,99,9,99999,9,99,9,99,9","10091,1,99999,9","51,1",,,,"MET077METAR ETNJ 110620Z 20007KT 6000 -DZ FEW006 SCT008 BKN010 17/16 Q1009 GRN GRN;",
"10122099999","2010-08-11T06:39:00","4","53.5335","7.888667","7.31","JEVER, GM","FM-16","ETNJ ","V020","200,1,N,0036,1","00240,1,C,N","003200,1,N,1","+0170,1","+0160,1","99999,9",,"04,5,+00180,1,99,9","07,5,+00240,1,99,9",,"07,99,1,99,9,99,9,99999,9,99,9,99,9","10091,1,99999,9","10,1","53,1","63,1",,"MET084SPECI ETNJ 110639Z 20007KT 3200 RADZ BR SCT006 BKN008 17/16 Q1009 YLO GRN TEMPO YLO;",
"10122099999","2010-08-11T07:20:00","4","53.5335","7.888667","7.31","JEVER, GM","FM-15","ETNJ ","V020","200,1,N,0041,1","00180,1,C,N","004800,1,N,1","+0170,1","+0160,1","99999,9",,"02,5,+00090,1,99,9","04,5,+00180,1,99,9","07,5,+00240,1,99,9","07,99,1,99,9,99,9,99999,9,99,9,99,9","10091,1,99999,9","10,1","51,1","61,1",,"MET097METAR ETNJ 110720Z 20008KT 4800 -RADZ BR FEW003 SCT006 BKN008 17/16 Q1009 RERA GRN GRN TEMPO YLO;",
"10122099999","2010-08-11T07:54:00","4","53.5335","7.888667","7.31","JEVER, GM","FM-16","ETNJ ","V020","220,1,N,0041,1","00360,1,C,N","006000,1,N,1","+0170,1","+0160,1","99999,9",,"04,5,+00180,1,99,9","07,5,+00360,1,99,9",,"07,99,1,99,9,99,9,99999,9,99,9,99,9","10091,1,99999,9","51,1","61,1",,,"MET082SPECI ETNJ 110754Z 22008KT 6000 -RADZ SCT006 BKN012 17/16 Q1009 GRN GRN TEMPO YLO;",
"10122099999","2010-08-11T08:20:00","4","53.5335","7.888667","7.31","JEVER, GM","FM-15","ETNJ ","V020","230,1,N,0041,1","00210,1,C,N","011265,1,N,1","+0180,1","+0170,1","99999,9",,"02,5,+00150,1,99,9","04,5,+00210,1,99,9","07,5,+00510,1,99,9","07,99,1,99,9,99,9,99999,9,99,9,99,9","10091,1,99999,9",,,,,"MET083METAR ETNJ 110820Z 23008KT 9999 FEW005 SCT007 BKN017 18/17 Q1009 WHT WHT TEMPO GRN;",
"10122099999","2010-08-11T09:20:00","4","53.5335","7.888667","7.31","JEVER, GM","FM-15","ETNJ ","V020","250,1,N,0051,1","99999,9,C,N","011265,1,N,1","+0200,1","+0180,1","99999,9",,"02,5,+00390,1,99,9","04,5,+01800,1,99,9",,"04,99,1,99,9,99,9,99999,9,99,9,99,9","10091,1,99999,9","80,1",,,,"MET073METAR ETNJ 110920Z 25010KT 9999 -SHRA FEW013 SCT060 20/18 Q1009 BLU/BLU/;","P01 018003SCOCIG"
"10122099999","2010-08-11T10:20:00","4","53.5335","7.888667","7.31","JEVER, GM","FM-15","ETNJ ","V020","280,1,N,0067,1","22000,1,9,N","011265,1,N,1","+0210,1","+0140,1","99999,9",,"02,5,+00660,1,99,9",,,"02,99,1,99,9,99,9,99999,9,99,9,99,9","10102,1,99999,9",,,,,"MET060METAR ETNJ 111020Z 28013KT 9999 FEW022 21/14 Q1010 BLU/BLU/;",
"10122099999","2010-08-11T11:20:00","4","53.5335","7.888667","7.31","JEVER, GM","FM-15","ETNJ ","V020","280,1,N,0051,1","22000,1,9,N","011265,1,N,1","+0220,1","+0140,1","99999,9",,"02,5,+01050,1,99,9",,,"02,99,1,99,9,99,9,99999,9,99,9,99,9","10102,1,99999,9",,,,,"MET060METAR ETNJ 111120Z 28010KT 9999 FEW035 22/14 Q1010 BLU/BLU/;",
"10122099999","2010-08-11T12:20:00","4","53.5335","7.888667","7.31","JEVER, GM","FM-15","ETNJ ","V020","280,1,N,0067,1","99999,9,C,N","011265,1,N,1","+0210,1","+0130,1","99999,9",,"02,5,+00900,1,99,9","04,5,+01200,1,99,9",,"04,99,1,99,9,99,9,99999,9,99,9,99,9","10108,1,99999,9",,,,,"MET067METAR ETNJ 111220Z 28013KT 9999 FEW030 SCT040 21/13 Q1011 BLU/BLU/;","P01 012003SCOCIG"
"10122099999","2010-08-11T13:20:00","4","53.5335","7.888667","7.31","JEVER, GM","FM-15","ETNJ ","V020","300,1,N,0051,1","22000,1,9,N","011265,1,N,1","+0200,1","+0130,1","99999,9",,"02,5,+00900,1,99,9",,,"02,99,1,99,9,99,9,99999,9,99,9,99,9","10108,1,99999,9",,,,,"MET060METAR ETNJ 111320Z 30010KT 9999 FEW030 20/13 Q1011 BLU/BLU/;",
"10122099999","2010-08-11T14:00:00","4","53.5335","7.888667","7.31","JEVER, GM","FM-16","ETNJ ","V020","290,1,N,0057,1","22000,1,9,N","011265,1,N,1","+0210,1","+0120,1","99999,9",,"02,5,+00900,1,99,9",,,"02,99,1,99,9,99,9,99999,9,99,9,99,9","10119,1,99999,9",,,,,"MET067SPECI ETNJ 111400Z 29011KT 9999 FEW030 21/12 Q1012 BLU/FCST CANCEL;",
"10122099999","2010-08-11T14:20:00","4","53.5335","7.888667","7.31","JEVER, GM","FM-15","ETNJ ","V020","300,1,N,0051,1","22000,1,9,N","011265,1,N,1","+0210,1","+0120,1","99999,9",,"02,5,+00900,1,99,9",,,"02,99,1,99,9,99,9,99999,9,99,9,99,9","10119,1,99999,9",,,,,"MET056METAR ETNJ 111420Z 30010KT 9999 FEW030 21/12 Q1012 BLU/;",
"10122099999","2010-08-11T15:20:00","4","53.5335","7.888667","7.31","JEVER, GM","FM-15","ETNJ ","V020","290,1,N,0046,1","22000,1,9,N","011265,1,N,1","+0210,1","+0110,1","99999,9",,"02,5,+00900,1,99,9",,,"02,99,1,99,9,99,9,99999,9,99,9,99,9","10119,1,99999,9",,,,,"MET056METAR ETNJ 111520Z 29009KT 9999 FEW030 21/11 Q1012 BLU/;",
"10122099999","2010-08-11T16:20:00","4","53.5335","7.888667","7.31","JEVER, GM","FM-15","ETNJ ","V020","300,1,N,0046,1","99999,9,C,N","011265,1,N,1","+0200,1","+0110,1","99999,9",,"02,5,+00900,1,99,9","04,5,+06900,1,99,9",,"04,99,1,99,9,99,9,99999,9,99,9,99,9","10119,1,99999,9",,,,,"MET063METAR ETNJ 111620Z 30009KT 9999 FEW030 SCT230 20/11 Q1012 BLU/;","P01 069003SCOCIG"
"10122099999","2010-08-11T17:20:00","4","53.5335","7.888667","7.31","JEVER, GM","FM-15","ETNJ ","V020","310,1,N,0036,1","07800,1,C,N","011265,1,N,1","+0200,1","+0120,1","99999,9",,"02,5,+00900,1,99,9","07,5,+07800,1,99,9",,"07,99,1,99,9,99,9,99999,9,99,9,99,9","10119,1,99999,9",,,,,"MET063METAR ETNJ 111720Z 31007KT 9999 FEW030 BKN260 20/12 Q1012 BLU/;",
"10122099999","2010-08-11T18:20:00","4","53.5335","7.888667","7.31","JEVER, GM","FM-15","ETNJ ","V020","310,1,N,0031,1","07800,1,C,N","011265,1,N,1","+0170,1","+0110,1","99999,9",,"02,5,+03600,1,99,9","07,5,+07800,1,99,9",,"07,99,1,99,9,99,9,99999,9,99,9,99,9","10129,1,99999,9",,,,,"MET063METAR ETNJ 111820Z 31006KT 9999 FEW120 BKN260 17/11 Q1013 BLU/;",
"10122099999","2010-08-11T19:20:00","4","53.5335","7.888667","7.31","JEVER, GM","FM-15","ETNJ ","V020","310,1,N,0021,1","06900,1,C,N","011265,1,N,1","+0160,1","+0110,1","99999,9",,"02,5,+03600,1,99,9","07,5,+06900,1,99,9",,"07,99,1,99,9,99,9,99999,9,99,9,99,9","10129,1,99999,9",,,,,"MET063METAR ETNJ 111920Z 31004KT 9999 FEW120 BKN230 16/11 Q1013 BLU/;",
"10122099999","2010-08-11T20:20:00","4","53.5335","7.888667","7.31","JEVER, GM","FM-15","ETNJ ","V020","330,1,N,0005,1","06900,1,C,N","011265,1,N,1","+0140,1","+0110,1","99999,9",,"07,5,+06900,1,99,9",,,"07,99,1,99,9,99,9,99999,9,99,9,99,9","10139,1,99999,9",,,,,"MET056METAR ETNJ 112020Z 33001KT 9999 BKN230 14/11 Q1014 BLU/;",
"10122099999","2010-08-11T21:20:00","4","53.5335","7.888667","7.31","JEVER, GM","FM-15","ETNJ ","V020","160,1,N,0005,1","22000,1,9,N","011265,1,N,1","+0130,1","+0110,1","99999,9",,"04,5,+06900,1,99,9",,,"04,99,1,99,9,99,9,99999,9,99,9,99,9","10139,1,99999,9",,,,,"MET056METAR ETNJ 112120Z 16001KT 9999 SCT230 13/11 Q1014 BLU/;",
"10122099999","2010-08-11T22:20:00","4","53.5335","7.888667","7.31","JEVER, GM","FM-15","ETNJ ","V020","130,1,N,0010,1","22000,1,9,N","011265,1,N,1","+0120,1","+0100,1","99999,9",,"02,5,+00600,1,99,9",,,"02,99,1,99,9,99,9,99999,9,99,9,99,9","10139,1,99999,9",,,,,"MET056METAR ETNJ 112220Z 13002KT 9999 FEW020 12/10 Q1014 BLU/;",
"10122099999","2010-08-11T23:20:00","4","53.5335","7.888667","7.31","JEVER, GM","FM-15","ETNJ ","V020","130,1,N,0010,1","22000,1,9,N","011265,1,N,1","+0110,1","+0090,1","99999,9",,"02,5,+00600,1,99,9",,,"02,99,1,99,9,99,9,99999,9,99,9,99,9","10139,1,99999,9",,,,,"MET056METAR ETNJ 112320Z 13002KT 9999 FEW020 11/09 Q1014 BLU/;",
"10122099999","2010-08-12T00:20:00","4","53.5335","7.888667","7.31","JEVER, GM","FM-15","ETNJ ","V020","140,1,N,0010,1","22000,1,9,N","011265,1,N,1","+0110,1","+0090,1","99999,9",,,,,,"10129,1,99999,9","12,1",,,,"MET054METAR ETNJ 120020Z 14002KT 9999 MIFG 11/09 Q1013 BLU/;",
"10122099999","2010-08-12T01:20:00","4","53.5335","7.888667","7.31","JEVER, GM","FM-15","ETNJ ","V020","130,1,N,0010,1","22000,1,9,N","011265,1,N,1","+0110,1","+0100,1","99999,9",,"02,5,+06300,1,99,9",,,"02,99,1,99,9,99,9,99999,9,99,9,99,9","10129,1,99999,9","12,1",,,,"MET061METAR ETNJ 120120Z 13002KT 9999 MIFG FEW210 11/10 Q1013 BLU/;",
"10122099999","2010-08-12T02:20:00","4","53.5335","7.888667","7.31","JEVER, GM","FM-15","ETNJ ","V020","300,1,N,0010,1","06300,1,C,N","011265,1,N,1","+0110,1","+0100,1","99999,9",,"04,5,+00930,1,99,9","07,5,+06300,1,99,9",,"07,99,1,99,9,99,9,99999,9,99,9,99,9","10129,1,99999,9",,,,,"MET063METAR ETNJ 120220Z 30002KT 9999 SCT031 BKN210 11/10 Q1013 BLU/;",
"10122099999","2010-08-12T02:21:00","4","53.5335","7.888667","7.31","JEVER, GM","FM-16","ETNJ ","V020","310,1,N,0010,1","06300,1,C,N","011265,1,N,1","+0110,1","+0100,1","99999,9",,"04,5,+00930,1,99,9","07,5,+06300,1,99,9",,"07,99,1,99,9,99,9,99999,9,99,9,99,9","10129,1,99999,9",,,,,"MET063SPECI ETNJ 120221Z 31002KT 9999 SCT031 BKN210 11/10 Q1013 BLU/;",
"10122099999","2010-08-12T03:20:00","4","53.5335","7.888667","7.31","JEVER, GM","FM-15","ETNJ ","V020","320,1,N,0005,1","06300,1,C,N","011265,1,N,1","+0110,1","+0100,1","99999,9",,"04,5,+00930,1,99,9","07,5,+06300,1,99,9",,"07,99,1,99,9,99,9,99999,9,99,9,99,9","10129,1,99999,9",,,,,"MET063METAR ETNJ 120320Z 32001KT 9999 SCT031 BKN210 11/10 Q1013 BLU/;",
"10122099999","2010-08-12T04:20:00","4","53.5335","7.888667","7.31","JEVER, GM","FM-15","ETNJ ","V020","280,1,N,0010,1","01800,1,C,N","011265,1,N,1","+0110,1","+0100,1","99999,9",,"02,5,+00900,1,99,9","04,5,+01800,1,99,9","07,5,+06300,1,99,9","07,99,1,99,9,99,9,99999,9,99,9,99,9","10129,1,99999,9","12,1",,,,"MET075METAR ETNJ 120420Z 28002KT 9999 MIFG FEW030 SCT060 BKN210 11/10 Q1013 BLU/;",
"10122099999","2010-08-12T05:20:00","4","53.5335","7.888667","7.31","JEVER, GM","FM-15","ETNJ ","V020","300,1,N,0015,1","01800,1,C,N","011265,1,N,1","+0120,1","+0110,1","99999,9",,"02,5,+00900,1,99,9","07,5,+01800,1,99,9",,"07,99,1,99,9,99,9,99999,9,99,9,99,9","10129,1,99999,9",,,,,"MET067METAR ETNJ 120520Z 30003KT 9999 FEW030 BKN060 12/11 Q1013 BLU BLU/;",
"10122099999","2010-08-12T06:20:00","4","53.5335","7.888667","7.31","JEVER, GM","FM-15","ETNJ ","V020","270,1,N,0010,1","01800,1,C,N","011265,1,N,1","+0130,1","+0130,1","99999,9",,"02,5,+00900,1,99,9","07,5,+01800,1,99,9",,"07,99,1,99,9,99,9,99999,9,99,9,99,9","10129,1,99999,9",,,,,"MET067METAR ETNJ 120620Z 27002KT 9999 FEW030 BKN060 13/13 Q1013 BLU BLU/;",
"10122099999","2010-08-12T07:20:00","4","53.5335","7.888667","7.31","JEVER, GM","FM-15","ETNJ ","V020","300,1,N,0021,1","99999,9,C,N","011265,1,N,1","+0160,1","+0140,1","99999,9",,"02,5,+00900,1,99,9","04,5,+01800,1,99,9",,"04,99,1,99,9,99,9,99999,9,99,9,99,9","10129,1,99999,9",,,,,"MET067METAR ETNJ 120720Z 30004KT 9999 FEW030 SCT060 16/14 Q1013 BLU/BLU/;","P01 018003SCOCIG"
"10122099999","2010-08-12T08:20:00","4","53.5335","7.888667","7.31","JEVER, GM","FM-15","ETNJ ","V020","330,1,N,0021,1","22000,1,9,N","011265,1,N,1","+0190,1","+0120,1","99999,9",,"02,5,+00900,1,99,9",,,"02,99,1,99,9,99,9,99999,9,99,9,99,9","10129,1,99999,9",,,,,"MET060METAR ETNJ 120820Z 33004KT 9999 FEW030 19/12 Q1013 BLU/BLU/;",
"10122099999","2010-08-12T09:20:00","4","53.5335","7.888667","7.31","JEVER, GM","FM-15","ETNJ ","V020","290,1,N,0026,1","22000,1,9,N","011265,1,N,1","+0200,1","+0120,1","99999,9",,"02,5,+01080,1,99,9",,,"02,99,1,99,9,99,9,99999,9,99,9,99,9","10129,1,99999,9",,,,,"MET060METAR ETNJ 120920Z 29005KT 9999 FEW036 20/12 Q1013 BLU/BLU/;",
"10122099999","2010-08-12T10:20:00","4","53.5335","7.888667","7.31","JEVER, GM","FM-15","ETNJ ","V020","320,1,N,0021,1","22000,1,9,N","011265,1,N,1","+0210,1","+0130,1","99999,9",,"04,5,+01080,1,99,9",,,"04,99,1,99,9,99,9,99999,9,99,9,99,9","10129,1,99999,9",,,,,"MET060METAR ETNJ 121020Z 32004KT 9999 SCT036 21/13 Q1013 BLU/BLU/;",
"10122099999","2010-08-12T11:20:00","4","53.5335","7.888667","7.31","JEVER, GM","FM-15","ETNJ ","V020","290,1,N,0021,1","22000,1,9,N","011265,1,N,1","+0220,1","+0120,1","99999,9",,"04,5,+01080,1,99,9",,,"04,99,1,99,9,99,9,99999,9,99,9,99,9","10129,1,99999,9",,,,,"MET067METAR ETNJ 121120Z 29004KT 9999 SCT036 22/12 Q1013 BLU/FCST CANCEL;",
"10122099999","2010-08-12T12:20:00","4","53.5335","7.888667","7.31","JEVER, GM","FM-15","ETNJ ","V020","360,1,N,0041,1","22000,1,9,N","011265,1,N,1","+0200,1","+0120,1","99999,9",,"04,5,+00900,1,99,9",,,"04,99,1,99,9,99,9,99999,9,99,9,99,9","10129,1,99999,9",,,,,"MET056METAR ETNJ 121220Z 36008KT 9999 SCT030 20/12 Q1013 BLU/;",
"10122099999","2010-08-12T13:20:00","4","53.5335","7.888667","7.31","JEVER, GM","FM-15","ETNJ ","V020","050,1,N,0031,1","22000,1,9,N","011265,1,N,1","+0210,1","+0130,1","99999,9",,"02,5,+00900,1,99,9",,,"02,99,1,99,9,99,9,99999,9,99,9,99,9","10129,1,99999,9",,,,,"MET056METAR ETNJ 121320Z 05006KT 9999 FEW030 21/13 Q1013 BLU/;",
"10122099999","2010-08-12T14:20:00","4","53.5335","7.888667","7.31","JEVER, GM","FM-15","ETNJ ","V020","020,1,N,0031,1","22000,1,9,N","011265,1,N,1","+0220,1","+0120,1","99999,9",,"02,5,+00900,1,99,9",,,"02,99,1,99,9,99,9,99999,9,99,9,99,9","10129,1,99999,9",,,,,"MET060METAR ETNJ 121420Z 02006KT 9999 FEW030 22/12 Q1013 BLU/BLU/;",
"10122099999","2010-08-12T15:20:00","4","53.5335","7.888667","7.31","JEVER, GM","FM-15","ETNJ ","V020","080,1,N,0036,1","22000,1,9,N","011265,1,N,1","+0220,1","+0120,1","99999,9",,"02,5,+00900,1,99,9",,,"02,99,1,99,9,99,9,99999,9,99,9,99,9","10129,1,99999,9",,,,,"MET056METAR ETNJ 121520Z 08007KT 9999 FEW030 22/12 Q1013 BLU/;",
"10122099999","2010-08-12T16:20:00","4","53.5335","7.888667","7.31","JEVER, GM","FM-15","ETNJ ","V020","010,1,N,0026,1","99999,9,C,N","011265,1,N,1","+0210,1","+0090,1","99999,9",,"02,5,+00900,1,99,9","04,5,+01800,1,99,9",,"04,99,1,99,9,99,9,99999,9,99,9,99,9","10129,1,99999,9",,,,,"MET063METAR ETNJ 121620Z 01005KT 9999 FEW030 SCT060 21/09 Q1013 BLU/;","P01 018003SCOCIG"
"10122099999","2010-08-12T17:20:00","4","53.5335","7.888667","7.31","JEVER, GM","FM-15","ETNJ ","V020","010,1,N,0021,1","22000,1,9,N","011265,1,N,1","+0200,1","+0110,1","99999,9",,"02,5,+00900,1,99,9",,,"02,99,1,99,9,99,9,99999,9,99,9,99,9","10129,1,99999,9",,,,,"MET056METAR ETNJ 121720Z 01004KT 9999 FEW030 20/11 Q1013 BLU/;",
"10122099999","2010-08-12T18:20:00","4","53.5335","7.888667","7.31","JEVER, GM","FM-15","ETNJ ","V020","020,1,N,0015,1","99999,9,C,N","011265,1,N,1","+0190,1","+0120,1","99999,9",,"02,5,+00900,1,99,9","04,5,+07500,1,99,9",,"04,99,1,99,9,99,9,99999,9,99,9,99,9","10129,1,99999,9",,,,,"MET063METAR ETNJ 121820Z 02003KT 9999 FEW030 SCT250 19/12 Q1013 BLU/;","P01 075003SCOCIG"
"10122099999","2010-08-12T19:20:00","4","53.5335","7.888667","7.31","JEVER, GM","FM-15","ETNJ ","V020","360,1,N,0010,1","22000,1,9,N","011265,1,N,1","+0150,1","+0110,1","99999,9",,"02,5,+07500,1,99,9",,,"02,99,1,99,9,99,9,99999,9,99,9,99,9","10139,1,99999,9",,,,,"MET056METAR ETNJ 121920Z 36002KT 9999 FEW250 15/11 Q1014 BLU/;",
"10122099999","2010-08-12T19:21:00","4","53.5335","7.888667","7.31","JEVER, GM","FM-16","ETNJ ","V020","360,1,N,0010,1","22000,1,9,N","011265,1,N,1","+0150,1","+0110,1","99999,9",,"02,5,+07500,1,99,9",,,"02,99,1,99,9,99,9,99999,9,99,9,99,9","10139,1,99999,9",,,,,"MET056SPECI ETNJ 121921Z 36002KT 9999 FEW250 15/11 Q1014 BLU/;",
"10122099999","2010-08-12T20:20:00","4","53.5335","7.888667","7.31","JEVER, GM","FM-15","ETNJ ","V020","260,1,N,0010,1","22000,1,9,N","011265,1,N,1","+0140,1","+0110,1","99999,9",,"02,5,+07500,1,99,9",,,"02,99,1,99,9,99,9,99999,9,99,9,99,9","10139,1,99999,9",,,,,"MET056METAR ETNJ 122020Z 26002KT 9999 FEW250 14/11 Q1014 BLU/;",
"10122099999","2010-08-12T21:20:00","4","53.5335","7.888667","7.31","JEVER, GM","FM-15","ETNJ ","V020","270,1,N,0010,1","02700,1,C,N","011265,1,N,1","+0140,1","+0110,1","99999,9",,"07,5,+02700,1,99,9",,,"07,99,1,99,9,99,9,99999,9,99,9,99,9","10139,1,99999,9",,,,,"MET055METAR ETNJ 122120Z 27002KT 9999 BKN090 14/11 Q1014 BLU;",
"10122099999","2010-08-12T22:20:00","4","53.5335","7.888667","7.31","JEVER, GM","FM-15","ETNJ ","V020","270,1,N,0015,1","02700,1,C,N","011265,1,N,1","+0140,1","+0120,1","99999,9",,"07,5,+02700,1,99,9",,,"07,99,1,99,9,99,9,99999,9,99,9,99,9","10139,1,99999,9",,,,,"MET055METAR ETNJ 122220Z 27003KT 9999 BKN090 14/12 Q1014 BLU;",
"10122099999","2010-08-12T23:20:00","4","53.5335","7.888667","7.31","JEVER, GM","FM-15","ETNJ ","V020","290,1,N,0005,1","22000,1,9,N","011265,1,N,1","+0130,1","+0110,1","99999,9",,"02,5,+07500,1,99,9",,,"02,99,1,99,9,99,9,99999,9,99,9,99,9","10139,1,99999,9",,,,,"MET056METAR ETNJ 122320Z 29001KT 9999 FEW250 13/11 Q1014 BLU/;",
"10122099999","2010-08-13T00:20:00","4","53.5335","7.888667","7.31","JEVER, GM","FM-15","ETNJ ","V020","250,1,N,0026,1","22000,1,9,N","011265,1,N,1","+0130,1","+0110,1","99999,9",,"02,5,+07500,1,99,9",,,"02,99,1,99,9,99,9,99999,9,99,9,99,9","10139,1,99999,9",,,,,"MET056METAR ETNJ 130020Z 25005KT 9999 FEW250 13/11 Q1014 BLU/;",
"10122099999","2010-08-13T01:20:00","4","53.5335","7.888667","7.31","JEVER, GM","FM-15","ETNJ ","V020","190,1,N,0010,1","22000,1,9,N","006000,1,N,1","+0120,1","+0100,1","99999,9",,,,,,"10139,1,99999,9","12,1",,,,"MET053METAR ETNJ 130120Z 19002KT 6000 MIFG 12/10 Q1014 WHT;",
"10122099999","2010-08-13T02:20:00","4","53.5335","7.888667","7.31","JEVER, GM","FM-15","ETNJ ","V020","240,1,N,0026,1","22000,1,9,N","006000,1,N,1","+0120,1","+0100,1","99999,9",,,,,,"10139,1,99999,9","12,1",,,,"MET053METAR ETNJ 130220Z 24005KT 6000 MIFG 12/10 Q1014 WHT;",
"10122099999","2010-08-13T03:20:00","4","53.5335","7.888667","7.31","JEVER, GM","FM-15","ETNJ ","V020","230,1,N,0021,1","22000,1,9,N","006000,1,N,1","+0110,1","+0100,1","99999,9",,"02,5,+07500,1,99,9",,,"02,99,1,99,9,99,9,99999,9,99,9,99,9","10139,1,99999,9","12,1",,,,"MET060METAR ETNJ 130320Z 23004KT 6000 MIFG FEW250 11/10 Q1014 WHT;",
"10122099999","2010-08-13T04:20:00","4","53.5335","7.888667","7.31","JEVER, GM","FM-15","ETNJ ","V020","230,1,N,0026,1","22000,1,9,N","006000,1,N,1","+0110,1","+0100,1","99999,9",,"02,5,+07500,1,99,9",,,"02,99,1,99,9,99,9,99999,9,99,9,99,9","10149,1,99999,9","12,1",,,,"MET064METAR ETNJ 130420Z 23005KT 6000 MIFG FEW250 11/10 Q1015 WHT WHT;",
"10122099999","2010-08-13T05:20:00","4","53.5335","7.888667","7.31","JEVER, GM","FM-15","ETNJ ","V020","230,1,N,0031,1","22000,1,9,N","011265,1,N,1","+0120,1","+0120,1","99999,9",,"02,5,+00450,1,99,9",,,"02,99,1,99,9,99,9,99999,9,99,9,99,9","10149,1,99999,9",,,,,"MET060METAR ETNJ 130520Z 23006KT 9999 FEW015 12/12 Q1015 BLU/BLU/;",
"10122099999","2010-08-13T06:20:00","4","53.5335","7.888667","7.31","JEVER, GM","FM-15","ETNJ ","V020","230,1,N,0026,1","22000,1,9,N","011265,1,N,1","+0130,1","+0120,1","99999,9",,"02,5,+00600,1,99,9",,,"02,99,1,99,9,99,9,99999,9,99,9,99,9","10149,1,99999,9",,,,,"MET060METAR ETNJ 130620Z 23005KT 9999 FEW020 13/12 Q1015 BLU/BLU/;",
"10122099999","2010-08-13T07:20:00","4","53.5335","7.888667","7.31","JEVER, GM","FM-15","ETNJ ","V020","220,1,N,0026,1","22000,1,9,N","011265,1,N,1","+0150,1","+0120,1","99999,9",,"02,5,+00600,1,99,9",,,"02,99,1,99,9,99,9,99999,9,99,9,99,9","10159,1,99999,9",,,,,"MET060METAR ETNJ 130720Z 22005KT 9999 FEW020 15/12 Q1016 BLU/BLU/;",
"10122099999","2010-08-13T08:20:00","4","53.5335","7.888667","7.31","JEVER, GM","FM-15","ETNJ ","V020","230,1,N,0031,1","22000,1,9,N","011265,1,N,1","+0180,1","+0130,1","99999,9",,"02,5,+00600,1,99,9",,,"02,99,1,99,9,99,9,99999,9,99,9,99,9","10159,1,99999,9",,,,,"MET060METAR ETNJ 130820Z 23006KT 9999 FEW020 18/13 Q1016 BLU/BLU/;",
"10122099999","2010-08-13T09:20:00","4","53.5335","7.888667","7.31","JEVER, GM","FM-15","ETNJ ","V020","240,1,N,0036,1","22000,1,9,N","011265,1,N,1","+0180,1","+0110,1","99999,9",,"02,5,+00750,1,99,9",,,"02,99,1,99,9,99,9,99999,9,99,9,99,9","10159,1,99999,9",,,,,"MET060METAR ETNJ 130920Z 24007KT 9999 FEW025 18/11 Q1016 BLU/BLU/;",
"10122099999","2010-08-13T10:20:00","4","53.5335","7.888667","7.31","JEVER, GM","FM-15","ETNJ ","V020","210,1,N,0031,1","22000,1,9,N","011265,1,N,1","+0210,1","+0120,1","99999,9",,"02,5,+00900,1,99,9",,,"02,99,1,99,9,99,9,99999,9,99,9,99,9","10159,1,99999,9",,,,,"MET067METAR ETNJ 131020Z 21006KT 9999 FEW030 21/12 Q1016 BLU/FCST CANCEL;",
"10122099999","2010-08-13T11:20:00","4","53.5335","7.888667","7.31","JEVER, GM","FM-15","ETNJ ","V020","220,1,N,0031,1","22000,1,9,N","011265,1,N,1","+0200,1","+0110,1","99999,9",,"04,5,+01080,1,99,9",,,"04,99,1,99,9,99,9,99999,9,99,9,99,9","10159,1,99999,9",,,,,"MET056METAR ETNJ 131120Z 22006KT 9999 SCT036 20/11 Q1016 BLU/;",
"10122099999","2010-08-13T12:20:00","4","53.5335","7.888667","7.31","JEVER, GM","FM-15","ETNJ ","V020","180,1,N,0031,1","22000,1,9,N","011265,1,N,1","+0220,1","+0100,1","99999,9",,"04,5,+01200,1,99,9",,,"04,99,1,99,9,99,9,99999,9,99,9,99,9","10169,1,99999,9",,,,,"MET056METAR ETNJ 131220Z 18006KT 9999 SCT040 22/10 Q1017 BLU/;",
"10122099999","2010-08-13T13:20:00","4","53.5335","7.888667","7.31","JEVER, GM","FM-15","ETNJ ","V020","160,1,N,0031,1","22000,1,9,N","011265,1,N,1","+0230,1","+0090,1","99999,9",,"04,5,+01350,1,99,9",,,"04,99,1,99,9,99,9,99999,9,99,9,99,9","10169,1,99999,9",,,,,"MET056METAR ETNJ 131320Z 16006KT 9999 SCT045 23/09 Q1017 BLU/;",
"10122099999","2010-08-13T14:20:00","4","53.5335","7.888667","7.31","JEVER, GM","FM-15","ETNJ ","V020","110,1,N,0036,1","22000,1,9,N","011265,1,N,1","+0220,1","+0090,1","99999,9",,"04,5,+01500,1,99,9",,,"04,99,1,99,9,99,9,99999,9,99,9,99,9","10169,1,99999,9",,,,,"MET056METAR ETNJ 131420Z 11007KT 9999 SCT050 22/09 Q1017 BLU/;",
"10122099999","2010-08-13T15:20:00","4","53.5335","7.888667","7.31","JEVER, GM","FM-15","ETNJ ","V020","120,1,N,0031,1","22000,1,9,N","011265,1,N,1","+0220,1","+0090,1","99999,9",,"02,5,+01500,1,99,9",,,"02,99,1,99,9,99,9,99999,9,99,9,99,9","10169,1,99999,9",,,,,"MET056METAR ETNJ 131520Z 12006KT 9999 FEW050 22/09 Q1017 BLU/;",
"10122099999","2010-08-13T16:20:00","4","53.5335","7.888667","7.31","JEVER, GM","FM-15","ETNJ ","V020","140,1,N,0036,1","22000,1,9,N","011265,1,N,1","+0230,1","+0090,1","99999,9",,"02,5,+01500,1,99,9",,,"02,99,1,99,9,99,9,99999,9,99,9,99,9","10169,1,99999,9",,,,,"MET056METAR ETNJ 131620Z 14007KT 9999 FEW050 23/09 Q1017 BLU/;",
"10122099999","2010-08-13T17:20:00","4","53.5335","7.888667","7.31","JEVER, GM","FM-15","ETNJ ","V020","090,1,N,0036,1","22000,1,9,N","011265,1,N,1","+0220,1","+0090,1","99999,9",,"02,5,+01500,1,99,9",,,"02,99,1,99,9,99,9,99999,9,99,9,99,9","10169,1,99999,9",,,,,"MET056METAR ETNJ 131720Z 09007KT 9999 FEW050 22/09 Q1017 BLU/;",
"10122099999","2010-08-13T18:20:00","4","53.5335","7.888667","7.31","JEVER, GM","FM-15","ETNJ ","V020","070,1,N,0026,1","22000,1,9,N","011265,1,N,1","+0200,1","+0120,1","99999,9",,"02,5,+01500,1,99,9",,,"02,99,1,99,9,99,9,99999,9,99,9,99,9","10169,1,99999,9",,,,,"MET056METAR ETNJ 131820Z 07005KT 9999 FEW050 20/12 Q1017 BLU/;",
"10122099999","2010-08-13T19:20:00","4","53.5335","7.888667","7.31","JEVER, GM","FM-15","ETNJ ","V020","060,1,N,0026,1","22000,1,9,N","011265,1,N,1","+0180,1","+0120,1","99999,9",,"02,5,+01500,1,99,9",,,"02,99,1,99,9,99,9,99999,9,99,9,99,9","10169,1,99999,9",,,,,"MET056METAR ETNJ 131920Z 06005KT 9999 FEW050 18/12 Q1017 BLU/;",
"10122099999","2010-08-13T20:20:00","4","53.5335","7.888667","7.31","JEVER, GM","FM-15","ETNJ ","V020","070,1,N,0026,1","22000,1,9,N","011265,1,N,1","+0170,1","+0120,1","99999,9",,"02,5,+01500,1,99,9",,,"02,99,1,99,9,99,9,99999,9,99,9,99,9","10169,1,99999,9",,,,,"MET056METAR ETNJ 132020Z 07005KT 9999 FEW050 17/12 Q1017 BLU/;",
"10122099999","2010-08-13T21:20:00","4","53.5335","7.888667","7.31","JEVER, GM","FM-15","ETNJ ","V020","070,1,N,0026,1","99999,9,C,N","011265,1,N,1","+0180,1","+0120,1","99999,9",,"04,5,+01500,1,99,9","04,5,+03000,1,99,9",,"04,99,1,99,9,99,9,99999,9,99,9,99,9","10180,1,99999,9",,,,,"MET063METAR ETNJ 132120Z 07005KT 9999 SCT050 SCT100 18/12 Q1018 BLU/;","P01 030003SCOCIG"
"10122099999","2010-08-13T22:20:00","4","53.5335","7.888667","7.31","JEVER, GM","FM-15","ETNJ ","V020","090,1,N,0031,1","03000,1,C,N","011265,1,N,1","+0180,1","+0120,1","99999,9",,"04,5,+01500,1,99,9","07,5,+03000,1,99,9",,"07,99,1,99,9,99,9,99999,9,99,9,99,9","10180,1,99999,9",,,,,"MET062METAR ETNJ 132220Z 09006KT 9999 SCT050 BKN100 18/12 Q1018 BLU;",
"10122099999","2010-08-13T23:20:00","4","53.5335","7.888667","7.31","JEVER, GM","FM-15","ETNJ ","V020","110,1,N,0026,1","01500,1,C,N","011265,1,N,1","+0180,1","+0120,1","99999,9",,"07,5,+01500,1,99,9",,,"07,99,1,99,9,99,9,99999,9,99,9,99,9","10180,1,99999,9",,,,,"MET055METAR ETNJ 132320Z 11005KT 9999 BKN050 18/12 Q1018 BLU;",
"10122099999","2010-08-14T00:20:00","4","53.5335","7.888667","7.31","JEVER, GM","FM-15","ETNJ ","V020","150,1,N,0021,1","99999,9,C,N","011265,1,N,1","+0160,1","+0120,1","99999,9",,"04,5,+01500,1,99,9","04,5,+03000,1,99,9",,"04,99,1,99,9,99,9,99999,9,99,9,99,9","10180,1,99999,9",,,,,"MET063METAR ETNJ 140020Z 15004KT 9999 SCT050 SCT100 16/12 Q1018 BLU/;","P01 030003SCOCIG"
"10122099999","2010-08-14T01:20:00","4","53.5335","7.888667","7.31","JEVER, GM","FM-15","ETNJ ","V020","100,1,N,0010,1","99999,9,C,N","011265,1,N,1","+0160,1","+0120,1","99999,9",,"02,5,+01500,1,99,9","04,5,+03000,1,99,9",,"04,99,1,99,9,99,9,99999,9,99,9,99,9","10169,1,99999,9",,,,,"MET063METAR ETNJ 140120Z 10002KT 9999 FEW050 SCT100 16/12 Q1017 BLU/;","P01 030003SCOCIG"
"10122099999","2010-08-14T02:20:00","4","53.5335","7.888667","7.31","JEVER, GM","FM-15","ETNJ ","V020","080,1,N,0005,1","99999,9,C,N","011265,1,N,1","+0140,1","+0120,1","99999,9",,"02,5,+01500,1,99,9","04,5,+03000,1,99,9",,"04,99,1,99,9,99,9,99999,9,99,9,99,9","10169,1,99999,9",,,,,"MET063METAR ETNJ 140220Z 08001KT 9999 FEW050 SCT100 14/12 Q1017 BLU/;","P01 030003SCOCIG"
"10122099999","2010-08-14T03:20:00","4","53.5335","7.888667","7.31","JEVER, GM","FM-15","ETNJ ","V020","080,1,N,0021,1","01140,1,C,N","011265,1,N,1","+0160,1","+0130,1","99999,9",,"07,5,+01140,1,99,9",,,"07,99,1,99,9,99,9,99999,9,99,9,99,9","10169,1,99999,9",,,,,"MET055METAR ETNJ 140320Z 08004KT 9999 BKN038 16/13 Q1017 BLU;",
"10122099999","2010-08-14T04:20:00","4","53.5335","7.888667","7.31","JEVER, GM","FM-15","ETNJ ","V020","999,9,V,0005,1","01800,1,C,N","011265,1,N,1","+0150,1","+0130,1","99999,9",,"02,5,+01140,1,99,9","04,5,+01800,1,99,9","07,5,+03600,1,99,9","07,99,1,99,9,99,9,99999,9,99,9,99,9","10180,1,99999,9",,,,,"MET069METAR ETNJ 140420Z VRB01KT 9999 FEW038 SCT060 BKN120 15/13 Q1018 BLU;",
"10122099999","2010-08-14T05:20:00","4","53.5335","7.888667","7.31","JEVER, GM","FM-15","ETNJ ","V020","999,9,V,0005,1","01800,1,C,N","011265,1,N,1","+0150,1","+0130,1","99999,9",,"02,5,+01140,1,99,9","04,5,+01800,1,99,9","07,5,+03600,1,99,9","07,99,1,99,9,99,9,99999,9,99,9,99,9","10180,1,99999,9",,,,,"MET069METAR ETNJ 140520Z VRB01KT 9999 FEW038 SCT060 BKN120 15/13 Q1018 BLU;",
"10122099999","2010-08-14T06:20:00","4","53.5335","7.888667","7.31","JEVER, GM","FM-15","ETNJ ","V020","090,1,N,0015,1","01500,1,C,N","008000,1,N,1","+0170,1","+0150,1","99999,9",,"02,5,+01140,1,99,9","07,5,+01500,1,99,9",,"07,99,1,99,9,99,9,99999,9,99,9,99,9","10180,1,99999,9",,,,,"MET062METAR ETNJ 140620Z 09003KT 8000 FEW038 BKN050 17/15 Q1018 BLU;",
"10122099999","2010-08-14T07:20:00","4","53.5335","7.888667","7.31","JEVER, GM","FM-15","ETNJ ","V020","130,1,N,0036,1","01500,1,C,N","008000,1,N,1","+0180,1","+0150,1","99999,9",,"07,5,+01500,1,99,9",,,"07,99,1,99,9,99,9,99999,9,99,9,99,9","10180,1,99999,9",,,,,"MET055METAR ETNJ 140720Z 13007KT 8000 BKN050 18/15 Q1018 BLU;",
"10122099999","2010-08-14T08:20:00","4","53.5335","7.888667","7.31","JEVER, GM","FM-15","ETNJ ","V020","140,1,N,0026,1","02700,1,C,N","011265,1,N,1","+0180,1","+0140,1","99999,9",,"04,5,+01500,1,99,9","07,5,+02700,1,99,9",,"07,99,1,99,9,99,9,99999,9,99,9,99,9","10190,1,99999,9",,,,,"MET062METAR ETNJ 140820Z 14005KT 9999 SCT050 BKN090 18/14 Q1019 BLU;",
"10122099999","2010-08-14T09:20:00","4","53.5335","7.888667","7.31","JEVER, GM","FM-15","ETNJ ","V020","130,1,N,0026,1","02700,1,C,N","011265,1,N,1","+0200,1","+0140,1","99999,9",,"04,5,+01500,1,99,9","07,5,+02700,1,99,9",,"07,99,1,99,9,99,9,99999,9,99,9,99,9","10190,1,99999,9",,,,,"MET062METAR ETNJ 140920Z 13005KT 9999 SCT050 BKN090 20/14 Q1019 BLU;",
"10122099999","2010-08-14T10:20:00","4","53.5335","7.888667","7.31","JEVER, GM","FM-15","ETNJ ","V020","130,1,N,0031,1","02700,1,C,N","011265,1,N,1","+0230,1","+0140,1","99999,9",,"02,5,+01200,1,99,9","07,5,+02700,1,99,9",,"07,99,1,99,9,99,9,99999,9,99,9,99,9","10190,1,99999,9",,,,,"MET062METAR ETNJ 141020Z 13006KT 9999 FEW040 BKN090 23/14 Q1019 BLU;",
"10122099999","2010-08-14T11:20:00","4","53.5335","7.888667","7.31","JEVER, GM","FM-15","ETNJ ","V020","040,1,N,0021,1","99999,9,C,N","011265,1,N,1","+0210,1","+0130,1","99999,9",,"02,5,+01200,1,99,9","04,5,+02700,1,99,9",,"04,99,1,99,9,99,9,99999,9,99,9,99,9","10180,1,99999,9",,,,,"MET063METAR ETNJ 141120Z 04004KT 9999 FEW040 SCT090 21/13 Q1018 BLU/;","P01 027003SCOCIG"
"10122099999","2010-08-14T11:24:00","4","53.5335","7.888667","7.31","JEVER, GM","FM-16","ETNJ ","V020","040,1,N,0021,1","99999,9,C,N","011265,1,N,1","+0220,1","+0130,1","99999,9",,"02,5,+01200,1,99,9","04,5,+02700,1,99,9",,"04,99,1,99,9,99,9,99999,9,99,9,99,9","10180,1,99999,9",,,,,"MET063SPECI ETNJ 141124Z 04004KT 9999 FEW040 SCT090 22/13 Q1018 BLU/;","P01 027003SCOCIG"
"10122099999","2010-08-14T12:20:00","4","53.5335","7.888667","7.31","JEVER, GM","FM-15","ETNJ ","V020","050,1,N,0031,1","22000,1,9,N","011265,1,N,1","+0230,1","+0110,1","99999,9",,"02,5,+01350,1,99,9",,,"02,99,1,99,9,99,9,99999,9,99,9,99,9","10180,1,99999,9",,,,,"MET056METAR ETNJ 141220Z 05006KT 9999 FEW045 23/11 Q1018 BLU/;",
"10122099999","2010-08-14T13:20:00","4","53.5335","7.888667","7.31","JEVER, GM","FM-15","ETNJ ","V020","040,1,N,0036,1","99999,9,C,N","011265,1,N,1","+0230,1","+0110,1","99999,9",,"02,5,+01350,1,99,9","04,5,+09000,1,99,9",,"04,99,1,99,9,99,9,99999,9,99,9,99,9","10180,1,99999,9",,,,,"MET063METAR ETNJ 141320Z 04007KT 9999 FEW045 SCT300 23/11 Q1018 BLU/;","P01 090003SCOCIG"
"10122099999","2010-08-14T14:20:00","4","53.5335","7.888667","7.31","JEVER, GM","FM-15","ETNJ ","V020","030,1,N,0036,1","99999,9,C,N","011265,1,N,1","+0230,1","+0120,1","99999,9",,"02,5,+01500,1,99,9","04,5,+09000,1,99,9",,"04,99,1,99,9,99,9,99999,9,99,9,99,9","10180,1,99999,9",,,,,"MET063METAR ETNJ 141420Z 03007KT 9999 FEW050 SCT300 23/12 Q1018 BLU/;","P01 090003SCOCIG"
"10122099999","2010-08-14T15:20:00","4","53.5335","7.888667","7.31","JEVER, GM","FM-15","ETNJ ","V020","040,1,N,0041,1","99999,9,C,N","011265,1,N,1","+0220,1","+0140,1","99999,9",,"02,5,+01500,1,99,9","04,5,+09000,1,99,9",,"04,99,1,99,9,99,9,99999,9,99,9,99,9","10180,1,99999,9",,,,,"MET063METAR ETNJ 141520Z 04008KT 9999 FEW050 SCT300 22/14 Q1018 BLU/;","P01 090003SCOCIG"
"10122099999","2010-08-14T16:20:00","4","53.5335","7.888667","7.31","JEVER, GM","FM-15","ETNJ ","V020","030,1,N,0041,1","09000,1,C,N","011265,1,N,1","+0210,1","+0130,1","99999,9",,"07,5,+09000,1,99,9",,,"07,99,1,99,9,99,9,99999,9,99,9,99,9","10180,1,99999,9",,,,,"MET056METAR ETNJ 141620Z 03008KT 9999 BKN300 21/13 Q1018 BLU/;",
"10122099999","2010-08-14T17:20:00","4","53.5335","7.888667","7.31","JEVER, GM","FM-15","ETNJ ","V020","020,1,N,0041,1","99999,9,C,N","011265,1,N,1","+0210,1","+0140,1","99999,9",,"02,5,+01050,1,99,9","04,5,+09000,1,99,9",,"04,99,1,99,9,99,9,99999,9,99,9,99,9","10180,1,99999,9",,,,,"MET063METAR ETNJ 141720Z 02008KT 9999 FEW035 SCT300 21/14 Q1018 BLU/;","P01 090003SCOCIG"
"10122099999","2010-08-14T18:20:00","4","53.5335","7.888667","7.31","JEVER, GM","FM-15","ETNJ ","V020","030,1,N,0031,1","22000,1,9,N","011265,1,N,1","+0200,1","+0140,1","99999,9",,"02,5,+00900,1,99,9",,,"02,99,1,99,9,99,9,99999,9,99,9,99,9","10180,1,99999,9",,,,,"MET056METAR ETNJ 141820Z 03006KT 9999 FEW030 20/14 Q1018 BLU/;",
"10122099999","2010-08-14T19:20:00","4","53.5335","7.888667","7.31","JEVER, GM","FM-15","ETNJ ","V020","020,1,N,0021,1","22000,1,9,N","011265,1,N,1","+0180,1","+0150,1","99999,9",,"02,5,+01800,1,99,9",,,"02,99,1,99,9,99,9,99999,9,99,9,99,9","10180,1,99999,9",,,,,"MET056METAR ETNJ 141920Z 02004KT 9999 FEW060 18/15 Q1018 BLU/;",
"10122099999","2010-08-14T20:20:00","4","53.5335","7.888667","7.31","JEVER, GM","FM-15","ETNJ ","V020","020,1,N,0021,1","22000,1,9,N","011265,1,N,1","+0180,1","+0160,1","99999,9",,"02,5,+01800,1,99,9",,,"02,99,1,99,9,99,9,99999,9,99,9,99,9","10180,1,99999,9",,,,,"MET056METAR ETNJ 142020Z 02004KT 9999 FEW060 18/16 Q1018 BLU/;",
"10122099999","2010-08-14T21:20:00","4","53.5335","7.888667","7.31","JEVER, GM","FM-15","ETNJ ","V020","030,1,N,0015,1","01500,1,C,N","011265,1,N,1","+0190,1","+0160,1","99999,9",,"07,5,+01500,1,99,9",,,"07,99,1,99,9,99,9,99999,9,99,9,99,9","10190,1,99999,9",,,,,"MET055METAR ETNJ 142120Z 03003KT 9999 BKN050 19/16 Q1019 BLU;",
"10122099999","2010-08-14T22:20:00","4","53.5335","7.888667","7.31","JEVER, GM","FM-15","ETNJ ","V020","300,1,N,0010,1","01800,1,C,N","011265,1,N,1","+0180,1","+0160,1","99999,9",,"07,5,+01800,1,99,9",,,"07,99,1,99,9,99,9,99999,9,99,9,99,9","10180,1,99999,9",,,,,"MET055METAR ETNJ 142220Z 30002KT 9999 BKN060 18/16 Q1018 BLU;",
"10122099999","2010-08-14T23:20:00","4","53.5335","7.888667","7.31","JEVER, GM","FM-15","ETNJ ","V020","360,1,N,0010,1","01800,1,C,N","011265,1,N,1","+0180,1","+0150,1","99999,9",,"02,5,+00540,1,99,9","07,5,+01800,1,99,9",,"07,99,1,99,9,99,9,99999,9,99,9,99,9","10180,1,99999,9",,,,,"MET062METAR ETNJ 142320Z 36002KT 9999 FEW018 BKN060 18/15 Q1018 BLU;",
"10122099999","2010-08-15T00:20:00","4","53.5335","7.888667","7.31","JEVER, GM","FM-15","ETNJ ","V020","360,1,N,0026,1","01500,1,C,N","011265,1,N,1","+0180,1","+0160,1","99999,9",,"02,5,+00540,1,99,9","07,5,+01500,1,99,9",,"07,99,1,99,9,99,9,99999,9,99,9,99,9","10180,1,99999,9",,,,,"MET062METAR ETNJ 150020Z 36005KT 9999 FEW018 BKN050 18/16 Q1018 BLU;",
"10122099999","2010-08-15T01:20:00","4","53.5335","7.888667","7.31","JEVER, GM","FM-15","ETNJ ","V020","030,1,N,0036,1","01500,1,C,N","011265,1,N,1","+0190,1","+0140,1","99999,9",,"07,5,+01500,1,99,9",,,"07,99,1,99,9,99,9,99999,9,99,9,99,9","10180,1,99999,9",,,,,"MET055METAR ETNJ 150120Z 03007KT 9999 BKN050 19/14 Q1018 BLU;",
"10122099999","2010-08-15T02:20:00","4","53.5335","7.888667","7.31","JEVER, GM","FM-15","ETNJ ","V020","030,1,N,0031,1","01500,1,C,N","011265,1,N,1","+0180,1","+0120,1","99999,9",,"07,5,+01500,1,99,9",,,"07,99,1,99,9,99,9,99999,9,99,9,99,9","10180,1,99999,9",,,,,"MET055METAR ETNJ 150220Z 03006KT 9999 BKN050 18/12 Q1018 BLU;",
"10122099999","2010-08-15T03:20:00","4","53.5335","7.888667","7.31","JEVER, GM","FM-15","ETNJ ","V020","020,1,N,0031,1","01500,1,C,N","011265,1,N,1","+0180,1","+0130,1","99999,9",,"07,5,+01500,1,99,9",,,"07,99,1,99,9,99,9,99999,9,99,9,99,9","10169,1,99999,9",,,,,"MET055METAR ETNJ 150320Z 02006KT 9999 BKN050 18/13 Q1017 BLU;",
"10122099999","2010-08-15T04:20:00","4","53.5335","7.888667","7.31","JEVER, GM","FM-15","ETNJ ","V020","030,1,N,0036,1","01500,1,C,N","011265,1,N,1","+0170,1","+0130,1","99999,9",,"02,5,+00240,1,99,9","07,5,+01500,1,99,9",,"07,99,1,99,9,99,9,99999,9,99,9,99,9","10169,1,99999,9",,,,,"MET062METAR ETNJ 150420Z 03007KT 9999 FEW008 BKN050 17/13 Q1017 BLU;",
"10122099999","2010-08-15T05:20:00","4","53.5335","7.888667","7.31","JEVER, GM","FM-15","ETNJ ","V020","020,1,N,0031,1","01500,1,C,N","011265,1,N,1","+0180,1","+0130,1","99999,9",,"02,5,+00240,1,99,9","07,5,+01500,1,99,9",,"07,99,1,99,9,99,9,99999,9,99,9,99,9","10169,1,99999,9",,,,,"MET062METAR ETNJ 150520Z 02006KT 9999 FEW008 BKN050 18/13 Q1017 BLU;",
"10122099999","2010-08-15T06:20:00","4","53.5335","7.888667","7.31","JEVER, GM","FM-15","ETNJ ","V020","010,1,N,0041,1","01500,1,C,N","011265,1,N,1","+0180,1","+0130,1","99999,9",,"02,5,+00450,1,99,9","07,5,+01500,1,99,9",,"07,99,1,99,9,99,9,99999,9,99,9,99,9","10169,1,99999,9",,,,,"MET062METAR ETNJ 150620Z 01008KT 9999 FEW015 BKN050 18/13 Q1017 BLU;",
"10122099999","2010-08-15T07:20:00","4","53.5335","7.888667","7.31","JEVER, GM","FM-15","ETNJ ","V020","010,1,N,0046,1","01500,1,C,N","011265,1,N,1","+0190,1","+0140,1","99999,9",,"02,5,+00450,1,99,9","07,5,+01500,1,99,9",,"07,99,1,99,9,99,9,99999,9,99,9,99,9","10169,1,99999,9",,,,,"MET062METAR ETNJ 150720Z 01009KT 9999 FEW015 BKN050 19/14 Q1017 BLU;",
"10122099999","2010-08-15T08:20:00","4","53.5335","7.888667","7.31","JEVER, GM","FM-15","ETNJ ","V020","010,1,N,0046,1","01500,1,C,N","011265,1,N,1","+0190,1","+0140,1","99999,9",,"04,5,+00600,1,99,9","07,5,+01500,1,99,9",,"07,99,1,99,9,99,9,99999,9,99,9,99,9","10159,1,99999,9",,,,,"MET062METAR ETNJ 150820Z 01009KT 9999 SCT020 BKN050 19/14 Q1016 BLU;",
"10122099999","2010-08-15T09:20:00","4","53.5335","7.888667","7.31","JEVER, GM","FM-15","ETNJ ","V020","010,1,N,0051,1","01500,1,C,N","011265,1,N,1","+0190,1","+0140,1","99999,9",,"04,5,+00540,1,99,9","04,5,+01500,1,99,9","07,5,+07500,1,99,9","07,99,1,99,9,99,9,99999,9,99,9,99,9","10159,1,99999,9",,,,,"MET070METAR ETNJ 150920Z 01010KT 9999 SCT018 SCT050 BKN250 19/14 Q1016 BLU/;",
"10122099999","2010-08-15T10:20:00","4","53.5335","7.888667","7.31","JEVER, GM","FM-15","ETNJ ","V020","010,1,N,0051,1","07500,1,C,N","011265,1,N,1","+0200,1","+0140,1","99999,9",,"04,5,+00660,1,99,9","07,5,+07500,1,99,9",,"07,99,1,99,9,99,9,99999,9,99,9,99,9","10149,1,99999,9",,,,,"MET063METAR ETNJ 151020Z 01010KT 9999 SCT022 BKN250 20/14 Q1015 BLU/;",
"10122099999","2010-08-15T11:20:00","4","53.5335","7.888667","7.31","JEVER, GM","FM-15","ETNJ ","V020","020,1,N,0051,1","07500,1,C,N","011265,1,N,1","+0210,1","+0150,1","99999,9",,"02,5,+00750,1,99,9","07,5,+07500,1,99,9",,"07,99,1,99,9,99,9,99999,9,99,9,99,9","10149,1,99999,9",,,,,"MET063METAR ETNJ 151120Z 02010KT 9999 FEW025 BKN250 21/15 Q1015 BLU/;",
"10122099999","2010-08-15T12:20:00","4","53.5335","7.888667","7.31","JEVER, GM","FM-15","ETNJ ","V020","020,1,N,0051,1","07500,1,C,N","011265,1,N,1","+0210,1","+0150,1","99999,9",,"02,5,+00750,1,99,9","07,5,+07500,1,99,9",,"07,99,1,99,9,99,9,99999,9,99,9,99,9","10139,1,99999,9",,,,,"MET063METAR ETNJ 151220Z 02010KT 9999 FEW025 BKN250 21/15 Q1014 BLU/;",
"10122099999","2010-08-15T13:20:00","4","53.5335","7.888667","7.31","JEVER, GM","FM-15","ETNJ ","V020","010,1,N,0046,1","01050,1,C,N","011265,1,N,1","+0200,1","+0150,1","99999,9",,"02,5,+00750,1,99,9","07,5,+01050,1,99,9",,"07,99,1,99,9,99,9,99999,9,99,9,99,9","10129,1,99999,9",,,,,"MET062METAR ETNJ 151320Z 01009KT 9999 FEW025 BKN035 20/15 Q1013 BLU;",
"10122099999","2010-08-15T14:20:00","4","53.5335","7.888667","7.31","JEVER, GM","FM-15","ETNJ ","V020","020,1,N,0041,1","00840,1,C,N","011265,1,N,1","+0200,1","+0150,1","99999,9",,"02,5,+00450,1,99,9","07,5,+00840,1,99,9",,"07,99,1,99,9,99,9,99999,9,99,9,99,9","10129,1,99999,9",,,,,"MET062METAR ETNJ 151420Z 02008KT 9999 FEW015 BKN028 20/15 Q1013 BLU;",
"10122099999","2010-08-15T15:20:00","4","53.5335","7.888667","7.31","JEVER, GM","FM-15","ETNJ ","V020","350,1,N,0046,1","00840,1,C,N","011265,1,N,1","+0200,1","+0160,1","99999,9",,"02,5,+00450,1,99,9","07,5,+00840,1,99,9",,"07,99,1,99,9,99,9,99999,9,99,9,99,9","10108,1,99999,9",,,,,"MET062METAR ETNJ 151520Z 35009KT 9999 FEW015 BKN028 20/16 Q1011 BLU;",
"10122099999","2010-08-15T16:20:00","4","53.5335","7.888667","7.31","JEVER, GM","FM-15","ETNJ ","V020","020,1,N,0036,1","00840,1,C,N","011265,1,N,1","+0200,1","+0160,1","99999,9",,"02,5,+00450,1,99,9","07,5,+00840,1,99,9",,"07,99,1,99,9,99,9,99999,9,99,9,99,9","10108,1,99999,9",,,,,"MET062METAR ETNJ 151620Z 02007KT 9999 FEW015 BKN028 20/16 Q1011 BLU;",
"10122099999","2010-08-15T17:20:00","4","53.5335","7.888667","7.31","JEVER, GM","FM-15","ETNJ ","V020","020,1,N,0041,1","01500,1,C,N","008000,1,N,1","+0200,1","+0170,1","99999,9",,"02,5,+00450,1,99,9","07,5,+01500,1,09,5","07,5,+03300,1,99,9","07,99,1,99,9,99,9,99999,9,99,9,99,9","10102,1,99999,9","80,1",,,,"MET077METAR ETNJ 151720Z 02008KT 8000 -SHRA FEW015 BKN050CB BKN110 20/17 Q1010 BLU;",
"10122099999","2010-08-15T18:20:00","4","53.5335","7.888667","7.31","JEVER, GM","FM-15","ETNJ ","V020","020,1,N,0031,1","01800,1,C,N","011265,1,N,1","+0190,1","+0180,1","99999,9",,"02,5,+00960,1,99,9","07,5,+01800,1,99,9","07,5,+03300,1,99,9","07,99,1,99,9,99,9,99999,9,99,9,99,9","10102,1,99999,9",,,,,"MET069METAR ETNJ 151820Z 02006KT 9999 FEW032 BKN060 BKN110 19/18 Q1010 BLU;",
"10122099999","2010-08-15T19:20:00","4","53.5335","7.888667","7.31","JEVER, GM","FM-15","ETNJ ","V020","020,1,N,0026,1","01500,1,C,N","011265,1,N,1","+0200,1","+0180,1","99999,9",,"07,5,+01500,1,99,9",,,"07,99,1,99,9,99,9,99999,9,99,9,99,9","10091,1,99999,9",,,,,"MET055METAR ETNJ 151920Z 02005KT 9999 BKN050 20/18 Q1009 BLU;",
"10122099999","2010-08-15T20:20:00","4","53.5335","7.888667","7.31","JEVER, GM","FM-15","ETNJ ","V020","040,1,N,0026,1","01500,1,C,N","011265,1,N,1","+0200,1","+0180,1","99999,9",,"04,5,+00600,1,99,9","07,5,+01500,1,99,9",,"07,99,1,99,9,99,9,99999,9,99,9,99,9","10091,1,99999,9",,,,,"MET062METAR ETNJ 152020Z 04005KT 9999 SCT020 BKN050 20/18 Q1009 BLU;",
"10122099999","2010-08-15T21:06:00","4","53.5335","7.888667","7.31","JEVER, GM","FM-16","ETNJ ","V020","060,1,N,0036,1","00600,1,C,N","003000,1,N,1","+0200,1","+0180,1","99999,9",,"07,5,+00600,1,09,1",,,"07,99,1,99,9,99,9,99999,9,99,9,99,9","10091,1,99999,9","10,1","81,1",,,"MET065SPECI ETNJ 152106Z 06007KT 3000 SHRA BR BKN020CB 20/18 Q1009 YLO;",
"10122099999","2010-08-15T21:20:00","4","53.5335","7.888667","7.31","JEVER, GM","FM-15","ETNJ ","V020","060,1,N,0031,1","00600,1,C,N","005000,1,N,1","+0200,1","+0180,1","99999,9",,"04,5,+00360,1,99,9","07,5,+00600,1,09,5",,"07,99,1,99,9,99,9,99999,9,99,9,99,9","10081,1,99999,9","10,1","80,1",,,"MET078METAR ETNJ 152120Z 06006KT 5000 -SHRA BR SCT012 BKN020CB 20/18 Q1008 RERA WHT;",
"10122099999","2010-08-15T22:00:00","4","53.5335","7.888667","7.31","JEVER, GM","FM-15","ETNJ ","V020","070,1,N,0021,1","00360,1,C,N","004000,1,N,1","+0190,1","+0180,1","99999,9",,"02,5,+00120,1,99,9","07,5,+00360,1,09,5",,"07,99,1,99,9,99,9,99999,9,99,9,99,9","10081,1,99999,9","10,1","81,1",,,"MET072SPECI ETNJ 152159Z 07004KT 4000 SHRA BR FEW004 BKN012CB 19/18 Q1008 GRN;",
"10122099999","2010-08-15T22:01:00","4","53.5335","7.888667","7.31","JEVER, GM","FM-16","ETNJ ","V020","080,1,N,0021,1","00360,1,C,N","004000,1,N,1","+0190,1","+0180,1","99999,9",,"02,5,+00120,1,99,9","07,5,+00360,1,09,5",,"07,99,1,99,9,99,9,99999,9,99,9,99,9","10081,1,99999,9","10,1","81,1","95,1",,"MET072SPECI ETNJ 152201Z 08004KT 4000 TSRA BR FEW004 BKN012CB 19/18 Q1008 GRN;",
"10122099999","2010-08-15T22:20:00","4","53.5335","7.888667","7.31","JEVER, GM","FM-15","ETNJ ","V020","050,1,N,0021,1","00360,1,C,N","003500,1,N,1","+0190,1","+0180,1","99999,9",,"04,5,+00180,1,99,9","07,5,+00360,1,09,5",,"07,99,1,99,9,99,9,99999,9,99,9,99,9","10081,1,99999,9","10,1","81,1","95,1",,"MET072METAR ETNJ 152220Z 05004KT 3500 TSRA BR SCT006 BKN012CB 19/18 Q1008 YLO;",
"10122099999","2010-08-15T23:20:00","4","53.5335","7.888667","7.31","JEVER, GM","FM-15","ETNJ ","V020","060,1,N,0031,1","00180,1,C,N","004000,1,N,1","+0190,1","+0180,1","99999,9",,"04,5,+00120,1,99,9","07,5,+00180,1,99,9",,"07,99,1,99,9,99,9,99999,9,99,9,99,9","10081,1,99999,9","10,1",,,,"MET070METAR ETNJ 152320Z 06006KT 4000 BR SCT004 BKN006 19/18 Q1008 RETS YLO;",
"10122099999","2010-08-16T00:20:00","4","53.5335","7.888667","7.31","JEVER, GM","FM-15","ETNJ ","V020","070,1,N,0026,1","00180,1,C,N","004000,1,N,1","+0190,1","+0180,1","99999,9",,"04,5,+00120,1,99,9","07,5,+00180,1,99,9",,"07,99,1,99,9,99,9,99999,9,99,9,99,9","10081,1,99999,9","10,1",,,,"MET065METAR ETNJ 160020Z 07005KT 4000 BR SCT004 BKN006 19/18 Q1008 YLO;",
"10122099999","2010-08-16T01:20:00","4","53.5335","7.888667","7.31","JEVER, GM","FM-15","ETNJ ","V020","100,1,N,0026,1","00180,1,C,N","004000,1,N,1","+0190,1","+0180,1","99999,9",,"07,5,+00180,1,99,9",,,"07,99,1,99,9,99,9,99999,9,99,9,99,9","10071,1,99999,9","10,1",,,,"MET058METAR ETNJ 160120Z 10005KT 4000 BR BKN006 19/18 Q1007 YLO;",
"10122099999","2010-08-16T02:20:00","4","53.5335","7.888667","7.31","JEVER, GM","FM-15","ETNJ ","V020","130,1,N,0026,1","00150,1,C,N","003500,1,N,1","+0190,1","+0180,1","99999,9",,"04,5,+00090,1,99,9","07,5,+00150,1,99,9",,"07,99,1,99,9,99,9,99999,9,99,9,99,9","10071,1,99999,9","10,1",,,,"MET065METAR ETNJ 160220Z 13005KT 3500 BR SCT003 BKN005 19/18 Q1007 YLO;",
"10122099999","2010-08-16T03:20:00","4","53.5335","7.888667","7.31","JEVER, GM","FM-15","ETNJ ","V020","150,1,N,0026,1","00150,1,C,N","003500,1,N,1","+0180,1","+0170,1","99999,9",,"07,5,+00150,1,99,9",,,"07,99,1,99,9,99,9,99999,9,99,9,99,9","10071,1,99999,9","10,1",,,,"MET058METAR ETNJ 160320Z 15005KT 3500 BR BKN005 18/17 Q1007 YLO;",
"10122099999","2010-08-16T04:20:00","4","53.5335","7.888667","7.31","JEVER, GM","FM-15","ETNJ ","V020","150,1,N,0026,1","00270,1,C,N","003500,1,N,1","+0170,1","+0160,1","99999,9",,"02,5,+00150,1,99,9","07,5,+00270,1,99,9",,"07,99,1,99,9,99,9,99999,9,99,9,99,9","10071,1,99999,9","10,1",,,,"MET079METAR ETNJ 160420Z 15005KT 3500 BR FEW005 BKN009 17/16 Q1007 YLO YLO TEMPO AMB;",
"10122099999","2010-08-16T05:20:00","4","53.5335","7.888667","7.31","JEVER, GM","FM-15","ETNJ ","V020","140,1,N,0031,1","00120,1,C,N","004000,1,N,1","+0170,1","+0160,1","99999,9",,"07,5,+00120,1,99,9",,,"07,99,1,99,9,99,9,99999,9,99,9,99,9","10081,1,99999,9","10,1",,,,"MET072METAR ETNJ 160520Z 14006KT 4000 BR BKN004 17/16 Q1008 YLO YLO TEMPO AMB;",
"10122099999","2010-08-16T06:20:00","4","53.5335","7.888667","7.31","JEVER, GM","FM-15","ETNJ ","V020","130,1,N,0026,1","00120,1,C,N","004500,1,N,1","+0170,1","+0160,1","99999,9",,"07,5,+00120,1,99,9",,,"07,99,1,99,9,99,9,99999,9,99,9,99,9","10081,1,99999,9","10,1",,,,"MET072METAR ETNJ 160620Z 13005KT 4500 BR BKN004 17/16 Q1008 YLO YLO TEMPO AMB;",
"10122099999","2010-08-16T06:42:00","4","53.5335","7.888667","7.31","JEVER, GM","FM-16","ETNJ ","V020","120,1,N,0031,1","00120,1,C,N","006000,1,N,1","+0170,1","+0160,1","99999,9",,"07,5,+00120,1,99,9",,,"07,99,1,99,9,99,9,99999,9,99,9,99,9","10081,1,99999,9",,,,,"MET059SPECI ETNJ 160642Z 12006KT 6000 BKN004 17/16 Q1008 YLO YLO;",
"10122099999","2010-08-16T07:20:00","4","53.5335","7.888667","7.31","JEVER, GM","FM-15","ETNJ ","V020","140,1,N,0031,1","00180,1,C,N","008000,1,N,1","+0170,1","+0160,1","99999,9",,"07,5,+00180,1,99,9",,,"07,99,1,99,9,99,9,99999,9,99,9,99,9","10081,1,99999,9",,,,,"MET059METAR ETNJ 160720Z 14006KT 8000 BKN006 17/16 Q1008 YLO YLO;",
"10122099999","2010-08-16T08:06:00","4","53.5335","7.888667","7.31","JEVER, GM","FM-16","ETNJ ","V020","130,1,N,0046,1","00240,1,C,N","009000,1,N,1","+0180,1","+0160,1","99999,9",,"07,5,+00240,1,99,9","07,5,+00510,1,99,9",,"07,99,1,99,9,99,9,99999,9,99,9,99,9","10081,1,99999,9",,,,,"MET076SPECI ETNJ 160806Z 13009KT 9000 BKN008 BKN017 18/16 Q1008 GRN YLO BECMG WHT;",
"10122099999","2010-08-16T08:20:00","4","53.5335","7.888667","7.31","JEVER, GM","FM-15","ETNJ ","V020","140,1,N,0031,1","00240,1,C,N","009000,1,N,1","+0170,1","+0150,1","99999,9",,"07,5,+00240,1,99,9","07,5,+00450,1,99,9",,"07,99,1,99,9,99,9,99999,9,99,9,99,9","10091,1,99999,9",,,,,"MET066METAR ETNJ 160820Z 14006KT 9000 BKN008 BKN015 17/15 Q1009 GRN GRN;",
"10122099999","2010-08-16T09:20:00","4","53.5335","7.888667","7.31","JEVER, GM","FM-15","ETNJ ","V020","160,1,N,0026,1","00540,1,C,N","011265,1,N,1","+0180,1","+0160,1","99999,9",,"04,5,+00270,1,99,9","07,5,+00540,1,99,9","07,5,+03600,1,99,9","07,99,1,99,9,99,9,99999,9,99,9,99,9","10081,1,99999,9",,,,,"MET073METAR ETNJ 160920Z 16005KT 9999 SCT009 BKN018 BKN120 18/16 Q1008 WHT WHT;",
"10122099999","2010-08-16T09:52:00","4","53.5335","7.888667","7.31","JEVER, GM","FM-16","ETNJ ","V020","210,1,N,0036,1","03600,1,C,N","011265,1,N,1","+0180,1","+0150,1","99999,9",,"04,5,+00540,1,99,9","07,5,+03600,1,99,9","07,5,+07800,1,99,9","07,99,1,99,9,99,9,99999,9,99,9,99,9","10071,1,99999,9","61,1",,,,"MET087SPECI ETNJ 160952Z 21007KT 9999 -RA SCT018 BKN120 BKN260 18/15 Q1007 BLU BLU TEMPO GRN;",
"10122099999","2010-08-16T10:20:00","4","53.5335","7.888667","7.31","JEVER, GM","FM-15","ETNJ ","V020","050,1,N,0021,1","00420,1,C,N","011265,1,N,1","+0180,1","+0150,1","99999,9",,"07,5,+00420,1,99,9","07,5,+03600,1,99,9",,"07,99,1,99,9,99,9,99999,9,99,9,99,9","10081,1,99999,9",,,,,"MET076METAR ETNJ 161020Z 05004KT 9999 BKN014 BKN120 18/15 Q1008 GRN BLU TEMPO GRN;",
"10122099999","2010-08-16T11:20:00","4","53.5335","7.888667","7.31","JEVER, GM","FM-15","ETNJ ","V020","100,1,N,0036,1","00600,1,C,N","011265,1,N,1","+0190,1","+0150,1","99999,9",,"07,5,+00600,1,99,9","07,5,+03600,1,99,9",,"07,99,1,99,9,99,9,99999,9,99,9,99,9","10081,1,99999,9",,,,,"MET076METAR ETNJ 161120Z 10007KT 9999 BKN020 BKN120 19/15 Q1008 WHT BLU TEMPO GRN;",
"10122099999","2010-08-16T12:05:00","4","53.5335","7.888667","7.31","JEVER, GM","FM-16","ETNJ ","V020","140,1,N,0031,1","00450,1,C,N","006000,1,N,1","+0180,1","+0140,1","99999,9",,"07,5,+00450,1,99,9","07,5,+03600,1,99,9",,"07,99,1,99,9,99,9,99999,9,99,9,99,9","10081,1,99999,9","81,1",,,,"MET081SPECI ETNJ 161205Z 14006KT 6000 SHRA BKN015 BKN120 18/14 Q1008 WHT BLU TEMPO GRN;",
"10122099999","2010-08-16T12:20:00","4","53.5335","7.888667","7.31","JEVER, GM","FM-15","ETNJ ","V020","140,1,N,0036,1","00450,1,C,N","007000,1,N,1","+0170,1","+0150,1","99999,9",,"07,5,+00450,1,99,9","07,5,+03600,1,99,9",,"07,99,1,99,9,99,9,99999,9,99,9,99,9","10081,1,99999,9","80,1",,,,"MET087METAR ETNJ 161220Z 14007KT 7000 -SHRA BKN015 BKN120 17/15 Q1008 RERA WHT BLU TEMPO GRN;",
"10122099999","2010-08-16T13:20:00","4","53.5335","7.888667","7.31","JEVER, GM","FM-15","ETNJ ","V020","110,1,N,0026,1","00450,1,C,N","011265,1,N,1","+0180,1","+0160,1","99999,9",,"04,5,+00240,1,99,9","07,5,+00450,1,99,9","07,5,+03600,1,99,9","07,99,1,99,9,99,9,99999,9,99,9,99,9","10081,1,99999,9","61,1",,,,"MET092METAR ETNJ 161320Z 11005KT 9999 -RA SCT008 BKN015 BKN120 18/16 Q1008 RERA WHT BLU TEMPO GRN;",
"10122099999","2010-08-16T14:20:00","4","53.5335","7.888667","7.31","JEVER, GM","FM-15","ETNJ ","V020","140,1,N,0026,1","00450,1,C,N","011265,1,N,1","+0180,1","+0160,1","99999,9",,"04,5,+00270,1,99,9","07,5,+00450,1,99,9","07,5,+02100,1,99,9","07,99,1,99,9,99,9,99999,9,99,9,99,9","10081,1,99999,9",,,,,"MET081METAR ETNJ 161420Z 14005KT 9999 SCT009 BKN015 BKN070 18/16 Q1008 WHT FCST CANCEL;",
"10122099999","2010-08-16T15:20:00","4","53.5335","7.888667","7.31","JEVER, GM","FM-15","ETNJ ","V020","170,1,N,0021,1","00450,1,C,N","011265,1,N,1","+0180,1","+0160,1","99999,9",,"04,5,+00300,1,99,9","07,5,+00450,1,99,9","07,5,+02100,1,99,9","07,99,1,99,9,99,9,99999,9,99,9,99,9","10081,1,99999,9",,,,,"MET069METAR ETNJ 161520Z 17004KT 9999 SCT010 BKN015 BKN070 18/16 Q1008 WHT;",
"10122099999","2010-08-16T16:20:00","4","53.5335","7.888667","7.31","JEVER, GM","FM-15","ETNJ ","V020","170,1,N,0010,1","00450,1,C,N","011265,1,N,1","+0180,1","+0150,1","99999,9",,"02,5,+00270,1,99,9","04,5,+00450,1,99,9","07,5,+03600,1,99,9","07,99,1,99,9,99,9,99999,9,99,9,99,9","10081,1,99999,9",,,,,"MET069METAR ETNJ 161620Z 17002KT 9999 FEW009 SCT015 BKN120 18/15 Q1008 BLU;",
"10122099999","2010-08-16T17:20:00","4","53.5335","7.888667","7.31","JEVER, GM","FM-15","ETNJ ","V020","030,1,N,0015,1","01170,1,C,N","011265,1,N,1","+0180,1","+0150,1","99999,9",,"02,5,+00450,1,99,9","04,5,+01170,1,99,9","07,5,+03600,1,99,9","07,99,1,99,9,99,9,99999,9,99,9,99,9","10081,1,99999,9",,,,,"MET069METAR ETNJ 161720Z 03003KT 9999 FEW015 SCT039 BKN120 18/15 Q1008 BLU;",
"10122099999","2010-08-16T18:20:00","4","53.5335","7.888667","7.31","JEVER, GM","FM-15","ETNJ ","V020","040,1,N,0015,1","01260,1,C,N","011265,1,N,1","+0180,1","+0150,1","99999,9",,"02,5,+00570,1,99,9","04,5,+01260,1,99,9","07,5,+03600,1,99,9","07,99,1,99,9,99,9,99999,9,99,9,99,9","10081,1,99999,9",,,,,"MET069METAR ETNJ 161820Z 04003KT 9999 FEW019 SCT042 BKN120 18/15 Q1008 BLU;",
"10122099999","2010-08-16T19:20:00","4","53.5335","7.888667","7.31","JEVER, GM","FM-15","ETNJ ","V020","070,1,N,0005,1","03600,1,C,N","007000,1,N,1","+0160,1","+0150,1","99999,9",,"02,5,+00570,1,99,9","07,5,+03600,1,99,9",,"07,99,1,99,9,99,9,99999,9,99,9,99,9","10081,1,99999,9","12,1",,,,"MET067METAR ETNJ 161920Z 07001KT 7000 MIFG FEW019 BKN120 16/15 Q1008 WHT;",
"10122099999","2010-08-16T19:44:00","4","53.5335","7.888667","7.31","JEVER, GM","FM-16","ETNJ ","V020","090,1,N,0010,1","22000,1,9,N","001200,1,N,1","+0150,1","+0140,1","99999,9",,"04,5,+02100,1,99,9",,,"04,99,1,99,9,99,9,99999,9,99,9,99,9","10081,1,99999,9","10,1","12,1",,,"MET073SPECI ETNJ 161944Z 09002KT 1200 R10/0300N MIFG BR SCT070 15/14 Q1008 AMB;",
"10122099999","2010-08-16T20:04:00","4","53.5335","7.888667","7.31","JEVER, GM","FM-16","ETNJ ","V020","120,1,N,0010,1","22000,1,9,N","000600,1,N,1","+0150,1","+0130,1","99999,9",,"04,5,+02100,1,99,9",,,"04,99,1,99,9,99,9,99999,9,99,9,99,9","10081,1,99999,9","44,1",,,,"MET068SPECI ETNJ 162004Z 12002KT 0600 R10/0600U FG SCT070 15/13 Q1008 RED;",
"10122099999","2010-08-16T20:10:00","4","53.5335","7.888667","7.31","JEVER, GM","FM-16","ETNJ ","V020","120,1,N,0015,1","22000,1,9,N","001300,1,N,1","+0150,1","+0130,1","99999,9",,"04,5,+02100,1,99,9",,,"04,99,1,99,9,99,9,99999,9,99,9,99,9","10081,1,99999,9","10,1","12,1",,,"MET073SPECI ETNJ 162010Z 12003KT 1300 R10/0500N MIFG BR SCT070 15/13 Q1008 AMB;",
"10122099999","2010-08-16T20:20:00","4","53.5335","7.888667","7.31","JEVER, GM","FM-15","ETNJ ","V020","110,1,N,0021,1","22000,1,9,N","005000,1,N,1","+0140,1","+0130,1","99999,9",,"02,5,+02100,1,99,9",,,"02,99,1,99,9,99,9,99999,9,99,9,99,9","10081,1,99999,9","10,1","12,1",,,"MET063METAR ETNJ 162020Z 11004KT 5000 MIFG BR FEW070 14/13 Q1008 WHT;",
"10122099999","2010-08-16T21:20:00","4","53.5335","7.888667","7.31","JEVER, GM","FM-15","ETNJ ","V020","140,1,N,0021,1","22000,1,9,N","004500,1,N,1","+0140,1","+0130,1","99999,9",,"02,5,+07500,1,99,9",,,"02,99,1,99,9,99,9,99999,9,99,9,99,9","10081,1,99999,9","10,1","12,1",,,"MET063METAR ETNJ 162120Z 14004KT 4500 MIFG BR FEW250 14/13 Q1008 GRN;",
"10122099999","2010-08-16T21:52:00","4","53.5335","7.888667","7.31","JEVER, GM","FM-16","ETNJ ","V020","100,1,N,0010,1","22000,1,9,N","003500,1,N,1","+0130,1","+0120,1","99999,9",,"02,5,+07500,1,99,9",,,"02,99,1,99,9,99,9,99999,9,99,9,99,9","10081,1,99999,9","10,1","12,1",,,"MET063SPECI ETNJ 162152Z 10002KT 3500 MIFG BR FEW250 13/12 Q1008 YLO;",
"10122099999","2010-08-16T22:20:00","4","53.5335","7.888667","7.31","JEVER, GM","FM-15","ETNJ ","V020","120,1,N,0010,1","22000,1,9,N","000900,1,N,1","+0130,1","+0120,1","99999,9",,"02,5,+07500,1,99,9",,,"02,99,1,99,9,99,9,99999,9,99,9,99,9","10081,1,99999,9","44,1",,,,"MET068METAR ETNJ 162220Z 12002KT 0900 R10/0300N FG FEW250 13/12 Q1008 AMB;",
"10122099999","2010-08-16T23:20:00","4","53.5335","7.888667","7.31","JEVER, GM","FM-15","ETNJ ","V020","100,1,N,0010,1","99999,9,9,N","000800,1,N,1","+0130,1","+0120,1","99999,9",,,,,,"10081,1,99999,9","44,1",,,,"MET061METAR ETNJ 162320Z 10002KT 0800 R10/0450U FG 13/12 Q1008 AMB;",
"10122099999","2010-08-17T00:20:00","4","53.5335","7.888667","7.31","JEVER, GM","FM-15","ETNJ ","V020","140,1,N,0010,1","22000,1,9,N","001200,1,N,1","+0120,1","+0120,1","99999,9",,"04,5,+07200,1,99,9",,,"04,99,1,99,9,99,9,99999,9,99,9,99,9","10071,1,99999,9","10,1","12,1",,,"MET073METAR ETNJ 170020Z 14002KT 1200 R10/0650D MIFG BR SCT240 12/12 Q1007 AMB;",
"10122099999","2010-08-17T01:20:00","4","53.5335","7.888667","7.31","JEVER, GM","FM-15","ETNJ ","V020","320,1,N,0010,1","07200,1,C,N","001200,1,N,1","+0120,1","+0120,1","99999,9",,"07,5,+07200,1,99,9",,,"07,99,1,99,9,99,9,99999,9,99,9,99,9","10071,1,99999,9","10,1","12,1",,,"MET073METAR ETNJ 170120Z 32002KT 1200 R10/5000D MIFG BR BKN240 12/12 Q1007 AMB;",
"10122099999","2010-08-17T02:20:00","4","53.5335","7.888667","7.31","JEVER, GM","FM-15","ETNJ ","V020","300,1,N,0015,1","06000,1,C,N","001300,1,N,1","+0120,1","+0120,1","99999,9",,"07,5,+06000,1,99,9",,,"07,99,1,99,9,99,9,99999,9,99,9,99,9","10061,1,99999,9","10,1",,,,"MET068METAR ETNJ 170220Z 30003KT 1300 R10/2700N BR BKN200 12/12 Q1006 AMB;",
"10122099999","2010-08-17T03:20:00","4","53.5335","7.888667","7.31","JEVER, GM","FM-15","ETNJ ","V020","310,1,N,0015,1","05100,1,C,N","001300,1,N,1","+0130,1","+0120,1","99999,9",,"07,5,+05100,1,99,9",,,"07,99,1,99,9,99,9,99999,9,99,9,99,9","10061,1,99999,9","10,1","12,1",,,"MET073METAR ETNJ 170320Z 31003KT 1300 R10/1400N MIFG BR BKN170 13/12 Q1006 AMB;",
"10122099999","2010-08-17T04:00:00","4","53.5335","7.888667","7.31","JEVER, GM","FM-15","ETNJ ","V020","290,1,N,0015,1","04800,1,C,N","002000,1,N,1","+0130,1","+0120,1","99999,9",,"07,5,+04800,1,99,9",,,"07,99,1,99,9,99,9,99999,9,99,9,99,9","10061,1,99999,9","10,1","12,1",,,"MET063SPECI ETNJ 170357Z 29003KT 2000 MIFG BR BKN160 13/12 Q1006 YLO;",
"10122099999","2010-08-17T04:20:00","4","53.5335","7.888667","7.31","JEVER, GM","FM-15","ETNJ ","V020","300,1,N,0015,1","04800,1,C,N","002000,1,N,1","+0130,1","+0120,1","99999,9",,"07,5,+04800,1,99,9",,,"07,99,1,99,9,99,9,99999,9,99,9,99,9","10051,1,99999,9","10,1","12,1",,,"MET067METAR ETNJ 170420Z 30003KT 2000 MIFG BR BKN160 13/12 Q1005 YLO YLO;",
"10122099999","2010-08-17T05:20:00","4","53.5335","7.888667","7.31","JEVER, GM","FM-15","ETNJ ","V020","310,1,N,0010,1","04800,1,C,N","003000,1,N,1","+0140,1","+0140,1","99999,9",,"02,5,+00420,1,99,9","07,5,+04800,1,99,9",,"07,99,1,99,9,99,9,99999,9,99,9,99,9","10051,1,99999,9","10,1",,,,"MET079METAR ETNJ 170520Z 31002KT 3000 BR FEW014 BKN160 14/14 Q1005 YLO YLO BECMG BLU;",
"10122099999","2010-08-17T06:00:00","4","53.5335","7.888667","7.31","JEVER, GM","FM-15","ETNJ ","V020","340,1,N,0015,1","99999,9,C,N","004000,1,N,1","+0140,1","+0140,1","99999,9",,"02,5,+00450,1,99,9","04,5,+04800,1,99,9",,"04,99,1,99,9,99,9,99999,9,99,9,99,9","10051,1,99999,9","10,1",,,,"MET079SPECI ETNJ 170557Z 34003KT 4000 BR FEW015 SCT160 14/14 Q1005 GRN GRN BECMG BLU;","P01 048003SCOCIG"
"10122099999","2010-08-17T06:20:00","4","53.5335","7.888667","7.31","JEVER, GM","FM-15","ETNJ ","V020","010,1,N,0015,1","99999,9,C,N","005000,1,N,1","+0160,1","+0160,1","99999,9",,"02,5,+01500,1,99,9","04,5,+04800,1,99,9",,"04,99,1,99,9,99,9,99999,9,99,9,99,9","10051,1,99999,9","10,1",,,,"MET079METAR ETNJ 170620Z 01003KT 5000 BR FEW050 SCT160 16/16 Q1005 WHT WHT BECMG BLU;","P01 048003SCOCIG"
"10122099999","2010-08-17T07:20:00","4","53.5335","7.888667","7.31","JEVER, GM","FM-15","ETNJ ","V020","360,1,N,0015,1","99999,9,C,N","008000,1,N,1","+0190,1","+0170,1","99999,9",,"04,5,+00270,1,99,9","04,5,+04800,1,99,9",,"04,99,1,99,9,99,9,99999,9,99,9,99,9","10051,1,99999,9",,,,,"MET067METAR ETNJ 170720Z 36003KT 8000 SCT009 SCT160 19/17 Q1005 BLU/BLU/;","P01 048003SCOCIG"
"10122099999","2010-08-17T08:20:00","4","53.5335","7.888667","7.31","JEVER, GM","FM-15","ETNJ ","V020","040,1,N,0015,1","03900,1,C,N","011265,1,N,1","+0200,1","+0150,1","99999,9",,"02,5,+00450,1,99,9","07,5,+03900,1,99,9",,"07,99,1,99,9,99,9,99999,9,99,9,99,9","10041,1,99999,9",,,,,"MET066METAR ETNJ 170820Z 04003KT 9999 FEW015 BKN130 20/15 Q1004 BLU BLU;",
"10122099999","2010-08-17T09:20:00","4","53.5335","7.888667","7.31","JEVER, GM","FM-15","ETNJ ","V020","999,9,V,0005,1","03600,1,C,N","011265,1,N,1","+0210,1","+0160,1","99999,9",,"04,5,+00450,1,99,9","07,5,+03600,1,99,9",,"07,99,1,99,9,99,9,99999,9,99,9,99,9","10041,1,99999,9",,,,,"MET066METAR ETNJ 170920Z VRB01KT 9999 SCT015 BKN120 21/16 Q1004 BLU BLU;",
"10122099999","2010-08-17T10:20:00","4","53.5335","7.888667","7.31","JEVER, GM","FM-15","ETNJ ","V020","240,1,N,0031,1","00540,1,C,N","011265,1,N,1","+0190,1","+0150,1","99999,9",,"07,5,+00540,1,02,1","07,5,+01200,1,99,9",,"07,99,1,99,9,99,9,99999,9,99,9,99,9","10041,1,99999,9","80,1",,,,"MET085METAR ETNJ 171020Z 24006KT 9999 -SHRA BKN018TCU BKN040 19/15 Q1004 WHT BLU TEMPO WHT;",
"10122099999","2010-08-17T11:20:00","4","53.5335","7.888667","7.31","JEVER, GM","FM-15","ETNJ ","V020","290,1,N,0041,1","00510,1,C,N","011265,1,N,1","+0190,1","+0160,1","99999,9",,"02,5,+00270,1,99,9","04,5,+00510,1,02,5","07,5,+01110,1,99,9","07,99,1,99,9,99,9,99999,9,99,9,99,9","10041,1,99999,9",,,,,"MET086METAR ETNJ 171120Z 29008KT 9999 FEW009 SCT017TCU BKN037 19/16 Q1004 BLU BLU TEMPO WHT;",
"10122099999","2010-08-17T12:20:00","4","53.5335","7.888667","7.31","JEVER, GM","FM-15","ETNJ ","V020","300,1,N,0041,1","01290,1,C,N","011265,1,N,1","+0220,1","+0160,1","99999,9",,"04,5,+00510,1,02,1","07,5,+01290,1,99,9","07,5,+03900,1,99,9","07,99,1,99,9,99,9,99999,9,99,9,99,9","10031,1,99999,9",,,,,"MET086METAR ETNJ 171220Z 30008KT 9999 SCT017TCU BKN043 BKN130 22/16 Q1003 BLU BLU TEMPO WHT;",
"10122099999","2010-08-17T13:20:00","4","53.5335","7.888667","7.31","JEVER, GM","FM-15","ETNJ ","V020","270,1,N,0026,1","01200,1,C,N","011265,1,N,1","+0210,1","+0140,1","99999,9",,"02,5,+00750,1,99,9","07,5,+01200,1,99,9",,"07,99,1,99,9,99,9,99999,9,99,9,99,9","10031,1,99999,9",,,,,"MET076METAR ETNJ 171320Z 27005KT 9999 FEW025 BKN040 21/14 Q1003 BLU BLU TEMPO WHT;",
"10122099999","2010-08-17T14:00:00","4","53.5335","7.888667","7.31","JEVER, GM","FM-16","ETNJ ","V020","999,9,V,0010,1","01200,1,C,N","011265,1,N,1","+0200,1","+0150,1","99999,9",,"04,5,+00750,1,99,9","07,5,+01200,1,99,9",,"07,99,1,99,9,99,9,99999,9,99,9,99,9","10031,1,99999,9",,,,,"MET074SPECI ETNJ 171400Z VRB02KT 9999 SCT025 BKN040 20/15 Q1003 BLU FCST CANCEL;",
"10122099999","2010-08-17T14:20:00","4","53.5335","7.888667","7.31","JEVER, GM","FM-15","ETNJ ","V020","120,1,N,0010,1","01200,1,C,N","011265,1,N,1","+0200,1","+0160,1","99999,9",,"04,5,+00750,1,99,9","07,5,+01200,1,99,9",,"07,99,1,99,9,99,9,99999,9,99,9,99,9","10031,1,99999,9",,,,,"MET062METAR ETNJ 171420Z 12002KT 9999 SCT025 BKN040 20/16 Q1003 BLU;",
"10122099999","2010-08-17T15:20:00","4","53.5335","7.888667","7.31","JEVER, GM","FM-15","ETNJ ","V020","250,1,N,0057,1","00750,1,C,N","011265,1,N,1","+0190,1","+0150,1","99999,9",,"02,5,+00360,1,99,9","04,5,+00750,1,99,9","07,5,+01800,1,99,9","07,99,1,99,9,99,9,99999,9,99,9,99,9","10020,1,99999,9",,,,,"MET069METAR ETNJ 171520Z 25011KT 9999 FEW012 SCT025 BKN060 19/15 Q1002 BLU;",
"10122099999","2010-08-17T16:20:00","4","53.5335","7.888667","7.31","JEVER, GM","FM-15","ETNJ ","V020","270,1,N,0051,1","00270,1,C,N","011265,1,N,1","+0180,1","+0150,1","99999,9",,"07,5,+00270,1,99,9",,,"07,99,1,99,9,99,9,99999,9,99,9,99,9","10020,1,99999,9",,,,,"MET055METAR ETNJ 171620Z 27010KT 9999 BKN009 18/15 Q1002 GRN;",
"10122099999","2010-08-17T16:37:00","4","53.5335","7.888667","7.31","JEVER, GM","FM-16","ETNJ ","V020","260,1,N,0067,1","00180,1,C,N","011265,1,N,1","+0170,1","+0150,1","99999,9",,"07,5,+00180,1,99,9",,,"07,99,1,99,9,99,9,99999,9,99,9,99,9","10020,1,99999,9",,,,,"MET055SPECI ETNJ 171637Z 26013KT 9999 BKN006 17/15 Q1002 YLO;",
"10122099999","2010-08-17T17:20:00","4","53.5335","7.888667","7.31","JEVER, GM","FM-15","ETNJ ","V020","270,1,N,0072,1","00150,1,C,N","004000,1,N,1","+0170,1","+0150,1","99999,9",,"07,5,+00150,1,99,9",,,"07,99,1,99,9,99,9,99999,9,99,9,99,9","10020,1,99999,9","10,1","51,1","61,1",,"MET064METAR ETNJ 171720Z 27014KT 4000 -RADZ BR BKN005 17/15 Q1002 YLO;",
"10122099999","2010-08-17T18:20:00","4","53.5335","7.888667","7.31","JEVER, GM","FM-15","ETNJ ","V020","270,1,N,0072,1","00150,1,C,N","004000,1,N,1","+0160,1","+0140,1","99999,9",,"07,5,+00150,1,99,9",,,"07,99,1,99,9,99,9,99999,9,99,9,99,9","10020,1,99999,9","10,1","51,1","61,1",,"MET064METAR ETNJ 171820Z 27014KT 4000 -RADZ BR BKN005 16/14 Q1002 YLO;",
"10122099999","2010-08-17T19:20:00","4","53.5335","7.888667","7.31","JEVER, GM","FM-15","ETNJ ","V020","260,1,N,0057,1","00150,1,C,N","004000,1,N,1","+0150,1","+0140,1","99999,9",,"07,5,+00150,1,99,9",,,"07,99,1,99,9,99,9,99999,9,99,9,99,9","10031,1,99999,9","10,1","51,1","61,1",,"MET064METAR ETNJ 171920Z 26011KT 4000 -RADZ BR BKN005 15/14 Q1003 YLO;",
"10122099999","2010-08-17T20:20:00","4","53.5335","7.888667","7.31","JEVER, GM","FM-15","ETNJ ","V020","260,1,N,0051,1","00180,1,C,N","003500,1,N,1","+0150,1","+0140,1","99999,9",,"04,5,+00060,1,99,9","07,5,+00180,1,99,9",,"07,99,1,99,9,99,9,99999,9,99,9,99,9","10031,1,99999,9","10,1","53,1","63,1",,"MET070METAR ETNJ 172020Z 26010KT 3500 RADZ BR SCT002 BKN006 15/14 Q1003 YLO;",
"10122099999","2010-08-17T21:00:00","4","53.5335","7.888667","7.31","JEVER, GM","FM-15","ETNJ ","V020","250,1,N,0046,1","00240,1,C,N","008000,1,N,1","+0150,1","+0140,1","99999,9",,"04,5,+00150,1,99,9","07,5,+00240,1,99,9",,"07,99,1,99,9,99,9,99999,9,99,9,99,9","10020,1,99999,9",,,,,"MET067SPECI ETNJ 172056Z 25009KT 8000 SCT005 BKN008 15/14 Q1002 RERA GRN;",
"10122099999","2010-08-17T21:20:00","4","53.5335","7.888667","7.31","JEVER, GM","FM-15","ETNJ ","V020","250,1,N,0051,1","00240,1,C,N","009000,1,N,1","+0150,1","+0140,1","99999,9",,"04,5,+00150,1,99,9","07,5,+00240,1,99,9",,"07,99,1,99,9,99,9,99999,9,99,9,99,9","10020,1,99999,9",,,,,"MET067METAR ETNJ 172120Z 25010KT 9000 SCT005 BKN008 15/14 Q1002 RERA GRN;",
"10122099999","2010-08-17T21:39:00","4","53.5335","7.888667","7.31","JEVER, GM","FM-16","ETNJ ","V020","250,1,N,0051,1","00870,1,C,N","009000,1,N,1","+0150,1","+0140,1","99999,9",,"04,5,+00270,1,99,9","07,5,+00870,1,99,9",,"07,99,1,99,9,99,9,99999,9,99,9,99,9","10020,1,99999,9",,,,,"MET062SPECI ETNJ 172139Z 25010KT 9000 SCT009 BKN029 15/14 Q1002 BLU;",
"10122099999","2010-08-17T22:20:00","4","53.5335","7.888667","7.31","JEVER, GM","FM-15","ETNJ ","V020","250,1,N,0057,1","00900,1,C,N","009000,1,N,1","+0150,1","+0140,1","99999,9",,"04,5,+00300,1,99,9","07,5,+00900,1,99,9",,"07,99,1,99,9,99,9,99999,9,99,9,99,9","10020,1,99999,9","61,1",,,,"MET066METAR ETNJ 172220Z 25011KT 9000 -RA SCT010 BKN030 15/14 Q1002 BLU;",
"10122099999","2010-08-17T23:20:00","4","53.5335","7.888667","7.31","JEVER, GM","FM-15","ETNJ ","V020","260,1,N,0062,1","00900,1,C,N","009000,1,N,1","+0150,1","+0140,1","99999,9",,"04,5,+00300,1,99,9","07,5,+00900,1,99,9",,"07,99,1,99,9,99,9,99999,9,99,9,99,9","10020,1,99999,9","61,1",,,,"MET066METAR ETNJ 172320Z 26012KT 9000 -RA SCT010 BKN030 15/14 Q1002 BLU;",
"10122099999","2010-08-18T00:20:00","4","53.5335","7.888667","7.31","JEVER, GM","FM-15","ETNJ ","V020","260,1,N,0051,1","00900,1,C,N","007000,1,N,1","+0150,1","+0140,1","99999,9",,"04,5,+00300,1,99,9","07,5,+00900,1,99,9",,"07,99,1,99,9,99,9,99999,9,99,9,99,9","10020,1,99999,9","51,1","61,1",,,"MET068METAR ETNJ 180020Z 26010KT 7000 -RADZ SCT010 BKN030 15/14 Q1002 WHT;",
"10122099999","2010-08-18T01:20:00","4","53.5335","7.888667","7.31","JEVER, GM","FM-15","ETNJ ","V020","260,1,N,0046,1","00300,1,C,N","005000,1,N,1","+0150,1","+0140,1","99999,9",,"04,5,+00180,1,99,9","04,5,+00300,1,99,9","07,5,+00900,1,99,9","07,99,1,99,9,99,9,99999,9,99,9,99,9","10020,1,99999,9","10,1","51,1","61,1",,"MET078METAR ETNJ 180120Z 26009KT 5000 -RADZ BR SCT006 SCT010 BKN030 15/14 Q1002 WHT;",
"10122099999","2010-08-18T02:20:00","4","53.5335","7.888667","7.31","JEVER, GM","FM-15","ETNJ ","V020","260,1,N,0046,1","02700,1,C,N","011265,1,N,1","+0150,1","+0140,1","99999,9",,"04,5,+00900,1,99,9","07,5,+02700,1,99,9",,"07,99,1,99,9,99,9,99999,9,99,9,99,9","10010,1,99999,9",,,,,"MET062METAR ETNJ 180220Z 26009KT 9999 SCT030 BKN090 15/14 Q1001 BLU;",
"10122099999","2010-08-18T03:20:00","4","53.5335","7.888667","7.31","JEVER, GM","FM-15","ETNJ ","V020","260,1,N,0046,1","00900,1,C,N","011265,1,N,1","+0150,1","+0140,1","99999,9",,"02,5,+00300,1,99,9","07,5,+00900,1,99,9",,"07,99,1,99,9,99,9,99999,9,99,9,99,9","10010,1,99999,9",,,,,"MET062METAR ETNJ 180320Z 26009KT 9999 FEW010 BKN030 15/14 Q1001 BLU;",
"10122099999","2010-08-18T04:20:00","4","53.5335","7.888667","7.31","JEVER, GM","FM-15","ETNJ ","V020","250,1,N,0041,1","00900,1,C,N","006000,1,N,1","+0150,1","+0140,1","99999,9",,"02,5,+00240,1,99,9","04,5,+00900,1,99,9","07,5,+01800,1,99,9","07,99,1,99,9,99,9,99999,9,99,9,99,9","10010,1,99999,9",,,,,"MET083METAR ETNJ 180420Z 25008KT 6000 FEW008 SCT030 BKN060 15/14 Q1001 WHT BLU TEMPO GRN;",
"10122099999","2010-08-18T05:20:00","4","53.5335","7.888667","7.31","JEVER, GM","FM-15","ETNJ ","V020","260,1,N,0046,1","00960,1,C,N","006000,1,N,1","+0160,1","+0150,1","99999,9",,"02,5,+00180,1,99,9","04,5,+00960,1,99,9","07,5,+01800,1,99,9","07,99,1,99,9,99,9,99999,9,99,9,99,9","10010,1,99999,9",,,,,"MET083METAR ETNJ 180520Z 26009KT 6000 FEW006 SCT032 BKN060 16/15 Q1001 WHT BLU TEMPO GRN;",
"10122099999","2010-08-18T06:20:00","4","53.5335","7.888667","7.31","JEVER, GM","FM-15","ETNJ ","V020","250,1,N,0041,1","00540,1,C,N","007000,1,N,1","+0160,1","+0150,1","99999,9",,"02,5,+00210,1,99,9","04,5,+00540,1,99,9","07,5,+06900,1,99,9","07,99,1,99,9,99,9,99999,9,99,9,99,9","10010,1,99999,9",,,,,"MET083METAR ETNJ 180620Z 25008KT 7000 FEW007 SCT018 BKN230 16/15 Q1001 WHT BLU TEMPO GRN;",
"10122099999","2010-08-18T07:00:00","4","53.5335","7.888667","7.31","JEVER, GM","FM-15","ETNJ ","V020","250,1,N,0046,1","00300,1,C,N","008000,1,N,1","+0170,1","+0150,1","99999,9",,"07,5,+00300,1,99,9","07,5,+06900,1,99,9",,"07,99,1,99,9,99,9,99999,9,99,9,99,9","10010,1,99999,9",,,,,"MET076SPECI ETNJ 180656Z 25009KT 8000 BKN010 BKN230 17/15 Q1001 GRN BLU TEMPO GRN;",
"10122099999","2010-08-18T07:20:00","4","53.5335","7.888667","7.31","JEVER, GM","FM-15","ETNJ ","V020","260,1,N,0051,1","00600,1,C,N","011265,1,N,1","+0170,1","+0150,1","99999,9",,"04,5,+00300,1,99,9","04,5,+00600,1,99,9","07,5,+06900,1,99,9","07,99,1,99,9,99,9,99999,9,99,9,99,9","10010,1,99999,9",,,,,"MET083METAR ETNJ 180720Z 26010KT 9999 SCT010 SCT020 BKN230 17/15 Q1001 BLU/BLU TEMPO GRN;",
"10122099999","2010-08-18T08:20:00","4","53.5335","7.888667","7.31","JEVER, GM","FM-15","ETNJ ","V020","260,1,N,0062,1","00840,1,C,N","011265,1,N,1","+0180,1","+0140,1","99999,9",,"04,5,+00540,1,99,9","07,5,+00840,1,99,9",,"07,99,1,99,9,99,9,99999,9,99,9,99,9","10020,1,99999,9",,,,,"MET076METAR ETNJ 180820Z 26012KT 9999 SCT018 BKN028 18/14 Q1002 BLU BLU TEMPO GRN;",
"10122099999","2010-08-18T09:20:00","4","53.5335","7.888667","7.31","JEVER, GM","FM-15","ETNJ ","V020","260,1,N,0067,1","00540,1,C,N","011265,1,N,1","+0190,1","+0140,1","99999,9",,"07,5,+00540,1,99,9","07,5,+00960,1,99,9",,"07,99,1,99,9,99,9,99999,9,99,9,99,9","10020,1,99999,9",,,,,"MET076METAR ETNJ 180920Z 26013KT 9999 BKN018 BKN032 19/14 Q1002 WHT BLU TEMPO GRN;",
"10122099999","2010-08-18T10:20:00","4","53.5335","7.888667","7.31","JEVER, GM","FM-15","ETNJ ","V020","270,1,N,0057,1","01050,1,C,N","011265,1,N,1","+0190,1","+0140,1","99999,9",,"04,5,+00600,1,99,9","04,5,+01050,1,99,9","07,5,+07500,1,99,9","07,99,1,99,9,99,9,99999,9,99,9,99,9","10020,1,99999,9",,,,,"MET084METAR ETNJ 181020Z 27011KT 9999 SCT020 SCT035 BKN250 19/14 Q1002 BLU/BLU/ TEMPO GRN;",
"10122099999","2010-08-18T11:20:00","4","53.5335","7.888667","7.31","JEVER, GM","FM-15","ETNJ ","V020","280,1,N,0087,1","01050,1,C,N","011265,1,N,1","+0200,1","+0130,1","99999,9",,"04,5,+00600,1,99,9","04,5,+01050,1,99,9","07,5,+07500,1,99,9","07,99,1,99,9,99,9,99999,9,99,9,99,9","10020,1,99999,9",,,,,"MET084METAR ETNJ 181120Z 28017KT 9999 SCT020 SCT035 BKN250 20/13 Q1002 BLU/BLU/ TEMPO GRN;",
"10122099999","2010-08-18T12:00:00","4","53.5335","7.888667","7.31","JEVER, GM","FM-16","ETNJ ","V020","290,1,N,0077,1","01350,1,C,N","011265,1,N,1","+0220,1","+0140,1","99999,9",,"04,5,+00780,1,99,9","04,5,+01350,1,99,9","07,5,+07500,1,99,9","07,99,1,99,9,99,9,99999,9,99,9,99,9","10020,1,99999,9",,,,,"MET081SPECI ETNJ 181200Z 29015KT 9999 SCT026 SCT045 BKN250 22/14 Q1002 BLU/FCST CANCEL;",
"10122099999","2010-08-18T12:20:00","4","53.5335","7.888667","7.31","JEVER, GM","FM-15","ETNJ ","V020","290,1,N,0077,1","01350,1,C,N","011265,1,N,1","+0200,1","+0130,1","99999,9",,"04,5,+00780,1,99,9","04,5,+01350,1,99,9","07,5,+07500,1,99,9","07,99,1,99,9,99,9,99999,9,99,9,99,9","10020,1,99999,9",,,,,"MET070METAR ETNJ 181220Z 29015KT 9999 SCT026 SCT045 BKN250 20/13 Q1002 BLU/;",
"10122099999","2010-08-18T13:20:00","4","53.5335","7.888667","7.31","JEVER, GM","FM-15","ETNJ ","V020","290,1,N,0067,1","07500,1,C,N","011265,1,N,1","+0210,1","+0130,1","99999,9",,"04,5,+00780,1,99,9","07,5,+07500,1,99,9",,"07,99,1,99,9,99,9,99999,9,99,9,99,9","10020,1,99999,9",,,,,"MET063METAR ETNJ 181320Z 29013KT 9999 SCT026 BKN250 21/13 Q1002 BLU/;",
"10122099999","2010-08-18T14:20:00","4","53.5335","7.888667","7.31","JEVER, GM","FM-15","ETNJ ","V020","280,1,N,0067,1","07500,1,C,N","011265,1,N,1","+0200,1","+0120,1","99999,9",,"04,5,+00780,1,99,9","07,5,+07500,1,99,9",,"07,99,1,99,9,99,9,99999,9,99,9,99,9","10020,1,99999,9",,,,,"MET063METAR ETNJ 181420Z 28013KT 9999 SCT026 BKN250 20/12 Q1002 BLU/;",
"10122099999","2010-08-18T15:20:00","4","53.5335","7.888667","7.31","JEVER, GM","FM-15","ETNJ ","V020","270,1,N,0072,1","02100,1,C,N","011265,1,N,1","+0200,1","+0120,1","99999,9",,"04,5,+00780,1,99,9","04,5,+02100,1,99,9","07,5,+07500,1,99,9","07,99,1,99,9,99,9,99999,9,99,9,99,9","10031,1,99999,9",,,,,"MET070METAR ETNJ 181520Z 27014KT 9999 SCT026 SCT070 BKN250 20/12 Q1003 BLU/;",
"10122099999","2010-08-18T16:20:00","4","53.5335","7.888667","7.31","JEVER, GM","FM-15","ETNJ ","V020","280,1,N,0057,1","01350,1,C,N","011265,1,N,1","+0190,1","+0130,1","99999,9",,"04,5,+00750,1,99,9","07,5,+01350,1,99,9",,"07,99,1,99,9,99,9,99999,9,99,9,99,9","10031,1,99999,9",,,,,"MET062METAR ETNJ 181620Z 28011KT 9999 SCT025 BKN045 19/13 Q1003 BLU;",
"10122099999","2010-08-18T17:20:00","4","53.5335","7.888667","7.31","JEVER, GM","FM-15","ETNJ ","V020","280,1,N,0062,1","01350,1,C,N","011265,1,N,1","+0180,1","+0130,1","99999,9",,"04,5,+00660,1,99,9","07,5,+01350,1,99,9",,"07,99,1,99,9,99,9,99999,9,99,9,99,9","10031,1,99999,9",,,,,"MET062METAR ETNJ 181720Z 28012KT 9999 SCT022 BKN045 18/13 Q1003 BLU;",
"10122099999","2010-08-18T18:20:00","4","53.5335","7.888667","7.31","JEVER, GM","FM-15","ETNJ ","V020","270,1,N,0046,1","00750,1,C,N","011265,1,N,1","+0170,1","+0120,1","99999,9",,"07,5,+00750,1,99,9","07,5,+01500,1,99,9",,"07,99,1,99,9,99,9,99999,9,99,9,99,9","10041,1,99999,9","80,1",,,,"MET068METAR ETNJ 181820Z 27009KT 9999 -SHRA BKN025 BKN050 17/12 Q1004 BLU;",
"10122099999","2010-08-18T19:20:00","4","53.5335","7.888667","7.31","JEVER, GM","FM-15","ETNJ ","V020","260,1,N,0051,1","22000,1,9,N","011265,1,N,1","+0150,1","+0090,1","99999,9",,"02,5,+00720,1,99,9",,,"02,99,1,99,9,99,9,99999,9,99,9,99,9","10051,1,99999,9",,,,,"MET056METAR ETNJ 181920Z 26010KT 9999 FEW024 15/09 Q1005 BLU/;",
"10122099999","2010-08-18T20:20:00","4","53.5335","7.888667","7.31","JEVER, GM","FM-15","ETNJ ","V020","250,1,N,0036,1","22000,1,9,N","011265,1,N,1","+0140,1","+0090,1","99999,9",,"02,5,+00720,1,99,9",,,"02,99,1,99,9,99,9,99999,9,99,9,99,9","10051,1,99999,9",,,,,"MET056METAR ETNJ 182020Z 25007KT 9999 FEW024 14/09 Q1005 BLU/;",
"10122099999","2010-08-18T21:20:00","4","53.5335","7.888667","7.31","JEVER, GM","FM-15","ETNJ ","V020","230,1,N,0041,1","22000,1,9,N","011265,1,N,1","+0140,1","+0100,1","99999,9",,"02,5,+00720,1,99,9",,,"02,99,1,99,9,99,9,99999,9,99,9,99,9","10051,1,99999,9",,,,,"MET056METAR ETNJ 182120Z 23008KT 9999 FEW024 14/10 Q1005 BLU/;",
"10122099999","2010-08-18T22:20:00","4","53.5335","7.888667","7.31","JEVER, GM","FM-15","ETNJ ","V020","250,1,N,0046,1","22000,1,9,N","011265,1,N,1","+0130,1","+0120,1","99999,9",,"04,5,+00720,1,99,9",,,"04,99,1,99,9,99,9,99999,9,99,9,99,9","10061,1,99999,9",,,,,"MET056METAR ETNJ 182220Z 25009KT 9999 SCT024 13/12 Q1006 BLU/;",
"10122099999","2010-08-18T23:20:00","4","53.5335","7.888667","7.31","JEVER, GM","FM-15","ETNJ ","V020","240,1,N,0031,1","22000,1,9,N","011265,1,N,1","+0140,1","+0120,1","99999,9",,"04,5,+00720,1,99,9",,,"04,99,1,99,9,99,9,99999,9,99,9,99,9","10061,1,99999,9",,,,,"MET056METAR ETNJ 182320Z 24006KT 9999 SCT024 14/12 Q1006 BLU/;",
"10122099999","2010-08-19T00:20:00","4","53.5335","7.888667","7.31","JEVER, GM","FM-15","ETNJ ","V020","240,1,N,0026,1","22000,1,9,N","011265,1,N,1","+0120,1","+0100,1","99999,9",,"02,5,+00720,1,99,9",,,"02,99,1,99,9,99,9,99999,9,99,9,99,9","10071,1,99999,9",,,,,"MET056METAR ETNJ 190020Z 24005KT 9999 FEW024 12/10 Q1007 BLU/;",
"10122099999","2010-08-19T01:20:00","4","53.5335","7.888667","7.31","JEVER, GM","FM-15","ETNJ ","V020","240,1,N,0036,1","22000,1,9,N","011265,1,N,1","+0120,1","+0100,1","99999,9",,"02,5,+00720,1,99,9",,,"02,99,1,99,9,99,9,99999,9,99,9,99,9","10071,1,99999,9",,,,,"MET056METAR ETNJ 190120Z 24007KT 9999 FEW024 12/10 Q1007 BLU/;",
"10122099999","2010-08-19T02:20:00","4","53.5335","7.888667","7.31","JEVER, GM","FM-15","ETNJ ","V020","240,1,N,0036,1","22000,1,9,N","011265,1,N,1","+0120,1","+0100,1","99999,9",,"02,5,+00720,1,99,9",,,"02,99,1,99,9,99,9,99999,9,99,9,99,9","10071,1,99999,9",,,,,"MET056METAR ETNJ 190220Z 24007KT 9999 FEW024 12/10 Q1007 BLU/;",
"10122099999","2010-08-19T03:20:00","4","53.5335","7.888667","7.31","JEVER, GM","FM-15","ETNJ ","V020","220,1,N,0036,1","22000,1,9,N","011265,1,N,1","+0120,1","+0100,1","99999,9",,"02,5,+00720,1,99,9",,,"02,99,1,99,9,99,9,99999,9,99,9,99,9","10071,1,99999,9",,,,,"MET056METAR ETNJ 190320Z 22007KT 9999 FEW024 12/10 Q1007 BLU/;",
"10122099999","2010-08-19T04:20:00","4","53.5335","7.888667","7.31","JEVER, GM","FM-15","ETNJ ","V020","220,1,N,0036,1","22000,1,9,N","011265,1,N,1","+0110,1","+0100,1","99999,9",,"02,5,+00600,1,99,9",,,"02,99,1,99,9,99,9,99999,9,99,9,99,9","10081,1,99999,9",,,,,"MET056METAR ETNJ 190420Z 22007KT 9999 FEW020 11/10 Q1008 BLU/;",
"10122099999","2010-08-19T05:20:00","4","53.5335","7.888667","7.31","JEVER, GM","FM-15","ETNJ ","V020","230,1,N,0041,1","22000,1,9,N","011265,1,N,1","+0130,1","+0110,1","99999,9",,"02,5,+00600,1,99,9",,,"02,99,1,99,9,99,9,99999,9,99,9,99,9","10081,1,99999,9",,,,,"MET060METAR ETNJ 190520Z 23008KT 9999 FEW020 13/11 Q1008 BLU/BLU/;",
"10122099999","2010-08-19T06:20:00","4","53.5335","7.888667","7.31","JEVER, GM","FM-15","ETNJ ","V020","240,1,N,0046,1","22000,1,9,N","011265,1,N,1","+0150,1","+0130,1","99999,9",,"02,5,+00600,1,09,1",,,"02,99,1,99,9,99,9,99999,9,99,9,99,9","10091,1,99999,9",,,,,"MET062METAR ETNJ 190620Z 24009KT 9999 FEW020CB 15/13 Q1009 BLU/BLU/;",
"10122099999","2010-08-19T07:20:00","4","53.5335","7.888667","7.31","JEVER, GM","FM-15","ETNJ ","V020","250,1,N,0062,1","22000,1,9,N","011265,1,N,1","+0170,1","+0130,1","99999,9",,"02,5,+00600,1,09,1",,,"02,99,1,99,9,99,9,99999,9,99,9,99,9","10102,1,99999,9",,,,,"MET062METAR ETNJ 190720Z 25012KT 9999 FEW020CB 17/13 Q1010 BLU/BLU/;",
"10122099999","2010-08-19T08:20:00","4","53.5335","7.888667","7.31","JEVER, GM","FM-15","ETNJ ","V020","240,1,N,0046,1","22000,1,9,N","011265,1,N,1","+0180,1","+0140,1","99999,9",,"04,5,+00450,1,99,9",,,"04,99,1,99,9,99,9,99999,9,99,9,99,9","10102,1,99999,9",,,,,"MET060METAR ETNJ 190820Z 24009KT 9999 SCT015 18/14 Q1010 BLU/BLU/;",
"10122099999","2010-08-19T09:20:00","4","53.5335","7.888667","7.31","JEVER, GM","FM-15","ETNJ ","V020","260,1,N,0062,1","22000,1,9,N","011265,1,N,1","+0190,1","+0130,1","99999,9",,"04,5,+00750,1,99,9",,,"04,99,1,99,9,99,9,99999,9,99,9,99,9","10108,1,99999,9",,,,,"MET060METAR ETNJ 190920Z 26012KT 9999 SCT025 19/13 Q1011 BLU/BLU/;",
"10122099999","2010-08-19T10:20:00","4","53.5335","7.888667","7.31","JEVER, GM","FM-15","ETNJ ","V020","260,1,N,0062,1","22000,1,9,N","011265,1,N,1","+0210,1","+0120,1","99999,9",,"04,5,+01050,1,99,9",,,"04,99,1,99,9,99,9,99999,9,99,9,99,9","10119,1,99999,9",,,,,"MET060METAR ETNJ 191020Z 26012KT 9999 SCT035 21/12 Q1012 BLU/BLU/;",
"10122099999","2010-08-19T11:20:00","4","53.5335","7.888667","7.31","JEVER, GM","FM-15","ETNJ ","V020","240,1,N,0036,1","99999,9,C,N","011265,1,N,1","+0170,1","+0120,1","99999,9",,"02,5,+01050,1,02,1","04,5,+01500,1,99,9",,"04,99,1,99,9,99,9,99999,9,99,9,99,9","10119,1,99999,9",,,,,"MET070METAR ETNJ 191120Z 24007KT 9999 FEW035TCU SCT050 17/12 Q1012 BLU/BLU/;","P01 015003SCOCIG"
"10122099999","2010-08-19T11:24:00","4","53.5335","7.888667","7.31","JEVER, GM","FM-16","ETNJ ","V020","230,1,N,0036,1","99999,9,C,N","011265,1,N,1","+0180,1","+0140,1","99999,9",,"02,5,+01050,1,02,1","04,5,+01500,1,99,9",,"04,99,1,99,9,99,9,99999,9,99,9,99,9","10119,1,99999,9",,,,,"MET070SPECI ETNJ 191124Z 23007KT 9999 FEW035TCU SCT050 18/14 Q1012 BLU/BLU/;","P01 015003SCOCIG"
"10122099999","2010-08-19T12:20:00","4","53.5335","7.888667","7.31","JEVER, GM","FM-15","ETNJ ","V020","290,1,N,0067,1","99999,9,C,N","011265,1,N,1","+0200,1","+0100,1","99999,9",,"02,5,+01200,1,99,9","04,5,+08100,1,99,9",,"04,99,1,99,9,99,9,99999,9,99,9,99,9","10129,1,99999,9",,,,,"MET074METAR ETNJ 191220Z 29013KT 9999 FEW040 SCT270 20/10 Q1013 BLU/FCST CANCEL;","P01 081003SCOCIG"
"10122099999","2010-08-19T13:20:00","4","53.5335","7.888667","7.31","JEVER, GM","FM-15","ETNJ ","V020","290,1,N,0062,1","22000,1,9,N","011265,1,N,1","+0220,1","+0100,1","99999,9",,"04,5,+01350,1,99,9",,,"04,99,1,99,9,99,9,99999,9,99,9,99,9","10129,1,99999,9",,,,,"MET056METAR ETNJ 191320Z 29012KT 9999 SCT045 22/10 Q1013 BLU/;",
"10122099999","2010-08-19T14:20:00","4","53.5335","7.888667","7.31","JEVER, GM","FM-15","ETNJ ","V020","290,1,N,0051,1","22000,1,9,N","011265,1,N,1","+0220,1","+0110,1","99999,9",,"04,5,+01350,1,99,9",,,"04,99,1,99,9,99,9,99999,9,99,9,99,9","10139,1,99999,9",,,,,"MET060METAR ETNJ 191420Z 29010KT 9999 SCT045 22/11 Q1014 BLU/BLU/;",
"10122099999","2010-08-19T15:20:00","4","53.5335","7.888667","7.31","JEVER, GM","FM-15","ETNJ ","V020","280,1,N,0041,1","08100,1,C,N","011265,1,N,1","+0210,1","+0110,1","99999,9",,"04,5,+01350,1,99,9","07,5,+08100,1,99,9",,"07,99,1,99,9,99,9,99999,9,99,9,99,9","10139,1,99999,9",,,,,"MET067METAR ETNJ 191520Z 28008KT 9999 SCT045 BKN270 21/11 Q1014 BLU/BLU/;",
"10122099999","2010-08-19T16:20:00","4","53.5335","7.888667","7.31","JEVER, GM","FM-15","ETNJ ","V020","270,1,N,0046,1","08100,1,C,N","011265,1,N,1","+0210,1","+0120,1","99999,9",,"02,5,+01350,1,99,9","07,5,+08100,1,99,9",,"07,99,1,99,9,99,9,99999,9,99,9,99,9","10149,1,99999,9",,,,,"MET067METAR ETNJ 191620Z 27009KT 9999 FEW045 BKN270 21/12 Q1015 BLU/BLU/;",
"10122099999","2010-08-19T17:20:00","4","53.5335","7.888667","7.31","JEVER, GM","FM-15","ETNJ ","V020","290,1,N,0031,1","08100,1,C,N","011265,1,N,1","+0190,1","+0110,1","99999,9",,"02,5,+01350,1,99,9","07,5,+08100,1,99,9",,"07,99,1,99,9,99,9,99999,9,99,9,99,9","10149,1,99999,9",,,,,"MET063METAR ETNJ 191720Z 29006KT 9999 FEW045 BKN270 19/11 Q1015 BLU/;",
"10122099999","2010-08-19T18:20:00","4","53.5335","7.888667","7.31","JEVER, GM","FM-15","ETNJ ","V020","280,1,N,0021,1","08100,1,C,N","011265,1,N,1","+0180,1","+0110,1","99999,9",,"02,5,+01350,1,99,9","07,5,+08100,1,99,9",,"07,99,1,99,9,99,9,99999,9,99,9,99,9","10159,1,99999,9",,,,,"MET063METAR ETNJ 191820Z 28004KT 9999 FEW045 BKN270 18/11 Q1016 BLU/;",
"10122099999","2010-08-19T19:20:00","4","53.5335","7.888667","7.31","JEVER, GM","FM-15","ETNJ ","V020","120,1,N,0010,1","99999,9,C,N","011265,1,N,1","+0140,1","+0110,1","99999,9",,"02,5,+01350,1,99,9","04,5,+08100,1,99,9",,"04,99,1,99,9,99,9,99999,9,99,9,99,9","10169,1,99999,9",,,,,"MET063METAR ETNJ 191920Z 12002KT 9999 FEW045 SCT270 14/11 Q1017 BLU/;","P01 081003SCOCIG"
"10122099999","2010-08-19T20:20:00","4","53.5335","7.888667","7.31","JEVER, GM","FM-15","ETNJ ","V020","120,1,N,0015,1","99999,9,C,N","011265,1,N,1","+0130,1","+0100,1","99999,9",,"02,5,+01200,1,99,9","04,5,+08100,1,99,9",,"04,99,1,99,9,99,9,99999,9,99,9,99,9","10169,1,99999,9",,,,,"MET063METAR ETNJ 192020Z 12003KT 9999 FEW040 SCT270 13/10 Q1017 BLU/;","P01 081003SCOCIG"
"10122099999","2010-08-19T21:20:00","4","53.5335","7.888667","7.31","JEVER, GM","FM-15","ETNJ ","V020","130,1,N,0010,1","22000,1,9,N","011265,1,N,1","+0120,1","+0100,1","99999,9",,"04,5,+08100,1,99,9",,,"04,99,1,99,9,99,9,99999,9,99,9,99,9","10180,1,99999,9",,,,,"MET056METAR ETNJ 192120Z 13002KT 9999 SCT270 12/10 Q1018 BLU/;",
"10122099999","2010-08-19T22:20:00","4","53.5335","7.888667","7.31","JEVER, GM","FM-15","ETNJ ","V020","130,1,N,0010,1","07500,1,C,N","011265,1,N,1","+0120,1","+0100,1","99999,9",,"07,5,+07500,1,99,9",,,"07,99,1,99,9,99,9,99999,9,99,9,99,9","10180,1,99999,9",,,,,"MET056METAR ETNJ 192220Z 13002KT 9999 BKN250 12/10 Q1018 BLU/;",
"10122099999","2010-08-19T23:20:00","4","53.5335","7.888667","7.31","JEVER, GM","FM-15","ETNJ ","V020","190,1,N,0031,1","22000,1,9,N","011265,1,N,1","+0120,1","+0110,1","99999,9",,"04,5,+07500,1,99,9",,,"04,99,1,99,9,99,9,99999,9,99,9,99,9","10180,1,99999,9",,,,,"MET056METAR ETNJ 192320Z 19006KT 9999 SCT250 12/11 Q1018 BLU/;",
"10122099999","2010-08-20T00:20:00","4","53.5335","7.888667","7.31","JEVER, GM","FM-15","ETNJ ","V020","180,1,N,0031,1","22000,1,9,N","011265,1,N,1","+0130,1","+0100,1","99999,9",,"04,5,+07500,1,99,9",,,"04,99,1,99,9,99,9,99999,9,99,9,99,9","10180,1,99999,9",,,,,"MET056METAR ETNJ 200020Z 18006KT 9999 SCT250 13/10 Q1018 BLU/;",
"10122099999","2010-08-20T01:20:00","4","53.5335","7.888667","7.31","JEVER, GM","FM-15","ETNJ ","V020","180,1,N,0031,1","07500,1,C,N","011265,1,N,1","+0120,1","+0100,1","99999,9",,"07,5,+07500,1,99,9",,,"07,99,1,99,9,99,9,99999,9,99,9,99,9","10180,1,99999,9",,,,,"MET056METAR ETNJ 200120Z 18006KT 9999 BKN250 12/10 Q1018 BLU/;",
"10122099999","2010-08-20T02:20:00","4","53.5335","7.888667","7.31","JEVER, GM","FM-15","ETNJ ","V020","160,1,N,0026,1","07500,1,C,N","011265,1,N,1","+0130,1","+0110,1","99999,9",,"04,5,+03000,1,99,9","07,5,+07500,1,99,9",,"07,99,1,99,9,99,9,99999,9,99,9,99,9","10180,1,99999,9",,,,,"MET063METAR ETNJ 200220Z 16005KT 9999 SCT100 BKN250 13/11 Q1018 BLU/;",
"10122099999","2010-08-20T03:20:00","4","53.5335","7.888667","7.31","JEVER, GM","FM-15","ETNJ ","V020","160,1,N,0021,1","03000,1,C,N","011265,1,N,1","+0130,1","+0110,1","99999,9",,"07,5,+03000,1,99,9",,,"07,99,1,99,9,99,9,99999,9,99,9,99,9","10180,1,99999,9",,,,,"MET055METAR ETNJ 200320Z 16004KT 9999 BKN100 13/11 Q1018 BLU;",
"10122099999","2010-08-20T04:20:00","4","53.5335","7.888667","7.31","JEVER, GM","FM-15","ETNJ ","V020","160,1,N,0026,1","02400,1,C,N","009000,1,N,1","+0140,1","+0120,1","99999,9",,"02,5,+01200,1,99,9","07,5,+02400,1,99,9",,"07,99,1,99,9,99,9,99999,9,99,9,99,9","10180,1,99999,9","61,1",,,,"MET070METAR ETNJ 200420Z 16005KT 9000 -RA FEW040 BKN080 14/12 Q1018 BLU BLU;",
"10122099999","2010-08-20T05:20:00","4","53.5335","7.888667","7.31","JEVER, GM","FM-15","ETNJ ","V020","150,1,N,0031,1","01500,1,C,N","009000,1,N,1","+0140,1","+0120,1","99999,9",,"07,5,+01500,1,99,9","07,5,+02400,1,99,9",,"07,99,1,99,9,99,9,99999,9,99,9,99,9","10180,1,99999,9","61,1",,,,"MET070METAR ETNJ 200520Z 15006KT 9000 -RA BKN050 BKN080 14/12 Q1018 BLU BLU;",
"10122099999","2010-08-20T06:20:00","4","53.5335","7.888667","7.31","JEVER, GM","FM-15","ETNJ ","V020","150,1,N,0031,1","02100,1,C,N","011265,1,N,1","+0160,1","+0130,1","99999,9",,"07,5,+02100,1,99,9","07,5,+06600,1,99,9",,"07,99,1,99,9,99,9,99999,9,99,9,99,9","10180,1,99999,9",,,,,"MET066METAR ETNJ 200620Z 15006KT 9999 BKN070 BKN220 16/13 Q1018 BLU BLU;",
"10122099999","2010-08-20T07:20:00","4","53.5335","7.888667","7.31","JEVER, GM","FM-15","ETNJ ","V020","170,1,N,0031,1","01800,1,C,N","011265,1,N,1","+0170,1","+0130,1","99999,9",,"07,5,+01800,1,99,9",,,"07,99,1,99,9,99,9,99999,9,99,9,99,9","10180,1,99999,9",,,,,"MET059METAR ETNJ 200720Z 17006KT 9999 BKN060 17/13 Q1018 BLU BLU;",
"10122099999","2010-08-20T08:20:00","4","53.5335","7.888667","7.31","JEVER, GM","FM-15","ETNJ ","V020","180,1,N,0031,1","01800,1,C,N","011265,1,N,1","+0190,1","+0140,1","99999,9",,"07,5,+01800,1,99,9",,,"07,99,1,99,9,99,9,99999,9,99,9,99,9","10180,1,99999,9",,,,,"MET059METAR ETNJ 200820Z 18006KT 9999 BKN060 19/14 Q1018 BLU BLU;",
"10122099999","2010-08-20T09:20:00","4","53.5335","7.888667","7.31","JEVER, GM","FM-15","ETNJ ","V020","200,1,N,0036,1","01800,1,C,N","011265,1,N,1","+0220,1","+0140,1","99999,9",,"07,5,+01800,1,99,9",,,"07,99,1,99,9,99,9,99999,9,99,9,99,9","10180,1,99999,9",,,,,"MET059METAR ETNJ 200920Z 20007KT 9999 BKN060 22/14 Q1018 BLU BLU;",
"10122099999","2010-08-20T10:20:00","4","53.5335","7.888667","7.31","JEVER, GM","FM-15","ETNJ ","V020","210,1,N,0046,1","01800,1,C,N","011265,1,N,1","+0230,1","+0130,1","99999,9",,"07,5,+01800,1,99,9",,,"07,99,1,99,9,99,9,99999,9,99,9,99,9","10180,1,99999,9",,,,,"MET055METAR ETNJ 201020Z 21009KT 9999 BKN060 23/13 Q1018 BLU;",
"10122099999","2010-08-20T11:20:00","4","53.5335","7.888667","7.31","JEVER, GM","FM-15","ETNJ ","V020","200,1,N,0051,1","01800,1,C,N","011265,1,N,1","+0240,1","+0120,1","99999,9",,"07,5,+01800,1,99,9","07,5,+04200,1,99,9",,"07,99,1,99,9,99,9,99999,9,99,9,99,9","10180,1,99999,9",,,,,"MET062METAR ETNJ 201120Z 20010KT 9999 BKN060 BKN140 24/12 Q1018 BLU;",
"10122099999","2010-08-20T12:20:00","4","53.5335","7.888667","7.31","JEVER, GM","FM-15","ETNJ ","V020","220,1,N,0057,1","01800,1,C,N","011265,1,N,1","+0250,1","+0120,1","99999,9",,"07,5,+01800,1,99,9",,,"07,99,1,99,9,99,9,99999,9,99,9,99,9","10180,1,99999,9",,,,,"MET055METAR ETNJ 201220Z 22011KT 9999 BKN060 25/12 Q1018 BLU;",
"10122099999","2010-08-20T13:20:00","4","53.5335","7.888667","7.31","JEVER, GM","FM-15","ETNJ ","V020","200,1,N,0051,1","01800,1,C,N","011265,1,N,1","+0260,1","+0130,1","99999,9",,"07,5,+01800,1,99,9",,,"07,99,1,99,9,99,9,99999,9,99,9,99,9","10180,1,99999,9",,,,,"MET055METAR ETNJ 201320Z 20010KT 9999 BKN060 26/13 Q1018 BLU;",
"10122099999","2010-08-20T14:20:00","4","53.5335","7.888667","7.31","JEVER, GM","FM-15","ETNJ ","V020","220,1,N,0051,1","02100,1,C,N","011265,1,N,1","+0260,1","+0130,1","99999,9",,"07,5,+02100,1,99,9",,,"07,99,1,99,9,99,9,99999,9,99,9,99,9","10169,1,99999,9",,,,,"MET055METAR ETNJ 201420Z 22010KT 9999 BKN070 26/13 Q1017 BLU;",
"10122099999","2010-08-20T15:20:00","4","53.5335","7.888667","7.31","JEVER, GM","FM-15","ETNJ ","V020","230,1,N,0041,1","02100,1,C,N","011265,1,N,1","+0260,1","+0130,1","99999,9",,"07,5,+02100,1,99,9",,,"07,99,1,99,9,99,9,99999,9,99,9,99,9","10169,1,99999,9",,,,,"MET055METAR ETNJ 201520Z 23008KT 9999 BKN070 26/13 Q1017 BLU;",
"10122099999","2010-08-20T16:20:00","4","53.5335","7.888667","7.31","JEVER, GM","FM-15","ETNJ ","V020","230,1,N,0036,1","05100,1,C,N","011265,1,N,1","+0260,1","+0130,1","99999,9",,"04,5,+02100,1,99,9","07,5,+05100,1,99,9",,"07,99,1,99,9,99,9,99999,9,99,9,99,9","10180,1,99999,9",,,,,"MET062METAR ETNJ 201620Z 23007KT 9999 SCT070 BKN170 26/13 Q1018 BLU;",
"10122099999","2010-08-20T17:20:00","4","53.5335","7.888667","7.31","JEVER, GM","FM-15","ETNJ ","V020","240,1,N,0036,1","05100,1,C,N","011265,1,N,1","+0250,1","+0130,1","99999,9",,"02,5,+03600,1,99,9","07,5,+05100,1,99,9",,"07,99,1,99,9,99,9,99999,9,99,9,99,9","10180,1,99999,9",,,,,"MET062METAR ETNJ 201720Z 24007KT 9999 FEW120 BKN170 25/13 Q1018 BLU;",
"10122099999","2010-08-20T18:20:00","4","53.5335","7.888667","7.31","JEVER, GM","FM-15","ETNJ ","V020","200,1,N,0021,1","09000,1,C,N","011265,1,N,1","+0230,1","+0140,1","99999,9",,"04,5,+05100,1,99,9","07,5,+09000,1,99,9",,"07,99,1,99,9,99,9,99999,9,99,9,99,9","10180,1,99999,9",,,,,"MET063METAR ETNJ 201820Z 20004KT 9999 SCT170 BKN300 23/14 Q1018 BLU/;",
"10122099999","2010-08-20T19:20:00","4","53.5335","7.888667","7.31","JEVER, GM","FM-15","ETNJ ","V020","170,1,N,0021,1","99999,9,C,N","011265,1,N,1","+0200,1","+0140,1","99999,9",,"02,5,+05100,1,99,9","04,5,+09000,1,99,9",,"04,99,1,99,9,99,9,99999,9,99,9,99,9","10180,1,99999,9",,,,,"MET063METAR ETNJ 201920Z 17004KT 9999 FEW170 SCT300 20/14 Q1018 BLU/;","P01 090003SCOCIG"
"10122099999","2010-08-20T20:20:00","4","53.5335","7.888667","7.31","JEVER, GM","FM-15","ETNJ ","V020","150,1,N,0021,1","22000,1,9,N","011265,1,N,1","+0190,1","+0140,1","99999,9",,"02,5,+09000,1,99,9",,,"02,99,1,99,9,99,9,99999,9,99,9,99,9","10180,1,99999,9",,,,,"MET056METAR ETNJ 202020Z 15004KT 9999 FEW300 19/14 Q1018 BLU/;",
"10122099999","2010-08-20T21:20:00","4","53.5335","7.888667","7.31","JEVER, GM","FM-15","ETNJ ","V020","150,1,N,0026,1","22000,1,9,N","011265,1,N,1","+0180,1","+0140,1","99999,9",,"02,5,+09000,1,99,9",,,"02,99,1,99,9,99,9,99999,9,99,9,99,9","10180,1,99999,9",,,,,"MET056METAR ETNJ 202120Z 15005KT 9999 FEW300 18/14 Q1018 BLU/;",
"10122099999","2010-08-20T22:20:00","4","53.5335","7.888667","7.31","JEVER, GM","FM-15","ETNJ ","V020","160,1,N,0026,1","22000,1,9,N","011265,1,N,1","+0180,1","+0140,1","99999,9",,"02,5,+09000,1,99,9",,,"02,99,1,99,9,99,9,99999,9,99,9,99,9","10180,1,99999,9",,,,,"MET056METAR ETNJ 202220Z 16005KT 9999 FEW300 18/14 Q1018 BLU/;",
"10122099999","2010-08-20T23:20:00","4","53.5335","7.888667","7.31","JEVER, GM","FM-15","ETNJ ","V020","220,1,N,0026,1","22000,1,9,N","011265,1,N,1","+0190,1","+0150,1","99999,9",,"02,5,+03000,1,99,9",,,"02,99,1,99,9,99,9,99999,9,99,9,99,9","10180,1,99999,9",,,,,"MET056METAR ETNJ 202320Z 22005KT 9999 FEW100 19/15 Q1018 BLU/;",
"10122099999","2010-08-21T00:20:00","4","53.5335","7.888667","7.31","JEVER, GM","FM-15","ETNJ ","V020","220,1,N,0021,1","22000,1,9,N","011265,1,N,1","+0170,1","+0140,1","99999,9",,"02,5,+03000,1,99,9",,,"02,99,1,99,9,99,9,99999,9,99,9,99,9","10180,1,99999,9",,,,,"MET056METAR ETNJ 210020Z 22004KT 9999 FEW100 17/14 Q1018 BLU/;",
"10122099999","2010-08-21T01:20:00","4","53.5335","7.888667","7.31","JEVER, GM","FM-15","ETNJ ","V020","220,1,N,0026,1","22000,1,9,N","011265,1,N,1","+0170,1","+0140,1","99999,9",,"02,5,+01200,1,99,9",,,"02,99,1,99,9,99,9,99999,9,99,9,99,9","10180,1,99999,9",,,,,"MET056METAR ETNJ 210120Z 22005KT 9999 FEW040 17/14 Q1018 BLU/;",
"10122099999","2010-08-21T02:20:00","4","53.5335","7.888667","7.31","JEVER, GM","FM-15","ETNJ ","V020","200,1,N,0015,1","22000,1,9,N","011265,1,N,1","+0170,1","+0130,1","99999,9",,"02,5,+03600,1,99,9",,,"02,99,1,99,9,99,9,99999,9,99,9,99,9","10180,1,99999,9",,,,,"MET056METAR ETNJ 210220Z 20003KT 9999 FEW120 17/13 Q1018 BLU/;",
"10122099999","2010-08-21T03:20:00","4","53.5335","7.888667","7.31","JEVER, GM","FM-15","ETNJ ","V020","220,1,N,0026,1","22000,1,9,N","011265,1,N,1","+0160,1","+0130,1","99999,9",,"02,5,+03600,1,99,9",,,"02,99,1,99,9,99,9,99999,9,99,9,99,9","10180,1,99999,9",,,,,"MET056METAR ETNJ 210320Z 22005KT 9999 FEW120 16/13 Q1018 BLU/;",
"10122099999","2010-08-21T04:20:00","4","53.5335","7.888667","7.31","JEVER, GM","FM-15","ETNJ ","V020","220,1,N,0015,1","99999,9,C,N","011265,1,N,1","+0150,1","+0130,1","99999,9",,"02,5,+03600,1,99,9","04,5,+09000,1,99,9",,"04,99,1,99,9,99,9,99999,9,99,9,99,9","10190,1,99999,9",,,,,"MET063METAR ETNJ 210420Z 22003KT 9999 FEW120 SCT300 15/13 Q1019 BLU/;","P01 090003SCOCIG"
"10122099999","2010-08-21T05:20:00","4","53.5335","7.888667","7.31","JEVER, GM","FM-15","ETNJ ","V020","200,1,N,0021,1","99999,9,C,N","011265,1,N,1","+0170,1","+0150,1","99999,9",,"02,5,+03600,1,99,9","04,5,+09000,1,99,9",,"04,99,1,99,9,99,9,99999,9,99,9,99,9","10190,1,99999,9",,,,,"MET063METAR ETNJ 210520Z 20004KT 9999 FEW120 SCT300 17/15 Q1019 BLU/;","P01 090003SCOCIG"
"10122099999","2010-08-21T06:20:00","4","53.5335","7.888667","7.31","JEVER, GM","FM-15","ETNJ ","V020","210,1,N,0031,1","99999,9,C,N","011265,1,N,1","+0200,1","+0170,1","99999,9",,"02,5,+00360,1,99,9","04,5,+09000,1,99,9",,"04,99,1,99,9,99,9,99999,9,99,9,99,9","10190,1,99999,9",,,,,"MET063METAR ETNJ 210620Z 21006KT 9999 FEW012 SCT300 20/17 Q1019 BLU/;","P01 090003SCOCIG"
"10122099999","2010-08-21T07:20:00","4","53.5335","7.888667","7.31","JEVER, GM","FM-15","ETNJ ","V020","220,1,N,0031,1","00600,1,C,N","011265,1,N,1","+0200,1","+0170,1","99999,9",,"02,5,+00360,1,99,9","07,5,+00600,1,99,9",,"07,99,1,99,9,99,9,99999,9,99,9,99,9","10190,1,99999,9",,,,,"MET062METAR ETNJ 210720Z 22006KT 9999 FEW012 BKN020 20/17 Q1019 WHT;",
"10122099999","2010-08-21T08:20:00","4","53.5335","7.888667","7.31","JEVER, GM","FM-15","ETNJ ","V020","240,1,N,0051,1","00600,1,C,N","011265,1,N,1","+0210,1","+0170,1","99999,9",,"02,5,+00360,1,99,9","07,5,+00600,1,99,9",,"07,99,1,99,9,99,9,99999,9,99,9,99,9","10200,1,99999,9",,,,,"MET062METAR ETNJ 210820Z 24010KT 9999 FEW012 BKN020 21/17 Q1020 WHT;",
"10122099999","2010-08-21T09:20:00","4","53.5335","7.888667","7.31","JEVER, GM","FM-15","ETNJ ","V020","250,1,N,0057,1","00540,1,C,N","011265,1,N,1","+0210,1","+0170,1","99999,9",,"07,5,+00540,1,99,9",,,"07,99,1,99,9,99,9,99999,9,99,9,99,9","10200,1,99999,9",,,,,"MET055METAR ETNJ 210920Z 25011KT 9999 BKN018 21/17 Q1020 WHT;",
"10122099999","2010-08-21T10:20:00","4","53.5335","7.888667","7.31","JEVER, GM","FM-15","ETNJ ","V020","250,1,N,0057,1","00510,1,C,N","011265,1,N,1","+0230,1","+0180,1","99999,9",,"07,5,+00510,1,99,9",,,"07,99,1,99,9,99,9,99999,9,99,9,99,9","10200,1,99999,9",,,,,"MET055METAR ETNJ 211020Z 25011KT 9999 BKN017 23/18 Q1020 WHT;",
"10122099999","2010-08-21T11:20:00","4","53.5335","7.888667","7.31","JEVER, GM","FM-15","ETNJ ","V020","240,1,N,0046,1","00600,1,C,N","011265,1,N,1","+0230,1","+0180,1","99999,9",,"07,5,+00600,1,99,9",,,"07,99,1,99,9,99,9,99999,9,99,9,99,9","10200,1,99999,9",,,,,"MET055METAR ETNJ 211120Z 24009KT 9999 BKN020 23/18 Q1020 WHT;",
"10122099999","2010-08-21T12:20:00","4","53.5335","7.888667","7.31","JEVER, GM","FM-15","ETNJ ","V020","250,1,N,0062,1","00660,1,C,N","011265,1,N,1","+0230,1","+0180,1","99999,9",,"07,5,+00660,1,99,9",,,"07,99,1,99,9,99,9,99999,9,99,9,99,9","10200,1,99999,9",,,,,"MET055METAR ETNJ 211220Z 25012KT 9999 BKN022 23/18 Q1020 WHT;",
"10122099999","2010-08-21T13:20:00","4","53.5335","7.888667","7.31","JEVER, GM","FM-15","ETNJ ","V020","260,1,N,0067,1","00660,1,C,N","011265,1,N,1","+0240,1","+0180,1","99999,9",,"07,5,+00660,1,99,9","07,5,+01200,1,99,9",,"07,99,1,99,9,99,9,99999,9,99,9,99,9","10190,1,99999,9",,,,,"MET062METAR ETNJ 211320Z 26013KT 9999 BKN022 BKN040 24/18 Q1019 WHT;",
"10122099999","2010-08-21T14:20:00","4","53.5335","7.888667","7.31","JEVER, GM","FM-15","ETNJ ","V020","250,1,N,0067,1","01200,1,C,N","011265,1,N,1","+0240,1","+0170,1","99999,9",,"04,5,+00690,1,99,9","07,5,+01200,1,99,9",,"07,99,1,99,9,99,9,99999,9,99,9,99,9","10190,1,99999,9",,,,,"MET062METAR ETNJ 211420Z 25013KT 9999 SCT023 BKN040 24/17 Q1019 BLU;",
"10122099999","2010-08-21T15:20:00","4","53.5335","7.888667","7.31","JEVER, GM","FM-15","ETNJ ","V020","250,1,N,0062,1","01260,1,C,N","011265,1,N,1","+0230,1","+0170,1","99999,9",,"02,5,+00690,1,99,9","07,5,+01260,1,99,9",,"07,99,1,99,9,99,9,99999,9,99,9,99,9","10190,1,99999,9",,,,,"MET062METAR ETNJ 211520Z 25012KT 9999 FEW023 BKN042 23/17 Q1019 BLU;",
"10122099999","2010-08-21T16:20:00","4","53.5335","7.888667","7.31","JEVER, GM","FM-15","ETNJ ","V020","260,1,N,0046,1","01350,1,C,N","011265,1,N,1","+0230,1","+0170,1","99999,9",,"02,5,+00690,1,99,9","07,5,+01350,1,99,9",,"07,99,1,99,9,99,9,99999,9,99,9,99,9","10190,1,99999,9",,,,,"MET062METAR ETNJ 211620Z 26009KT 9999 FEW023 BKN045 23/17 Q1019 BLU;",
"10122099999","2010-08-21T17:20:00","4","53.5335","7.888667","7.31","JEVER, GM","FM-15","ETNJ ","V020","240,1,N,0041,1","01500,1,C,N","011265,1,N,1","+0230,1","+0170,1","99999,9",,"07,5,+01500,1,99,9",,,"07,99,1,99,9,99,9,99999,9,99,9,99,9","10190,1,99999,9",,,,,"MET055METAR ETNJ 211720Z 24008KT 9999 BKN050 23/17 Q1019 BLU;",
"10122099999","2010-08-21T18:20:00","4","53.5335","7.888667","7.31","JEVER, GM","FM-15","ETNJ ","V020","240,1,N,0026,1","22000,1,9,N","011265,1,N,1","+0220,1","+0170,1","99999,9",,"04,5,+01500,1,99,9",,,"04,99,1,99,9,99,9,99999,9,99,9,99,9","10180,1,99999,9",,,,,"MET056METAR ETNJ 211820Z 24005KT 9999 SCT050 22/17 Q1018 BLU/;",
"10122099999","2010-08-21T19:20:00","4","53.5335","7.888667","7.31","JEVER, GM","FM-15","ETNJ ","V020","190,1,N,0015,1","01350,1,C,N","011265,1,N,1","+0200,1","+0160,1","99999,9",,"07,5,+01350,1,99,9",,,"07,99,1,99,9,99,9,99999,9,99,9,99,9","10180,1,99999,9",,,,,"MET055METAR ETNJ 211920Z 19003KT 9999 BKN045 20/16 Q1018 BLU;",
"10122099999","2010-08-21T20:20:00","4","53.5335","7.888667","7.31","JEVER, GM","FM-15","ETNJ ","V020","200,1,N,0021,1","01080,1,C,N","011265,1,N,1","+0210,1","+0180,1","99999,9",,"07,5,+01080,1,99,9",,,"07,99,1,99,9,99,9,99999,9,99,9,99,9","10180,1,99999,9",,,,,"MET055METAR ETNJ 212020Z 20004KT 9999 BKN036 21/18 Q1018 BLU;",
"10122099999","2010-08-21T21:20:00","4","53.5335","7.888667","7.31","JEVER, GM","FM-15","ETNJ ","V020","200,1,N,0026,1","02100,1,C,N","011265,1,N,1","+0210,1","+0170,1","99999,9",,"04,5,+01050,1,99,9","07,5,+02100,1,99,9",,"07,99,1,99,9,99,9,99999,9,99,9,99,9","10169,1,99999,9",,,,,"MET062METAR ETNJ 212120Z 20005KT 9999 SCT035 BKN070 21/17 Q1017 BLU;",
"10122099999","2010-08-21T22:20:00","4","53.5335","7.888667","7.31","JEVER, GM","FM-15","ETNJ ","V020","210,1,N,0026,1","02100,1,C,N","011265,1,N,1","+0210,1","+0170,1","99999,9",,"04,5,+00900,1,99,9","07,5,+02100,1,99,9",,"07,99,1,99,9,99,9,99999,9,99,9,99,9","10169,1,99999,9",,,,,"MET062METAR ETNJ 212220Z 21005KT 9999 SCT030 BKN070 21/17 Q1017 BLU;",
"10122099999","2010-08-21T23:20:00","4","53.5335","7.888667","7.31","JEVER, GM","FM-15","ETNJ ","V020","230,1,N,0036,1","02400,1,C,N","011265,1,N,1","+0210,1","+0170,1","99999,9",,"04,5,+00900,1,99,9","07,5,+02400,1,99,9",,"07,99,1,99,9,99,9,99999,9,99,9,99,9","10169,1,99999,9",,,,,"MET062METAR ETNJ 212320Z 23007KT 9999 SCT030 BKN080 21/17 Q1017 BLU;",
"10122099999","2010-08-22T00:20:00","4","53.5335","7.888667","7.31","JEVER, GM","FM-15","ETNJ ","V020","240,1,N,0046,1","02400,1,C,N","011265,1,N,1","+0210,1","+0170,1","99999,9",,"02,5,+01500,1,99,9","07,5,+02400,1,99,9",,"07,99,1,99,9,99,9,99999,9,99,9,99,9","10159,1,99999,9",,,,,"MET062METAR ETNJ 220020Z 24009KT 9999 FEW050 BKN080 21/17 Q1016 BLU;",
"10122099999","2010-08-22T01:20:00","4","53.5335","7.888667","7.31","JEVER, GM","FM-15","ETNJ ","V020","230,1,N,0031,1","00960,1,C,N","011265,1,N,1","+0200,1","+0160,1","99999,9",,"07,5,+00960,1,99,9","07,5,+02100,1,99,9",,"07,99,1,99,9,99,9,99999,9,99,9,99,9","10159,1,99999,9",,,,,"MET062METAR ETNJ 220120Z 23006KT 9999 BKN032 BKN070 20/16 Q1016 BLU;",
"10122099999","2010-08-22T02:20:00","4","53.5335","7.888667","7.31","JEVER, GM","FM-15","ETNJ ","V020","240,1,N,0031,1","01500,1,C,N","011265,1,N,1","+0200,1","+0160,1","99999,9",,"02,5,+00900,1,99,9","07,5,+01500,1,99,9",,"07,99,1,99,9,99,9,99999,9,99,9,99,9","10149,1,99999,9",,,,,"MET062METAR ETNJ 220220Z 24006KT 9999 FEW030 BKN050 20/16 Q1015 BLU;",
"10122099999","2010-08-22T03:20:00","4","53.5335","7.888667","7.31","JEVER, GM","FM-15","ETNJ ","V020","230,1,N,0041,1","05100,1,C,N","011265,1,N,1","+0190,1","+0160,1","99999,9",,"02,5,+00600,1,99,9","07,5,+05100,1,99,9",,"07,99,1,99,9,99,9,99999,9,99,9,99,9","10149,1,99999,9",,,,,"MET062METAR ETNJ 220320Z 23008KT 9999 FEW020 BKN170 19/16 Q1015 BLU;",
"10122099999","2010-08-22T04:20:00","4","53.5335","7.888667","7.31","JEVER, GM","FM-15","ETNJ ","V020","230,1,N,0036,1","00450,1,C,N","011265,1,N,1","+0190,1","+0160,1","99999,9",,"07,5,+00450,1,99,9",,,"07,99,1,99,9,99,9,99999,9,99,9,99,9","10139,1,99999,9",,,,,"MET055METAR ETNJ 220420Z 23007KT 9999 BKN015 19/16 Q1014 WHT;",
"10122099999","2010-08-22T05:20:00","4","53.5335","7.888667","7.31","JEVER, GM","FM-15","ETNJ ","V020","230,1,N,0041,1","00450,1,C,N","011265,1,N,1","+0190,1","+0160,1","99999,9",,"07,5,+00450,1,99,9",,,"07,99,1,99,9,99,9,99999,9,99,9,99,9","10139,1,99999,9",,,,,"MET055METAR ETNJ 220520Z 23008KT 9999 BKN015 19/16 Q1014 WHT;",
"10122099999","2010-08-22T06:20:00","4","53.5335","7.888667","7.31","JEVER, GM","FM-15","ETNJ ","V020","240,1,N,0036,1","00450,1,C,N","011265,1,N,1","+0200,1","+0170,1","99999,9",,"07,5,+00450,1,99,9",,,"07,99,1,99,9,99,9,99999,9,99,9,99,9","10139,1,99999,9",,,,,"MET055METAR ETNJ 220620Z 24007KT 9999 BKN015 20/17 Q1014 WHT;",
"10122099999","2010-08-22T07:20:00","4","53.5335","7.888667","7.31","JEVER, GM","FM-15","ETNJ ","V020","230,1,N,0041,1","00600,1,C,N","011265,1,N,1","+0200,1","+0170,1","99999,9",,"04,5,+00330,1,99,9","07,5,+00600,1,99,9",,"07,99,1,99,9,99,9,99999,9,99,9,99,9","10139,1,99999,9",,,,,"MET062METAR ETNJ 220720Z 23008KT 9999 SCT011 BKN020 20/17 Q1014 WHT;",
"10122099999","2010-08-22T08:20:00","4","53.5335","7.888667","7.31","JEVER, GM","FM-15","ETNJ ","V020","230,1,N,0036,1","00360,1,C,N","011265,1,N,1","+0210,1","+0170,1","99999,9",,"07,5,+00360,1,99,9","07,5,+00600,1,99,9",,"07,99,1,99,9,99,9,99999,9,99,9,99,9","10139,1,99999,9",,,,,"MET062METAR ETNJ 220820Z 23007KT 9999 BKN012 BKN020 21/17 Q1014 GRN;",
"10122099999","2010-08-22T09:20:00","4","53.5335","7.888667","7.31","JEVER, GM","FM-15","ETNJ ","V020","230,1,N,0041,1","00420,1,C,N","011265,1,N,1","+0210,1","+0170,1","99999,9",,"07,5,+00420,1,99,9","07,5,+00960,1,99,9",,"07,99,1,99,9,99,9,99999,9,99,9,99,9","10139,1,99999,9",,,,,"MET062METAR ETNJ 220920Z 23008KT 9999 BKN014 BKN032 21/17 Q1014 GRN;",
"10122099999","2010-08-22T09:45:00","4","53.5335","7.888667","7.31","JEVER, GM","FM-16","ETNJ ","V020","240,1,N,0041,1","00690,1,C,N","011265,1,N,1","+0210,1","+0170,1","99999,9",,"04,5,+00450,1,99,9","07,5,+00690,1,99,9",,"07,99,1,99,9,99,9,99999,9,99,9,99,9","10139,1,99999,9",,,,,"MET062SPECI ETNJ 220945Z 24008KT 9999 SCT015 BKN023 21/17 Q1014 WHT;",
"10122099999","2010-08-22T10:20:00","4","53.5335","7.888667","7.31","JEVER, GM","FM-15","ETNJ ","V020","230,1,N,0057,1","00960,1,C,N","011265,1,N,1","+0220,1","+0170,1","99999,9",,"02,5,+00660,1,99,9","07,5,+00960,1,99,9",,"07,99,1,99,9,99,9,99999,9,99,9,99,9","10129,1,99999,9",,,,,"MET062METAR ETNJ 221020Z 23011KT 9999 FEW022 BKN032 22/17 Q1013 BLU;",
"10122099999","2010-08-22T11:20:00","4","53.5335","7.888667","7.31","JEVER, GM","FM-15","ETNJ ","V020","240,1,N,0051,1","99999,9,C,N","011265,1,N,1","+0220,1","+0180,1","99999,9",,"04,5,+00510,1,99,9","04,5,+00870,1,99,9",,"04,99,1,99,9,99,9,99999,9,99,9,99,9","10129,1,99999,9",,,,,"MET063METAR ETNJ 221120Z 24010KT 9999 SCT017 SCT029 22/18 Q1013 BLU/;","P01 008703SCOCIG"
"10122099999","2010-08-22T12:20:00","4","53.5335","7.888667","7.31","JEVER, GM","FM-15","ETNJ ","V020","230,1,N,0036,1","01350,1,C,N","011265,1,N,1","+0220,1","+0170,1","99999,9",,"04,5,+00540,1,99,9","07,5,+01350,1,99,9",,"07,99,1,99,9,99,9,99999,9,99,9,99,9","10129,1,99999,9",,,,,"MET062METAR ETNJ 221220Z 23007KT 9999 SCT018 BKN045 22/17 Q1013 BLU;",
"10122099999","2010-08-22T13:20:00","4","53.5335","7.888667","7.31","JEVER, GM","FM-15","ETNJ ","V020","230,1,N,0062,1","99999,9,C,N","011265,1,N,1","+0250,1","+0180,1","99999,9",,"02,5,+00600,1,02,1","04,5,+01500,1,99,9",,"04,99,1,99,9,99,9,99999,9,99,9,99,9","10119,1,99999,9",,,,,"MET066METAR ETNJ 221320Z 23012KT 9999 FEW020TCU SCT050 25/18 Q1012 BLU/;","P01 015003SCOCIG"
"10122099999","2010-08-22T14:03:00","4","53.5335","7.888667","7.31","JEVER, GM","FM-16","ETNJ ","V020","250,1,N,0082,1","01500,1,C,N","004000,1,N,1","+0210,1","+0170,1","99999,9",,"04,5,+00600,1,02,1","07,5,+01500,1,99,9",,"07,99,1,99,9,99,9,99999,9,99,9,99,9","10119,1,99999,9","81,1",,,,"MET070SPECI ETNJ 221403Z 25016KT 4000 SHRA SCT020TCU BKN050 21/17 Q1012 GRN;",
"10122099999","2010-08-22T14:20:00","4","53.5335","7.888667","7.31","JEVER, GM","FM-15","ETNJ ","V020","260,1,N,0067,1","01230,1,C,N","008000,1,N,1","+0190,1","+0170,1","99999,9",,"04,5,+00600,1,02,1","07,5,+01230,1,99,9",,"07,99,1,99,9,99,9,99999,9,99,9,99,9","10119,1,99999,9","80,1",,,,"MET076METAR ETNJ 221420Z 26013KT 8000 -SHRA SCT020TCU BKN041 19/17 Q1012 RERA BLU;",
"10122099999","2010-08-22T15:20:00","4","53.5335","7.888667","7.31","JEVER, GM","FM-15","ETNJ ","V020","290,1,N,0041,1","01200,1,C,N","011265,1,N,1","+0210,1","+0180,1","99999,9",,"02,5,+00540,1,99,9","04,5,+01200,1,99,9","07,5,+06900,1,99,9","07,99,1,99,9,99,9,99999,9,99,9,99,9","10108,1,99999,9",,,,,"MET070METAR ETNJ 221520Z 29008KT 9999 FEW018 SCT040 BKN230 21/18 Q1011 BLU/;",
"10122099999","2010-08-22T16:20:00","4","53.5335","7.888667","7.31","JEVER, GM","FM-15","ETNJ ","V020","300,1,N,0062,1","01500,1,C,N","011265,1,N,1","+0200,1","+0170,1","99999,9",,"04,5,+00390,1,99,9","07,5,+01500,1,99,9",,"07,99,1,99,9,99,9,99999,9,99,9,99,9","10108,1,99999,9",,,,,"MET062METAR ETNJ 221620Z 30012KT 9999 SCT013 BKN050 20/17 Q1011 BLU;",
"10122099999","2010-08-22T17:20:00","4","53.5335","7.888667","7.31","JEVER, GM","FM-15","ETNJ ","V020","320,1,N,0036,1","01500,1,C,N","011265,1,N,1","+0200,1","+0160,1","99999,9",,"04,5,+00390,1,99,9","07,5,+01500,1,99,9",,"07,99,1,99,9,99,9,99999,9,99,9,99,9","10108,1,99999,9",,,,,"MET062METAR ETNJ 221720Z 32007KT 9999 SCT013 BKN050 20/16 Q1011 BLU;",
"10122099999","2010-08-22T18:20:00","4","53.5335","7.888667","7.31","JEVER, GM","FM-15","ETNJ ","V020","300,1,N,0026,1","01500,1,C,N","011265,1,N,1","+0190,1","+0150,1","99999,9",,"04,5,+00390,1,99,9","07,5,+01500,1,99,9",,"07,99,1,99,9,99,9,99999,9,99,9,99,9","10119,1,99999,9",,,,,"MET062METAR ETNJ 221820Z 30005KT 9999 SCT013 BKN050 19/15 Q1012 BLU;",
"10122099999","2010-08-22T19:20:00","4","53.5335","7.888667","7.31","JEVER, GM","FM-15","ETNJ ","V020","320,1,N,0026,1","01500,1,C,N","011265,1,N,1","+0180,1","+0150,1","99999,9",,"07,5,+01500,1,99,9",,,"07,99,1,99,9,99,9,99999,9,99,9,99,9","10119,1,99999,9",,,,,"MET055METAR ETNJ 221920Z 32005KT 9999 BKN050 18/15 Q1012 BLU;",
"10122099999","2010-08-22T20:20:00","4","53.5335","7.888667","7.31","JEVER, GM","FM-15","ETNJ ","V020","330,1,N,0021,1","03000,1,C,N","011265,1,N,1","+0170,1","+0150,1","99999,9",,"04,5,+01500,1,99,9","07,5,+03000,1,99,9",,"07,99,1,99,9,99,9,99999,9,99,9,99,9","10108,1,99999,9",,,,,"MET062METAR ETNJ 222020Z 33004KT 9999 SCT050 BKN100 17/15 Q1011 BLU;",
"10122099999","2010-08-22T21:20:00","4","53.5335","7.888667","7.31","JEVER, GM","FM-15","ETNJ ","V020","180,1,N,0005,1","02700,1,C,N","011265,1,N,1","+0160,1","+0150,1","99999,9",,"04,5,+01500,1,99,9","07,5,+02700,1,99,9",,"07,99,1,99,9,99,9,99999,9,99,9,99,9","10108,1,99999,9",,,,,"MET062METAR ETNJ 222120Z 18001KT 9999 SCT050 BKN090 16/15 Q1011 BLU;",
"10122099999","2010-08-22T22:20:00","4","53.5335","7.888667","7.31","JEVER, GM","FM-15","ETNJ ","V020","999,9,C,0000,1","02700,1,C,N","011265,1,N,1","+0160,1","+0140,1","99999,9",,"04,5,+01500,1,99,9","07,5,+02700,1,99,9",,"07,99,1,99,9,99,9,99999,9,99,9,99,9","10102,1,99999,9",,,,,"MET062METAR ETNJ 222220Z 00000KT 9999 SCT050 BKN090 16/14 Q1010 BLU;",
"10122099999","2010-08-22T23:20:00","4","53.5335","7.888667","7.31","JEVER, GM","FM-15","ETNJ ","V020","999,9,V,0005,1","03000,1,C,N","011265,1,N,1","+0150,1","+0130,1","99999,9",,"07,5,+03000,1,99,9",,,"07,99,1,99,9,99,9,99999,9,99,9,99,9","10102,1,99999,9","12,1",,,,"MET060METAR ETNJ 222320Z VRB01KT 9999 MIFG BKN100 15/13 Q1010 BLU;",
"10122099999","2010-08-22T23:21:00","4","53.5335","7.888667","7.31","JEVER, GM","FM-16","ETNJ ","V020","999,9,V,0005,1","03000,1,C,N","011265,1,N,1","+0140,1","+0130,1","99999,9",,"07,5,+03000,1,99,9",,,"07,99,1,99,9,99,9,99999,9,99,9,99,9","10102,1,99999,9","12,1",,,,"MET060SPECI ETNJ 222321Z VRB01KT 9999 MIFG BKN100 14/13 Q1010 BLU;",
"10122099999","2010-08-23T00:20:00","4","53.5335","7.888667","7.31","JEVER, GM","FM-15","ETNJ ","V020","120,1,N,0010,1","07500,1,C,N","011265,1,N,1","+0140,1","+0130,1","99999,9",,"02,5,+03000,1,99,9","07,5,+07500,1,99,9",,"07,99,1,99,9,99,9,99999,9,99,9,99,9","10091,1,99999,9","12,1",,,,"MET068METAR ETNJ 230020Z 12002KT 9999 MIFG FEW100 BKN250 14/13 Q1009 BLU/;",
"10122099999","2010-08-23T01:20:00","4","53.5335","7.888667","7.31","JEVER, GM","FM-15","ETNJ ","V020","130,1,N,0015,1","01200,1,C,N","011265,1,N,1","+0130,1","+0120,1","99999,9",,"07,5,+01200,1,99,9","07,5,+07500,1,99,9",,"07,99,1,99,9,99,9,99999,9,99,9,99,9","10091,1,99999,9","12,1",,,,"MET067METAR ETNJ 230120Z 13003KT 9999 MIFG BKN040 BKN250 13/12 Q1009 BLU;",
"10122099999","2010-08-23T02:20:00","4","53.5335","7.888667","7.31","JEVER, GM","FM-15","ETNJ ","V020","120,1,N,0015,1","01200,1,C,N","004000,1,N,1","+0140,1","+0130,1","99999,9",,"07,5,+01200,1,99,9","07,5,+07500,1,99,9",,"07,99,1,99,9,99,9,99999,9,99,9,99,9","10081,1,99999,9","10,1","12,1",,,"MET070METAR ETNJ 230220Z 12003KT 4000 MIFG BR BKN040 BKN250 14/13 Q1008 GRN;",
"10122099999","2010-08-23T03:20:00","4","53.5335","7.888667","7.31","JEVER, GM","FM-15","ETNJ ","V020","110,1,N,0021,1","00990,1,C,N","006000,1,N,1","+0140,1","+0130,1","99999,9",,"07,5,+00990,1,99,9","07,5,+02700,1,99,9",,"07,99,1,99,9,99,9,99999,9,99,9,99,9","10071,1,99999,9",,,,,"MET062METAR ETNJ 230320Z 11004KT 6000 BKN033 BKN090 14/13 Q1007 WHT;",
"10122099999","2010-08-23T04:20:00","4","53.5335","7.888667","7.31","JEVER, GM","FM-15","ETNJ ","V020","120,1,N,0026,1","00720,1,C,N","005000,1,N,1","+0150,1","+0150,1","99999,9",,"07,5,+00720,1,99,9","07,5,+00990,1,99,9",,"07,99,1,99,9,99,9,99999,9,99,9,99,9","10061,1,99999,9","10,1","61,1",,,"MET083METAR ETNJ 230420Z 12005KT 5000 -RA BR BKN024 BKN033 15/15 Q1006 WHT WHT BECMG YLO;",
"10122099999","2010-08-23T05:20:00","4","53.5335","7.888667","7.31","JEVER, GM","FM-15","ETNJ ","V020","130,1,N,0036,1","00660,1,C,N","004500,1,N,1","+0160,1","+0150,1","99999,9",,"02,5,+00150,1,99,9","07,5,+00660,1,99,9",,"07,99,1,99,9,99,9,99999,9,99,9,99,9","10051,1,99999,9","10,1","61,1",,,"MET083METAR ETNJ 230520Z 13007KT 4500 -RA BR FEW005 BKN022 16/15 Q1005 GRN GRN BECMG YLO;",
"10122099999","2010-08-23T06:08:00","4","53.5335","7.888667","7.31","JEVER, GM","FM-16","ETNJ ","V020","120,1,N,0046,1","00120,1,C,N","004500,1,N,1","+0170,1","+0160,1","99999,9",,"07,5,+00120,1,99,9","07,5,+00450,1,99,9",,"07,99,1,99,9,99,9,99999,9,99,9,99,9","10041,1,99999,9","10,1","61,1",,,"MET073SPECI ETNJ 230608Z 12009KT 4500 -RA BR BKN004 BKN015 17/16 Q1004 YLO YLO;",
"10122099999","2010-08-23T06:20:00","4","53.5335","7.888667","7.31","JEVER, GM","FM-15","ETNJ ","V020","120,1,N,0051,1","00120,1,C,N","004500,1,N,1","+0170,1","+0160,1","99999,9",,"07,5,+00120,1,99,9","07,5,+00450,1,99,9",,"07,99,1,99,9,99,9,99999,9,99,9,99,9","10031,1,99999,9","10,1","61,1",,,"MET073METAR ETNJ 230620Z 12010KT 4500 -RA BR BKN004 BKN015 17/16 Q1003 YLO YLO;",
"10122099999","2010-08-23T07:20:00","4","53.5335","7.888667","7.31","JEVER, GM","FM-15","ETNJ ","V020","130,1,N,0051,1","00120,1,C,N","004000,1,N,1","+0170,1","+0160,1","99999,9",,"07,5,+00120,1,99,9",,,"07,99,1,99,9,99,9,99999,9,99,9,99,9","10020,1,99999,9","10,1","61,1",,,"MET066METAR ETNJ 230720Z 13010KT 4000 -RA BR BKN004 17/16 Q1002 YLO YLO;",
"10122099999","2010-08-23T07:37:00","4","53.5335","7.888667","7.31","JEVER, GM","FM-16","ETNJ ","V020","130,1,N,0046,1","00090,1,C,N","003500,1,N,1","+0170,1","+0160,1","99999,9",,"07,5,+00090,1,99,9",,,"07,99,1,99,9,99,9,99999,9,99,9,99,9","10020,1,99999,9","10,1","53,1","63,1",,"MET067SPECI ETNJ 230737Z 13009KT 3500 RADZ BR BKN003 17/16 Q1002 YLO YLO;",
"10122099999","2010-08-23T08:20:00","4","53.5335","7.888667","7.31","JEVER, GM","FM-15","ETNJ ","V020","140,1,N,0046,1","00090,1,C,N","003500,1,N,1","+0180,1","+0170,1","99999,9",,"07,5,+00090,1,99,9","07,5,+00180,1,99,9",,"07,99,1,99,9,99,9,99999,9,99,9,99,9","10010,1,99999,9","10,1","51,1","61,1",,"MET080METAR ETNJ 230820Z 14009KT 3500 -RADZ BR BKN003 BKN006 18/17 Q1001 RERA YLO YLO;",
"10122099999","2010-08-23T09:00:00","4","53.5335","7.888667","7.31","JEVER, GM","FM-15","ETNJ ","V020","140,1,N,0057,1","00120,1,C,N","003500,1,N,1","+0180,1","+0170,1","99999,9",,"07,5,+00120,1,99,9","07,5,+00240,1,99,9",,"07,99,1,99,9,99,9,99999,9,99,9,99,9","10000,1,99999,9","10,1","61,1",,,"MET083SPECI ETNJ 230859Z 14011KT 3500 -RA BR BKN004 BKN008 18/17 Q1000 YLO YLO BECMG GRN;",
"10122099999","2010-08-23T09:22:00","4","53.5335","7.888667","7.31","JEVER, GM","FM-16","ETNJ ","V020","140,1,N,0057,1","00150,1,C,N","004500,1,N,1","+0190,1","+0180,1","99999,9",,"02,5,+00090,1,99,9","07,5,+00150,1,99,9","07,5,+00270,1,99,9","07,99,1,99,9,99,9,99999,9,99,9,99,9","09990,1,99999,9","10,1","61,1",,,"MET090SPECI ETNJ 230922Z 14011KT 4500 -RA BR FEW003 BKN005 BKN009 19/18 Q0999 YLO YLO BECMG GRN;",
"10122099999","2010-08-23T10:20:00","4","53.5335","7.888667","7.31","JEVER, GM","FM-15","ETNJ ","V020","160,1,N,0051,1","00150,1,C,N","002500,1,N,1","+0190,1","+0180,1","99999,9",,"07,5,+00150,1,99,9","07,5,+00450,1,99,9",,"07,99,1,99,9,99,9,99999,9,99,9,99,9","09980,1,99999,9","10,1","63,1",,,"MET082METAR ETNJ 231020Z 16010KT 2500 RA BR BKN005 BKN015 19/18 Q0998 YLO GRN TEMPO YLO;",
"10122099999","2010-08-23T10:32:00","4","53.5335","7.888667","7.31","JEVER, GM","FM-16","ETNJ ","V020","160,1,N,0062,1","00600,1,C,N","005000,1,N,1","+0180,1","+0170,1","99999,9",,"04,5,+00180,1,99,9","07,5,+00600,1,99,9",,"07,99,1,99,9,99,9,99999,9,99,9,99,9","09980,1,99999,9","10,1","61,1",,,"MET088SPECI ETNJ 231032Z 16012KT 5000 -RA BR SCT006 BKN020 18/17 Q0998 RERA WHT GRN TEMPO YLO;",
"10122099999","2010-08-23T11:00:00","4","53.5335","7.888667","7.31","JEVER, GM","FM-15","ETNJ ","V020","160,1,N,0062,1","00480,1,C,N","011265,1,N,1","+0190,1","+0180,1","99999,9",,"02,5,+00240,1,99,9","07,5,+00480,1,99,9","07,5,+01800,1,99,9","07,99,1,99,9,99,9,99999,9,99,9,99,9","09970,1,99999,9",,,,,"MET088SPECI ETNJ 231057Z 16012KT 9999 FEW008 BKN016 BKN060 19/18 Q0997 RERA WHT WHT TEMPO YLO;",
"10122099999","2010-08-23T11:20:00","4","53.5335","7.888667","7.31","JEVER, GM","FM-15","ETNJ ","V020","170,1,N,0057,1","01800,1,C,N","011265,1,N,1","+0200,1","+0190,1","99999,9",,"04,5,+00420,1,99,9","07,5,+01800,1,99,9",,"07,99,1,99,9,99,9,99999,9,99,9,99,9","09970,1,99999,9",,,,,"MET081METAR ETNJ 231120Z 17011KT 9999 SCT014 BKN060 20/19 Q0997 RERA BLU WHT TEMPO YLO;",
"10122099999","2010-08-23T12:20:00","4","53.5335","7.888667","7.31","JEVER, GM","FM-15","ETNJ ","V020","170,1,N,0057,1","01800,1,C,N","011265,1,N,1","+0210,1","+0180,1","99999,9",,"04,5,+00540,1,99,9","07,5,+01800,1,99,9",,"07,99,1,99,9,99,9,99999,9,99,9,99,9","09949,1,99999,9",,,,,"MET076METAR ETNJ 231220Z 17011KT 9999 SCT018 BKN060 21/18 Q0995 BLU WHT TEMPO YLO;",
"10122099999","2010-08-23T13:05:00","4","53.5335","7.888667","7.31","JEVER, GM","FM-16","ETNJ ","V020","180,1,N,0067,1","00540,1,C,N","011265,1,N,1","+0210,1","+0180,1","99999,9",,"07,5,+00540,1,99,9","07,5,+01500,1,99,9",,"07,99,1,99,9,99,9,99999,9,99,9,99,9","09939,1,99999,9",,,,,"MET074SPECI ETNJ 231305Z 18013KT 9999 BKN018 BKN050 21/18 Q0994 WHT FCST CANCEL;",
"10122099999","2010-08-23T13:18:00","4","53.5335","7.888667","7.31","JEVER, GM","FM-16","ETNJ ","V020","190,1,N,0062,1","00480,1,C,N","003000,1,N,1","+0210,1","+0180,1","99999,9",,"07,5,+00480,1,09,1","07,5,+01500,1,99,9",,"07,99,1,99,9,99,9,99999,9,99,9,99,9","09939,1,99999,9","10,1","81,1","95,1",,"MET072SPECI ETNJ 231318Z 19012KT 3000 TSRA BR BKN016CB BKN050 21/18 Q0994 YLO;",
"10122099999","2010-08-23T13:20:00","4","53.5335","7.888667","7.31","JEVER, GM","FM-15","ETNJ ","V020","190,1,N,0062,1","00480,1,C,N","003000,1,N,1","+0200,1","+0180,1","99999,9",,"07,5,+00480,1,09,1","07,5,+01500,1,99,9",,"07,99,1,99,9,99,9,99999,9,99,9,99,9","09939,1,99999,9","10,1","82,1","97,1",,"MET083METAR ETNJ 231320Z 19012KT 3000 R10/1200U +TSRA BR BKN016CB BKN050 20/18 Q0994 YLO;",
"10122099999","2010-08-23T13:30:00","4","53.5335","7.888667","7.31","JEVER, GM","FM-16","ETNJ ","V020","210,1,N,0062,1","01500,1,C,N","011265,1,N,1","+0200,1","+0180,1","99999,9",,"04,5,+00480,1,09,1","07,5,+01500,1,99,9",,"07,99,1,99,9,99,9,99999,9,99,9,99,9","09939,1,99999,9",,,,"0113,1","MET072SPECI ETNJ 231330Z 21012G22KT 9999 SCT016CB BKN050 20/18 Q0994 RETS BLU;",
"10122099999","2010-08-23T14:20:00","4","53.5335","7.888667","7.31","JEVER, GM","FM-15","ETNJ ","V020","220,1,N,0057,1","00480,1,C,N","011265,1,N,1","+0210,1","+0180,1","99999,9",,"07,5,+00480,1,02,1","07,5,+01500,1,99,9",,"07,99,1,99,9,99,9,99999,9,99,9,99,9","09939,1,99999,9","80,1",,,"0123,1","MET074METAR ETNJ 231420Z 22011G24KT 9999 -SHRA BKN016TCU BKN050 21/18 Q0994 WHT;",
"10122099999","2010-08-23T15:20:00","4","53.5335","7.888667","7.31","JEVER, GM","FM-15","ETNJ ","V020","240,1,N,0098,1","22000,1,9,N","011265,1,N,1","+0200,1","+0160,1","99999,9",,"04,5,+00540,1,02,1",,,"04,99,1,99,9,99,9,99999,9,99,9,99,9","09939,1,99999,9",,,,"0165,1","MET062METAR ETNJ 231520Z 24019G32KT 9999 SCT018TCU 20/16 Q0994 BLU/;",
"10122099999","2010-08-23T16:20:00","4","53.5335","7.888667","7.31","JEVER, GM","FM-15","ETNJ ","V020","250,1,N,0087,1","22000,1,9,N","011265,1,N,1","+0210,1","+0140,1","99999,9",,"02,5,+00900,1,99,9",,,"02,99,1,99,9,99,9,99999,9,99,9,99,9","09939,1,99999,9",,,,"0139,1","MET059METAR ETNJ 231620Z 25017G27KT 9999 FEW030 21/14 Q0994 BLU/;",
"10122099999","2010-08-23T17:20:00","4","53.5335","7.888667","7.31","JEVER, GM","FM-15","ETNJ ","V020","240,1,N,0093,1","22000,1,9,N","011265,1,N,1","+0200,1","+0130,1","99999,9",,"02,5,+00900,1,99,9",,,"02,99,1,99,9,99,9,99999,9,99,9,99,9","09949,1,99999,9",,,,"0180,1","MET059METAR ETNJ 231720Z 24018G35KT 9999 FEW030 20/13 Q0995 BLU/;",
"10122099999","2010-08-23T18:20:00","4","53.5335","7.888667","7.31","JEVER, GM","FM-15","ETNJ ","V020","240,1,N,0072,1","22000,1,9,N","011265,1,N,1","+0180,1","+0130,1","99999,9",,"02,5,+00900,1,99,9",,,"02,99,1,99,9,99,9,99999,9,99,9,99,9","09959,1,99999,9",,,,,"MET056METAR ETNJ 231820Z 24014KT 9999 FEW030 18/13 Q0996 BLU/;",
"10122099999","2010-08-23T19:20:00","4","53.5335","7.888667","7.31","JEVER, GM","FM-15","ETNJ ","V020","250,1,N,0062,1","22000,1,9,N","011265,1,N,1","+0180,1","+0140,1","99999,9",,"02,5,+00900,1,99,9",,,"02,99,1,99,9,99,9,99999,9,99,9,99,9","09970,1,99999,9",,,,,"MET056METAR ETNJ 231920Z 25012KT 9999 FEW030 18/14 Q0997 BLU/;",
"10122099999","2010-08-23T20:20:00","4","53.5335","7.888667","7.31","JEVER, GM","FM-15","ETNJ ","V020","220,1,N,0046,1","22000,1,9,N","011265,1,N,1","+0180,1","+0140,1","99999,9",,"02,5,+00750,1,99,9",,,"02,99,1,99,9,99,9,99999,9,99,9,99,9","09959,1,99999,9",,,,,"MET056METAR ETNJ 232020Z 22009KT 9999 FEW025 18/14 Q0996 BLU/;",
"10122099999","2010-08-23T21:20:00","4","53.5335","7.888667","7.31","JEVER, GM","FM-15","ETNJ ","V020","230,1,N,0062,1","22000,1,9,N","011265,1,N,1","+0180,1","+0140,1","99999,9",,"02,5,+00750,1,99,9",,,"02,99,1,99,9,99,9,99999,9,99,9,99,9","09959,1,99999,9",,,,,"MET056METAR ETNJ 232120Z 23012KT 9999 FEW025 18/14 Q0996 BLU/;",
"10122099999","2010-08-23T22:20:00","4","53.5335","7.888667","7.31","JEVER, GM","FM-15","ETNJ ","V020","220,1,N,0072,1","22000,1,9,N","011265,1,N,1","+0180,1","+0140,1","99999,9",,"02,5,+00750,1,99,9",,,"02,99,1,99,9,99,9,99999,9,99,9,99,9","09959,1,99999,9",,,,,"MET056METAR ETNJ 232220Z 22014KT 9999 FEW025 18/14 Q0996 BLU/;",
"10122099999","2010-08-23T23:20:00","4","53.5335","7.888667","7.31","JEVER, GM","FM-15","ETNJ ","V020","230,1,N,0093,1","22000,1,9,N","011265,1,N,1","+0180,1","+0130,1","99999,9",,"04,5,+00660,1,99,9",,,"04,99,1,99,9,99,9,99999,9,99,9,99,9","09949,1,99999,9",,,,"0154,1","MET059METAR ETNJ 232320Z 23018G30KT 9999 SCT022 18/13 Q0995 BLU/;",
"10122099999","2010-08-24T00:20:00","4","53.5335","7.888667","7.31","JEVER, GM","FM-15","ETNJ ","V020","260,1,N,0098,1","22000,1,9,N","011265,1,N,1","+0170,1","+0130,1","99999,9",,"04,5,+00660,1,99,9",,,"04,99,1,99,9,99,9,99999,9,99,9,99,9","09970,1,99999,9",,,,,"MET056METAR ETNJ 240020Z 26019KT 9999 SCT022 17/13 Q0997 BLU/;",
"10122099999","2010-08-24T01:20:00","4","53.5335","7.888667","7.31","JEVER, GM","FM-15","ETNJ ","V020","250,1,N,0062,1","22000,1,9,N","011265,1,N,1","+0160,1","+0120,1","99999,9",,"04,5,+00660,1,99,9",,,"04,99,1,99,9,99,9,99999,9,99,9,99,9","09980,1,99999,9",,,,,"MET056METAR ETNJ 240120Z 25012KT 9999 SCT022 16/12 Q0998 BLU/;",
"10122099999","2010-08-24T02:20:00","4","53.5335","7.888667","7.31","JEVER, GM","FM-15","ETNJ ","V020","240,1,N,0057,1","22000,1,9,N","011265,1,N,1","+0150,1","+0120,1","99999,9",,"04,5,+00660,1,99,9",,,"04,99,1,99,9,99,9,99999,9,99,9,99,9","09980,1,99999,9",,,,,"MET056METAR ETNJ 240220Z 24011KT 9999 SCT022 15/12 Q0998 BLU/;",
"10122099999","2010-08-24T03:20:00","4","53.5335","7.888667","7.31","JEVER, GM","FM-15","ETNJ ","V020","250,1,N,0072,1","22000,1,9,N","011265,1,N,1","+0150,1","+0120,1","99999,9",,"02,5,+00660,1,99,9",,,"02,99,1,99,9,99,9,99999,9,99,9,99,9","09990,1,99999,9",,,,,"MET056METAR ETNJ 240320Z 25014KT 9999 FEW022 15/12 Q0999 BLU/;",
"10122099999","2010-08-24T04:20:00","4","53.5335","7.888667","7.31","JEVER, GM","FM-15","ETNJ ","V020","240,1,N,0051,1","22000,1,9,N","011265,1,N,1","+0140,1","+0110,1","99999,9",,"02,5,+00600,1,99,9",,,"02,99,1,99,9,99,9,99999,9,99,9,99,9","09990,1,99999,9",,,,,"MET060METAR ETNJ 240420Z 24010KT 9999 FEW020 14/11 Q0999 BLU/BLU/;",
"10122099999","2010-08-24T05:20:00","4","53.5335","7.888667","7.31","JEVER, GM","FM-15","ETNJ ","V020","240,1,N,0062,1","22000,1,9,N","011265,1,N,1","+0150,1","+0110,1","99999,9",,"02,5,+00600,1,99,9",,,"02,99,1,99,9,99,9,99999,9,99,9,99,9","10000,1,99999,9",,,,,"MET060METAR ETNJ 240520Z 24012KT 9999 FEW020 15/11 Q1000 BLU/BLU/;",
"10122099999","2010-08-24T06:20:00","4","53.5335","7.888667","7.31","JEVER, GM","FM-15","ETNJ ","V020","240,1,N,0062,1","22000,1,9,N","011265,1,N,1","+0150,1","+0110,1","99999,9",,"02,5,+00600,1,99,9",,,"02,99,1,99,9,99,9,99999,9,99,9,99,9","10010,1,99999,9",,,,,"MET060METAR ETNJ 240620Z 24012KT 9999 FEW020 15/11 Q1001 BLU/BLU/;",
"10122099999","2010-08-24T07:20:00","4","53.5335","7.888667","7.31","JEVER, GM","FM-15","ETNJ ","V020","240,1,N,0077,1","99999,9,C,N","011265,1,N,1","+0160,1","+0110,1","99999,9",,"04,5,+00600,1,99,9","04,5,+02100,1,99,9",,"04,99,1,99,9,99,9,99999,9,99,9,99,9","10010,1,99999,9",,,,,"MET067METAR ETNJ 240720Z 24015KT 9999 SCT020 SCT070 16/11 Q1001 BLU/BLU/;","P01 021003SCOCIG"
"10122099999","2010-08-24T08:20:00","4","53.5335","7.888667","7.31","JEVER, GM","FM-15","ETNJ ","V020","250,1,N,0077,1","22000,1,9,N","011265,1,N,1","+0170,1","+0110,1","99999,9",,"04,5,+00750,1,99,9",,,"04,99,1,99,9,99,9,99999,9,99,9,99,9","10020,1,99999,9",,,,"0129,1","MET063METAR ETNJ 240820Z 25015G25KT 9999 SCT025 17/11 Q1002 BLU/BLU/;",
"10122099999","2010-08-24T09:20:00","4","53.5335","7.888667","7.31","JEVER, GM","FM-15","ETNJ ","V020","260,1,N,0077,1","22000,1,9,N","011265,1,N,1","+0180,1","+0100,1","99999,9",,"04,5,+00900,1,99,9",,,"04,99,1,99,9,99,9,99999,9,99,9,99,9","10031,1,99999,9",,,,"0129,1","MET063METAR ETNJ 240920Z 26015G25KT 9999 SCT030 18/10 Q1003 BLU/BLU/;",
"10122099999","2010-08-24T10:20:00","4","53.5335","7.888667","7.31","JEVER, GM","FM-15","ETNJ ","V020","240,1,N,0093,1","22000,1,9,N","011265,1,N,1","+0190,1","+0090,1","99999,9",,"04,5,+01050,1,99,9",,,"04,99,1,99,9,99,9,99999,9,99,9,99,9","10031,1,99999,9",,,,,"MET060METAR ETNJ 241020Z 24018KT 9999 SCT035 19/09 Q1003 BLU/BLU/;",
"10122099999","2010-08-24T11:20:00","4","53.5335","7.888667","7.31","JEVER, GM","FM-15","ETNJ ","V020","250,1,N,0087,1","22000,1,9,N","011265,1,N,1","+0190,1","+0080,1","99999,9",,"02,5,+01260,1,99,9",,,"02,99,1,99,9,99,9,99999,9,99,9,99,9","10041,1,99999,9",,,,,"MET060METAR ETNJ 241120Z 25017KT 9999 FEW042 19/08 Q1004 BLU/BLU/;",
"10122099999","2010-08-24T12:20:00","4","53.5335","7.888667","7.31","JEVER, GM","FM-15","ETNJ ","V020","260,1,N,0098,1","22000,1,9,N","011265,1,N,1","+0200,1","+0090,1","99999,9",,"04,5,+01140,1,99,9",,,"04,99,1,99,9,99,9,99999,9,99,9,99,9","10041,1,99999,9",,,,,"MET060METAR ETNJ 241220Z 26019KT 9999 SCT038 20/09 Q1004 BLU/BLU/;",
"10122099999","2010-08-24T13:20:00","4","53.5335","7.888667","7.31","JEVER, GM","FM-15","ETNJ ","V020","260,1,N,0093,1","01350,1,C,N","011265,1,N,1","+0190,1","+0070,1","99999,9",,"07,5,+01350,1,99,9",,,"07,99,1,99,9,99,9,99999,9,99,9,99,9","10041,1,99999,9",,,,,"MET060METAR ETNJ 241320Z 26018KT 9999 BKN045 19/07 Q1004 BLU BLU/;",
"10122099999","2010-08-24T13:21:00","4","53.5335","7.888667","7.31","JEVER, GM","FM-16","ETNJ ","V020","260,1,N,0093,1","01350,1,C,N","011265,1,N,1","+0190,1","+0070,1","99999,9",,"07,5,+01350,1,99,9",,,"07,99,1,99,9,99,9,99999,9,99,9,99,9","10041,1,99999,9",,,,,"MET060SPECI ETNJ 241321Z 26018KT 9999 BKN045 19/07 Q1004 BLU BLU/;",
"10122099999","2010-08-24T14:20:00","4","53.5335","7.888667","7.31","JEVER, GM","FM-15","ETNJ ","V020","260,1,N,0072,1","22000,1,9,N","011265,1,N,1","+0180,1","+0080,1","99999,9",,"04,5,+01200,1,99,9",,,"04,99,1,99,9,99,9,99999,9,99,9,99,9","10041,1,99999,9",,,,,"MET067METAR ETNJ 241420Z 26014KT 9999 SCT040 18/08 Q1004 BLU/FCST CANCEL;",
"10122099999","2010-08-24T15:20:00","4","53.5335","7.888667","7.31","JEVER, GM","FM-15","ETNJ ","V020","250,1,N,0072,1","22000,1,9,N","011265,1,N,1","+0190,1","+0080,1","99999,9",,"04,5,+01200,1,99,9",,,"04,99,1,99,9,99,9,99999,9,99,9,99,9","10041,1,99999,9",,,,,"MET056METAR ETNJ 241520Z 25014KT 9999 SCT040 19/08 Q1004 BLU/;",
"10122099999","2010-08-24T16:20:00","4","53.5335","7.888667","7.31","JEVER, GM","FM-15","ETNJ ","V020","250,1,N,0087,1","99999,9,C,N","008000,1,N,1","+0160,1","+0080,1","99999,9",,"04,5,+00900,1,02,1","04,5,+01500,1,99,9",,"04,99,1,99,9,99,9,99999,9,99,9,99,9","10051,1,99999,9","81,1",,,"0144,1","MET074METAR ETNJ 241620Z 25017G28KT 8000 SHRA SCT030TCU SCT050 16/08 Q1005 BLU/;","P01 015003SCOCIG"
"10122099999","2010-08-24T17:10:00","4","53.5335","7.888667","7.31","JEVER, GM","FM-16","ETNJ ","V020","240,1,N,0041,1","01500,1,C,N","008000,1,N,1","+0150,1","+0110,1","99999,9",,"02,5,+00900,1,09,1","07,5,+01500,1,99,9",,"07,99,1,99,9,99,9,99999,9,99,9,99,9","10041,1,99999,9","17,1",,,,"MET072SPECI ETNJ 241710Z 24008KT 8000 TS FEW030CB BKN050 15/11 Q1004 RERA BLU;",
"10122099999","2010-08-24T17:20:00","4","53.5335","7.888667","7.31","JEVER, GM","FM-15","ETNJ ","V020","260,1,N,0046,1","00900,1,C,N","003000,1,N,1","+0150,1","+0110,1","99999,9",,"02,5,+00360,1,99,9","04,5,+00900,1,09,5","07,5,+01500,1,99,9","07,99,1,99,9,99,9,99999,9,99,9,99,9","10051,1,99999,9","05,1","81,1","95,1","0206,1","MET087METAR ETNJ 241720Z 26009G40KT 3000 TSRA HZ FEW012 SCT030CB BKN050 15/11 Q1005 RERA YLO;",
"10122099999","2010-08-24T17:49:00","4","53.5335","7.888667","7.31","JEVER, GM","FM-16","ETNJ ","V020","240,1,N,0077,1","00900,1,C,N","011265,1,N,1","+0120,1","+0100,1","99999,9",,"02,5,+00360,1,99,9","04,5,+00900,1,09,5","07,5,+01500,1,99,9","07,99,1,99,9,99,9,99999,9,99,9,99,9","10041,1,99999,9","61,1",,,,"MET080SPECI ETNJ 241749Z 24015KT 9999 -RA FEW012 SCT030CB BKN050 12/10 Q1004 RETS BLU;",
"10122099999","2010-08-24T18:20:00","4","53.5335","7.888667","7.31","JEVER, GM","FM-15","ETNJ ","V020","230,1,N,0051,1","03600,1,C,N","011265,1,N,1","+0120,1","+0100,1","99999,9",,"02,5,+00900,1,09,1","07,5,+03600,1,99,9",,"07,99,1,99,9,99,9,99999,9,99,9,99,9","10051,1,99999,9",,,,,"MET069METAR ETNJ 241820Z 23010KT 9999 FEW030CB BKN120 12/10 Q1005 RETS BLU;",
"10122099999","2010-08-24T19:20:00","4","53.5335","7.888667","7.31","JEVER, GM","FM-15","ETNJ ","V020","220,1,N,0051,1","99999,9,C,N","011265,1,N,1","+0110,1","+0100,1","99999,9",,"02,5,+00900,1,99,9","04,5,+03600,1,99,9",,"04,99,1,99,9,99,9,99999,9,99,9,99,9","10051,1,99999,9",,,,,"MET063METAR ETNJ 241920Z 22010KT 9999 FEW030 SCT120 11/10 Q1005 BLU/;","P01 036003SCOCIG"
"10122099999","2010-08-24T20:20:00","4","53.5335","7.888667","7.31","JEVER, GM","FM-15","ETNJ ","V020","230,1,N,0057,1","22000,1,9,N","011265,1,N,1","+0120,1","+0100,1","99999,9",,"02,5,+00900,1,99,9",,,"02,99,1,99,9,99,9,99999,9,99,9,99,9","10061,1,99999,9",,,,,"MET056METAR ETNJ 242020Z 23011KT 9999 FEW030 12/10 Q1006 BLU/;",
"10122099999","2010-08-24T21:20:00","4","53.5335","7.888667","7.31","JEVER, GM","FM-15","ETNJ ","V020","240,1,N,0046,1","22000,1,9,N","011265,1,N,1","+0120,1","+0100,1","99999,9",,"02,5,+00900,1,99,9",,,"02,99,1,99,9,99,9,99999,9,99,9,99,9","10061,1,99999,9",,,,,"MET056METAR ETNJ 242120Z 24009KT 9999 FEW030 12/10 Q1006 BLU/;",
"10122099999","2010-08-24T22:20:00","4","53.5335","7.888667","7.31","JEVER, GM","FM-15","ETNJ ","V020","240,1,N,0057,1","22000,1,9,N","011265,1,N,1","+0120,1","+0110,1","99999,9",,"02,5,+00900,1,99,9",,,"02,99,1,99,9,99,9,99999,9,99,9,99,9","10061,1,99999,9",,,,,"MET056METAR ETNJ 242220Z 24011KT 9999 FEW030 12/11 Q1006 BLU/;",
"10122099999","2010-08-24T23:20:00","4","53.5335","7.888667","7.31","JEVER, GM","FM-15","ETNJ ","V020","240,1,N,0062,1","22000,1,9,N","011265,1,N,1","+0130,1","+0110,1","99999,9",,"04,5,+00900,1,99,9",,,"04,99,1,99,9,99,9,99999,9,99,9,99,9","10061,1,99999,9",,,,,"MET056METAR ETNJ 242320Z 24012KT 9999 SCT030 13/11 Q1006 BLU/;",
"10122099999","2010-08-25T00:20:00","4","53.5335","7.888667","7.31","JEVER, GM","FM-15","ETNJ ","V020","250,1,N,0051,1","22000,1,9,N","011265,1,N,1","+0130,1","+0110,1","99999,9",,"02,5,+00900,1,02,1",,,"02,99,1,99,9,99,9,99999,9,99,9,99,9","10071,1,99999,9",,,,,"MET064METAR ETNJ 250020Z 25010KT 9999 FEW030TCU 13/11 Q1007 RERA BLU/;",
"10122099999","2010-08-25T01:20:00","4","53.5335","7.888667","7.31","JEVER, GM","FM-15","ETNJ ","V020","260,1,N,0051,1","22000,1,9,N","011265,1,N,1","+0130,1","+0120,1","99999,9",,"04,5,+00660,1,02,1",,,"04,99,1,99,9,99,9,99999,9,99,9,99,9","10081,1,99999,9",,,,,"MET059METAR ETNJ 250120Z 26010KT 9999 SCT022TCU 13/12 Q1008 BLU/;",
"10122099999","2010-08-25T02:20:00","4","53.5335","7.888667","7.31","JEVER, GM","FM-15","ETNJ ","V020","250,1,N,0046,1","22000,1,9,N","011265,1,N,1","+0130,1","+0110,1","99999,9",,"02,5,+00660,1,02,1",,,"02,99,1,99,9,99,9,99999,9,99,9,99,9","10081,1,99999,9",,,,,"MET059METAR ETNJ 250220Z 25009KT 9999 FEW022TCU 13/11 Q1008 BLU/;",
"10122099999","2010-08-25T03:20:00","4","53.5335","7.888667","7.31","JEVER, GM","FM-15","ETNJ ","V020","240,1,N,0036,1","22000,1,9,N","011265,1,N,1","+0120,1","+0110,1","99999,9",,"02,5,+00600,1,99,9",,,"02,99,1,99,9,99,9,99999,9,99,9,99,9","10091,1,99999,9",,,,,"MET056METAR ETNJ 250320Z 24007KT 9999 FEW020 12/11 Q1009 BLU/;",
"10122099999","2010-08-25T04:20:00","4","53.5335","7.888667","7.31","JEVER, GM","FM-15","ETNJ ","V020","240,1,N,0046,1","22000,1,9,N","011265,1,N,1","+0120,1","+0110,1","99999,9",,"02,5,+00600,1,99,9",,,"02,99,1,99,9,99,9,99999,9,99,9,99,9","10091,1,99999,9",,,,,"MET070METAR ETNJ 250420Z 24009KT 9999 FEW020 12/11 Q1009 BLU/BLU/ TEMPO WHT;",
"10122099999","2010-08-25T05:20:00","4","53.5335","7.888667","7.31","JEVER, GM","FM-15","ETNJ ","V020","240,1,N,0041,1","99999,9,C,N","011265,1,N,1","+0130,1","+0110,1","99999,9",,"02,5,+00600,1,99,9","04,5,+01800,1,99,9",,"04,99,1,99,9,99,9,99999,9,99,9,99,9","10091,1,99999,9",,,,,"MET077METAR ETNJ 250520Z 24008KT 9999 FEW020 SCT060 13/11 Q1009 BLU/BLU/ TEMPO WHT;","P01 018003SCOCIG"
"10122099999","2010-08-25T06:15:00","4","53.5335","7.888667","7.31","JEVER, GM","FM-16","ETNJ ","V020","250,1,N,0041,1","00720,1,C,N","004000,1,N,1","+0130,1","+0110,1","99999,9",,"02,5,+00300,1,99,9","04,5,+00720,1,02,5","07,5,+01350,1,99,9","07,99,1,99,9,99,9,99999,9,99,9,99,9","10102,1,99999,9","10,1","81,1",,,"MET095SPECI ETNJ 250615Z 25008KT 4000 SHRA BR FEW010 SCT024TCU BKN045 13/11 Q1010 GRN BLU/ TEMPO GRN;",
"10122099999","2010-08-25T06:20:00","4","53.5335","7.888667","7.31","JEVER, GM","FM-15","ETNJ ","V020","250,1,N,0041,1","00720,1,C,N","005000,1,N,1","+0130,1","+0110,1","99999,9",,"02,5,+00300,1,99,9","04,5,+00720,1,02,5","07,5,+01350,1,99,9","07,99,1,99,9,99,9,99999,9,99,9,99,9","10102,1,99999,9","10,1","81,1",,,"MET095METAR ETNJ 250620Z 25008KT 5000 SHRA BR FEW010 SCT024TCU BKN045 13/11 Q1010 WHT BLU/ TEMPO GRN;",
"10122099999","2010-08-25T07:20:00","4","53.5335","7.888667","7.31","JEVER, GM","FM-15","ETNJ ","V020","260,1,N,0031,1","01350,1,C,N","011265,1,N,1","+0130,1","+0120,1","99999,9",,"02,5,+00720,1,02,1","07,5,+01350,1,99,9",,"07,99,1,99,9,99,9,99999,9,99,9,99,9","10108,1,99999,9",,,,,"MET079METAR ETNJ 250720Z 26006KT 9999 FEW024TCU BKN045 13/12 Q1011 BLU BLU TEMPO GRN;",
"10122099999","2010-08-25T08:20:00","4","53.5335","7.888667","7.31","JEVER, GM","FM-15","ETNJ ","V020","270,1,N,0067,1","22000,1,9,N","011265,1,N,1","+0160,1","+0120,1","99999,9",,"04,5,+00750,1,99,9",,,"04,99,1,99,9,99,9,99999,9,99,9,99,9","10108,1,99999,9",,,,,"MET069METAR ETNJ 250820Z 27013KT 9999 SCT025 16/12 Q1011 BLU/BLU TEMPO GRN;",
"10122099999","2010-08-25T09:20:00","4","53.5335","7.888667","7.31","JEVER, GM","FM-15","ETNJ ","V020","260,1,N,0072,1","22000,1,9,N","011265,1,N,1","+0180,1","+0120,1","99999,9",,"04,5,+00750,1,99,9",,,"04,99,1,99,9,99,9,99999,9,99,9,99,9","10119,1,99999,9",,,,,"MET059METAR ETNJ 250920Z 26014KT 9999 SCT025 18/12 Q1012 BLU/BLU;",
"10122099999","2010-08-25T10:20:00","4","53.5335","7.888667","7.31","JEVER, GM","FM-15","ETNJ ","V020","260,1,N,0072,1","22000,1,9,N","011265,1,N,1","+0190,1","+0120,1","99999,9",,"04,5,+00840,1,99,9",,,"04,99,1,99,9,99,9,99999,9,99,9,99,9","10119,1,99999,9",,,,,"MET060METAR ETNJ 251020Z 26014KT 9999 SCT028 19/12 Q1012 BLU/BLU/;",
"10122099999","2010-08-25T11:20:00","4","53.5335","7.888667","7.31","JEVER, GM","FM-15","ETNJ ","V020","270,1,N,0067,1","22000,1,9,N","011265,1,N,1","+0180,1","+0120,1","99999,9",,"04,5,+00840,1,99,9",,,"04,99,1,99,9,99,9,99999,9,99,9,99,9","10119,1,99999,9",,,,,"MET060METAR ETNJ 251120Z 27013KT 9999 SCT028 18/12 Q1012 BLU/BLU/;",
"10122099999","2010-08-25T12:20:00","4","53.5335","7.888667","7.31","JEVER, GM","FM-15","ETNJ ","V020","290,1,N,0082,1","22000,1,9,N","011265,1,N,1","+0180,1","+0110,1","99999,9",,"04,5,+00840,1,99,9",,,"04,99,1,99,9,99,9,99999,9,99,9,99,9","10129,1,99999,9",,,,,"MET060METAR ETNJ 251220Z 29016KT 9999 SCT028 18/11 Q1013 BLU/BLU/;",
"10122099999","2010-08-25T13:20:00","4","53.5335","7.888667","7.31","JEVER, GM","FM-15","ETNJ ","V020","290,1,N,0098,1","99999,9,C,N","011265,1,N,1","+0190,1","+0100,1","99999,9",,"04,5,+00960,1,99,9","04,5,+07500,1,99,9",,"04,99,1,99,9,99,9,99999,9,99,9,99,9","10129,1,99999,9",,,,,"MET067METAR ETNJ 251320Z 29019KT 9999 SCT032 SCT250 19/10 Q1013 BLU/BLU/;","P01 075003SCOCIG"
"10122099999","2010-08-25T14:20:00","4","53.5335","7.888667","7.31","JEVER, GM","FM-15","ETNJ ","V020","290,1,N,0098,1","99999,9,C,N","011265,1,N,1","+0180,1","+0100,1","99999,9",,"04,5,+00960,1,99,9","04,5,+07500,1,99,9",,"04,99,1,99,9,99,9,99999,9,99,9,99,9","10129,1,99999,9",,,,,"MET074METAR ETNJ 251420Z 29019KT 9999 SCT032 SCT250 18/10 Q1013 BLU/FCST CANCEL;","P01 075003SCOCIG"
"10122099999","2010-08-25T15:20:00","4","53.5335","7.888667","7.31","JEVER, GM","FM-15","ETNJ ","V020","280,1,N,0082,1","07500,1,C,N","011265,1,N,1","+0180,1","+0100,1","99999,9",,"02,5,+01050,1,99,9","07,5,+07500,1,99,9",,"07,99,1,99,9,99,9,99999,9,99,9,99,9","10129,1,99999,9",,,,,"MET063METAR ETNJ 251520Z 28016KT 9999 FEW035 BKN250 18/10 Q1013 BLU/;",
"10122099999","2010-08-25T16:20:00","4","53.5335","7.888667","7.31","JEVER, GM","FM-15","ETNJ ","V020","280,1,N,0077,1","07500,1,C,N","011265,1,N,1","+0170,1","+0100,1","99999,9",,"02,5,+01050,1,99,9","07,5,+07500,1,99,9",,"07,99,1,99,9,99,9,99999,9,99,9,99,9","10139,1,99999,9",,,,,"MET063METAR ETNJ 251620Z 28015KT 9999 FEW035 BKN250 17/10 Q1014 BLU/;",
"10122099999","2010-08-25T17:20:00","4","53.5335","7.888667","7.31","JEVER, GM","FM-15","ETNJ ","V020","280,1,N,0051,1","07500,1,C,N","011265,1,N,1","+0160,1","+0100,1","99999,9",,"02,5,+00900,1,99,9","07,5,+07500,1,99,9",,"07,99,1,99,9,99,9,99999,9,99,9,99,9","10139,1,99999,9",,,,,"MET063METAR ETNJ 251720Z 28010KT 9999 FEW030 BKN250 16/10 Q1014 BLU/;",
"10122099999","2010-08-25T18:20:00","4","53.5335","7.888667","7.31","JEVER, GM","FM-15","ETNJ ","V020","270,1,N,0031,1","07200,1,C,N","011265,1,N,1","+0150,1","+0090,1","99999,9",,"07,5,+07200,1,99,9",,,"07,99,1,99,9,99,9,99999,9,99,9,99,9","10139,1,99999,9",,,,,"MET056METAR ETNJ 251820Z 27006KT 9999 BKN240 15/09 Q1014 BLU/;",
"10122099999","2010-08-25T19:20:00","4","53.5335","7.888667","7.31","JEVER, GM","FM-15","ETNJ ","V020","260,1,N,0026,1","07200,1,C,N","011265,1,N,1","+0130,1","+0090,1","99999,9",,"07,5,+07200,1,99,9",,,"07,99,1,99,9,99,9,99999,9,99,9,99,9","10139,1,99999,9",,,,,"MET056METAR ETNJ 251920Z 26005KT 9999 BKN240 13/09 Q1014 BLU/;",
"10122099999","2010-08-25T20:20:00","4","53.5335","7.888667","7.31","JEVER, GM","FM-15","ETNJ ","V020","240,1,N,0026,1","06600,1,C,N","011265,1,N,1","+0120,1","+0090,1","99999,9",,"07,5,+06600,1,99,9",,,"07,99,1,99,9,99,9,99999,9,99,9,99,9","10139,1,99999,9",,,,,"MET056METAR ETNJ 252020Z 24005KT 9999 BKN220 12/09 Q1014 BLU/;",
"10122099999","2010-08-25T21:20:00","4","53.5335","7.888667","7.31","JEVER, GM","FM-15","ETNJ ","V020","240,1,N,0026,1","07200,1,C,N","011265,1,N,1","+0120,1","+0090,1","99999,9",,"07,5,+07200,1,99,9",,,"07,99,1,99,9,99,9,99999,9,99,9,99,9","10129,1,99999,9",,,,,"MET056METAR ETNJ 252120Z 24005KT 9999 BKN240 12/09 Q1013 BLU/;",
"10122099999","2010-08-25T22:20:00","4","53.5335","7.888667","7.31","JEVER, GM","FM-15","ETNJ ","V020","240,1,N,0026,1","06600,1,C,N","011265,1,N,1","+0130,1","+0090,1","99999,9",,"04,5,+03600,1,99,9","07,5,+06600,1,99,9",,"07,99,1,99,9,99,9,99999,9,99,9,99,9","10129,1,99999,9",,,,,"MET063METAR ETNJ 252220Z 24005KT 9999 SCT120 BKN220 13/09 Q1013 BLU/;",
"10122099999","2010-08-25T23:20:00","4","53.5335","7.888667","7.31","JEVER, GM","FM-15","ETNJ ","V020","240,1,N,0026,1","02700,1,C,N","011265,1,N,1","+0130,1","+0090,1","99999,9",,"07,5,+02700,1,99,9",,,"07,99,1,99,9,99,9,99999,9,99,9,99,9","10129,1,99999,9",,,,,"MET055METAR ETNJ 252320Z 24005KT 9999 BKN090 13/09 Q1013 BLU;",
"10122099999","2010-08-26T00:20:00","4","53.5335","7.888667","7.31","JEVER, GM","FM-15","ETNJ ","V020","210,1,N,0015,1","02400,1,C,N","011265,1,N,1","+0120,1","+0090,1","99999,9",,"07,5,+02400,1,99,9",,,"07,99,1,99,9,99,9,99999,9,99,9,99,9","10119,1,99999,9",,,,,"MET055METAR ETNJ 260020Z 21003KT 9999 BKN080 12/09 Q1012 BLU;",
"10122099999","2010-08-26T01:20:00","4","53.5335","7.888667","7.31","JEVER, GM","FM-15","ETNJ ","V020","130,1,N,0010,1","02100,1,C,N","011265,1,N,1","+0120,1","+0100,1","99999,9",,"07,5,+02100,1,99,9",,,"07,99,1,99,9,99,9,99999,9,99,9,99,9","10119,1,99999,9","61,1",,,,"MET059METAR ETNJ 260120Z 13002KT 9999 -RA BKN070 12/10 Q1012 BLU;",
"10122099999","2010-08-26T02:20:00","4","53.5335","7.888667","7.31","JEVER, GM","FM-15","ETNJ ","V020","160,1,N,0015,1","01800,1,C,N","011265,1,N,1","+0120,1","+0100,1","99999,9",,"04,5,+01050,1,99,9","07,5,+01800,1,99,9",,"07,99,1,99,9,99,9,99999,9,99,9,99,9","10108,1,99999,9","61,1",,,,"MET066METAR ETNJ 260220Z 16003KT 9999 -RA SCT035 BKN060 12/10 Q1011 BLU;",
"10122099999","2010-08-26T03:20:00","4","53.5335","7.888667","7.31","JEVER, GM","FM-15","ETNJ ","V020","160,1,N,0010,1","01500,1,C,N","011265,1,N,1","+0120,1","+0100,1","99999,9",,"07,5,+01500,1,99,9",,,"07,99,1,99,9,99,9,99999,9,99,9,99,9","10108,1,99999,9","61,1",,,,"MET059METAR ETNJ 260320Z 16002KT 9999 -RA BKN050 12/10 Q1011 BLU;",
"10122099999","2010-08-26T04:20:00","4","53.5335","7.888667","7.31","JEVER, GM","FM-15","ETNJ ","V020","120,1,N,0010,1","02100,1,C,N","011265,1,N,1","+0110,1","+0100,1","99999,9",,"02,5,+00900,1,99,9","08,5,+02100,1,99,9",,"08,99,1,99,9,99,9,99999,9,99,9,99,9","10102,1,99999,9","61,1",,,,"MET070METAR ETNJ 260420Z 12002KT 9999 -RA FEW030 OVC070 11/10 Q1010 BLU BLU;",
"10122099999","2010-08-26T05:20:00","4","53.5335","7.888667","7.31","JEVER, GM","FM-15","ETNJ ","V020","130,1,N,0010,1","01500,1,C,N","011265,1,N,1","+0120,1","+0110,1","99999,9",,"07,5,+01500,1,99,9",,,"07,99,1,99,9,99,9,99999,9,99,9,99,9","10102,1,99999,9","61,1",,,,"MET063METAR ETNJ 260520Z 13002KT 9999 -RA BKN050 12/11 Q1010 BLU BLU;",
"10122099999","2010-08-26T06:20:00","4","53.5335","7.888667","7.31","JEVER, GM","FM-15","ETNJ ","V020","110,1,N,0015,1","01050,1,C,N","011265,1,N,1","+0120,1","+0110,1","99999,9",,"07,5,+01050,1,99,9",,,"07,99,1,99,9,99,9,99999,9,99,9,99,9","10091,1,99999,9",,,,,"MET059METAR ETNJ 260620Z 11003KT 9999 BKN035 12/11 Q1009 BLU BLU;",
"10122099999","2010-08-26T07:20:00","4","53.5335","7.888667","7.31","JEVER, GM","FM-15","ETNJ ","V020","090,1,N,0010,1","00900,1,C,N","009000,1,N,1","+0130,1","+0110,1","99999,9",,"08,5,+00900,1,99,9",,,"08,99,1,99,9,99,9,99999,9,99,9,99,9","10091,1,99999,9","61,1",,,,"MET073METAR ETNJ 260720Z 09002KT 9000 -RA OVC030 13/11 Q1009 BLU BLU TEMPO YLO;",
"10122099999","2010-08-26T08:20:00","4","53.5335","7.888667","7.31","JEVER, GM","FM-15","ETNJ ","V020","090,1,N,0021,1","00840,1,C,N","009000,1,N,1","+0130,1","+0110,1","99999,9",,"07,5,+00840,1,99,9","07,5,+01440,1,99,9",,"07,99,1,99,9,99,9,99999,9,99,9,99,9","10091,1,99999,9","61,1",,,,"MET085METAR ETNJ 260820Z 09004KT 9000 -RA BKN028 BKN048 13/11 Q1009 RERA BLU BLU TEMPO YLO;",
"10122099999","2010-08-26T09:20:00","4","53.5335","7.888667","7.31","JEVER, GM","FM-15","ETNJ ","V020","080,1,N,0021,1","00780,1,C,N","009000,1,N,1","+0140,1","+0120,1","99999,9",,"07,5,+00780,1,99,9",,,"07,99,1,99,9,99,9,99999,9,99,9,99,9","10081,1,99999,9","61,1",,,,"MET073METAR ETNJ 260920Z 08004KT 9000 -RA BKN026 14/12 Q1008 BLU BLU TEMPO YLO;",
"10122099999","2010-08-26T10:20:00","4","53.5335","7.888667","7.31","JEVER, GM","FM-15","ETNJ ","V020","070,1,N,0021,1","00780,1,C,N","011265,1,N,1","+0140,1","+0110,1","99999,9",,"07,5,+00780,1,99,9","07,5,+01800,1,99,9",,"07,99,1,99,9,99,9,99999,9,99,9,99,9","10091,1,99999,9","61,1",,,,"MET070METAR ETNJ 261020Z 07004KT 9999 -RA BKN026 BKN060 14/11 Q1009 BLU BLU;",
"10122099999","2010-08-26T11:20:00","4","53.5335","7.888667","7.31","JEVER, GM","FM-15","ETNJ ","V020","080,1,N,0031,1","01500,1,C,N","011265,1,N,1","+0150,1","+0110,1","99999,9",,"04,5,+00780,1,99,9","07,5,+01500,1,99,9",,"07,99,1,99,9,99,9,99999,9,99,9,99,9","10081,1,99999,9",,,,,"MET066METAR ETNJ 261120Z 08006KT 9999 SCT026 BKN050 15/11 Q1008 BLU BLU;",
"10122099999","2010-08-26T12:20:00","4","53.5335","7.888667","7.31","JEVER, GM","FM-15","ETNJ ","V020","100,1,N,0031,1","01500,1,C,N","011265,1,N,1","+0160,1","+0100,1","99999,9",,"02,5,+00780,1,99,9","07,5,+01500,1,99,9",,"07,99,1,99,9,99,9,99999,9,99,9,99,9","10081,1,99999,9",,,,,"MET066METAR ETNJ 261220Z 10006KT 9999 FEW026 BKN050 16/10 Q1008 BLU BLU;",
"10122099999","2010-08-26T13:20:00","4","53.5335","7.888667","7.31","JEVER, GM","FM-15","ETNJ ","V020","090,1,N,0026,1","01500,1,C,N","011265,1,N,1","+0160,1","+0100,1","99999,9",,"02,5,+00780,1,99,9","07,5,+01500,1,99,9",,"07,99,1,99,9,99,9,99999,9,99,9,99,9","10081,1,99999,9",,,,,"MET066METAR ETNJ 261320Z 09005KT 9999 FEW026 BKN050 16/10 Q1008 BLU BLU;",
"10122099999","2010-08-26T13:52:00","4","53.5335","7.888667","7.31","JEVER, GM","FM-16","ETNJ ","V020","070,1,N,0026,1","01500,1,C,N","011265,1,N,1","+0160,1","+0100,1","99999,9",,"02,5,+00780,1,99,9","07,5,+01500,1,99,9",,"07,99,1,99,9,99,9,99999,9,99,9,99,9","10081,1,99999,9",,,,,"MET074SPECI ETNJ 261352Z 07005KT 9999 FEW026 BKN050 16/10 Q1008 BLU FCST CANCEL;",
"10122099999","2010-08-26T14:20:00","4","53.5335","7.888667","7.31","JEVER, GM","FM-15","ETNJ ","V020","080,1,N,0026,1","01500,1,C,N","011265,1,N,1","+0160,1","+0110,1","99999,9",,"02,5,+00780,1,99,9","07,5,+01500,1,99,9",,"07,99,1,99,9,99,9,99999,9,99,9,99,9","10081,1,99999,9","61,1",,,,"MET066METAR ETNJ 261420Z 08005KT 9999 -RA FEW026 BKN050 16/11 Q1008 BLU;",
"10122099999","2010-08-26T15:20:00","4","53.5335","7.888667","7.31","JEVER, GM","FM-15","ETNJ ","V020","080,1,N,0021,1","01500,1,C,N","011265,1,N,1","+0160,1","+0120,1","99999,9",,"07,5,+01500,1,99,9",,,"07,99,1,99,9,99,9,99999,9,99,9,99,9","10071,1,99999,9","61,1",,,,"MET059METAR ETNJ 261520Z 08004KT 9999 -RA BKN050 16/12 Q1007 BLU;",
"10122099999","2010-08-26T15:24:00","4","53.5335","7.888667","7.31","JEVER, GM","FM-16","ETNJ ","V020","080,1,N,0021,1","01500,1,C,N","011265,1,N,1","+0160,1","+0110,1","99999,9",,"07,5,+01500,1,99,9",,,"07,99,1,99,9,99,9,99999,9,99,9,99,9","10071,1,99999,9","61,1",,,,"MET059SPECI ETNJ 261524Z 08004KT 9999 -RA BKN050 16/11 Q1007 BLU;",
"10122099999","2010-08-26T16:20:00","4","53.5335","7.888667","7.31","JEVER, GM","FM-15","ETNJ ","V020","070,1,N,0021,1","01500,1,C,N","011265,1,N,1","+0160,1","+0120,1","99999,9",,"07,5,+01500,1,99,9",,,"07,99,1,99,9,99,9,99999,9,99,9,99,9","10071,1,99999,9","61,1",,,,"MET059METAR ETNJ 261620Z 07004KT 9999 -RA BKN050 16/12 Q1007 BLU;",
"10122099999","2010-08-26T17:20:00","4","53.5335","7.888667","7.31","JEVER, GM","FM-15","ETNJ ","V020","080,1,N,0026,1","00600,1,C,N","011265,1,N,1","+0150,1","+0120,1","99999,9",,"07,5,+00600,1,99,9",,,"07,99,1,99,9,99,9,99999,9,99,9,99,9","10061,1,99999,9","61,1",,,,"MET059METAR ETNJ 261720Z 08005KT 9999 -RA BKN020 15/12 Q1006 WHT;",
"10122099999","2010-08-26T18:24:00","4","53.5335","7.888667","7.31","JEVER, GM","FM-16","ETNJ ","V020","080,1,N,0021,1","00660,1,C,N","011265,1,N,1","+0150,1","+0130,1","99999,9",,"07,5,+00660,1,99,9",,,"07,99,1,99,9,99,9,99999,9,99,9,99,9","10061,1,99999,9",,,,,"MET055SPECI ETNJ 261824Z 08004KT 9999 BKN022 15/13 Q1006 WHT;",
"10122099999","2010-08-26T19:20:00","4","53.5335","7.888667","7.31","JEVER, GM","FM-15","ETNJ ","V020","080,1,N,0021,1","00600,1,C,N","011265,1,N,1","+0150,1","+0120,1","99999,9",,"07,5,+00600,1,99,9",,,"07,99,1,99,9,99,9,99999,9,99,9,99,9","10061,1,99999,9",,,,,"MET055METAR ETNJ 261920Z 08004KT 9999 BKN020 15/12 Q1006 WHT;",
"10122099999","2010-08-26T20:20:00","4","53.5335","7.888667","7.31","JEVER, GM","FM-15","ETNJ ","V020","070,1,N,0026,1","00690,1,C,N","011265,1,N,1","+0150,1","+0120,1","99999,9",,"07,5,+00690,1,99,9",,,"07,99,1,99,9,99,9,99999,9,99,9,99,9","10051,1,99999,9",,,,,"MET055METAR ETNJ 262020Z 07005KT 9999 BKN023 15/12 Q1005 WHT;",
"10122099999","2010-08-26T21:20:00","4","53.5335","7.888667","7.31","JEVER, GM","FM-15","ETNJ ","V020","070,1,N,0026,1","00690,1,C,N","011265,1,N,1","+0150,1","+0120,1","99999,9",,"07,5,+00690,1,99,9",,,"07,99,1,99,9,99,9,99999,9,99,9,99,9","10051,1,99999,9",,,,,"MET055METAR ETNJ 262120Z 07005KT 9999 BKN023 15/12 Q1005 WHT;",
"10122099999","2010-08-26T22:20:00","4","53.5335","7.888667","7.31","JEVER, GM","FM-15","ETNJ ","V020","090,1,N,0031,1","00600,1,C,N","011265,1,N,1","+0150,1","+0120,1","99999,9",,"07,5,+00600,1,99,9",,,"07,99,1,99,9,99,9,99999,9,99,9,99,9","10041,1,99999,9",,,,,"MET055METAR ETNJ 262220Z 09006KT 9999 BKN020 15/12 Q1004 WHT;",
"10122099999","2010-08-26T23:20:00","4","53.5335","7.888667","7.31","JEVER, GM","FM-15","ETNJ ","V020","090,1,N,0036,1","00540,1,C,N","011265,1,N,1","+0150,1","+0120,1","99999,9",,"04,5,+00390,1,99,9","07,5,+00540,1,99,9",,"07,99,1,99,9,99,9,99999,9,99,9,99,9","10031,1,99999,9",,,,,"MET062METAR ETNJ 262320Z 09007KT 9999 SCT013 BKN018 15/12 Q1003 WHT;",
"10122099999","2010-08-27T00:20:00","4","53.5335","7.888667","7.31","JEVER, GM","FM-15","ETNJ ","V020","070,1,N,0031,1","00480,1,C,N","009000,1,N,1","+0150,1","+0120,1","99999,9",,"04,5,+00390,1,99,9","07,5,+00480,1,99,9",,"07,99,1,99,9,99,9,99999,9,99,9,99,9","10020,1,99999,9",,,,,"MET062METAR ETNJ 270020Z 07006KT 9000 SCT013 BKN016 15/12 Q1002 WHT;",
"10122099999","2010-08-27T01:20:00","4","53.5335","7.888667","7.31","JEVER, GM","FM-15","ETNJ ","V020","070,1,N,0036,1","00420,1,C,N","004500,1,N,1","+0140,1","+0130,1","99999,9",,"07,5,+00420,1,99,9",,,"07,99,1,99,9,99,9,99999,9,99,9,99,9","10010,1,99999,9","10,1","51,1","61,1",,"MET064METAR ETNJ 270120Z 07007KT 4500 -RADZ BR BKN014 14/13 Q1001 GRN;",
"10122099999","2010-08-27T02:20:00","4","53.5335","7.888667","7.31","JEVER, GM","FM-15","ETNJ ","V020","070,1,N,0046,1","00480,1,C,N","005000,1,N,1","+0140,1","+0130,1","99999,9",,"07,5,+00480,1,99,9",,,"07,99,1,99,9,99,9,99999,9,99,9,99,9","10010,1,99999,9","10,1","51,1","61,1",,"MET064METAR ETNJ 270220Z 07009KT 5000 -RADZ BR BKN016 14/13 Q1001 WHT;",
"10122099999","2010-08-27T03:21:00","4","53.5335","7.888667","7.31","JEVER, GM","FM-16","ETNJ ","V020","060,1,N,0031,1","00300,1,C,N","003700,1,N,1","+0140,1","+0130,1","99999,9",,"04,5,+00180,1,99,9","07,5,+00300,1,99,9",,"07,99,1,99,9,99,9,99999,9,99,9,99,9","10010,1,99999,9","10,1","51,1","61,1",,"MET071SPECI ETNJ 270321Z 06006KT 3700 -RADZ BR SCT006 BKN010 14/13 Q1001 GRN;",
"10122099999","2010-08-27T04:20:00","4","53.5335","7.888667","7.31","JEVER, GM","FM-15","ETNJ ","V020","050,1,N,0036,1","00360,1,C,N","003700,1,N,1","+0130,1","+0120,1","99999,9",,"04,5,+00180,1,99,9","07,5,+00360,1,99,9",,"07,99,1,99,9,99,9,99999,9,99,9,99,9","10010,1,99999,9","10,1","51,1","61,1",,"MET071METAR ETNJ 270420Z 05007KT 3700 -DZRA BR SCT006 BKN012 13/12 Q1001 GRN;",
"10122099999","2010-08-27T05:20:00","4","53.5335","7.888667","7.31","JEVER, GM","FM-15","ETNJ ","V020","040,1,N,0041,1","00360,1,C,N","003700,1,N,1","+0130,1","+0110,1","99999,9",,"07,5,+00360,1,99,9","07,5,+00570,1,99,9",,"07,99,1,99,9,99,9,99999,9,99,9,99,9","10010,1,99999,9","10,1","51,1","61,1",,"MET085METAR ETNJ 270520Z 04008KT 3700 -DZRA BR BKN012 BKN019 13/11 Q1001 GRN GRN TEMPO YLO;",
"10122099999","2010-08-27T05:50:00","4","53.5335","7.888667","7.31","JEVER, GM","FM-16","ETNJ ","V020","040,1,N,0041,1","00180,1,C,N","002500,1,N,1","+0130,1","+0120,1","99999,9",,"07,5,+00180,1,99,9",,,"07,99,1,99,9,99,9,99999,9,99,9,99,9","10010,1,99999,9","10,1","53,1","63,1",,"MET077SPECI ETNJ 270550Z 04008KT 2500 DZRA BR BKN006 13/12 Q1001 YLO GRN TEMPO YLO;",
"10122099999","2010-08-27T06:20:00","4","53.5335","7.888667","7.31","JEVER, GM","FM-15","ETNJ ","V020","060,1,N,0041,1","00540,1,C,N","003000,1,N,1","+0130,1","+0120,1","99999,9",,"04,5,+00180,1,99,9","07,5,+00540,1,99,9",,"07,99,1,99,9,99,9,99999,9,99,9,99,9","10010,1,99999,9","10,1","51,1","61,1",,"MET090METAR ETNJ 270620Z 06008KT 3000 -RADZ BR SCT006 BKN018 13/12 Q1001 REDZ YLO GRN TEMPO YLO;",
"10122099999","2010-08-27T06:27:00","4","53.5335","7.888667","7.31","JEVER, GM","FM-16","ETNJ ","V020","060,1,N,0036,1","00750,1,C,N","007000,1,N,1","+0130,1","+0120,1","99999,9",,"04,5,+00180,1,99,9","07,5,+00750,1,99,9",,"07,99,1,99,9,99,9,99999,9,99,9,99,9","10010,1,99999,9","51,1","61,1",,,"MET082SPECI ETNJ 270627Z 06007KT 7000 -RADZ SCT006 BKN025 13/12 Q1001 WHT WHT TEMPO YLO;",
"10122099999","2010-08-27T07:20:00","4","53.5335","7.888667","7.31","JEVER, GM","FM-15","ETNJ ","V020","040,1,N,0036,1","00990,1,C,N","005000,1,N,1","+0140,1","+0120,1","99999,9",,"04,5,+00450,1,99,9","07,5,+00990,1,99,9",,"07,99,1,99,9,99,9,99999,9,99,9,99,9","10010,1,99999,9","10,1","51,1","61,1",,"MET085METAR ETNJ 270720Z 04007KT 5000 -RADZ BR SCT015 BKN033 14/12 Q1001 WHT WHT TEMPO YLO;",
"10122099999","2010-08-27T08:20:00","4","53.5335","7.888667","7.31","JEVER, GM","FM-15","ETNJ ","V020","040,1,N,0041,1","00570,1,C,N","005000,1,N,1","+0130,1","+0110,1","99999,9",,"04,5,+00300,1,99,9","07,5,+00570,1,99,9","08,5,+01350,1,99,9","08,99,1,99,9,99,9,99999,9,99,9,99,9","10020,1,99999,9","10,1","63,1",,,"MET089METAR ETNJ 270820Z 04008KT 5000 RA BR SCT010 BKN019 OVC045 13/11 Q1002 WHT WHT TEMPO YLO;",
"10122099999","2010-08-27T09:20:00","4","53.5335","7.888667","7.31","JEVER, GM","FM-15","ETNJ ","V020","040,1,N,0036,1","00900,1,C,N","005000,1,N,1","+0120,1","+0100,1","99999,9",,"02,5,+00300,1,99,9","07,5,+00900,1,99,9","08,5,+01350,1,99,9","08,99,1,99,9,99,9,99999,9,99,9,99,9","10031,1,99999,9","10,1","63,1",,,"MET087METAR ETNJ 270920Z 04007KT 5000 RA BR FEW010 BKN030 OVC045 12/10 Q1003 WHT FCST CANCEL;",
"10122099999","2010-08-27T11:20:00","4","53.5335","7.888667","7.31","JEVER, GM","FM-15","ETNJ ","V020","020,1,N,0031,1","00750,1,C,N","004500,1,N,1","+0130,1","+0120,1","99999,9",,"07,5,+00750,1,99,9","08,5,+01500,1,99,9",,"08,99,1,99,9,99,9,99999,9,99,9,99,9","10031,1,99999,9","10,1","63,1",,,"MET068METAR ETNJ 271120Z 02006KT 4500 RA BR BKN025 OVC050 13/12 Q1003 GRN;",
"10122099999","2010-08-27T12:20:00","4","53.5335","7.888667","7.31","JEVER, GM","FM-15","ETNJ ","V020","010,1,N,0036,1","00300,1,C,N","005000,1,N,1","+0140,1","+0120,1","99999,9",,"07,5,+00300,1,99,9","08,5,+01200,1,99,9",,"08,99,1,99,9,99,9,99999,9,99,9,99,9","10041,1,99999,9","10,1","63,1",,,"MET068METAR ETNJ 271220Z 01007KT 5000 RA BR BKN010 OVC040 14/12 Q1004 GRN;",
"10122099999","2010-08-27T13:20:00","4","53.5335","7.888667","7.31","JEVER, GM","FM-15","ETNJ ","V020","010,1,N,0026,1","00990,1,C,N","006000,1,N,1","+0140,1","+0120,1","99999,9",,"04,5,+00360,1,99,9","07,5,+00990,1,99,9",,"07,99,1,99,9,99,9,99999,9,99,9,99,9","10051,1,99999,9","61,1",,,,"MET071METAR ETNJ 271320Z 01005KT 6000 -RA SCT012 BKN033 14/12 Q1005 RERA WHT;",
"10122099999","2010-08-27T14:20:00","4","53.5335","7.888667","7.31","JEVER, GM","FM-15","ETNJ ","V020","020,1,N,0031,1","01500,1,C,N","011265,1,N,1","+0150,1","+0110,1","99999,9",,"02,5,+00480,1,99,9","07,5,+01500,1,99,9",,"07,99,1,99,9,99,9,99999,9,99,9,99,9","10051,1,99999,9",,,,,"MET062METAR ETNJ 271420Z 02006KT 9999 FEW016 BKN050 15/11 Q1005 BLU;",
"10122099999","2010-08-27T15:20:00","4","53.5335","7.888667","7.31","JEVER, GM","FM-15","ETNJ ","V020","360,1,N,0041,1","01500,1,C,N","011265,1,N,1","+0160,1","+0100,1","99999,9",,"02,5,+00750,1,99,9","07,5,+01500,1,99,9",,"07,99,1,99,9,99,9,99999,9,99,9,99,9","10061,1,99999,9",,,,,"MET062METAR ETNJ 271520Z 36008KT 9999 FEW025 BKN050 16/10 Q1006 BLU;",
"10122099999","2010-08-27T16:20:00","4","53.5335","7.888667","7.31","JEVER, GM","FM-15","ETNJ ","V020","350,1,N,0036,1","22000,1,9,N","011265,1,N,1","+0160,1","+0100,1","99999,9",,"04,5,+00750,1,99,9",,,"04,99,1,99,9,99,9,99999,9,99,9,99,9","10061,1,99999,9",,,,,"MET056METAR ETNJ 271620Z 35007KT 9999 SCT025 16/10 Q1006 BLU/;",
"10122099999","2010-08-27T17:20:00","4","53.5335","7.888667","7.31","JEVER, GM","FM-15","ETNJ ","V020","330,1,N,0031,1","99999,9,C,N","011265,1,N,1","+0150,1","+0090,1","99999,9",,"02,5,+00750,1,99,9","04,5,+01500,1,99,9",,"04,99,1,99,9,99,9,99999,9,99,9,99,9","10071,1,99999,9",,,,,"MET063METAR ETNJ 271720Z 33006KT 9999 FEW025 SCT050 15/09 Q1007 BLU/;","P01 015003SCOCIG"
"10122099999","2010-08-27T18:20:00","4","53.5335","7.888667","7.31","JEVER, GM","FM-15","ETNJ ","V020","310,1,N,0026,1","22000,1,9,N","011265,1,N,1","+0130,1","+0090,1","99999,9",,"02,5,+00750,1,99,9",,,"02,99,1,99,9,99,9,99999,9,99,9,99,9","10071,1,99999,9",,,,,"MET056METAR ETNJ 271820Z 31005KT 9999 FEW025 13/09 Q1007 BLU/;",
"10122099999","2010-08-27T19:20:00","4","53.5335","7.888667","7.31","JEVER, GM","FM-15","ETNJ ","V020","300,1,N,0021,1","01500,1,C,N","011265,1,N,1","+0140,1","+0100,1","99999,9",,"02,5,+00900,1,99,9","07,5,+01500,1,99,9",,"07,99,1,99,9,99,9,99999,9,99,9,99,9","10081,1,99999,9",,,,,"MET062METAR ETNJ 271920Z 30004KT 9999 FEW030 BKN050 14/10 Q1008 BLU;",
"10122099999","2010-08-27T20:20:00","4","53.5335","7.888667","7.31","JEVER, GM","FM-15","ETNJ ","V020","320,1,N,0026,1","01500,1,C,N","011265,1,N,1","+0150,1","+0110,1","99999,9",,"02,5,+00900,1,99,9","07,5,+01500,1,99,9",,"07,99,1,99,9,99,9,99999,9,99,9,99,9","10081,1,99999,9",,,,,"MET062METAR ETNJ 272020Z 32005KT 9999 FEW030 BKN050 15/11 Q1008 BLU;",
"10122099999","2010-08-27T21:20:00","4","53.5335","7.888667","7.31","JEVER, GM","FM-15","ETNJ ","V020","300,1,N,0036,1","01350,1,C,N","011265,1,N,1","+0140,1","+0100,1","99999,9",,"02,5,+00900,1,99,9","07,5,+01350,1,99,9",,"07,99,1,99,9,99,9,99999,9,99,9,99,9","10091,1,99999,9",,,,,"MET062METAR ETNJ 272120Z 30007KT 9999 FEW030 BKN045 14/10 Q1009 BLU;",
"10122099999","2010-08-27T22:20:00","4","53.5335","7.888667","7.31","JEVER, GM","FM-15","ETNJ ","V020","290,1,N,0031,1","99999,9,C,N","011265,1,N,1","+0130,1","+0100,1","99999,9",,"02,5,+00810,1,99,9","04,5,+01500,1,99,9",,"04,99,1,99,9,99,9,99999,9,99,9,99,9","10091,1,99999,9",,,,,"MET063METAR ETNJ 272220Z 29006KT 9999 FEW027 SCT050 13/10 Q1009 BLU/;","P01 015003SCOCIG"
"10122099999","2010-08-27T23:20:00","4","53.5335","7.888667","7.31","JEVER, GM","FM-15","ETNJ ","V020","310,1,N,0036,1","07500,1,C,N","011265,1,N,1","+0130,1","+0100,1","99999,9",,"02,5,+00900,1,99,9","07,5,+07500,1,99,9",,"07,99,1,99,9,99,9,99999,9,99,9,99,9","10091,1,99999,9",,,,,"MET063METAR ETNJ 272320Z 31007KT 9999 FEW030 BKN250 13/10 Q1009 BLU/;",
"10122099999","2010-08-28T00:20:00","4","53.5335","7.888667","7.31","JEVER, GM","FM-15","ETNJ ","V020","310,1,N,0046,1","07500,1,C,N","011265,1,N,1","+0140,1","+0100,1","99999,9",,"02,5,+00900,1,99,9","07,5,+07500,1,99,9",,"07,99,1,99,9,99,9,99999,9,99,9,99,9","10102,1,99999,9",,,,,"MET063METAR ETNJ 280020Z 31009KT 9999 FEW030 BKN250 14/10 Q1010 BLU/;",
"10122099999","2010-08-28T01:20:00","4","53.5335","7.888667","7.31","JEVER, GM","FM-15","ETNJ ","V020","310,1,N,0036,1","06000,1,C,N","011265,1,N,1","+0130,1","+0100,1","99999,9",,"02,5,+00900,1,99,9","07,5,+06000,1,99,9",,"07,99,1,99,9,99,9,99999,9,99,9,99,9","10102,1,99999,9",,,,,"MET063METAR ETNJ 280120Z 31007KT 9999 FEW030 BKN200 13/10 Q1010 BLU/;",
"10122099999","2010-08-28T02:20:00","4","53.5335","7.888667","7.31","JEVER, GM","FM-15","ETNJ ","V020","300,1,N,0036,1","06000,1,C,N","011265,1,N,1","+0120,1","+0100,1","99999,9",,"02,5,+00900,1,99,9","07,5,+06000,1,99,9",,"07,99,1,99,9,99,9,99999,9,99,9,99,9","10108,1,99999,9",,,,,"MET063METAR ETNJ 280220Z 30007KT 9999 FEW030 BKN200 12/10 Q1011 BLU/;",
"10122099999","2010-08-28T03:20:00","4","53.5335","7.888667","7.31","JEVER, GM","FM-15","ETNJ ","V020","300,1,N,0031,1","99999,9,C,N","011265,1,N,1","+0120,1","+0090,1","99999,9",,"04,5,+00900,1,99,9","04,5,+06000,1,99,9",,"04,99,1,99,9,99,9,99999,9,99,9,99,9","10108,1,99999,9",,,,,"MET063METAR ETNJ 280320Z 30006KT 9999 SCT030 SCT200 12/09 Q1011 BLU/;","P01 060003SCOCIG"
"10122099999","2010-08-28T04:20:00","4","53.5335","7.888667","7.31","JEVER, GM","FM-15","ETNJ ","V020","270,1,N,0021,1","22000,1,9,N","011265,1,N,1","+0110,1","+0090,1","99999,9",,"02,5,+00900,1,02,1",,,"02,99,1,99,9,99,9,99999,9,99,9,99,9","10108,1,99999,9",,,,,"MET059METAR ETNJ 280420Z 27004KT 9999 FEW030TCU 11/09 Q1011 BLU/;",
"10122099999","2010-08-28T05:20:00","4","53.5335","7.888667","7.31","JEVER, GM","FM-15","ETNJ ","V020","280,1,N,0036,1","99999,9,C,N","011265,1,N,1","+0120,1","+0090,1","99999,9",,"02,5,+00900,1,02,1","04,5,+01800,1,99,9",,"04,99,1,99,9,99,9,99999,9,99,9,99,9","10119,1,99999,9","80,1",,,,"MET072METAR ETNJ 280520Z 28007KT 9999 -SHRA FEW030TCU SCT060 12/09 Q1012 BLU/;","P01 018003SCOCIG"
"10122099999","2010-08-28T06:20:00","4","53.5335","7.888667","7.31","JEVER, GM","FM-15","ETNJ ","V020","280,1,N,0051,1","01800,1,C,N","011265,1,N,1","+0120,1","+0110,1","99999,9",,"02,5,+00900,1,02,1","07,5,+01800,1,99,9",,"07,99,1,99,9,99,9,99999,9,99,9,99,9","10119,1,99999,9",,,,,"MET070METAR ETNJ 280620Z 28010KT 9999 FEW030TCU BKN060 12/11 Q1012 RERA BLU;",
"10122099999","2010-08-28T07:20:00","4","53.5335","7.888667","7.31","JEVER, GM","FM-15","ETNJ ","V020","260,1,N,0036,1","01800,1,C,N","011265,1,N,1","+0140,1","+0100,1","99999,9",,"02,5,+00900,1,99,9","07,5,+01800,1,99,9",,"07,99,1,99,9,99,9,99999,9,99,9,99,9","10119,1,99999,9",,,,,"MET062METAR ETNJ 280720Z 26007KT 9999 FEW030 BKN060 14/10 Q1012 BLU;",
"10122099999","2010-08-28T08:20:00","4","53.5335","7.888667","7.31","JEVER, GM","FM-15","ETNJ ","V020","290,1,N,0026,1","99999,9,C,N","011265,1,N,1","+0130,1","+0100,1","99999,9",,"02,5,+00840,1,02,1","04,5,+02040,5,99,9",,"04,99,1,99,9,99,9,99999,9,99,9,99,9","10129,1,99999,9",,,,,"MET066METAR ETNJ 280820Z 29005KT 9999 FEW028TCU SCT068 13/10 Q1013 BLU/;","P01 020403SCOCIG"
"10122099999","2010-08-28T09:20:00","4","53.5335","7.888667","7.31","JEVER, GM","FM-15","ETNJ ","V020","290,1,N,0051,1","99999,9,C,N","011265,1,N,1","+0160,1","+0110,1","99999,9",,"02,5,+00780,1,02,1","04,5,+02100,1,99,9",,"04,99,1,99,9,99,9,99999,9,99,9,99,9","10129,1,99999,9",,,,,"MET071METAR ETNJ 280920Z 29010KT 9999 FEW026TCU SCT070 16/11 Q1013 RERA BLU/;","P01 021003SCOCIG"
"10122099999","2010-08-28T10:20:00","4","53.5335","7.888667","7.31","JEVER, GM","FM-15","ETNJ ","V020","310,1,N,0036,1","99999,9,C,N","011265,1,N,1","+0130,1","+0100,1","99999,9",,"02,5,+00900,1,02,1","04,5,+03000,1,99,9",,"04,99,1,99,9,99,9,99999,9,99,9,99,9","10129,1,99999,9",,,,,"MET071METAR ETNJ 281020Z 31007KT 9999 FEW030TCU SCT100 13/10 Q1013 RERA BLU/;","P01 030003SCOCIG"
"10122099999","2010-08-28T11:20:00","4","53.5335","7.888667","7.31","JEVER, GM","FM-15","ETNJ ","V020","290,1,N,0062,1","22000,1,9,N","011265,1,N,1","+0170,1","+0100,1","99999,9",,"02,5,+00900,1,99,9",,,"02,99,1,99,9,99,9,99999,9,99,9,99,9","10129,1,99999,9",,,,,"MET056METAR ETNJ 281120Z 29012KT 9999 FEW030 17/10 Q1013 BLU/;",
"10122099999","2010-08-28T12:20:00","4","53.5335","7.888667","7.31","JEVER, GM","FM-15","ETNJ ","V020","320,1,N,0036,1","99999,9,C,N","011265,1,N,1","+0160,1","+0110,1","99999,9",,"04,5,+01020,1,02,1","04,5,+01350,1,99,9",,"04,99,1,99,9,99,9,99999,9,99,9,99,9","10129,1,99999,9",,,,,"MET066METAR ETNJ 281220Z 32007KT 9999 SCT034TCU SCT045 16/11 Q1013 BLU/;","P01 013503SCOCIG"
"10122099999","2010-08-28T13:20:00","4","53.5335","7.888667","7.31","JEVER, GM","FM-15","ETNJ ","V020","290,1,N,0057,1","01380,1,C,N","011265,1,N,1","+0150,1","+0080,1","99999,9",,"04,5,+00960,1,99,9","07,5,+01380,1,99,9",,"07,99,1,99,9,99,9,99999,9,99,9,99,9","10129,1,99999,9",,,,,"MET062METAR ETNJ 281320Z 29011KT 9999 SCT032 BKN046 15/08 Q1013 BLU;",
"10122099999","2010-08-28T14:20:00","4","53.5335","7.888667","7.31","JEVER, GM","FM-15","ETNJ ","V020","290,1,N,0041,1","01800,1,C,N","009000,1,N,1","+0130,1","+0100,1","99999,9",,"04,5,+01140,1,02,1","07,5,+01800,1,99,9",,"07,99,1,99,9,99,9,99999,9,99,9,99,9","10129,1,99999,9","80,1",,,,"MET071METAR ETNJ 281420Z 29008KT 9000 -SHRA SCT038TCU BKN060 13/10 Q1013 BLU;",
"10122099999","2010-08-28T15:20:00","4","53.5335","7.888667","7.31","JEVER, GM","FM-15","ETNJ ","V020","300,1,N,0041,1","99999,9,C,N","011265,1,N,1","+0150,1","+0100,1","99999,9",,"04,5,+01380,1,02,1","04,5,+01740,5,99,9",,"04,99,1,99,9,99,9,99999,9,99,9,99,9","10129,1,99999,9","80,1",,,,"MET072METAR ETNJ 281520Z 30008KT 9999 -SHRA SCT046TCU SCT058 15/10 Q1013 BLU/;","P01 017403SCOCIG"
"10122099999","2010-08-28T16:20:00","4","53.5335","7.888667","7.31","JEVER, GM","FM-15","ETNJ ","V020","300,1,N,0057,1","22000,1,9,N","011265,1,N,1","+0160,1","+0120,1","99999,9",,"04,5,+00900,1,09,1",,,"04,99,1,99,9,99,9,99999,9,99,9,99,9","10129,1,99999,9",,,,,"MET058METAR ETNJ 281620Z 30011KT 9999 SCT030CB 16/12 Q1013 BLU/;",
"10122099999","2010-08-28T17:20:00","4","53.5335","7.888667","7.31","JEVER, GM","FM-15","ETNJ ","V020","300,1,N,0036,1","22000,1,9,N","011265,1,N,1","+0160,1","+0100,1","99999,9",,"02,5,+00900,1,02,1",,,"02,99,1,99,9,99,9,99999,9,99,9,99,9","10129,1,99999,9",,,,,"MET059METAR ETNJ 281720Z 30007KT 9999 FEW030TCU 16/10 Q1013 BLU/;",
"10122099999","2010-08-28T18:20:00","4","53.5335","7.888667","7.31","JEVER, GM","FM-15","ETNJ ","V020","270,1,N,0021,1","99999,9,C,N","011265,1,N,1","+0120,1","+0090,1","99999,9",,"02,5,+00750,1,02,1","04,5,+01500,1,99,9",,"04,99,1,99,9,99,9,99999,9,99,9,99,9","10129,1,99999,9",,,,,"MET066METAR ETNJ 281820Z 27004KT 9999 FEW025TCU SCT050 12/09 Q1013 BLU/;","P01 015003SCOCIG"
"10122099999","2010-08-28T19:20:00","4","53.5335","7.888667","7.31","JEVER, GM","FM-15","ETNJ ","V020","250,1,N,0031,1","99999,9,C,N","011265,1,N,1","+0120,1","+0100,1","99999,9",,"04,5,+00750,1,02,1","04,5,+01500,1,99,9",,"04,99,1,99,9,99,9,99999,9,99,9,99,9","10129,1,99999,9","80,1",,,,"MET072METAR ETNJ 281920Z 25006KT 9999 -SHRA SCT025TCU SCT050 12/10 Q1013 BLU/;","P01 015003SCOCIG"
"10122099999","2010-08-28T20:20:00","4","53.5335","7.888667","7.31","JEVER, GM","FM-15","ETNJ ","V020","340,1,N,0005,1","99999,9,C,N","011265,1,N,1","+0110,1","+0090,1","99999,9",,"02,5,+00750,1,02,1","04,5,+07500,1,99,9",,"04,99,1,99,9,99,9,99999,9,99,9,99,9","10129,1,99999,9",,,,,"MET066METAR ETNJ 282020Z 34001KT 9999 FEW025TCU SCT250 11/09 Q1013 BLU/;","P01 075003SCOCIG"
"10122099999","2010-08-28T21:20:00","4","53.5335","7.888667","7.31","JEVER, GM","FM-15","ETNJ ","V020","240,1,N,0031,1","05700,1,C,N","011265,1,N,1","+0110,1","+0090,1","99999,9",,"02,5,+01800,1,99,9","07,5,+05700,1,99,9",,"07,99,1,99,9,99,9,99999,9,99,9,99,9","10119,1,99999,9",,,,,"MET062METAR ETNJ 282120Z 24006KT 9999 FEW060 BKN190 11/09 Q1012 BLU;",
"10122099999","2010-08-28T22:20:00","4","53.5335","7.888667","7.31","JEVER, GM","FM-15","ETNJ ","V020","230,1,N,0026,1","02700,1,C,N","011265,1,N,1","+0110,1","+0100,1","99999,9",,"02,5,+00900,1,99,9","07,5,+02700,1,99,9",,"07,99,1,99,9,99,9,99999,9,99,9,99,9","10119,1,99999,9",,,,,"MET062METAR ETNJ 282220Z 23005KT 9999 FEW030 BKN090 11/10 Q1012 BLU;",
"10122099999","2010-08-28T23:20:00","4","53.5335","7.888667","7.31","JEVER, GM","FM-15","ETNJ ","V020","250,1,N,0031,1","02100,1,C,N","011265,1,N,1","+0110,1","+0100,1","99999,9",,"07,5,+02100,1,99,9",,,"07,99,1,99,9,99,9,99999,9,99,9,99,9","10119,1,99999,9",,,,,"MET055METAR ETNJ 282320Z 25006KT 9999 BKN070 11/10 Q1012 BLU;",
"10122099999","2010-08-29T00:20:00","4","53.5335","7.888667","7.31","JEVER, GM","FM-15","ETNJ ","V020","250,1,N,0036,1","03000,1,C,N","011265,1,N,1","+0110,1","+0100,1","99999,9",,"02,5,+00900,1,99,9","07,5,+03000,1,99,9",,"07,99,1,99,9,99,9,99999,9,99,9,99,9","10108,1,99999,9",,,,,"MET062METAR ETNJ 290020Z 25007KT 9999 FEW030 BKN100 11/10 Q1011 BLU;",
"10122099999","2010-08-29T01:20:00","4","53.5335","7.888667","7.31","JEVER, GM","FM-15","ETNJ ","V020","230,1,N,0036,1","99999,9,C,N","011265,1,N,1","+0100,1","+0090,1","99999,9",,"02,5,+00900,1,99,9","04,5,+02700,1,99,9",,"04,99,1,99,9,99,9,99999,9,99,9,99,9","10102,1,99999,9",,,,,"MET063METAR ETNJ 290120Z 23007KT 9999 FEW030 SCT090 10/09 Q1010 BLU/;","P01 027003SCOCIG"
"10122099999","2010-08-29T02:20:00","4","53.5335","7.888667","7.31","JEVER, GM","FM-15","ETNJ ","V020","240,1,N,0046,1","99999,9,C,N","011265,1,N,1","+0100,1","+0100,1","99999,9",,"02,5,+00120,1,99,9","04,5,+03000,1,99,9",,"04,99,1,99,9,99,9,99999,9,99,9,99,9","10102,1,99999,9",,,,,"MET063METAR ETNJ 290220Z 24009KT 9999 FEW004 SCT100 10/10 Q1010 BLU/;","P01 030003SCOCIG"
"10122099999","2010-08-29T03:20:00","4","53.5335","7.888667","7.31","JEVER, GM","FM-15","ETNJ ","V020","240,1,N,0046,1","00150,1,C,N","011265,1,N,1","+0110,1","+0100,1","99999,9",,"07,5,+00150,1,99,9","07,5,+02100,1,99,9",,"07,99,1,99,9,99,9,99999,9,99,9,99,9","10102,1,99999,9",,,,,"MET062METAR ETNJ 290320Z 24009KT 9999 BKN005 BKN070 11/10 Q1010 YLO;",
"10122099999","2010-08-29T04:20:00","4","53.5335","7.888667","7.31","JEVER, GM","FM-15","ETNJ ","V020","240,1,N,0036,1","02100,1,C,N","008000,1,N,1","+0110,1","+0100,1","99999,9",,"04,5,+00150,1,99,9","07,5,+02100,1,99,9",,"07,99,1,99,9,99,9,99999,9,99,9,99,9","10091,1,99999,9",,,,,"MET062METAR ETNJ 290420Z 24007KT 8000 SCT005 BKN070 11/10 Q1009 BLU;",
"10122099999","2010-08-29T05:20:00","4","53.5335","7.888667","7.31","JEVER, GM","FM-15","ETNJ ","V020","240,1,N,0031,1","99999,9,C,N","008000,1,N,1","+0110,1","+0100,1","99999,9",,"04,5,+00090,1,99,9","04,5,+00900,1,99,9",,"04,99,1,99,9,99,9,99999,9,99,9,99,9","10091,1,99999,9",,,,,"MET063METAR ETNJ 290520Z 24006KT 8000 SCT003 SCT030 11/10 Q1009 BLU/;","P01 009003SCOCIG"
"10122099999","2010-08-29T06:20:00","4","53.5335","7.888667","7.31","JEVER, GM","FM-15","ETNJ ","V020","250,1,N,0041,1","99999,9,C,N","011265,1,N,1","+0120,1","+0110,1","99999,9",,"02,5,+00090,1,99,9","04,5,+00900,1,99,9",,"04,99,1,99,9,99,9,99999,9,99,9,99,9","10091,1,99999,9",,,,,"MET063METAR ETNJ 290620Z 25008KT 9999 FEW003 SCT030 12/11 Q1009 BLU/;","P01 009003SCOCIG"
"10122099999","2010-08-29T07:20:00","4","53.5335","7.888667","7.31","JEVER, GM","FM-15","ETNJ ","V020","250,1,N,0041,1","99999,9,C,N","011265,1,N,1","+0140,1","+0110,1","99999,9",,"02,5,+00090,1,99,9","04,5,+00600,1,99,9",,"04,99,1,99,9,99,9,99999,9,99,9,99,9","10081,1,99999,9",,,,,"MET063METAR ETNJ 290720Z 25008KT 9999 FEW003 SCT020 14/11 Q1008 BLU/;","P01 006003SCOCIG"
"10122099999","2010-08-29T08:20:00","4","53.5335","7.888667","7.31","JEVER, GM","FM-15","ETNJ ","V020","250,1,N,0051,1","03900,1,C,N","011265,1,N,1","+0150,1","+0120,1","99999,9",,"02,5,+00300,1,99,9","07,5,+03900,1,99,9",,"07,99,1,99,9,99,9,99999,9,99,9,99,9","10081,1,99999,9",,,,,"MET062METAR ETNJ 290820Z 25010KT 9999 FEW010 BKN130 15/12 Q1008 BLU;",
"10122099999","2010-08-29T09:20:00","4","53.5335","7.888667","7.31","JEVER, GM","FM-15","ETNJ ","V020","260,1,N,0051,1","04500,1,C,N","011265,1,N,1","+0170,1","+0110,1","99999,9",,"04,5,+00600,1,99,9","07,5,+04500,1,99,9",,"07,99,1,99,9,99,9,99999,9,99,9,99,9","10081,1,99999,9",,,,,"MET062METAR ETNJ 290920Z 26010KT 9999 SCT020 BKN150 17/11 Q1008 BLU;",
"10122099999","2010-08-29T10:20:00","4","53.5335","7.888667","7.31","JEVER, GM","FM-15","ETNJ ","V020","240,1,N,0051,1","04500,1,C,N","011265,1,N,1","+0170,1","+0100,1","99999,9",,"04,5,+00600,1,99,9","07,5,+04500,1,99,9",,"07,99,1,99,9,99,9,99999,9,99,9,99,9","10071,1,99999,9",,,,,"MET062METAR ETNJ 291020Z 24010KT 9999 SCT020 BKN150 17/10 Q1007 BLU;",
"10122099999","2010-08-29T11:20:00","4","53.5335","7.888667","7.31","JEVER, GM","FM-15","ETNJ ","V020","230,1,N,0057,1","00750,1,C,N","009000,1,N,1","+0160,1","+0090,1","99999,9",,"07,5,+00750,1,02,1",,,"07,99,1,99,9,99,9,99999,9,99,9,99,9","10061,1,99999,9","80,1",,,,"MET064METAR ETNJ 291120Z 23011KT 9000 -SHRA BKN025TCU 16/09 Q1006 BLU;",
"10122099999","2010-08-29T12:20:00","4","53.5335","7.888667","7.31","JEVER, GM","FM-15","ETNJ ","V020","220,1,N,0046,1","01500,1,C,N","011265,1,N,1","+0140,1","+0120,1","99999,9",,"04,5,+00750,1,02,1","07,5,+01500,1,99,9",,"07,99,1,99,9,99,9,99999,9,99,9,99,9","10061,1,99999,9",,,,,"MET065METAR ETNJ 291220Z 22009KT 9999 SCT025TCU BKN050 14/12 Q1006 BLU;",
"10122099999","2010-08-29T13:20:00","4","53.5335","7.888667","7.31","JEVER, GM","FM-15","ETNJ ","V020","230,1,N,0067,1","00750,1,C,N","011265,1,N,1","+0140,1","+0120,1","99999,9",,"02,5,+00450,1,99,9","04,5,+00750,1,02,5","07,5,+01380,1,99,9","07,99,1,99,9,99,9,99999,9,99,9,99,9","10051,1,99999,9","80,1",,,,"MET078METAR ETNJ 291320Z 23013KT 9999 -SHRA FEW015 SCT025TCU BKN046 14/12 Q1005 BLU;",
"10122099999","2010-08-29T14:20:00","4","53.5335","7.888667","7.31","JEVER, GM","FM-15","ETNJ ","V020","210,1,N,0046,1","00750,1,C,N","011265,1,N,1","+0140,1","+0120,1","99999,9",,"02,5,+00450,1,99,9","04,5,+00750,1,02,5","07,5,+01380,1,99,9","07,99,1,99,9,99,9,99999,9,99,9,99,9","10041,1,99999,9",,,,,"MET072METAR ETNJ 291420Z 21009KT 9999 FEW015 SCT025TCU BKN046 14/12 Q1004 BLU;",
"10122099999","2010-08-29T15:20:00","4","53.5335","7.888667","7.31","JEVER, GM","FM-15","ETNJ ","V020","200,1,N,0036,1","00540,1,C,N","011265,1,N,1","+0140,1","+0110,1","99999,9",,"02,5,+00300,1,99,9","04,5,+00540,1,02,5","07,5,+01500,1,99,9","07,99,1,99,9,99,9,99999,9,99,9,99,9","10031,1,99999,9",,,,,"MET072METAR ETNJ 291520Z 20007KT 9999 FEW010 SCT018TCU BKN050 14/11 Q1003 BLU;",
"10122099999","2010-08-29T16:20:00","4","53.5335","7.888667","7.31","JEVER, GM","FM-15","ETNJ ","V020","230,1,N,0051,1","00540,1,C,N","011265,1,N,1","+0140,1","+0110,1","99999,9",,"02,5,+00300,1,99,9","04,5,+00540,1,09,5","07,5,+01500,1,99,9","07,99,1,99,9,99,9,99999,9,99,9,99,9","10020,1,99999,9","80,1",,,,"MET077METAR ETNJ 291620Z 23010KT 9999 -SHRA FEW010 SCT018CB BKN050 14/11 Q1002 BLU;",
"10122099999","2010-08-29T17:20:00","4","53.5335","7.888667","7.31","JEVER, GM","FM-15","ETNJ ","V020","250,1,N,0041,1","00450,1,C,N","011265,1,N,1","+0120,1","+0100,1","99999,9",,"02,5,+00300,1,99,9","04,5,+00450,1,09,5","07,5,+01500,1,99,9","07,99,1,99,9,99,9,99999,9,99,9,99,9","10010,1,99999,9","80,1",,,,"MET082METAR ETNJ 291720Z 25008KT 9999 -SHRA FEW010 SCT015CB BKN050 12/10 Q1001 RERA BLU;",
"10122099999","2010-08-29T18:20:00","4","53.5335","7.888667","7.31","JEVER, GM","FM-15","ETNJ ","V020","230,1,N,0031,1","01500,1,C,N","011265,1,N,1","+0110,1","+0100,1","99999,9",,"02,5,+00420,1,02,1","07,5,+01500,1,99,9",,"07,99,1,99,9,99,9,99999,9,99,9,99,9","10010,1,99999,9",,,,,"MET065METAR ETNJ 291820Z 23006KT 9999 FEW014TCU BKN050 11/10 Q1001 BLU;",
"10122099999","2010-08-29T19:20:00","4","53.5335","7.888667","7.31","JEVER, GM","FM-15","ETNJ ","V020","260,1,N,0046,1","00420,1,C,N","011265,1,N,1","+0110,1","+0090,1","99999,9",,"02,5,+00240,1,99,9","04,5,+00420,1,02,5","07,5,+01140,1,99,9","07,99,1,99,9,99,9,99999,9,99,9,99,9","10020,1,99999,9","80,1",,,,"MET083METAR ETNJ 291920Z 26009KT 9999 -SHRA FEW008 SCT014TCU BKN038 11/09 Q1002 RERA BLU;",
"10122099999","2010-08-29T20:20:00","4","53.5335","7.888667","7.31","JEVER, GM","FM-15","ETNJ ","V020","240,1,N,0031,1","00810,1,C,N","011265,1,N,1","+0090,1","+0070,1","99999,9",,"02,5,+00420,1,99,9","04,5,+00810,1,99,9","07,5,+02400,1,99,9","07,99,1,99,9,99,9,99999,9,99,9,99,9","10010,1,99999,9",,,,,"MET069METAR ETNJ 292020Z 24006KT 9999 FEW014 SCT027 BKN080 09/07 Q1001 BLU;",
"10122099999","2010-08-29T21:20:00","4","53.5335","7.888667","7.31","JEVER, GM","FM-15","ETNJ ","V020","220,1,N,0026,1","01500,1,C,N","011265,1,N,1","+0090,1","+0080,1","99999,9",,"02,5,+00810,1,99,9","07,5,+01500,1,99,9",,"07,99,1,99,9,99,9,99999,9,99,9,99,9","10010,1,99999,9",,,,,"MET062METAR ETNJ 292120Z 22005KT 9999 FEW027 BKN050 09/08 Q1001 BLU;",
"10122099999","2010-08-29T22:20:00","4","53.5335","7.888667","7.31","JEVER, GM","FM-15","ETNJ ","V020","190,1,N,0015,1","03000,1,C,N","011265,1,N,1","+0080,1","+0070,1","99999,9",,"02,5,+01500,1,99,9","07,5,+03000,1,99,9",,"07,99,1,99,9,99,9,99999,9,99,9,99,9","10020,1,99999,9",,,,,"MET062METAR ETNJ 292220Z 19003KT 9999 FEW050 BKN100 08/07 Q1002 BLU;",
"10122099999","2010-08-29T23:20:00","4","53.5335","7.888667","7.31","JEVER, GM","FM-15","ETNJ ","V020","160,1,N,0010,1","99999,9,C,N","011265,1,N,1","+0070,1","+0060,1","99999,9",,"02,5,+01500,1,99,9","04,5,+03000,1,99,9",,"04,99,1,99,9,99,9,99999,9,99,9,99,9","10020,1,99999,9",,,,,"MET063METAR ETNJ 292320Z 16002KT 9999 FEW050 SCT100 07/06 Q1002 BLU/;","P01 030003SCOCIG"
"10122099999","2010-08-30T00:20:00","4","53.5335","7.888667","7.31","JEVER, GM","FM-15","ETNJ ","V020","170,1,N,0010,1","99999,9,C,N","011265,1,N,1","+0070,1","+0060,1","99999,9",,"02,5,+01500,1,99,9","04,5,+03000,1,99,9",,"04,99,1,99,9,99,9,99999,9,99,9,99,9","10020,1,99999,9",,,,,"MET063METAR ETNJ 300020Z 17002KT 9999 FEW050 SCT100 07/06 Q1002 BLU/;","P01 030003SCOCIG"
"10122099999","2010-08-30T01:20:00","4","53.5335","7.888667","7.31","JEVER, GM","FM-15","ETNJ ","V020","170,1,N,0005,1","01140,1,C,N","011265,1,N,1","+0070,1","+0060,1","99999,9",,"07,5,+01140,1,99,9",,,"07,99,1,99,9,99,9,99999,9,99,9,99,9","10031,1,99999,9",,,,,"MET055METAR ETNJ 300120Z 17001KT 9999 BKN038 07/06 Q1003 BLU;",
"10122099999","2010-08-30T02:20:00","4","53.5335","7.888667","7.31","JEVER, GM","FM-15","ETNJ ","V020","220,1,N,0010,1","03000,1,C,N","009000,1,N,1","+0070,1","+0060,1","99999,9",,"04,5,+00990,1,99,9","07,5,+03000,1,99,9",,"07,99,1,99,9,99,9,99999,9,99,9,99,9","10031,1,99999,9",,,,,"MET062METAR ETNJ 300220Z 22002KT 9000 SCT033 BKN100 07/06 Q1003 BLU;",
"10122099999","2010-08-30T03:20:00","4","53.5335","7.888667","7.31","JEVER, GM","FM-15","ETNJ ","V020","999,9,C,0000,1","03600,1,C,N","011265,1,N,1","+0070,1","+0070,1","99999,9",,"02,5,+00720,1,99,9","07,5,+03600,1,99,9",,"07,99,1,99,9,99,9,99999,9,99,9,99,9","10041,1,99999,9",,,,,"MET062METAR ETNJ 300320Z 00000KT 9999 FEW024 BKN120 07/07 Q1004 BLU;",
"10122099999","2010-08-30T04:20:00","4","53.5335","7.888667","7.31","JEVER, GM","FM-15","ETNJ ","V020","290,1,N,0015,1","03600,1,C,N","011265,1,N,1","+0070,1","+0070,1","99999,9",,"02,5,+00750,1,99,9","07,5,+03600,1,99,9",,"07,99,1,99,9,99,9,99999,9,99,9,99,9","10051,1,99999,9","61,1",,,,"MET080METAR ETNJ 300420Z 29003KT 9999 -RA FEW025 BKN120 07/07 Q1005 BLU BLU TEMPO GRN;",
"10122099999","2010-08-30T05:20:00","4","53.5335","7.888667","7.31","JEVER, GM","FM-15","ETNJ ","V020","300,1,N,0015,1","00960,1,C,N","011265,1,N,1","+0080,1","+0070,1","99999,9",,"07,5,+00960,1,99,9",,,"07,99,1,99,9,99,9,99999,9,99,9,99,9","10051,1,99999,9",,,,,"MET069METAR ETNJ 300520Z 30003KT 9999 BKN032 08/07 Q1005 BLU BLU TEMPO GRN;",
"10122099999","2010-08-30T06:20:00","4","53.5335","7.888667","7.31","JEVER, GM","FM-15","ETNJ ","V020","330,1,N,0021,1","00900,1,C,N","011265,1,N,1","+0100,1","+0090,1","99999,9",,"04,5,+00450,1,99,9","07,5,+00900,1,99,9",,"07,99,1,99,9,99,9,99999,9,99,9,99,9","10061,1,99999,9","80,1",,,,"MET087METAR ETNJ 300620Z 33004KT 9999 -SHRA SCT015 BKN030 10/09 Q1006 RERA BLU BLU TEMPO GRN;",
"10122099999","2010-08-30T07:20:00","4","53.5335","7.888667","7.31","JEVER, GM","FM-15","ETNJ ","V020","040,1,N,0041,1","00450,1,C,N","011265,1,N,1","+0140,1","+0120,1","99999,9",,"07,5,+00450,1,99,9","07,5,+00900,1,99,9",,"07,99,1,99,9,99,9,99999,9,99,9,99,9","10081,1,99999,9",,,,,"MET076METAR ETNJ 300720Z 04008KT 9999 BKN015 BKN030 14/12 Q1008 WHT BLU TEMPO GRN;",
"10122099999","2010-08-30T08:20:00","4","53.5335","7.888667","7.31","JEVER, GM","FM-15","ETNJ ","V020","030,1,N,0046,1","00450,1,C,N","011265,1,N,1","+0150,1","+0120,1","99999,9",,"07,5,+00450,1,99,9","07,5,+00900,1,99,9",,"07,99,1,99,9,99,9,99999,9,99,9,99,9","10091,1,99999,9",,,,,"MET076METAR ETNJ 300820Z 03009KT 9999 BKN015 BKN030 15/12 Q1009 WHT BLU TEMPO GRN;",
"10122099999","2010-08-30T10:20:00","4","53.5335","7.888667","7.31","JEVER, GM","FM-15","ETNJ ","V020","030,1,N,0067,1","00780,1,C,N","011265,1,N,1","+0160,1","+0110,1","99999,9",,"07,5,+00780,1,99,9","04,5,+02100,1,99,9",,,"10119,1,99999,9",,,,"0129,1","MET079METAR ETNJ 301020Z 03013G25KT 9999 BKN026 SCT070 16/11 Q1012 BLU BLU TEMPO GRN;","Q01+000042SCOTCV"
"10122099999","2010-08-30T11:20:00","4","53.5335","7.888667","7.31","JEVER, GM","FM-15","ETNJ ","V020","020,1,N,0051,1","00810,1,C,N","011265,1,N,1","+0170,1","+0110,1","99999,9",,"07,5,+00810,1,99,9",,,"07,99,1,99,9,99,9,99999,9,99,9,99,9","10129,1,99999,9",,,,,"MET069METAR ETNJ 301120Z 02010KT 9999 BKN027 17/11 Q1013 BLU BLU TEMPO GRN;",
"10122099999","2010-08-30T12:20:00","4","53.5335","7.888667","7.31","JEVER, GM","FM-15","ETNJ ","V020","010,1,N,0062,1","22000,1,9,N","011265,1,N,1","+0180,1","+0110,1","99999,9",,"04,5,+00750,1,99,9",,,"04,99,1,99,9,99,9,99999,9,99,9,99,9","10139,1,99999,9",,,,"0113,1","MET063METAR ETNJ 301220Z 01012G22KT 9999 SCT025 18/11 Q1014 BLU/BLU/;",
"10122099999","2010-08-30T12:31:00","4","53.5335","7.888667","7.31","JEVER, GM","FM-16","ETNJ ","V020","020,1,N,0051,1","22000,1,9,N","011265,1,N,1","+0170,1","+0100,1","99999,9",,"04,5,+00750,1,99,9",,,"04,99,1,99,9,99,9,99999,9,99,9,99,9","10129,1,99999,9",,,,,"MET067SPECI ETNJ 301231Z 02010KT 9999 SCT025 17/10 Q1013 BLU/FCST CANCEL;",
"10122099999","2010-08-30T13:20:00","4","53.5335","7.888667","7.31","JEVER, GM","FM-15","ETNJ ","V020","010,1,N,0062,1","22000,1,9,N","011265,1,N,1","+0180,1","+0100,1","99999,9",,"04,5,+00750,1,99,9",,,"04,99,1,99,9,99,9,99999,9,99,9,99,9","10139,1,99999,9",,,,,"MET056METAR ETNJ 301320Z 01012KT 9999 SCT025 18/10 Q1014 BLU/;",
"10122099999","2010-08-30T14:20:00","4","53.5335","7.888667","7.31","JEVER, GM","FM-15","ETNJ ","V020","020,1,N,0057,1","22000,1,9,N","011265,1,N,1","+0180,1","+0100,1","99999,9",,"04,5,+00750,1,99,9",,,"04,99,1,99,9,99,9,99999,9,99,9,99,9","10149,1,99999,9",,,,,"MET056METAR ETNJ 301420Z 02011KT 9999 SCT025 18/10 Q1015 BLU/;",
"10122099999","2010-08-30T15:20:00","4","53.5335","7.888667","7.31","JEVER, GM","FM-15","ETNJ ","V020","360,1,N,0062,1","22000,1,9,N","011265,1,N,1","+0180,1","+0100,1","99999,9",,"04,5,+00750,1,99,9",,,"04,99,1,99,9,99,9,99999,9,99,9,99,9","10159,1,99999,9",,,,,"MET056METAR ETNJ 301520Z 36012KT 9999 SCT025 18/10 Q1016 BLU/;",
"10122099999","2010-08-30T16:20:00","4","53.5335","7.888667","7.31","JEVER, GM","FM-15","ETNJ ","V020","010,1,N,0046,1","22000,1,9,N","011265,1,N,1","+0180,1","+0100,1","99999,9",,"04,5,+00750,1,99,9",,,"04,99,1,99,9,99,9,99999,9,99,9,99,9","10159,1,99999,9",,,,,"MET056METAR ETNJ 301620Z 01009KT 9999 SCT025 18/10 Q1016 BLU/;",
"10122099999","2010-08-30T17:20:00","4","53.5335","7.888667","7.31","JEVER, GM","FM-15","ETNJ ","V020","010,1,N,0041,1","22000,1,9,N","011265,1,N,1","+0140,1","+0090,1","99999,9",,"04,5,+00660,1,09,1",,,"04,99,1,99,9,99,9,99999,9,99,9,99,9","10169,1,99999,9",,,,,"MET058METAR ETNJ 301720Z 01008KT 9999 SCT022CB 14/09 Q1017 BLU/;",
"10122099999","2010-08-30T17:29:00","4","53.5335","7.888667","7.31","JEVER, GM","FM-16","ETNJ ","V020","360,1,N,0046,1","00660,1,C,N","006000,1,N,1","+0140,1","+0110,1","99999,9",,"07,5,+00660,1,09,1",,,"07,99,1,99,9,99,9,99999,9,99,9,99,9","10169,1,99999,9","81,1","88,1",,"0108,1","MET067SPECI ETNJ 301729Z 36009G21KT 6000 SHRAGS BKN022CB 14/11 Q1017 WHT;",
"10122099999","2010-08-30T18:20:00","4","53.5335","7.888667","7.31","JEVER, GM","FM-15","ETNJ ","V020","340,1,N,0026,1","01500,1,C,N","006000,1,N,1","+0140,1","+0100,1","99999,9",,"04,5,+00660,1,09,1","07,5,+01500,1,99,9",,"07,99,1,99,9,99,9,99999,9,99,9,99,9","10180,1,99999,9","81,1","88,1",,"0087,1","MET074METAR ETNJ 301820Z 34005G17KT 6000 SHRAGS SCT022CB BKN050 14/10 Q1018 WHT;",
"10122099999","2010-08-30T19:20:00","4","53.5335","7.888667","7.31","JEVER, GM","FM-15","ETNJ ","V020","010,1,N,0021,1","01500,1,C,N","008000,1,N,1","+0130,1","+0100,1","99999,9",,"04,5,+00750,1,09,1","07,5,+01500,1,99,9",,"07,99,1,99,9,99,9,99999,9,99,9,99,9","10180,1,99999,9","80,1",,,,"MET075METAR ETNJ 301920Z 01004KT 8000 -SHRA SCT025CB BKN050 13/10 Q1018 REGS BLU;",
"10122099999","2010-08-30T19:24:00","4","53.5335","7.888667","7.31","JEVER, GM","FM-16","ETNJ ","V020","030,1,N,0026,1","01500,1,C,N","008000,1,N,1","+0130,1","+0100,1","99999,9",,"04,5,+00750,1,09,1","07,5,+01500,1,99,9",,"07,99,1,99,9,99,9,99999,9,99,9,99,9","10180,1,99999,9","80,1","95,1",,,"MET075SPECI ETNJ 301924Z 03005KT 8000 -TSRA SCT025CB BKN050 13/10 Q1018 REGS BLU;",
"10122099999","2010-08-30T20:20:00","4","53.5335","7.888667","7.31","JEVER, GM","FM-15","ETNJ ","V020","999,9,V,0005,1","99999,9,C,N","011265,1,N,1","+0120,1","+0100,1","99999,9",,"02,5,+00750,1,09,1","04,5,+01500,1,99,9",,"04,99,1,99,9,99,9,99999,9,99,9,99,9","10190,1,99999,9",,,,,"MET070METAR ETNJ 302020Z VRB01KT 9999 FEW025CB SCT050 12/10 Q1019 RETS BLU/;","P01 015003SCOCIG"
"10122099999","2010-08-30T20:51:00","4","53.5335","7.888667","7.31","JEVER, GM","FM-16","ETNJ ","V020","330,1,N,0015,1","99999,9,C,N","011265,1,N,1","+0130,1","+0100,1","99999,9",,"04,5,+00750,1,09,1","04,5,+01500,1,99,9",,"04,99,1,99,9,99,9,99999,9,99,9,99,9","10190,1,99999,9","17,1",,,,"MET068SPECI ETNJ 302051Z 33003KT 9999 TS SCT025CB SCT050 13/10 Q1019 BLU/;","P01 015003SCOCIG"
"10122099999","2010-08-30T21:20:00","4","53.5335","7.888667","7.31","JEVER, GM","FM-15","ETNJ ","V020","050,1,N,0021,1","99999,9,C,N","011265,1,N,1","+0140,1","+0120,1","99999,9",,"04,5,+00750,1,09,1","04,5,+01500,1,99,9",,"04,99,1,99,9,99,9,99999,9,99,9,99,9","10190,1,99999,9",,,,,"MET070METAR ETNJ 302120Z 05004KT 9999 SCT025CB SCT050 14/12 Q1019 RETS BLU/;","P01 015003SCOCIG"
"10122099999","2010-08-30T22:20:00","4","53.5335","7.888667","7.31","JEVER, GM","FM-15","ETNJ ","V020","010,1,N,0021,1","01500,1,C,N","011265,1,N,1","+0130,1","+0100,1","99999,9",,"04,5,+00750,1,09,1","07,5,+01500,1,99,9",,"07,99,1,99,9,99,9,99999,9,99,9,99,9","10190,1,99999,9","80,1",,,,"MET070METAR ETNJ 302220Z 01004KT 9999 -SHRA SCT025CB BKN050 13/10 Q1019 BLU;",
"10122099999","2010-08-30T23:20:00","4","53.5335","7.888667","7.31","JEVER, GM","FM-15","ETNJ ","V020","290,1,N,0015,1","22000,1,9,N","011265,1,N,1","+0120,1","+0100,1","99999,9",,"04,5,+00750,1,02,1",,,"04,99,1,99,9,99,9,99999,9,99,9,99,9","10200,1,99999,9",,,,,"MET059METAR ETNJ 302320Z 29003KT 9999 SCT025TCU 12/10 Q1020 BLU/;",
"10122099999","2010-08-31T00:20:00","4","53.5335","7.888667","7.31","JEVER, GM","FM-15","ETNJ ","V020","280,1,N,0010,1","99999,9,C,N","011265,1,N,1","+0100,1","+0090,1","99999,9",,"02,5,+00750,1,02,1","04,5,+01680,5,99,9",,"04,99,1,99,9,99,9,99999,9,99,9,99,9","10200,1,99999,9",,,,,"MET066METAR ETNJ 310020Z 28002KT 9999 FEW025TCU SCT056 10/09 Q1020 BLU/;","P01 016803SCOCIG"
"10122099999","2010-08-31T01:20:00","4","53.5335","7.888667","7.31","JEVER, GM","FM-15","ETNJ ","V020","290,1,N,0010,1","99999,9,C,N","011265,1,N,1","+0110,1","+0100,1","99999,9",,"02,5,+00750,1,02,1","04,5,+01680,5,99,9",,"04,99,1,99,9,99,9,99999,9,99,9,99,9","10200,1,99999,9","80,1",,,,"MET072METAR ETNJ 310120Z 29002KT 9999 -SHRA FEW025TCU SCT056 11/10 Q1020 BLU/;","P01 016803SCOCIG"
"10122099999","2010-08-31T02:20:00","4","53.5335","7.888667","7.31","JEVER, GM","FM-15","ETNJ ","V020","300,1,N,0015,1","99999,9,C,N","011265,1,N,1","+0110,1","+0100,1","99999,9",,"02,5,+00750,1,02,1","04,5,+01680,5,99,9",,"04,99,1,99,9,99,9,99999,9,99,9,99,9","10200,1,99999,9",,,,,"MET066METAR ETNJ 310220Z 30003KT 9999 FEW025TCU SCT056 11/10 Q1020 BLU/;","P01 016803SCOCIG"
"10122099999","2010-08-31T03:20:00","4","53.5335","7.888667","7.31","JEVER, GM","FM-15","ETNJ ","V020","290,1,N,0015,1","99999,9,C,N","011265,1,N,1","+0110,1","+0100,1","99999,9",,"02,5,+00750,1,02,1","04,5,+01500,1,99,9",,"04,99,1,99,9,99,9,99999,9,99,9,99,9","10200,1,99999,9",,,,,"MET066METAR ETNJ 310320Z 29003KT 9999 FEW025TCU SCT050 11/10 Q1020 BLU/;","P01 015003SCOCIG"
"10122099999","2010-08-31T04:20:00","4","53.5335","7.888667","7.31","JEVER, GM","FM-15","ETNJ ","V020","280,1,N,0015,1","22000,1,9,N","011265,1,N,1","+0100,1","+0090,1","99999,9",,"02,5,+00750,1,99,9",,,"02,99,1,99,9,99,9,99999,9,99,9,99,9","10210,1,99999,9","12,1",,,,"MET074METAR ETNJ 310420Z 28003KT 9999 MIFG FEW025 10/09 Q1021 BLU/BLU TEMPO GRN;",
"10122099999","2010-08-31T05:20:00","4","53.5335","7.888667","7.31","JEVER, GM","FM-15","ETNJ ","V020","999,9,C,0000,1","22000,1,9,N","011265,1,N,1","+0100,1","+0090,1","99999,9",,"02,5,+00750,1,02,1",,,"02,99,1,99,9,99,9,99999,9,99,9,99,9","10210,1,99999,9","12,1",,,,"MET077METAR ETNJ 310520Z 00000KT 9999 MIFG FEW025TCU 10/09 Q1021 BLU/BLU TEMPO GRN;",
"10122099999","2010-08-31T06:20:00","4","53.5335","7.888667","7.31","JEVER, GM","FM-15","ETNJ ","V020","290,1,N,0010,1","22000,1,9,N","011265,1,N,1","+0120,1","+0120,1","99999,9",,"02,5,+00750,1,02,1",,,"02,99,1,99,9,99,9,99999,9,99,9,99,9","10210,1,99999,9",,,,,"MET072METAR ETNJ 310620Z 29002KT 9999 FEW025TCU 12/12 Q1021 BLU/BLU TEMPO GRN;",
"10122099999","2010-08-31T07:20:00","4","53.5335","7.888667","7.31","JEVER, GM","FM-15","ETNJ ","V020","210,1,N,0005,1","22000,1,9,N","011265,1,N,1","+0160,1","+0140,1","99999,9",,"02,5,+00900,1,02,1",,,"02,99,1,99,9,99,9,99999,9,99,9,99,9","10210,1,99999,9",,,,,"MET072METAR ETNJ 310720Z 21001KT 9999 FEW030TCU 16/14 Q1021 BLU/BLU TEMPO GRN;",
"10122099999","2010-08-31T08:20:00","4","53.5335","7.888667","7.31","JEVER, GM","FM-15","ETNJ ","V020","260,1,N,0021,1","01500,1,C,N","011265,1,N,1","+0150,1","+0120,1","99999,9",,"04,5,+00810,1,02,1","07,5,+01500,1,99,9",,"07,99,1,99,9,99,9,99999,9,99,9,99,9","10220,1,99999,9","80,1",,,,"MET085METAR ETNJ 310820Z 26004KT 9999 -SHRA SCT027TCU BKN050 15/12 Q1022 BLU BLU TEMPO GRN;",
"10122099999","2010-08-31T09:20:00","4","53.5335","7.888667","7.31","JEVER, GM","FM-15","ETNJ ","V020","340,1,N,0015,1","01500,1,C,N","011265,1,N,1","+0160,1","+0130,1","99999,9",,"02,5,+00780,1,02,1","07,5,+01500,1,99,9",,"07,99,1,99,9,99,9,99999,9,99,9,99,9","10220,1,99999,9",,,,,"MET079METAR ETNJ 310920Z 34003KT 9999 FEW026TCU BKN050 16/13 Q1022 BLU BLU TEMPO GRN;",
"10122099999","2010-08-31T10:20:00","4","53.5335","7.888667","7.31","JEVER, GM","FM-15","ETNJ ","V020","010,1,N,0026,1","22000,1,9,N","011265,1,N,1","+0170,1","+0120,1","99999,9",,"04,5,+00720,1,02,1",,,"04,99,1,99,9,99,9,99999,9,99,9,99,9","10220,1,99999,9",,,,,"MET072METAR ETNJ 311020Z 01005KT 9999 SCT024TCU 17/12 Q1022 BLU/BLU TEMPO GRN;",
"10122099999","2010-08-31T11:20:00","4","53.5335","7.888667","7.31","JEVER, GM","FM-15","ETNJ ","V020","360,1,N,0046,1","99999,9,C,N","011265,1,N,1","+0170,1","+0110,1","99999,9",,"02,5,+00900,1,02,1","04,5,+02400,1,99,9",,"04,99,1,99,9,99,9,99999,9,99,9,99,9","10220,1,99999,9",,,,,"MET079METAR ETNJ 311120Z 36009KT 9999 FEW030TCU SCT080 17/11 Q1022 BLU/BLU TEMPO GRN;","P01 024003SCOCIG"
"10122099999","2010-08-31T12:00:00","4","53.5335","7.888667","7.31","JEVER, GM","FM-15","ETNJ ","V020","360,1,N,0036,1","00660,1,C,N","006000,1,N,1","+0170,1","+0110,1","99999,9",,"07,5,+00660,1,02,1",,,"07,99,1,99,9,99,9,99999,9,99,9,99,9","10220,1,99999,9","81,1",,,,"MET067SPECI ETNJ 311158Z 36007KT 6000 SHRA BKN022TCU 17/11 Q1022 WHT BLU;",
"10122099999","2010-08-31T12:20:00","4","53.5335","7.888667","7.31","JEVER, GM","FM-15","ETNJ ","V020","320,1,N,0036,1","01440,1,C,N","011265,1,N,1","+0150,1","+0120,1","99999,9",,"02,5,+00600,1,02,1","07,5,+01440,1,99,9",,"07,99,1,99,9,99,9,99999,9,99,9,99,9","10220,1,99999,9","80,1",,,,"MET080METAR ETNJ 311220Z 32007KT 9999 -SHRA FEW020TCU BKN048 15/12 Q1022 RERA BLU BLU;",
"10122099999","2010-08-31T13:20:00","4","53.5335","7.888667","7.31","JEVER, GM","FM-15","ETNJ ","V020","240,1,N,0046,1","99999,9,C,N","011265,1,N,1","+0170,1","+0110,1","99999,9",,"02,5,+00750,1,99,9","04,5,+02100,1,99,9",,"04,99,1,99,9,99,9,99999,9,99,9,99,9","10220,1,99999,9",,,,,"MET066METAR ETNJ 311320Z 24009KT 9999 FEW025 SCT070 17/11 Q1022 BLU/BLU;","P01 021003SCOCIG"
"10122099999","2010-08-31T13:47:00","4","53.5335","7.888667","7.31","JEVER, GM","FM-16","ETNJ ","V020","360,1,N,0041,1","22000,1,9,N","011265,1,N,1","+0170,1","+0100,1","99999,9",,"04,5,+00840,1,99,9",,,"04,99,1,99,9,99,9,99999,9,99,9,99,9","10220,1,99999,9",,,,,"MET067SPECI ETNJ 311347Z 36008KT 9999 SCT028 17/10 Q1022 BLU/FCST CANCEL;",
"10122099999","2010-08-31T14:20:00","4","53.5335","7.888667","7.31","JEVER, GM","FM-15","ETNJ ","V020","330,1,N,0051,1","22000,1,9,N","011265,1,N,1","+0170,1","+0090,1","99999,9",,"04,5,+00960,1,99,9",,,"04,99,1,99,9,99,9,99999,9,99,9,99,9","10220,1,99999,9",,,,,"MET056METAR ETNJ 311420Z 33010KT 9999 SCT032 17/09 Q1022 BLU/;",
"10122099999","2010-08-31T15:20:00","4","53.5335","7.888667","7.31","JEVER, GM","FM-15","ETNJ ","V020","320,1,N,0051,1","22000,1,9,N","011265,1,N,1","+0170,1","+0080,1","99999,9",,"04,5,+00900,1,99,9",,,"04,99,1,99,9,99,9,99999,9,99,9,99,9","10220,1,99999,9",,,,,"MET056METAR ETNJ 311520Z 32010KT 9999 SCT030 17/08 Q1022 BLU/;",
"10122099999","2010-08-31T16:20:00","4","53.5335","7.888667","7.31","JEVER, GM","FM-15","ETNJ ","V020","320,1,N,0041,1","22000,1,9,N","011265,1,N,1","+0160,1","+0080,1","99999,9",,"02,5,+00900,1,99,9",,,"02,99,1,99,9,99,9,99999,9,99,9,99,9","10220,1,99999,9",,,,,"MET056METAR ETNJ 311620Z 32008KT 9999 FEW030 16/08 Q1022 BLU/;",
"10122099999","2010-08-31T17:20:00","4","53.5335","7.888667","7.31","JEVER, GM","FM-15","ETNJ ","V020","310,1,N,0041,1","22000,1,9,N","011265,1,N,1","+0150,1","+0090,1","99999,9",,"02,5,+00900,1,99,9",,,"02,99,1,99,9,99,9,99999,9,99,9,99,9","10210,1,99999,9",,,,,"MET056METAR ETNJ 311720Z 31008KT 9999 FEW030 15/09 Q1021 BLU/;",
"10122099999","2010-08-31T18:20:00","4","53.5335","7.888667","7.31","JEVER, GM","FM-15","ETNJ ","V020","320,1,N,0026,1","99999,9,C,N","011265,1,N,1","+0140,1","+0090,1","99999,9",,"02,5,+00900,1,99,9","04,5,+04500,1,99,9",,"04,99,1,99,9,99,9,99999,9,99,9,99,9","10210,1,99999,9",,,,,"MET063METAR ETNJ 311820Z 32005KT 9999 FEW030 SCT150 14/09 Q1021 BLU/;","P01 045003SCOCIG"
"10122099999","2010-08-31T19:20:00","4","53.5335","7.888667","7.31","JEVER, GM","FM-15","ETNJ ","V020","280,1,N,0026,1","04500,1,C,N","011265,1,N,1","+0130,1","+0090,1","99999,9",,"02,5,+00900,1,99,9","07,5,+04500,1,99,9",,"07,99,1,99,9,99,9,99999,9,99,9,99,9","10210,1,99999,9",,,,,"MET062METAR ETNJ 311920Z 28005KT 9999 FEW030 BKN150 13/09 Q1021 BLU;",
"10122099999","2010-08-31T20:20:00","4","53.5335","7.888667","7.31","JEVER, GM","FM-15","ETNJ ","V020","300,1,N,0026,1","02100,1,C,N","011265,1,N,1","+0130,1","+0100,1","99999,9",,"02,5,+00900,1,99,9","07,5,+02100,1,99,9",,"07,99,1,99,9,99,9,99999,9,99,9,99,9","10210,1,99999,9","80,1",,,,"MET068METAR ETNJ 312020Z 30005KT 9999 -SHRA FEW030 BKN070 13/10 Q1021 BLU;",
"10122099999","2010-08-31T21:20:00","4","53.5335","7.888667","7.31","JEVER, GM","FM-15","ETNJ ","V020","280,1,N,0026,1","01500,1,C,N","011265,1,N,1","+0120,1","+0100,1","99999,9",,"02,5,+00750,1,99,9","07,5,+01500,1,99,9",,"07,99,1,99,9,99,9,99999,9,99,9,99,9","10210,1,99999,9",,,,,"MET062METAR ETNJ 312120Z 28005KT 9999 FEW025 BKN050 12/10 Q1021 BLU;",
"10122099999","2010-08-31T22:20:00","4","53.5335","7.888667","7.31","JEVER, GM","FM-15","ETNJ ","V020","290,1,N,0021,1","01500,1,C,N","011265,1,N,1","+0130,1","+0110,1","99999,9",,"02,5,+00750,1,99,9","07,5,+01500,1,99,9",,"07,99,1,99,9,99,9,99999,9,99,9,99,9","10210,1,99999,9",,,,,"MET062METAR ETNJ 312220Z 29004KT 9999 FEW025 BKN050 13/11 Q1021 BLU;",
"10122099999","2010-08-31T23:20:00","4","53.5335","7.888667","7.31","JEVER, GM","FM-15","ETNJ ","V020","290,1,N,0021,1","01500,1,C,N","011265,1,N,1","+0130,1","+0120,1","99999,9",,"02,5,+00750,1,99,9","07,5,+01500,1,99,9",,"07,99,1,99,9,99,9,99999,9,99,9,99,9","10210,1,99999,9",,,,,"MET062METAR ETNJ 312320Z 29004KT 9999 FEW025 BKN050 13/12 Q1021 BLU;",
"10122099999","2010-09-01T00:20:00","4","53.5335","7.888667","7.31","JEVER, GM","FM-15","ETNJ ","V020","290,1,N,0021,1","01500,1,C,N","011265,1,N,1","+0130,1","+0120,1","99999,9",,"02,5,+00750,1,99,9","07,5,+01500,1,99,9",,"07,99,1,99,9,99,9,99999,9,99,9,99,9","10200,1,99999,9",,,,,"MET062METAR ETNJ 010020Z 29004KT 9999 FEW025 BKN050 13/12 Q1020 BLU;",
"10122099999","2010-09-01T01:20:00","4","53.5335","7.888667","7.31","JEVER, GM","FM-15","ETNJ ","V020","300,1,N,0021,1","01500,1,C,N","011265,1,N,1","+0120,1","+0110,1","99999,9",,"02,5,+00750,1,99,9","07,5,+01500,1,99,9",,"07,99,1,99,9,99,9,99999,9,99,9,99,9","10200,1,99999,9",,,,,"MET062METAR ETNJ 010120Z 30004KT 9999 FEW025 BKN050 12/11 Q1020 BLU;",
"10122099999","2010-09-01T02:20:00","4","53.5335","7.888667","7.31","JEVER, GM","FM-15","ETNJ ","V020","290,1,N,0021,1","01500,1,C,N","011265,1,N,1","+0120,1","+0110,1","99999,9",,"02,5,+00750,1,99,9","07,5,+01500,1,99,9",,"07,99,1,99,9,99,9,99999,9,99,9,99,9","10200,1,99999,9",,,,,"MET062METAR ETNJ 010220Z 29004KT 9999 FEW025 BKN050 12/11 Q1020 BLU;",
"10122099999","2010-09-01T03:20:00","4","53.5335","7.888667","7.31","JEVER, GM","FM-15","ETNJ ","V020","290,1,N,0021,1","01500,1,C,N","011265,1,N,1","+0120,1","+0100,1","99999,9",,"02,5,+00750,1,99,9","07,5,+01500,1,99,9",,"07,99,1,99,9,99,9,99999,9,99,9,99,9","10200,1,99999,9",,,,,"MET062METAR ETNJ 010320Z 29004KT 9999 FEW025 BKN050 12/10 Q1020 BLU;",
"10122099999","2010-09-01T04:20:00","4","53.5335","7.888667","7.31","JEVER, GM","FM-15","ETNJ ","V020","290,1,N,0021,1","03600,1,C,N","011265,1,N,1","+0120,1","+0100,1","99999,9",,"02,5,+00750,1,99,9","07,5,+03600,1,99,9",,"07,99,1,99,9,99,9,99999,9,99,9,99,9","10200,1,99999,9",,,,,"MET066METAR ETNJ 010420Z 29004KT 9999 FEW025 BKN120 12/10 Q1020 BLU BLU;",
"10122099999","2010-09-01T05:20:00","4","53.5335","7.888667","7.31","JEVER, GM","FM-15","ETNJ ","V020","280,1,N,0021,1","03600,1,C,N","011265,1,N,1","+0120,1","+0100,1","99999,9",,"02,5,+00750,1,99,9","07,5,+03600,1,99,9",,"07,99,1,99,9,99,9,99999,9,99,9,99,9","10200,1,99999,9",,,,,"MET066METAR ETNJ 010520Z 28004KT 9999 FEW025 BKN120 12/10 Q1020 BLU BLU;",
"10122099999","2010-09-01T06:20:00","4","53.5335","7.888667","7.31","JEVER, GM","FM-15","ETNJ ","V020","280,1,N,0021,1","01500,1,C,N","011265,1,N,1","+0130,1","+0110,1","99999,9",,"04,5,+00600,1,99,9","07,5,+01500,1,99,9","07,5,+03600,1,99,9","07,99,1,99,9,99,9,99999,9,99,9,99,9","10200,1,99999,9",,,,,"MET073METAR ETNJ 010620Z 28004KT 9999 SCT020 BKN050 BKN120 13/11 Q1020 BLU BLU;",
"10122099999","2010-09-01T07:14:00","4","53.5335","7.888667","7.31","JEVER, GM","FM-16","ETNJ ","V020","300,1,N,0031,1","00600,1,C,N","004500,1,N,1","+0130,1","+0110,1","99999,9",,"02,5,+00300,1,99,9","07,5,+00600,1,99,9",,"07,99,1,99,9,99,9,99999,9,99,9,99,9","10200,1,99999,9","10,1","81,1",,,"MET084SPECI ETNJ 010714Z 30006KT 4500 SHRA BR FEW010 BKN020 13/11 Q1020 GRN BLU TEMPO WHT;",
"10122099999","2010-09-01T07:20:00","4","53.5335","7.888667","7.31","JEVER, GM","FM-15","ETNJ ","V020","300,1,N,0036,1","00600,1,C,N","005000,1,N,1","+0130,1","+0110,1","99999,9",,"02,5,+00300,1,99,9","07,5,+00600,1,99,9","07,5,+00900,1,99,9","07,99,1,99,9,99,9,99999,9,99,9,99,9","10200,1,99999,9","10,1","80,1",,,"MET097METAR ETNJ 010720Z 30007KT 5000 -SHRA BR FEW010 BKN020 BKN030 13/11 Q1020 RERA WHT BLU TEMPO WHT;",
"10122099999","2010-09-01T08:20:00","4","53.5335","7.888667","7.31","JEVER, GM","FM-15","ETNJ ","V020","300,1,N,0046,1","00600,1,C,N","006000,1,N,1","+0130,1","+0120,1","99999,9",,"04,5,+00240,1,99,9","07,5,+00600,1,99,9",,"07,99,1,99,9,99,9,99999,9,99,9,99,9","10200,1,99999,9","80,1",,,,"MET082METAR ETNJ 010820Z 30009KT 6000 -SHRA SCT008 BKN020 13/12 Q1020 WHT BLU TEMPO WHT;",
"10122099999","2010-09-01T08:33:00","4","53.5335","7.888667","7.31","JEVER, GM","FM-16","ETNJ ","V020","290,1,N,0041,1","00180,1,C,N","006000,1,N,1","+0130,1","+0120,1","99999,9",,"07,5,+00180,1,99,9","07,5,+00600,1,99,9",,"07,99,1,99,9,99,9,99999,9,99,9,99,9","10200,1,99999,9","80,1",,,,"MET082SPECI ETNJ 010833Z 29008KT 6000 -SHRA BKN006 BKN020 13/12 Q1020 YLO BLU TEMPO WHT;",
"10122099999","2010-09-01T09:20:00","4","53.5335","7.888667","7.31","JEVER, GM","FM-15","ETNJ ","V020","290,1,N,0051,1","00480,1,C,N","006000,1,N,1","+0140,1","+0120,1","99999,9",,"04,5,+00180,1,99,9","07,5,+00480,1,99,9",,"07,99,1,99,9,99,9,99999,9,99,9,99,9","10200,1,99999,9","80,1",,,,"MET082METAR ETNJ 010920Z 29010KT 6000 -SHRA SCT006 BKN016 14/12 Q1020 WHT BLU TEMPO WHT;",
"10122099999","2010-09-01T10:20:00","4","53.5335","7.888667","7.31","JEVER, GM","FM-15","ETNJ ","V020","280,1,N,0041,1","00600,1,C,N","011265,1,N,1","+0150,1","+0130,1","99999,9",,"02,5,+00330,1,99,9","07,5,+00600,1,99,9",,"07,99,1,99,9,99,9,99999,9,99,9,99,9","10200,1,99999,9",,,,,"MET076METAR ETNJ 011020Z 28008KT 9999 FEW011 BKN020 15/13 Q1020 WHT BLU TEMPO WHT;",
"10122099999","2010-09-01T11:20:00","4","53.5335","7.888667","7.31","JEVER, GM","FM-15","ETNJ ","V020","330,1,N,0031,1","00600,1,C,N","011265,1,N,1","+0150,1","+0130,1","99999,9",,"02,5,+00330,1,99,9","07,5,+00600,1,02,5",,"07,99,1,99,9,99,9,99999,9,99,9,99,9","10200,1,99999,9",,,,,"MET079METAR ETNJ 011120Z 33006KT 9999 FEW011 BKN020TCU 15/13 Q1020 WHT WHT TEMPO BLU;",
"10122099999","2010-09-01T12:20:00","4","53.5335","7.888667","7.31","JEVER, GM","FM-15","ETNJ ","V020","310,1,N,0041,1","00660,1,C,N","011265,1,N,1","+0150,1","+0120,1","99999,9",,"02,5,+00420,1,99,9","07,5,+00660,1,02,5",,"07,99,1,99,9,99,9,99999,9,99,9,99,9","10200,1,99999,9",,,,,"MET077METAR ETNJ 011220Z 31008KT 9999 FEW014 BKN022TCU 15/12 Q1020 WHT FCST CANCEL;",
"10122099999","2010-09-01T13:20:00","4","53.5335","7.888667","7.31","JEVER, GM","FM-15","ETNJ ","V020","300,1,N,0026,1","01020,1,C,N","011265,1,N,1","+0150,1","+0130,1","99999,9",,"02,5,+00750,1,99,9","07,5,+01020,1,02,5","07,5,+01500,1,99,9","07,99,1,99,9,99,9,99999,9,99,9,99,9","10200,1,99999,9",,,,,"MET072METAR ETNJ 011320Z 30005KT 9999 FEW025 BKN034TCU BKN050 15/13 Q1020 BLU;",
"10122099999","2010-09-01T14:20:00","4","53.5335","7.888667","7.31","JEVER, GM","FM-15","ETNJ ","V020","320,1,N,0051,1","01500,1,C,N","011265,1,N,1","+0170,1","+0120,1","99999,9",,"04,5,+01020,1,02,1","07,5,+01500,1,99,9",,"07,99,1,99,9,99,9,99999,9,99,9,99,9","10190,1,99999,9",,,,,"MET065METAR ETNJ 011420Z 32010KT 9999 SCT034TCU BKN050 17/12 Q1019 BLU;",
"10122099999","2010-09-01T15:20:00","4","53.5335","7.888667","7.31","JEVER, GM","FM-15","ETNJ ","V020","330,1,N,0036,1","01800,1,C,N","011265,1,N,1","+0160,1","+0110,1","99999,9",,"04,5,+00900,1,99,9","07,5,+01800,1,99,9",,"07,99,1,99,9,99,9,99999,9,99,9,99,9","10190,1,99999,9",,,,,"MET062METAR ETNJ 011520Z 33007KT 9999 SCT030 BKN060 16/11 Q1019 BLU;",
"10122099999","2010-09-01T16:20:00","4","53.5335","7.888667","7.31","JEVER, GM","FM-15","ETNJ ","V020","330,1,N,0041,1","01800,1,C,N","011265,1,N,1","+0170,1","+0110,1","99999,9",,"02,5,+00900,1,99,9","07,5,+01800,1,99,9",,"07,99,1,99,9,99,9,99999,9,99,9,99,9","10190,1,99999,9",,,,,"MET062METAR ETNJ 011620Z 33008KT 9999 FEW030 BKN060 17/11 Q1019 BLU;",
"10122099999","2010-09-01T17:20:00","4","53.5335","7.888667","7.31","JEVER, GM","FM-15","ETNJ ","V020","350,1,N,0026,1","01500,1,C,N","011265,1,N,1","+0150,1","+0120,1","99999,9",,"04,5,+00750,1,99,9","07,5,+01500,1,99,9",,"07,99,1,99,9,99,9,99999,9,99,9,99,9","10190,1,99999,9","80,1",,,,"MET068METAR ETNJ 011720Z 35005KT 9999 -SHRA SCT025 BKN050 15/12 Q1019 BLU;",
"10122099999","2010-09-01T18:20:00","4","53.5335","7.888667","7.31","JEVER, GM","FM-15","ETNJ ","V020","310,1,N,0021,1","01500,1,C,N","011265,1,N,1","+0150,1","+0120,1","99999,9",,"02,5,+00750,1,99,9","07,5,+01500,1,99,9",,"07,99,1,99,9,99,9,99999,9,99,9,99,9","10190,1,99999,9",,,,,"MET062METAR ETNJ 011820Z 31004KT 9999 FEW025 BKN050 15/12 Q1019 BLU;",
"10122099999","2010-09-01T19:20:00","4","53.5335","7.888667","7.31","JEVER, GM","FM-15","ETNJ ","V020","320,1,N,0021,1","01500,1,C,N","011265,1,N,1","+0140,1","+0120,1","99999,9",,"02,5,+00750,1,99,9","07,5,+01500,1,99,9",,"07,99,1,99,9,99,9,99999,9,99,9,99,9","10200,1,99999,9",,,,,"MET062METAR ETNJ 011920Z 32004KT 9999 FEW025 BKN050 14/12 Q1020 BLU;",
"10122099999","2010-09-01T20:20:00","4","53.5335","7.888667","7.31","JEVER, GM","FM-15","ETNJ ","V020","270,1,N,0015,1","01500,1,C,N","011265,1,N,1","+0140,1","+0120,1","99999,9",,"07,5,+01500,1,99,9",,,"07,99,1,99,9,99,9,99999,9,99,9,99,9","10190,1,99999,9",,,,,"MET055METAR ETNJ 012020Z 27003KT 9999 BKN050 14/12 Q1019 BLU;",
"10122099999","2010-09-01T21:20:00","4","53.5335","7.888667","7.31","JEVER, GM","FM-15","ETNJ ","V020","310,1,N,0010,1","01500,1,C,N","011265,1,N,1","+0140,1","+0120,1","99999,9",,"04,5,+00540,1,99,9","07,5,+01500,1,99,9",,"07,99,1,99,9,99,9,99999,9,99,9,99,9","10200,1,99999,9","80,1",,,,"MET068METAR ETNJ 012120Z 31002KT 9999 -SHRA SCT018 BKN050 14/12 Q1020 BLU;",
"10122099999","2010-09-01T22:20:00","4","53.5335","7.888667","7.31","JEVER, GM","FM-15","ETNJ ","V020","270,1,N,0015,1","01500,1,C,N","011265,1,N,1","+0130,1","+0120,1","99999,9",,"07,5,+01500,1,99,9",,,"07,99,1,99,9,99,9,99999,9,99,9,99,9","10190,1,99999,9","80,1",,,,"MET061METAR ETNJ 012220Z 27003KT 9999 -SHRA BKN050 13/12 Q1019 BLU;",
"10122099999","2010-09-01T23:20:00","4","53.5335","7.888667","7.31","JEVER, GM","FM-15","ETNJ ","V020","250,1,N,0021,1","01350,1,C,N","011265,1,N,1","+0130,1","+0120,1","99999,9",,"02,5,+00750,1,99,9","07,5,+01350,1,99,9",,"07,99,1,99,9,99,9,99999,9,99,9,99,9","10190,1,99999,9",,,,,"MET062METAR ETNJ 012320Z 25004KT 9999 FEW025 BKN045 13/12 Q1019 BLU;",
"10122099999","2010-09-02T00:20:00","4","53.5335","7.888667","7.31","JEVER, GM","FM-15","ETNJ ","V020","260,1,N,0021,1","01350,1,C,N","011265,1,N,1","+0130,1","+0120,1","99999,9",,"02,5,+00660,1,99,9","07,5,+01350,1,99,9",,"07,99,1,99,9,99,9,99999,9,99,9,99,9","10190,1,99999,9",,,,,"MET062METAR ETNJ 020020Z 26004KT 9999 FEW022 BKN045 13/12 Q1019 BLU;",
"10122099999","2010-09-02T01:20:00","4","53.5335","7.888667","7.31","JEVER, GM","FM-15","ETNJ ","V020","280,1,N,0021,1","01500,1,C,N","011265,1,N,1","+0130,1","+0120,1","99999,9",,"07,5,+01500,1,99,9",,,"07,99,1,99,9,99,9,99999,9,99,9,99,9","10190,1,99999,9",,,,,"MET055METAR ETNJ 020120Z 28004KT 9999 BKN050 13/12 Q1019 BLU;",
"10122099999","2010-09-02T02:20:00","4","53.5335","7.888667","7.31","JEVER, GM","FM-15","ETNJ ","V020","280,1,N,0021,1","01500,1,C,N","011265,1,N,1","+0130,1","+0120,1","99999,9",,"02,5,+00660,1,99,9","07,5,+01500,1,99,9",,"07,99,1,99,9,99,9,99999,9,99,9,99,9","10190,1,99999,9","80,1",,,,"MET068METAR ETNJ 020220Z 28004KT 9999 -SHRA FEW022 BKN050 13/12 Q1019 BLU;",
"10122099999","2010-09-02T03:20:00","4","53.5335","7.888667","7.31","JEVER, GM","FM-15","ETNJ ","V020","280,1,N,0015,1","01500,1,C,N","011265,1,N,1","+0130,1","+0120,1","99999,9",,"07,5,+01500,1,99,9","07,5,+03000,1,99,9",,"07,99,1,99,9,99,9,99999,9,99,9,99,9","10180,1,99999,9",,,,,"MET062METAR ETNJ 020320Z 28003KT 9999 BKN050 BKN100 13/12 Q1018 BLU;",
"10122099999","2010-09-02T04:20:00","4","53.5335","7.888667","7.31","JEVER, GM","FM-15","ETNJ ","V020","280,1,N,0015,1","01350,1,C,N","011265,1,N,1","+0130,1","+0120,1","99999,9",,"07,5,+01350,1,99,9","07,5,+03300,1,99,9",,"07,99,1,99,9,99,9,99999,9,99,9,99,9","10180,1,99999,9",,,,,"MET076METAR ETNJ 020420Z 28003KT 9999 BKN045 BKN110 13/12 Q1018 BLU BLU TEMPO WHT;",
"10122099999","2010-09-02T05:20:00","4","53.5335","7.888667","7.31","JEVER, GM","FM-15","ETNJ ","V020","270,1,N,0015,1","01350,1,C,N","011265,1,N,1","+0130,1","+0120,1","99999,9",,"02,5,+00750,1,99,9","04,5,+01350,1,99,9","07,5,+03300,1,99,9","07,99,1,99,9,99,9,99999,9,99,9,99,9","10180,1,99999,9",,,,,"MET083METAR ETNJ 020520Z 27003KT 9999 FEW025 SCT045 BKN110 13/12 Q1018 BLU BLU TEMPO WHT;",
"10122099999","2010-09-02T06:20:00","4","53.5335","7.888667","7.31","JEVER, GM","FM-15","ETNJ ","V020","290,1,N,0015,1","01350,1,C,N","011265,1,N,1","+0130,1","+0120,1","99999,9",,"02,5,+00540,1,99,9","07,5,+01350,1,99,9","07,5,+03300,1,99,9","07,99,1,99,9,99,9,99999,9,99,9,99,9","10190,1,99999,9",,,,,"MET083METAR ETNJ 020620Z 29003KT 9999 FEW018 BKN045 BKN110 13/12 Q1019 BLU BLU TEMPO WHT;",
"10122099999","2010-09-02T07:20:00","4","53.5335","7.888667","7.31","JEVER, GM","FM-15","ETNJ ","V020","300,1,N,0015,1","03000,1,C,N","011265,1,N,1","+0150,1","+0140,1","99999,9",,"02,5,+00540,1,99,9","07,5,+03000,1,99,9",,"07,99,1,99,9,99,9,99999,9,99,9,99,9","10190,1,99999,9",,,,,"MET076METAR ETNJ 020720Z 30003KT 9999 FEW018 BKN100 15/14 Q1019 BLU BLU TEMPO WHT;",
"10122099999","2010-09-02T08:20:00","4","53.5335","7.888667","7.31","JEVER, GM","FM-15","ETNJ ","V020","330,1,N,0021,1","02400,1,C,N","011265,1,N,1","+0160,1","+0130,1","99999,9",,"02,5,+00540,1,99,9","07,5,+02400,1,99,9",,"07,99,1,99,9,99,9,99999,9,99,9,99,9","10190,1,99999,9","61,1",,,,"MET080METAR ETNJ 020820Z 33004KT 9999 -RA FEW018 BKN080 16/13 Q1019 BLU BLU TEMPO WHT;",
"10122099999","2010-09-02T09:20:00","4","53.5335","7.888667","7.31","JEVER, GM","FM-15","ETNJ ","V020","320,1,N,0026,1","02400,1,C,N","011265,1,N,1","+0160,1","+0130,1","99999,9",,"02,5,+00600,1,99,9","07,5,+02400,1,99,9",,"07,99,1,99,9,99,9,99999,9,99,9,99,9","10190,1,99999,9","61,1",,,,"MET070METAR ETNJ 020920Z 32005KT 9999 -RA FEW020 BKN080 16/13 Q1019 BLU BLU;",
"10122099999","2010-09-02T10:20:00","4","53.5335","7.888667","7.31","JEVER, GM","FM-15","ETNJ ","V020","320,1,N,0031,1","00810,1,C,N","011265,1,N,1","+0170,1","+0130,1","99999,9",,"02,5,+00570,1,99,9","07,5,+00810,1,99,9",,"07,99,1,99,9,99,9,99999,9,99,9,99,9","10190,1,99999,9",,,,,"MET066METAR ETNJ 021020Z 32006KT 9999 FEW019 BKN027 17/13 Q1019 BLU BLU;",
"10122099999","2010-09-02T11:20:00","4","53.5335","7.888667","7.31","JEVER, GM","FM-15","ETNJ ","V020","330,1,N,0041,1","99999,9,C,N","011265,1,N,1","+0180,1","+0130,1","99999,9",,"04,5,+00780,1,99,9","04,5,+01500,1,99,9",,"04,99,1,99,9,99,9,99999,9,99,9,99,9","10190,1,99999,9",,,,,"MET066METAR ETNJ 021120Z 33008KT 9999 SCT026 SCT050 18/13 Q1019 BLU/BLU;","P01 015003SCOCIG"
"10122099999","2010-09-02T12:20:00","4","53.5335","7.888667","7.31","JEVER, GM","FM-15","ETNJ ","V020","360,1,N,0036,1","99999,9,C,N","011265,1,N,1","+0170,1","+0110,1","99999,9",,"04,5,+00780,1,99,9","04,5,+01500,1,99,9",,"04,99,1,99,9,99,9,99999,9,99,9,99,9","10190,1,99999,9",,,,,"MET066METAR ETNJ 021220Z 36007KT 9999 SCT026 SCT050 17/11 Q1019 BLU/BLU;","P01 015003SCOCIG"
"10122099999","2010-09-02T12:54:00","4","53.5335","7.888667","7.31","JEVER, GM","FM-16","ETNJ ","V020","340,1,N,0046,1","99999,9,C,N","011265,1,N,1","+0180,1","+0110,1","99999,9",,"04,5,+00840,1,99,9","04,5,+03600,1,99,9",,"04,99,1,99,9,99,9,99999,9,99,9,99,9","10190,1,99999,9",,,,,"MET074SPECI ETNJ 021254Z 34009KT 9999 SCT028 SCT120 18/11 Q1019 BLU/FCST CANCEL;","P01 036003SCOCIG"
"10122099999","2010-09-02T13:19:00","4","53.5335","7.888667","7.31","JEVER, GM","FM-16","ETNJ ","V020","360,1,N,0046,1","99999,9,C,N","011265,1,N,1","+0180,1","+0110,1","99999,9",,"02,5,+00900,1,99,9","04,5,+03600,1,99,9",,"04,99,1,99,9,99,9,99999,9,99,9,99,9","10190,1,99999,9",,,,,"MET063SPECI ETNJ 021319Z 36009KT 9999 FEW030 SCT120 18/11 Q1019 BLU/;","P01 036003SCOCIG"
"10122099999","2010-09-02T13:20:00","4","53.5335","7.888667","7.31","JEVER, GM","FM-15","ETNJ ","V020","360,1,N,0046,1","99999,9,C,N","011265,1,N,1","+0180,1","+0110,1","99999,9",,"02,5,+00900,1,99,9","04,5,+03600,1,99,9",,"04,99,1,99,9,99,9,99999,9,99,9,99,9","10190,1,99999,9",,,,,"MET063METAR ETNJ 021320Z 36009KT 9999 FEW030 SCT120 18/11 Q1019 BLU/;","P01 036003SCOCIG"
"10122099999","2010-09-02T14:20:00","4","53.5335","7.888667","7.31","JEVER, GM","FM-15","ETNJ ","V020","360,1,N,0041,1","22000,1,9,N","011265,1,N,1","+0190,1","+0110,1","99999,9",,"04,5,+00960,1,99,9",,,"04,99,1,99,9,99,9,99999,9,99,9,99,9","10190,1,99999,9",,,,,"MET056METAR ETNJ 021420Z 36008KT 9999 SCT032 19/11 Q1019 BLU/;",
"10122099999","2010-09-02T15:20:00","4","53.5335","7.888667","7.31","JEVER, GM","FM-15","ETNJ ","V020","360,1,N,0041,1","22000,1,9,N","011265,1,N,1","+0170,1","+0120,1","99999,9",,"04,5,+00870,1,99,9",,,"04,99,1,99,9,99,9,99999,9,99,9,99,9","10190,1,99999,9",,,,,"MET056METAR ETNJ 021520Z 36008KT 9999 SCT029 17/12 Q1019 BLU/;",
"10122099999","2010-09-02T16:20:00","4","53.5335","7.888667","7.31","JEVER, GM","FM-15","ETNJ ","V020","360,1,N,0031,1","22000,1,9,N","011265,1,N,1","+0170,1","+0120,1","99999,9",,"02,5,+00720,1,99,9",,,"02,99,1,99,9,99,9,99999,9,99,9,99,9","10190,1,99999,9",,,,,"MET056METAR ETNJ 021620Z 36006KT 9999 FEW024 17/12 Q1019 BLU/;",
"10122099999","2010-09-02T17:20:00","4","53.5335","7.888667","7.31","JEVER, GM","FM-15","ETNJ ","V020","330,1,N,0031,1","22000,1,9,N","011265,1,N,1","+0160,1","+0110,1","99999,9",,"02,5,+00600,1,99,9",,,"02,99,1,99,9,99,9,99999,9,99,9,99,9","10190,1,99999,9",,,,,"MET056METAR ETNJ 021720Z 33006KT 9999 FEW020 16/11 Q1019 BLU/;",
"10122099999","2010-09-02T18:20:00","4","53.5335","7.888667","7.31","JEVER, GM","FM-15","ETNJ ","V020","350,1,N,0021,1","22000,1,9,N","011265,1,N,1","+0150,1","+0110,1","99999,9",,"02,5,+00600,1,99,9",,,"02,99,1,99,9,99,9,99999,9,99,9,99,9","10200,1,99999,9",,,,,"MET056METAR ETNJ 021820Z 35004KT 9999 FEW020 15/11 Q1020 BLU/;",
"10122099999","2010-09-02T19:20:00","4","53.5335","7.888667","7.31","JEVER, GM","FM-15","ETNJ ","V020","330,1,N,0015,1","22000,1,9,N","011265,1,N,1","+0140,1","+0110,1","99999,9",,"02,5,+00600,1,99,9",,,"02,99,1,99,9,99,9,99999,9,99,9,99,9","10200,1,99999,9",,,,,"MET056METAR ETNJ 021920Z 33003KT 9999 FEW020 14/11 Q1020 BLU/;",
"10122099999","2010-09-02T20:20:00","4","53.5335","7.888667","7.31","JEVER, GM","FM-15","ETNJ ","V020","300,1,N,0021,1","22000,1,9,N","011265,1,N,1","+0120,1","+0100,1","99999,9",,"02,5,+01500,1,99,9",,,"02,99,1,99,9,99,9,99999,9,99,9,99,9","10200,1,99999,9",,,,,"MET056METAR ETNJ 022020Z 30004KT 9999 FEW050 12/10 Q1020 BLU/;",
"10122099999","2010-09-02T21:20:00","4","53.5335","7.888667","7.31","JEVER, GM","FM-15","ETNJ ","V020","320,1,N,0010,1","22000,1,9,N","011265,1,N,1","+0120,1","+0100,1","99999,9",,"02,5,+01500,1,99,9",,,"02,99,1,99,9,99,9,99999,9,99,9,99,9","10200,1,99999,9",,,,,"MET056METAR ETNJ 022120Z 32002KT 9999 FEW050 12/10 Q1020 BLU/;",
"10122099999","2010-09-02T22:20:00","4","53.5335","7.888667","7.31","JEVER, GM","FM-15","ETNJ ","V020","290,1,N,0010,1","22000,1,9,N","011265,1,N,1","+0110,1","+0090,1","99999,9",,,,,,"10200,1,99999,9",,,,,"MET049METAR ETNJ 022220Z 29002KT 9999 11/09 Q1020 BLU/;",
"10122099999","2010-09-02T23:20:00","4","53.5335","7.888667","7.31","JEVER, GM","FM-15","ETNJ ","V020","280,1,N,0010,1","22000,1,9,N","011265,1,N,1","+0100,1","+0090,1","99999,9",,"02,5,+07200,1,99,9",,,"02,99,1,99,9,99,9,99999,9,99,9,99,9","10210,1,99999,9","12,1",,,,"MET061METAR ETNJ 022320Z 28002KT 9999 MIFG FEW240 10/09 Q1021 BLU/;",
"10122099999","2010-09-03T00:20:00","4","53.5335","7.888667","7.31","JEVER, GM","FM-15","ETNJ ","V020","999,9,C,0000,1","22000,1,9,N","011265,1,N,1","+0090,1","+0080,1","99999,9",,"02,5,+02700,1,99,9",,,"02,99,1,99,9,99,9,99999,9,99,9,99,9","10200,1,99999,9","12,1",,,,"MET061METAR ETNJ 030020Z 00000KT 9999 MIFG FEW090 09/08 Q1020 BLU/;",
"10122099999","2010-09-03T01:20:00","4","53.5335","7.888667","7.31","JEVER, GM","FM-15","ETNJ ","V020","999,9,C,0000,1","07200,1,C,N","009000,1,N,1","+0090,1","+0080,1","99999,9",,"04,5,+02400,1,99,9","07,5,+07200,1,99,9",,"07,99,1,99,9,99,9,99999,9,99,9,99,9","10200,1,99999,9","12,1",,,,"MET068METAR ETNJ 030120Z 00000KT 9000 MIFG SCT080 BKN240 09/08 Q1020 BLU/;",
"10122099999","2010-09-03T02:20:00","4","53.5335","7.888667","7.31","JEVER, GM","FM-15","ETNJ ","V020","280,1,N,0010,1","07200,1,C,N","011265,1,N,1","+0100,1","+0090,1","99999,9",,"04,5,+02400,1,99,9","07,5,+07200,1,99,9",,"07,99,1,99,9,99,9,99999,9,99,9,99,9","10200,1,99999,9",,,,,"MET063METAR ETNJ 030220Z 28002KT 9999 SCT080 BKN240 10/09 Q1020 BLU/;",
"10122099999","2010-09-03T03:20:00","4","53.5335","7.888667","7.31","JEVER, GM","FM-15","ETNJ ","V020","999,9,C,0000,1","02400,1,C,N","011265,1,N,1","+0090,1","+0090,1","99999,9",,"07,5,+02400,1,99,9","07,5,+07200,1,99,9",,"07,99,1,99,9,99,9,99999,9,99,9,99,9","10200,1,99999,9",,,,,"MET062METAR ETNJ 030320Z 00000KT 9999 BKN080 BKN240 09/09 Q1020 BLU;",
"10122099999","2010-09-03T04:20:00","4","53.5335","7.888667","7.31","JEVER, GM","FM-15","ETNJ ","V020","290,1,N,0005,1","02100,1,C,N","011265,1,N,1","+0100,1","+0100,1","99999,9",,"02,5,+01350,1,99,9","07,5,+02100,1,99,9",,"07,99,1,99,9,99,9,99999,9,99,9,99,9","10200,1,99999,9",,,,,"MET066METAR ETNJ 030420Z 29001KT 9999 FEW045 BKN070 10/10 Q1020 BLU BLU;",
"10122099999","2010-09-03T05:20:00","4","53.5335","7.888667","7.31","JEVER, GM","FM-15","ETNJ ","V020","999,9,C,0000,1","01800,1,C,N","011265,1,N,1","+0100,1","+0100,1","99999,9",,"02,5,+01350,1,99,9","07,5,+01800,1,99,9","07,5,+09000,1,99,9","07,99,1,99,9,99,9,99999,9,99,9,99,9","10210,1,99999,9",,,,,"MET073METAR ETNJ 030520Z 00000KT 9999 FEW045 BKN060 BKN300 10/10 Q1021 BLU BLU;",
"10122099999","2010-09-03T06:20:00","4","53.5335","7.888667","7.31","JEVER, GM","FM-15","ETNJ ","V020","120,1,N,0005,1","01500,1,C,N","011265,1,N,1","+0110,1","+0110,1","99999,9",,"02,5,+00750,1,99,9","07,5,+01500,1,99,9","07,5,+09000,1,99,9","07,99,1,99,9,99,9,99999,9,99,9,99,9","10210,1,99999,9",,,,,"MET073METAR ETNJ 030620Z 12001KT 9999 FEW025 BKN050 BKN300 11/11 Q1021 BLU BLU;",
"10122099999","2010-09-03T07:20:00","4","53.5335","7.888667","7.31","JEVER, GM","FM-15","ETNJ ","V020","180,1,N,0010,1","01800,1,C,N","011265,1,N,1","+0120,1","+0120,1","99999,9",,"02,5,+01200,1,99,9","07,5,+01800,1,99,9","07,5,+09000,1,99,9","07,99,1,99,9,99,9,99999,9,99,9,99,9","10210,1,99999,9",,,,,"MET073METAR ETNJ 030720Z 18002KT 9999 FEW040 BKN060 BKN300 12/12 Q1021 BLU BLU;",
"10122099999","2010-09-03T08:20:00","4","53.5335","7.888667","7.31","JEVER, GM","FM-15","ETNJ ","V020","130,1,N,0021,1","01800,1,C,N","011265,1,N,1","+0130,1","+0110,1","99999,9",,"02,5,+00750,1,99,9","07,5,+01800,1,99,9",,"07,99,1,99,9,99,9,99999,9,99,9,99,9","10210,1,99999,9","61,1",,,,"MET070METAR ETNJ 030820Z 13004KT 9999 -RA FEW025 BKN060 13/11 Q1021 BLU BLU;",
"10122099999","2010-09-03T09:20:00","4","53.5335","7.888667","7.31","JEVER, GM","FM-15","ETNJ ","V020","150,1,N,0015,1","01800,1,C,N","011265,1,N,1","+0140,1","+0110,1","99999,9",,"02,5,+00750,1,99,9","07,5,+01800,1,99,9",,"07,99,1,99,9,99,9,99999,9,99,9,99,9","10220,1,99999,9","61,1",,,,"MET078METAR ETNJ 030920Z 15003KT 9999 -RA FEW025 BKN060 14/11 Q1022 BLU FCST CANCEL;",
"10122099999","2010-09-03T10:20:00","4","53.5335","7.888667","7.31","JEVER, GM","FM-15","ETNJ ","V020","140,1,N,0021,1","01800,1,C,N","011265,1,N,1","+0160,1","+0120,1","99999,9",,"02,5,+00750,1,99,9","07,5,+01800,1,99,9",,"07,99,1,99,9,99,9,99999,9,99,9,99,9","10210,1,99999,9",,,,,"MET062METAR ETNJ 031020Z 14004KT 9999 FEW025 BKN060 16/12 Q1021 BLU;",
"10122099999","2010-09-03T11:20:00","4","53.5335","7.888667","7.31","JEVER, GM","FM-15","ETNJ ","V020","170,1,N,0021,1","02400,1,C,N","011265,1,N,1","+0170,1","+0120,1","99999,9",,"02,5,+00750,1,99,9","07,5,+02400,1,99,9",,"07,99,1,99,9,99,9,99999,9,99,9,99,9","10210,1,99999,9",,,,,"MET062METAR ETNJ 031120Z 17004KT 9999 FEW025 BKN080 17/12 Q1021 BLU;",
"10122099999","2010-09-03T12:20:00","4","53.5335","7.888667","7.31","JEVER, GM","FM-15","ETNJ ","V020","180,1,N,0026,1","02400,1,C,N","011265,1,N,1","+0180,1","+0110,1","99999,9",,"02,5,+00900,1,99,9","07,5,+02400,1,99,9",,"07,99,1,99,9,99,9,99999,9,99,9,99,9","10210,1,99999,9",,,,,"MET062METAR ETNJ 031220Z 18005KT 9999 FEW030 BKN080 18/11 Q1021 BLU;",
"10122099999","2010-09-03T13:20:00","4","53.5335","7.888667","7.31","JEVER, GM","FM-15","ETNJ ","V020","230,1,N,0015,1","02400,1,C,N","011265,1,N,1","+0180,1","+0110,1","99999,9",,"02,5,+00900,1,99,9","07,5,+02400,1,99,9",,"07,99,1,99,9,99,9,99999,9,99,9,99,9","10200,1,99999,9",,,,,"MET062METAR ETNJ 031320Z 23003KT 9999 FEW030 BKN080 18/11 Q1020 BLU;",
"10122099999","2010-09-03T14:20:00","4","53.5335","7.888667","7.31","JEVER, GM","FM-15","ETNJ ","V020","300,1,N,0015,1","99999,9,C,N","011265,1,N,1","+0200,1","+0100,1","99999,9",,"02,5,+01050,1,99,9","04,5,+02400,1,99,9",,"04,99,1,99,9,99,9,99999,9,99,9,99,9","10200,1,99999,9",,,,,"MET063METAR ETNJ 031420Z 30003KT 9999 FEW035 SCT080 20/10 Q1020 BLU/;","P01 024003SCOCIG"
"10122099999","2010-09-03T15:20:00","4","53.5335","7.888667","7.31","JEVER, GM","FM-15","ETNJ ","V020","260,1,N,0021,1","99999,9,C,N","011265,1,N,1","+0170,1","+0100,1","99999,9",,"02,5,+01050,1,99,9","04,5,+02400,1,99,9",,"04,99,1,99,9,99,9,99999,9,99,9,99,9","10200,1,99999,9",,,,,"MET063METAR ETNJ 031520Z 26004KT 9999 FEW035 SCT080 17/10 Q1020 BLU/;","P01 024003SCOCIG"
"10122099999","2010-09-03T16:20:00","4","53.5335","7.888667","7.31","JEVER, GM","FM-15","ETNJ ","V020","360,1,N,0031,1","99999,9,C,N","011265,1,N,1","+0180,1","+0110,1","99999,9",,"02,5,+01050,1,99,9","04,5,+02100,1,99,9",,"04,99,1,99,9,99,9,99999,9,99,9,99,9","10200,1,99999,9",,,,,"MET063METAR ETNJ 031620Z 36006KT 9999 FEW035 SCT070 18/11 Q1020 BLU/;","P01 021003SCOCIG"
"10122099999","2010-09-03T17:20:00","4","53.5335","7.888667","7.31","JEVER, GM","FM-15","ETNJ ","V020","010,1,N,0015,1","22000,1,9,N","011265,1,N,1","+0160,1","+0100,1","99999,9",,"02,5,+00900,1,99,9",,,"02,99,1,99,9,99,9,99999,9,99,9,99,9","10200,1,99999,9",,,,,"MET056METAR ETNJ 031720Z 01003KT 9999 FEW030 16/10 Q1020 BLU/;",
"10122099999","2010-09-03T18:20:00","4","53.5335","7.888667","7.31","JEVER, GM","FM-15","ETNJ ","V020","999,9,C,0000,1","22000,1,9,N","011265,1,N,1","+0130,1","+0100,1","99999,9",,"02,5,+02100,1,99,9",,,"02,99,1,99,9,99,9,99999,9,99,9,99,9","10200,1,99999,9",,,,,"MET056METAR ETNJ 031820Z 00000KT 9999 FEW070 13/10 Q1020 BLU/;",
"10122099999","2010-09-03T19:20:00","4","53.5335","7.888667","7.31","JEVER, GM","FM-15","ETNJ ","V020","290,1,N,0010,1","22000,1,9,N","011265,1,N,1","+0120,1","+0100,1","99999,9",,"02,5,+00720,1,99,9",,,"02,99,1,99,9,99,9,99999,9,99,9,99,9","10200,1,99999,9",,,,,"MET056METAR ETNJ 031920Z 29002KT 9999 FEW024 12/10 Q1020 BLU/;",
"10122099999","2010-09-03T20:20:00","4","53.5335","7.888667","7.31","JEVER, GM","FM-15","ETNJ ","V020","340,1,N,0010,1","22000,1,9,N","011265,1,N,1","+0110,1","+0090,1","99999,9",,"02,5,+06300,1,99,9",,,"02,99,1,99,9,99,9,99999,9,99,9,99,9","10200,1,99999,9",,,,,"MET056METAR ETNJ 032020Z 34002KT 9999 FEW210 11/09 Q1020 BLU/;",
"10122099999","2010-09-03T21:20:00","4","53.5335","7.888667","7.31","JEVER, GM","FM-15","ETNJ ","V020","330,1,N,0015,1","22000,1,9,N","009000,1,N,1","+0090,1","+0080,1","99999,9",,"02,5,+06300,1,99,9",,,"02,99,1,99,9,99,9,99999,9,99,9,99,9","10200,1,99999,9","12,1",,,,"MET061METAR ETNJ 032120Z 33003KT 9000 MIFG FEW210 09/08 Q1020 BLU/;",
"10122099999","2010-09-03T22:20:00","4","53.5335","7.888667","7.31","JEVER, GM","FM-15","ETNJ ","V020","290,1,N,0010,1","22000,1,9,N","007000,1,N,1","+0090,1","+0080,1","99999,9",,"02,5,+02400,1,99,9",,,"02,99,1,99,9,99,9,99999,9,99,9,99,9","10200,1,99999,9","12,1",,,,"MET060METAR ETNJ 032220Z 29002KT 7000 MIFG FEW080 09/08 Q1020 WHT;",
"10122099999","2010-09-03T23:20:00","4","53.5335","7.888667","7.31","JEVER, GM","FM-15","ETNJ ","V020","300,1,N,0010,1","22000,1,9,N","007000,1,N,1","+0080,1","+0070,1","99999,9",,,,,,"10200,1,99999,9","12,1",,,,"MET053METAR ETNJ 032320Z 30002KT 7000 MIFG 08/07 Q1020 WHT;",
"10122099999","2010-09-04T00:20:00","4","53.5335","7.888667","7.31","JEVER, GM","FM-15","ETNJ ","V020","280,1,N,0010,1","22000,1,9,N","007000,1,N,1","+0080,1","+0070,1","99999,9",,,,,,"10200,1,99999,9","12,1",,,,"MET053METAR ETNJ 040020Z 28002KT 7000 MIFG 08/07 Q1020 WHT;",
"10122099999","2010-09-04T01:20:00","4","53.5335","7.888667","7.31","JEVER, GM","FM-15","ETNJ ","V020","290,1,N,0010,1","22000,1,9,N","006000,1,N,1","+0070,1","+0070,1","99999,9",,,,,,"10200,1,99999,9","12,1",,,,"MET053METAR ETNJ 040120Z 29002KT 6000 MIFG 07/07 Q1020 WHT;",
"10122099999","2010-09-04T02:20:00","4","53.5335","7.888667","7.31","JEVER, GM","FM-15","ETNJ ","V020","280,1,N,0010,1","22000,1,9,N","011265,1,N,1","+0070,1","+0070,1","99999,9",,"02,5,+01080,1,99,9",,,"02,99,1,99,9,99,9,99999,9,99,9,99,9","10200,1,99999,9","12,1",,,,"MET061METAR ETNJ 040220Z 28002KT 9999 MIFG FEW036 07/07 Q1020 BLU/;",
"10122099999","2010-09-04T03:20:00","4","53.5335","7.888667","7.31","JEVER, GM","FM-15","ETNJ ","V020","280,1,N,0010,1","22000,1,9,N","011265,1,N,1","+0070,1","+0060,1","99999,9",,"02,5,+01020,1,99,9",,,"02,99,1,99,9,99,9,99999,9,99,9,99,9","10200,1,99999,9","12,1",,,,"MET061METAR ETNJ 040320Z 28002KT 9999 MIFG FEW034 07/06 Q1020 BLU/;",
"10122099999","2010-09-04T04:20:00","4","53.5335","7.888667","7.31","JEVER, GM","FM-15","ETNJ ","V020","270,1,N,0010,1","22000,1,9,N","011265,1,N,1","+0070,1","+0060,1","99999,9",,"02,5,+00870,1,99,9",,,"02,99,1,99,9,99,9,99999,9,99,9,99,9","10200,1,99999,9","12,1",,,,"MET061METAR ETNJ 040420Z 27002KT 9999 MIFG FEW029 07/06 Q1020 BLU/;",
"10122099999","2010-09-04T05:20:00","4","53.5335","7.888667","7.31","JEVER, GM","FM-15","ETNJ ","V020","999,9,C,0000,1","22000,1,9,N","011265,1,N,1","+0070,1","+0070,1","99999,9",,"02,5,+00870,1,99,9",,,"02,99,1,99,9,99,9,99999,9,99,9,99,9","10200,1,99999,9","12,1",,,,"MET061METAR ETNJ 040520Z 00000KT 9999 MIFG FEW029 07/07 Q1020 BLU/;",
"10122099999","2010-09-04T06:20:00","4","53.5335","7.888667","7.31","JEVER, GM","FM-15","ETNJ ","V020","290,1,N,0010,1","22000,1,9,N","011265,1,N,1","+0090,1","+0090,1","99999,9",,"02,5,+00840,1,99,9",,,"02,99,1,99,9,99,9,99999,9,99,9,99,9","10210,1,99999,9",,,,,"MET056METAR ETNJ 040620Z 29002KT 9999 FEW028 09/09 Q1021 BLU/;",
"10122099999","2010-09-04T07:20:00","4","53.5335","7.888667","7.31","JEVER, GM","FM-15","ETNJ ","V020","320,1,N,0015,1","22000,1,9,N","011265,1,N,1","+0140,1","+0130,1","99999,9",,"02,5,+00960,1,99,9",,,"02,99,1,99,9,99,9,99999,9,99,9,99,9","10210,1,99999,9",,,,,"MET056METAR ETNJ 040720Z 32003KT 9999 FEW032 14/13 Q1021 BLU/;",
"10122099999","2010-09-04T08:20:00","4","53.5335","7.888667","7.31","JEVER, GM","FM-15","ETNJ ","V020","330,1,N,0021,1","22000,1,9,N","011265,1,N,1","+0160,1","+0120,1","99999,9",,"02,5,+00960,1,99,9",,,"02,99,1,99,9,99,9,99999,9,99,9,99,9","10210,1,99999,9",,,,,"MET056METAR ETNJ 040820Z 33004KT 9999 FEW032 16/12 Q1021 BLU/;",
"10122099999","2010-09-04T09:20:00","4","53.5335","7.888667","7.31","JEVER, GM","FM-15","ETNJ ","V020","070,1,N,0041,1","22000,1,9,N","011265,1,N,1","+0170,1","+0100,1","99999,9",,"04,5,+00960,1,99,9",,,"04,99,1,99,9,99,9,99999,9,99,9,99,9","10210,1,99999,9",,,,,"MET056METAR ETNJ 040920Z 07008KT 9999 SCT032 17/10 Q1021 BLU/;",
"10122099999","2010-09-04T10:20:00","4","53.5335","7.888667","7.31","JEVER, GM","FM-15","ETNJ ","V020","050,1,N,0031,1","22000,1,9,N","011265,1,N,1","+0170,1","+0080,1","99999,9",,"04,5,+00960,1,99,9",,,"04,99,1,99,9,99,9,99999,9,99,9,99,9","10220,1,99999,9",,,,,"MET056METAR ETNJ 041020Z 05006KT 9999 SCT032 17/08 Q1022 BLU/;",
"10122099999","2010-09-04T11:20:00","4","53.5335","7.888667","7.31","JEVER, GM","FM-15","ETNJ ","V020","050,1,N,0031,1","22000,1,9,N","011265,1,N,1","+0180,1","+0070,1","99999,9",,"04,5,+00960,1,99,9",,,"04,99,1,99,9,99,9,99999,9,99,9,99,9","10220,1,99999,9",,,,,"MET056METAR ETNJ 041120Z 05006KT 9999 SCT032 18/07 Q1022 BLU/;",
"10122099999","2010-09-04T12:20:00","4","53.5335","7.888667","7.31","JEVER, GM","FM-15","ETNJ ","V020","040,1,N,0031,1","22000,1,9,N","011265,1,N,1","+0180,1","+0070,1","99999,9",,"04,5,+01080,1,99,9",,,"04,99,1,99,9,99,9,99999,9,99,9,99,9","10220,1,99999,9",,,,,"MET056METAR ETNJ 041220Z 04006KT 9999 SCT036 18/07 Q1022 BLU/;",
"10122099999","2010-09-04T13:20:00","4","53.5335","7.888667","7.31","JEVER, GM","FM-15","ETNJ ","V020","060,1,N,0031,1","22000,1,9,N","011265,1,N,1","+0180,1","+0080,1","99999,9",,"02,5,+01080,1,99,9",,,"02,99,1,99,9,99,9,99999,9,99,9,99,9","10220,1,99999,9",,,,,"MET056METAR ETNJ 041320Z 06006KT 9999 FEW036 18/08 Q1022 BLU/;",
"10122099999","2010-09-04T14:20:00","4","53.5335","7.888667","7.31","JEVER, GM","FM-15","ETNJ ","V020","060,1,N,0036,1","22000,1,9,N","011265,1,N,1","+0180,1","+0080,1","99999,9",,"02,5,+01080,1,99,9",,,"02,99,1,99,9,99,9,99999,9,99,9,99,9","10220,1,99999,9",,,,,"MET056METAR ETNJ 041420Z 06007KT 9999 FEW036 18/08 Q1022 BLU/;",
"10122099999","2010-09-04T15:20:00","4","53.5335","7.888667","7.31","JEVER, GM","FM-15","ETNJ ","V020","060,1,N,0036,1","22000,1,9,N","011265,1,N,1","+0180,1","+0080,1","99999,9",,"02,5,+01080,1,99,9",,,"02,99,1,99,9,99,9,99999,9,99,9,99,9","10220,1,99999,9",,,,,"MET056METAR ETNJ 041520Z 06007KT 9999 FEW036 18/08 Q1022 BLU/;",
"10122099999","2010-09-04T16:20:00","4","53.5335","7.888667","7.31","JEVER, GM","FM-15","ETNJ ","V020","040,1,N,0036,1","22000,1,9,N","011265,1,N,1","+0170,1","+0080,1","99999,9",,"02,5,+01080,1,99,9",,,"02,99,1,99,9,99,9,99999,9,99,9,99,9","10220,1,99999,9",,,,,"MET056METAR ETNJ 041620Z 04007KT 9999 FEW036 17/08 Q1022 BLU/;",
"10122099999","2010-09-04T17:20:00","4","53.5335","7.888667","7.31","JEVER, GM","FM-15","ETNJ ","V020","030,1,N,0026,1","22000,1,9,N","011265,1,N,1","+0170,1","+0090,1","99999,9",,"02,5,+01800,1,99,9",,,"02,99,1,99,9,99,9,99999,9,99,9,99,9","10220,1,99999,9",,,,,"MET056METAR ETNJ 041720Z 03005KT 9999 FEW060 17/09 Q1022 BLU/;",
"10122099999","2010-09-04T18:20:00","4","53.5335","7.888667","7.31","JEVER, GM","FM-15","ETNJ ","V020","040,1,N,0021,1","22000,1,9,N","011265,1,N,1","+0150,1","+0080,1","99999,9",,"02,5,+01800,1,99,9",,,"02,99,1,99,9,99,9,99999,9,99,9,99,9","10230,1,99999,9",,,,,"MET056METAR ETNJ 041820Z 04004KT 9999 FEW060 15/08 Q1023 BLU/;",
"10122099999","2010-09-04T19:20:00","4","53.5335","7.888667","7.31","JEVER, GM","FM-15","ETNJ ","V020","040,1,N,0015,1","22000,1,9,N","011265,1,N,1","+0120,1","+0080,1","99999,9",,"02,5,+01800,1,99,9",,,"02,99,1,99,9,99,9,99999,9,99,9,99,9","10230,1,99999,9",,,,,"MET056METAR ETNJ 041920Z 04003KT 9999 FEW060 12/08 Q1023 BLU/;",
"10122099999","2010-09-04T20:20:00","4","53.5335","7.888667","7.31","JEVER, GM","FM-15","ETNJ ","V020","080,1,N,0021,1","22000,1,9,N","011265,1,N,1","+0090,1","+0070,1","99999,9",,,,,,"10240,1,99999,9",,,,,"MET049METAR ETNJ 042020Z 08004KT 9999 09/07 Q1024 BLU/;",
"10122099999","2010-09-04T21:20:00","4","53.5335","7.888667","7.31","JEVER, GM","FM-15","ETNJ ","V020","090,1,N,0026,1","22000,1,9,N","011265,1,N,1","+0110,1","+0080,1","99999,9",,,,,,"10240,1,99999,9",,,,,"MET049METAR ETNJ 042120Z 09005KT 9999 11/08 Q1024 BLU/;",
"10122099999","2010-09-04T22:20:00","4","53.5335","7.888667","7.31","JEVER, GM","FM-15","ETNJ ","V020","090,1,N,0026,1","02100,1,C,N","011265,1,N,1","+0120,1","+0080,1","99999,9",,"07,5,+02100,1,99,9",,,"07,99,1,99,9,99,9,99999,9,99,9,99,9","10240,1,99999,9",,,,,"MET055METAR ETNJ 042220Z 09005KT 9999 BKN070 12/08 Q1024 BLU;",
"10122099999","2010-09-04T23:20:00","4","53.5335","7.888667","7.31","JEVER, GM","FM-15","ETNJ ","V020","100,1,N,0015,1","02100,1,C,N","011265,1,N,1","+0100,1","+0070,1","99999,9",,"07,5,+02100,1,99,9",,,"07,99,1,99,9,99,9,99999,9,99,9,99,9","10240,1,99999,9",,,,,"MET055METAR ETNJ 042320Z 10003KT 9999 BKN070 10/07 Q1024 BLU;",
"10122099999","2010-09-05T00:20:00","4","53.5335","7.888667","7.31","JEVER, GM","FM-15","ETNJ ","V020","999,9,C,0000,1","22000,1,9,N","011265,1,N,1","+0080,1","+0070,1","99999,9",,"04,5,+02100,1,99,9",,,"04,99,1,99,9,99,9,99999,9,99,9,99,9","10240,1,99999,9",,,,,"MET056METAR ETNJ 050020Z 00000KT 9999 SCT070 08/07 Q1024 BLU/;",
"10122099999","2010-09-05T01:20:00","4","53.5335","7.888667","7.31","JEVER, GM","FM-15","ETNJ ","V020","100,1,N,0010,1","22000,1,9,N","011265,1,N,1","+0080,1","+0060,1","99999,9",,"02,5,+02100,1,99,9",,,"02,99,1,99,9,99,9,99999,9,99,9,99,9","10240,1,99999,9",,,,,"MET056METAR ETNJ 050120Z 10002KT 9999 FEW070 08/06 Q1024 BLU/;",
"10122099999","2010-09-05T02:20:00","4","53.5335","7.888667","7.31","JEVER, GM","FM-15","ETNJ ","V020","080,1,N,0010,1","22000,1,9,N","011265,1,N,1","+0080,1","+0060,1","99999,9",,,,,,"10240,1,99999,9",,,,,"MET049METAR ETNJ 050220Z 08002KT 9999 08/06 Q1024 BLU/;",
"10122099999","2010-09-05T03:20:00","4","53.5335","7.888667","7.31","JEVER, GM","FM-15","ETNJ ","V020","090,1,N,0010,1","22000,1,9,N","008000,1,N,1","+0070,1","+0070,1","99999,9",,,,,,"10240,1,99999,9",,,,,"MET049METAR ETNJ 050320Z 09002KT 8000 07/07 Q1024 BLU/;",
"10122099999","2010-09-05T04:20:00","4","53.5335","7.888667","7.31","JEVER, GM","FM-15","ETNJ ","V020","050,1,N,0005,1","22000,1,9,N","006000,1,N,1","+0070,1","+0060,1","99999,9",,,,,,"10251,1,99999,9","12,1",,,,"MET053METAR ETNJ 050420Z 05001KT 6000 MIFG 07/06 Q1025 WHT;",
"10122099999","2010-09-05T05:20:00","4","53.5335","7.888667","7.31","JEVER, GM","FM-15","ETNJ ","V020","100,1,N,0015,1","22000,1,9,N","007000,1,N,1","+0080,1","+0070,1","99999,9",,,,,,"10251,1,99999,9","12,1",,,,"MET053METAR ETNJ 050520Z 10003KT 7000 MIFG 08/07 Q1025 WHT;",
"10122099999","2010-09-05T06:20:00","4","53.5335","7.888667","7.31","JEVER, GM","FM-15","ETNJ ","V020","090,1,N,0026,1","22000,1,9,N","011265,1,N,1","+0100,1","+0090,1","99999,9",,"02,5,+07500,1,99,9",,,"02,99,1,99,9,99,9,99999,9,99,9,99,9","10251,1,99999,9",,,,,"MET056METAR ETNJ 050620Z 09005KT 9999 FEW250 10/09 Q1025 BLU/;",
"10122099999","2010-09-05T07:20:00","4","53.5335","7.888667","7.31","JEVER, GM","FM-15","ETNJ ","V020","100,1,N,0036,1","22000,1,9,N","011265,1,N,1","+0140,1","+0100,1","99999,9",,"02,5,+07500,1,99,9",,,"02,99,1,99,9,99,9,99999,9,99,9,99,9","10251,1,99999,9",,,,,"MET056METAR ETNJ 050720Z 10007KT 9999 FEW250 14/10 Q1025 BLU/;",
"10122099999","2010-09-05T08:20:00","4","53.5335","7.888667","7.31","JEVER, GM","FM-15","ETNJ ","V020","100,1,N,0046,1","22000,1,9,N","011265,1,N,1","+0150,1","+0090,1","99999,9",,"02,5,+00750,1,99,9",,,"02,99,1,99,9,99,9,99999,9,99,9,99,9","10261,1,99999,9",,,,,"MET056METAR ETNJ 050820Z 10009KT 9999 FEW025 15/09 Q1026 BLU/;",
"10122099999","2010-09-05T09:20:00","4","53.5335","7.888667","7.31","JEVER, GM","FM-15","ETNJ ","V020","120,1,N,0062,1","22000,1,9,N","011265,1,N,1","+0160,1","+0080,1","99999,9",,"02,5,+00840,1,99,9",,,"02,99,1,99,9,99,9,99999,9,99,9,99,9","10261,1,99999,9",,,,,"MET056METAR ETNJ 050920Z 12012KT 9999 FEW028 16/08 Q1026 BLU/;",
"10122099999","2010-09-05T10:20:00","4","53.5335","7.888667","7.31","JEVER, GM","FM-15","ETNJ ","V020","100,1,N,0041,1","22000,1,9,N","011265,1,N,1","+0170,1","+0080,1","99999,9",,"02,5,+00900,1,99,9",,,"02,99,1,99,9,99,9,99999,9,99,9,99,9","10251,1,99999,9",,,,,"MET056METAR ETNJ 051020Z 10008KT 9999 FEW030 17/08 Q1025 BLU/;",
"10122099999","2010-09-05T11:20:00","4","53.5335","7.888667","7.31","JEVER, GM","FM-15","ETNJ ","V020","100,1,N,0051,1","22000,1,9,N","011265,1,N,1","+0170,1","+0070,1","99999,9",,"04,5,+01050,1,99,9",,,"04,99,1,99,9,99,9,99999,9,99,9,99,9","10251,1,99999,9",,,,,"MET056METAR ETNJ 051120Z 10010KT 9999 SCT035 17/07 Q1025 BLU/;",
"10122099999","2010-09-05T12:20:00","4","53.5335","7.888667","7.31","JEVER, GM","FM-15","ETNJ ","V020","110,1,N,0051,1","22000,1,9,N","011265,1,N,1","+0180,1","+0070,1","99999,9",,"04,5,+01200,1,99,9",,,"04,99,1,99,9,99,9,99999,9,99,9,99,9","10251,1,99999,9",,,,,"MET056METAR ETNJ 051220Z 11010KT 9999 SCT040 18/07 Q1025 BLU/;",
"10122099999","2010-09-05T13:20:00","4","53.5335","7.888667","7.31","JEVER, GM","FM-15","ETNJ ","V020","120,1,N,0051,1","22000,1,9,N","011265,1,N,1","+0190,1","+0070,1","99999,9",,"04,5,+01350,1,99,9",,,"04,99,1,99,9,99,9,99999,9,99,9,99,9","10240,1,99999,9",,,,,"MET056METAR ETNJ 051320Z 12010KT 9999 SCT045 19/07 Q1024 BLU/;",
"10122099999","2010-09-05T14:20:00","4","53.5335","7.888667","7.31","JEVER, GM","FM-15","ETNJ ","V020","120,1,N,0046,1","22000,1,9,N","011265,1,N,1","+0190,1","+0060,1","99999,9",,"02,5,+01350,1,99,9",,,"02,99,1,99,9,99,9,99999,9,99,9,99,9","10240,1,99999,9",,,,,"MET056METAR ETNJ 051420Z 12009KT 9999 FEW045 19/06 Q1024 BLU/;",
"10122099999","2010-09-05T15:20:00","4","53.5335","7.888667","7.31","JEVER, GM","FM-15","ETNJ ","V020","100,1,N,0046,1","22000,1,9,N","011265,1,N,1","+0190,1","+0070,1","99999,9",,"02,5,+01350,1,99,9",,,"02,99,1,99,9,99,9,99999,9,99,9,99,9","10240,1,99999,9",,,,,"MET056METAR ETNJ 051520Z 10009KT 9999 FEW045 19/07 Q1024 BLU/;",
"10122099999","2010-09-05T16:20:00","4","53.5335","7.888667","7.31","JEVER, GM","FM-15","ETNJ ","V020","090,1,N,0031,1","22000,1,9,N","011265,1,N,1","+0180,1","+0060,1","99999,9",,"02,5,+01350,1,99,9",,,"02,99,1,99,9,99,9,99999,9,99,9,99,9","10240,1,99999,9",,,,,"MET056METAR ETNJ 051620Z 09006KT 9999 FEW045 18/06 Q1024 BLU/;",
"10122099999","2010-09-05T17:20:00","4","53.5335","7.888667","7.31","JEVER, GM","FM-15","ETNJ ","V020","090,1,N,0031,1","22000,1,9,N","011265,1,N,1","+0170,1","+0060,1","99999,9",,"02,5,+00900,1,99,9",,,"02,99,1,99,9,99,9,99999,9,99,9,99,9","10240,1,99999,9",,,,,"MET056METAR ETNJ 051720Z 09006KT 9999 FEW030 17/06 Q1024 BLU/;",
"10122099999","2010-09-05T18:20:00","4","53.5335","7.888667","7.31","JEVER, GM","FM-15","ETNJ ","V020","080,1,N,0005,1","22000,1,9,N","011265,1,N,1","+0140,1","+0060,1","99999,9",,"02,5,+03600,1,99,9",,,"02,99,1,99,9,99,9,99999,9,99,9,99,9","10240,1,99999,9",,,,,"MET056METAR ETNJ 051820Z 08001KT 9999 FEW120 14/06 Q1024 BLU/;",
"10122099999","2010-09-05T19:20:00","4","53.5335","7.888667","7.31","JEVER, GM","FM-15","ETNJ ","V020","070,1,N,0021,1","22000,1,9,N","011265,1,N,1","+0110,1","+0060,1","99999,9",,,,,,"10240,1,99999,9",,,,,"MET049METAR ETNJ 051920Z 07004KT 9999 11/06 Q1024 BLU/;",
"10122099999","2010-09-05T20:20:00","4","53.5335","7.888667","7.31","JEVER, GM","FM-15","ETNJ ","V020","090,1,N,0026,1","22000,1,9,N","011265,1,N,1","+0120,1","+0070,1","99999,9",,,,,,"10251,1,99999,9",,,,,"MET049METAR ETNJ 052020Z 09005KT 9999 12/07 Q1025 BLU/;",
"10122099999","2010-09-05T21:20:00","4","53.5335","7.888667","7.31","JEVER, GM","FM-15","ETNJ ","V020","100,1,N,0036,1","22000,1,9,N","011265,1,N,1","+0130,1","+0080,1","99999,9",,,,,,"10251,1,99999,9",,,,,"MET049METAR ETNJ 052120Z 10007KT 9999 13/08 Q1025 BLU/;",
"10122099999","2010-09-05T22:20:00","4","53.5335","7.888667","7.31","JEVER, GM","FM-15","ETNJ ","V020","100,1,N,0036,1","22000,1,9,N","011265,1,N,1","+0120,1","+0080,1","99999,9",,,,,,"10240,1,99999,9",,,,,"MET049METAR ETNJ 052220Z 10007KT 9999 12/08 Q1024 BLU/;",
"10122099999","2010-09-05T23:20:00","4","53.5335","7.888667","7.31","JEVER, GM","FM-15","ETNJ ","V020","110,1,N,0031,1","22000,1,9,N","011265,1,N,1","+0120,1","+0080,1","99999,9",,,,,,"10240,1,99999,9",,,,,"MET049METAR ETNJ 052320Z 11006KT 9999 12/08 Q1024 BLU/;",
"10122099999","2010-09-06T00:20:00","4","53.5335","7.888667","7.31","JEVER, GM","FM-15","ETNJ ","V020","110,1,N,0036,1","22000,1,9,N","011265,1,N,1","+0110,1","+0080,1","99999,9",,,,,,"10240,1,99999,9",,,,,"MET049METAR ETNJ 060020Z 11007KT 9999 11/08 Q1024 BLU/;",
"10122099999","2010-09-06T01:20:00","4","53.5335","7.888667","7.31","JEVER, GM","FM-15","ETNJ ","V020","120,1,N,0031,1","22000,1,9,N","011265,1,N,1","+0110,1","+0070,1","99999,9",,,,,,"10240,1,99999,9",,,,,"MET049METAR ETNJ 060120Z 12006KT 9999 11/07 Q1024 BLU/;",
"10122099999","2010-09-06T02:20:00","4","53.5335","7.888667","7.31","JEVER, GM","FM-15","ETNJ ","V020","120,1,N,0041,1","22000,1,9,N","011265,1,N,1","+0100,1","+0070,1","99999,9",,,,,,"10240,1,99999,9",,,,,"MET049METAR ETNJ 060220Z 12008KT 9999 10/07 Q1024 BLU/;",
"10122099999","2010-09-06T03:20:00","4","53.5335","7.888667","7.31","JEVER, GM","FM-15","ETNJ ","V020","130,1,N,0031,1","22000,1,9,N","011265,1,N,1","+0090,1","+0060,1","99999,9",,,,,,"10240,1,99999,9",,,,,"MET049METAR ETNJ 060320Z 13006KT 9999 09/06 Q1024 BLU/;",
"10122099999","2010-09-06T04:20:00","4","53.5335","7.888667","7.31","JEVER, GM","FM-15","ETNJ ","V020","120,1,N,0036,1","22000,1,9,N","011265,1,N,1","+0090,1","+0060,1","99999,9",,,,,,"10230,1,99999,9",,,,,"MET053METAR ETNJ 060420Z 12007KT 9999 09/06 Q1023 BLU/BLU/;",
"10122099999","2010-09-06T05:20:00","4","53.5335","7.888667","7.31","JEVER, GM","FM-15","ETNJ ","V020","110,1,N,0036,1","22000,1,9,N","011265,1,N,1","+0100,1","+0070,1","99999,9",,,,,,"10230,1,99999,9",,,,,"MET053METAR ETNJ 060520Z 11007KT 9999 10/07 Q1023 BLU/BLU/;",
"10122099999","2010-09-06T06:20:00","4","53.5335","7.888667","7.31","JEVER, GM","FM-15","ETNJ ","V020","110,1,N,0046,1","22000,1,9,N","011265,1,N,1","+0110,1","+0070,1","99999,9",,"02,5,+07500,1,99,9",,,"02,99,1,99,9,99,9,99999,9,99,9,99,9","10240,1,99999,9",,,,,"MET060METAR ETNJ 060620Z 11009KT 9999 FEW250 11/07 Q1024 BLU/BLU/;",
"10122099999","2010-09-06T07:20:00","4","53.5335","7.888667","7.31","JEVER, GM","FM-15","ETNJ ","V020","120,1,N,0062,1","22000,1,9,N","011265,1,N,1","+0130,1","+0080,1","99999,9",,"02,5,+07500,1,99,9",,,"02,99,1,99,9,99,9,99999,9,99,9,99,9","10230,1,99999,9",,,,,"MET060METAR ETNJ 060720Z 12012KT 9999 FEW250 13/08 Q1023 BLU/BLU/;",
"10122099999","2010-09-06T08:20:00","4","53.5335","7.888667","7.31","JEVER, GM","FM-15","ETNJ ","V020","120,1,N,0067,1","22000,1,9,N","011265,1,N,1","+0150,1","+0080,1","99999,9",,"02,5,+07800,1,99,9",,,"02,99,1,99,9,99,9,99999,9,99,9,99,9","10230,1,99999,9",,,,,"MET060METAR ETNJ 060820Z 12013KT 9999 FEW260 15/08 Q1023 BLU/BLU/;",
"10122099999","2010-09-06T09:20:00","4","53.5335","7.888667","7.31","JEVER, GM","FM-15","ETNJ ","V020","110,1,N,0072,1","22000,1,9,N","011265,1,N,1","+0160,1","+0080,1","99999,9",,"02,5,+00900,1,99,9",,,"02,99,1,99,9,99,9,99999,9,99,9,99,9","10230,1,99999,9",,,,,"MET060METAR ETNJ 060920Z 11014KT 9999 FEW030 16/08 Q1023 BLU/BLU/;",
"10122099999","2010-09-06T10:20:00","4","53.5335","7.888667","7.31","JEVER, GM","FM-15","ETNJ ","V020","110,1,N,0072,1","22000,1,9,N","011265,1,N,1","+0160,1","+0070,1","99999,9",,"02,5,+01080,1,99,9",,,"02,99,1,99,9,99,9,99999,9,99,9,99,9","10220,1,99999,9",,,,,"MET060METAR ETNJ 061020Z 11014KT 9999 FEW036 16/07 Q1022 BLU/BLU/;",
"10122099999","2010-09-06T11:20:00","4","53.5335","7.888667","7.31","JEVER, GM","FM-15","ETNJ ","V020","120,1,N,0077,1","22000,1,9,N","011265,1,N,1","+0170,1","+0060,1","99999,9",,"02,5,+01200,1,99,9",,,"02,99,1,99,9,99,9,99999,9,99,9,99,9","10210,1,99999,9",,,,,"MET060METAR ETNJ 061120Z 12015KT 9999 FEW040 17/06 Q1021 BLU/BLU/;",
"10122099999","2010-09-06T12:20:00","4","53.5335","7.888667","7.31","JEVER, GM","FM-15","ETNJ ","V020","110,1,N,0072,1","22000,1,9,N","011265,1,N,1","+0180,1","+0060,1","99999,9",,"02,5,+01200,1,99,9",,,"02,99,1,99,9,99,9,99999,9,99,9,99,9","10200,1,99999,9",,,,,"MET060METAR ETNJ 061220Z 11014KT 9999 FEW040 18/06 Q1020 BLU/BLU/;",
"10122099999","2010-09-06T13:20:00","4","53.5335","7.888667","7.31","JEVER, GM","FM-15","ETNJ ","V020","100,1,N,0077,1","22000,1,9,N","011265,1,N,1","+0180,1","+0050,1","99999,9",,"02,5,+01200,1,99,9",,,"02,99,1,99,9,99,9,99999,9,99,9,99,9","10190,1,99999,9",,,,,"MET060METAR ETNJ 061320Z 10015KT 9999 FEW040 18/05 Q1019 BLU/BLU/;",
"10122099999","2010-09-06T14:20:00","4","53.5335","7.888667","7.31","JEVER, GM","FM-15","ETNJ ","V020","110,1,N,0082,1","22000,1,9,N","011265,1,N,1","+0180,1","+0050,1","99999,9",,"02,5,+01260,1,99,9",,,"02,99,1,99,9,99,9,99999,9,99,9,99,9","10180,1,99999,9",,,,,"MET067METAR ETNJ 061420Z 11016KT 9999 FEW042 18/05 Q1018 BLU/FCST CANCEL;",
"10122099999","2010-09-06T15:20:00","4","53.5335","7.888667","7.31","JEVER, GM","FM-15","ETNJ ","V020","110,1,N,0077,1","22000,1,9,N","011265,1,N,1","+0180,1","+0050,1","99999,9",,"02,5,+01200,1,99,9",,,"02,99,1,99,9,99,9,99999,9,99,9,99,9","10180,1,99999,9",,,,,"MET056METAR ETNJ 061520Z 11015KT 9999 FEW040 18/05 Q1018 BLU/;",
"10122099999","2010-09-06T16:20:00","4","53.5335","7.888667","7.31","JEVER, GM","FM-15","ETNJ ","V020","120,1,N,0072,1","22000,1,9,N","011265,1,N,1","+0180,1","+0050,1","99999,9",,"02,5,+01200,1,99,9",,,"02,99,1,99,9,99,9,99999,9,99,9,99,9","10169,1,99999,9",,,,,"MET056METAR ETNJ 061620Z 12014KT 9999 FEW040 18/05 Q1017 BLU/;",
"10122099999","2010-09-06T17:20:00","4","53.5335","7.888667","7.31","JEVER, GM","FM-15","ETNJ ","V020","110,1,N,0062,1","22000,1,9,N","011265,1,N,1","+0170,1","+0050,1","99999,9",,"02,5,+01200,1,99,9",,,"02,99,1,99,9,99,9,99999,9,99,9,99,9","10169,1,99999,9",,,,,"MET056METAR ETNJ 061720Z 11012KT 9999 FEW040 17/05 Q1017 BLU/;",
"10122099999","2010-09-06T18:20:00","4","53.5335","7.888667","7.31","JEVER, GM","FM-15","ETNJ ","V020","110,1,N,0046,1","22000,1,9,N","011265,1,N,1","+0150,1","+0060,1","99999,9",,"02,5,+06000,1,99,9",,,"02,99,1,99,9,99,9,99999,9,99,9,99,9","10169,1,99999,9",,,,,"MET056METAR ETNJ 061820Z 11009KT 9999 FEW200 15/06 Q1017 BLU/;",
"10122099999","2010-09-06T19:20:00","4","53.5335","7.888667","7.31","JEVER, GM","FM-15","ETNJ ","V020","100,1,N,0046,1","22000,1,9,N","011265,1,N,1","+0140,1","+0050,1","99999,9",,"02,5,+06000,1,99,9",,,"02,99,1,99,9,99,9,99999,9,99,9,99,9","10159,1,99999,9",,,,,"MET056METAR ETNJ 061920Z 10009KT 9999 FEW200 14/05 Q1016 BLU/;",
"10122099999","2010-09-06T20:20:00","4","53.5335","7.888667","7.31","JEVER, GM","FM-15","ETNJ ","V020","100,1,N,0057,1","22000,1,9,N","011265,1,N,1","+0140,1","+0060,1","99999,9",,"02,5,+06000,1,99,9",,,"02,99,1,99,9,99,9,99999,9,99,9,99,9","10159,1,99999,9",,,,,"MET056METAR ETNJ 062020Z 10011KT 9999 FEW200 14/06 Q1016 BLU/;",
"10122099999","2010-09-06T21:20:00","4","53.5335","7.888667","7.31","JEVER, GM","FM-15","ETNJ ","V020","110,1,N,0067,1","22000,1,9,N","011265,1,N,1","+0130,1","+0070,1","99999,9",,,,,,"10159,1,99999,9",,,,,"MET049METAR ETNJ 062120Z 11013KT 9999 13/07 Q1016 BLU/;",
"10122099999","2010-09-06T22:20:00","4","53.5335","7.888667","7.31","JEVER, GM","FM-15","ETNJ ","V020","110,1,N,0072,1","22000,1,9,N","011265,1,N,1","+0130,1","+0070,1","99999,9",,,,,,"10149,1,99999,9",,,,,"MET049METAR ETNJ 062220Z 11014KT 9999 13/07 Q1015 BLU/;",
"10122099999","2010-09-06T23:20:00","4","53.5335","7.888667","7.31","JEVER, GM","FM-15","ETNJ ","V020","120,1,N,0072,1","22000,1,9,N","011265,1,N,1","+0130,1","+0070,1","99999,9",,,,,,"10149,1,99999,9",,,,,"MET049METAR ETNJ 062320Z 12014KT 9999 13/07 Q1015 BLU/;",
"10122099999","2010-09-07T00:20:00","4","53.5335","7.888667","7.31","JEVER, GM","FM-15","ETNJ ","V020","110,1,N,0067,1","22000,1,9,N","011265,1,N,1","+0120,1","+0070,1","99999,9",,,,,,"10149,1,99999,9",,,,,"MET049METAR ETNJ 070020Z 11013KT 9999 12/07 Q1015 BLU/;",
"10122099999","2010-09-07T01:20:00","4","53.5335","7.888667","7.31","JEVER, GM","FM-15","ETNJ ","V020","110,1,N,0077,1","22000,1,9,N","011265,1,N,1","+0110,1","+0060,1","99999,9",,"02,5,+06600,1,99,9",,,"02,99,1,99,9,99,9,99999,9,99,9,99,9","10139,1,99999,9",,,,,"MET056METAR ETNJ 070120Z 11015KT 9999 FEW220 11/06 Q1014 BLU/;",
"10122099999","2010-09-07T02:20:00","4","53.5335","7.888667","7.31","JEVER, GM","FM-15","ETNJ ","V020","110,1,N,0072,1","22000,1,9,N","011265,1,N,1","+0110,1","+0060,1","99999,9",,"02,5,+06600,1,99,9",,,"02,99,1,99,9,99,9,99999,9,99,9,99,9","10129,1,99999,9",,,,,"MET056METAR ETNJ 070220Z 11014KT 9999 FEW220 11/06 Q1013 BLU/;",
"10122099999","2010-09-07T03:20:00","4","53.5335","7.888667","7.31","JEVER, GM","FM-15","ETNJ ","V020","110,1,N,0077,1","22000,1,9,N","011265,1,N,1","+0110,1","+0060,1","99999,9",,"02,5,+06600,1,99,9",,,"02,99,1,99,9,99,9,99999,9,99,9,99,9","10129,1,99999,9",,,,,"MET056METAR ETNJ 070320Z 11015KT 9999 FEW220 11/06 Q1013 BLU/;",
"10122099999","2010-09-07T04:20:00","4","53.5335","7.888667","7.31","JEVER, GM","FM-15","ETNJ ","V020","120,1,N,0077,1","22000,1,9,N","011265,1,N,1","+0100,1","+0060,1","99999,9",,"02,5,+06600,1,99,9",,,"02,99,1,99,9,99,9,99999,9,99,9,99,9","10119,1,99999,9",,,,,"MET056METAR ETNJ 070420Z 12015KT 9999 FEW220 10/06 Q1012 BLU/;",
"10122099999","2010-09-07T06:20:00","4","53.5335","7.888667","7.31","JEVER, GM","FM-15","ETNJ ","V020","110,1,N,0087,1","06600,1,C,N","011265,1,N,1","+0110,1","+0060,1","99999,9",,"07,5,+06600,1,99,9",,,"07,99,1,99,9,99,9,99999,9,99,9,99,9","10108,1,99999,9",,,,,"MET060METAR ETNJ 070620Z 11017KT 9999 BKN220 11/06 Q1011 BLU/BLU/;",
"10122099999","2010-09-07T07:20:00","4","53.5335","7.888667","7.31","JEVER, GM","FM-15","ETNJ ","V020","120,1,N,0072,1","06600,1,C,N","011265,1,N,1","+0120,1","+0070,1","99999,9",,"07,5,+06600,1,99,9",,,"07,99,1,99,9,99,9,99999,9,99,9,99,9","10108,1,99999,9",,,,,"MET060METAR ETNJ 070720Z 12014KT 9999 BKN220 12/07 Q1011 BLU/BLU/;",
"10122099999","2010-09-07T09:20:00","4","53.5335","7.888667","7.31","JEVER, GM","FM-15","ETNJ ","V020","120,1,N,0077,1","06000,1,C,N","011265,1,N,1","+0140,1","+0070,1","99999,9",,"02,5,+01500,1,99,9","07,5,+06000,1,99,9",,"07,99,1,99,9,99,9,99999,9,99,9,99,9","10108,1,99999,9",,,,,"MET077METAR ETNJ 070920Z 12015KT 9999 FEW050 BKN200 14/07 Q1011 BLU/BLU/ BECMG BLU;",
"10122099999","2010-09-07T10:20:00","4","53.5335","7.888667","7.31","JEVER, GM","FM-15","ETNJ ","V020","120,1,N,0082,1","06000,1,C,N","011265,1,N,1","+0150,1","+0080,1","99999,9",,"02,5,+01500,1,99,9","07,5,+06000,1,99,9",,"07,99,1,99,9,99,9,99999,9,99,9,99,9","10102,1,99999,9",,,,,"MET066METAR ETNJ 071020Z 12016KT 9999 FEW050 BKN200 15/08 Q1010 BLU/BLU;",
"10122099999","2010-09-07T11:20:00","4","53.5335","7.888667","7.31","JEVER, GM","FM-15","ETNJ ","V020","120,1,N,0077,1","05400,1,C,N","011265,1,N,1","+0150,1","+0080,1","99999,9",,"02,5,+01500,1,99,9","07,5,+05400,1,99,9",,"07,99,1,99,9,99,9,99999,9,99,9,99,9","10102,1,99999,9",,,,,"MET066METAR ETNJ 071120Z 12015KT 9999 FEW050 BKN180 15/08 Q1010 BLU BLU;",
"10122099999","2010-09-07T12:20:00","4","53.5335","7.888667","7.31","JEVER, GM","FM-15","ETNJ ","V020","110,1,N,0082,1","04800,1,C,N","011265,1,N,1","+0160,1","+0080,1","99999,9",,"07,5,+04800,1,99,9",,,"07,99,1,99,9,99,9,99999,9,99,9,99,9","10091,1,99999,9",,,,,"MET059METAR ETNJ 071220Z 11016KT 9999 BKN160 16/08 Q1009 BLU BLU;",
"10122099999","2010-09-07T13:20:00","4","53.5335","7.888667","7.31","JEVER, GM","FM-15","ETNJ ","V020","110,1,N,0093,1","04800,1,C,N","011265,1,N,1","+0170,1","+0090,1","99999,9",,"02,5,+03600,1,99,9","07,5,+04800,1,99,9",,"07,99,1,99,9,99,9,99999,9,99,9,99,9","10081,1,99999,9",,,,,"MET066METAR ETNJ 071320Z 11018KT 9999 FEW120 BKN160 17/09 Q1008 BLU BLU;",
"10122099999","2010-09-07T13:54:00","4","53.5335","7.888667","7.31","JEVER, GM","FM-16","ETNJ ","V020","110,1,N,0087,1","04800,1,C,N","011265,1,N,1","+0160,1","+0090,1","99999,9",,"02,5,+03600,1,99,9","07,5,+04800,1,99,9",,"07,99,1,99,9,99,9,99999,9,99,9,99,9","10081,1,99999,9",,,,,"MET074SPECI ETNJ 071354Z 11017KT 9999 FEW120 BKN160 16/09 Q1008 BLU FCST CANCEL;",
"10122099999","2010-09-07T14:20:00","4","53.5335","7.888667","7.31","JEVER, GM","FM-15","ETNJ ","V020","110,1,N,0087,1","04800,1,C,N","011265,1,N,1","+0170,1","+0090,1","99999,9",,"02,5,+03600,1,99,9","07,5,+04800,1,99,9",,"07,99,1,99,9,99,9,99999,9,99,9,99,9","10081,1,99999,9",,,,,"MET062METAR ETNJ 071420Z 11017KT 9999 FEW120 BKN160 17/09 Q1008 BLU;",
"10122099999","2010-09-07T15:20:00","4","53.5335","7.888667","7.31","JEVER, GM","FM-15","ETNJ ","V020","120,1,N,0082,1","04500,1,C,N","011265,1,N,1","+0170,1","+0100,1","99999,9",,"02,5,+01500,1,99,9","07,5,+04500,1,99,9",,"07,99,1,99,9,99,9,99999,9,99,9,99,9","10081,1,99999,9",,,,,"MET062METAR ETNJ 071520Z 12016KT 9999 FEW050 BKN150 17/10 Q1008 BLU;",
"10122099999","2010-09-07T16:20:00","4","53.5335","7.888667","7.31","JEVER, GM","FM-15","ETNJ ","V020","120,1,N,0072,1","04500,1,C,N","011265,1,N,1","+0160,1","+0090,1","99999,9",,"02,5,+01500,1,99,9","07,5,+04500,1,99,9",,"07,99,1,99,9,99,9,99999,9,99,9,99,9","10081,1,99999,9",,,,,"MET062METAR ETNJ 071620Z 12014KT 9999 FEW050 BKN150 16/09 Q1008 BLU;",
"10122099999","2010-09-07T17:20:00","4","53.5335","7.888667","7.31","JEVER, GM","FM-15","ETNJ ","V020","110,1,N,0067,1","04200,1,C,N","011265,1,N,1","+0160,1","+0090,1","99999,9",,"02,5,+01500,1,99,9","07,5,+04200,1,99,9",,"07,99,1,99,9,99,9,99999,9,99,9,99,9","10081,1,99999,9",,,,,"MET062METAR ETNJ 071720Z 11013KT 9999 FEW050 BKN140 16/09 Q1008 BLU;",
"10122099999","2010-09-07T18:20:00","4","53.5335","7.888667","7.31","JEVER, GM","FM-15","ETNJ ","V020","110,1,N,0072,1","03900,1,C,N","011265,1,N,1","+0150,1","+0090,1","99999,9",,"02,5,+01500,1,99,9","07,5,+03900,1,99,9",,"07,99,1,99,9,99,9,99999,9,99,9,99,9","10081,1,99999,9",,,,,"MET062METAR ETNJ 071820Z 11014KT 9999 FEW050 BKN130 15/09 Q1008 BLU;",
"10122099999","2010-09-07T19:20:00","4","53.5335","7.888667","7.31","JEVER, GM","FM-15","ETNJ ","V020","110,1,N,0087,1","03900,1,C,N","011265,1,N,1","+0150,1","+0090,1","99999,9",,"02,5,+01500,1,99,9","07,5,+03900,1,99,9",,"07,99,1,99,9,99,9,99999,9,99,9,99,9","10081,1,99999,9",,,,,"MET062METAR ETNJ 071920Z 11017KT 9999 FEW050 BKN130 15/09 Q1008 BLU;",
"10122099999","2010-09-07T20:20:00","4","53.5335","7.888667","7.31","JEVER, GM","FM-15","ETNJ ","V020","110,1,N,0082,1","03900,1,C,N","011265,1,N,1","+0150,1","+0090,1","99999,9",,"02,5,+01500,1,99,9","07,5,+03900,1,99,9",,"07,99,1,99,9,99,9,99999,9,99,9,99,9","10081,1,99999,9",,,,,"MET062METAR ETNJ 072020Z 11016KT 9999 FEW050 BKN130 15/09 Q1008 BLU;",
"10122099999","2010-09-07T21:20:00","4","53.5335","7.888667","7.31","JEVER, GM","FM-15","ETNJ ","V020","110,1,N,0087,1","03300,1,C,N","011265,1,N,1","+0150,1","+0090,1","99999,9",,"02,5,+01500,1,99,9","07,5,+03300,1,99,9",,"07,99,1,99,9,99,9,99999,9,99,9,99,9","10081,1,99999,9",,,,,"MET062METAR ETNJ 072120Z 11017KT 9999 FEW050 BKN110 15/09 Q1008 BLU;",
"10122099999","2010-09-07T22:20:00","4","53.5335","7.888667","7.31","JEVER, GM","FM-15","ETNJ ","V020","110,1,N,0087,1","03300,1,C,N","011265,1,N,1","+0150,1","+0090,1","99999,9",,"02,5,+02700,1,99,9","07,5,+03300,1,99,9",,"07,99,1,99,9,99,9,99999,9,99,9,99,9","10081,1,99999,9",,,,,"MET062METAR ETNJ 072220Z 11017KT 9999 FEW090 BKN110 15/09 Q1008 BLU;",
"10122099999","2010-09-07T23:20:00","4","53.5335","7.888667","7.31","JEVER, GM","FM-15","ETNJ ","V020","110,1,N,0077,1","02400,1,C,N","011265,1,N,1","+0150,1","+0080,1","99999,9",,"07,5,+02400,1,99,9",,,"07,99,1,99,9,99,9,99999,9,99,9,99,9","10081,1,99999,9",,,,,"MET055METAR ETNJ 072320Z 11015KT 9999 BKN080 15/08 Q1008 BLU;",
"10122099999","2010-09-08T00:20:00","4","53.5335","7.888667","7.31","JEVER, GM","FM-15","ETNJ ","V020","110,1,N,0077,1","02400,1,C,N","011265,1,N,1","+0140,1","+0080,1","99999,9",,"07,5,+02400,1,99,9",,,"07,99,1,99,9,99,9,99999,9,99,9,99,9","10081,1,99999,9",,,,,"MET055METAR ETNJ 080020Z 11015KT 9999 BKN080 14/08 Q1008 BLU;",
"10122099999","2010-09-08T01:20:00","4","53.5335","7.888667","7.31","JEVER, GM","FM-15","ETNJ ","V020","110,1,N,0082,1","01800,1,C,N","011265,1,N,1","+0140,1","+0080,1","99999,9",,"07,5,+01800,1,99,9",,,"07,99,1,99,9,99,9,99999,9,99,9,99,9","10071,1,99999,9",,,,,"MET055METAR ETNJ 080120Z 11016KT 9999 BKN060 14/08 Q1007 BLU;",
"10122099999","2010-09-08T02:20:00","4","53.5335","7.888667","7.31","JEVER, GM","FM-15","ETNJ ","V020","110,1,N,0087,1","02100,1,C,N","011265,1,N,1","+0140,1","+0080,1","99999,9",,"07,5,+02100,1,99,9",,,"07,99,1,99,9,99,9,99999,9,99,9,99,9","10071,1,99999,9",,,,,"MET055METAR ETNJ 080220Z 11017KT 9999 BKN070 14/08 Q1007 BLU;",
"10122099999","2010-09-08T03:20:00","4","53.5335","7.888667","7.31","JEVER, GM","FM-15","ETNJ ","V020","110,1,N,0087,1","01500,1,C,N","011265,1,N,1","+0140,1","+0080,1","99999,9",,"07,5,+01500,1,99,9",,,"07,99,1,99,9,99,9,99999,9,99,9,99,9","10071,1,99999,9",,,,,"MET055METAR ETNJ 080320Z 11017KT 9999 BKN050 14/08 Q1007 BLU;",
"10122099999","2010-09-08T04:20:00","4","53.5335","7.888667","7.31","JEVER, GM","FM-15","ETNJ ","V020","110,1,N,0072,1","03600,1,C,N","011265,1,N,1","+0130,1","+0080,1","99999,9",,"02,5,+01500,1,99,9","07,5,+03600,1,99,9",,"07,99,1,99,9,99,9,99999,9,99,9,99,9","10061,1,99999,9",,,,,"MET076METAR ETNJ 080420Z 11014KT 9999 FEW050 BKN120 13/08 Q1006 BLU BLU TEMPO WHT;",
"10122099999","2010-09-08T05:20:00","4","53.5335","7.888667","7.31","JEVER, GM","FM-15","ETNJ ","V020","110,1,N,0077,1","03300,1,C,N","011265,1,N,1","+0130,1","+0080,1","99999,9",,"04,5,+01320,1,99,9","07,5,+03300,1,99,9",,"07,99,1,99,9,99,9,99999,9,99,9,99,9","10061,1,99999,9",,,,,"MET076METAR ETNJ 080520Z 11015KT 9999 SCT044 BKN110 13/08 Q1006 BLU BLU TEMPO GRN;",
"10122099999","2010-09-08T06:20:00","4","53.5335","7.888667","7.31","JEVER, GM","FM-15","ETNJ ","V020","110,1,N,0087,1","03000,1,C,N","011265,1,N,1","+0130,1","+0080,1","99999,9",,"02,5,+01320,1,99,9","07,5,+03000,1,99,9",,"07,99,1,99,9,99,9,99999,9,99,9,99,9","10061,1,99999,9","61,1",,,,"MET080METAR ETNJ 080620Z 11017KT 9999 -RA FEW044 BKN100 13/08 Q1006 BLU BLU TEMPO GRN;",
"10122099999","2010-09-08T07:20:00","4","53.5335","7.888667","7.31","JEVER, GM","FM-15","ETNJ ","V020","110,1,N,0087,1","02700,1,C,N","011265,1,N,1","+0130,1","+0090,1","99999,9",,"04,5,+00960,1,99,9","07,5,+02700,1,99,9",,"07,99,1,99,9,99,9,99999,9,99,9,99,9","10051,1,99999,9",,,,,"MET076METAR ETNJ 080720Z 11017KT 9999 SCT032 BKN090 13/09 Q1005 BLU BLU TEMPO GRN;",
"10122099999","2010-09-08T08:20:00","4","53.5335","7.888667","7.31","JEVER, GM","FM-15","ETNJ ","V020","100,1,N,0082,1","01500,1,C,N","011265,1,N,1","+0130,1","+0090,1","99999,9",,"04,5,+00600,1,99,9","07,5,+01500,1,99,9",,"07,99,1,99,9,99,9,99999,9,99,9,99,9","10051,1,99999,9",,,,,"MET076METAR ETNJ 080820Z 10016KT 9999 SCT020 BKN050 13/09 Q1005 BLU BLU TEMPO GRN;",
"10122099999","2010-09-08T09:20:00","4","53.5335","7.888667","7.31","JEVER, GM","FM-15","ETNJ ","V020","120,1,N,0087,1","01260,1,C,N","011265,1,N,1","+0140,1","+0100,1","99999,9",,"04,5,+00930,1,99,9","07,5,+01260,1,99,9",,"07,99,1,99,9,99,9,99999,9,99,9,99,9","10051,1,99999,9","51,1","61,1",,,"MET082METAR ETNJ 080920Z 12017KT 9999 -RADZ SCT031 BKN042 14/10 Q1005 BLU BLU TEMPO GRN;",
"10122099999","2010-09-08T10:20:00","4","53.5335","7.888667","7.31","JEVER, GM","FM-15","ETNJ ","V020","120,1,N,0087,1","01200,1,C,N","007000,1,N,1","+0140,1","+0100,1","99999,9",,"02,5,+00450,1,99,9","07,5,+01200,1,99,9","07,5,+03300,1,99,9","07,99,1,99,9,99,9,99999,9,99,9,99,9","10051,1,99999,9","61,1",,,,"MET087METAR ETNJ 081020Z 12017KT 7000 -RA FEW015 BKN040 BKN110 14/10 Q1005 WHT BLU TEMPO GRN;",
"10122099999","2010-09-08T11:20:00","4","53.5335","7.888667","7.31","JEVER, GM","FM-15","ETNJ ","V020","120,1,N,0067,1","03300,1,C,N","008000,1,N,1","+0150,1","+0110,1","99999,9",,"02,5,+01200,1,99,9","07,5,+03300,1,99,9",,"07,99,1,99,9,99,9,99999,9,99,9,99,9","10061,1,99999,9",,,,,"MET076METAR ETNJ 081120Z 12013KT 8000 FEW040 BKN110 15/11 Q1006 BLU BLU TEMPO GRN;",
"10122099999","2010-09-08T12:20:00","4","53.5335","7.888667","7.31","JEVER, GM","FM-15","ETNJ ","V020","120,1,N,0072,1","02100,1,C,N","007000,1,N,1","+0140,1","+0110,1","99999,9",,"02,5,+00450,1,99,9","07,5,+02100,1,99,9",,"07,99,1,99,9,99,9,99999,9,99,9,99,9","10061,1,99999,9","61,1",,,,"MET080METAR ETNJ 081220Z 12014KT 7000 -RA FEW015 BKN070 14/11 Q1006 WHT BLU TEMPO GRN;",
"10122099999","2010-09-08T12:53:00","4","53.5335","7.888667","7.31","JEVER, GM","FM-16","ETNJ ","V020","120,1,N,0062,1","02100,1,C,N","004500,1,N,1","+0140,1","+0120,1","99999,9",,"02,5,+00450,1,99,9","07,5,+02100,1,99,9",,"07,99,1,99,9,99,9,99999,9,99,9,99,9","10061,1,99999,9","10,1","61,1",,,"MET083SPECI ETNJ 081253Z 12012KT 4500 -RA BR FEW015 BKN070 14/12 Q1006 GRN BLU TEMPO GRN;",
"10122099999","2010-09-08T13:20:00","4","53.5335","7.888667","7.31","JEVER, GM","FM-15","ETNJ ","V020","120,1,N,0067,1","00840,1,C,N","007000,1,N,1","+0140,1","+0120,1","99999,9",,"02,5,+00450,1,99,9","07,5,+00840,1,99,9",,"07,99,1,99,9,99,9,99999,9,99,9,99,9","10061,1,99999,9","61,1",,,,"MET080METAR ETNJ 081320Z 12013KT 7000 -RA FEW015 BKN028 14/12 Q1006 WHT BLU TEMPO GRN;",
"10122099999","2010-09-08T14:20:00","4","53.5335","7.888667","7.31","JEVER, GM","FM-15","ETNJ ","V020","130,1,N,0057,1","01200,1,C,N","008000,1,N,1","+0140,1","+0120,1","99999,9",,"04,5,+00750,1,99,9","07,5,+01200,1,99,9",,"07,99,1,99,9,99,9,99999,9,99,9,99,9","10061,1,99999,9","51,1","61,1",,,"MET080METAR ETNJ 081420Z 13011KT 8000 -RADZ SCT025 BKN040 14/12 Q1006 BLU FCST CANCEL;",
"10122099999","2010-09-08T15:20:00","4","53.5335","7.888667","7.31","JEVER, GM","FM-15","ETNJ ","V020","120,1,N,0051,1","01200,1,C,N","004500,1,N,1","+0140,1","+0130,1","99999,9",,"04,5,+00300,1,99,9","07,5,+01200,1,99,9",,"07,99,1,99,9,99,9,99999,9,99,9,99,9","10061,1,99999,9","10,1","51,1","61,1",,"MET071METAR ETNJ 081520Z 12010KT 4500 -RADZ BR SCT010 BKN040 14/13 Q1006 GRN;",
"10122099999","2010-09-08T16:20:00","4","53.5335","7.888667","7.31","JEVER, GM","FM-15","ETNJ ","V020","110,1,N,0072,1","01800,1,C,N","003200,1,N,1","+0140,1","+0130,1","99999,9",,"04,5,+00300,1,99,9","07,5,+01800,1,99,9",,"07,99,1,99,9,99,9,99999,9,99,9,99,9","10061,1,99999,9","10,1","51,1","61,1",,"MET071METAR ETNJ 081620Z 11014KT 3200 -RADZ BR SCT010 BKN060 14/13 Q1006 YLO;",
"10122099999","2010-09-08T17:20:00","4","53.5335","7.888667","7.31","JEVER, GM","FM-15","ETNJ ","V020","120,1,N,0067,1","01500,1,C,N","004500,1,N,1","+0140,1","+0130,1","99999,9",,"02,5,+00300,1,99,9","07,5,+01500,1,99,9",,"07,99,1,99,9,99,9,99999,9,99,9,99,9","10071,1,99999,9","10,1","63,1",,,"MET068METAR ETNJ 081720Z 12013KT 4500 RA BR FEW010 BKN050 14/13 Q1007 GRN;",
"10122099999","2010-09-08T17:48:00","4","53.5335","7.888667","7.31","JEVER, GM","FM-16","ETNJ ","V020","110,1,N,0057,1","00900,1,C,N","006000,1,N,1","+0140,1","+0130,1","99999,9",,"02,5,+00300,1,99,9","07,5,+00900,1,99,9",,"07,99,1,99,9,99,9,99999,9,99,9,99,9","10071,1,99999,9","61,1",,,,"MET071SPECI ETNJ 081748Z 11011KT 6000 -RA FEW010 BKN030 14/13 Q1007 RERA WHT;",
"10122099999","2010-09-08T18:20:00","4","53.5335","7.888667","7.31","JEVER, GM","FM-15","ETNJ ","V020","110,1,N,0067,1","00960,1,C,N","006000,1,N,1","+0140,1","+0130,1","99999,9",,"02,5,+00300,1,99,9","07,5,+00960,1,99,9",,"07,99,1,99,9,99,9,99999,9,99,9,99,9","10071,1,99999,9","61,1",,,,"MET071METAR ETNJ 081820Z 11013KT 6000 -RA FEW010 BKN032 14/13 Q1007 RERA WHT;",
"10122099999","2010-09-08T19:20:00","4","53.5335","7.888667","7.31","JEVER, GM","FM-15","ETNJ ","V020","120,1,N,0057,1","00600,1,C,N","006000,1,N,1","+0140,1","+0130,1","99999,9",,"02,5,+00300,1,99,9","07,5,+00600,1,99,9",,"07,99,1,99,9,99,9,99999,9,99,9,99,9","10071,1,99999,9","61,1",,,,"MET066METAR ETNJ 081920Z 12011KT 6000 -RA FEW010 BKN020 14/13 Q1007 WHT;",
"10122099999","2010-09-08T20:20:00","4","53.5335","7.888667","7.31","JEVER, GM","FM-15","ETNJ ","V020","110,1,N,0057,1","00600,1,C,N","006000,1,N,1","+0140,1","+0130,1","99999,9",,"04,5,+00210,1,99,9","07,5,+00600,1,99,9",,"07,99,1,99,9,99,9,99999,9,99,9,99,9","10071,1,99999,9","61,1",,,,"MET066METAR ETNJ 082020Z 11011KT 6000 -RA SCT007 BKN020 14/13 Q1007 WHT;",
"10122099999","2010-09-08T20:46:00","4","53.5335","7.888667","7.31","JEVER, GM","FM-16","ETNJ ","V020","120,1,N,0062,1","00210,1,C,N","006000,1,N,1","+0140,1","+0130,1","99999,9",,"02,5,+00150,1,99,9","04,5,+00210,1,99,9","07,5,+00360,1,99,9","07,99,1,99,9,99,9,99999,9,99,9,99,9","10071,1,99999,9","61,1",,,,"MET073SPECI ETNJ 082046Z 12012KT 6000 -RA FEW005 SCT007 BKN012 14/13 Q1007 GRN;",
"10122099999","2010-09-08T21:20:00","4","53.5335","7.888667","7.31","JEVER, GM","FM-15","ETNJ ","V020","120,1,N,0057,1","00210,1,C,N","005000,1,N,1","+0140,1","+0130,1","99999,9",,"02,5,+00150,1,99,9","04,5,+00210,1,99,9","07,5,+00450,1,99,9","07,99,1,99,9,99,9,99999,9,99,9,99,9","10081,1,99999,9","10,1","63,1",,,"MET075METAR ETNJ 082120Z 12011KT 5000 RA BR FEW005 SCT007 BKN015 14/13 Q1008 WHT;",
"10122099999","2010-09-08T22:20:00","4","53.5335","7.888667","7.31","JEVER, GM","FM-15","ETNJ ","V020","120,1,N,0051,1","00270,1,C,N","006000,1,N,1","+0140,1","+0130,1","99999,9",,"04,5,+00210,1,99,9","07,5,+00270,1,99,9",,"07,99,1,99,9,99,9,99999,9,99,9,99,9","10081,1,99999,9","61,1",,,,"MET071METAR ETNJ 082220Z 12010KT 6000 -RA SCT007 BKN009 14/13 Q1008 RERA GRN;",
"10122099999","2010-09-08T23:20:00","4","53.5335","7.888667","7.31","JEVER, GM","FM-15","ETNJ ","V020","120,1,N,0057,1","00300,1,C,N","005000,1,N,1","+0140,1","+0130,1","99999,9",,"04,5,+00180,1,99,9","07,5,+00300,1,99,9",,"07,99,1,99,9,99,9,99999,9,99,9,99,9","10071,1,99999,9","10,1","51,1","61,1",,"MET071METAR ETNJ 082320Z 12011KT 5000 -RADZ BR SCT006 BKN010 14/13 Q1007 GRN;",
"10122099999","2010-09-09T00:20:00","4","53.5335","7.888667","7.31","JEVER, GM","FM-15","ETNJ ","V020","130,1,N,0051,1","00210,1,C,N","006000,1,N,1","+0140,1","+0130,1","99999,9",,"07,5,+00210,1,99,9",,,"07,99,1,99,9,99,9,99999,9,99,9,99,9","10081,1,99999,9",,,,,"MET055METAR ETNJ 090020Z 13010KT 6000 BKN007 14/13 Q1008 GRN;",
"10122099999","2010-09-09T01:11:00","4","53.5335","7.888667","7.31","JEVER, GM","FM-16","ETNJ ","V020","120,1,N,0046,1","00150,1,C,N","005000,1,N,1","+0140,1","+0130,1","99999,9",,"07,5,+00150,1,99,9",,,"07,99,1,99,9,99,9,99999,9,99,9,99,9","10081,1,99999,9","10,1",,,,"MET058SPECI ETNJ 090111Z 12009KT 5000 BR BKN005 14/13 Q1008 YLO;",
"10122099999","2010-09-09T01:20:00","4","53.5335","7.888667","7.31","JEVER, GM","FM-15","ETNJ ","V020","120,1,N,0046,1","00150,1,C,N","004500,1,N,1","+0140,1","+0130,1","99999,9",,"07,5,+00150,1,99,9",,,"07,99,1,99,9,99,9,99999,9,99,9,99,9","10081,1,99999,9","10,1",,,,"MET058METAR ETNJ 090120Z 12009KT 4500 BR BKN005 14/13 Q1008 YLO;",
"10122099999","2010-09-09T02:20:00","4","53.5335","7.888667","7.31","JEVER, GM","FM-15","ETNJ ","V020","120,1,N,0041,1","00150,1,C,N","004500,1,N,1","+0140,1","+0130,1","99999,9",,"07,5,+00150,1,99,9",,,"07,99,1,99,9,99,9,99999,9,99,9,99,9","10081,1,99999,9","10,1",,,,"MET058METAR ETNJ 090220Z 12008KT 4500 BR BKN005 14/13 Q1008 YLO;",
"10122099999","2010-09-09T03:20:00","4","53.5335","7.888667","7.31","JEVER, GM","FM-15","ETNJ ","V020","120,1,N,0041,1","00150,1,C,N","004000,1,N,1","+0140,1","+0130,1","99999,9",,"07,5,+00150,1,99,9",,,"07,99,1,99,9,99,9,99999,9,99,9,99,9","10081,1,99999,9","10,1",,,,"MET058METAR ETNJ 090320Z 12008KT 4000 BR BKN005 14/13 Q1008 YLO;",
"10122099999","2010-09-09T04:20:00","4","53.5335","7.888667","7.31","JEVER, GM","FM-15","ETNJ ","V020","120,1,N,0041,1","00120,1,C,N","003500,1,N,1","+0140,1","+0130,1","99999,9",,"07,5,+00120,1,99,9",,,"07,99,1,99,9,99,9,99999,9,99,9,99,9","10081,1,99999,9","10,1",,,,"MET072METAR ETNJ 090420Z 12008KT 3500 BR BKN004 14/13 Q1008 YLO YLO TEMPO AMB;",
"10122099999","2010-09-09T05:20:00","4","53.5335","7.888667","7.31","JEVER, GM","FM-15","ETNJ ","V020","130,1,N,0031,1","00120,1,C,N","003500,1,N,1","+0140,1","+0130,1","99999,9",,"07,5,+00120,1,99,9",,,"07,99,1,99,9,99,9,99999,9,99,9,99,9","10091,1,99999,9","10,1",,,,"MET072METAR ETNJ 090520Z 13006KT 3500 BR BKN004 14/13 Q1009 YLO YLO TEMPO AMB;",
"10122099999","2010-09-09T06:04:00","4","53.5335","7.888667","7.31","JEVER, GM","FM-16","ETNJ ","V020","150,1,N,0021,1","00090,1,C,N","003000,1,N,1","+0140,1","+0130,1","99999,9",,"07,5,+00090,1,99,9",,,"07,99,1,99,9,99,9,99999,9,99,9,99,9","10091,1,99999,9","10,1",,,,"MET072SPECI ETNJ 090604Z 15004KT 3000 BR BKN003 14/13 Q1009 YLO YLO TEMPO AMB;",
"10122099999","2010-09-09T06:20:00","4","53.5335","7.888667","7.31","JEVER, GM","FM-15","ETNJ ","V020","140,1,N,0026,1","00090,1,C,N","003000,1,N,1","+0140,1","+0130,1","99999,9",,"07,5,+00090,1,99,9",,,"07,99,1,99,9,99,9,99999,9,99,9,99,9","10091,1,99999,9","10,1",,,,"MET072METAR ETNJ 090620Z 14005KT 3000 BR BKN003 14/13 Q1009 YLO YLO TEMPO AMB;",
"10122099999","2010-09-09T07:09:00","4","53.5335","7.888667","7.31","JEVER, GM","FM-16","ETNJ ","V020","150,1,N,0015,1","00120,1,C,N","003500,1,N,1","+0140,1","+0140,1","99999,9",,"07,5,+00120,1,99,9","07,5,+00240,1,99,9",,"07,99,1,99,9,99,9,99999,9,99,9,99,9","10102,1,99999,9","10,1",,,,"MET079SPECI ETNJ 090709Z 15003KT 3500 BR BKN004 BKN008 14/14 Q1010 YLO YLO BECMG GRN;",
"10122099999","2010-09-09T07:20:00","4","53.5335","7.888667","7.31","JEVER, GM","FM-15","ETNJ ","V020","140,1,N,0015,1","00120,1,C,N","003500,1,N,1","+0140,1","+0140,1","99999,9",,"07,5,+00120,1,99,9","07,5,+00240,1,99,9",,"07,99,1,99,9,99,9,99999,9,99,9,99,9","10102,1,99999,9","10,1",,,,"MET079METAR ETNJ 090720Z 14003KT 3500 BR BKN004 BKN008 14/14 Q1010 YLO YLO BECMG GRN;",
"10122099999","2010-09-09T08:20:00","4","53.5335","7.888667","7.31","JEVER, GM","FM-15","ETNJ ","V020","140,1,N,0021,1","00180,1,C,N","005000,1,N,1","+0150,1","+0140,1","99999,9",,"02,5,+00120,1,99,9","07,5,+00180,1,99,9","07,5,+00300,1,99,9","07,99,1,99,9,99,9,99999,9,99,9,99,9","10102,1,99999,9","10,1",,,,"MET086METAR ETNJ 090820Z 14004KT 5000 BR FEW004 BKN006 BKN010 15/14 Q1010 YLO GRN TEMPO YLO;",
"10122099999","2010-09-09T09:20:00","4","53.5335","7.888667","7.31","JEVER, GM","FM-15","ETNJ ","V020","140,1,N,0021,1","00270,1,C,N","005000,1,N,1","+0160,1","+0150,1","99999,9",,"07,5,+00270,1,99,9",,,"07,99,1,99,9,99,9,99999,9,99,9,99,9","10102,1,99999,9","10,1",,,,"MET072METAR ETNJ 090920Z 14004KT 5000 BR BKN009 16/15 Q1010 GRN GRN TEMPO YLO;",
"10122099999","2010-09-09T10:20:00","4","53.5335","7.888667","7.31","JEVER, GM","FM-15","ETNJ ","V020","110,1,N,0026,1","00420,1,C,N","006000,1,N,1","+0180,1","+0140,1","99999,9",,"07,5,+00420,1,99,9",,,"07,99,1,99,9,99,9,99999,9,99,9,99,9","10108,1,99999,9",,,,,"MET069METAR ETNJ 091020Z 11005KT 6000 BKN014 18/14 Q1011 GRN GRN BECMG WHT;",
"10122099999","2010-09-09T11:20:00","4","53.5335","7.888667","7.31","JEVER, GM","FM-15","ETNJ ","V020","150,1,N,0021,1","00660,1,C,N","006000,1,N,1","+0180,1","+0140,1","99999,9",,"04,5,+00420,1,99,9","07,5,+00660,1,99,9",,"07,99,1,99,9,99,9,99999,9,99,9,99,9","10108,1,99999,9",,,,,"MET076METAR ETNJ 091120Z 15004KT 6000 SCT014 BKN022 18/14 Q1011 WHT WHT TEMPO YLO;",
"10122099999","2010-09-09T12:20:00","4","53.5335","7.888667","7.31","JEVER, GM","FM-15","ETNJ ","V020","110,1,N,0026,1","00720,1,C,N","006000,1,N,1","+0180,1","+0140,1","99999,9",,"04,5,+00570,1,99,9","07,5,+00720,1,99,9","07,5,+01800,1,99,9","07,99,1,99,9,99,9,99999,9,99,9,99,9","10108,1,99999,9",,,,,"MET083METAR ETNJ 091220Z 11005KT 6000 SCT019 BKN024 BKN060 18/14 Q1011 WHT WHT TEMPO YLO;",
"10122099999","2010-09-09T13:20:00","4","53.5335","7.888667","7.31","JEVER, GM","FM-15","ETNJ ","V020","330,1,N,0015,1","01350,1,C,N","006000,1,N,1","+0170,1","+0140,1","99999,9",,"04,5,+00540,1,99,9","07,5,+01350,1,99,9",,"07,99,1,99,9,99,9,99999,9,99,9,99,9","10119,1,99999,9","51,1","61,1",,,"MET082METAR ETNJ 091320Z 33003KT 6000 -RADZ SCT018 BKN045 17/14 Q1012 WHT WHT TEMPO YLO;",
"10122099999","2010-09-09T14:20:00","4","53.5335","7.888667","7.31","JEVER, GM","FM-15","ETNJ ","V020","080,1,N,0015,1","01800,1,C,N","007000,1,N,1","+0180,1","+0150,1","99999,9",,"02,5,+01080,1,99,9","07,5,+01800,1,99,9",,"07,99,1,99,9,99,9,99999,9,99,9,99,9","10119,1,99999,9",,,,,"MET074METAR ETNJ 091420Z 08003KT 7000 FEW036 BKN060 18/15 Q1012 WHT FCST CANCEL;",
"10122099999","2010-09-09T15:20:00","4","53.5335","7.888667","7.31","JEVER, GM","FM-15","ETNJ ","V020","030,1,N,0015,1","01500,1,C,N","003500,1,N,1","+0160,1","+0140,1","99999,9",,"02,5,+00570,1,02,1","07,5,+01500,1,99,9",,"07,99,1,99,9,99,9,99999,9,99,9,99,9","10129,1,99999,9","10,1","80,1",,,"MET084METAR ETNJ 091520Z 03003KT 3500 R28/1300N -SHRA BR FEW019TCU BKN050 16/14 Q1013 YLO;",
"10122099999","2010-09-09T16:20:00","4","53.5335","7.888667","7.31","JEVER, GM","FM-15","ETNJ ","V020","330,1,N,0015,1","00090,1,C,N","001500,1,N,1","+0160,1","+0140,1","99999,9",,"07,5,+00090,1,99,9",,,"07,99,1,99,9,99,9,99999,9,99,9,99,9","10129,1,99999,9","10,1","63,1",,,"MET071METAR ETNJ 091620Z 33003KT 1500 R28/1600N RA BR BKN003 16/14 Q1013 AMB;",
"10122099999","2010-09-09T16:42:00","4","53.5335","7.888667","7.31","JEVER, GM","FM-16","ETNJ ","V020","999,9,V,0010,1","00090,1,C,N","001800,1,N,1","+0150,1","+0140,1","99999,9",,"07,5,+00090,1,99,9",,,"07,99,1,99,9,99,9,99999,9,99,9,99,9","10129,1,99999,9","10,1","63,1",,,"MET071SPECI ETNJ 091642Z VRB02KT 1800 R28/0900D RA BR BKN003 15/14 Q1013 YLO;",
"10122099999","2010-09-09T17:00:00","4","53.5335","7.888667","7.31","JEVER, GM","FM-15","ETNJ ","V020","999,9,C,0000,1","00360,1,C,N","002000,1,N,1","+0150,1","+0140,1","99999,9",,"04,5,+00090,1,99,9","07,5,+00360,1,99,9",,"07,99,1,99,9,99,9,99999,9,99,9,99,9","10129,1,99999,9","10,1","61,1",,,"MET084SPECI ETNJ 091657Z 00000KT 2000 R28/1700N -RA BR SCT003 BKN012 15/14 Q1013 RERA YLO;",
"10122099999","2010-09-09T17:20:00","4","53.5335","7.888667","7.31","JEVER, GM","FM-15","ETNJ ","V020","320,1,N,0015,1","00360,1,C,N","002500,1,N,1","+0160,1","+0150,1","99999,9",,"04,5,+00090,1,99,9","07,5,+00360,1,99,9",,"07,99,1,99,9,99,9,99999,9,99,9,99,9","10129,1,99999,9","10,1","61,1",,,"MET074METAR ETNJ 091720Z 32003KT 2500 -RA BR SCT003 BKN012 16/15 Q1013 RERA YLO;",
"10122099999","2010-09-09T18:20:00","4","53.5335","7.888667","7.31","JEVER, GM","FM-15","ETNJ ","V020","290,1,N,0021,1","00900,1,C,N","002500,1,N,1","+0150,1","+0140,1","99999,9",,"04,5,+00450,1,99,9","07,5,+00900,1,99,9",,"07,99,1,99,9,99,9,99999,9,99,9,99,9","10139,1,99999,9","10,1",,,,"MET065METAR ETNJ 091820Z 29004KT 2500 BR SCT015 BKN030 15/14 Q1014 YLO;",
"10122099999","2010-09-09T19:20:00","4","53.5335","7.888667","7.31","JEVER, GM","FM-15","ETNJ ","V020","270,1,N,0031,1","00600,1,C,N","003700,1,N,1","+0150,1","+0140,1","99999,9",,"07,5,+00600,1,99,9","07,5,+01050,1,99,9",,"07,99,1,99,9,99,9,99999,9,99,9,99,9","10139,1,99999,9","10,1",,,,"MET065METAR ETNJ 091920Z 27006KT 3700 BR BKN020 BKN035 15/14 Q1014 GRN;",
"10122099999","2010-09-09T20:20:00","4","53.5335","7.888667","7.31","JEVER, GM","FM-15","ETNJ ","V020","270,1,N,0026,1","01200,1,C,N","005000,1,N,1","+0150,1","+0140,1","99999,9",,"04,5,+00600,1,99,9","07,5,+01200,1,99,9",,"07,99,1,99,9,99,9,99999,9,99,9,99,9","10149,1,99999,9","10,1",,,,"MET065METAR ETNJ 092020Z 27005KT 5000 BR SCT020 BKN040 15/14 Q1015 WHT;",
"10122099999","2010-09-09T21:20:00","4","53.5335","7.888667","7.31","JEVER, GM","FM-15","ETNJ ","V020","270,1,N,0031,1","22000,1,9,N","006000,1,N,1","+0150,1","+0140,1","99999,9",,"02,5,+01200,1,99,9",,,"02,99,1,99,9,99,9,99999,9,99,9,99,9","10149,1,99999,9",,,,,"MET055METAR ETNJ 092120Z 27006KT 6000 FEW040 15/14 Q1015 WHT;",
"10122099999","2010-09-09T22:20:00","4","53.5335","7.888667","7.31","JEVER, GM","FM-15","ETNJ ","V020","260,1,N,0031,1","22000,1,9,N","005000,1,N,1","+0140,1","+0130,1","99999,9",,"02,5,+01200,1,99,9",,,"02,99,1,99,9,99,9,99999,9,99,9,99,9","10149,1,99999,9","10,1",,,,"MET058METAR ETNJ 092220Z 26006KT 5000 BR FEW040 14/13 Q1015 WHT;",
"10122099999","2010-09-09T23:20:00","4","53.5335","7.888667","7.31","JEVER, GM","FM-15","ETNJ ","V020","250,1,N,0026,1","00720,1,C,N","005000,1,N,1","+0140,1","+0130,1","99999,9",,"07,5,+00720,1,99,9",,,"07,99,1,99,9,99,9,99999,9,99,9,99,9","10159,1,99999,9","10,1",,,,"MET058METAR ETNJ 092320Z 25005KT 5000 BR BKN024 14/13 Q1016 WHT;",
"10122099999","2010-09-10T00:20:00","4","53.5335","7.888667","7.31","JEVER, GM","FM-15","ETNJ ","V020","250,1,N,0036,1","00900,1,C,N","004000,1,N,1","+0140,1","+0130,1","99999,9",,"07,5,+00900,1,99,9",,,"07,99,1,99,9,99,9,99999,9,99,9,99,9","10159,1,99999,9","10,1",,,,"MET058METAR ETNJ 100020Z 25007KT 4000 BR BKN030 14/13 Q1016 GRN;",
"10122099999","2010-09-10T01:20:00","4","53.5335","7.888667","7.31","JEVER, GM","FM-15","ETNJ ","V020","240,1,N,0021,1","00900,1,C,N","004000,1,N,1","+0130,1","+0120,1","99999,9",,"07,5,+00900,1,99,9",,,"07,99,1,99,9,99,9,99999,9,99,9,99,9","10159,1,99999,9","10,1",,,,"MET058METAR ETNJ 100120Z 24004KT 4000 BR BKN030 13/12 Q1016 GRN;",
"10122099999","2010-09-10T02:20:00","4","53.5335","7.888667","7.31","JEVER, GM","FM-15","ETNJ ","V020","250,1,N,0031,1","00900,1,C,N","003500,1,N,1","+0120,1","+0110,1","99999,9",,"07,5,+00900,1,99,9",,,"07,99,1,99,9,99,9,99999,9,99,9,99,9","10159,1,99999,9","10,1",,,,"MET058METAR ETNJ 100220Z 25006KT 3500 BR BKN030 12/11 Q1016 YLO;",
"10122099999","2010-09-10T03:20:00","4","53.5335","7.888667","7.31","JEVER, GM","FM-15","ETNJ ","V020","250,1,N,0031,1","22000,1,9,N","002500,1,N,1","+0120,1","+0110,1","99999,9",,"02,5,+00900,1,99,9",,,"02,99,1,99,9,99,9,99999,9,99,9,99,9","10159,1,99999,9","10,1",,,,"MET058METAR ETNJ 100320Z 25006KT 2500 BR FEW030 12/11 Q1016 YLO;",
"10122099999","2010-09-10T03:52:00","4","53.5335","7.888667","7.31","JEVER, GM","FM-16","ETNJ ","V020","250,1,N,0036,1","00015,1,9,N","000500,1,N,1","+0120,1","+0120,1","99999,9",,"09,1,+00015,1,99,9",,,"09,99,1,99,9,99,9,00025,1,99,9,99,9","10159,1,99999,9","45,1",,,,"MET071SPECI ETNJ 100352Z 25007KT 0500 R28/1400N FG VV000 12/12 Q1016 RED RED;",
"10122099999","2010-09-10T04:20:00","4","53.5335","7.888667","7.31","JEVER, GM","FM-15","ETNJ ","V020","250,1,N,0031,1","00015,1,9,N","000500,1,N,1","+0130,1","+0130,1","99999,9",,"09,1,+00015,1,99,9",,,"09,99,1,99,9,99,9,00025,1,99,9,99,9","10159,1,99999,9","45,1",,,,"MET071METAR ETNJ 100420Z 25006KT 0500 R28/0900N FG VV000 13/13 Q1016 RED RED;",
"10122099999","2010-09-10T05:20:00","4","53.5335","7.888667","7.31","JEVER, GM","FM-15","ETNJ ","V020","250,1,N,0031,1","00030,1,9,N","000600,1,N,1","+0130,1","+0130,1","99999,9",,"09,1,+00030,1,99,9",,,"09,99,1,99,9,99,9,00025,1,99,9,99,9","10169,1,99999,9","45,1",,,,"MET071METAR ETNJ 100520Z 25006KT 0600 R28/1100N FG VV001 13/13 Q1017 RED RED;",
"10122099999","2010-09-10T06:00:00","4","53.5335","7.888667","7.31","JEVER, GM","FM-15","ETNJ ","V020","250,1,N,0031,1","00060,1,9,N","000900,1,N,1","+0130,1","+0130,1","99999,9",,"09,1,+00060,1,99,9",,,"09,99,1,99,9,99,9,00025,1,99,9,99,9","10169,1,99999,9","45,1",,,,"MET081SPECI ETNJ 100556Z 25006KT 0900 R28/1300N FG VV002 13/13 Q1017 AMB AMB BECMG YLO;",
"10122099999","2010-09-10T06:20:00","4","53.5335","7.888667","7.31","JEVER, GM","FM-15","ETNJ ","V020","260,1,N,0036,1","00060,1,9,N","000900,1,N,1","+0140,1","+0140,1","99999,9",,"09,1,+00060,1,99,9",,,"09,99,1,99,9,99,9,00025,1,99,9,99,9","10169,1,99999,9","45,1",,,,"MET081METAR ETNJ 100620Z 26007KT 0900 R28/1400D FG VV002 14/14 Q1017 AMB AMB BECMG YLO;",
"10122099999","2010-09-10T06:42:00","4","53.5335","7.888667","7.31","JEVER, GM","FM-16","ETNJ ","V020","250,1,N,0031,1","00060,1,C,N","001200,1,N,1","+0140,1","+0140,1","99999,9",,"07,5,+00060,1,99,9",,,"07,99,1,99,9,99,9,99999,9,99,9,99,9","10169,1,99999,9","10,1",,,,"MET082SPECI ETNJ 100642Z 25006KT 1200 R28/1600N BR BKN002 14/14 Q1017 AMB AMB BECMG YLO;",
"10122099999","2010-09-10T07:20:00","4","53.5335","7.888667","7.31","JEVER, GM","FM-15","ETNJ ","V020","240,1,N,0041,1","00060,1,C,N","001500,1,N,1","+0140,1","+0130,1","99999,9",,"07,5,+00060,1,99,9","07,5,+00120,1,99,9",,"07,99,1,99,9,99,9,99999,9,99,9,99,9","10169,1,99999,9","10,1",,,,"MET089METAR ETNJ 100720Z 24008KT 1500 R28/2000N BR BKN002 BKN004 14/13 Q1017 AMB AMB BECMG YLO;",
"10122099999","2010-09-10T08:20:00","4","53.5335","7.888667","7.31","JEVER, GM","FM-15","ETNJ ","V020","240,1,N,0031,1","00090,1,C,N","002000,1,N,1","+0150,1","+0140,1","99999,9",,"07,5,+00090,1,99,9","07,5,+00180,1,99,9",,"07,99,1,99,9,99,9,99999,9,99,9,99,9","10180,1,99999,9","10,1",,,,"MET069METAR ETNJ 100820Z 24006KT 2000 BR BKN003 BKN006 15/14 Q1018 YLO YLO;",
"10122099999","2010-09-10T09:00:00","4","53.5335","7.888667","7.31","JEVER, GM","FM-15","ETNJ ","V020","240,1,N,0036,1","00360,1,C,N","003700,1,N,1","+0160,1","+0140,1","99999,9",,"04,5,+00090,1,99,9","07,5,+00360,1,99,9",,"07,99,1,99,9,99,9,99999,9,99,9,99,9","10180,1,99999,9","10,1",,,,"MET080SPECI ETNJ 100856Z 24007KT 3700 BR SCT003 BKN012 16/14 Q1018 GRN GRN BECMG BLU/;",
"10122099999","2010-09-10T09:20:00","4","53.5335","7.888667","7.31","JEVER, GM","FM-15","ETNJ ","V020","250,1,N,0036,1","00240,1,C,N","004000,1,N,1","+0170,1","+0150,1","99999,9",,"07,5,+00240,1,99,9","07,5,+00900,1,99,9",,"07,99,1,99,9,99,9,99999,9,99,9,99,9","10180,1,99999,9","10,1",,,,"MET080METAR ETNJ 100920Z 25007KT 4000 BR BKN008 BKN030 17/15 Q1018 GRN GRN BECMG BLU/;",
"10122099999","2010-09-10T10:20:00","4","53.5335","7.888667","7.31","JEVER, GM","FM-15","ETNJ ","V020","240,1,N,0036,1","00300,1,C,N","004500,1,N,1","+0160,1","+0140,1","99999,9",,"07,5,+00300,1,99,9","07,5,+00900,1,99,9",,"07,99,1,99,9,99,9,99999,9,99,9,99,9","10180,1,99999,9","10,1",,,,"MET077METAR ETNJ 101020Z 24007KT 4500 BR BKN010 BKN030 16/14 Q1018 GRN FCST CANCEL;",
"10122099999","2010-09-10T10:22:00","4","53.5335","7.888667","7.31","JEVER, GM","FM-16","ETNJ ","V020","240,1,N,0036,1","00300,1,C,N","004500,1,N,1","+0160,1","+0140,1","99999,9",,"07,5,+00300,1,99,9","07,5,+00900,1,99,9",,"07,99,1,99,9,99,9,99999,9,99,9,99,9","10180,1,99999,9","10,1",,,,"MET077SPECI ETNJ 101022Z 24007KT 4500 BR BKN010 BKN030 16/14 Q1018 GRN FCST CANCEL;",
"10122099999","2010-09-10T11:20:00","4","53.5335","7.888667","7.31","JEVER, GM","FM-15","ETNJ ","V020","230,1,N,0041,1","00420,1,C,N","006000,1,N,1","+0160,1","+0140,1","99999,9",,"07,5,+00420,1,99,9","07,5,+00810,1,99,9",,"07,99,1,99,9,99,9,99999,9,99,9,99,9","10180,1,99999,9",,,,,"MET062METAR ETNJ 101120Z 23008KT 6000 BKN014 BKN027 16/14 Q1018 GRN;",
"10122099999","2010-09-10T12:20:00","4","53.5335","7.888667","7.31","JEVER, GM","FM-15","ETNJ ","V020","250,1,N,0031,1","22000,1,9,N","007000,1,N,1","+0180,1","+0140,1","99999,9",,"04,5,+00720,1,99,9",,,"04,99,1,99,9,99,9,99999,9,99,9,99,9","10180,1,99999,9",,,,,"MET055METAR ETNJ 101220Z 25006KT 7000 SCT024 18/14 Q1018 WHT;",
"10122099999","2010-09-10T13:20:00","4","53.5335","7.888667","7.31","JEVER, GM","FM-15","ETNJ ","V020","240,1,N,0036,1","22000,1,9,N","011265,1,N,1","+0200,1","+0140,1","99999,9",,"04,5,+00840,1,99,9",,,"04,99,1,99,9,99,9,99999,9,99,9,99,9","10180,1,99999,9",,,,,"MET056METAR ETNJ 101320Z 24007KT 9999 SCT028 20/14 Q1018 BLU/;",
"10122099999","2010-09-10T14:20:00","4","53.5335","7.888667","7.31","JEVER, GM","FM-15","ETNJ ","V020","999,9,V,0005,1","01170,1,C,N","011265,1,N,1","+0180,1","+0150,1","99999,9",,"04,5,+00810,1,99,9","07,5,+01170,1,99,9",,"07,99,1,99,9,99,9,99999,9,99,9,99,9","10180,1,99999,9","80,1",,,,"MET068METAR ETNJ 101420Z VRB01KT 9999 -SHRA SCT027 BKN039 18/15 Q1018 BLU;",
"10122099999","2010-09-10T15:20:00","4","53.5335","7.888667","7.31","JEVER, GM","FM-15","ETNJ ","V020","240,1,N,0046,1","01800,1,C,N","011265,1,N,1","+0180,1","+0150,1","99999,9",,"02,5,+00720,1,99,9","07,5,+01800,1,99,9",,"07,99,1,99,9,99,9,99999,9,99,9,99,9","10180,1,99999,9",,,,,"MET062METAR ETNJ 101520Z 24009KT 9999 FEW024 BKN060 18/15 Q1018 BLU;",
"10122099999","2010-09-10T16:20:00","4","53.5335","7.888667","7.31","JEVER, GM","FM-15","ETNJ ","V020","230,1,N,0031,1","02700,1,C,N","009000,1,N,1","+0160,1","+0140,1","99999,9",,"02,5,+00660,1,02,1","07,5,+02700,1,99,9",,"07,99,1,99,9,99,9,99999,9,99,9,99,9","10180,1,99999,9",,,,,"MET065METAR ETNJ 101620Z 23006KT 9000 FEW022TCU BKN090 16/14 Q1018 BLU;",
"10122099999","2010-09-10T17:20:00","4","53.5335","7.888667","7.31","JEVER, GM","FM-15","ETNJ ","V020","230,1,N,0031,1","02400,1,C,N","008000,1,N,1","+0170,1","+0140,1","99999,9",,"02,5,+00660,1,02,1","07,5,+02400,1,99,9",,"07,99,1,99,9,99,9,99999,9,99,9,99,9","10180,1,99999,9",,,,,"MET065METAR ETNJ 101720Z 23006KT 8000 FEW022TCU BKN080 17/14 Q1018 BLU;",
"10122099999","2010-09-10T18:20:00","4","53.5335","7.888667","7.31","JEVER, GM","FM-15","ETNJ ","V020","230,1,N,0031,1","02400,1,C,N","009000,1,N,1","+0160,1","+0140,1","99999,9",,"02,5,+00600,1,99,9","07,5,+02400,1,99,9",,"07,99,1,99,9,99,9,99999,9,99,9,99,9","10180,1,99999,9",,,,,"MET062METAR ETNJ 101820Z 23006KT 9000 FEW020 BKN080 16/14 Q1018 BLU;",
"10122099999","2010-09-10T19:20:00","4","53.5335","7.888667","7.31","JEVER, GM","FM-15","ETNJ ","V020","230,1,N,0031,1","02400,1,C,N","011265,1,N,1","+0150,1","+0130,1","99999,9",,"02,5,+00480,1,99,9","07,5,+02400,1,99,9",,"07,99,1,99,9,99,9,99999,9,99,9,99,9","10190,1,99999,9","61,1",,,,"MET066METAR ETNJ 101920Z 23006KT 9999 -RA FEW016 BKN080 15/13 Q1019 BLU;",
"10122099999","2010-09-10T20:20:00","4","53.5335","7.888667","7.31","JEVER, GM","FM-15","ETNJ ","V020","220,1,N,0031,1","01800,1,C,N","006000,1,N,1","+0150,1","+0130,1","99999,9",,"04,5,+00900,1,99,9","07,5,+01800,1,99,9",,"07,99,1,99,9,99,9,99999,9,99,9,99,9","10190,1,99999,9","61,1",,,,"MET066METAR ETNJ 102020Z 22006KT 6000 -RA SCT030 BKN060 15/13 Q1019 WHT;",
"10122099999","2010-09-10T21:20:00","4","53.5335","7.888667","7.31","JEVER, GM","FM-15","ETNJ ","V020","190,1,N,0036,1","00570,1,C,N","004500,1,N,1","+0140,1","+0130,1","99999,9",,"04,5,+00150,1,99,9","07,5,+00570,1,99,9",,"07,99,1,99,9,99,9,99999,9,99,9,99,9","10180,1,99999,9","10,1","51,1","61,1",,"MET071METAR ETNJ 102120Z 19007KT 4500 -RADZ BR SCT005 BKN019 14/13 Q1018 GRN;",
"10122099999","2010-09-10T22:20:00","4","53.5335","7.888667","7.31","JEVER, GM","FM-15","ETNJ ","V020","200,1,N,0036,1","00120,1,C,N","003500,1,N,1","+0140,1","+0130,1","99999,9",,"07,5,+00120,1,99,9","07,5,+00270,1,99,9",,"07,99,1,99,9,99,9,99999,9,99,9,99,9","10180,1,99999,9","10,1","51,1",,,"MET069METAR ETNJ 102220Z 20007KT 3500 -DZ BR BKN004 BKN009 14/13 Q1018 YLO;",
"10122099999","2010-09-10T23:20:00","4","53.5335","7.888667","7.31","JEVER, GM","FM-15","ETNJ ","V020","200,1,N,0036,1","00120,1,C,N","003000,1,N,1","+0140,1","+0130,1","99999,9",,"07,5,+00120,1,99,9",,,"07,99,1,99,9,99,9,99999,9,99,9,99,9","10180,1,99999,9","10,1","51,1",,,"MET062METAR ETNJ 102320Z 20007KT 3000 -DZ BR BKN004 14/13 Q1018 YLO;",
"10122099999","2010-09-11T00:20:00","4","53.5335","7.888667","7.31","JEVER, GM","FM-15","ETNJ ","V020","210,1,N,0036,1","00150,1,C,N","004000,1,N,1","+0140,1","+0140,1","99999,9",,"07,5,+00150,1,99,9","07,5,+00300,1,99,9",,"07,99,1,99,9,99,9,99999,9,99,9,99,9","10169,1,99999,9","10,1","51,1",,,"MET069METAR ETNJ 110020Z 21007KT 4000 -DZ BR BKN005 BKN010 14/14 Q1017 YLO;",
"10122099999","2010-09-11T01:20:00","4","53.5335","7.888667","7.31","JEVER, GM","FM-15","ETNJ ","V020","200,1,N,0041,1","00150,1,C,N","003200,1,N,1","+0150,1","+0140,1","99999,9",,"07,5,+00150,1,99,9","07,5,+00270,1,99,9",,"07,99,1,99,9,99,9,99999,9,99,9,99,9","10169,1,99999,9","10,1","51,1",,,"MET069METAR ETNJ 110120Z 20008KT 3200 -DZ BR BKN005 BKN009 15/14 Q1017 YLO;",
"10122099999","2010-09-11T02:20:00","4","53.5335","7.888667","7.31","JEVER, GM","FM-15","ETNJ ","V020","210,1,N,0031,1","00180,1,C,N","003200,1,N,1","+0150,1","+0140,1","99999,9",,"07,5,+00180,1,99,9",,,"07,99,1,99,9,99,9,99999,9,99,9,99,9","10169,1,99999,9","10,1","51,1",,,"MET062METAR ETNJ 110220Z 21006KT 3200 -DZ BR BKN006 15/14 Q1017 YLO;",
"10122099999","2010-09-11T03:20:00","4","53.5335","7.888667","7.31","JEVER, GM","FM-15","ETNJ ","V020","200,1,N,0031,1","00180,1,C,N","003500,1,N,1","+0150,1","+0140,1","99999,9",,"07,5,+00180,1,99,9","07,5,+00420,1,99,9",,"07,99,1,99,9,99,9,99999,9,99,9,99,9","10169,1,99999,9","10,1",,,,"MET065METAR ETNJ 110320Z 20006KT 3500 BR BKN006 BKN014 15/14 Q1017 YLO;",
"10122099999","2010-09-11T04:20:00","4","53.5335","7.888667","7.31","JEVER, GM","FM-15","ETNJ ","V020","200,1,N,0036,1","00420,1,C,N","004500,1,N,1","+0150,1","+0140,1","99999,9",,"04,5,+00180,1,99,9","07,5,+00420,1,99,9",,"07,99,1,99,9,99,9,99999,9,99,9,99,9","10169,1,99999,9","10,1",,,,"MET065METAR ETNJ 110420Z 20007KT 4500 BR SCT006 BKN014 15/14 Q1017 GRN;",
"10122099999","2010-09-11T05:20:00","4","53.5335","7.888667","7.31","JEVER, GM","FM-15","ETNJ ","V020","200,1,N,0031,1","01800,1,C,N","007000,1,N,1","+0140,1","+0130,1","99999,9",,"07,5,+01800,1,99,9","07,5,+07200,1,99,9",,"07,99,1,99,9,99,9,99999,9,99,9,99,9","10169,1,99999,9",,,,,"MET062METAR ETNJ 110520Z 20006KT 7000 BKN060 BKN240 14/13 Q1017 WHT;",
"10122099999","2010-09-11T06:20:00","4","53.5335","7.888667","7.31","JEVER, GM","FM-15","ETNJ ","V020","210,1,N,0031,1","03300,1,C,N","008000,1,N,1","+0150,1","+0140,1","99999,9",,"07,5,+03300,1,99,9","07,5,+06900,1,99,9",,"07,99,1,99,9,99,9,99999,9,99,9,99,9","10169,1,99999,9",,,,,"MET062METAR ETNJ 110620Z 21006KT 8000 BKN110 BKN230 15/14 Q1017 BLU;",
"10122099999","2010-09-11T07:20:00","4","53.5335","7.888667","7.31","JEVER, GM","FM-15","ETNJ ","V020","210,1,N,0036,1","03300,1,C,N","011265,1,N,1","+0160,1","+0140,1","99999,9",,"07,5,+03300,1,99,9","07,5,+06900,1,99,9",,"07,99,1,99,9,99,9,99999,9,99,9,99,9","10169,1,99999,9",,,,,"MET062METAR ETNJ 110720Z 21007KT 9999 BKN110 BKN230 16/14 Q1017 BLU;",
"10122099999","2010-09-11T08:20:00","4","53.5335","7.888667","7.31","JEVER, GM","FM-15","ETNJ ","V020","210,1,N,0036,1","03300,1,C,N","011265,1,N,1","+0170,1","+0150,1","99999,9",,"07,5,+03300,1,99,9","07,5,+06900,1,99,9",,"07,99,1,99,9,99,9,99999,9,99,9,99,9","10169,1,99999,9",,,,,"MET062METAR ETNJ 110820Z 21007KT 9999 BKN110 BKN230 17/15 Q1017 BLU;",
"10122099999","2010-09-11T09:20:00","4","53.5335","7.888667","7.31","JEVER, GM","FM-15","ETNJ ","V020","210,1,N,0036,1","01800,1,C,N","011265,1,N,1","+0190,1","+0150,1","99999,9",,"07,5,+01800,1,99,9",,,"07,99,1,99,9,99,9,99999,9,99,9,99,9","10169,1,99999,9",,,,,"MET055METAR ETNJ 110920Z 21007KT 9999 BKN060 19/15 Q1017 BLU;",
"10122099999","2010-09-11T10:20:00","4","53.5335","7.888667","7.31","JEVER, GM","FM-15","ETNJ ","V020","200,1,N,0041,1","99999,9,C,N","011265,1,N,1","+0210,1","+0150,1","99999,9",,"04,5,+01800,1,99,9","04,5,+03300,1,99,9",,"04,99,1,99,9,99,9,99999,9,99,9,99,9","10169,1,99999,9",,,,,"MET063METAR ETNJ 111020Z 20008KT 9999 SCT060 SCT110 21/15 Q1017 BLU/;","P01 033003SCOCIG"
"10122099999","2010-09-11T11:20:00","4","53.5335","7.888667","7.31","JEVER, GM","FM-15","ETNJ ","V020","200,1,N,0046,1","06900,1,C,N","011265,1,N,1","+0220,1","+0150,1","99999,9",,"02,5,+01500,1,99,9","07,5,+06900,1,99,9",,"07,99,1,99,9,99,9,99999,9,99,9,99,9","10159,1,99999,9",,,,,"MET063METAR ETNJ 111120Z 20009KT 9999 FEW050 BKN230 22/15 Q1016 BLU/;",
"10122099999","2010-09-11T12:20:00","4","53.5335","7.888667","7.31","JEVER, GM","FM-15","ETNJ ","V020","190,1,N,0041,1","06900,1,C,N","011265,1,N,1","+0220,1","+0150,1","99999,9",,"02,5,+00450,1,99,9","07,5,+06900,1,99,9",,"07,99,1,99,9,99,9,99999,9,99,9,99,9","10159,1,99999,9",,,,,"MET063METAR ETNJ 111220Z 19008KT 9999 FEW015 BKN230 22/15 Q1016 BLU/;",
"10122099999","2010-09-11T13:20:00","4","53.5335","7.888667","7.31","JEVER, GM","FM-15","ETNJ ","V020","200,1,N,0046,1","06900,1,C,N","011265,1,N,1","+0220,1","+0140,1","99999,9",,"02,5,+00840,1,99,9","07,5,+06900,1,99,9",,"07,99,1,99,9,99,9,99999,9,99,9,99,9","10159,1,99999,9",,,,,"MET063METAR ETNJ 111320Z 20009KT 9999 FEW028 BKN230 22/14 Q1016 BLU/;",
"10122099999","2010-09-11T14:20:00","4","53.5335","7.888667","7.31","JEVER, GM","FM-15","ETNJ ","V020","220,1,N,0051,1","06900,1,C,N","011265,1,N,1","+0220,1","+0130,1","99999,9",,"02,5,+00900,1,99,9","07,5,+06900,1,99,9",,"07,99,1,99,9,99,9,99999,9,99,9,99,9","10159,1,99999,9",,,,,"MET063METAR ETNJ 111420Z 22010KT 9999 FEW030 BKN230 22/13 Q1016 BLU/;",
"10122099999","2010-09-11T15:20:00","4","53.5335","7.888667","7.31","JEVER, GM","FM-15","ETNJ ","V020","200,1,N,0036,1","01380,1,C,N","011265,1,N,1","+0220,1","+0130,1","99999,9",,"02,5,+00900,1,99,9","04,5,+01380,1,99,9","07,5,+06900,1,99,9","07,99,1,99,9,99,9,99999,9,99,9,99,9","10159,1,99999,9",,,,,"MET070METAR ETNJ 111520Z 20007KT 9999 FEW030 SCT046 BKN230 22/13 Q1016 BLU/;",
"10122099999","2010-09-11T16:20:00","4","53.5335","7.888667","7.31","JEVER, GM","FM-15","ETNJ ","V020","190,1,N,0026,1","03300,1,C,N","011265,1,N,1","+0220,1","+0140,1","99999,9",,"02,5,+01200,1,99,9","04,5,+03300,1,99,9","07,5,+06900,1,99,9","07,99,1,99,9,99,9,99999,9,99,9,99,9","10159,1,99999,9",,,,,"MET070METAR ETNJ 111620Z 19005KT 9999 FEW040 SCT110 BKN230 22/14 Q1016 BLU/;",
"10122099999","2010-09-11T17:20:00","4","53.5335","7.888667","7.31","JEVER, GM","FM-15","ETNJ ","V020","200,1,N,0021,1","01290,1,C,N","011265,1,N,1","+0200,1","+0140,1","99999,9",,"07,5,+01290,1,99,9",,,"07,99,1,99,9,99,9,99999,9,99,9,99,9","10159,1,99999,9",,,,,"MET055METAR ETNJ 111720Z 20004KT 9999 BKN043 20/14 Q1016 BLU;",
"10122099999","2010-09-11T18:20:00","4","53.5335","7.888667","7.31","JEVER, GM","FM-15","ETNJ ","V020","180,1,N,0026,1","01440,1,C,N","011265,1,N,1","+0190,1","+0140,1","99999,9",,"07,5,+01440,1,99,9",,,"07,99,1,99,9,99,9,99999,9,99,9,99,9","10159,1,99999,9",,,,,"MET055METAR ETNJ 111820Z 18005KT 9999 BKN048 19/14 Q1016 BLU;",
"10122099999","2010-09-11T19:20:00","4","53.5335","7.888667","7.31","JEVER, GM","FM-15","ETNJ ","V020","170,1,N,0021,1","01500,1,C,N","011265,1,N,1","+0180,1","+0140,1","99999,9",,"07,5,+01500,1,99,9",,,"07,99,1,99,9,99,9,99999,9,99,9,99,9","10159,1,99999,9",,,,,"MET055METAR ETNJ 111920Z 17004KT 9999 BKN050 18/14 Q1016 BLU;",
"10122099999","2010-09-11T20:20:00","4","53.5335","7.888667","7.31","JEVER, GM","FM-15","ETNJ ","V020","170,1,N,0021,1","22000,1,9,N","011265,1,N,1","+0170,1","+0140,1","99999,9",,"02,5,+01500,1,99,9",,,"02,99,1,99,9,99,9,99999,9,99,9,99,9","10169,1,99999,9",,,,,"MET056METAR ETNJ 112020Z 17004KT 9999 FEW050 17/14 Q1017 BLU/;",
"10122099999","2010-09-11T21:20:00","4","53.5335","7.888667","7.31","JEVER, GM","FM-15","ETNJ ","V020","180,1,N,0026,1","01500,1,C,N","011265,1,N,1","+0170,1","+0150,1","99999,9",,"07,5,+01500,1,99,9",,,"07,99,1,99,9,99,9,99999,9,99,9,99,9","10169,1,99999,9",,,,,"MET055METAR ETNJ 112120Z 18005KT 9999 BKN050 17/15 Q1017 BLU;",
"10122099999","2010-09-11T22:20:00","4","53.5335","7.888667","7.31","JEVER, GM","FM-15","ETNJ ","V020","200,1,N,0021,1","01470,1,C,N","011265,1,N,1","+0180,1","+0140,1","99999,9",,"07,5,+01470,1,99,9",,,"07,99,1,99,9,99,9,99999,9,99,9,99,9","10169,1,99999,9",,,,,"MET055METAR ETNJ 112220Z 20004KT 9999 BKN049 18/14 Q1017 BLU;",
"10122099999","2010-09-11T23:20:00","4","53.5335","7.888667","7.31","JEVER, GM","FM-15","ETNJ ","V020","200,1,N,0021,1","01410,1,C,N","011265,1,N,1","+0170,1","+0140,1","99999,9",,"07,5,+01410,1,99,9",,,"07,99,1,99,9,99,9,99999,9,99,9,99,9","10169,1,99999,9",,,,,"MET055METAR ETNJ 112320Z 20004KT 9999 BKN047 17/14 Q1017 BLU;",
"10122099999","2010-09-12T00:20:00","4","53.5335","7.888667","7.31","JEVER, GM","FM-15","ETNJ ","V020","220,1,N,0021,1","01470,1,C,N","011265,1,N,1","+0170,1","+0140,1","99999,9",,"07,5,+01470,1,99,9",,,"07,99,1,99,9,99,9,99999,9,99,9,99,9","10169,1,99999,9",,,,,"MET055METAR ETNJ 120020Z 22004KT 9999 BKN049 17/14 Q1017 BLU;",
"10122099999","2010-09-12T01:20:00","4","53.5335","7.888667","7.31","JEVER, GM","FM-15","ETNJ ","V020","180,1,N,0021,1","01500,1,C,N","011265,1,N,1","+0160,1","+0140,1","99999,9",,"07,5,+01500,1,99,9",,,"07,99,1,99,9,99,9,99999,9,99,9,99,9","10159,1,99999,9",,,,,"MET055METAR ETNJ 120120Z 18004KT 9999 BKN050 16/14 Q1016 BLU;",
"10122099999","2010-09-12T02:20:00","4","53.5335","7.888667","7.31","JEVER, GM","FM-15","ETNJ ","V020","190,1,N,0015,1","01800,1,C,N","011265,1,N,1","+0160,1","+0140,1","99999,9",,"07,5,+01800,1,99,9",,,"07,99,1,99,9,99,9,99999,9,99,9,99,9","10159,1,99999,9",,,,,"MET055METAR ETNJ 120220Z 19003KT 9999 BKN060 16/14 Q1016 BLU;",
"10122099999","2010-09-12T03:20:00","4","53.5335","7.888667","7.31","JEVER, GM","FM-15","ETNJ ","V020","180,1,N,0026,1","03000,1,C,N","011265,1,N,1","+0150,1","+0130,1","99999,9",,"07,5,+03000,1,99,9",,,"07,99,1,99,9,99,9,99999,9,99,9,99,9","10159,1,99999,9",,,,,"MET055METAR ETNJ 120320Z 18005KT 9999 BKN100 15/13 Q1016 BLU;",
"10122099999","2010-09-12T04:20:00","4","53.5335","7.888667","7.31","JEVER, GM","FM-15","ETNJ ","V020","200,1,N,0015,1","03000,1,C,N","011265,1,N,1","+0140,1","+0130,1","99999,9",,"07,5,+03000,1,99,9",,,"07,99,1,99,9,99,9,99999,9,99,9,99,9","10169,1,99999,9",,,,,"MET055METAR ETNJ 120420Z 20003KT 9999 BKN100 14/13 Q1017 BLU;",
"10122099999","2010-09-12T05:20:00","4","53.5335","7.888667","7.31","JEVER, GM","FM-15","ETNJ ","V020","240,1,N,0026,1","01200,1,C,N","011265,1,N,1","+0150,1","+0140,1","99999,9",,"07,5,+01200,1,99,9",,,"07,99,1,99,9,99,9,99999,9,99,9,99,9","10169,1,99999,9",,,,,"MET055METAR ETNJ 120520Z 24005KT 9999 BKN040 15/14 Q1017 BLU;",
"10122099999","2010-09-12T06:20:00","4","53.5335","7.888667","7.31","JEVER, GM","FM-15","ETNJ ","V020","220,1,N,0021,1","03300,1,C,N","007000,1,N,1","+0160,1","+0140,1","99999,9",,"04,5,+01200,1,99,9","07,5,+03300,1,99,9",,"07,99,1,99,9,99,9,99999,9,99,9,99,9","10169,1,99999,9",,,,,"MET062METAR ETNJ 120620Z 22004KT 7000 SCT040 BKN110 16/14 Q1017 WHT;",
"10122099999","2010-09-12T07:20:00","4","53.5335","7.888667","7.31","JEVER, GM","FM-15","ETNJ ","V020","210,1,N,0021,1","03300,1,C,N","007000,1,N,1","+0160,1","+0150,1","99999,9",,"04,5,+01200,1,99,9","07,5,+03300,1,99,9",,"07,99,1,99,9,99,9,99999,9,99,9,99,9","10169,1,99999,9",,,,,"MET062METAR ETNJ 120720Z 21004KT 7000 SCT040 BKN110 16/15 Q1017 WHT;",
"10122099999","2010-09-12T08:20:00","4","53.5335","7.888667","7.31","JEVER, GM","FM-15","ETNJ ","V020","230,1,N,0021,1","03300,1,C,N","007000,1,N,1","+0160,1","+0150,1","99999,9",,"04,5,+01200,1,99,9","07,5,+03300,1,99,9",,"07,99,1,99,9,99,9,99999,9,99,9,99,9","10180,1,99999,9",,,,,"MET062METAR ETNJ 120820Z 23004KT 7000 SCT040 BKN110 16/15 Q1018 WHT;",
"10122099999","2010-09-12T08:24:00","4","53.5335","7.888667","7.31","JEVER, GM","FM-16","ETNJ ","V020","240,1,N,0021,1","03300,1,C,N","007000,1,N,1","+0160,1","+0150,1","99999,9",,"04,5,+01200,1,99,9","07,5,+03300,1,99,9",,"07,99,1,99,9,99,9,99999,9,99,9,99,9","10180,1,99999,9","61,1",,,,"MET066SPECI ETNJ 120824Z 24004KT 7000 -RA SCT040 BKN110 16/15 Q1018 WHT;",
"10122099999","2010-09-12T10:20:00","4","53.5335","7.888667","7.31","JEVER, GM","FM-15","ETNJ ","V020","250,1,N,0026,1","01200,1,C,N","007000,1,N,1","+0170,1","+0150,1","99999,9",,"02,5,+00240,1,99,9","04,5,+01200,1,99,9","07,5,+03300,1,99,9","07,99,1,99,9,99,9,99999,9,99,9,99,9","10180,1,99999,9","61,1",,,,"MET073METAR ETNJ 121020Z 25005KT 7000 -RA FEW008 SCT040 BKN110 17/15 Q1018 WHT;",
"10122099999","2010-09-12T11:20:00","4","53.5335","7.888667","7.31","JEVER, GM","FM-15","ETNJ ","V020","240,1,N,0026,1","01200,1,C,N","007000,1,N,1","+0170,1","+0160,1","99999,9",,"02,5,+00240,1,99,9","04,5,+01200,1,99,9","07,5,+03300,1,99,9","07,99,1,99,9,99,9,99999,9,99,9,99,9","10180,1,99999,9","61,1",,,,"MET073METAR ETNJ 121120Z 24005KT 7000 -RA FEW008 SCT040 BKN110 17/16 Q1018 WHT;",
"10122099999","2010-09-12T12:20:00","4","53.5335","7.888667","7.31","JEVER, GM","FM-15","ETNJ ","V020","240,1,N,0031,1","02700,1,C,N","005000,1,N,1","+0170,1","+0150,1","99999,9",,"04,5,+00210,1,99,9","07,5,+02700,1,99,9",,"07,99,1,99,9,99,9,99999,9,99,9,99,9","10180,1,99999,9","10,1","61,1",,,"MET069METAR ETNJ 121220Z 24006KT 5000 -RA BR SCT007 BKN090 17/15 Q1018 WHT;",
"10122099999","2010-09-12T13:20:00","4","53.5335","7.888667","7.31","JEVER, GM","FM-15","ETNJ ","V020","230,1,N,0026,1","02700,1,C,N","005000,1,N,1","+0160,1","+0150,1","99999,9",,"04,5,+00210,1,99,9","07,5,+02700,1,99,9",,"07,99,1,99,9,99,9,99999,9,99,9,99,9","10180,1,99999,9","10,1","61,1",,,"MET069METAR ETNJ 121320Z 23005KT 5000 -RA BR SCT007 BKN090 16/15 Q1018 WHT;",
"10122099999","2010-09-12T14:20:00","4","53.5335","7.888667","7.31","JEVER, GM","FM-15","ETNJ ","V020","240,1,N,0026,1","00180,1,C,N","003500,1,N,1","+0160,1","+0150,1","99999,9",,"07,5,+00180,1,99,9","07,5,+02700,1,99,9",,"07,99,1,99,9,99,9,99999,9,99,9,99,9","10180,1,99999,9","10,1","61,1",,,"MET069METAR ETNJ 121420Z 24005KT 3500 -RA BR BKN006 BKN090 16/15 Q1018 YLO;",
"10122099999","2010-09-12T15:20:00","4","53.5335","7.888667","7.31","JEVER, GM","FM-15","ETNJ ","V020","310,1,N,0031,1","00150,1,C,N","004000,1,N,1","+0160,1","+0140,1","99999,9",,"07,5,+00150,1,99,9","07,5,+02700,1,99,9",,"07,99,1,99,9,99,9,99999,9,99,9,99,9","10180,1,99999,9","10,1","61,1",,,"MET069METAR ETNJ 121520Z 31006KT 4000 -RA BR BKN005 BKN090 16/14 Q1018 YLO;",
"10122099999","2010-09-12T16:20:00","4","53.5335","7.888667","7.31","JEVER, GM","FM-15","ETNJ ","V020","290,1,N,0010,1","01500,1,C,N","004500,1,N,1","+0150,1","+0140,1","99999,9",,"04,5,+00150,1,99,9","07,5,+01500,1,99,9",,"07,99,1,99,9,99,9,99999,9,99,9,99,9","10190,1,99999,9","10,1","63,1",,,"MET068METAR ETNJ 121620Z 29002KT 4500 RA BR SCT005 BKN050 15/14 Q1019 GRN;",
"10122099999","2010-09-12T17:20:00","4","53.5335","7.888667","7.31","JEVER, GM","FM-15","ETNJ ","V020","260,1,N,0021,1","01500,1,C,N","006000,1,N,1","+0150,1","+0140,1","99999,9",,"04,5,+00450,1,99,9","07,5,+01500,1,99,9",,"07,99,1,99,9,99,9,99999,9,99,9,99,9","10190,1,99999,9",,,,,"MET067METAR ETNJ 121720Z 26004KT 6000 SCT015 BKN050 15/14 Q1019 RERA WHT;",
"10122099999","2010-09-12T18:20:00","4","53.5335","7.888667","7.31","JEVER, GM","FM-15","ETNJ ","V020","270,1,N,0015,1","04800,1,C,N","006000,1,N,1","+0150,1","+0140,1","99999,9",,"04,5,+00450,1,99,9","07,5,+04800,1,99,9",,"07,99,1,99,9,99,9,99999,9,99,9,99,9","10190,1,99999,9",,,,,"MET062METAR ETNJ 121820Z 27003KT 6000 SCT015 BKN160 15/14 Q1019 WHT;",
"10122099999","2010-09-12T19:20:00","4","53.5335","7.888667","7.31","JEVER, GM","FM-15","ETNJ ","V020","270,1,N,0021,1","99999,9,C,N","005000,1,N,1","+0140,1","+0130,1","99999,9",,"02,5,+00450,1,99,9","04,5,+04200,1,99,9",,"04,99,1,99,9,99,9,99999,9,99,9,99,9","10200,1,99999,9","10,1",,,,"MET065METAR ETNJ 121920Z 27004KT 5000 BR FEW015 SCT140 14/13 Q1020 WHT;","P01 042003SCOCIG"
"10122099999","2010-09-12T20:20:00","4","53.5335","7.888667","7.31","JEVER, GM","FM-15","ETNJ ","V020","300,1,N,0021,1","99999,9,C,N","005000,1,N,1","+0130,1","+0120,1","99999,9",,"02,5,+00450,1,99,9","04,5,+04500,1,99,9",,"04,99,1,99,9,99,9,99999,9,99,9,99,9","10200,1,99999,9","10,1","12,1",,,"MET070METAR ETNJ 122020Z 30004KT 5000 MIFG BR FEW015 SCT150 13/12 Q1020 WHT;","P01 045003SCOCIG"
"10122099999","2010-09-12T21:20:00","4","53.5335","7.888667","7.31","JEVER, GM","FM-15","ETNJ ","V020","280,1,N,0015,1","99999,9,C,N","005000,1,N,1","+0120,1","+0120,1","99999,9",,"02,5,+00450,1,99,9","04,5,+04500,1,99,9",,"04,99,1,99,9,99,9,99999,9,99,9,99,9","10200,1,99999,9","10,1","12,1",,,"MET080METAR ETNJ 122120Z 28003KT 5000 R28/1200D MIFG BR FEW015 SCT150 12/12 Q1020 WHT;","P01 045003SCOCIG"
"10122099999","2010-09-12T22:20:00","4","53.5335","7.888667","7.31","JEVER, GM","FM-15","ETNJ ","V020","280,1,N,0026,1","06600,1,C,N","007000,1,N,1","+0120,1","+0120,1","99999,9",,"04,5,+00540,1,99,9","07,5,+06600,1,99,9",,"07,99,1,99,9,99,9,99999,9,99,9,99,9","10210,1,99999,9","12,1",,,,"MET067METAR ETNJ 122220Z 28005KT 7000 MIFG SCT018 BKN220 12/12 Q1021 WHT;",
"10122099999","2010-09-12T23:20:00","4","53.5335","7.888667","7.31","JEVER, GM","FM-15","ETNJ ","V020","280,1,N,0015,1","22000,1,9,N","005000,1,N,1","+0120,1","+0110,1","99999,9",,"04,5,+06600,1,99,9",,,"04,99,1,99,9,99,9,99999,9,99,9,99,9","10210,1,99999,9","10,1","12,1",,,"MET063METAR ETNJ 122320Z 28003KT 5000 MIFG BR SCT220 12/11 Q1021 WHT;",
"10122099999","2010-09-13T00:20:00","4","53.5335","7.888667","7.31","JEVER, GM","FM-15","ETNJ ","V020","280,1,N,0021,1","22000,1,9,N","004000,1,N,1","+0120,1","+0110,1","99999,9",,"04,5,+06600,1,99,9",,,"04,99,1,99,9,99,9,99999,9,99,9,99,9","10210,1,99999,9","10,1","12,1",,,"MET063METAR ETNJ 130020Z 28004KT 4000 MIFG BR SCT220 12/11 Q1021 GRN;",
"10122099999","2010-09-13T01:20:00","4","53.5335","7.888667","7.31","JEVER, GM","FM-15","ETNJ ","V020","270,1,N,0015,1","22000,1,9,N","004000,1,N,1","+0110,1","+0110,1","99999,9",,"04,5,+06600,1,99,9",,,"04,99,1,99,9,99,9,99999,9,99,9,99,9","10210,1,99999,9","10,1","12,1",,,"MET073METAR ETNJ 130120Z 27003KT 4000 R28/0450N MIFG BR SCT220 11/11 Q1021 GRN;",
"10122099999","2010-09-13T02:20:00","4","53.5335","7.888667","7.31","JEVER, GM","FM-15","ETNJ ","V020","270,1,N,0015,1","00750,1,C,N","004000,1,N,1","+0110,1","+0110,1","99999,9",,"07,5,+00750,1,99,9",,,"07,99,1,99,9,99,9,99999,9,99,9,99,9","10210,1,99999,9","10,1","12,1",,,"MET063METAR ETNJ 130220Z 27003KT 4000 MIFG BR BKN025 11/11 Q1021 GRN;",
"10122099999","2010-09-13T03:20:00","4","53.5335","7.888667","7.31","JEVER, GM","FM-15","ETNJ ","V020","260,1,N,0015,1","22000,1,9,N","003000,1,N,1","+0110,1","+0100,1","99999,9",,"02,5,+00960,1,99,9",,,"02,99,1,99,9,99,9,99999,9,99,9,99,9","10210,1,99999,9","10,1","12,1",,,"MET063METAR ETNJ 130320Z 26003KT 3000 MIFG BR FEW032 11/10 Q1021 YLO;",
"10122099999","2010-09-13T04:20:00","4","53.5335","7.888667","7.31","JEVER, GM","FM-15","ETNJ ","V020","270,1,N,0021,1","22000,1,9,N","004500,1,N,1","+0110,1","+0100,1","99999,9",,"02,5,+00510,1,99,9",,,"02,99,1,99,9,99,9,99999,9,99,9,99,9","10220,1,99999,9","10,1","12,1",,,"MET063METAR ETNJ 130420Z 27004KT 4500 MIFG BR FEW017 11/10 Q1022 GRN;",
"10122099999","2010-09-13T05:20:00","4","53.5335","7.888667","7.31","JEVER, GM","FM-15","ETNJ ","V020","270,1,N,0021,1","22000,1,9,N","005000,1,N,1","+0100,1","+0100,1","99999,9",,"02,5,+00510,1,99,9",,,"02,99,1,99,9,99,9,99999,9,99,9,99,9","10220,1,99999,9","10,1","12,1",,,"MET063METAR ETNJ 130520Z 27004KT 5000 MIFG BR FEW017 10/10 Q1022 WHT;",
"10122099999","2010-09-13T06:20:00","4","53.5335","7.888667","7.31","JEVER, GM","FM-15","ETNJ ","V020","270,1,N,0026,1","22000,1,9,N","008000,1,N,1","+0120,1","+0110,1","99999,9",,"02,5,+00600,1,99,9",,,"02,99,1,99,9,99,9,99999,9,99,9,99,9","10220,1,99999,9",,,,,"MET060METAR ETNJ 130620Z 27005KT 8000 FEW020 12/11 Q1022 BLU/BLU/;",
"10122099999","2010-09-13T07:20:00","4","53.5335","7.888667","7.31","JEVER, GM","FM-15","ETNJ ","V020","290,1,N,0026,1","22000,1,9,N","011265,1,N,1","+0140,1","+0140,1","99999,9",,"02,5,+00600,1,99,9",,,"02,99,1,99,9,99,9,99999,9,99,9,99,9","10220,1,99999,9",,,,,"MET060METAR ETNJ 130720Z 29005KT 9999 FEW020 14/14 Q1022 BLU/BLU/;",
"10122099999","2010-09-13T08:20:00","4","53.5335","7.888667","7.31","JEVER, GM","FM-15","ETNJ ","V020","300,1,N,0046,1","22000,1,9,N","011265,1,N,1","+0170,1","+0140,1","99999,9",,"02,5,+00450,1,99,9",,,"02,99,1,99,9,99,9,99999,9,99,9,99,9","10230,1,99999,9",,,,,"MET060METAR ETNJ 130820Z 30009KT 9999 FEW015 17/14 Q1023 BLU/BLU/;",
"10122099999","2010-09-13T09:20:00","4","53.5335","7.888667","7.31","JEVER, GM","FM-15","ETNJ ","V020","290,1,N,0041,1","22000,1,9,N","011265,1,N,1","+0180,1","+0130,1","99999,9",,"04,5,+00540,1,99,9",,,"04,99,1,99,9,99,9,99999,9,99,9,99,9","10230,1,99999,9",,,,,"MET060METAR ETNJ 130920Z 29008KT 9999 SCT018 18/13 Q1023 BLU/BLU/;",
"10122099999","2010-09-13T10:20:00","4","53.5335","7.888667","7.31","JEVER, GM","FM-15","ETNJ ","V020","300,1,N,0041,1","22000,1,9,N","011265,1,N,1","+0160,1","+0110,1","99999,9",,"02,5,+00660,1,99,9",,,"02,99,1,99,9,99,9,99999,9,99,9,99,9","10230,1,99999,9",,,,,"MET060METAR ETNJ 131020Z 30008KT 9999 FEW022 16/11 Q1023 BLU/BLU/;",
"10122099999","2010-09-13T11:20:00","4","53.5335","7.888667","7.31","JEVER, GM","FM-15","ETNJ ","V020","270,1,N,0046,1","01800,1,C,N","011265,1,N,1","+0160,1","+0100,1","99999,9",,"04,5,+00840,1,99,9","07,5,+01800,1,99,9",,"07,99,1,99,9,99,9,99999,9,99,9,99,9","10230,1,99999,9",,,,,"MET077METAR ETNJ 131120Z 27009KT 9999 SCT028 BKN060 16/10 Q1023 BLU BLU/ TEMPO WHT;",
"10122099999","2010-09-13T12:20:00","4","53.5335","7.888667","7.31","JEVER, GM","FM-15","ETNJ ","V020","270,1,N,0046,1","06000,1,C,N","011265,1,N,1","+0170,1","+0100,1","99999,9",,"02,5,+00900,1,99,9","07,5,+06000,1,99,9",,"07,99,1,99,9,99,9,99999,9,99,9,99,9","10230,1,99999,9",,,,,"MET077METAR ETNJ 131220Z 27009KT 9999 FEW030 BKN200 17/10 Q1023 BLU/BLU/ TEMPO WHT;",
"10122099999","2010-09-13T13:20:00","4","53.5335","7.888667","7.31","JEVER, GM","FM-15","ETNJ ","V020","270,1,N,0046,1","03000,1,C,N","011265,1,N,1","+0180,1","+0100,1","99999,9",,"02,5,+00900,1,99,9","04,5,+03000,1,99,9","07,5,+06000,1,99,9","07,99,1,99,9,99,9,99999,9,99,9,99,9","10230,1,99999,9",,,,,"MET084METAR ETNJ 131320Z 27009KT 9999 FEW030 SCT100 BKN200 18/10 Q1023 BLU/BLU/ TEMPO WHT;",
"10122099999","2010-09-13T14:20:00","4","53.5335","7.888667","7.31","JEVER, GM","FM-15","ETNJ ","V020","250,1,N,0036,1","03000,1,C,N","011265,1,N,1","+0170,1","+0100,1","99999,9",,"02,5,+00900,1,99,9","07,5,+03000,1,99,9",,"07,99,1,99,9,99,9,99999,9,99,9,99,9","10220,1,99999,9",,,,,"MET074METAR ETNJ 131420Z 25007KT 9999 FEW030 BKN100 17/10 Q1022 BLU FCST CANCEL;",
"10122099999","2010-09-13T15:20:00","4","53.5335","7.888667","7.31","JEVER, GM","FM-15","ETNJ ","V020","240,1,N,0031,1","03000,1,C,N","011265,1,N,1","+0170,1","+0100,1","99999,9",,"02,5,+00900,1,99,9","07,5,+03000,1,99,9",,"07,99,1,99,9,99,9,99999,9,99,9,99,9","10220,1,99999,9",,,,,"MET062METAR ETNJ 131520Z 24006KT 9999 FEW030 BKN100 17/10 Q1022 BLU;",
"10122099999","2010-09-13T16:20:00","4","53.5335","7.888667","7.31","JEVER, GM","FM-15","ETNJ ","V020","240,1,N,0036,1","02400,1,C,N","011265,1,N,1","+0170,1","+0100,1","99999,9",,"02,5,+00900,1,99,9","07,5,+02400,1,99,9",,"07,99,1,99,9,99,9,99999,9,99,9,99,9","10220,1,99999,9",,,,,"MET062METAR ETNJ 131620Z 24007KT 9999 FEW030 BKN080 17/10 Q1022 BLU;",
"10122099999","2010-09-13T17:20:00","4","53.5335","7.888667","7.31","JEVER, GM","FM-15","ETNJ ","V020","200,1,N,0021,1","02400,1,C,N","011265,1,N,1","+0150,1","+0110,1","99999,9",,"02,5,+00900,1,99,9","07,5,+02400,1,99,9",,"07,99,1,99,9,99,9,99999,9,99,9,99,9","10210,1,99999,9",,,,,"MET062METAR ETNJ 131720Z 20004KT 9999 FEW030 BKN080 15/11 Q1021 BLU;",
"10122099999","2010-09-13T18:20:00","4","53.5335","7.888667","7.31","JEVER, GM","FM-15","ETNJ ","V020","230,1,N,0031,1","02400,1,C,N","011265,1,N,1","+0140,1","+0100,1","99999,9",,"02,5,+00900,1,99,9","07,5,+02400,1,99,9",,"07,99,1,99,9,99,9,99999,9,99,9,99,9","10210,1,99999,9",,,,,"MET062METAR ETNJ 131820Z 23006KT 9999 FEW030 BKN080 14/10 Q1021 BLU;",
"10122099999","2010-09-13T19:20:00","4","53.5335","7.888667","7.31","JEVER, GM","FM-15","ETNJ ","V020","200,1,N,0026,1","02100,1,C,N","011265,1,N,1","+0140,1","+0100,1","99999,9",,"07,5,+02100,1,99,9",,,"07,99,1,99,9,99,9,99999,9,99,9,99,9","10200,1,99999,9",,,,,"MET055METAR ETNJ 131920Z 20005KT 9999 BKN070 14/10 Q1020 BLU;",
"10122099999","2010-09-13T20:20:00","4","53.5335","7.888667","7.31","JEVER, GM","FM-15","ETNJ ","V020","190,1,N,0031,1","02100,1,C,N","011265,1,N,1","+0140,1","+0100,1","99999,9",,"07,5,+02100,1,99,9",,,"07,99,1,99,9,99,9,99999,9,99,9,99,9","10200,1,99999,9",,,,,"MET055METAR ETNJ 132020Z 19006KT 9999 BKN070 14/10 Q1020 BLU;",
"10122099999","2010-09-13T21:20:00","4","53.5335","7.888667","7.31","JEVER, GM","FM-15","ETNJ ","V020","210,1,N,0036,1","02100,1,C,N","011265,1,N,1","+0140,1","+0100,1","99999,9",,"07,5,+02100,1,99,9",,,"07,99,1,99,9,99,9,99999,9,99,9,99,9","10190,1,99999,9",,,,,"MET055METAR ETNJ 132120Z 21007KT 9999 BKN070 14/10 Q1019 BLU;",
"10122099999","2010-09-13T22:20:00","4","53.5335","7.888667","7.31","JEVER, GM","FM-15","ETNJ ","V020","210,1,N,0041,1","02100,1,C,N","008000,1,N,1","+0140,1","+0100,1","99999,9",,"07,5,+02100,1,99,9",,,"07,99,1,99,9,99,9,99999,9,99,9,99,9","10180,1,99999,9","61,1",,,,"MET059METAR ETNJ 132220Z 21008KT 8000 -RA BKN070 14/10 Q1018 BLU;",
"10122099999","2010-09-13T23:20:00","4","53.5335","7.888667","7.31","JEVER, GM","FM-15","ETNJ ","V020","210,1,N,0041,1","02100,1,C,N","005000,1,N,1","+0130,1","+0110,1","99999,9",,"04,5,+00750,1,99,9","07,5,+02100,1,99,9",,"07,99,1,99,9,99,9,99999,9,99,9,99,9","10169,1,99999,9","10,1","61,1",,,"MET069METAR ETNJ 132320Z 21008KT 5000 -RA BR SCT025 BKN070 13/11 Q1017 WHT;",
"10122099999","2010-09-14T00:20:00","4","53.5335","7.888667","7.31","JEVER, GM","FM-15","ETNJ ","V020","190,1,N,0057,1","02100,1,C,N","005000,1,N,1","+0130,1","+0110,1","99999,9",,"04,5,+00750,1,99,9","07,5,+02100,1,99,9",,"07,99,1,99,9,99,9,99999,9,99,9,99,9","10159,1,99999,9","10,1","61,1",,,"MET069METAR ETNJ 140020Z 19011KT 5000 -RA BR SCT025 BKN070 13/11 Q1016 WHT;",
"10122099999","2010-09-14T01:20:00","4","53.5335","7.888667","7.31","JEVER, GM","FM-15","ETNJ ","V020","200,1,N,0057,1","00660,1,C,N","005000,1,N,1","+0130,1","+0110,1","99999,9",,"04,5,+00300,1,99,9","07,5,+00660,1,99,9",,"07,99,1,99,9,99,9,99999,9,99,9,99,9","10139,1,99999,9","10,1","61,1",,,"MET069METAR ETNJ 140120Z 20011KT 5000 -RA BR SCT010 BKN022 13/11 Q1014 WHT;",
"10122099999","2010-09-14T02:20:00","4","53.5335","7.888667","7.31","JEVER, GM","FM-15","ETNJ ","V020","220,1,N,0051,1","00300,1,C,N","005000,1,N,1","+0130,1","+0120,1","99999,9",,"07,5,+00300,1,99,9","07,5,+00660,1,99,9",,"07,99,1,99,9,99,9,99999,9,99,9,99,9","10129,1,99999,9","10,1","61,1",,,"MET069METAR ETNJ 140220Z 22010KT 5000 -RA BR BKN010 BKN022 13/12 Q1013 GRN;",
"10122099999","2010-09-14T03:20:00","4","53.5335","7.888667","7.31","JEVER, GM","FM-15","ETNJ ","V020","240,1,N,0067,1","00120,1,C,N","004000,1,N,1","+0140,1","+0130,1","99999,9",,"07,5,+00120,1,99,9",,,"07,99,1,99,9,99,9,99999,9,99,9,99,9","10119,1,99999,9","10,1","51,1","61,1",,"MET064METAR ETNJ 140320Z 24013KT 4000 -RADZ BR BKN004 14/13 Q1012 YLO;",
"10122099999","2010-09-14T04:20:00","4","53.5335","7.888667","7.31","JEVER, GM","FM-15","ETNJ ","V020","240,1,N,0062,1","00150,1,C,N","004000,1,N,1","+0140,1","+0130,1","99999,9",,"07,5,+00150,1,99,9",,,"07,99,1,99,9,99,9,99999,9,99,9,99,9","10119,1,99999,9","10,1","61,1",,,"MET066METAR ETNJ 140420Z 24012KT 4000 -RA BR BKN005 14/13 Q1012 YLO YLO;",
"10122099999","2010-09-14T05:20:00","4","53.5335","7.888667","7.31","JEVER, GM","FM-15","ETNJ ","V020","240,1,N,0057,1","00150,1,C,N","004500,1,N,1","+0150,1","+0140,1","99999,9",,"07,5,+00150,1,99,9",,,"07,99,1,99,9,99,9,99999,9,99,9,99,9","10119,1,99999,9","10,1","51,1","61,1",,"MET068METAR ETNJ 140520Z 24011KT 4500 -RADZ BR BKN005 15/14 Q1012 YLO YLO;",
"10122099999","2010-09-14T05:46:00","4","53.5335","7.888667","7.31","JEVER, GM","FM-16","ETNJ ","V020","240,1,N,0051,1","00120,1,C,N","002700,1,N,1","+0150,1","+0140,1","99999,9",,"07,5,+00120,1,99,9",,,"07,99,1,99,9,99,9,99999,9,99,9,99,9","10119,1,99999,9","10,1","63,1",,,"MET065SPECI ETNJ 140546Z 24010KT 2700 RA BR BKN004 15/14 Q1012 YLO YLO;",
"10122099999","2010-09-14T06:20:00","4","53.5335","7.888667","7.31","JEVER, GM","FM-15","ETNJ ","V020","240,1,N,0051,1","00150,1,C,N","002700,1,N,1","+0160,1","+0150,1","99999,9",,"04,5,+00090,1,99,9","07,5,+00150,1,99,9",,"07,99,1,99,9,99,9,99999,9,99,9,99,9","10119,1,99999,9","10,1","63,1",,,"MET072METAR ETNJ 140620Z 24010KT 2700 RA BR SCT003 BKN005 16/15 Q1012 YLO YLO;",
"10122099999","2010-09-14T06:33:00","4","53.5335","7.888667","7.31","JEVER, GM","FM-16","ETNJ ","V020","240,1,N,0046,1","00180,1,C,N","005000,1,N,1","+0160,1","+0150,1","99999,9",,"04,5,+00090,1,99,9","07,5,+00180,1,99,9",,"07,99,1,99,9,99,9,99999,9,99,9,99,9","10119,1,99999,9","10,1","61,1",,,"MET078SPECI ETNJ 140633Z 24009KT 5000 -RA BR SCT003 BKN006 16/15 Q1012 RERA YLO YLO;",
"10122099999","2010-09-14T07:20:00","4","53.5335","7.888667","7.31","JEVER, GM","FM-15","ETNJ ","V020","260,1,N,0046,1","00180,1,C,N","004000,1,N,1","+0160,1","+0150,1","99999,9",,"04,5,+00120,1,99,9","07,5,+00180,1,99,9",,"07,99,1,99,9,99,9,99999,9,99,9,99,9","10119,1,99999,9","10,1","53,1","63,1",,"MET074METAR ETNJ 140720Z 26009KT 4000 RADZ BR SCT004 BKN006 16/15 Q1012 YLO YLO;",
"10122099999","2010-09-14T07:38:00","4","53.5335","7.888667","7.31","JEVER, GM","FM-16","ETNJ ","V020","270,1,N,0041,1","00180,1,C,N","006000,1,N,1","+0160,1","+0150,1","99999,9",,"02,5,+00090,1,99,9","07,5,+00180,1,99,9","07,5,+00390,1,99,9","07,99,1,99,9,99,9,99999,9,99,9,99,9","10119,1,99999,9","61,1",,,,"MET087SPECI ETNJ 140738Z 27008KT 6000 -RA FEW003 BKN006 BKN013 16/15 Q1012 YLO GRN TEMPO YLO;",
"10122099999","2010-09-14T07:41:00","4","53.5335","7.888667","7.31","JEVER, GM","FM-16","ETNJ ","V020","270,1,N,0041,1","00180,1,C,N","006000,1,N,1","+0160,1","+0150,1","99999,9",,"02,5,+00090,1,99,9","07,5,+00180,1,99,9","07,5,+00390,1,99,9","07,99,1,99,9,99,9,99999,9,99,9,99,9","10119,1,99999,9","61,1",,,,"MET092SPECI ETNJ 140741Z 27008KT 6000 -RA FEW003 BKN006 BKN013 16/15 Q1012 RERA YLO GRN TEMPO YLO;",
"10122099999","2010-09-14T08:00:00","4","53.5335","7.888667","7.31","JEVER, GM","FM-15","ETNJ ","V020","260,1,N,0046,1","00150,1,C,N","004000,1,N,1","+0160,1","+0150,1","99999,9",,"07,5,+00150,1,99,9",,,"07,99,1,99,9,99,9,99999,9,99,9,99,9","10119,1,99999,9","10,1","53,1","63,1",,"MET077SPECI ETNJ 140756Z 26009KT 4000 RADZ BR BKN005 16/15 Q1012 YLO GRN TEMPO YLO;",
"10122099999","2010-09-14T08:20:00","4","53.5335","7.888667","7.31","JEVER, GM","FM-15","ETNJ ","V020","260,1,N,0046,1","00150,1,C,N","004000,1,N,1","+0160,1","+0150,1","99999,9",,"07,5,+00150,1,99,9",,,"07,99,1,99,9,99,9,99999,9,99,9,99,9","10119,1,99999,9","10,1","51,1","61,1",,"MET083METAR ETNJ 140820Z 26009KT 4000 -RADZ BR BKN005 16/15 Q1012 RERA YLO GRN TEMPO YLO;",
"10122099999","2010-09-14T08:37:00","4","53.5335","7.888667","7.31","JEVER, GM","FM-16","ETNJ ","V020","260,1,N,0051,1","00210,1,C,N","011265,1,N,1","+0160,1","+0150,1","99999,9",,"02,5,+00150,1,99,9","07,5,+00210,1,99,9",,"07,99,1,99,9,99,9,99999,9,99,9,99,9","10119,1,99999,9","51,1",,,,"MET085SPECI ETNJ 140837Z 26010KT 9999 -DZ FEW005 BKN007 16/15 Q1012 RERA GRN GRN TEMPO YLO;",
"10122099999","2010-09-14T09:20:00","4","53.5335","7.888667","7.31","JEVER, GM","FM-15","ETNJ ","V020","260,1,N,0051,1","00180,1,C,N","002500,1,N,1","+0160,1","+0160,1","99999,9",,"07,5,+00180,1,99,9",,,"07,99,1,99,9,99,9,99999,9,99,9,99,9","10119,1,99999,9","10,1","53,1","63,1",,"MET092METAR ETNJ 140920Z 26010KT 2500 R28/1000N RADZ BR BKN006 16/16 Q1012 RERA YLO GRN TEMPO YLO;",
"10122099999","2010-09-14T09:43:00","4","53.5335","7.888667","7.31","JEVER, GM","FM-16","ETNJ ","V020","260,1,N,0041,1","00150,1,C,N","003500,1,N,1","+0160,1","+0150,1","99999,9",,"07,5,+00150,1,99,9","07,5,+00240,1,99,9",,"07,99,1,99,9,99,9,99999,9,99,9,99,9","10108,1,99999,9","10,1","51,1","61,1",,"MET090SPECI ETNJ 140943Z 26008KT 3500 -RADZ BR BKN005 BKN008 16/15 Q1011 RERA YLO GRN TEMPO YLO;",
"10122099999","2010-09-14T09:48:00","4","53.5335","7.888667","7.31","JEVER, GM","FM-16","ETNJ ","V020","260,1,N,0041,1","00150,1,C,N","005000,1,N,1","+0160,1","+0150,1","99999,9",,"07,5,+00150,1,99,9","07,5,+00240,1,99,9",,"07,99,1,99,9,99,9,99999,9,99,9,99,9","10119,1,99999,9","10,1","51,1","61,1",,"MET090SPECI ETNJ 140948Z 26008KT 5000 -RADZ BR BKN005 BKN008 16/15 Q1012 RERA YLO GRN TEMPO YLO;",
"10122099999","2010-09-14T10:20:00","4","53.5335","7.888667","7.31","JEVER, GM","FM-15","ETNJ ","V020","260,1,N,0046,1","00150,1,C,N","003500,1,N,1","+0170,1","+0160,1","99999,9",,"07,5,+00150,1,99,9","07,5,+00300,1,99,9",,"07,99,1,99,9,99,9,99999,9,99,9,99,9","10108,1,99999,9","10,1","51,1","61,1",,"MET090METAR ETNJ 141020Z 26009KT 3500 -DZRA BR BKN005 BKN010 17/16 Q1011 RERA YLO GRN TEMPO YLO;",
"10122099999","2010-09-14T11:06:00","4","53.5335","7.888667","7.31","JEVER, GM","FM-16","ETNJ ","V020","250,1,N,0036,1","00150,1,C,N","005000,1,N,1","+0170,1","+0160,1","99999,9",,"07,5,+00150,1,99,9","07,5,+00300,1,99,9",,"07,99,1,99,9,99,9,99999,9,99,9,99,9","10108,1,99999,9","10,1","51,1","61,1",,"MET085SPECI ETNJ 141106Z 25007KT 5000 -RADZ BR BKN005 BKN010 17/16 Q1011 YLO GRN TEMPO YLO;",
"10122099999","2010-09-14T11:20:00","4","53.5335","7.888667","7.31","JEVER, GM","FM-15","ETNJ ","V020","250,1,N,0057,1","00150,1,C,N","003500,1,N,1","+0170,1","+0160,1","99999,9",,"07,5,+00150,1,99,9","07,5,+00300,1,99,9",,"07,99,1,99,9,99,9,99999,9,99,9,99,9","10108,1,99999,9","10,1","51,1","61,1",,"MET085METAR ETNJ 141120Z 25011KT 3500 -DZRA BR BKN005 BKN010 17/16 Q1011 YLO GRN TEMPO YLO;",
"10122099999","2010-09-14T12:20:00","4","53.5335","7.888667","7.31","JEVER, GM","FM-15","ETNJ ","V020","250,1,N,0051,1","00150,1,C,N","003500,1,N,1","+0170,1","+0160,1","99999,9",,"02,5,+00090,1,99,9","07,5,+00150,1,99,9",,"07,99,1,99,9,99,9,99999,9,99,9,99,9","10102,1,99999,9","10,1","51,1","61,1",,"MET085METAR ETNJ 141220Z 25010KT 3500 -RADZ BR FEW003 BKN005 17/16 Q1010 YLO GRN TEMPO YLO;",
"10122099999","2010-09-14T13:20:00","4","53.5335","7.888667","7.31","JEVER, GM","FM-15","ETNJ ","V020","240,1,N,0057,1","00150,1,C,N","006000,1,N,1","+0170,1","+0160,1","99999,9",,"07,5,+00150,1,99,9","07,5,+00330,1,99,9",,"07,99,1,99,9,99,9,99999,9,99,9,99,9","10102,1,99999,9","51,1","61,1",,,"MET082METAR ETNJ 141320Z 24011KT 6000 -RADZ BKN005 BKN011 17/16 Q1010 YLO GRN TEMPO YLO;",
"10122099999","2010-09-14T13:38:00","4","53.5335","7.888667","7.31","JEVER, GM","FM-16","ETNJ ","V020","250,1,N,0062,1","00150,1,C,N","004000,1,N,1","+0170,1","+0160,1","99999,9",,"07,5,+00150,1,99,9","07,5,+00330,1,99,9",,"07,99,1,99,9,99,9,99999,9,99,9,99,9","10102,1,99999,9","10,1","51,1","61,1",,"MET085SPECI ETNJ 141338Z 25012KT 4000 -DZRA BR BKN005 BKN011 17/16 Q1010 YLO GRN TEMPO YLO;",
"10122099999","2010-09-14T14:20:00","4","53.5335","7.888667","7.31","JEVER, GM","FM-15","ETNJ ","V020","240,1,N,0057,1","00150,1,C,N","003200,1,N,1","+0170,1","+0160,1","99999,9",,"07,5,+00150,1,99,9","07,5,+00300,1,99,9",,"07,99,1,99,9,99,9,99999,9,99,9,99,9","10091,1,99999,9","10,1","53,1","63,1",,"MET084METAR ETNJ 141420Z 24011KT 3200 DZRA BR BKN005 BKN010 17/16 Q1009 YLO GRN TEMPO YLO;",
"10122099999","2010-09-14T14:43:00","4","53.5335","7.888667","7.31","JEVER, GM","FM-16","ETNJ ","V020","240,1,N,0057,1","00150,1,C,N","002300,1,N,1","+0170,1","+0160,1","99999,9",,"07,5,+00150,1,99,9","07,5,+00300,1,99,9",,"07,99,1,99,9,99,9,99999,9,99,9,99,9","10091,1,99999,9","10,1","53,1","63,1",,"MET084SPECI ETNJ 141443Z 24011KT 2300 DZRA BR BKN005 BKN010 17/16 Q1009 YLO GRN TEMPO YLO;",
"10122099999","2010-09-14T15:14:00","4","53.5335","7.888667","7.31","JEVER, GM","FM-16","ETNJ ","V020","240,1,N,0046,1","00150,1,C,N","003000,1,N,1","+0170,1","+0160,1","99999,9",,"02,5,+00090,1,99,9","07,5,+00150,1,99,9",,"07,99,1,99,9,99,9,99999,9,99,9,99,9","10091,1,99999,9","10,1","53,1","63,1",,"MET084SPECI ETNJ 141514Z 24009KT 3000 DZRA BR FEW003 BKN005 17/16 Q1009 YLO GRN TEMPO YLO;",
"10122099999","2010-09-14T15:20:00","4","53.5335","7.888667","7.31","JEVER, GM","FM-15","ETNJ ","V020","240,1,N,0046,1","00150,1,C,N","003000,1,N,1","+0170,1","+0160,1","99999,9",,"02,5,+00090,1,99,9","07,5,+00150,1,99,9",,"07,99,1,99,9,99,9,99999,9,99,9,99,9","10091,1,99999,9","10,1","53,1","63,1",,"MET094METAR ETNJ 141520Z 24009KT 3000 R28/1900N DZRA BR FEW003 BKN005 17/16 Q1009 YLO GRN TEMPO YLO;",
"10122099999","2010-09-14T15:34:00","4","53.5335","7.888667","7.31","JEVER, GM","FM-16","ETNJ ","V020","240,1,N,0051,1","00150,1,C,N","003000,1,N,1","+0170,1","+0160,1","99999,9",,"02,5,+00090,1,99,9","07,5,+00150,1,99,9",,"07,99,1,99,9,99,9,99999,9,99,9,99,9","10091,1,99999,9","10,1","53,1","63,1",,"MET082SPECI ETNJ 141534Z 24010KT 3000 DZRA BR FEW003 BKN005 17/16 Q1009 YLO FCST CANCEL;",
"10122099999","2010-09-14T16:20:00","4","53.5335","7.888667","7.31","JEVER, GM","FM-15","ETNJ ","V020","240,1,N,0046,1","00150,1,C,N","002000,1,N,1","+0160,1","+0160,1","99999,9",,"02,5,+00090,1,99,9","07,5,+00150,1,99,9",,"07,99,1,99,9,99,9,99999,9,99,9,99,9","10081,1,99999,9","10,1","53,1","63,1",,"MET080METAR ETNJ 141620Z 24009KT 2000 R28/1900N RADZ BR FEW003 BKN005 16/16 Q1008 YLO;",
"10122099999","2010-09-14T17:20:00","4","53.5335","7.888667","7.31","JEVER, GM","FM-15","ETNJ ","V020","230,1,N,0046,1","00180,1,C,N","003000,1,N,1","+0160,1","+0160,1","99999,9",,"02,5,+00150,1,99,9","07,5,+00180,1,99,9",,"07,99,1,99,9,99,9,99999,9,99,9,99,9","10071,1,99999,9","10,1","51,1","61,1",,"MET076METAR ETNJ 141720Z 23009KT 3000 -DZRA BR FEW005 BKN006 16/16 Q1007 RERA YLO;",
"10122099999","2010-09-14T18:20:00","4","53.5335","7.888667","7.31","JEVER, GM","FM-15","ETNJ ","V020","230,1,N,0046,1","00210,1,C,N","003500,1,N,1","+0160,1","+0160,1","99999,9",,"04,5,+00150,1,99,9","07,5,+00210,1,99,9",,"07,99,1,99,9,99,9,99999,9,99,9,99,9","10061,1,99999,9","10,1","51,1","61,1",,"MET071METAR ETNJ 141820Z 23009KT 3500 -DZRA BR SCT005 BKN007 16/16 Q1006 YLO;",
"10122099999","2010-09-14T19:20:00","4","53.5335","7.888667","7.31","JEVER, GM","FM-15","ETNJ ","V020","230,1,N,0051,1","00270,1,C,N","005000,1,N,1","+0170,1","+0160,1","99999,9",,"02,5,+00150,1,99,9","07,5,+00270,1,99,9",,"07,99,1,99,9,99,9,99999,9,99,9,99,9","10061,1,99999,9","10,1",,,,"MET065METAR ETNJ 141920Z 23010KT 5000 BR FEW005 BKN009 17/16 Q1006 GRN;",
"10122099999","2010-09-14T20:20:00","4","53.5335","7.888667","7.31","JEVER, GM","FM-15","ETNJ ","V020","220,1,N,0057,1","00180,1,C,N","005000,1,N,1","+0160,1","+0160,1","99999,9",,"02,5,+00120,1,99,9","04,5,+00180,1,99,9","07,5,+00300,1,99,9","07,99,1,99,9,99,9,99999,9,99,9,99,9","10041,1,99999,9","10,1","63,1",,,"MET075METAR ETNJ 142020Z 22011KT 5000 RA BR FEW004 SCT006 BKN010 16/16 Q1004 GRN;",
"10122099999","2010-09-14T21:20:00","4","53.5335","7.888667","7.31","JEVER, GM","FM-15","ETNJ ","V020","250,1,N,0041,1","01500,1,C,N","007000,1,N,1","+0140,1","+0120,1","99999,9",,"04,5,+00300,1,99,9","07,5,+01500,1,99,9",,"07,99,1,99,9,99,9,99999,9,99,9,99,9","10051,1,99999,9","63,1",,,,"MET065METAR ETNJ 142120Z 25008KT 7000 RA SCT010 BKN050 14/12 Q1005 WHT;",
"10122099999","2010-09-14T22:20:00","4","53.5335","7.888667","7.31","JEVER, GM","FM-15","ETNJ ","V020","240,1,N,0041,1","00360,1,C,N","009000,1,N,1","+0130,1","+0120,1","99999,9",,"02,5,+00150,1,99,9","04,5,+00360,1,99,9","07,5,+01500,1,99,9","07,99,1,99,9,99,9,99999,9,99,9,99,9","10051,1,99999,9","61,1",,,,"MET078METAR ETNJ 142220Z 24008KT 9000 -RA FEW005 SCT012 BKN050 13/12 Q1005 RERA BLU;",
"10122099999","2010-09-14T23:20:00","4","53.5335","7.888667","7.31","JEVER, GM","FM-15","ETNJ ","V020","250,1,N,0046,1","99999,9,C,N","011265,1,N,1","+0130,1","+0120,1","99999,9",,"02,5,+00360,1,99,9","04,5,+01500,1,99,9",,"04,99,1,99,9,99,9,99999,9,99,9,99,9","10051,1,99999,9",,,,,"MET063METAR ETNJ 142320Z 25009KT 9999 FEW012 SCT050 13/12 Q1005 BLU/;","P01 015003SCOCIG"
"10122099999","2010-09-15T00:08:00","4","53.5335","7.888667","7.31","JEVER, GM","FM-16","ETNJ ","V020","240,1,N,0051,1","00240,1,C,N","011265,1,N,1","+0130,1","+0120,1","99999,9",,"02,5,+00150,1,99,9","07,5,+00240,1,99,9",,"07,99,1,99,9,99,9,99999,9,99,9,99,9","10041,1,99999,9",,,,,"MET067SPECI ETNJ 150008Z 24010KT 9999 FEW005 BKN008 13/12 Q1004 RERA GRN;",
"10122099999","2010-09-15T00:20:00","4","53.5335","7.888667","7.31","JEVER, GM","FM-15","ETNJ ","V020","240,1,N,0051,1","00210,1,C,N","011265,1,N,1","+0130,1","+0120,1","99999,9",,"07,5,+00210,1,99,9",,,"07,99,1,99,9,99,9,99999,9,99,9,99,9","10041,1,99999,9",,,,,"MET055METAR ETNJ 150020Z 24010KT 9999 BKN007 13/12 Q1004 GRN;",
"10122099999","2010-09-15T01:20:00","4","53.5335","7.888667","7.31","JEVER, GM","FM-15","ETNJ ","V020","240,1,N,0051,1","01200,1,C,N","011265,1,N,1","+0130,1","+0120,1","99999,9",,"04,5,+00210,1,99,9","04,5,+01200,1,99,9","07,5,+02400,1,99,9","07,99,1,99,9,99,9,99999,9,99,9,99,9","10031,1,99999,9",,,,,"MET069METAR ETNJ 150120Z 24010KT 9999 SCT007 SCT040 BKN080 13/12 Q1003 BLU;",
"10122099999","2010-09-15T02:20:00","4","53.5335","7.888667","7.31","JEVER, GM","FM-15","ETNJ ","V020","270,1,N,0057,1","00900,1,C,N","011265,1,N,1","+0130,1","+0120,1","99999,9",,"02,5,+00300,1,99,9","04,5,+00900,1,99,9","07,5,+02400,1,99,9","07,99,1,99,9,99,9,99999,9,99,9,99,9","10031,1,99999,9",,,,,"MET069METAR ETNJ 150220Z 27011KT 9999 FEW010 SCT030 BKN080 13/12 Q1003 BLU;",
"10122099999","2010-09-15T03:20:00","4","53.5335","7.888667","7.31","JEVER, GM","FM-15","ETNJ ","V020","250,1,N,0041,1","22000,1,9,N","011265,1,N,1","+0120,1","+0100,1","99999,9",,"02,5,+00900,1,99,9",,,"02,99,1,99,9,99,9,99999,9,99,9,99,9","10031,1,99999,9",,,,,"MET056METAR ETNJ 150320Z 25008KT 9999 FEW030 12/10 Q1003 BLU/;",
"10122099999","2010-09-15T04:20:00","4","53.5335","7.888667","7.31","JEVER, GM","FM-15","ETNJ ","V020","250,1,N,0057,1","22000,1,9,N","011265,1,N,1","+0110,1","+0090,1","99999,9",,"02,5,+00900,1,02,1",,,"02,99,1,99,9,99,9,99999,9,99,9,99,9","10041,1,99999,9",,,,,"MET059METAR ETNJ 150420Z 25011KT 9999 FEW030TCU 11/09 Q1004 BLU/;",
"10122099999","2010-09-15T05:20:00","4","53.5335","7.888667","7.31","JEVER, GM","FM-15","ETNJ ","V020","250,1,N,0051,1","22000,1,9,N","011265,1,N,1","+0110,1","+0090,1","99999,9",,"02,5,+00900,1,02,1",,,"02,99,1,99,9,99,9,99999,9,99,9,99,9","10041,1,99999,9",,,,,"MET059METAR ETNJ 150520Z 25010KT 9999 FEW030TCU 11/09 Q1004 BLU/;",
"10122099999","2010-09-15T06:20:00","4","53.5335","7.888667","7.31","JEVER, GM","FM-15","ETNJ ","V020","250,1,N,0046,1","22000,1,9,N","011265,1,N,1","+0110,1","+0090,1","99999,9",,"02,5,+01050,1,99,9",,,"02,99,1,99,9,99,9,99999,9,99,9,99,9","10041,1,99999,9",,,,,"MET056METAR ETNJ 150620Z 25009KT 9999 FEW035 11/09 Q1004 BLU/;",
"10122099999","2010-09-15T07:20:00","4","53.5335","7.888667","7.31","JEVER, GM","FM-15","ETNJ ","V020","260,1,N,0057,1","22000,1,9,N","011265,1,N,1","+0130,1","+0090,1","99999,9",,"02,5,+01050,1,99,9",,,"02,99,1,99,9,99,9,99999,9,99,9,99,9","10051,1,99999,9",,,,,"MET056METAR ETNJ 150720Z 26011KT 9999 FEW035 13/09 Q1005 BLU/;",
"10122099999","2010-09-15T08:20:00","4","53.5335","7.888667","7.31","JEVER, GM","FM-15","ETNJ ","V020","260,1,N,0067,1","22000,1,9,N","011265,1,N,1","+0140,1","+0090,1","99999,9",,"02,5,+01050,1,99,9",,,"02,99,1,99,9,99,9,99999,9,99,9,99,9","10051,1,99999,9",,,,,"MET056METAR ETNJ 150820Z 26013KT 9999 FEW035 14/09 Q1005 BLU/;",
"10122099999","2010-09-15T09:20:00","4","53.5335","7.888667","7.31","JEVER, GM","FM-15","ETNJ ","V020","250,1,N,0062,1","99999,9,C,N","011265,1,N,1","+0150,1","+0080,1","99999,9",,"02,5,+00960,1,99,9","04,5,+01320,1,99,9",,"04,99,1,99,9,99,9,99999,9,99,9,99,9","10051,1,99999,9",,,,,"MET063METAR ETNJ 150920Z 25012KT 9999 FEW032 SCT044 15/08 Q1005 BLU/;","P01 013203SCOCIG"
"10122099999","2010-09-15T10:20:00","4","53.5335","7.888667","7.31","JEVER, GM","FM-15","ETNJ ","V020","250,1,N,0077,1","22000,1,9,N","011265,1,N,1","+0150,1","+0070,1","99999,9",,"04,5,+01260,1,99,9",,,"04,99,1,99,9,99,9,99999,9,99,9,99,9","10041,1,99999,9",,,,,"MET056METAR ETNJ 151020Z 25015KT 9999 SCT042 15/07 Q1004 BLU/;",
"10122099999","2010-09-15T11:20:00","4","53.5335","7.888667","7.31","JEVER, GM","FM-15","ETNJ ","V020","240,1,N,0082,1","22000,1,9,N","011265,1,N,1","+0160,1","+0070,1","99999,9",,"04,5,+01290,1,99,9",,,"04,99,1,99,9,99,9,99999,9,99,9,99,9","10041,1,99999,9",,,,"0134,1","MET059METAR ETNJ 151120Z 24016G26KT 9999 SCT043 16/07 Q1004 BLU/;",
"10122099999","2010-09-15T12:20:00","4","53.5335","7.888667","7.31","JEVER, GM","FM-15","ETNJ ","V020","240,1,N,0093,1","07500,1,C,N","011265,1,N,1","+0160,1","+0050,1","99999,9",,"04,5,+01350,1,99,9","07,5,+07500,1,99,9",,"07,99,1,99,9,99,9,99999,9,99,9,99,9","10031,1,99999,9",,,,"0165,1","MET066METAR ETNJ 151220Z 24018G32KT 9999 SCT045 BKN250 16/05 Q1003 BLU/;",
"10122099999","2010-09-15T13:20:00","4","53.5335","7.888667","7.31","JEVER, GM","FM-15","ETNJ ","V020","250,1,N,0098,1","02100,1,C,N","011265,1,N,1","+0150,1","+0050,1","99999,9",,"02,5,+01380,1,99,9","07,5,+02100,1,99,9",,"07,99,1,99,9,99,9,99999,9,99,9,99,9","10020,1,99999,9",,,,"0180,1","MET065METAR ETNJ 151320Z 25019G35KT 9999 FEW046 BKN070 15/05 Q1002 BLU;",
"10122099999","2010-09-15T14:20:00","4","53.5335","7.888667","7.31","JEVER, GM","FM-15","ETNJ ","V020","240,1,N,0087,1","99999,9,C,N","011265,1,N,1","+0150,1","+0060,1","99999,9",,"02,5,+01290,1,99,9","04,5,+01800,1,99,9",,"04,99,1,99,9,99,9,99999,9,99,9,99,9","10010,1,99999,9",,,,,"MET063METAR ETNJ 151420Z 24017KT 9999 FEW043 SCT060 15/06 Q1001 BLU/;","P01 018003SCOCIG"
"10122099999","2010-09-15T15:20:00","4","53.5335","7.888667","7.31","JEVER, GM","FM-15","ETNJ ","V020","240,1,N,0082,1","01500,1,C,N","011265,1,N,1","+0150,1","+0060,1","99999,9",,"02,5,+01170,1,99,9","07,5,+01500,1,99,9",,"07,99,1,99,9,99,9,99999,9,99,9,99,9","10010,1,99999,9","80,1",,,"0149,1","MET071METAR ETNJ 151520Z 24016G29KT 9999 -SHRA FEW039 BKN050 15/06 Q1001 BLU;",
"10122099999","2010-09-15T16:20:00","4","53.5335","7.888667","7.31","JEVER, GM","FM-15","ETNJ ","V020","240,1,N,0087,1","01230,1,C,N","008000,1,N,1","+0120,1","+0090,1","99999,9",,"04,5,+00780,1,99,9","07,5,+01230,1,99,9",,"07,99,1,99,9,99,9,99999,9,99,9,99,9","10000,1,99999,9","61,1",,,,"MET066METAR ETNJ 151620Z 24017KT 8000 -RA SCT026 BKN041 12/09 Q1000 BLU;",
"10122099999","2010-09-15T17:20:00","4","53.5335","7.888667","7.31","JEVER, GM","FM-15","ETNJ ","V020","230,1,N,0087,1","00450,1,C,N","011265,1,N,1","+0120,1","+0100,1","99999,9",,"02,5,+00300,1,99,9","04,5,+00450,1,99,9","07,5,+00960,1,99,9","07,99,1,99,9,99,9,99999,9,99,9,99,9","10000,1,99999,9",,,,"0144,1","MET072METAR ETNJ 151720Z 23017G28KT 9999 FEW010 SCT015 BKN032 12/10 Q1000 BLU;",
"10122099999","2010-09-15T18:20:00","4","53.5335","7.888667","7.31","JEVER, GM","FM-15","ETNJ ","V020","240,1,N,0082,1","00390,1,C,N","005000,1,N,1","+0120,1","+0100,1","99999,9",,"04,5,+00270,1,99,9","07,5,+00390,1,02,5","07,5,+00900,1,99,9","07,99,1,99,9,99,9,99999,9,99,9,99,9","10000,1,99999,9","10,1","81,1",,,"MET080METAR ETNJ 151820Z 24016KT 5000 SHRA BR SCT009 BKN013TCU BKN030 12/10 Q1000 GRN;",
"10122099999","2010-09-15T19:20:00","4","53.5335","7.888667","7.31","JEVER, GM","FM-15","ETNJ ","V020","240,1,N,0062,1","01200,1,C,N","008000,1,N,1","+0110,1","+0100,1","99999,9",,"04,5,+00390,1,99,9","07,5,+01200,1,99,9",,"07,99,1,99,9,99,9,99999,9,99,9,99,9","10010,1,99999,9","61,1",,,,"MET066METAR ETNJ 151920Z 24012KT 8000 -RA SCT013 BKN040 11/10 Q1001 BLU;",
"10122099999","2010-09-15T20:20:00","4","53.5335","7.888667","7.31","JEVER, GM","FM-15","ETNJ ","V020","240,1,N,0041,1","03600,1,C,N","011265,1,N,1","+0110,1","+0100,1","99999,9",,"04,5,+01200,1,99,9","07,5,+03600,1,99,9",,"07,99,1,99,9,99,9,99999,9,99,9,99,9","10010,1,99999,9",,,,,"MET062METAR ETNJ 152020Z 24008KT 9999 SCT040 BKN120 11/10 Q1001 BLU;",
"10122099999","2010-09-15T21:20:00","4","53.5335","7.888667","7.31","JEVER, GM","FM-15","ETNJ ","V020","250,1,N,0051,1","03300,1,C,N","011265,1,N,1","+0110,1","+0100,1","99999,9",,"04,5,+01020,1,99,9","07,5,+03300,1,99,9",,"07,99,1,99,9,99,9,99999,9,99,9,99,9","10010,1,99999,9","61,1",,,,"MET066METAR ETNJ 152120Z 25010KT 9999 -RA SCT034 BKN110 11/10 Q1001 BLU;",
"10122099999","2010-09-15T22:20:00","4","53.5335","7.888667","7.31","JEVER, GM","FM-15","ETNJ ","V020","240,1,N,0051,1","03300,1,C,N","011265,1,N,1","+0110,1","+0100,1","99999,9",,"04,5,+01020,1,99,9","07,5,+03300,1,99,9",,"07,99,1,99,9,99,9,99999,9,99,9,99,9","10010,1,99999,9",,,,,"MET062METAR ETNJ 152220Z 24010KT 9999 SCT034 BKN110 11/10 Q1001 BLU;",
"10122099999","2010-09-15T23:20:00","4","53.5335","7.888667","7.31","JEVER, GM","FM-15","ETNJ ","V020","230,1,N,0041,1","01800,1,C,N","011265,1,N,1","+0110,1","+0100,1","99999,9",,"07,5,+01800,1,99,9","07,5,+03300,1,99,9",,"07,99,1,99,9,99,9,99999,9,99,9,99,9","10010,1,99999,9",,,,,"MET062METAR ETNJ 152320Z 23008KT 9999 BKN060 BKN110 11/10 Q1001 BLU;",
"10122099999","2010-09-16T00:20:00","4","53.5335","7.888667","7.31","JEVER, GM","FM-15","ETNJ ","V020","260,1,N,0041,1","03600,1,C,N","011265,1,N,1","+0100,1","+0080,1","99999,9",,"04,5,+01200,1,99,9","07,5,+03600,1,99,9",,"07,99,1,99,9,99,9,99999,9,99,9,99,9","10010,1,99999,9",,,,,"MET062METAR ETNJ 160020Z 26008KT 9999 SCT040 BKN120 10/08 Q1001 BLU;",
"10122099999","2010-09-16T01:20:00","4","53.5335","7.888667","7.31","JEVER, GM","FM-15","ETNJ ","V020","260,1,N,0041,1","03000,1,C,N","011265,1,N,1","+0100,1","+0080,1","99999,9",,"02,5,+00600,1,99,9","04,5,+03000,1,99,9","07,5,+05700,1,99,9","07,99,1,99,9,99,9,99999,9,99,9,99,9","10010,1,99999,9",,,,,"MET069METAR ETNJ 160120Z 26008KT 9999 FEW020 SCT100 BKN190 10/08 Q1001 BLU;",
"10122099999","2010-09-16T02:20:00","4","53.5335","7.888667","7.31","JEVER, GM","FM-15","ETNJ ","V020","260,1,N,0041,1","02400,1,C,N","009000,1,N,1","+0100,1","+0080,1","99999,9",,"02,5,+00600,1,02,1","04,5,+02400,1,99,9","07,5,+05700,1,99,9","07,99,1,99,9,99,9,99999,9,99,9,99,9","10020,1,99999,9","80,1",,,,"MET078METAR ETNJ 160220Z 26008KT 9000 -SHRA FEW020TCU SCT080 BKN190 10/08 Q1002 BLU;",
"10122099999","2010-09-16T03:20:00","4","53.5335","7.888667","7.31","JEVER, GM","FM-15","ETNJ ","V020","260,1,N,0051,1","99999,9,C,N","011265,1,N,1","+0100,1","+0070,1","99999,9",,"02,5,+00600,1,09,1","04,5,+02400,1,99,9",,"04,99,1,99,9,99,9,99999,9,99,9,99,9","10020,1,99999,9",,,,,"MET065METAR ETNJ 160320Z 26010KT 9999 FEW020CB SCT080 10/07 Q1002 BLU/;","P01 024003SCOCIG"
"10122099999","2010-09-16T04:20:00","4","53.5335","7.888667","7.31","JEVER, GM","FM-15","ETNJ ","V020","260,1,N,0041,1","99999,9,C,N","011265,1,N,1","+0090,1","+0070,1","99999,9",,"02,5,+00600,1,09,1","04,5,+02400,1,99,9",,"04,99,1,99,9,99,9,99999,9,99,9,99,9","10031,1,99999,9",,,,,"MET065METAR ETNJ 160420Z 26008KT 9999 FEW020CB SCT080 09/07 Q1003 BLU/;","P01 024003SCOCIG"
"10122099999","2010-09-16T05:20:00","4","53.5335","7.888667","7.31","JEVER, GM","FM-15","ETNJ ","V020","250,1,N,0051,1","02400,1,C,N","011265,1,N,1","+0100,1","+0080,1","99999,9",,"02,5,+00600,1,09,1","07,5,+02400,1,99,9",,"07,99,1,99,9,99,9,99999,9,99,9,99,9","10031,1,99999,9","80,1",,,,"MET085METAR ETNJ 160520Z 25010KT 9999 -SHRA FEW020CB BKN080 10/08 Q1003 BLU BLU/ TEMPO GRN;",
"10122099999","2010-09-16T06:20:00","4","53.5335","7.888667","7.31","JEVER, GM","FM-15","ETNJ ","V020","240,1,N,0041,1","00750,1,C,N","008000,1,N,1","+0100,1","+0090,1","99999,9",,"02,5,+00150,1,99,9","07,5,+00750,1,09,5","07,5,+02100,1,99,9","07,99,1,99,9,99,9,99999,9,99,9,99,9","10031,1,99999,9","80,1",,,,"MET092METAR ETNJ 160620Z 24008KT 8000 -SHRA FEW005 BKN025CB BKN070 10/09 Q1003 BLU BLU/ TEMPO GRN;",
"10122099999","2010-09-16T07:20:00","4","53.5335","7.888667","7.31","JEVER, GM","FM-15","ETNJ ","V020","240,1,N,0051,1","00750,1,C,N","011265,1,N,1","+0110,1","+0090,1","99999,9",,"02,5,+00240,1,99,9","04,5,+00750,1,09,5","07,5,+01500,1,99,9","07,99,1,99,9,99,9,99999,9,99,9,99,9","10031,1,99999,9",,,,,"MET085METAR ETNJ 160720Z 24010KT 9999 FEW008 SCT025CB BKN050 11/09 Q1003 BLU BLU TEMPO GRN;",
"10122099999","2010-09-16T08:20:00","4","53.5335","7.888667","7.31","JEVER, GM","FM-15","ETNJ ","V020","240,1,N,0067,1","07200,1,C,N","011265,1,N,1","+0130,1","+0110,1","99999,9",,"02,5,+00240,1,99,9","02,5,+00750,1,09,5","07,5,+07200,1,99,9","07,99,1,99,9,99,9,99999,9,99,9,99,9","10041,1,99999,9",,,,,"MET085METAR ETNJ 160820Z 24013KT 9999 FEW008 FEW025CB BKN240 13/11 Q1004 BLU/BLU TEMPO GRN;",
"10122099999","2010-09-16T09:20:00","4","53.5335","7.888667","7.31","JEVER, GM","FM-15","ETNJ ","V020","240,1,N,0067,1","07200,1,C,N","011265,1,N,1","+0140,1","+0100,1","99999,9",,"02,5,+00300,1,99,9","02,5,+00600,1,09,5","07,5,+07200,1,99,9","07,99,1,99,9,99,9,99999,9,99,9,99,9","10041,1,99999,9",,,,,"MET085METAR ETNJ 160920Z 24013KT 9999 FEW010 FEW020CB BKN240 14/10 Q1004 BLU/BLU TEMPO GRN;",
"10122099999","2010-09-16T10:20:00","4","53.5335","7.888667","7.31","JEVER, GM","FM-15","ETNJ ","V020","260,1,N,0077,1","99999,9,C,N","011265,1,N,1","+0150,1","+0100,1","99999,9",,"02,5,+00270,1,99,9","04,5,+00540,1,02,5",,"04,99,1,99,9,99,9,99999,9,99,9,99,9","10041,1,99999,9",,,,,"MET079METAR ETNJ 161020Z 26015KT 9999 FEW009 SCT018TCU 15/10 Q1004 BLU/BLU TEMPO GRN;","P01 005403SCOCIG"
"10122099999","2010-09-16T11:20:00","4","53.5335","7.888667","7.31","JEVER, GM","FM-15","ETNJ ","V020","260,1,N,0087,1","22000,1,9,N","011265,1,N,1","+0150,1","+0080,1","99999,9",,"04,5,+00750,1,02,1",,,"04,99,1,99,9,99,9,99999,9,99,9,99,9","10041,1,99999,9",,,,,"MET072METAR ETNJ 161120Z 26017KT 9999 SCT025TCU 15/08 Q1004 BLU/BLU TEMPO GRN;",
"10122099999","2010-09-16T12:20:00","4","53.5335","7.888667","7.31","JEVER, GM","FM-15","ETNJ ","V020","240,1,N,0062,1","00660,1,C,N","011265,1,N,1","+0150,1","+0100,1","99999,9",,"07,5,+00660,1,02,1",,,"07,99,1,99,9,99,9,99999,9,99,9,99,9","10041,1,99999,9","80,1",,,,"MET078METAR ETNJ 161220Z 24012KT 9999 -SHRA BKN022TCU 15/10 Q1004 WHT BLU TEMPO GRN;",
"10122099999","2010-09-16T12:27:00","4","53.5335","7.888667","7.31","JEVER, GM","FM-16","ETNJ ","V020","240,1,N,0057,1","00540,1,C,N","004000,1,N,1","+0150,1","+0100,1","99999,9",,"07,5,+00540,1,02,1",,,"07,99,1,99,9,99,9,99999,9,99,9,99,9","10041,1,99999,9","81,1",,,,"MET077SPECI ETNJ 161227Z 24011KT 4000 SHRA BKN018TCU 15/10 Q1004 GRN BLU TEMPO GRN;",
"10122099999","2010-09-16T13:20:00","4","53.5335","7.888667","7.31","JEVER, GM","FM-15","ETNJ ","V020","250,1,N,0041,1","22000,1,9,N","011265,1,N,1","+0140,1","+0120,1","99999,9",,"04,5,+00540,1,09,1",,,"04,99,1,99,9,99,9,99999,9,99,9,99,9","10041,1,99999,9",,,,,"MET076METAR ETNJ 161320Z 25008KT 9999 SCT018CB 14/12 Q1004 RERA BLU/BLU TEMPO GRN;",
"10122099999","2010-09-16T13:52:00","4","53.5335","7.888667","7.31","JEVER, GM","FM-16","ETNJ ","V020","250,1,N,0046,1","99999,9,C,N","011265,1,N,1","+0150,1","+0120,1","99999,9",,"02,5,+00600,1,09,1","04,5,+06000,1,99,9",,"04,99,1,99,9,99,9,99999,9,99,9,99,9","10041,1,99999,9",,,,,"MET076SPECI ETNJ 161352Z 25009KT 9999 FEW020CB SCT200 15/12 Q1004 BLU/FCST CANCEL;","P01 060003SCOCIG"
"10122099999","2010-09-20T05:20:00","4","53.5335","7.888667","7.31","JEVER, GM","FM-15","ETNJ ","V020","220,1,N,0036,1","00330,1,C,N","011265,1,N,1","+0120,1","+0110,1","99999,9",,"02,5,+00210,1,99,9","07,5,+00330,1,99,9","07,5,+01500,1,99,9","07,99,1,99,9,99,9,99999,9,99,9,99,9","10108,1,99999,9",,,,,"MET069METAR ETNJ 200520Z 22007KT 9999 FEW007 BKN011 BKN050 12/11 Q1011 GRN;",
"10122099999","2010-09-20T06:20:00","4","53.5335","7.888667","7.31","JEVER, GM","FM-15","ETNJ ","V020","210,1,N,0041,1","00330,1,C,N","006000,1,N,1","+0120,1","+0110,1","99999,9",,"02,5,+00210,1,99,9","07,5,+00330,1,99,9",,"07,99,1,99,9,99,9,99999,9,99,9,99,9","10102,1,99999,9","51,1",,,,"MET080METAR ETNJ 200620Z 21008KT 6000 -DZ FEW007 BKN011 12/11 Q1010 GRN BLU TEMPO GRN;",
"10122099999","2010-09-20T07:20:00","4","53.5335","7.888667","7.31","JEVER, GM","FM-15","ETNJ ","V020","220,1,N,0046,1","00240,1,C,N","007000,1,N,1","+0120,1","+0110,1","99999,9",,"07,5,+00240,1,99,9",,,"07,99,1,99,9,99,9,99999,9,99,9,99,9","10108,1,99999,9","51,1",,,,"MET063METAR ETNJ 200720Z 22009KT 7000 -DZ BKN008 12/11 Q1011 GRN GRN;",
"10122099999","2010-09-20T08:20:00","4","53.5335","7.888667","7.31","JEVER, GM","FM-15","ETNJ ","V020","210,1,N,0051,1","00210,1,C,N","006000,1,N,1","+0130,1","+0120,1","99999,9",,"02,5,+00150,1,99,9","07,5,+00210,1,99,9",,"07,99,1,99,9,99,9,99999,9,99,9,99,9","10108,1,99999,9","61,1",,,,"MET070METAR ETNJ 200820Z 21010KT 6000 -RA FEW005 BKN007 13/12 Q1011 GRN GRN;",
"10122099999","2010-09-20T09:20:00","4","53.5335","7.888667","7.31","JEVER, GM","FM-15","ETNJ ","V020","220,1,N,0046,1","00210,1,C,N","006000,1,N,1","+0130,1","+0120,1","99999,9",,"02,5,+00150,1,99,9","07,5,+00210,1,99,9",,"07,99,1,99,9,99,9,99999,9,99,9,99,9","10108,1,99999,9","51,1","61,1",,,"MET072METAR ETNJ 200920Z 22009KT 6000 -RADZ FEW005 BKN007 13/12 Q1011 GRN GRN;",
"10122099999","2010-09-20T09:30:00","4","53.5335","7.888667","7.31","JEVER, GM","FM-16","ETNJ ","V020","220,1,N,0046,1","00210,1,C,N","004000,1,N,1","+0130,1","+0120,1","99999,9",,"02,5,+00150,1,99,9","07,5,+00210,1,99,9",,"07,99,1,99,9,99,9,99999,9,99,9,99,9","10108,1,99999,9","10,1","53,1","63,1",,"MET084SPECI ETNJ 200930Z 22009KT 4000 R28/1300D RADZ BR FEW005 BKN007 13/12 Q1011 GRN GRN;",
"10122099999","2010-09-20T09:47:00","4","53.5335","7.888667","7.31","JEVER, GM","FM-16","ETNJ ","V020","220,1,N,0046,1","00240,1,C,N","006000,1,N,1","+0130,1","+0120,1","99999,9",,"02,5,+00150,1,99,9","07,5,+00240,1,99,9",,"07,99,1,99,9,99,9,99999,9,99,9,99,9","10108,1,99999,9","51,1",,,,"MET070SPECI ETNJ 200947Z 22009KT 6000 -DZ FEW005 BKN008 13/12 Q1011 GRN GRN;",
"10122099999","2010-09-20T09:49:00","4","53.5335","7.888667","7.31","JEVER, GM","FM-16","ETNJ ","V020","220,1,N,0051,1","00240,1,C,N","006000,1,N,1","+0130,1","+0120,1","99999,9",,"02,5,+00150,1,99,9","07,5,+00240,1,99,9",,"07,99,1,99,9,99,9,99999,9,99,9,99,9","10102,1,99999,9","51,1",,,,"MET075SPECI ETNJ 200949Z 22010KT 6000 -DZ FEW005 BKN008 13/12 Q1010 RERA GRN GRN;",
"10122099999","2010-09-20T10:20:00","4","53.5335","7.888667","7.31","JEVER, GM","FM-15","ETNJ ","V020","220,1,N,0057,1","00210,1,C,N","006000,1,N,1","+0130,1","+0120,1","99999,9",,"02,5,+00150,1,99,9","07,5,+00210,1,99,9",,"07,99,1,99,9,99,9,99999,9,99,9,99,9","10102,1,99999,9","51,1","61,1",,,"MET077METAR ETNJ 201020Z 22011KT 6000 -RADZ FEW005 BKN007 13/12 Q1010 RERA GRN GRN;",
"10122099999","2010-09-20T11:20:00","4","53.5335","7.888667","7.31","JEVER, GM","FM-15","ETNJ ","V020","230,1,N,0051,1","00300,1,C,N","008000,1,N,1","+0140,1","+0130,1","99999,9",,"04,5,+00210,1,99,9","07,5,+00300,1,99,9",,"07,99,1,99,9,99,9,99999,9,99,9,99,9","10102,1,99999,9",,,,,"MET066METAR ETNJ 201120Z 23010KT 8000 SCT007 BKN010 14/13 Q1010 GRN GRN;",
"10122099999","2010-09-20T12:20:00","4","53.5335","7.888667","7.31","JEVER, GM","FM-15","ETNJ ","V020","240,1,N,0057,1","00330,1,C,N","011265,1,N,1","+0150,1","+0130,1","99999,9",,"07,5,+00330,1,99,9","07,5,+00630,1,99,9",,"07,99,1,99,9,99,9,99999,9,99,9,99,9","10102,1,99999,9",,,,,"MET076METAR ETNJ 201220Z 24011KT 9999 BKN011 BKN021 15/13 Q1010 GRN GRN BECMG BLU;",
"10122099999","2010-09-20T13:20:00","4","53.5335","7.888667","7.31","JEVER, GM","FM-15","ETNJ ","V020","230,1,N,0051,1","00390,1,C,N","011265,1,N,1","+0160,1","+0140,1","99999,9",,"07,5,+00390,1,99,9","07,5,+01500,1,99,9",,"07,99,1,99,9,99,9,99999,9,99,9,99,9","10102,1,99999,9",,,,,"MET076METAR ETNJ 201320Z 23010KT 9999 BKN013 BKN050 16/14 Q1010 GRN GRN BECMG BLU;",
"10122099999","2010-09-20T14:00:00","4","53.5335","7.888667","7.31","JEVER, GM","FM-15","ETNJ ","V020","240,1,N,0057,1","00390,1,C,N","011265,1,N,1","+0150,1","+0130,1","99999,9",,"07,5,+00390,1,99,9","07,5,+01500,1,99,9",,"07,99,1,99,9,99,9,99999,9,99,9,99,9","10102,1,99999,9",,,,"0108,1","MET077SPECI ETNJ 201358Z 24011G21KT 9999 BKN013 BKN050 15/13 Q1010 GRN FCST CANCEL;",
"10122099999","2010-09-21T05:20:00","4","53.5335","7.888667","7.31","JEVER, GM","FM-15","ETNJ ","V020","270,1,N,0026,1","99999,9,C,N","004500,1,N,1","+0120,1","+0110,1","99999,9",,"02,5,+00150,1,99,9","04,5,+00810,1,99,9",,"04,99,1,99,9,99,9,99999,9,99,9,99,9","10169,1,99999,9","10,1",,,,"MET069METAR ETNJ 210520Z 27005KT 4500 BR FEW005 SCT027 12/11 Q1017 GRN GRN;","P01 008103SCOCIG"
"10122099999","2010-09-21T06:20:00","4","53.5335","7.888667","7.31","JEVER, GM","FM-15","ETNJ ","V020","260,1,N,0021,1","99999,9,C,N","004000,1,N,1","+0120,1","+0120,1","99999,9",,"02,5,+00300,1,99,9","04,5,+00510,1,99,9",,"04,99,1,99,9,99,9,99999,9,99,9,99,9","10180,1,99999,9","10,1",,,,"MET080METAR ETNJ 210620Z 26004KT 4000 BR FEW010 SCT017 12/12 Q1018 GRN GRN BECMG BLU/;","P01 005103SCOCIG"
"10122099999","2010-09-21T07:20:00","4","53.5335","7.888667","7.31","JEVER, GM","FM-15","ETNJ ","V020","260,1,N,0021,1","00900,1,C,N","006000,1,N,1","+0130,1","+0130,1","99999,9",,"02,5,+00240,1,99,9","07,5,+00900,1,99,9",,"07,99,1,99,9,99,9,99999,9,99,9,99,9","10190,1,99999,9",,,,,"MET066METAR ETNJ 210720Z 26004KT 6000 FEW008 BKN030 13/13 Q1019 WHT WHT;",
"10122099999","2010-09-21T08:20:00","4","53.5335","7.888667","7.31","JEVER, GM","FM-15","ETNJ ","V020","310,1,N,0026,1","99999,9,C,N","011265,1,N,1","+0150,1","+0150,1","99999,9",,"02,5,+00150,1,99,9","04,5,+00900,1,99,9",,"04,99,1,99,9,99,9,99999,9,99,9,99,9","10190,1,99999,9",,,,,"MET067METAR ETNJ 210820Z 31005KT 9999 FEW005 SCT030 15/15 Q1019 BLU/BLU/;","P01 009003SCOCIG"
"10122099999","2010-09-21T09:20:00","4","53.5335","7.888667","7.31","JEVER, GM","FM-15","ETNJ ","V020","320,1,N,0036,1","00840,1,C,N","011265,1,N,1","+0150,1","+0110,1","99999,9",,"02,5,+00510,1,99,9","07,5,+00840,1,99,9",,"07,99,1,99,9,99,9,99999,9,99,9,99,9","10200,1,99999,9",,,,,"MET066METAR ETNJ 210920Z 32007KT 9999 FEW017 BKN028 15/11 Q1020 BLU BLU;",
"10122099999","2010-09-21T10:20:00","4","53.5335","7.888667","7.31","JEVER, GM","FM-15","ETNJ ","V020","320,1,N,0026,1","00810,1,C,N","011265,1,N,1","+0160,1","+0110,1","99999,9",,"07,5,+00810,1,99,9",,,"07,99,1,99,9,99,9,99999,9,99,9,99,9","10200,1,99999,9",,,,,"MET059METAR ETNJ 211020Z 32005KT 9999 BKN027 16/11 Q1020 BLU BLU;",
"10122099999","2010-09-21T11:20:00","4","53.5335","7.888667","7.31","JEVER, GM","FM-15","ETNJ ","V020","320,1,N,0031,1","00840,1,C,N","011265,1,N,1","+0160,1","+0110,1","99999,9",,"07,5,+00840,1,99,9",,,"07,99,1,99,9,99,9,99999,9,99,9,99,9","10210,1,99999,9",,,,,"MET059METAR ETNJ 211120Z 32006KT 9999 BKN028 16/11 Q1021 BLU BLU;",
"10122099999","2010-09-21T12:20:00","4","53.5335","7.888667","7.31","JEVER, GM","FM-15","ETNJ ","V020","330,1,N,0031,1","22000,1,9,N","011265,1,N,1","+0170,1","+0110,1","99999,9",,"04,5,+00840,1,99,9",,,"04,99,1,99,9,99,9,99999,9,99,9,99,9","10210,1,99999,9",,,,,"MET060METAR ETNJ 211220Z 33006KT 9999 SCT028 17/11 Q1021 BLU/BLU/;",
"10122099999","2010-09-21T13:20:00","4","53.5335","7.888667","7.31","JEVER, GM","FM-15","ETNJ ","V020","310,1,N,0031,1","22000,1,9,N","011265,1,N,1","+0180,1","+0110,1","99999,9",,"02,5,+00780,1,99,9",,,"02,99,1,99,9,99,9,99999,9,99,9,99,9","10210,1,99999,9",,,,,"MET060METAR ETNJ 211320Z 31006KT 9999 FEW026 18/11 Q1021 BLU/BLU/;",
"10122099999","2010-09-21T14:00:00","4","53.5335","7.888667","7.31","JEVER, GM","FM-15","ETNJ ","V020","310,1,N,0026,1","22000,1,9,N","011265,1,N,1","+0170,1","+0110,1","99999,9",,"02,5,+00780,1,99,9",,,"02,99,1,99,9,99,9,99999,9,99,9,99,9","10210,1,99999,9",,,,,"MET067SPECI ETNJ 211359Z 31005KT 9999 FEW026 17/11 Q1021 BLU/FCST CANCEL;",
"10122099999","2010-09-22T05:20:00","4","53.5335","7.888667","7.31","JEVER, GM","FM-15","ETNJ ","V020","140,1,N,0036,1","22000,1,9,N","011265,1,N,1","+0080,1","+0070,1","99999,9",,"04,5,+07500,1,99,9",,,"04,99,1,99,9,99,9,99999,9,99,9,99,9","10220,1,99999,9","12,1",,,,"MET065METAR ETNJ 220520Z 14007KT 9999 MIFG SCT250 08/07 Q1022 BLU/BLU/;",
"10122099999","2010-09-22T06:20:00","4","53.5335","7.888667","7.31","JEVER, GM","FM-15","ETNJ ","V020","130,1,N,0031,1","22000,1,9,N","011265,1,N,1","+0090,1","+0080,1","99999,9",,"04,5,+07500,1,99,9",,,"04,99,1,99,9,99,9,99999,9,99,9,99,9","10220,1,99999,9","12,1",,,,"MET065METAR ETNJ 220620Z 13006KT 9999 MIFG SCT250 09/08 Q1022 BLU/BLU/;",
"10122099999","2010-09-22T07:20:00","4","53.5335","7.888667","7.31","JEVER, GM","FM-15","ETNJ ","V020","140,1,N,0036,1","07500,1,C,N","011265,1,N,1","+0110,1","+0100,1","99999,9",,"07,5,+07500,1,99,9",,,"07,99,1,99,9,99,9,99999,9,99,9,99,9","10210,1,99999,9",,,,,"MET060METAR ETNJ 220720Z 14007KT 9999 BKN250 11/10 Q1021 BLU/BLU/;",
"10122099999","2010-09-22T08:20:00","4","53.5335","7.888667","7.31","JEVER, GM","FM-15","ETNJ ","V020","130,1,N,0031,1","07500,1,C,N","011265,1,N,1","+0150,1","+0120,1","99999,9",,"07,5,+07500,1,99,9",,,"07,99,1,99,9,99,9,99999,9,99,9,99,9","10210,1,99999,9",,,,,"MET060METAR ETNJ 220820Z 13006KT 9999 BKN250 15/12 Q1021 BLU/BLU/;",
"10122099999","2010-09-22T09:20:00","4","53.5335","7.888667","7.31","JEVER, GM","FM-15","ETNJ ","V020","130,1,N,0041,1","22000,1,9,N","011265,1,N,1","+0180,1","+0130,1","99999,9",,"04,5,+07500,1,99,9",,,"04,99,1,99,9,99,9,99999,9,99,9,99,9","10210,1,99999,9",,,,,"MET060METAR ETNJ 220920Z 13008KT 9999 SCT250 18/13 Q1021 BLU/BLU/;",
"10122099999","2010-09-22T10:20:00","4","53.5335","7.888667","7.31","JEVER, GM","FM-15","ETNJ ","V020","140,1,N,0041,1","07500,1,C,N","011265,1,N,1","+0190,1","+0130,1","99999,9",,"07,5,+07500,1,99,9",,,"07,99,1,99,9,99,9,99999,9,99,9,99,9","10200,1,99999,9",,,,,"MET060METAR ETNJ 221020Z 14008KT 9999 BKN250 19/13 Q1020 BLU/BLU/;",
"10122099999","2010-09-22T11:20:00","4","53.5335","7.888667","7.31","JEVER, GM","FM-15","ETNJ ","V020","150,1,N,0041,1","07500,1,C,N","011265,1,N,1","+0210,1","+0140,1","99999,9",,"07,5,+07500,1,99,9",,,"07,99,1,99,9,99,9,99999,9,99,9,99,9","10200,1,99999,9",,,,,"MET060METAR ETNJ 221120Z 15008KT 9999 BKN250 21/14 Q1020 BLU/BLU/;",
"10122099999","2010-09-22T12:20:00","4","53.5335","7.888667","7.31","JEVER, GM","FM-15","ETNJ ","V020","170,1,N,0036,1","07500,1,C,N","011265,1,N,1","+0210,1","+0130,1","99999,9",,"07,5,+07500,1,99,9",,,"07,99,1,99,9,99,9,99999,9,99,9,99,9","10190,1,99999,9",,,,,"MET060METAR ETNJ 221220Z 17007KT 9999 BKN250 21/13 Q1019 BLU/BLU/;",
"10122099999","2010-09-22T13:20:00","4","53.5335","7.888667","7.31","JEVER, GM","FM-15","ETNJ ","V020","160,1,N,0041,1","07500,1,C,N","011265,1,N,1","+0230,1","+0140,1","99999,9",,"07,5,+07500,1,99,9",,,"07,99,1,99,9,99,9,99999,9,99,9,99,9","10180,1,99999,9",,,,,"MET060METAR ETNJ 221320Z 16008KT 9999 BKN250 23/14 Q1018 BLU/BLU/;",
"10122099999","2010-09-22T14:00:00","4","53.5335","7.888667","7.31","JEVER, GM","FM-15","ETNJ ","V020","160,1,N,0041,1","07500,1,C,N","011265,1,N,1","+0220,1","+0130,1","99999,9",,"07,5,+07500,1,99,9",,,"07,99,1,99,9,99,9,99999,9,99,9,99,9","10180,1,99999,9",,,,,"MET067SPECI ETNJ 221356Z 16008KT 9999 BKN250 22/13 Q1018 BLU/FCST CANCEL;",
"10122099999","2010-09-23T05:20:00","4","53.5335","7.888667","7.31","JEVER, GM","FM-15","ETNJ ","V020","180,1,N,0036,1","22000,1,9,N","003000,1,N,1","+0120,1","+0110,1","99999,9",,"04,5,+06900,1,99,9",,,"04,99,1,99,9,99,9,99999,9,99,9,99,9","10129,1,99999,9","10,1",,,,"MET062METAR ETNJ 230520Z 18007KT 3000 BR SCT230 12/11 Q1013 YLO YLO;",
"10122099999","2010-09-23T06:20:00","4","53.5335","7.888667","7.31","JEVER, GM","FM-15","ETNJ ","V020","170,1,N,0031,1","99999,9,C,N","003000,1,N,1","+0120,1","+0110,1","99999,9",,"02,5,+03000,1,99,9","04,5,+06900,1,99,9",,"04,99,1,99,9,99,9,99999,9,99,9,99,9","10119,1,99999,9","10,1",,,,"MET079METAR ETNJ 230620Z 17006KT 3000 BR FEW100 SCT230 12/11 Q1012 YLO YLO BECMG WHT;","P01 069003SCOCIG"
"10122099999","2010-09-23T07:20:00","4","53.5335","7.888667","7.31","JEVER, GM","FM-15","ETNJ ","V020","190,1,N,0026,1","99999,9,C,N","004000,1,N,1","+0150,1","+0140,1","99999,9",,"02,5,+03000,1,99,9","04,5,+06900,1,99,9",,"04,99,1,99,9,99,9,99999,9,99,9,99,9","10119,1,99999,9","10,1",,,,"MET079METAR ETNJ 230720Z 19005KT 4000 BR FEW100 SCT230 15/14 Q1012 GRN GRN BECMG WHT;","P01 069003SCOCIG"
"10122099999","2010-09-23T08:00:00","4","53.5335","7.888667","7.31","JEVER, GM","FM-15","ETNJ ","V020","190,1,N,0036,1","99999,9,C,N","005000,1,N,1","+0170,1","+0140,1","99999,9",,"02,5,+03000,1,99,9","04,5,+06900,1,99,9",,"04,99,1,99,9,99,9,99999,9,99,9,99,9","10119,1,99999,9","10,1",,,,"MET080SPECI ETNJ 230756Z 19007KT 5000 BR FEW100 SCT230 17/14 Q1012 WHT WHT BECMG BLU/;","P01 069003SCOCIG"
"10122099999","2010-09-23T08:20:00","4","53.5335","7.888667","7.31","JEVER, GM","FM-15","ETNJ ","V020","190,1,N,0036,1","99999,9,C,N","006000,1,N,1","+0180,1","+0140,1","99999,9",,"02,5,+03000,1,99,9","04,5,+06900,1,99,9",,"04,99,1,99,9,99,9,99999,9,99,9,99,9","10119,1,99999,9",,,,,"MET077METAR ETNJ 230820Z 19007KT 6000 FEW100 SCT230 18/14 Q1012 WHT WHT BECMG BLU/;","P01 069003SCOCIG"
"10122099999","2010-09-23T09:20:00","4","53.5335","7.888667","7.31","JEVER, GM","FM-15","ETNJ ","V020","200,1,N,0036,1","99999,9,C,N","008000,1,N,1","+0200,1","+0150,1","99999,9",,"02,5,+03000,1,99,9","04,5,+08400,1,99,9",,"04,99,1,99,9,99,9,99999,9,99,9,99,9","10108,1,99999,9",,,,,"MET067METAR ETNJ 230920Z 20007KT 8000 FEW100 SCT280 20/15 Q1011 BLU/BLU/;","P01 084003SCOCIG"
"10122099999","2010-09-23T10:20:00","4","53.5335","7.888667","7.31","JEVER, GM","FM-15","ETNJ ","V020","190,1,N,0026,1","08400,1,C,N","011265,1,N,1","+0220,1","+0150,1","99999,9",,"02,5,+01200,1,99,9","07,5,+08400,1,99,9",,"07,99,1,99,9,99,9,99999,9,99,9,99,9","10108,1,99999,9",,,,,"MET067METAR ETNJ 231020Z 19005KT 9999 FEW040 BKN280 22/15 Q1011 BLU/BLU/;",
"10122099999","2010-09-23T11:20:00","4","53.5335","7.888667","7.31","JEVER, GM","FM-15","ETNJ ","V020","230,1,N,0036,1","08400,1,C,N","011265,1,N,1","+0230,1","+0140,1","99999,9",,"02,5,+01500,1,99,9","07,5,+08400,1,99,9",,"07,99,1,99,9,99,9,99999,9,99,9,99,9","10102,1,99999,9",,,,,"MET067METAR ETNJ 231120Z 23007KT 9999 FEW050 BKN280 23/14 Q1010 BLU/BLU/;",
"10122099999","2010-09-23T12:20:00","4","53.5335","7.888667","7.31","JEVER, GM","FM-15","ETNJ ","V020","210,1,N,0031,1","08400,1,C,N","011265,1,N,1","+0240,1","+0140,1","99999,9",,"07,5,+08400,1,99,9",,,"07,99,1,99,9,99,9,99999,9,99,9,99,9","10102,1,99999,9",,,,,"MET060METAR ETNJ 231220Z 21006KT 9999 BKN280 24/14 Q1010 BLU/BLU/;",
"10122099999","2010-09-23T13:20:00","4","53.5335","7.888667","7.31","JEVER, GM","FM-15","ETNJ ","V020","220,1,N,0026,1","08400,1,C,N","011265,1,N,1","+0230,1","+0140,1","99999,9",,"07,5,+08400,1,99,9",,,"07,99,1,99,9,99,9,99999,9,99,9,99,9","10091,1,99999,9",,,,,"MET060METAR ETNJ 231320Z 22005KT 9999 BKN280 23/14 Q1009 BLU/BLU/;",
"10122099999","2010-09-23T14:00:00","4","53.5335","7.888667","7.31","JEVER, GM","FM-15","ETNJ ","V020","240,1,N,0026,1","08400,1,C,N","011265,1,N,1","+0230,1","+0140,1","99999,9",,"07,5,+08400,1,99,9",,,"07,99,1,99,9,99,9,99999,9,99,9,99,9","10091,1,99999,9",,,,,"MET067SPECI ETNJ 231355Z 24005KT 9999 BKN280 23/14 Q1009 BLU/FCST CANCEL;",
"10122099999","2010-09-28T05:20:00","4","53.5335","7.888667","7.31","JEVER, GM","FM-15","ETNJ ","V020","040,1,N,0015,1","00600,1,C,N","011265,1,N,1","+0120,1","+0090,1","99999,9",,"07,5,+00600,1,99,9",,,"07,99,1,99,9,99,9,99999,9,99,9,99,9","10139,1,99999,9",,,,,"MET055METAR ETNJ 280520Z 04003KT 9999 BKN020 12/09 Q1014 WHT;",
"10122099999","2010-09-28T06:20:00","4","53.5335","7.888667","7.31","JEVER, GM","FM-15","ETNJ ","V020","020,1,N,0010,1","00600,1,C,N","011265,1,N,1","+0120,1","+0090,1","99999,9",,"07,5,+00600,1,99,9",,,"07,99,1,99,9,99,9,99999,9,99,9,99,9","10139,1,99999,9",,,,,"MET055METAR ETNJ 280620Z 02002KT 9999 BKN020 12/09 Q1014 WHT;",
"10122099999","2010-09-28T07:20:00","4","53.5335","7.888667","7.31","JEVER, GM","FM-15","ETNJ ","V020","040,1,N,0021,1","00660,1,C,N","011265,1,N,1","+0120,1","+0090,1","99999,9",,"02,5,+00450,1,99,9","07,5,+00660,1,99,9",,"07,99,1,99,9,99,9,99999,9,99,9,99,9","10149,1,99999,9",,,,,"MET062METAR ETNJ 280720Z 04004KT 9999 FEW015 BKN022 12/09 Q1015 WHT;",
"10122099999","2010-09-28T08:20:00","4","53.5335","7.888667","7.31","JEVER, GM","FM-15","ETNJ ","V020","030,1,N,0021,1","00660,1,C,N","011265,1,N,1","+0120,1","+0080,1","99999,9",,"07,5,+00660,1,99,9",,,"07,99,1,99,9,99,9,99999,9,99,9,99,9","10149,1,99999,9",,,,,"MET055METAR ETNJ 280820Z 03004KT 9999 BKN022 12/08 Q1015 WHT;",
"10122099999","2010-09-28T09:20:00","4","53.5335","7.888667","7.31","JEVER, GM","FM-15","ETNJ ","V020","040,1,N,0026,1","00750,1,C,N","011265,1,N,1","+0120,1","+0080,1","99999,9",,"02,5,+00450,1,99,9","07,5,+00750,1,99,9",,"07,99,1,99,9,99,9,99999,9,99,9,99,9","10159,1,99999,9",,,,,"MET062METAR ETNJ 280920Z 04005KT 9999 FEW015 BKN025 12/08 Q1016 BLU;",
"10122099999","2010-09-28T10:20:00","4","53.5335","7.888667","7.31","JEVER, GM","FM-15","ETNJ ","V020","040,1,N,0036,1","00930,1,C,N","011265,1,N,1","+0120,1","+0080,1","99999,9",,"04,5,+00510,1,99,9","07,5,+00930,1,99,9",,"07,99,1,99,9,99,9,99999,9,99,9,99,9","10159,1,99999,9",,,,,"MET062METAR ETNJ 281020Z 04007KT 9999 SCT017 BKN031 12/08 Q1016 BLU;",
"10122099999","2010-09-28T11:20:00","4","53.5335","7.888667","7.31","JEVER, GM","FM-15","ETNJ ","V020","050,1,N,0031,1","00960,1,C,N","011265,1,N,1","+0120,1","+0080,1","99999,9",,"04,5,+00540,1,99,9","07,5,+00960,1,99,9",,"07,99,1,99,9,99,9,99999,9,99,9,99,9","10159,1,99999,9",,,,,"MET062METAR ETNJ 281120Z 05006KT 9999 SCT018 BKN032 12/08 Q1016 BLU;",
"10122099999","2010-09-28T12:20:00","4","53.5335","7.888667","7.31","JEVER, GM","FM-15","ETNJ ","V020","040,1,N,0031,1","00870,1,C,N","011265,1,N,1","+0120,1","+0070,1","99999,9",,"04,5,+00540,1,99,9","07,5,+00870,1,99,9",,"07,99,1,99,9,99,9,99999,9,99,9,99,9","10169,1,99999,9",,,,,"MET062METAR ETNJ 281220Z 04006KT 9999 SCT018 BKN029 12/07 Q1017 BLU;",
"10122099999","2010-09-28T13:20:00","4","53.5335","7.888667","7.31","JEVER, GM","FM-15","ETNJ ","V020","060,1,N,0026,1","00870,1,C,N","011265,1,N,1","+0120,1","+0060,1","99999,9",,"02,5,+00540,1,99,9","07,5,+00870,1,99,9",,"07,99,1,99,9,99,9,99999,9,99,9,99,9","10169,1,99999,9",,,,,"MET062METAR ETNJ 281320Z 06005KT 9999 FEW018 BKN029 12/06 Q1017 BLU;",
"10122099999","2010-09-29T05:20:00","4","53.5335","7.888667","7.31","JEVER, GM","FM-15","ETNJ ","V020","100,1,N,0005,1","22000,1,9,N","011265,1,N,1","+0020,1","+0020,1","99999,9",,"02,5,+00600,1,99,9",,,"02,99,1,99,9,99,9,99999,9,99,9,99,9","10210,1,99999,9","12,1",,,,"MET061METAR ETNJ 290520Z 10001KT 9999 MIFG FEW020 02/02 Q1021 BLU/;",
"10122099999","2010-09-29T06:20:00","4","53.5335","7.888667","7.31","JEVER, GM","FM-15","ETNJ ","V020","130,1,N,0010,1","22000,1,9,N","011265,1,N,1","+0030,1","+0030,1","99999,9",,"02,5,+00600,1,99,9",,,"02,99,1,99,9,99,9,99999,9,99,9,99,9","10210,1,99999,9","12,1",,,,"MET061METAR ETNJ 290620Z 13002KT 9999 MIFG FEW020 03/03 Q1021 BLU/;",
"10122099999","2010-09-29T07:20:00","4","53.5335","7.888667","7.31","JEVER, GM","FM-15","ETNJ ","V020","120,1,N,0021,1","22000,1,9,N","011265,1,N,1","+0080,1","+0070,1","99999,9",,"02,5,+01200,1,99,9",,,"02,99,1,99,9,99,9,99999,9,99,9,99,9","10210,1,99999,9",,,,,"MET056METAR ETNJ 290720Z 12004KT 9999 FEW040 08/07 Q1021 BLU/;",
"10122099999","2010-09-29T08:20:00","4","53.5335","7.888667","7.31","JEVER, GM","FM-15","ETNJ ","V020","120,1,N,0026,1","22000,1,9,N","011265,1,N,1","+0110,1","+0080,1","99999,9",,"02,5,+01200,1,99,9",,,"02,99,1,99,9,99,9,99999,9,99,9,99,9","10220,1,99999,9",,,,,"MET056METAR ETNJ 290820Z 12005KT 9999 FEW040 11/08 Q1022 BLU/;",
"10122099999","2010-09-29T09:20:00","4","53.5335","7.888667","7.31","JEVER, GM","FM-15","ETNJ ","V020","120,1,N,0041,1","22000,1,9,N","011265,1,N,1","+0130,1","+0050,1","99999,9",,"02,5,+00600,1,99,9",,,"02,99,1,99,9,99,9,99999,9,99,9,99,9","10220,1,99999,9",,,,,"MET056METAR ETNJ 290920Z 12008KT 9999 FEW020 13/05 Q1022 BLU/;",
"10122099999","2010-09-29T10:20:00","4","53.5335","7.888667","7.31","JEVER, GM","FM-15","ETNJ ","V020","130,1,N,0046,1","22000,1,9,N","011265,1,N,1","+0140,1","+0060,1","99999,9",,"02,5,+00690,1,99,9",,,"02,99,1,99,9,99,9,99999,9,99,9,99,9","10210,1,99999,9",,,,,"MET056METAR ETNJ 291020Z 13009KT 9999 FEW023 14/06 Q1021 BLU/;",
"10122099999","2010-09-29T11:20:00","4","53.5335","7.888667","7.31","JEVER, GM","FM-15","ETNJ ","V020","130,1,N,0036,1","22000,1,9,N","011265,1,N,1","+0140,1","+0040,1","99999,9",,"02,5,+00900,1,99,9",,,"02,99,1,99,9,99,9,99999,9,99,9,99,9","10210,1,99999,9",,,,,"MET056METAR ETNJ 291120Z 13007KT 9999 FEW030 14/04 Q1021 BLU/;",
"10122099999","2010-09-29T12:20:00","4","53.5335","7.888667","7.31","JEVER, GM","FM-15","ETNJ ","V020","140,1,N,0036,1","22000,1,9,N","011265,1,N,1","+0140,1","+0050,1","99999,9",,"02,5,+01050,1,99,9",,,"02,99,1,99,9,99,9,99999,9,99,9,99,9","10210,1,99999,9",,,,,"MET056METAR ETNJ 291220Z 14007KT 9999 FEW035 14/05 Q1021 BLU/;",
"10122099999","2010-09-29T13:20:00","4","53.5335","7.888667","7.31","JEVER, GM","FM-15","ETNJ ","V020","120,1,N,0036,1","99999,9,C,N","011265,1,N,1","+0130,1","+0040,1","99999,9",,"02,5,+01050,1,99,9","04,5,+01470,1,99,9",,"04,99,1,99,9,99,9,99999,9,99,9,99,9","10210,1,99999,9",,,,,"MET063METAR ETNJ 291320Z 12007KT 9999 FEW035 SCT049 13/04 Q1021 BLU/;","P01 014703SCOCIG"
"10122099999","2010-09-30T05:20:00","4","53.5335","7.888667","7.31","JEVER, GM","FM-15","ETNJ ","V020","120,1,N,0031,1","99999,9,C,N","011265,1,N,1","+0050,1","+0040,1","99999,9",,"02,5,+01500,1,99,9","04,5,+07500,1,99,9",,"04,99,1,99,9,99,9,99999,9,99,9,99,9","10190,1,99999,9",,,,,"MET063METAR ETNJ 300520Z 12006KT 9999 FEW050 SCT250 05/04 Q1019 BLU/;","P01 075003SCOCIG"
"10122099999","2010-09-30T06:20:00","4","53.5335","7.888667","7.31","JEVER, GM","FM-15","ETNJ ","V020","140,1,N,0036,1","22000,1,9,N","011265,1,N,1","+0060,1","+0050,1","99999,9",,"04,5,+07500,1,99,9",,,"04,99,1,99,9,99,9,99999,9,99,9,99,9","10190,1,99999,9",,,,,"MET056METAR ETNJ 300620Z 14007KT 9999 SCT250 06/05 Q1019 BLU/;",
"10122099999","2010-09-30T07:20:00","4","53.5335","7.888667","7.31","JEVER, GM","FM-15","ETNJ ","V020","130,1,N,0046,1","22000,1,9,N","011265,1,N,1","+0090,1","+0070,1","99999,9",,"04,5,+07500,1,99,9",,,"04,99,1,99,9,99,9,99999,9,99,9,99,9","10180,1,99999,9",,,,,"MET056METAR ETNJ 300720Z 13009KT 9999 SCT250 09/07 Q1018 BLU/;",
"10122099999","2010-09-30T08:20:00","4","53.5335","7.888667","7.31","JEVER, GM","FM-15","ETNJ ","V020","130,1,N,0051,1","22000,1,9,N","011265,1,N,1","+0090,1","+0060,1","99999,9",,"04,5,+08400,1,99,9",,,"04,99,1,99,9,99,9,99999,9,99,9,99,9","10180,1,99999,9",,,,,"MET056METAR ETNJ 300820Z 13010KT 9999 SCT280 09/06 Q1018 BLU/;",
"10122099999","2010-09-30T09:20:00","4","53.5335","7.888667","7.31","JEVER, GM","FM-15","ETNJ ","V020","130,1,N,0067,1","22000,1,9,N","011265,1,N,1","+0110,1","+0070,1","99999,9",,"04,5,+08400,1,99,9",,,"04,99,1,99,9,99,9,99999,9,99,9,99,9","10180,1,99999,9",,,,,"MET056METAR ETNJ 300920Z 13013KT 9999 SCT280 11/07 Q1018 BLU/;",
"10122099999","2010-09-30T10:20:00","4","53.5335","7.888667","7.31","JEVER, GM","FM-15","ETNJ ","V020","120,1,N,0067,1","06900,1,C,N","011265,1,N,1","+0120,1","+0060,1","99999,9",,"02,5,+00900,1,99,9","07,5,+06900,1,99,9",,"07,99,1,99,9,99,9,99999,9,99,9,99,9","10169,1,99999,9",,,,,"MET063METAR ETNJ 301020Z 12013KT 9999 FEW030 BKN230 12/06 Q1017 BLU/;",
"10122099999","2010-09-30T11:20:00","4","53.5335","7.888667","7.31","JEVER, GM","FM-15","ETNJ ","V020","120,1,N,0072,1","06900,1,C,N","011265,1,N,1","+0130,1","+0060,1","99999,9",,"02,5,+00900,1,99,9","07,5,+06900,1,99,9",,"07,99,1,99,9,99,9,99999,9,99,9,99,9","10169,1,99999,9",,,,,"MET063METAR ETNJ 301120Z 12014KT 9999 FEW030 BKN230 13/06 Q1017 BLU/;",
"10122099999","2010-09-30T12:20:00","4","53.5335","7.888667","7.31","JEVER, GM","FM-15","ETNJ ","V020","130,1,N,0072,1","06900,1,C,N","011265,1,N,1","+0130,1","+0050,1","99999,9",,"02,5,+00900,1,99,9","07,5,+06900,1,99,9",,"07,99,1,99,9,99,9,99999,9,99,9,99,9","10159,1,99999,9",,,,,"MET063METAR ETNJ 301220Z 13014KT 9999 FEW030 BKN230 13/05 Q1016 BLU/;",
"10122099999","2010-09-30T13:20:00","4","53.5335","7.888667","7.31","JEVER, GM","FM-15","ETNJ ","V020","130,1,N,0067,1","06900,1,C,N","011265,1,N,1","+0140,1","+0040,1","99999,9",,"02,5,+00900,1,99,9","07,5,+06900,1,99,9",,"07,99,1,99,9,99,9,99999,9,99,9,99,9","10159,1,99999,9",,,,,"MET063METAR ETNJ 301320Z 13013KT 9999 FEW030 BKN230 14/04 Q1016 BLU/;",
"10122099999","2010-10-11T05:20:00","4","53.5335","7.888667","7.31","JEVER, GM","FM-15","ETNJ ","V020","060,1,N,0005,1","22000,1,9,N","000150,1,N,1","+0010,1","+0010,1","99999,9",,"02,5,+04500,1,99,9",,,"02,99,1,99,9,99,9,99999,9,99,9,99,9","10190,1,99999,9","44,1",,,,"MET058METAR ETNJ 110520Z 06001KT 0150 FG FEW150 01/01 Q1019 RED;",
"10122099999","2010-10-11T05:46:00","4","53.5335","7.888667","7.31","JEVER, GM","FM-16","ETNJ ","V020","090,1,N,0010,1","22000,1,9,N","000700,1,N,1","+0010,1","+0010,1","99999,9",,"02,5,+07500,1,99,9",,,"02,99,1,99,9,99,9,99999,9,99,9,99,9","10190,1,99999,9","44,1",,,,"MET058SPECI ETNJ 110546Z 09002KT 0700 FG FEW250 01/01 Q1019 RED;",
"10122099999","2010-10-11T06:20:00","4","53.5335","7.888667","7.31","JEVER, GM","FM-15","ETNJ ","V020","090,1,N,0010,1","22000,1,9,N","001200,1,N,1","+0010,1","+0010,1","99999,9",,"02,5,+07500,1,99,9",,,"02,99,1,99,9,99,9,99999,9,99,9,99,9","10190,1,99999,9","10,1","12,1",,,"MET063METAR ETNJ 110620Z 09002KT 1200 MIFG BR FEW250 01/01 Q1019 AMB;",
"10122099999","2010-10-11T07:20:00","4","53.5335","7.888667","7.31","JEVER, GM","FM-15","ETNJ ","V020","080,1,N,0015,1","22000,1,9,N","002000,1,N,1","+0070,1","+0060,1","99999,9",,"02,5,+07500,1,99,9",,,"02,99,1,99,9,99,9,99999,9,99,9,99,9","10200,1,99999,9","10,1",,,,"MET058METAR ETNJ 110720Z 08003KT 2000 BR FEW250 07/06 Q1020 YLO;",
"10122099999","2010-10-11T08:01:00","4","53.5335","7.888667","7.31","JEVER, GM","FM-16","ETNJ ","V020","070,1,N,0026,1","00030,1,C,N","000600,1,N,1","+0090,1","+0090,1","99999,9",,"07,5,+00030,1,99,9",,,"07,99,1,99,9,99,9,99999,9,99,9,99,9","10200,1,99999,9","44,1",,,,"MET068SPECI ETNJ 110801Z 07005KT 0600 R28/0600D FG BKN001 09/09 Q1020 RED;",
"10122099999","2010-10-11T08:05:00","4","53.5335","7.888667","7.31","JEVER, GM","FM-16","ETNJ ","V020","070,1,N,0026,1","00015,1,9,N","000250,1,N,1","+0080,1","+0080,1","99999,9",,"09,1,+00015,1,99,9",,,"09,99,1,99,9,99,9,00025,1,99,9,99,9","10200,1,99999,9","45,1",,,,"MET067SPECI ETNJ 110805Z 07005KT 0250 R28/0250D FG VV000 08/08 Q1020 RED;",
"10122099999","2010-10-11T08:20:00","4","53.5335","7.888667","7.31","JEVER, GM","FM-15","ETNJ ","V020","080,1,N,0026,1","00015,1,9,N","000250,1,N,1","+0080,1","+0080,1","99999,9",,"09,1,+00015,1,99,9",,,"09,99,1,99,9,99,9,00025,1,99,9,99,9","10200,1,99999,9","45,1",,,,"MET067METAR ETNJ 110820Z 08005KT 0250 R28/0300N FG VV000 08/08 Q1020 RED;",
"10122099999","2010-10-11T09:20:00","4","53.5335","7.888667","7.31","JEVER, GM","FM-15","ETNJ ","V020","080,1,N,0031,1","00015,1,9,N","000250,1,N,1","+0080,1","+0070,1","99999,9",,"09,1,+00015,1,99,9",,,"09,99,1,99,9,99,9,00025,1,99,9,99,9","10200,1,99999,9","45,1",,,,"MET067METAR ETNJ 110920Z 08006KT 0250 R28/0300N FG VV000 08/07 Q1020 RED;",
"10122099999","2010-10-11T10:01:00","4","53.5335","7.888667","7.31","JEVER, GM","FM-16","ETNJ ","V020","080,1,N,0026,1","00120,1,C,N","001600,1,N,1","+0090,1","+0090,1","99999,9",,"07,5,+00120,1,99,9",,,"07,99,1,99,9,99,9,99999,9,99,9,99,9","10200,1,99999,9","10,1",,,,"MET068SPECI ETNJ 111001Z 08005KT 1600 R10/2200N BR BKN004 09/09 Q1020 YLO;",
"10122099999","2010-10-11T10:20:00","4","53.5335","7.888667","7.31","JEVER, GM","FM-15","ETNJ ","V020","070,1,N,0031,1","00210,1,C,N","003000,1,N,1","+0090,1","+0080,1","99999,9",,"07,5,+00210,1,99,9",,,"07,99,1,99,9,99,9,99999,9,99,9,99,9","10200,1,99999,9","10,1",,,,"MET058METAR ETNJ 111020Z 07006KT 3000 BR BKN007 09/08 Q1020 YLO;",
"10122099999","2010-10-11T10:46:00","4","53.5335","7.888667","7.31","JEVER, GM","FM-16","ETNJ ","V020","080,1,N,0031,1","00360,1,C,N","004000,1,N,1","+0090,1","+0070,1","99999,9",,"04,5,+00240,1,99,9","07,5,+00360,1,99,9",,"07,99,1,99,9,99,9,99999,9,99,9,99,9","10210,1,99999,9","10,1",,,,"MET065SPECI ETNJ 111046Z 08006KT 4000 BR SCT008 BKN012 09/07 Q1021 GRN;",
"10122099999","2010-10-11T11:20:00","4","53.5335","7.888667","7.31","JEVER, GM","FM-15","ETNJ ","V020","070,1,N,0031,1","00300,1,C,N","005000,1,N,1","+0100,1","+0070,1","99999,9",,"07,5,+00300,1,99,9",,,"07,99,1,99,9,99,9,99999,9,99,9,99,9","10200,1,99999,9","10,1",,,,"MET058METAR ETNJ 111120Z 07006KT 5000 BR BKN010 10/07 Q1020 GRN;",
"10122099999","2010-10-11T11:50:00","4","53.5335","7.888667","7.31","JEVER, GM","FM-16","ETNJ ","V020","080,1,N,0036,1","22000,1,9,N","006000,1,N,1","+0110,1","+0080,1","99999,9",,"04,5,+00360,1,99,9",,,"04,99,1,99,9,99,9,99999,9,99,9,99,9","10200,1,99999,9",,,,,"MET055SPECI ETNJ 111150Z 08007KT 6000 SCT012 11/08 Q1020 WHT;",
"10122099999","2010-10-11T12:20:00","4","53.5335","7.888667","7.31","JEVER, GM","FM-15","ETNJ ","V020","060,1,N,0026,1","22000,1,9,N","007000,1,N,1","+0120,1","+0080,1","99999,9",,"02,5,+00450,1,99,9",,,"02,99,1,99,9,99,9,99999,9,99,9,99,9","10200,1,99999,9",,,,,"MET055METAR ETNJ 111220Z 06005KT 7000 FEW015 12/08 Q1020 WHT;",
"10122099999","2010-10-11T13:20:00","4","53.5335","7.888667","7.31","JEVER, GM","FM-15","ETNJ ","V020","050,1,N,0026,1","22000,1,9,N","007000,1,N,1","+0120,1","+0070,1","99999,9",,"02,5,+00450,1,99,9",,,"02,99,1,99,9,99,9,99999,9,99,9,99,9","10190,1,99999,9",,,,,"MET055METAR ETNJ 111320Z 05005KT 7000 FEW015 12/07 Q1019 WHT;",
"10122099999","2010-10-13T05:20:00","4","53.5335","7.888667","7.31","JEVER, GM","FM-15","ETNJ ","V020","170,1,N,0021,1","01320,1,C,N","006000,1,N,1","+0080,1","+0070,1","99999,9",,"07,5,+01320,1,99,9",,,"07,99,1,99,9,99,9,99999,9,99,9,99,9","10180,1,99999,9",,,,,"MET055METAR ETNJ 130520Z 17004KT 6000 BKN044 08/07 Q1018 WHT;",
"10122099999","2010-10-13T06:20:00","4","53.5335","7.888667","7.31","JEVER, GM","FM-15","ETNJ ","V020","150,1,N,0031,1","01290,1,C,N","006000,1,N,1","+0080,1","+0070,1","99999,9",,"07,5,+01290,1,99,9",,,"07,99,1,99,9,99,9,99999,9,99,9,99,9","10180,1,99999,9",,,,,"MET055METAR ETNJ 130620Z 15006KT 6000 BKN043 08/07 Q1018 WHT;",
"10122099999","2010-10-13T07:20:00","4","53.5335","7.888667","7.31","JEVER, GM","FM-15","ETNJ ","V020","160,1,N,0021,1","01260,1,C,N","007000,1,N,1","+0090,1","+0080,1","99999,9",,"07,5,+01260,1,99,9",,,"07,99,1,99,9,99,9,99999,9,99,9,99,9","10190,1,99999,9",,,,,"MET055METAR ETNJ 130720Z 16004KT 7000 BKN042 09/08 Q1019 WHT;",
"10122099999","2010-10-13T08:20:00","4","53.5335","7.888667","7.31","JEVER, GM","FM-15","ETNJ ","V020","170,1,N,0021,1","22000,1,9,N","008000,1,N,1","+0120,1","+0080,1","99999,9",,"04,5,+01260,1,99,9",,,"04,99,1,99,9,99,9,99999,9,99,9,99,9","10190,1,99999,9",,,,,"MET056METAR ETNJ 130820Z 17004KT 8000 SCT042 12/08 Q1019 BLU/;",
"10122099999","2010-10-13T09:20:00","4","53.5335","7.888667","7.31","JEVER, GM","FM-15","ETNJ ","V020","180,1,N,0026,1","22000,1,9,N","011265,1,N,1","+0130,1","+0060,1","99999,9",,"02,5,+07500,1,99,9",,,"02,99,1,99,9,99,9,99999,9,99,9,99,9","10190,1,99999,9",,,,,"MET056METAR ETNJ 130920Z 18005KT 9999 FEW250 13/06 Q1019 BLU/;",
"10122099999","2010-10-13T10:20:00","4","53.5335","7.888667","7.31","JEVER, GM","FM-15","ETNJ ","V020","170,1,N,0026,1","22000,1,9,N","011265,1,N,1","+0150,1","+0070,1","99999,9",,"04,5,+07500,1,99,9",,,"04,99,1,99,9,99,9,99999,9,99,9,99,9","10190,1,99999,9",,,,,"MET056METAR ETNJ 131020Z 17005KT 9999 SCT250 15/07 Q1019 BLU/;",
"10122099999","2010-10-13T11:20:00","4","53.5335","7.888667","7.31","JEVER, GM","FM-15","ETNJ ","V020","120,1,N,0021,1","99999,9,C,N","011265,1,N,1","+0140,1","+0050,1","99999,9",,"02,5,+01500,1,99,9","04,5,+07500,1,99,9",,"04,99,1,99,9,99,9,99999,9,99,9,99,9","10190,1,99999,9",,,,,"MET063METAR ETNJ 131120Z 12004KT 9999 FEW050 SCT250 14/05 Q1019 BLU/;","P01 075003SCOCIG"
"10122099999","2010-10-13T12:20:00","4","53.5335","7.888667","7.31","JEVER, GM","FM-15","ETNJ ","V020","120,1,N,0015,1","99999,9,C,N","011265,1,N,1","+0140,1","+0050,1","99999,9",,"02,5,+01080,1,99,9","04,5,+07500,1,99,9",,"04,99,1,99,9,99,9,99999,9,99,9,99,9","10190,1,99999,9",,,,,"MET063METAR ETNJ 131220Z 12003KT 9999 FEW036 SCT250 14/05 Q1019 BLU/;","P01 075003SCOCIG"
"10122099999","2010-10-13T13:20:00","4","53.5335","7.888667","7.31","JEVER, GM","FM-15","ETNJ ","V020","070,1,N,0015,1","22000,1,9,N","009000,1,N,1","+0140,1","+0050,1","99999,9",,"02,5,+01050,1,99,9",,,"02,99,1,99,9,99,9,99999,9,99,9,99,9","10180,1,99999,9",,,,,"MET056METAR ETNJ 131320Z 07003KT 9000 FEW035 14/05 Q1018 BLU/;",
"10122099999","2010-10-25T05:20:00","4","53.5335","7.888667","7.31","JEVER, GM","FM-15","ETNJ ","V020","320,1,N,0046,1","99999,9,C,N","011265,1,N,1","+0070,1","+0020,1","99999,9",,"02,5,+00600,1,09,1","04,5,+02400,1,99,9",,"04,99,1,99,9,99,9,99999,9,99,9,99,9","10159,1,99999,9",,,,,"MET079METAR ETNJ 250520Z 32009KT 9999 FEW020CB SCT080 07/02 Q1016 BLU/BLU/ TEMPO GRN;","P01 024003SCOCIG"
"10122099999","2010-10-25T06:20:00","4","53.5335","7.888667","7.31","JEVER, GM","FM-15","ETNJ ","V020","300,1,N,0036,1","01140,1,C,N","011265,1,N,1","+0060,1","+0020,1","99999,9",,"02,5,+00750,1,02,1","07,5,+01140,1,99,9",,"07,99,1,99,9,99,9,99999,9,99,9,99,9","10180,1,99999,9","16,1",,,,"MET085METAR ETNJ 250620Z 30007KT 9999 VCSH FEW025TCU BKN038 06/02 Q1018 BLU BLU/ TEMPO GRN;",
"10122099999","2010-10-25T07:20:00","4","53.5335","7.888667","7.31","JEVER, GM","FM-15","ETNJ ","V020","290,1,N,0051,1","01200,1,C,N","011265,1,N,1","+0060,1","+0030,1","99999,9",,"02,5,+00600,1,02,1","07,5,+01200,1,99,9",,"07,99,1,99,9,99,9,99999,9,99,9,99,9","10190,1,99999,9","80,1",,,,"MET091METAR ETNJ 250720Z 29010KT 9999 -SHRA FEW020TCU BKN040 06/03 Q1019 RERA BLU BLU/ TEMPO GRN;",
"10122099999","2010-10-25T08:20:00","4","53.5335","7.888667","7.31","JEVER, GM","FM-15","ETNJ ","V020","330,1,N,0031,1","01200,1,C,N","011265,1,N,1","+0080,1","+0030,1","99999,9",,"04,5,+00900,1,09,1","07,5,+01200,1,99,9",,"07,99,1,99,9,99,9,99999,9,99,9,99,9","10200,1,99999,9","80,1",,,,"MET085METAR ETNJ 250820Z 33006KT 9999 -SHRA SCT030CB BKN040 08/03 Q1020 BLU BLU/ TEMPO GRN;",
"10122099999","2010-10-25T09:20:00","4","53.5335","7.888667","7.31","JEVER, GM","FM-15","ETNJ ","V020","350,1,N,0021,1","22000,1,9,N","011265,1,N,1","+0090,1","+0050,1","99999,9",,"04,5,+00900,1,02,1",,,"04,99,1,99,9,99,9,99999,9,99,9,99,9","10210,1,99999,9",,,,,"MET073METAR ETNJ 250920Z 35004KT 9999 SCT030TCU 09/05 Q1021 BLU/BLU/ TEMPO GRN;",
"10122099999","2010-10-25T10:20:00","4","53.5335","7.888667","7.31","JEVER, GM","FM-15","ETNJ ","V020","330,1,N,0041,1","22000,1,9,N","011265,1,N,1","+0090,1","+0040,1","99999,9",,"02,5,+00600,1,09,1",,,"02,99,1,99,9,99,9,99999,9,99,9,99,9","10210,1,99999,9",,,,,"MET072METAR ETNJ 251020Z 33008KT 9999 FEW020CB 09/04 Q1021 BLU/BLU/ TEMPO GRN;",
"10122099999","2010-10-25T11:20:00","4","53.5335","7.888667","7.31","JEVER, GM","FM-15","ETNJ ","V020","320,1,N,0031,1","22000,1,9,N","011265,1,N,1","+0100,1","+0050,1","99999,9",,"02,5,+00660,1,09,1",,,"02,99,1,99,9,99,9,99999,9,99,9,99,9","10220,1,99999,9",,,,,"MET077METAR ETNJ 251120Z 32006KT 9999 FEW022CB 10/05 Q1022 RERA BLU/BLU/ TEMPO GRN;",
"10122099999","2010-10-25T12:20:00","4","53.5335","7.888667","7.31","JEVER, GM","FM-15","ETNJ ","V020","320,1,N,0046,1","99999,9,C,N","011265,1,N,1","+0110,1","+0030,1","99999,9",,"02,5,+00660,1,02,1","04,5,+01260,1,99,9",,"04,99,1,99,9,99,9,99999,9,99,9,99,9","10220,1,99999,9",,,,,"MET080METAR ETNJ 251220Z 32009KT 9999 FEW022TCU SCT042 11/03 Q1022 BLU/BLU/ TEMPO GRN;","P01 012603SCOCIG"
"10122099999","2010-10-25T13:20:00","4","53.5335","7.888667","7.31","JEVER, GM","FM-15","ETNJ ","V020","300,1,N,0077,1","22000,1,9,N","011265,1,N,1","+0100,1","+0040,1","99999,9",,"02,5,+00840,1,99,9",,,"02,99,1,99,9,99,9,99999,9,99,9,99,9","10220,1,99999,9",,,,,"MET070METAR ETNJ 251320Z 30015KT 9999 FEW028 10/04 Q1022 BLU/BLU/ TEMPO GRN;",
"10122099999","2010-10-25T14:00:00","4","53.5335","7.888667","7.31","JEVER, GM","FM-16","ETNJ ","V020","300,1,N,0072,1","22000,1,9,N","011265,1,N,1","+0100,1","+0030,1","99999,9",,"02,5,+00840,1,99,9",,,"02,99,1,99,9,99,9,99999,9,99,9,99,9","10210,1,99999,9",,,,,"MET067SPECI ETNJ 251400Z 30014KT 9999 FEW028 10/03 Q1021 BLU/FCST CANCEL;",
"10122099999","2010-10-26T05:20:00","4","53.5335","7.888667","7.31","JEVER, GM","FM-15","ETNJ ","V020","999,9,V,0010,1","01080,1,C,N","011265,1,N,1","+0070,1","+0060,1","99999,9",,"02,5,+00600,1,99,9","07,5,+01080,1,99,9",,"07,99,1,99,9,99,9,99999,9,99,9,99,9","10251,1,99999,9",,,,,"MET076METAR ETNJ 260520Z VRB02KT 9999 FEW020 BKN036 07/06 Q1025 BLU BLU TEMPO WHT;",
"10122099999","2010-10-26T06:20:00","4","53.5335","7.888667","7.31","JEVER, GM","FM-15","ETNJ ","V020","999,9,V,0005,1","01050,1,C,N","011265,1,N,1","+0070,1","+0060,1","99999,9",,"02,5,+00840,1,99,9","07,5,+01050,1,99,9",,"07,99,1,99,9,99,9,99999,9,99,9,99,9","10251,1,99999,9",,,,,"MET076METAR ETNJ 260620Z VRB01KT 9999 FEW028 BKN035 07/06 Q1025 BLU BLU TEMPO WHT;",
"10122099999","2010-10-26T07:20:00","4","53.5335","7.888667","7.31","JEVER, GM","FM-15","ETNJ ","V020","240,1,N,0031,1","99999,9,C,N","011265,1,N,1","+0060,1","+0050,1","99999,9",,"04,5,+00750,1,02,1","04,5,+01200,1,99,9",,"04,99,1,99,9,99,9,99999,9,99,9,99,9","10261,1,99999,9","80,1",,,,"MET085METAR ETNJ 260720Z 24006KT 9999 -SHRA SCT025TCU SCT040 06/05 Q1026 BLU/BLU TEMPO WHT;","P01 012003SCOCIG"
"10122099999","2010-10-26T08:20:00","4","53.5335","7.888667","7.31","JEVER, GM","FM-15","ETNJ ","V020","220,1,N,0031,1","99999,9,C,N","011265,1,N,1","+0070,1","+0060,1","99999,9",,"04,5,+00900,1,99,9","04,5,+06600,1,99,9",,"04,99,1,99,9,99,9,99999,9,99,9,99,9","10261,1,99999,9",,,,,"MET066METAR ETNJ 260820Z 22006KT 9999 SCT030 SCT220 07/06 Q1026 BLU/BLU;","P01 066003SCOCIG"
"10122099999","2010-10-26T09:20:00","4","53.5335","7.888667","7.31","JEVER, GM","FM-15","ETNJ ","V020","250,1,N,0026,1","01500,1,C,N","011265,1,N,1","+0080,1","+0060,1","99999,9",,"04,5,+01200,1,99,9","04,5,+01500,1,99,9","07,5,+06600,1,99,9","07,99,1,99,9,99,9,99999,9,99,9,99,9","10261,1,99999,9",,,,,"MET073METAR ETNJ 260920Z 25005KT 9999 SCT040 SCT050 BKN220 08/06 Q1026 BLU/BLU;",
"10122099999","2010-10-26T10:20:00","4","53.5335","7.888667","7.31","JEVER, GM","FM-15","ETNJ ","V020","240,1,N,0031,1","01800,1,C,N","011265,1,N,1","+0090,1","+0060,1","99999,9",,"04,5,+01050,1,99,9","04,5,+01800,1,99,9","07,5,+06600,1,99,9","07,99,1,99,9,99,9,99999,9,99,9,99,9","10261,1,99999,9",,,,,"MET073METAR ETNJ 261020Z 24006KT 9999 SCT035 SCT060 BKN220 09/06 Q1026 BLU/BLU;",
"10122099999","2010-10-26T11:20:00","4","53.5335","7.888667","7.31","JEVER, GM","FM-15","ETNJ ","V020","230,1,N,0031,1","04500,1,C,N","011265,1,N,1","+0090,1","+0060,1","99999,9",,"02,5,+01050,1,99,9","07,5,+04500,1,99,9",,"07,99,1,99,9,99,9,99999,9,99,9,99,9","10261,1,99999,9",,,,,"MET066METAR ETNJ 261120Z 23006KT 9999 FEW035 BKN150 09/06 Q1026 BLU BLU;",
"10122099999","2010-10-26T12:20:00","4","53.5335","7.888667","7.31","JEVER, GM","FM-15","ETNJ ","V020","230,1,N,0031,1","04500,1,C,N","011265,1,N,1","+0090,1","+0060,1","99999,9",,"02,5,+01050,1,99,9","07,5,+04500,1,99,9",,"07,99,1,99,9,99,9,99999,9,99,9,99,9","10261,1,99999,9",,,,,"MET066METAR ETNJ 261220Z 23006KT 9999 FEW035 BKN150 09/06 Q1026 BLU BLU;",
"10122099999","2010-10-26T13:20:00","4","53.5335","7.888667","7.31","JEVER, GM","FM-15","ETNJ ","V020","220,1,N,0026,1","03600,1,C,N","011265,1,N,1","+0090,1","+0060,1","99999,9",,"02,5,+01050,1,99,9","07,5,+03600,1,99,9",,"07,99,1,99,9,99,9,99999,9,99,9,99,9","10261,1,99999,9",,,,,"MET066METAR ETNJ 261320Z 22005KT 9999 FEW035 BKN120 09/06 Q1026 BLU BLU;",
"10122099999","2010-10-26T14:00:00","4","53.5335","7.888667","7.31","JEVER, GM","FM-16","ETNJ ","V020","210,1,N,0021,1","03600,1,C,N","011265,1,N,1","+0090,1","+0060,1","99999,9",,"04,5,+01110,1,99,9","07,5,+03600,1,99,9",,"07,99,1,99,9,99,9,99999,9,99,9,99,9","10261,1,99999,9",,,,,"MET074SPECI ETNJ 261400Z 21004KT 9999 SCT037 BKN120 09/06 Q1026 BLU FCST CANCEL;",
"10122099999","2010-10-27T05:20:00","4","53.5335","7.888667","7.31","JEVER, GM","FM-15","ETNJ ","V020","200,1,N,0051,1","00150,1,C,N","004000,1,N,1","+0060,1","+0050,1","99999,9",,"07,5,+00150,1,99,9","08,5,+00240,1,99,9",,"08,99,1,99,9,99,9,99999,9,99,9,99,9","10180,1,99999,9","10,1","51,1","61,1",,"MET071METAR ETNJ 270520Z 20010KT 4000 -RADZ BR BKN005 OVC008 06/05 Q1018 YLO;",
"10122099999","2010-10-27T06:20:00","4","53.5335","7.888667","7.31","JEVER, GM","FM-15","ETNJ ","V020","210,1,N,0057,1","00150,1,C,N","003000,1,N,1","+0060,1","+0050,1","99999,9",,"07,5,+00150,1,99,9","08,5,+00240,1,99,9",,"08,99,1,99,9,99,9,99999,9,99,9,99,9","10180,1,99999,9","10,1","51,1","61,1",,"MET075METAR ETNJ 270620Z 21011KT 3000 -RADZ BR BKN005 OVC008 06/05 Q1018 YLO YLO;",
"10122099999","2010-10-27T07:20:00","4","53.5335","7.888667","7.31","JEVER, GM","FM-15","ETNJ ","V020","220,1,N,0051,1","00150,1,C,N","004000,1,N,1","+0070,1","+0060,1","99999,9",,"04,5,+00090,1,99,9","07,5,+00150,1,99,9",,"07,99,1,99,9,99,9,99999,9,99,9,99,9","10180,1,99999,9","10,1",,,,"MET069METAR ETNJ 270720Z 22010KT 4000 BR SCT003 BKN005 07/06 Q1018 YLO YLO;",
"10122099999","2010-10-27T08:20:00","4","53.5335","7.888667","7.31","JEVER, GM","FM-15","ETNJ ","V020","210,1,N,0057,1","00150,1,C,N","004000,1,N,1","+0070,1","+0060,1","99999,9",,"04,5,+00090,1,99,9","07,5,+00150,1,99,9",,"07,99,1,99,9,99,9,99999,9,99,9,99,9","10169,1,99999,9","10,1",,,,"MET069METAR ETNJ 270820Z 21011KT 4000 BR SCT003 BKN005 07/06 Q1017 YLO YLO;",
"10122099999","2010-10-27T09:20:00","4","53.5335","7.888667","7.31","JEVER, GM","FM-15","ETNJ ","V020","210,1,N,0051,1","00090,1,C,N","004000,1,N,1","+0070,1","+0070,1","99999,9",,"07,5,+00090,1,99,9",,,"07,99,1,99,9,99,9,99999,9,99,9,99,9","10169,1,99999,9","10,1",,,,"MET062METAR ETNJ 270920Z 21010KT 4000 BR BKN003 07/07 Q1017 YLO YLO;",
"10122099999","2010-10-27T10:20:00","4","53.5335","7.888667","7.31","JEVER, GM","FM-15","ETNJ ","V020","210,1,N,0046,1","00090,1,C,N","004500,1,N,1","+0080,1","+0070,1","99999,9",,"07,5,+00090,1,99,9",,,"07,99,1,99,9,99,9,99999,9,99,9,99,9","10169,1,99999,9","10,1",,,,"MET062METAR ETNJ 271020Z 21009KT 4500 BR BKN003 08/07 Q1017 YLO YLO;",
"10122099999","2010-10-27T11:20:00","4","53.5335","7.888667","7.31","JEVER, GM","FM-15","ETNJ ","V020","210,1,N,0046,1","00090,1,C,N","004500,1,N,1","+0080,1","+0070,1","99999,9",,"07,5,+00090,1,99,9",,,"07,99,1,99,9,99,9,99999,9,99,9,99,9","10169,1,99999,9","10,1",,,,"MET062METAR ETNJ 271120Z 21009KT 4500 BR BKN003 08/07 Q1017 YLO YLO;",
"10122099999","2010-10-27T12:20:00","4","53.5335","7.888667","7.31","JEVER, GM","FM-15","ETNJ ","V020","220,1,N,0051,1","00090,1,C,N","003000,1,N,1","+0080,1","+0080,1","99999,9",,"07,5,+00090,1,99,9",,,"07,99,1,99,9,99,9,99999,9,99,9,99,9","10169,1,99999,9","10,1","51,1",,,"MET066METAR ETNJ 271220Z 22010KT 3000 -DZ BR BKN003 08/08 Q1017 YLO YLO;",
"10122099999","2010-10-27T12:34:00","4","53.5335","7.888667","7.31","JEVER, GM","FM-16","ETNJ ","V020","220,1,N,0057,1","00090,1,C,N","002000,1,N,1","+0090,1","+0080,1","99999,9",,"07,5,+00090,1,99,9",,,"07,99,1,99,9,99,9,99999,9,99,9,99,9","10169,1,99999,9","10,1","51,1",,,"MET076SPECI ETNJ 271234Z 22011KT 2000 R28/1500N -DZ BR BKN003 09/08 Q1017 YLO YLO;",
"10122099999","2010-10-27T13:20:00","4","53.5335","7.888667","7.31","JEVER, GM","FM-15","ETNJ ","V020","210,1,N,0046,1","00090,1,C,N","002500,1,N,1","+0090,1","+0080,1","99999,9",,"07,5,+00090,1,99,9",,,"07,99,1,99,9,99,9,99999,9,99,9,99,9","10159,1,99999,9","10,1","51,1",,,"MET076METAR ETNJ 271320Z 21009KT 2500 R28/1700N -DZ BR BKN003 09/08 Q1016 YLO YLO;",
"10122099999","2010-10-27T14:00:00","4","53.5335","7.888667","7.31","JEVER, GM","FM-15","ETNJ ","V020","220,1,N,0046,1","00120,1,C,N","003000,1,N,1","+0090,1","+0080,1","99999,9",,"07,5,+00120,1,99,9",,,"07,99,1,99,9,99,9,99999,9,99,9,99,9","10159,1,99999,9","10,1","51,1",,,"MET074SPECI ETNJ 271357Z 22009KT 3000 -DZ BR BKN004 09/08 Q1016 YLO FCST CANCEL;",
"10122099999","2010-10-28T05:20:00","4","53.5335","7.888667","7.31","JEVER, GM","FM-15","ETNJ ","V020","220,1,N,0036,1","00090,1,C,N","003000,1,N,1","+0080,1","+0070,1","99999,9",,"07,5,+00090,1,99,9",,,"07,99,1,99,9,99,9,99999,9,99,9,99,9","10139,1,99999,9","10,1","51,1",,,"MET066METAR ETNJ 280520Z 22007KT 3000 -DZ BR BKN003 08/07 Q1014 YLO YLO;",
"10122099999","2010-10-28T06:20:00","4","53.5335","7.888667","7.31","JEVER, GM","FM-15","ETNJ ","V020","220,1,N,0046,1","00090,1,C,N","003000,1,N,1","+0090,1","+0080,1","99999,9",,"07,5,+00090,1,99,9",,,"07,99,1,99,9,99,9,99999,9,99,9,99,9","10139,1,99999,9","10,1","51,1",,,"MET066METAR ETNJ 280620Z 22009KT 3000 -DZ BR BKN003 09/08 Q1014 YLO YLO;",
"10122099999","2010-10-28T07:20:00","4","53.5335","7.888667","7.31","JEVER, GM","FM-15","ETNJ ","V020","230,1,N,0046,1","00120,1,C,N","004500,1,N,1","+0090,1","+0080,1","99999,9",,"07,5,+00120,1,99,9","07,5,+00180,1,99,9",,"07,99,1,99,9,99,9,99999,9,99,9,99,9","10139,1,99999,9","10,1",,,,"MET069METAR ETNJ 280720Z 23009KT 4500 BR BKN004 BKN006 09/08 Q1014 YLO YLO;",
"10122099999","2010-10-28T07:53:00","4","53.5335","7.888667","7.31","JEVER, GM","FM-16","ETNJ ","V020","230,1,N,0051,1","00180,1,C,N","006000,1,N,1","+0090,1","+0080,1","99999,9",,"02,5,+00120,1,99,9","07,5,+00180,1,99,9","07,5,+00330,1,99,9","07,99,1,99,9,99,9,99999,9,99,9,99,9","10139,1,99999,9",,,,,"MET073SPECI ETNJ 280753Z 23010KT 6000 FEW004 BKN006 BKN011 09/08 Q1014 YLO YLO;",
"10122099999","2010-10-28T08:23:00","4","53.5335","7.888667","7.31","JEVER, GM","FM-16","ETNJ ","V020","230,1,N,0057,1","00180,1,C,N","006000,1,N,1","+0100,1","+0080,1","99999,9",,"02,5,+00120,1,99,9","07,5,+00180,1,99,9","07,5,+00330,1,99,9","07,99,1,99,9,99,9,99999,9,99,9,99,9","10139,1,99999,9",,,,,"MET073SPECI ETNJ 280823Z 23011KT 6000 FEW004 BKN006 BKN011 10/08 Q1014 YLO YLO;",
"10122099999","2010-10-28T09:20:00","4","53.5335","7.888667","7.31","JEVER, GM","FM-15","ETNJ ","V020","230,1,N,0057,1","00180,1,C,N","006000,1,N,1","+0100,1","+0090,1","99999,9",,"07,5,+00180,1,99,9","07,5,+00390,1,99,9",,"07,99,1,99,9,99,9,99999,9,99,9,99,9","10139,1,99999,9",,,,,"MET076METAR ETNJ 280920Z 23011KT 6000 BKN006 BKN013 10/09 Q1014 YLO YLO BECMG GRN;",
"10122099999","2010-10-28T10:20:00","4","53.5335","7.888667","7.31","JEVER, GM","FM-15","ETNJ ","V020","220,1,N,0057,1","00390,1,C,N","006000,1,N,1","+0110,1","+0090,1","99999,9",,"04,5,+00240,1,99,9","07,5,+00390,1,99,9","07,5,+00900,1,99,9","07,99,1,99,9,99,9,99999,9,99,9,99,9","10139,1,99999,9",,,,,"MET073METAR ETNJ 281020Z 22011KT 6000 SCT008 BKN013 BKN030 11/09 Q1014 GRN GRN;",
"10122099999","2010-10-28T11:20:00","4","53.5335","7.888667","7.31","JEVER, GM","FM-15","ETNJ ","V020","230,1,N,0062,1","00300,1,C,N","006000,1,N,1","+0120,1","+0090,1","99999,9",,"07,5,+00300,1,99,9","07,5,+00900,1,99,9",,"07,99,1,99,9,99,9,99999,9,99,9,99,9","10139,1,99999,9",,,,,"MET066METAR ETNJ 281120Z 23012KT 6000 BKN010 BKN030 12/09 Q1014 GRN GRN;",
"10122099999","2010-10-28T12:20:00","4","53.5335","7.888667","7.31","JEVER, GM","FM-15","ETNJ ","V020","240,1,N,0051,1","00360,1,C,N","006000,1,N,1","+0120,1","+0090,1","99999,9",,"07,5,+00360,1,99,9","07,5,+00480,1,99,9",,"07,99,1,99,9,99,9,99999,9,99,9,99,9","10139,1,99999,9",,,,,"MET066METAR ETNJ 281220Z 24010KT 6000 BKN012 BKN016 12/09 Q1014 GRN GRN;",
"10122099999","2010-10-28T13:20:00","4","53.5335","7.888667","7.31","JEVER, GM","FM-15","ETNJ ","V020","230,1,N,0057,1","00330,1,C,N","007000,1,N,1","+0120,1","+0100,1","99999,9",,"07,5,+00330,1,99,9","07,5,+00450,1,99,9",,"07,99,1,99,9,99,9,99999,9,99,9,99,9","10139,1,99999,9",,,,,"MET066METAR ETNJ 281320Z 23011KT 7000 BKN011 BKN015 12/10 Q1014 GRN GRN;",
"10122099999","2010-10-28T14:00:00","4","53.5335","7.888667","7.31","JEVER, GM","FM-16","ETNJ ","V020","230,1,N,0046,1","00360,1,C,N","005000,1,N,1","+0110,1","+0100,1","99999,9",,"07,5,+00360,1,99,9",,,"07,99,1,99,9,99,9,99999,9,99,9,99,9","10139,1,99999,9","10,1","51,1","61,1",,"MET076SPECI ETNJ 281400Z 23009KT 5000 -RADZ BR BKN012 11/10 Q1014 GRN FCST CANCEL;",
"10122099999","2010-11-01T06:20:00","4","53.5335","7.888667","7.31","JEVER, GM","FM-15","ETNJ ","V020","090,1,N,0021,1","00090,1,C,N","002000,1,N,1","+0090,1","+0080,1","99999,9",,"07,5,+00090,1,99,9",,,"07,99,1,99,9,99,9,99999,9,99,9,99,9","10091,1,99999,9","10,1",,,,"MET058METAR ETNJ 010620Z 09004KT 2000 BR BKN003 09/08 Q1009 YLO;",
"10122099999","2010-11-01T07:20:00","4","53.5335","7.888667","7.31","JEVER, GM","FM-15","ETNJ ","V020","040,1,N,0010,1","00090,1,C,N","002500,1,N,1","+0090,1","+0080,1","99999,9",,"07,5,+00090,1,99,9",,,"07,99,1,99,9,99,9,99999,9,99,9,99,9","10102,1,99999,9","10,1",,,,"MET068METAR ETNJ 010720Z 04002KT 2500 R10/1800N BR BKN003 09/08 Q1010 YLO;",
"10122099999","2010-11-01T08:20:00","4","53.5335","7.888667","7.31","JEVER, GM","FM-15","ETNJ ","V020","020,1,N,0015,1","00120,1,C,N","002000,1,N,1","+0090,1","+0080,1","99999,9",,"07,5,+00120,1,99,9",,,"07,99,1,99,9,99,9,99999,9,99,9,99,9","10102,1,99999,9","10,1",,,,"MET068METAR ETNJ 010820Z 02003KT 2000 R10/1700N BR BKN004 09/08 Q1010 YLO;",
"10122099999","2010-11-01T09:20:00","4","53.5335","7.888667","7.31","JEVER, GM","FM-15","ETNJ ","V020","020,1,N,0021,1","00120,1,C,N","001800,1,N,1","+0090,1","+0080,1","99999,9",,"02,5,+00090,1,99,9","07,5,+00120,1,99,9",,"07,99,1,99,9,99,9,99999,9,99,9,99,9","10108,1,99999,9","10,1",,,,"MET075METAR ETNJ 010920Z 02004KT 1800 R10/1700N BR FEW003 BKN004 09/08 Q1011 YLO;",
"10122099999","2010-11-01T10:20:00","4","53.5335","7.888667","7.31","JEVER, GM","FM-15","ETNJ ","V020","020,1,N,0026,1","00090,1,C,N","001800,1,N,1","+0090,1","+0080,1","99999,9",,"07,5,+00090,1,99,9",,,"07,99,1,99,9,99,9,99999,9,99,9,99,9","10108,1,99999,9","10,1",,,,"MET068METAR ETNJ 011020Z 02005KT 1800 R10/1700N BR BKN003 09/08 Q1011 YLO;",
"10122099999","2010-11-01T11:20:00","4","53.5335","7.888667","7.31","JEVER, GM","FM-15","ETNJ ","V020","020,1,N,0021,1","00120,1,C,N","003000,1,N,1","+0090,1","+0080,1","99999,9",,"07,5,+00120,1,99,9",,,"07,99,1,99,9,99,9,99999,9,99,9,99,9","10108,1,99999,9","10,1",,,,"MET058METAR ETNJ 011120Z 02004KT 3000 BR BKN004 09/08 Q1011 YLO;",
"10122099999","2010-11-01T12:20:00","4","53.5335","7.888667","7.31","JEVER, GM","FM-15","ETNJ ","V020","060,1,N,0021,1","00150,1,C,N","004000,1,N,1","+0090,1","+0080,1","99999,9",,"07,5,+00150,1,99,9",,,"07,99,1,99,9,99,9,99999,9,99,9,99,9","10108,1,99999,9","10,1",,,,"MET058METAR ETNJ 011220Z 06004KT 4000 BR BKN005 09/08 Q1011 YLO;",
"10122099999","2010-11-02T06:20:00","4","53.5335","7.888667","7.31","JEVER, GM","FM-15","ETNJ ","V020","200,1,N,0051,1","00120,1,C,N","002000,1,N,1","+0070,1","+0060,1","99999,9",,"07,5,+00120,1,99,9",,,"07,99,1,99,9,99,9,99999,9,99,9,99,9","10108,1,99999,9","10,1","51,1",,,"MET072METAR ETNJ 020620Z 20010KT 2000 R10/1600N -DZ BR BKN004 07/06 Q1011 YLO;",
"10122099999","2010-11-02T07:20:00","4","53.5335","7.888667","7.31","JEVER, GM","FM-15","ETNJ ","V020","190,1,N,0046,1","00090,1,C,N","002000,1,N,1","+0070,1","+0060,1","99999,9",,"07,5,+00090,1,99,9",,,"07,99,1,99,9,99,9,99999,9,99,9,99,9","10108,1,99999,9","10,1",,,,"MET068METAR ETNJ 020720Z 19009KT 2000 R10/1300N BR BKN003 07/06 Q1011 YLO;",
"10122099999","2010-11-02T08:20:00","4","53.5335","7.888667","7.31","JEVER, GM","FM-15","ETNJ ","V020","200,1,N,0046,1","00090,1,C,N","001800,1,N,1","+0080,1","+0070,1","99999,9",,"07,5,+00090,1,99,9",,,"07,99,1,99,9,99,9,99999,9,99,9,99,9","10102,1,99999,9","10,1",,,,"MET068METAR ETNJ 020820Z 20009KT 1800 R10/1700N BR BKN003 08/07 Q1010 YLO;",
"10122099999","2010-11-02T09:20:00","4","53.5335","7.888667","7.31","JEVER, GM","FM-15","ETNJ ","V020","190,1,N,0057,1","00120,1,C,N","003000,1,N,1","+0090,1","+0070,1","99999,9",,"07,5,+00120,1,99,9","07,5,+01350,1,99,9",,"07,99,1,99,9,99,9,99999,9,99,9,99,9","10102,1,99999,9","10,1",,,,"MET065METAR ETNJ 020920Z 19011KT 3000 BR BKN004 BKN045 09/07 Q1010 YLO;",
"10122099999","2010-11-02T10:20:00","4","53.5335","7.888667","7.31","JEVER, GM","FM-15","ETNJ ","V020","200,1,N,0057,1","01350,1,C,N","004000,1,N,1","+0090,1","+0070,1","99999,9",,"04,5,+00300,1,99,9","07,5,+01350,1,99,9",,"07,99,1,99,9,99,9,99999,9,99,9,99,9","10091,1,99999,9","10,1",,,,"MET065METAR ETNJ 021020Z 20011KT 4000 BR SCT010 BKN045 09/07 Q1009 GRN;",
"10122099999","2010-11-02T11:20:00","4","53.5335","7.888667","7.31","JEVER, GM","FM-15","ETNJ ","V020","200,1,N,0051,1","00240,1,C,N","003000,1,N,1","+0090,1","+0080,1","99999,9",,"07,5,+00240,1,99,9","07,5,+00600,1,99,9",,"07,99,1,99,9,99,9,99999,9,99,9,99,9","10081,1,99999,9","10,1","51,1","61,1",,"MET071METAR ETNJ 021120Z 20010KT 3000 -DZRA BR BKN008 BKN020 09/08 Q1008 YLO;",
"10122099999","2010-11-02T12:20:00","4","53.5335","7.888667","7.31","JEVER, GM","FM-15","ETNJ ","V020","210,1,N,0051,1","00240,1,C,N","002500,1,N,1","+0100,1","+0080,1","99999,9",,"07,5,+00240,1,99,9",,,"07,99,1,99,9,99,9,99999,9,99,9,99,9","10081,1,99999,9","10,1","51,1","61,1",,"MET074METAR ETNJ 021220Z 21010KT 2500 R28/1400N -DZRA BR BKN008 10/08 Q1008 YLO;",
"10122099999","2010-11-02T13:20:00","4","53.5335","7.888667","7.31","JEVER, GM","FM-15","ETNJ ","V020","210,1,N,0051,1","00210,1,C,N","003000,1,N,1","+0100,1","+0090,1","99999,9",,"07,5,+00210,1,99,9",,,"07,99,1,99,9,99,9,99999,9,99,9,99,9","10071,1,99999,9","10,1","51,1",,,"MET062METAR ETNJ 021320Z 21010KT 3000 -DZ BR BKN007 10/09 Q1007 YLO;",
"10122099999","2010-11-02T14:20:00","4","53.5335","7.888667","7.31","JEVER, GM","FM-15","ETNJ ","V020","220,1,N,0051,1","00120,1,C,N","002500,1,N,1","+0110,1","+0100,1","99999,9",,"07,5,+00120,1,99,9","07,5,+00210,1,99,9",,"07,99,1,99,9,99,9,99999,9,99,9,99,9","10071,1,99999,9","10,1","51,1","61,1",,"MET071METAR ETNJ 021420Z 22010KT 2500 -DZRA BR BKN004 BKN007 11/10 Q1007 YLO;",
"10122099999","2010-11-03T06:20:00","4","53.5335","7.888667","7.31","JEVER, GM","FM-15","ETNJ ","V020","240,1,N,0077,1","00240,1,C,N","003000,1,N,1","+0120,1","+0110,1","99999,9",,"07,5,+00240,1,99,9",,,"07,99,1,99,9,99,9,99999,9,99,9,99,9","10020,1,99999,9","10,1","63,1",,"0129,1","MET064METAR ETNJ 030620Z 24015G25KT 3000 RA BR BKN008 12/11 Q1002 YLO;",
"10122099999","2010-11-03T07:20:00","4","53.5335","7.888667","7.31","JEVER, GM","FM-15","ETNJ ","V020","260,1,N,0072,1","00360,1,C,N","006000,1,N,1","+0120,1","+0110,1","99999,9",,"02,5,+00120,1,99,9","07,5,+00360,1,99,9","07,5,+01950,5,99,9","07,99,1,99,9,99,9,99999,9,99,9,99,9","10031,1,99999,9",,,,,"MET074METAR ETNJ 030720Z 26014KT 6000 FEW004 BKN012 BKN065 12/11 Q1003 RERA GRN;",
"10122099999","2010-11-03T08:20:00","4","53.5335","7.888667","7.31","JEVER, GM","FM-15","ETNJ ","V020","260,1,N,0062,1","00390,1,C,N","006000,1,N,1","+0120,1","+0100,1","99999,9",,"07,5,+00390,1,99,9","07,5,+01950,5,99,9",,"07,99,1,99,9,99,9,99999,9,99,9,99,9","10041,1,99999,9",,,,,"MET062METAR ETNJ 030820Z 26012KT 6000 BKN013 BKN065 12/10 Q1004 GRN;",
"10122099999","2010-11-03T09:20:00","4","53.5335","7.888667","7.31","JEVER, GM","FM-15","ETNJ ","V020","270,1,N,0072,1","00510,1,C,N","011265,1,N,1","+0130,1","+0100,1","99999,9",,"07,5,+00510,1,99,9","07,5,+02400,1,99,9",,"07,99,1,99,9,99,9,99999,9,99,9,99,9","10051,1,99999,9",,,,,"MET062METAR ETNJ 030920Z 27014KT 9999 BKN017 BKN080 13/10 Q1005 WHT;",
"10122099999","2010-11-03T10:20:00","4","53.5335","7.888667","7.31","JEVER, GM","FM-15","ETNJ ","V020","270,1,N,0062,1","00600,1,C,N","011265,1,N,1","+0130,1","+0090,1","99999,9",,"07,5,+00600,1,99,9","07,5,+02100,1,99,9",,"07,99,1,99,9,99,9,99999,9,99,9,99,9","10061,1,99999,9",,,,,"MET062METAR ETNJ 031020Z 27012KT 9999 BKN020 BKN070 13/09 Q1006 WHT;",
"10122099999","2010-11-03T11:20:00","4","53.5335","7.888667","7.31","JEVER, GM","FM-15","ETNJ ","V020","280,1,N,0098,1","01500,1,C,N","011265,1,N,1","+0130,1","+0090,1","99999,9",,"02,5,+00510,1,99,9","04,5,+01500,1,99,9","07,5,+06300,1,99,9","07,99,1,99,9,99,9,99999,9,99,9,99,9","10061,1,99999,9",,,,,"MET070METAR ETNJ 031120Z 28019KT 9999 FEW017 SCT050 BKN210 13/09 Q1006 BLU/;",
"10122099999","2010-11-03T12:20:00","4","53.5335","7.888667","7.31","JEVER, GM","FM-15","ETNJ ","V020","280,1,N,0082,1","04200,1,C,N","011265,1,N,1","+0120,1","+0080,1","99999,9",,"02,5,+00600,1,99,9","07,5,+04200,1,99,9",,"07,99,1,99,9,99,9,99999,9,99,9,99,9","10071,1,99999,9",,,,,"MET062METAR ETNJ 031220Z 28016KT 9999 FEW020 BKN140 12/08 Q1007 BLU;",
"10122099999","2010-11-03T13:20:00","4","53.5335","7.888667","7.31","JEVER, GM","FM-15","ETNJ ","V020","270,1,N,0082,1","03300,1,C,N","011265,1,N,1","+0120,1","+0070,1","99999,9",,"02,5,+00660,1,99,9","07,5,+03300,1,99,9",,"07,99,1,99,9,99,9,99999,9,99,9,99,9","10081,1,99999,9",,,,,"MET062METAR ETNJ 031320Z 27016KT 9999 FEW022 BKN110 12/07 Q1008 BLU;",
"10122099999","2010-11-03T14:20:00","4","53.5335","7.888667","7.31","JEVER, GM","FM-15","ETNJ ","V020","270,1,N,0087,1","03300,1,C,N","011265,1,N,1","+0120,1","+0080,1","99999,9",,"02,5,+00660,1,99,9","07,5,+03300,1,99,9",,"07,99,1,99,9,99,9,99999,9,99,9,99,9","10081,1,99999,9",,,,,"MET062METAR ETNJ 031420Z 27017KT 9999 FEW022 BKN110 12/08 Q1008 BLU;",
"10122099999","2010-11-04T06:20:00","4","53.5335","7.888667","7.31","JEVER, GM","FM-15","ETNJ ","V020","270,1,N,0041,1","00120,1,C,N","002800,1,N,1","+0120,1","+0110,1","99999,9",,"07,5,+00120,1,99,9",,,"07,99,1,99,9,99,9,99999,9,99,9,99,9","10081,1,99999,9","10,1","63,1",,,"MET061METAR ETNJ 040620Z 27008KT 2800 RA BR BKN004 12/11 Q1008 YLO;",
"10122099999","2010-11-04T07:20:00","4","53.5335","7.888667","7.31","JEVER, GM","FM-15","ETNJ ","V020","260,1,N,0051,1","00090,1,C,N","003000,1,N,1","+0130,1","+0120,1","99999,9",,"07,5,+00090,1,99,9",,,"07,99,1,99,9,99,9,99999,9,99,9,99,9","10091,1,99999,9","10,1","61,1",,,"MET067METAR ETNJ 040720Z 26010KT 3000 -RA BR BKN003 13/12 Q1009 RERA YLO;",
"10122099999","2010-11-04T08:20:00","4","53.5335","7.888667","7.31","JEVER, GM","FM-15","ETNJ ","V020","250,1,N,0062,1","00120,1,C,N","003000,1,N,1","+0140,1","+0120,1","99999,9",,"07,5,+00120,1,99,9","07,5,+00450,1,99,9",,"07,99,1,99,9,99,9,99999,9,99,9,99,9","10091,1,99999,9","10,1","61,1",,,"MET069METAR ETNJ 040820Z 25012KT 3000 -RA BR BKN004 BKN015 14/12 Q1009 YLO;",
"10122099999","2010-11-04T09:20:00","4","53.5335","7.888667","7.31","JEVER, GM","FM-15","ETNJ ","V020","260,1,N,0082,1","00210,1,C,N","002000,1,N,1","+0140,1","+0130,1","99999,9",,"07,5,+00210,1,99,9",,,"07,99,1,99,9,99,9,99999,9,99,9,99,9","10091,1,99999,9","10,1","61,1",,,"MET072METAR ETNJ 040920Z 26016KT 2000 R28/1400N -RA BR BKN007 14/13 Q1009 YLO;",
"10122099999","2010-11-04T10:20:00","4","53.5335","7.888667","7.31","JEVER, GM","FM-15","ETNJ ","V020","260,1,N,0087,1","00240,1,C,N","004000,1,N,1","+0140,1","+0130,1","99999,9",,"07,5,+00240,1,99,9","07,5,+00300,1,99,9",,"07,99,1,99,9,99,9,99999,9,99,9,99,9","10102,1,99999,9","10,1",,,"0139,1","MET068METAR ETNJ 041020Z 26017G27KT 4000 BR BKN008 BKN010 14/13 Q1010 GRN;",
"10122099999","2010-11-04T11:20:00","4","53.5335","7.888667","7.31","JEVER, GM","FM-15","ETNJ ","V020","260,1,N,0093,1","00360,1,C,N","007000,1,N,1","+0140,1","+0130,1","99999,9",,"04,5,+00270,1,99,9","07,5,+00360,1,99,9",,"07,99,1,99,9,99,9,99999,9,99,9,99,9","10108,1,99999,9","51,1","61,1",,"0144,1","MET071METAR ETNJ 041120Z 26018G28KT 7000 -DZRA SCT009 BKN012 14/13 Q1011 GRN;",
"10122099999","2010-11-04T12:20:00","4","53.5335","7.888667","7.31","JEVER, GM","FM-15","ETNJ ","V020","270,1,N,0087,1","00360,1,C,N","005000,1,N,1","+0140,1","+0130,1","99999,9",,"04,5,+00240,1,99,9","07,5,+00360,1,99,9",,"07,99,1,99,9,99,9,99999,9,99,9,99,9","10108,1,99999,9","10,1","51,1","61,1",,"MET081METAR ETNJ 041220Z 27017KT 5000 R28/1600N -RADZ BR SCT008 BKN012 14/13 Q1011 GRN;",
"10122099999","2010-11-04T13:20:00","4","53.5335","7.888667","7.31","JEVER, GM","FM-15","ETNJ ","V020","260,1,N,0072,1","00270,1,C,N","006000,1,N,1","+0140,1","+0130,1","99999,9",,"07,5,+00270,1,99,9",,,"07,99,1,99,9,99,9,99999,9,99,9,99,9","10108,1,99999,9","51,1","61,1",,,"MET061METAR ETNJ 041320Z 26014KT 6000 -RADZ BKN009 14/13 Q1011 GRN;",
"10122099999","2010-11-04T14:20:00","4","53.5335","7.888667","7.31","JEVER, GM","FM-15","ETNJ ","V020","260,1,N,0082,1","00330,1,C,N","006000,1,N,1","+0140,1","+0130,1","99999,9",,"02,5,+00180,1,99,9","07,5,+00330,1,99,9",,"07,99,1,99,9,99,9,99999,9,99,9,99,9","10108,1,99999,9","61,1",,,,"MET066METAR ETNJ 041420Z 26016KT 6000 -RA FEW006 BKN011 14/13 Q1011 GRN;",
"10122099999","2010-11-15T06:20:00","4","53.5335","7.888667","7.31","JEVER, GM","FM-15","ETNJ ","V020","240,1,N,0041,1","22000,1,9,N","011265,1,N,1","+0060,1","+0040,1","99999,9",,"04,5,+01500,1,99,9",,,"04,99,1,99,9,99,9,99999,9,99,9,99,9","10081,1,99999,9",,,,,"MET060METAR ETNJ 150620Z 24008KT 9999 SCT050 06/04 Q1008 BLU/BLU/;",
"10122099999","2010-11-15T07:20:00","4","53.5335","7.888667","7.31","JEVER, GM","FM-15","ETNJ ","V020","250,1,N,0041,1","99999,9,C,N","011265,1,N,1","+0060,1","+0040,1","99999,9",,"02,5,+01500,1,99,9","04,5,+06000,1,99,9",,"04,99,1,99,9,99,9,99999,9,99,9,99,9","10091,1,99999,9",,,,,"MET067METAR ETNJ 150720Z 25008KT 9999 FEW050 SCT200 06/04 Q1009 BLU/BLU/;","P01 060003SCOCIG"
"10122099999","2010-11-15T08:20:00","4","53.5335","7.888667","7.31","JEVER, GM","FM-15","ETNJ ","V020","240,1,N,0041,1","99999,9,C,N","011265,1,N,1","+0070,1","+0050,1","99999,9",,"02,5,+01500,1,99,9","04,5,+06000,1,99,9",,"04,99,1,99,9,99,9,99999,9,99,9,99,9","10102,1,99999,9",,,,,"MET067METAR ETNJ 150820Z 24008KT 9999 FEW050 SCT200 07/05 Q1010 BLU/BLU/;","P01 060003SCOCIG"
"10122099999","2010-11-15T09:20:00","4","53.5335","7.888667","7.31","JEVER, GM","FM-15","ETNJ ","V020","240,1,N,0046,1","99999,9,C,N","011265,1,N,1","+0080,1","+0050,1","99999,9",,"02,5,+01200,1,99,9","04,5,+06000,1,99,9",,"04,99,1,99,9,99,9,99999,9,99,9,99,9","10108,1,99999,9",,,,,"MET067METAR ETNJ 150920Z 24009KT 9999 FEW040 SCT200 08/05 Q1011 BLU/BLU/;","P01 060003SCOCIG"
"10122099999","2010-11-15T10:20:00","4","53.5335","7.888667","7.31","JEVER, GM","FM-15","ETNJ ","V020","250,1,N,0046,1","99999,9,C,N","011265,1,N,1","+0090,1","+0050,1","99999,9",,"02,5,+03600,1,99,9","04,5,+06000,1,99,9",,"04,99,1,99,9,99,9,99999,9,99,9,99,9","10119,1,99999,9",,,,,"MET067METAR ETNJ 151020Z 25009KT 9999 FEW120 SCT200 09/05 Q1012 BLU/BLU/;","P01 060003SCOCIG"
"10122099999","2010-11-15T11:20:00","4","53.5335","7.888667","7.31","JEVER, GM","FM-15","ETNJ ","V020","250,1,N,0046,1","06300,1,C,N","011265,1,N,1","+0090,1","+0050,1","99999,9",,"02,5,+00600,1,99,9","07,5,+06300,1,99,9",,"07,99,1,99,9,99,9,99999,9,99,9,99,9","10119,1,99999,9",,,,,"MET067METAR ETNJ 151120Z 25009KT 9999 FEW020 BKN210 09/05 Q1012 BLU/BLU/;",
"10122099999","2010-11-15T12:20:00","4","53.5335","7.888667","7.31","JEVER, GM","FM-15","ETNJ ","V020","240,1,N,0031,1","06000,1,C,N","011265,1,N,1","+0090,1","+0050,1","99999,9",,"02,5,+00600,1,99,9","07,5,+06000,1,99,9",,"07,99,1,99,9,99,9,99999,9,99,9,99,9","10129,1,99999,9",,,,,"MET067METAR ETNJ 151220Z 24006KT 9999 FEW020 BKN200 09/05 Q1013 BLU/BLU/;",
"10122099999","2010-11-15T13:20:00","4","53.5335","7.888667","7.31","JEVER, GM","FM-15","ETNJ ","V020","230,1,N,0036,1","06000,1,C,N","011265,1,N,1","+0090,1","+0050,1","99999,9",,"04,5,+01200,1,99,9","07,5,+06000,1,99,9",,"07,99,1,99,9,99,9,99999,9,99,9,99,9","10129,1,99999,9",,,,,"MET067METAR ETNJ 151320Z 23007KT 9999 SCT040 BKN200 09/05 Q1013 BLU/BLU/;",
"10122099999","2010-11-15T14:20:00","4","53.5335","7.888667","7.31","JEVER, GM","FM-15","ETNJ ","V020","230,1,N,0026,1","06000,1,C,N","011265,1,N,1","+0080,1","+0050,1","99999,9",,"04,5,+01350,1,99,9","07,5,+06000,1,99,9",,"07,99,1,99,9,99,9,99999,9,99,9,99,9","10139,1,99999,9",,,,,"MET067METAR ETNJ 151420Z 23005KT 9999 SCT045 BKN200 08/05 Q1014 BLU/BLU/;",
"10122099999","2010-11-15T15:00:00","4","53.5335","7.888667","7.31","JEVER, GM","FM-16","ETNJ ","V020","220,1,N,0021,1","06000,1,C,N","011265,1,N,1","+0080,1","+0050,1","99999,9",,"04,5,+01350,1,99,9","07,5,+06000,1,99,9",,"07,99,1,99,9,99,9,99999,9,99,9,99,9","10139,1,99999,9",,,,,"MET074SPECI ETNJ 151500Z 22004KT 9999 SCT045 BKN200 08/05 Q1014 BLU/FCST CANCEL;",
"10122099999","2010-11-16T06:20:00","4","53.5335","7.888667","7.31","JEVER, GM","FM-15","ETNJ ","V020","110,1,N,0021,1","22000,1,9,N","000300,1,N,1","-0010,1","-0010,1","99999,9",,"02,5,+03600,1,99,9",,,"02,99,1,99,9,99,9,99999,9,99,9,99,9","10210,1,99999,9","48,1",,,,"MET076METAR ETNJ 160620Z 11004KT 0300 R28/0250N FZFG FEW120 M01/M01 Q1021 RED RED;",
"10122099999","2010-11-16T07:20:00","4","53.5335","7.888667","7.31","JEVER, GM","FM-15","ETNJ ","V020","120,1,N,0021,1","22000,1,9,N","000300,1,N,1","-0010,1","-0010,1","99999,9",,"02,5,+03900,1,99,9",,,"02,99,1,99,9,99,9,99999,9,99,9,99,9","10210,1,99999,9","48,1",,,,"MET076METAR ETNJ 160720Z 12004KT 0300 R28/0150N FZFG FEW130 M01/M01 Q1021 RED RED;",
"10122099999","2010-11-16T08:20:00","4","53.5335","7.888667","7.31","JEVER, GM","FM-15","ETNJ ","V020","110,1,N,0021,1","22000,1,9,N","000600,1,N,1","+0010,1","+0010,1","99999,9",,"04,5,+03900,1,99,9",,,"04,99,1,99,9,99,9,99999,9,99,9,99,9","10220,1,99999,9","44,1",,,,"MET072METAR ETNJ 160820Z 11004KT 0600 R28/0250N FG SCT130 01/01 Q1022 RED RED;",
"10122099999","2010-11-16T09:20:00","4","53.5335","7.888667","7.31","JEVER, GM","FM-15","ETNJ ","V020","120,1,N,0021,1","22000,1,9,N","000300,1,N,1","+0030,1","+0030,1","99999,9",,"04,5,+03900,1,99,9",,,"04,99,1,99,9,99,9,99999,9,99,9,99,9","10230,1,99999,9","44,1",,,,"MET082METAR ETNJ 160920Z 12004KT 0300 R28/0250N FG SCT130 03/03 Q1023 RED RED BECMG YLO;",
"10122099999","2010-11-16T09:31:00","4","53.5335","7.888667","7.31","JEVER, GM","FM-16","ETNJ ","V020","120,1,N,0021,1","22000,1,9,N","000800,1,N,1","+0030,1","+0030,1","99999,9",,"04,5,+03600,1,99,9",,,"04,99,1,99,9,99,9,99999,9,99,9,99,9","10230,1,99999,9","44,1",,,,"MET082SPECI ETNJ 160931Z 12004KT 0800 R28/0350N FG SCT120 03/03 Q1023 AMB AMB BECMG YLO;",
"10122099999","2010-11-16T09:51:00","4","53.5335","7.888667","7.31","JEVER, GM","FM-16","ETNJ ","V020","130,1,N,0015,1","22000,1,9,N","000400,1,N,1","+0030,1","+0030,1","99999,9",,"04,5,+03600,1,99,9",,,"04,99,1,99,9,99,9,99999,9,99,9,99,9","10230,1,99999,9","44,1",,,,"MET072SPECI ETNJ 160951Z 13003KT 0400 R10/0300N FG SCT120 03/03 Q1023 RED RED;",
"10122099999","2010-11-16T10:20:00","4","53.5335","7.888667","7.31","JEVER, GM","FM-15","ETNJ ","V020","110,1,N,0015,1","22000,1,9,N","000200,1,N,1","+0030,1","+0030,1","99999,9",,"04,5,+03600,1,99,9",,,"04,99,1,99,9,99,9,99999,9,99,9,99,9","10230,1,99999,9","44,1",,,,"MET072METAR ETNJ 161020Z 11003KT 0200 R10/0200N FG SCT120 03/03 Q1023 RED RED;",
"10122099999","2010-11-16T11:20:00","4","53.5335","7.888667","7.31","JEVER, GM","FM-15","ETNJ ","V020","130,1,N,0010,1","01500,1,C,N","000700,1,N,1","+0050,1","+0050,1","99999,9",,"02,5,+00030,1,99,9","07,5,+01500,1,99,9",,"07,99,1,99,9,99,9,99999,9,99,9,99,9","10230,1,99999,9","44,1",,,,"MET089METAR ETNJ 161120Z 13002KT 0700 R10/0250N FG FEW001 BKN050 05/05 Q1023 RED RED BECMG YLO;",
"10122099999","2010-11-16T11:32:00","4","53.5335","7.888667","7.31","JEVER, GM","FM-16","ETNJ ","V020","150,1,N,0005,1","01500,1,C,N","001200,1,N,1","+0060,1","+0060,1","99999,9",,"02,5,+00030,1,99,9","07,5,+01500,1,99,9",,"07,99,1,99,9,99,9,99999,9,99,9,99,9","10230,1,99999,9","10,1",,,,"MET089SPECI ETNJ 161132Z 15001KT 1200 R10/0300N BR FEW001 BKN050 06/06 Q1023 AMB AMB BECMG YLO;",
"10122099999","2010-11-16T11:42:00","4","53.5335","7.888667","7.31","JEVER, GM","FM-16","ETNJ ","V020","120,1,N,0010,1","99999,9,C,N","002000,1,N,1","+0060,1","+0060,1","99999,9",,"02,5,+00030,1,99,9","04,5,+01500,1,99,9",,"04,99,1,99,9,99,9,99999,9,99,9,99,9","10230,1,99999,9","10,1",,,,"MET079SPECI ETNJ 161142Z 12002KT 2000 BR FEW001 SCT050 06/06 Q1023 YLO YLO BECMG WHT;","P01 015003SCOCIG"
"10122099999","2010-11-16T12:20:00","4","53.5335","7.888667","7.31","JEVER, GM","FM-15","ETNJ ","V020","140,1,N,0021,1","99999,9,C,N","004000,1,N,1","+0070,1","+0060,1","99999,9",,"02,5,+00060,1,99,9","04,5,+01500,1,99,9",,"04,99,1,99,9,99,9,99999,9,99,9,99,9","10230,1,99999,9","10,1",,,,"MET079METAR ETNJ 161220Z 14004KT 4000 BR FEW002 SCT050 07/06 Q1023 GRN GRN BECMG WHT;","P01 015003SCOCIG"
"10122099999","2010-11-16T13:20:00","4","53.5335","7.888667","7.31","JEVER, GM","FM-15","ETNJ ","V020","150,1,N,0015,1","22000,1,9,N","005000,1,N,1","+0100,1","+0070,1","99999,9",,"02,5,+01500,1,99,9",,,"02,99,1,99,9,99,9,99999,9,99,9,99,9","10230,1,99999,9","10,1",,,,"MET062METAR ETNJ 161320Z 15003KT 5000 BR FEW050 10/07 Q1023 WHT WHT;",
"10122099999","2010-11-16T14:20:00","4","53.5335","7.888667","7.31","JEVER, GM","FM-15","ETNJ ","V020","110,1,N,0026,1","22000,1,9,N","004500,1,N,1","+0080,1","+0060,1","99999,9",,"04,5,+01500,1,99,9",,,"04,99,1,99,9,99,9,99999,9,99,9,99,9","10230,1,99999,9","10,1",,,,"MET072METAR ETNJ 161420Z 11005KT 4500 BR SCT050 08/06 Q1023 GRN WHT TEMPO YLO;",
"10122099999","2010-11-16T15:00:00","4","53.5335","7.888667","7.31","JEVER, GM","FM-16","ETNJ ","V020","120,1,N,0026,1","22000,1,9,N","004000,1,N,1","+0070,1","+0050,1","99999,9",,"04,5,+01500,1,99,9",,,"04,99,1,99,9,99,9,99999,9,99,9,99,9","10230,1,99999,9","10,1","12,1",,,"MET085SPECI ETNJ 161500Z 12005KT 4000 R10/1900N MIFG BR SCT050 07/05 Q1023 GRN FCST CANCEL;",
"10122099999","2010-11-17T06:20:00","4","53.5335","7.888667","7.31","JEVER, GM","FM-15","ETNJ ","V020","080,1,N,0036,1","01200,1,C,N","011265,1,N,1","+0050,1","+0030,1","99999,9",,"07,5,+01200,1,99,9",,,"07,99,1,99,9,99,9,99999,9,99,9,99,9","10180,1,99999,9",,,,,"MET059METAR ETNJ 170620Z 08007KT 9999 BKN040 05/03 Q1018 BLU BLU;",
"10122099999","2010-11-17T07:20:00","4","53.5335","7.888667","7.31","JEVER, GM","FM-15","ETNJ ","V020","080,1,N,0036,1","01500,1,C,N","011265,1,N,1","+0060,1","+0030,1","99999,9",,"02,5,+01050,1,99,9","07,5,+01500,1,99,9",,"07,99,1,99,9,99,9,99999,9,99,9,99,9","10180,1,99999,9",,,,,"MET066METAR ETNJ 170720Z 08007KT 9999 FEW035 BKN050 06/03 Q1018 BLU BLU;",
"10122099999","2010-11-17T08:20:00","4","53.5335","7.888667","7.31","JEVER, GM","FM-15","ETNJ ","V020","080,1,N,0046,1","01650,5,C,N","011265,1,N,1","+0060,1","+0030,1","99999,9",,"02,5,+00450,1,99,9","07,5,+01650,5,99,9",,"07,99,1,99,9,99,9,99999,9,99,9,99,9","10169,1,99999,9",,,,,"MET066METAR ETNJ 170820Z 08009KT 9999 FEW015 BKN055 06/03 Q1017 BLU BLU;",
"10122099999","2010-11-17T09:20:00","4","53.5335","7.888667","7.31","JEVER, GM","FM-15","ETNJ ","V020","090,1,N,0046,1","01050,1,C,N","011265,1,N,1","+0060,1","+0030,1","99999,9",,"02,5,+00450,1,99,9","04,5,+01050,1,99,9","07,5,+01500,1,99,9","07,99,1,99,9,99,9,99999,9,99,9,99,9","10169,1,99999,9",,,,,"MET073METAR ETNJ 170920Z 09009KT 9999 FEW015 SCT035 BKN050 06/03 Q1017 BLU BLU;",
"10122099999","2010-11-17T10:20:00","4","53.5335","7.888667","7.31","JEVER, GM","FM-15","ETNJ ","V020","090,1,N,0046,1","01020,1,C,N","011265,1,N,1","+0060,1","+0030,1","99999,9",,"02,5,+00540,1,99,9","07,5,+01020,1,99,9",,"07,99,1,99,9,99,9,99999,9,99,9,99,9","10169,1,99999,9",,,,,"MET066METAR ETNJ 171020Z 09009KT 9999 FEW018 BKN034 06/03 Q1017 BLU BLU;",
"10122099999","2010-11-17T11:20:00","4","53.5335","7.888667","7.31","JEVER, GM","FM-15","ETNJ ","V020","100,1,N,0041,1","00960,1,C,N","011265,1,N,1","+0060,1","+0030,1","99999,9",,"02,5,+00480,1,99,9","07,5,+00960,1,99,9",,"07,99,1,99,9,99,9,99999,9,99,9,99,9","10159,1,99999,9",,,,,"MET066METAR ETNJ 171120Z 10008KT 9999 FEW016 BKN032 06/03 Q1016 BLU BLU;",
"10122099999","2010-11-17T12:20:00","4","53.5335","7.888667","7.31","JEVER, GM","FM-15","ETNJ ","V020","100,1,N,0051,1","01110,1,C,N","011265,1,N,1","+0060,1","+0030,1","99999,9",,"02,5,+00480,1,99,9","07,5,+01110,1,99,9",,"07,99,1,99,9,99,9,99999,9,99,9,99,9","10149,1,99999,9",,,,,"MET066METAR ETNJ 171220Z 10010KT 9999 FEW016 BKN037 06/03 Q1015 BLU BLU;",
"10122099999","2010-11-17T13:20:00","4","53.5335","7.888667","7.31","JEVER, GM","FM-15","ETNJ ","V020","090,1,N,0036,1","00750,1,C,N","011265,1,N,1","+0060,1","+0020,1","99999,9",,"02,5,+00480,1,99,9","07,5,+00750,1,99,9",,"07,99,1,99,9,99,9,99999,9,99,9,99,9","10139,1,99999,9",,,,,"MET066METAR ETNJ 171320Z 09007KT 9999 FEW016 BKN025 06/02 Q1014 BLU BLU;",
"10122099999","2010-11-17T14:20:00","4","53.5335","7.888667","7.31","JEVER, GM","FM-15","ETNJ ","V020","100,1,N,0041,1","00870,1,C,N","011265,1,N,1","+0060,1","+0020,1","99999,9",,"02,5,+00600,1,99,9","07,5,+00870,1,99,9",,"07,99,1,99,9,99,9,99999,9,99,9,99,9","10139,1,99999,9",,,,,"MET066METAR ETNJ 171420Z 10008KT 9999 FEW020 BKN029 06/02 Q1014 BLU BLU;",
"10122099999","2010-11-17T15:00:00","4","53.5335","7.888667","7.31","JEVER, GM","FM-16","ETNJ ","V020","100,1,N,0036,1","00900,1,C,N","011265,1,N,1","+0060,1","+0020,1","99999,9",,"02,5,+00600,1,99,9","07,5,+00900,1,99,9",,"07,99,1,99,9,99,9,99999,9,99,9,99,9","10129,1,99999,9",,,,,"MET074SPECI ETNJ 171500Z 10007KT 9999 FEW020 BKN030 06/02 Q1013 BLU FCST CANCEL;",
"10122099999","2010-11-18T06:20:00","4","53.5335","7.888667","7.31","JEVER, GM","FM-15","ETNJ ","V020","110,1,N,0036,1","00420,1,C,N","011265,1,N,1","+0040,1","+0030,1","99999,9",,"04,5,+00240,1,99,9","07,5,+00420,1,99,9",,"07,99,1,99,9,99,9,99999,9,99,9,99,9","10102,1,99999,9","51,1","61,1",,,"MET072METAR ETNJ 180620Z 11007KT 9999 -RADZ SCT008 BKN014 04/03 Q1010 GRN GRN;",
"10122099999","2010-11-18T07:20:00","4","53.5335","7.888667","7.31","JEVER, GM","FM-15","ETNJ ","V020","120,1,N,0031,1","00360,1,C,N","011265,1,N,1","+0040,1","+0030,1","99999,9",,"04,5,+00210,1,99,9","07,5,+00360,1,99,9",,"07,99,1,99,9,99,9,99999,9,99,9,99,9","10102,1,99999,9","51,1","61,1",,,"MET072METAR ETNJ 180720Z 12006KT 9999 -DZRA SCT007 BKN012 04/03 Q1010 GRN GRN;",
"10122099999","2010-11-18T08:20:00","4","53.5335","7.888667","7.31","JEVER, GM","FM-15","ETNJ ","V020","120,1,N,0036,1","00360,1,C,N","008000,1,N,1","+0040,1","+0030,1","99999,9",,"04,5,+00180,1,99,9","07,5,+00360,1,99,9",,"07,99,1,99,9,99,9,99999,9,99,9,99,9","10102,1,99999,9","51,1","61,1",,,"MET082METAR ETNJ 180820Z 12007KT 8000 -DZRA SCT006 BKN012 04/03 Q1010 GRN GRN TEMPO YLO;",
"10122099999","2010-11-18T09:20:00","4","53.5335","7.888667","7.31","JEVER, GM","FM-15","ETNJ ","V020","130,1,N,0031,1","00360,1,C,N","008000,1,N,1","+0040,1","+0030,1","99999,9",,"04,5,+00180,1,99,9","07,5,+00360,1,99,9",,"07,99,1,99,9,99,9,99999,9,99,9,99,9","10102,1,99999,9","51,1","61,1",,,"MET082METAR ETNJ 180920Z 13006KT 8000 -DZRA SCT006 BKN012 04/03 Q1010 GRN GRN TEMPO YLO;",
"10122099999","2010-11-18T10:20:00","4","53.5335","7.888667","7.31","JEVER, GM","FM-15","ETNJ ","V020","120,1,N,0041,1","00360,1,C,N","008000,1,N,1","+0050,1","+0040,1","99999,9",,"04,5,+00150,1,99,9","07,5,+00360,1,99,9",,"07,99,1,99,9,99,9,99999,9,99,9,99,9","10102,1,99999,9","51,1",,,,"MET080METAR ETNJ 181020Z 12008KT 8000 -DZ SCT005 BKN012 05/04 Q1010 GRN GRN TEMPO YLO;",
"10122099999","2010-11-18T11:20:00","4","53.5335","7.888667","7.31","JEVER, GM","FM-15","ETNJ ","V020","120,1,N,0046,1","00270,1,C,N","007000,1,N,1","+0050,1","+0040,1","99999,9",,"02,5,+00180,1,99,9","07,5,+00270,1,99,9",,"07,99,1,99,9,99,9,99999,9,99,9,99,9","10102,1,99999,9","51,1","61,1",,,"MET082METAR ETNJ 181120Z 12009KT 7000 -RADZ FEW006 BKN009 05/04 Q1010 GRN GRN TEMPO YLO;",
"10122099999","2010-11-18T12:20:00","4","53.5335","7.888667","7.31","JEVER, GM","FM-15","ETNJ ","V020","130,1,N,0036,1","00300,1,C,N","006000,1,N,1","+0050,1","+0030,1","99999,9",,"02,5,+00150,1,99,9","07,5,+00300,1,99,9",,"07,99,1,99,9,99,9,99999,9,99,9,99,9","10102,1,99999,9","51,1","61,1",,,"MET082METAR ETNJ 181220Z 13007KT 6000 -RADZ FEW005 BKN010 05/03 Q1010 GRN GRN TEMPO YLO;",
"10122099999","2010-11-18T13:20:00","4","53.5335","7.888667","7.31","JEVER, GM","FM-15","ETNJ ","V020","140,1,N,0031,1","00180,1,C,N","006000,1,N,1","+0050,1","+0040,1","99999,9",,"07,5,+00180,1,99,9","07,5,+00300,1,99,9",,"07,99,1,99,9,99,9,99999,9,99,9,99,9","10102,1,99999,9","51,1","61,1",,,"MET082METAR ETNJ 181320Z 14006KT 6000 -DZRA BKN006 BKN010 05/04 Q1010 YLO GRN TEMPO YLO;",
"10122099999","2010-11-18T14:20:00","4","53.5335","7.888667","7.31","JEVER, GM","FM-15","ETNJ ","V020","140,1,N,0021,1","00180,1,C,N","006000,1,N,1","+0050,1","+0040,1","99999,9",,"02,5,+00120,1,99,9","07,5,+00180,1,99,9","07,5,+00300,1,99,9","07,99,1,99,9,99,9,99999,9,99,9,99,9","10102,1,99999,9",,,,,"MET083METAR ETNJ 181420Z 14004KT 6000 FEW004 BKN006 BKN010 05/04 Q1010 YLO GRN TEMPO YLO;",
"10122099999","2010-11-18T15:00:00","4","53.5335","7.888667","7.31","JEVER, GM","FM-16","ETNJ ","V020","130,1,N,0026,1","00180,1,C,N","006000,1,N,1","+0050,1","+0040,1","99999,9",,"02,5,+00120,1,99,9","07,5,+00180,1,99,9","07,5,+00300,1,99,9","07,99,1,99,9,99,9,99999,9,99,9,99,9","10102,1,99999,9",,,,,"MET081SPECI ETNJ 181500Z 13005KT 6000 FEW004 BKN006 BKN010 05/04 Q1010 YLO FCST CANCEL;",
"10122099999","2010-12-06T06:20:00","4","53.5335","7.888667","7.31","JEVER, GM","FM-15","ETNJ ","V020","210,1,N,0010,1","01500,1,C,N","001600,1,N,1","+0000,1","+0000,1","99999,9",,"07,5,+01500,1,99,9",,,"07,99,1,99,9,99,9,99999,9,99,9,99,9","10000,1,99999,9","10,1",,,,"MET069METAR ETNJ 060620Z 21002KT 1600 BR BKN050 M00/M00 Q1000 BLACKYLO YLO;",
"10122099999","2010-12-06T07:20:00","4","53.5335","7.888667","7.31","JEVER, GM","FM-15","ETNJ ","V020","250,1,N,0015,1","01500,1,C,N","002000,1,N,1","+0000,1","+0000,1","99999,9",,"07,5,+01500,1,99,9",,,"07,99,1,99,9,99,9,99999,9,99,9,99,9","10000,1,99999,9","10,1",,,,"MET069METAR ETNJ 060720Z 25003KT 2000 BR BKN050 M00/M00 Q1000 BLACKYLO YLO;",
"10122099999","2010-12-06T08:00:00","4","53.5335","7.888667","7.31","JEVER, GM","FM-15","ETNJ ","V020","220,1,N,0010,1","22000,1,9,N","000600,1,N,1","-0010,1","-0010,1","99999,9",,"04,5,+01500,1,99,9",,,"04,99,1,99,9,99,9,99999,9,99,9,99,9","10010,1,99999,9","48,1",,,,"MET081SPECI ETNJ 060756Z 22002KT 0600 FZFG SCT050 M01/M01 Q1001 BLACKRED YLO TEMPO RED;",
"10122099999","2010-12-06T08:20:00","4","53.5335","7.888667","7.31","JEVER, GM","FM-15","ETNJ ","V020","250,1,N,0010,1","22000,1,9,N","000300,1,N,1","-0010,1","-0010,1","99999,9",,"04,5,+01500,1,99,9",,,"04,99,1,99,9,99,9,99999,9,99,9,99,9","10010,1,99999,9","48,1",,,,"MET071METAR ETNJ 060820Z 25002KT 0300 FZFG SCT050 M01/M01 Q1001 BLACKRED RED;",
"10122099999","2010-12-06T09:20:00","4","53.5335","7.888667","7.31","JEVER, GM","FM-15","ETNJ ","V020","200,1,N,0015,1","00015,1,9,N","000300,1,N,1","-0010,1","-0010,1","99999,9",,"09,1,+00015,1,99,9",,,"09,99,1,99,9,99,9,00025,1,99,9,99,9","10010,1,99999,9","49,1",,,,"MET070METAR ETNJ 060920Z 20003KT 0300 FZFG VV000 M01/M01 Q1001 BLACKRED RED;",
"10122099999","2010-12-06T10:20:00","4","53.5335","7.888667","7.31","JEVER, GM","FM-15","ETNJ ","V020","210,1,N,0015,1","00015,1,9,N","000400,1,N,1","+0000,1","-0010,1","99999,9",,"09,1,+00015,1,99,9",,,"09,99,1,99,9,99,9,00025,1,99,9,99,9","10010,1,99999,9","49,1",,,,"MET070METAR ETNJ 061020Z 21003KT 0400 FZFG VV000 M00/M01 Q1001 BLACKRED RED;",
"10122099999","2010-12-06T11:00:00","4","53.5335","7.888667","7.31","JEVER, GM","FM-16","ETNJ ","V020","220,1,N,0021,1","00015,1,9,N","000400,1,N,1","+0000,1","-0010,1","99999,9",,"09,1,+00015,1,99,9",,,"09,99,1,99,9,99,9,00025,1,99,9,99,9","10010,1,99999,9","49,1",,,,"MET078SPECI ETNJ 061100Z 22004KT 0400 FZFG VV000 M00/M01 Q1001 BLACKRED FCST CANCEL;",
"10122099999","2010-12-07T06:20:00","4","53.5335","7.888667","7.31","JEVER, GM","FM-15","ETNJ ","V020","999,9,C,0000,1","00015,1,9,N","000200,1,N,1","-0030,1","-0030,1","99999,9",,"09,1,+00015,1,99,9",,,"09,99,1,99,9,99,9,00025,1,99,9,99,9","10051,1,99999,9","49,1",,,,"MET070METAR ETNJ 070620Z 00000KT 0200 FZFG VV000 M03/M03 Q1005 BLACKRED RED;",
"10122099999","2010-12-07T07:20:00","4","53.5335","7.888667","7.31","JEVER, GM","FM-15","ETNJ ","V020","999,9,C,0000,1","00030,1,9,N","000200,1,N,1","-0030,1","-0030,1","99999,9",,"09,1,+00030,1,99,9",,,"09,99,1,99,9,99,9,00025,1,99,9,99,9","10051,1,99999,9","49,1",,,,"MET070METAR ETNJ 070720Z 00000KT 0200 FZFG VV001 M03/M03 Q1005 BLACKRED RED;",
"10122099999","2010-12-07T08:20:00","4","53.5335","7.888667","7.31","JEVER, GM","FM-15","ETNJ ","V020","999,9,C,0000,1","00015,1,9,N","000300,1,N,1","-0030,1","-0030,1","99999,9",,"09,1,+00015,1,99,9",,,"09,99,1,99,9,99,9,00025,1,99,9,99,9","10061,1,99999,9","49,1",,,,"MET070METAR ETNJ 070820Z 00000KT 0300 FZFG VV000 M03/M03 Q1006 BLACKRED RED;",
"10122099999","2010-12-07T09:20:00","4","53.5335","7.888667","7.31","JEVER, GM","FM-15","ETNJ ","V020","999,9,C,0000,1","00015,1,9,N","000300,1,N,1","-0030,1","-0030,1","99999,9",,"09,1,+00015,1,99,9",,,"09,99,1,99,9,99,9,00025,1,99,9,99,9","10061,1,99999,9","49,1",,,,"MET070METAR ETNJ 070920Z 00000KT 0300 FZFG VV000 M03/M03 Q1006 BLACKRED RED;",
"10122099999","2010-12-07T10:20:00","4","53.5335","7.888667","7.31","JEVER, GM","FM-15","ETNJ ","V020","190,1,N,0015,1","00015,1,9,N","000300,1,N,1","-0030,1","-0030,1","99999,9",,"09,1,+00015,1,99,9",,,"09,99,1,99,9,99,9,00025,1,99,9,99,9","10061,1,99999,9","49,1",,,,"MET070METAR ETNJ 071020Z 19003KT 0300 FZFG VV000 M03/M03 Q1006 BLACKRED RED;",
"10122099999","2010-12-07T11:20:00","4","53.5335","7.888667","7.31","JEVER, GM","FM-15","ETNJ ","V020","200,1,N,0015,1","00015,1,9,N","000300,1,N,1","-0030,1","-0030,1","99999,9","28,U,0300,9","09,1,+00015,1,99,9",,,"09,99,1,99,9,99,9,00025,1,99,9,99,9","10061,1,99999,9","49,1",,,,"MET080METAR ETNJ 071120Z 20003KT 0300 R28/0300N FZFG VV000 M03/M03 Q1006 BLACKRED RED;",
"10122099999","2010-12-07T12:20:00","4","53.5335","7.888667","7.31","JEVER, GM","FM-15","ETNJ ","V020","200,1,N,0021,1","00015,1,9,N","000250,1,N,1","-0030,1","-0030,1","99999,9","28,U,0300,9","09,1,+00015,1,99,9",,,"09,99,1,99,9,99,9,00025,1,99,9,99,9","10061,1,99999,9","49,1",,,,"MET080METAR ETNJ 071220Z 20004KT 0250 R28/0300N FZFG VV000 M03/M03 Q1006 BLACKRED RED;",
"10122099999","2010-12-07T13:20:00","4","53.5335","7.888667","7.31","JEVER, GM","FM-15","ETNJ ","V020","999,9,C,0000,1","00015,1,9,N","000250,1,N,1","-0020,1","-0020,1","99999,9","28,U,0250,9","09,1,+00015,1,99,9",,,"09,99,1,99,9,99,9,00025,1,99,9,99,9","10061,1,99999,9","49,1",,,,"MET080METAR ETNJ 071320Z 00000KT 0250 R28/0250N FZFG VV000 M02/M02 Q1006 BLACKRED RED;",
"10122099999","2010-12-07T14:20:00","4","53.5335","7.888667","7.31","JEVER, GM","FM-15","ETNJ ","V020","999,9,C,0000,1","00015,1,9,N","000200,1,N,1","-0020,1","-0020,1","99999,9","28,U,0250,9","09,1,+00015,1,99,9",,,"09,99,1,99,9,99,9,00025,1,99,9,99,9","10061,1,99999,9","49,1",,,,"MET080METAR ETNJ 071420Z 00000KT 0200 R28/0250N FZFG VV000 M02/M02 Q1006 BLACKRED RED;",
"10122099999","2010-12-07T15:00:00","4","53.5335","7.888667","7.31","JEVER, GM","FM-15","ETNJ ","V020","999,9,C,0000,1","00015,1,9,N","000200,1,N,1","-0030,1","-0030,1","99999,9","28,U,0300,9","09,1,+00015,1,99,9",,,"09,99,1,99,9,99,9,00025,1,99,9,99,9","10071,1,99999,9","49,1",,,,"MET088SPECI ETNJ 071457Z 00000KT 0200 R28/0300N FZFG VV000 M03/M03 Q1007 BLACKRED FCST CANCEL;",
"10122099999","2010-12-08T06:20:00","4","53.5335","7.888667","7.31","JEVER, GM","FM-15","ETNJ ","V020","999,9,C,0000,1","00060,1,C,N","001400,1,N,1","-0040,1","-0040,1","99999,9",,"08,5,+00060,1,99,9",,,"08,99,1,99,9,99,9,99999,9,99,9,99,9","10081,1,99999,9","10,1",,,,"MET069METAR ETNJ 080620Z 00000KT 1400 BR OVC002 M04/M04 Q1008 BLACKAMB AMB;",
"10122099999","2010-12-08T06:43:00","4","53.5335","7.888667","7.31","JEVER, GM","FM-16","ETNJ ","V020","080,1,N,0010,1","00060,1,C,N","002000,1,N,1","-0040,1","-0040,1","99999,9",,"08,5,+00060,1,99,9",,,"08,99,1,99,9,99,9,99999,9,99,9,99,9","10081,1,99999,9","10,1",,,,"MET069SPECI ETNJ 080643Z 08002KT 2000 BR OVC002 M04/M04 Q1008 BLACKAMB AMB;",
"10122099999","2010-12-08T07:20:00","4","53.5335","7.888667","7.31","JEVER, GM","FM-15","ETNJ ","V020","100,1,N,0010,1","00060,1,C,N","002000,1,N,1","-0040,1","-0040,1","99999,9",,"08,5,+00060,1,99,9",,,"08,99,1,99,9,99,9,99999,9,99,9,99,9","10081,1,99999,9","10,1",,,,"MET069METAR ETNJ 080720Z 10002KT 2000 BR OVC002 M04/M04 Q1008 BLACKAMB AMB;",
"10122099999","2010-12-08T08:20:00","4","53.5335","7.888667","7.31","JEVER, GM","FM-15","ETNJ ","V020","060,1,N,0010,1","00090,1,C,N","003500,1,N,1","-0040,1","-0040,1","99999,9",,"08,5,+00090,1,99,9",,,"08,99,1,99,9,99,9,99999,9,99,9,99,9","10081,1,99999,9","10,1",,,,"MET079METAR ETNJ 080820Z 06002KT 3500 BR OVC003 M04/M04 Q1008 BLACKYLO YLO TEMPO AMB;",
"10122099999","2010-12-08T09:20:00","4","53.5335","7.888667","7.31","JEVER, GM","FM-15","ETNJ ","V020","050,1,N,0021,1","00120,1,C,N","003500,1,N,1","-0030,1","-0030,1","99999,9",,"07,5,+00120,1,99,9",,,"07,99,1,99,9,99,9,99999,9,99,9,99,9","10081,1,99999,9","10,1",,,,"MET079METAR ETNJ 080920Z 05004KT 3500 BR BKN004 M03/M03 Q1008 BLACKYLO YLO TEMPO AMB;",
"10122099999","2010-12-08T10:20:00","4","53.5335","7.888667","7.31","JEVER, GM","FM-15","ETNJ ","V020","060,1,N,0021,1","00120,1,C,N","003500,1,N,1","-0030,1","-0030,1","99999,9",,"07,5,+00120,1,99,9",,,"07,99,1,99,9,99,9,99999,9,99,9,99,9","10081,1,99999,9","10,1",,,,"MET069METAR ETNJ 081020Z 06004KT 3500 BR BKN004 M03/M03 Q1008 BLACKYLO YLO;",
"10122099999","2010-12-08T11:00:00","4","53.5335","7.888667","7.31","JEVER, GM","FM-16","ETNJ ","V020","060,1,N,0015,1","00150,1,C,N","003500,1,N,1","-0030,1","-0030,1","99999,9",,"07,5,+00150,1,99,9",,,"07,99,1,99,9,99,9,99999,9,99,9,99,9","10081,1,99999,9","10,1",,,,"MET069SPECI ETNJ 081100Z 06003KT 3500 BR BKN005 M03/M03 Q1008 BLACKYLO YLO;",
"10122099999","2010-12-13T06:20:00","4","53.5335","7.888667","7.31","JEVER, GM","FM-15","ETNJ ","V020","270,1,N,0031,1","03900,1,C,N","011265,1,N,1","-0040,1","-0050,1","99999,9",,"07,5,+03900,1,99,9",,,"07,99,1,99,9,99,9,99999,9,99,9,99,9","10240,1,99999,9",,,,,"MET061METAR ETNJ 130620Z 27006KT 9999 BKN130 M04/M05 Q1024 BLU BLU;",
"10122099999","2010-12-13T07:20:00","4","53.5335","7.888667","7.31","JEVER, GM","FM-15","ETNJ ","V020","260,1,N,0031,1","03900,1,C,N","011265,1,N,1","-0030,1","-0040,1","99999,9",,"07,5,+03900,1,99,9",,,"07,99,1,99,9,99,9,99999,9,99,9,99,9","10240,1,99999,9",,,,,"MET061METAR ETNJ 130720Z 26006KT 9999 BKN130 M03/M04 Q1024 BLU BLU;",
"10122099999","2010-12-13T08:20:00","4","53.5335","7.888667","7.31","JEVER, GM","FM-15","ETNJ ","V020","270,1,N,0036,1","06300,1,C,N","011265,1,N,1","-0030,1","-0040,1","99999,9",,"04,5,+03000,1,99,9","07,5,+06300,1,99,9",,"07,99,1,99,9,99,9,99999,9,99,9,99,9","10230,1,99999,9",,,,,"MET068METAR ETNJ 130820Z 27007KT 9999 SCT100 BKN210 M03/M04 Q1023 BLU/BLU;",
"10122099999","2010-12-13T09:20:00","4","53.5335","7.888667","7.31","JEVER, GM","FM-15","ETNJ ","V020","270,1,N,0031,1","99999,9,C,N","011265,1,N,1","-0030,1","-0040,1","99999,9",,"04,5,+03000,1,99,9","04,5,+06300,1,99,9",,"04,99,1,99,9,99,9,99999,9,99,9,99,9","10240,1,99999,9",,,,,"MET068METAR ETNJ 130920Z 27006KT 9999 SCT100 SCT210 M03/M04 Q1024 BLU/BLU;","P01 063003SCOCIG"
"10122099999","2010-12-13T10:20:00","4","53.5335","7.888667","7.31","JEVER, GM","FM-15","ETNJ ","V020","250,1,N,0031,1","03000,1,C,N","011265,1,N,1","-0010,1","-0040,1","99999,9",,"02,5,+01500,1,99,9","07,5,+03000,1,99,9",,"07,99,1,99,9,99,9,99999,9,99,9,99,9","10230,1,99999,9",,,,,"MET068METAR ETNJ 131020Z 25006KT 9999 FEW050 BKN100 M01/M04 Q1023 BLU BLU;",
"10122099999","2010-12-13T15:00:00","4","53.5335","7.888667","7.31","JEVER, GM","FM-16","ETNJ ","V020","300,1,N,0021,1","00900,1,C,N","011265,1,N,1","+0000,1","+0000,1","99999,9",,"04,5,+00120,1,99,9","07,5,+00900,1,99,9",,"07,99,1,99,9,99,9,99999,9,99,9,99,9","10190,1,99999,9","71,1",,,,"MET088SPECI ETNJ 131500Z 30004KT 9999 -SN SCT004 BKN030 00/00 Q1019 RESN BLACKBLU FCST CANCEL;",
"10122099999","2010-12-14T06:20:00","4","53.5335","7.888667","7.31","JEVER, GM","FM-15","ETNJ ","V020","050,1,N,0026,1","00480,1,C,N","011265,1,N,1","-0020,1","-0040,1","99999,9",,"07,5,+00480,1,99,9",,,"07,99,1,99,9,99,9,99999,9,99,9,99,9","10281,1,99999,9",,,,,"MET082METAR ETNJ 140620Z 05005KT 9999 BKN016 M02/M04 Q1028 RESN BLACKWHT WHT BECMG BLU/;",
"10122099999","2010-12-14T07:20:00","4","53.5335","7.888667","7.31","JEVER, GM","FM-15","ETNJ ","V020","020,1,N,0026,1","00630,1,C,N","011265,1,N,1","-0020,1","-0050,1","99999,9",,"07,5,+00630,1,99,9",,,"07,99,1,99,9,99,9,99999,9,99,9,99,9","10281,1,99999,9",,,,,"MET077METAR ETNJ 140720Z 02005KT 9999 BKN021 M02/M05 Q1028 BLACKWHT WHT BECMG BLU/;",
"10122099999","2010-12-14T08:20:00","4","53.5335","7.888667","7.31","JEVER, GM","FM-15","ETNJ ","V020","050,1,N,0026,1","00720,1,C,N","011265,1,N,1","-0020,1","-0040,1","99999,9",,"07,5,+00720,1,99,9",,,"07,99,1,99,9,99,9,99999,9,99,9,99,9","10291,1,99999,9",,,,,"MET077METAR ETNJ 140820Z 05005KT 9999 BKN024 M02/M04 Q1029 BLACKWHT WHT BECMG BLU/;",
"10122099999","2010-12-14T09:05:00","4","53.5335","7.888667","7.31","JEVER, GM","FM-16","ETNJ ","V020","040,1,N,0026,1","00660,1,C,N","011265,1,N,1","-0010,1","-0040,1","99999,9",,"07,5,+00660,1,99,9",,,"07,99,1,99,9,99,9,99999,9,99,9,99,9","10291,1,99999,9",,,,,"MET061SPECI ETNJ 140905Z 04005KT 9999 BKN022 M01/M04 Q1029 WHT WHT;",
"10122099999","2010-12-14T09:20:00","4","53.5335","7.888667","7.31","JEVER, GM","FM-15","ETNJ ","V020","060,1,N,0031,1","00660,1,C,N","011265,1,N,1","-0010,1","-0040,1","99999,9",,"07,5,+00660,1,99,9",,,"07,99,1,99,9,99,9,99999,9,99,9,99,9","10291,1,99999,9",,,,,"MET061METAR ETNJ 140920Z 06006KT 9999 BKN022 M01/M04 Q1029 WHT WHT;",
"10122099999","2010-12-14T10:20:00","4","53.5335","7.888667","7.31","JEVER, GM","FM-15","ETNJ ","V020","050,1,N,0026,1","00660,1,C,N","011265,1,N,1","-0010,1","-0040,1","99999,9",,"07,5,+00660,1,99,9",,,"07,99,1,99,9,99,9,99999,9,99,9,99,9","10301,1,99999,9",,,,,"MET061METAR ETNJ 141020Z 05005KT 9999 BKN022 M01/M04 Q1030 WHT WHT;",
"10122099999","2010-12-14T11:20:00","4","53.5335","7.888667","7.31","JEVER, GM","FM-15","ETNJ ","V020","030,1,N,0026,1","00660,1,C,N","011265,1,N,1","-0010,1","-0040,1","99999,9",,"07,5,+00660,1,99,9",,,"07,99,1,99,9,99,9,99999,9,99,9,99,9","10301,1,99999,9",,,,,"MET061METAR ETNJ 141120Z 03005KT 9999 BKN022 M01/M04 Q1030 WHT WHT;",
"10122099999","2010-12-14T12:20:00","4","53.5335","7.888667","7.31","JEVER, GM","FM-15","ETNJ ","V020","020,1,N,0036,1","00570,1,C,N","011265,1,N,1","-0010,1","-0040,1","99999,9",,"07,5,+00570,1,99,9",,,"07,99,1,99,9,99,9,99999,9,99,9,99,9","10301,1,99999,9",,,,,"MET057METAR ETNJ 141220Z 02007KT 9999 BKN019 M01/M04 Q1030 WHT;",
"10122099999","2010-12-14T13:20:00","4","53.5335","7.888667","7.31","JEVER, GM","FM-15","ETNJ ","V020","360,1,N,0031,1","00600,1,C,N","011265,1,N,1","-0010,1","-0040,1","99999,9",,"07,5,+00600,1,99,9",,,"07,99,1,99,9,99,9,99999,9,99,9,99,9","10301,1,99999,9",,,,,"MET057METAR ETNJ 141320Z 36006KT 9999 BKN020 M01/M04 Q1030 WHT;",
"10122099999","2010-12-14T14:20:00","4","53.5335","7.888667","7.31","JEVER, GM","FM-15","ETNJ ","V020","360,1,N,0031,1","00600,1,C,N","011265,1,N,1","-0010,1","-0040,1","99999,9",,"07,5,+00600,1,99,9",,,"07,99,1,99,9,99,9,99999,9,99,9,99,9","10301,1,99999,9",,,,,"MET061METAR ETNJ 141420Z 36006KT 9999 BKN020 M01/M04 Q1030 WHT WHT;",
"10122099999","2010-12-14T15:00:00","4","53.5335","7.888667","7.31","JEVER, GM","FM-15","ETNJ ","V020","360,1,N,0031,1","00600,1,C,N","011265,1,N,1","-0010,1","-0040,1","99999,9",,"07,5,+00600,1,99,9",,,"07,99,1,99,9,99,9,99999,9,99,9,99,9","10301,1,99999,9",,,,,"MET069SPECI ETNJ 141458Z 36006KT 9999 BKN020 M01/M04 Q1030 WHT FCST CANCEL;",
"10122099999","2010-12-15T06:20:00","4","53.5335","7.888667","7.31","JEVER, GM","FM-15","ETNJ ","V020","030,1,N,0036,1","00330,1,C,N","011265,1,N,1","-0010,1","-0030,1","99999,9",,"07,5,+00330,1,99,9",,,"07,99,1,99,9,99,9,99999,9,99,9,99,9","10281,1,99999,9",,,,,"MET061METAR ETNJ 150620Z 03007KT 9999 BKN011 M01/M03 Q1028 GRN GRN;",
"10122099999","2010-12-15T07:20:00","4","53.5335","7.888667","7.31","JEVER, GM","FM-15","ETNJ ","V020","020,1,N,0026,1","22000,1,9,N","011265,1,N,1","-0020,1","-0040,1","99999,9",,"04,5,+00360,1,99,9",,,"04,99,1,99,9,99,9,99999,9,99,9,99,9","10281,1,99999,9",,,,,"MET072METAR ETNJ 150720Z 02005KT 9999 SCT012 M02/M04 Q1028 BLU/BLU/ TEMPO GRN;",
"10122099999","2010-12-15T08:20:00","4","53.5335","7.888667","7.31","JEVER, GM","FM-15","ETNJ ","V020","340,1,N,0015,1","22000,1,9,N","011265,1,N,1","-0040,1","-0050,1","99999,9",,"02,5,+00360,1,99,9",,,"02,99,1,99,9,99,9,99999,9,99,9,99,9","10281,1,99999,9",,,,,"MET062METAR ETNJ 150820Z 34003KT 9999 FEW012 M04/M05 Q1028 BLU/BLU/;",
"10122099999","2010-12-15T09:20:00","4","53.5335","7.888667","7.31","JEVER, GM","FM-15","ETNJ ","V020","340,1,N,0015,1","22000,1,9,N","011265,1,N,1","-0030,1","-0050,1","99999,9",,"02,5,+00360,1,99,9",,,"02,99,1,99,9,99,9,99999,9,99,9,99,9","10281,1,99999,9",,,,,"MET062METAR ETNJ 150920Z 34003KT 9999 FEW012 M03/M05 Q1028 BLU/BLU/;",
"10122099999","2010-12-15T10:20:00","4","53.5335","7.888667","7.31","JEVER, GM","FM-15","ETNJ ","V020","360,1,N,0031,1","22000,1,9,N","011265,1,N,1","+0000,1","-0050,1","99999,9",,"02,5,+00360,1,99,9",,,"02,99,1,99,9,99,9,99999,9,99,9,99,9","10271,1,99999,9",,,,,"MET062METAR ETNJ 151020Z 36006KT 9999 FEW012 M00/M05 Q1027 BLU/BLU/;",
"10122099999","2010-12-15T11:20:00","4","53.5335","7.888667","7.31","JEVER, GM","FM-15","ETNJ ","V020","010,1,N,0041,1","22000,1,9,N","011265,1,N,1","+0010,1","-0050,1","99999,9",,"02,5,+00600,1,99,9",,,"02,99,1,99,9,99,9,99999,9,99,9,99,9","10271,1,99999,9",,,,,"MET061METAR ETNJ 151120Z 01008KT 9999 FEW020 01/M05 Q1027 BLU/BLU/;",
"10122099999","2010-12-15T12:00:00","4","53.5335","7.888667","7.31","JEVER, GM","FM-16","ETNJ ","V020","020,1,N,0036,1","22000,1,9,N","011265,1,N,1","+0000,1","-0060,1","99999,9",,"02,5,+00600,1,99,9",,,"02,99,1,99,9,99,9,99999,9,99,9,99,9","10271,1,99999,9",,,,,"MET068SPECI ETNJ 151200Z 02007KT 9999 FEW020 00/M06 Q1027 BLU/FCST CANCEL;",
"10122099999","2010-12-16T06:20:00","4","53.5335","7.888667","7.31","JEVER, GM","FM-15","ETNJ ","V020","220,1,N,0057,1","00120,1,C,N","002500,1,N,1","+0000,1","+0000,1","99999,9",,"07,5,+00120,1,99,9",,,"07,99,1,99,9,99,9,99999,9,99,9,99,9","10081,1,99999,9","10,1","67,1",,,"MET084METAR ETNJ 160620Z 22011KT 2500 FZRA BR BKN004 M00/M00 Q1008 BLACKYLO YLO TEMPO AMB;",
"10122099999","2010-12-16T07:20:00","4","53.5335","7.888667","7.31","JEVER, GM","FM-15","ETNJ ","V020","230,1,N,0057,1","00120,1,C,N","004500,1,N,1","+0010,1","+0010,1","99999,9",,"07,5,+00120,1,99,9",,,"07,99,1,99,9,99,9,99999,9,99,9,99,9","10061,1,99999,9","10,1","61,1","71,1",,"MET083METAR ETNJ 160720Z 23011KT 4500 -SNRA BR BKN004 01/01 Q1006 BLACKYLO YLO TEMPO AMB;",
"10122099999","2010-12-16T08:20:00","4","53.5335","7.888667","7.31","JEVER, GM","FM-15","ETNJ ","V020","230,1,N,0062,1","00120,1,C,N","002500,1,N,1","+0010,1","+0010,1","99999,9",,"07,5,+00120,1,99,9",,,"07,99,1,99,9,99,9,99999,9,99,9,99,9","10041,1,99999,9","10,1","51,1",,,"MET081METAR ETNJ 160820Z 23012KT 2500 -DZ BR BKN004 01/01 Q1004 BLACKYLO YLO TEMPO AMB;",
"10122099999","2010-12-16T09:02:00","4","53.5335","7.888667","7.31","JEVER, GM","FM-16","ETNJ ","V020","220,1,N,0062,1","00120,1,C,N","004000,1,N,1","+0010,1","+0010,1","99999,9",,"07,5,+00120,1,99,9",,,"07,99,1,99,9,99,9,99999,9,99,9,99,9","10031,1,99999,9","10,1",,,,"MET067SPECI ETNJ 160902Z 22012KT 4000 BR BKN004 01/01 Q1003 BLACKYLO YLO;",
"10122099999","2010-12-16T09:20:00","4","53.5335","7.888667","7.31","JEVER, GM","FM-15","ETNJ ","V020","220,1,N,0057,1","00120,1,C,N","004000,1,N,1","+0010,1","+0010,1","99999,9",,"07,5,+00120,1,99,9",,,"07,99,1,99,9,99,9,99999,9,99,9,99,9","10020,1,99999,9","10,1",,,,"MET067METAR ETNJ 160920Z 22011KT 4000 BR BKN004 01/01 Q1002 BLACKYLO YLO;",
"10122099999","2010-12-16T10:20:00","4","53.5335","7.888667","7.31","JEVER, GM","FM-15","ETNJ ","V020","220,1,N,0067,1","00150,1,C,N","003500,1,N,1","+0010,1","+0010,1","99999,9",,"07,5,+00150,1,99,9",,,"07,99,1,99,9,99,9,99999,9,99,9,99,9","10000,1,99999,9","10,1","61,1","71,1",,"MET081METAR ETNJ 161020Z 22013KT 3500 -SNRA BR BKN005 01/01 Q1000 BLACKYLO FCST CANCEL;",
