"STATION","DATE","SOURCE","LATITUDE","LONGITUDE","ELEVATION","NAME","REPORT_TYPE","CALL_SIGN","QUALITY_CONTROL","WND","CIG","VIS","TMP","DEW","SLP","GA1","GA2","GA3","GF1","KA1","MA1","MW1","MW2","MW3","OC1","REM","EQD"
"10616499999","2010-07-16T08:50:00","4","51.854992","11.418889","180.0","COCHSTEDT, GM","FM-15","EDBC ","V020","130,1,N,0051,1","99999,9,9,Y","009900,1,N,1","+0250,1","+0160,1","99999,9",,,,,,"10169,1,99999,9",,,,,"MET045METAR EDBC 160850Z 13010KT CAVOK 25/16 Q1017;",
"10616499999","2010-07-16T09:20:00","4","51.854992","11.418889","180.0","COCHSTEDT, GM","FM-15","EDBC ","V020","140,1,N,0062,1","99999,9,9,Y","009900,1,N,1","+0260,1","+0160,1","99999,9",,,,,,"10169,1,99999,9",,,,,"MET053METAR EDBC 160920Z 14012KT 120V180 CAVOK 26/16 Q1017;",
"10616499999","2010-07-16T09:50:00","4","51.854992","11.418889","180.0","COCHSTEDT, GM","FM-15","EDBC ","V020","180,1,N,0051,1","99999,9,9,Y","009900,1,N,1","+0260,1","+0160,1","99999,9",,,,,,"10169,1,99999,9",,,,,"MET053METAR EDBC 160950Z 18010KT 140V210 CAVOK 26/16 Q1017;",
"10616499999","2010-07-16T10:20:00","4","51.854992","11.418889","180.0","COCHSTEDT, GM","FM-15","EDBC ","V020","160,1,N,0046,1","99999,9,9,Y","009900,1,N,1","+0270,1","+0160,1","99999,9",,,,,,"10159,1,99999,9",,,,,"MET053METAR EDBC 161020Z 16009KT 120V210 CAVOK 27/16 Q1016;",
"10616499999","2010-07-16T10:50:00","4","51.854992","11.418889","180.0","COCHSTEDT, GM","FM-15","EDBC ","V020","180,1,N,0046,1","99999,9,9,Y","009900,1,N,1","+0280,1","+0170,1","99999,9",,,,,,"10159,1,99999,9",,,,,"MET053METAR EDBC 161050Z 18009KT 130V220 CAVOK 28/17 Q1016;",
"10616499999","2010-07-16T11:20:00","4","51.854992","11.418889","180.0","COCHSTEDT, GM","FM-15","EDBC ","V020","170,1,N,0036,1","22000,1,9,N","011265,1,N,1","+0280,1","+0180,1","99999,9","02,5,+01320,1,99,9",,,"02,99,1,99,9,99,9,99999,9,99,9,99,9",,"10159,1,99999,9",,,,,"MET051METAR EDBC 161120Z 17007KT 9999 FEW044 28/18 Q1016;",
"10616499999","2010-07-16T11:50:00","4","51.854992","11.418889","180.0","COCHSTEDT, GM","FM-15","EDBC ","V020","140,1,N,0036,1","99999,9,9,Y","009900,1,N,1","+0280,1","+0170,1","99999,9",,,,,,"10159,1,99999,9",,,,,"MET045METAR EDBC 161150Z 14007KT CAVOK 28/17 Q1016;",
"10616499999","2010-07-16T12:20:00","4","51.854992","11.418889","180.0","COCHSTEDT, GM","FM-15","EDBC ","V020","190,1,N,0046,1","99999,9,9,Y","009900,1,N,1","+0290,1","+0180,1","99999,9",,,,,,"10159,1,99999,9",,,,,"MET045METAR EDBC 161220Z 19009KT CAVOK 29/18 Q1016;",
"10616499999","2010-07-16T12:50:00","4","51.854992","11.418889","180.0","COCHSTEDT, GM","FM-15","EDBC ","V020","190,1,N,0036,1","99999,9,9,Y","009900,1,N,1","+0290,1","+0170,1","99999,9",,,,,,"10149,1,99999,9",,,,,"MET045METAR EDBC 161250Z 19007KT CAVOK 29/17 Q1015;",
"10616499999","2010-07-16T13:20:00","4","51.854992","11.418889","180.0","COCHSTEDT, GM","FM-15","EDBC ","V020","180,1,N,0067,1","99999,9,9,Y","009900,1,N,1","+0300,1","+0180,1","99999,9",,,,,,"10149,1,99999,9",,,,,"MET045METAR EDBC 161320Z 18013KT CAVOK 30/18 Q1015;",
"10616499999","2010-07-16T13:50:00","4","51.854992","11.418889","180.0","COCHSTEDT, GM","FM-15","EDBC ","V020","180,1,N,0041,1","99999,9,9,Y","009900,1,N,1","+0300,1","+0170,1","99999,9",,,,,,"10149,1,99999,9",,,,,"MET045METAR EDBC 161350Z 18008KT CAVOK 30/17 Q1015;",
"10616499999","2010-07-19T04:20:00","4","51.854992","11.418889","180.0","COCHSTEDT, GM","FM-15","EDBC ","V020","250,1,N,0021,1","99999,9,9,Y","009900,1,N,1","+0130,1","+0100,1","99999,9",,,,,,"10251,1,99999,9",,,,,"MET045METAR EDBC 190420Z 25004KT CAVOK 13/10 Q1025;",
"10616499999","2010-07-19T04:50:00","4","51.854992","11.418889","180.0","COCHSTEDT, GM","FM-15","EDBC ","V020","999,9,V,0015,1","99999,9,9,Y","009900,1,N,1","+0140,1","+0100,1","99999,9",,,,,,"10251,1,99999,9",,,,,"MET045METAR EDBC 190450Z VRB03KT CAVOK 14/10 Q1025;",
"10616499999","2010-07-19T05:20:00","4","51.854992","11.418889","180.0","COCHSTEDT, GM","FM-15","EDBC ","V020","999,9,V,0015,1","99999,9,9,Y","009900,1,N,1","+0170,1","+0110,1","99999,9",,,,,,"10261,1,99999,9",,,,,"MET045METAR EDBC 190520Z VRB03KT CAVOK 17/11 Q1026;",
"10616499999","2010-07-19T05:50:00","4","51.854992","11.418889","180.0","COCHSTEDT, GM","FM-15","EDBC ","V020","999,9,V,0010,1","99999,9,9,Y","009900,1,N,1","+0180,1","+0120,1","99999,9",,,,,,"10261,1,99999,9",,,,,"MET045METAR EDBC 190550Z VRB02KT CAVOK 18/12 Q1026;",
"10616499999","2010-07-19T06:20:00","4","51.854992","11.418889","180.0","COCHSTEDT, GM","FM-15","EDBC ","V020","999,9,C,0000,1","22000,1,9,N","009900,1,N,1","+0190,1","+0120,1","99999,9",,,,,,"10260,1,99999,9",,,,,"MET042METAR EDBC 190620Z CALM CAVOK 19/12 Q1026;",
"10616499999","2010-07-19T06:50:00","4","51.854992","11.418889","180.0","COCHSTEDT, GM","FM-15","EDBC ","V020","999,9,9,9999,9","22000,1,9,N","009900,1,N,1","+0210,1","+0140,1","99999,9",,,,,,"10260,1,99999,9",,,,,"MET044METAR EDBC 190650Z VRB02K CAVOK 21/14 Q1026;",
"10616499999","2010-07-19T07:20:00","4","51.854992","11.418889","180.0","COCHSTEDT, GM","FM-15","EDBC ","V020","999,9,V,0010,1","99999,9,9,Y","009900,1,N,1","+0210,1","+0130,1","99999,9",,,,,,"10261,1,99999,9",,,,,"MET045METAR EDBC 190720Z VRB02KT CAVOK 21/13 Q1026;",
"10616499999","2010-07-19T07:50:00","4","51.854992","11.418889","180.0","COCHSTEDT, GM","FM-15","EDBC ","V020","999,9,V,0015,1","99999,9,9,Y","009900,1,N,1","+0210,1","+0120,1","99999,9",,,,,,"10261,1,99999,9",,,,,"MET045METAR EDBC 190750Z VRB03KT CAVOK 21/12 Q1026;",
"10616499999","2010-07-19T08:20:00","4","51.854992","11.418889","180.0","COCHSTEDT, GM","FM-15","EDBC ","V020","999,9,V,0015,1","99999,9,9,Y","009900,1,N,1","+0220,1","+0100,1","99999,9",,,,,,"10261,1,99999,9",,,,,"MET045METAR EDBC 190820Z VRB03KT CAVOK 22/10 Q1026;",
"10616499999","2010-07-19T08:50:00","4","51.854992","11.418889","180.0","COCHSTEDT, GM","FM-15","EDBC ","V020","150,1,N,0031,1","99999,9,9,Y","009900,1,N,1","+0230,1","+0100,1","99999,9",,,,,,"10261,1,99999,9",,,,,"MET045METAR EDBC 190850Z 15006KT CAVOK 23/10 Q1026;",
"10616499999","2010-07-19T09:20:00","4","51.854992","11.418889","180.0","COCHSTEDT, GM","FM-15","EDBC ","V020","190,1,N,0026,1","99999,9,9,Y","009900,1,N,1","+0230,1","+0090,1","99999,9",,,,,,"10251,1,99999,9",,,,,"MET045METAR EDBC 190920Z 19005KT CAVOK 23/09 Q1025;",
"10616499999","2010-07-19T10:20:00","4","51.854992","11.418889","180.0","COCHSTEDT, GM","FM-15","EDBC ","V020","140,1,N,0026,1","99999,9,9,Y","009900,1,N,1","+0230,1","+0080,1","99999,9",,,,,,"10251,1,99999,9",,,,,"MET045METAR EDBC 191020Z 14005KT CAVOK 23/08 Q1025;",
"10616499999","2010-07-19T10:50:00","4","51.854992","11.418889","180.0","COCHSTEDT, GM","FM-15","EDBC ","V020","220,1,N,0031,1","99999,9,9,Y","009900,1,N,1","+0230,1","+0080,1","99999,9",,,,,,"10251,1,99999,9",,,,,"MET045METAR EDBC 191050Z 22006KT CAVOK 23/08 Q1025;",
"10616499999","2010-07-19T11:20:00","4","51.854992","11.418889","180.0","COCHSTEDT, GM","FM-15","EDBC ","V020","999,9,V,0015,1","99999,9,9,Y","009900,1,N,1","+0230,1","+0100,1","99999,9",,,,,,"10240,1,99999,9",,,,,"MET045METAR EDBC 191120Z VRB03KT CAVOK 23/10 Q1024;",
"10616499999","2010-07-19T11:50:00","4","51.854992","11.418889","180.0","COCHSTEDT, GM","FM-15","EDBC ","V020","999,9,V,0026,1","99999,9,9,Y","009900,1,N,1","+0230,1","+0100,1","99999,9",,,,,,"10240,1,99999,9",,,,,"MET045METAR EDBC 191150Z VRB05KT CAVOK 23/10 Q1024;",
"10616499999","2010-07-19T12:20:00","4","51.854992","11.418889","180.0","COCHSTEDT, GM","FM-15","EDBC ","V020","110,1,N,0026,1","99999,9,9,Y","009900,1,N,1","+0240,1","+0090,1","99999,9",,,,,,"10240,1,99999,9",,,,,"MET053METAR EDBC 191220Z 11005KT 050V190 CAVOK 24/09 Q1024;",
"10616499999","2010-07-19T12:50:00","4","51.854992","11.418889","180.0","COCHSTEDT, GM","FM-15","EDBC ","V020","999,9,V,0021,1","99999,9,9,Y","009900,1,N,1","+0250,1","+0090,1","99999,9",,,,,,"10240,1,99999,9",,,,,"MET045METAR EDBC 191250Z VRB04KT CAVOK 25/09 Q1024;",
"10616499999","2010-07-19T13:20:00","4","51.854992","11.418889","180.0","COCHSTEDT, GM","FM-15","EDBC ","V020","150,1,N,0036,1","99999,9,9,Y","009900,1,N,1","+0250,1","+0090,1","99999,9",,,,,,"10240,1,99999,9",,,,,"MET053METAR EDBC 191320Z 15007KT 100V210 CAVOK 25/09 Q1024;",
"10616499999","2010-07-19T13:50:00","4","51.854992","11.418889","180.0","COCHSTEDT, GM","FM-15","EDBC ","V020","999,9,V,0026,1","99999,9,9,Y","009900,1,N,1","+0250,1","+0100,1","99999,9",,,,,,"10230,1,99999,9",,,,,"MET045METAR EDBC 191350Z VRB05KT CAVOK 25/10 Q1023;",
"10616499999","2010-07-19T14:20:00","4","51.854992","11.418889","180.0","COCHSTEDT, GM","FM-15","EDBC ","V020","160,1,N,0031,1","99999,9,9,Y","009900,1,N,1","+0250,1","+0100,1","99999,9",,,,,,"10230,1,99999,9",,,,,"MET053METAR EDBC 191420Z 16006KT 100V200 CAVOK 25/10 Q1023;",
"10616499999","2010-07-19T14:50:00","4","51.854992","11.418889","180.0","COCHSTEDT, GM","FM-15","EDBC ","V020","130,1,N,0026,1","99999,9,9,Y","009900,1,N,1","+0250,1","+0100,1","99999,9",,,,,,"10230,1,99999,9",,,,,"MET053METAR EDBC 191450Z 13005KT 090V210 CAVOK 25/10 Q1023;",
"10616499999","2010-07-19T15:20:00","4","51.854992","11.418889","180.0","COCHSTEDT, GM","FM-15","EDBC ","V020","999,9,V,0031,1","99999,9,9,Y","009900,1,N,1","+0250,1","+0100,1","99999,9",,,,,,"10230,1,99999,9",,,,,"MET045METAR EDBC 191520Z VRB06KT CAVOK 25/10 Q1023;",
"10616499999","2010-07-19T15:50:00","4","51.854992","11.418889","180.0","COCHSTEDT, GM","FM-15","EDBC ","V020","999,9,V,0021,1","99999,9,9,Y","009900,1,N,1","+0250,1","+0100,1","99999,9",,,,,,"10220,1,99999,9",,,,,"MET045METAR EDBC 191550Z VRB04KT CAVOK 25/10 Q1022;",
"10616499999","2010-07-20T04:20:00","4","51.854992","11.418889","180.0","COCHSTEDT, GM","FM-15","EDBC ","V020","999,9,9,9999,9","22000,1,9,N","009900,1,N,1","+9999,9","+0110,1","99999,9",,,,,,"10200,1,99999,9",,,,,"MET044METAR EDBC 200420Z 13006K CAVOK 15/11 Q1020;",
"10616499999","2010-07-20T04:50:00","4","51.854992","11.418889","180.0","COCHSTEDT, GM","FM-15","EDBC ","V020","150,1,N,0036,1","99999,9,9,Y","009900,1,N,1","+0160,1","+0120,1","99999,9",,,,,,"10200,1,99999,9",,,,,"MET045METAR EDBC 200450Z 15007KT CAVOK 16/12 Q1020;",
"10616499999","2010-07-20T05:20:00","4","51.854992","11.418889","180.0","COCHSTEDT, GM","FM-15","EDBC ","V020","150,1,N,0026,1","22000,1,9,N","009900,1,N,1","+0170,1","+0120,1","99999,9",,,,,,"10200,1,99999,9",,,,,"MET046METAR EDBC 200520Z 15005KT 9CAVOK 17/12 Q1020;",
"10616499999","2010-07-20T05:50:00","4","51.854992","11.418889","180.0","COCHSTEDT, GM","FM-15","EDBC ","V020","140,1,N,0021,1","99999,9,9,Y","009900,1,N,1","+0190,1","+0120,1","99999,9",,,,,,"10200,1,99999,9",,,,,"MET045METAR EDBC 200550Z 14004KT CAVOK 19/12 Q1020;",
"10616499999","2010-07-20T06:20:00","4","51.854992","11.418889","180.0","COCHSTEDT, GM","FM-15","EDBC ","V020","160,1,N,0026,1","99999,9,9,Y","009900,1,N,1","+0200,1","+0120,1","99999,9",,,,,,"10200,1,99999,9",,,,,"MET045METAR EDBC 200620Z 16005KT CAVOK 20/12 Q1020;",
"10616499999","2010-07-20T06:50:00","4","51.854992","11.418889","180.0","COCHSTEDT, GM","FM-15","EDBC ","V020","130,1,N,0031,1","99999,9,9,Y","009900,1,N,1","+0210,1","+0120,1","99999,9",,,,,,"10200,1,99999,9",,,,,"MET045METAR EDBC 200650Z 13006KT CAVOK 21/12 Q1020;",
"10616499999","2010-07-20T07:20:00","4","51.854992","11.418889","180.0","COCHSTEDT, GM","FM-15","EDBC ","V020","140,1,N,0036,1","99999,9,9,Y","009900,1,N,1","+0220,1","+0110,1","99999,9",,,,,,"10200,1,99999,9",,,,,"MET045METAR EDBC 200720Z 14007KT CAVOK 22/11 Q1020;",
"10616499999","2010-07-20T07:50:00","4","51.854992","11.418889","180.0","COCHSTEDT, GM","FM-15","EDBC ","V020","120,1,N,0036,1","99999,9,9,Y","009900,1,N,1","+0230,1","+0110,1","99999,9",,,,,,"10200,1,99999,9",,,,,"MET045METAR EDBC 200750Z 12007KT CAVOK 23/11 Q1020;",
"10616499999","2010-07-20T08:20:00","4","51.854992","11.418889","180.0","COCHSTEDT, GM","FM-15","EDBC ","V020","120,1,N,0041,1","99999,9,9,Y","009900,1,N,1","+0230,1","+0110,1","99999,9",,,,,,"10190,1,99999,9",,,,,"MET045METAR EDBC 200820Z 12008KT CAVOK 23/11 Q1019;",
"10616499999","2010-07-20T08:50:00","4","51.854992","11.418889","180.0","COCHSTEDT, GM","FM-15","EDBC ","V020","120,1,N,0046,1","99999,9,9,Y","009900,1,N,1","+0240,1","+0110,1","99999,9",,,,,,"10190,1,99999,9",,,,,"MET045METAR EDBC 200850Z 12009KT CAVOK 24/11 Q1019;",
"10616499999","2010-07-20T09:20:00","4","51.854992","11.418889","180.0","COCHSTEDT, GM","FM-15","EDBC ","V020","130,1,N,0036,1","99999,9,9,Y","009900,1,N,1","+0240,1","+0100,1","99999,9",,,,,,"10190,1,99999,9",,,,,"MET045METAR EDBC 200920Z 13007KT CAVOK 24/10 Q1019;",
"10616499999","2010-07-20T09:50:00","4","51.854992","11.418889","180.0","COCHSTEDT, GM","FM-15","EDBC ","V020","100,1,N,0031,1","99999,9,9,Y","009900,1,N,1","+0250,1","+0100,1","99999,9",,,,,,"10190,1,99999,9",,,,,"MET045METAR EDBC 200950Z 10006KT CAVOK 25/10 Q1019;",
"10616499999","2010-07-20T10:20:00","4","51.854992","11.418889","180.0","COCHSTEDT, GM","FM-15","EDBC ","V020","120,1,N,0041,1","99999,9,9,Y","009900,1,N,1","+0250,1","+0110,1","99999,9",,,,,,"10180,1,99999,9",,,,,"MET045METAR EDBC 201020Z 12008KT CAVOK 25/11 Q1018;",
"10616499999","2010-07-20T10:50:00","4","51.854992","11.418889","180.0","COCHSTEDT, GM","FM-15","EDBC ","V020","130,1,N,0031,1","99999,9,9,Y","009900,1,N,1","+0250,1","+0110,1","99999,9",,,,,,"10180,1,99999,9",,,,,"MET045METAR EDBC 201050Z 13006KT CAVOK 25/11 Q1018;",
"10616499999","2010-07-20T11:20:00","4","51.854992","11.418889","180.0","COCHSTEDT, GM","FM-15","EDBC ","V020","110,1,N,0036,1","99999,9,9,Y","009900,1,N,1","+0260,1","+0110,1","99999,9",,,,,,"10180,1,99999,9",,,,,"MET045METAR EDBC 201120Z 11007KT CAVOK 26/11 Q1018;",
"10616499999","2010-07-20T11:50:00","4","51.854992","11.418889","180.0","COCHSTEDT, GM","FM-15","EDBC ","V020","130,1,N,0046,1","99999,9,9,Y","009900,1,N,1","+0260,1","+0120,1","99999,9",,,,,,"10169,1,99999,9",,,,,"MET045METAR EDBC 201150Z 13009KT CAVOK 26/12 Q1017;",
"10616499999","2010-07-20T12:20:00","4","51.854992","11.418889","180.0","COCHSTEDT, GM","FM-15","EDBC ","V020","140,1,N,0036,1","99999,9,9,Y","009900,1,N,1","+0260,1","+0100,1","99999,9",,,,,,"10169,1,99999,9",,,,,"MET045METAR EDBC 201220Z 14007KT CAVOK 26/10 Q1017;",
"10616499999","2010-07-20T12:50:00","4","51.854992","11.418889","180.0","COCHSTEDT, GM","FM-15","EDBC ","V020","090,1,N,0046,1","99999,9,9,Y","009900,1,N,1","+0270,1","+0120,1","99999,9",,,,,,"10159,1,99999,9",,,,,"MET045METAR EDBC 201250Z 09009KT CAVOK 27/12 Q1016;",
"10616499999","2010-07-20T13:20:00","4","51.854992","11.418889","180.0","COCHSTEDT, GM","FM-15","EDBC ","V020","130,1,N,0041,1","99999,9,9,Y","009900,1,N,1","+0270,1","+0110,1","99999,9",,,,,,"10159,1,99999,9",,,,,"MET053METAR EDBC 201320Z 13008KT 070V180 CAVOK 27/11 Q1016;",
"10616499999","2010-07-20T13:50:00","4","51.854992","11.418889","180.0","COCHSTEDT, GM","FM-15","EDBC ","V020","100,1,N,0041,1","99999,9,9,Y","009900,1,N,1","+0270,1","+0120,1","99999,9",,,,,,"10159,1,99999,9",,,,,"MET053METAR EDBC 201350Z 10008KT 070V190 CAVOK 27/12 Q1016;",
"10616499999","2010-07-21T04:20:00","4","51.854992","11.418889","180.0","COCHSTEDT, GM","FM-15","EDBC ","V020","150,1,N,0051,1","22000,1,9,N","006000,1,N,1","+0160,1","+0150,1","99999,9",,,,,,"10102,1,99999,9",,,,,"MET044METAR EDBC 210420Z 15010KT 6000 16/15 Q1010;",
"10616499999","2010-07-21T04:50:00","4","51.854992","11.418889","180.0","COCHSTEDT, GM","FM-15","EDBC ","V020","160,1,N,0051,1","22000,1,9,N","008000,1,N,1","+0170,1","+0160,1","99999,9",,,,,,"10102,1,99999,9",,,,,"MET044METAR EDBC 210450Z 16010KT 8000 17/16 Q1010;",
"10616499999","2010-07-21T05:20:00","4","51.854992","11.418889","180.0","COCHSTEDT, GM","FM-15","EDBC ","V020","160,1,N,0051,1","22000,1,9,N","008000,1,N,1","+0180,1","+0160,1","99999,9",,,,,,"10102,1,99999,9",,,,,"MET044METAR EDBC 210520Z 16010KT 8000 18/16 Q1010;",
"10616499999","2010-07-21T05:50:00","4","51.854992","11.418889","180.0","COCHSTEDT, GM","FM-15","EDBC ","V020","150,1,N,0051,1","22000,1,9,N","009000,1,N,1","+0190,1","+0170,1","99999,9",,,,,,"10102,1,99999,9",,,,,"MET044METAR EDBC 210550Z 15010KT 9000 19/17 Q1010;",
"10616499999","2010-07-21T06:20:00","4","51.854992","11.418889","180.0","COCHSTEDT, GM","FM-15","EDBC ","V020","150,1,N,0051,1","99999,9,9,Y","009900,1,N,1","+0200,1","+0170,1","99999,9",,,,,,"10102,1,99999,9",,,,,"MET045METAR EDBC 210620Z 15010KT CAVOK 20/17 Q1010;",
"10616499999","2010-07-21T06:50:00","4","51.854992","11.418889","180.0","COCHSTEDT, GM","FM-15","EDBC ","V020","150,1,N,0051,1","99999,9,9,Y","009900,1,N,1","+0210,1","+0170,1","99999,9",,,,,,"10102,1,99999,9",,,,,"MET045METAR EDBC 210650Z 15010KT CAVOK 21/17 Q1010;",
"10616499999","2010-07-21T07:20:00","4","51.854992","11.418889","180.0","COCHSTEDT, GM","FM-15","EDBC ","V020","150,1,N,0046,1","99999,9,9,Y","009900,1,N,1","+0230,1","+0180,1","99999,9",,,,,,"10102,1,99999,9",,,,,"MET045METAR EDBC 210720Z 15009KT CAVOK 23/18 Q1010;",
"10616499999","2010-07-21T07:50:00","4","51.854992","11.418889","180.0","COCHSTEDT, GM","FM-15","EDBC ","V020","150,1,N,0036,1","99999,9,9,Y","009900,1,N,1","+0240,1","+0180,1","99999,9",,,,,,"10102,1,99999,9",,,,,"MET045METAR EDBC 210750Z 15007KT CAVOK 24/18 Q1010;",
"10616499999","2010-07-21T08:20:00","4","51.854992","11.418889","180.0","COCHSTEDT, GM","FM-15","EDBC ","V020","150,1,N,0041,1","99999,9,9,Y","009900,1,N,1","+0260,1","+0180,1","99999,9",,,,,,"10102,1,99999,9",,,,,"MET053METAR EDBC 210820Z 15008KT 120V180 CAVOK 26/18 Q1010;",
"10616499999","2010-07-21T08:50:00","4","51.854992","11.418889","180.0","COCHSTEDT, GM","FM-15","EDBC ","V020","150,1,N,0036,1","99999,9,9,Y","009900,1,N,1","+0270,1","+0170,1","99999,9",,,,,,"10102,1,99999,9",,,,,"MET053METAR EDBC 210850Z 15007KT 110V190 CAVOK 27/17 Q1010;",
"10616499999","2010-07-21T09:20:00","4","51.854992","11.418889","180.0","COCHSTEDT, GM","FM-15","EDBC ","V020","130,1,N,0051,1","99999,9,9,Y","009900,1,N,1","+0280,1","+0170,1","99999,9",,,,,,"10091,1,99999,9",,,,,"MET053METAR EDBC 210920Z 13010KT 090V160 CAVOK 28/17 Q1009;",
"10616499999","2010-07-21T09:50:00","4","51.854992","11.418889","180.0","COCHSTEDT, GM","FM-15","EDBC ","V020","190,1,N,0057,1","99999,9,9,Y","009900,1,N,1","+0290,1","+0150,1","99999,9",,,,,,"10091,1,99999,9",,,,,"MET053METAR EDBC 210950Z 19011KT 030V320 CAVOK 29/15 Q1009;",
"10616499999","2010-07-21T10:20:00","4","51.854992","11.418889","180.0","COCHSTEDT, GM","FM-15","EDBC ","V020","170,1,N,0051,1","99999,9,9,Y","009900,1,N,1","+0290,1","+0150,1","99999,9",,,,,,"10091,1,99999,9",,,,,"MET045METAR EDBC 211020Z 17010KT CAVOK 29/15 Q1009;",
"10616499999","2010-07-21T10:50:00","4","51.854992","11.418889","180.0","COCHSTEDT, GM","FM-15","EDBC ","V020","170,1,N,0057,1","99999,9,9,Y","009900,1,N,1","+0290,1","+0150,1","99999,9",,,,,,"10091,1,99999,9",,,,,"MET045METAR EDBC 211050Z 17011KT CAVOK 29/15 Q1009;",
"10616499999","2010-07-21T11:20:00","4","51.854992","11.418889","180.0","COCHSTEDT, GM","FM-15","EDBC ","V020","170,1,N,0057,1","99999,9,9,Y","009900,1,N,1","+0290,1","+0130,1","99999,9",,,,,,"10091,1,99999,9",,,,,"MET045METAR EDBC 211120Z 17011KT CAVOK 29/13 Q1009;",
"10616499999","2010-07-21T11:50:00","4","51.854992","11.418889","180.0","COCHSTEDT, GM","FM-15","EDBC ","V020","180,1,N,0041,1","99999,9,9,Y","009900,1,N,1","+0300,1","+0130,1","99999,9",,,,,,"10091,1,99999,9",,,,,"MET053METAR EDBC 211150Z 18008KT 150V210 CAVOK 30/13 Q1009;",
"10616499999","2010-07-21T12:20:00","4","51.854992","11.418889","180.0","COCHSTEDT, GM","FM-15","EDBC ","V020","190,1,N,0051,1","99999,9,9,Y","009900,1,N,1","+0300,1","+0140,1","99999,9",,,,,,"10091,1,99999,9",,,,,"MET053METAR EDBC 211220Z 19010KT 160V220 CAVOK 30/14 Q1009;",
"10616499999","2010-07-21T12:50:00","4","51.854992","11.418889","180.0","COCHSTEDT, GM","FM-15","EDBC ","V020","170,1,N,0036,1","99999,9,9,Y","009900,1,N,1","+0310,1","+0150,1","99999,9",,,,,,"10081,1,99999,9",,,,,"MET053METAR EDBC 211250Z 17007KT 130V200 CAVOK 31/15 Q1008;",
"10616499999","2010-07-21T13:20:00","4","51.854992","11.418889","180.0","COCHSTEDT, GM","FM-15","EDBC ","V020","150,1,N,0046,1","99999,9,9,Y","009900,1,N,1","+0310,1","+0140,1","99999,9",,,,,,"10081,1,99999,9",,,,,"MET053METAR EDBC 211320Z 15009KT 090V210 CAVOK 31/14 Q1008;",
"10616499999","2010-07-21T13:50:00","4","51.854992","11.418889","180.0","COCHSTEDT, GM","FM-15","EDBC ","V020","150,1,N,0041,1","99999,9,9,Y","009900,1,N,1","+0320,1","+0140,1","99999,9",,,,,,"10081,1,99999,9",,,,,"MET053METAR EDBC 211350Z 15008KT 090V200 CAVOK 32/14 Q1008;",
"10616499999","2010-07-21T15:50:00","4","51.854992","11.418889","180.0","COCHSTEDT, GM","FM-15","EDBC ","V020","170,1,N,0046,1","99999,9,9,Y","009900,1,N,1","+0320,1","+0140,1","99999,9",,,,,,"10071,1,99999,9",,,,,"MET045METAR EDBC 211550Z 17009KT CAVOK 32/14 Q1007;",
"10616499999","2010-07-22T04:20:00","4","51.854992","11.418889","180.0","COCHSTEDT, GM","FM-15","EDBC ","V020","290,1,N,0041,1","99999,9,9,Y","009900,1,N,1","+0210,1","+0160,1","99999,9",,,,,,"10108,1,99999,9",,,,,"MET045METAR EDBC 220420Z 29008KT CAVOK 21/16 Q1011;",
"10616499999","2010-07-22T04:50:00","4","51.854992","11.418889","180.0","COCHSTEDT, GM","FM-15","EDBC ","V020","300,1,N,0036,1","99999,9,9,Y","009900,1,N,1","+0210,1","+0150,1","99999,9",,,,,,"10108,1,99999,9",,,,,"MET045METAR EDBC 220450Z 30007KT CAVOK 21/15 Q1011;",
"10616499999","2010-07-22T05:20:00","4","51.854992","11.418889","180.0","COCHSTEDT, GM","FM-15","EDBC ","V020","300,1,N,0036,1","99999,9,9,Y","009900,1,N,1","+0210,1","+0150,1","99999,9",,,,,,"10119,1,99999,9",,,,,"MET045METAR EDBC 220520Z 30007KT CAVOK 21/15 Q1012;",
"10616499999","2010-07-22T05:50:00","4","51.854992","11.418889","180.0","COCHSTEDT, GM","FM-15","EDBC ","V020","300,1,N,0026,1","99999,9,9,Y","009900,1,N,1","+0210,1","+0150,1","99999,9",,,,,,"10119,1,99999,9",,,,,"MET045METAR EDBC 220550Z 30005KT CAVOK 21/15 Q1012;",
"10616499999","2010-07-22T06:20:00","4","51.854992","11.418889","180.0","COCHSTEDT, GM","FM-15","EDBC ","V020","270,1,N,0021,1","99999,9,9,Y","009900,1,N,1","+0220,1","+0150,1","99999,9",,,,,,"10119,1,99999,9",,,,,"MET045METAR EDBC 220620Z 27004KT CAVOK 22/15 Q1012;",
"10616499999","2010-07-22T06:50:00","4","51.854992","11.418889","180.0","COCHSTEDT, GM","FM-15","EDBC ","V020","999,9,V,0015,1","99999,9,9,Y","009900,1,N,1","+0220,1","+0140,1","99999,9",,,,,,"10119,1,99999,9",,,,,"MET045METAR EDBC 220650Z VRB03KT CAVOK 22/14 Q1012;",
"10616499999","2010-07-22T07:20:00","4","51.854992","11.418889","180.0","COCHSTEDT, GM","FM-15","EDBC ","V020","330,1,N,0036,1","99999,9,9,Y","009900,1,N,1","+0230,1","+0150,1","99999,9",,,,,,"10129,1,99999,9",,,,,"MET045METAR EDBC 220720Z 33007KT CAVOK 23/15 Q1013;",
"10616499999","2010-07-22T07:50:00","4","51.854992","11.418889","180.0","COCHSTEDT, GM","FM-15","EDBC ","V020","330,1,N,0031,1","99999,9,9,Y","009900,1,N,1","+0230,1","+0170,1","99999,9",,,,,,"10129,1,99999,9",,,,,"MET045METAR EDBC 220750Z 33006KT CAVOK 23/17 Q1013;",
"10616499999","2010-07-22T08:20:00","4","51.854992","11.418889","180.0","COCHSTEDT, GM","FM-15","EDBC ","V020","310,1,N,0036,1","99999,9,9,Y","009900,1,N,1","+0240,1","+0170,1","99999,9",,,,,,"10129,1,99999,9",,,,,"MET045METAR EDBC 220820Z 31007KT CAVOK 24/17 Q1013;",
"10616499999","2010-07-22T08:50:00","4","51.854992","11.418889","180.0","COCHSTEDT, GM","FM-15","EDBC ","V020","320,1,N,0031,1","99999,9,9,Y","009900,1,N,1","+0250,1","+0170,1","99999,9",,,,,,"10129,1,99999,9",,,,,"MET045METAR EDBC 220850Z 32006KT CAVOK 25/17 Q1013;",
"10616499999","2010-07-22T09:20:00","4","51.854992","11.418889","180.0","COCHSTEDT, GM","FM-15","EDBC ","V020","290,1,N,0026,1","99999,9,9,Y","009900,1,N,1","+0250,1","+0170,1","99999,9",,,,,,"10129,1,99999,9",,,,,"MET045METAR EDBC 220920Z 29005KT CAVOK 25/17 Q1013;",
"10616499999","2010-07-22T09:50:00","4","51.854992","11.418889","180.0","COCHSTEDT, GM","FM-15","EDBC ","V020","210,1,N,0031,1","22000,1,9,N","011265,1,N,1","+0260,1","+0170,1","99999,9","04,5,+01080,1,99,9",,,"04,99,1,99,9,99,9,99999,9,99,9,99,9",,"10129,1,99999,9",,,,,"MET051METAR EDBC 220950Z 21006KT 9999 SCT036 26/17 Q1013;",
"10616499999","2010-07-22T10:20:00","4","51.854992","11.418889","180.0","COCHSTEDT, GM","FM-15","EDBC ","V020","220,1,N,0021,1","22000,1,9,N","011265,1,N,1","+0260,1","+0170,1","99999,9","04,5,+01140,1,99,9",,,"04,99,1,99,9,99,9,99999,9,99,9,99,9",,"10129,1,99999,9",,,,,"MET051METAR EDBC 221020Z 22004KT 9999 SCT038 26/17 Q1013;",
"10616499999","2010-07-22T10:50:00","4","51.854992","11.418889","180.0","COCHSTEDT, GM","FM-15","EDBC ","V020","999,9,V,0015,1","22000,1,9,N","011265,1,N,1","+0270,1","+0170,1","99999,9","04,5,+01260,1,99,9",,,"04,99,1,99,9,99,9,99999,9,99,9,99,9",,"10129,1,99999,9",,,,,"MET051METAR EDBC 221050Z VRB03KT 9999 SCT042 27/17 Q1013;",
"10616499999","2010-07-22T11:20:00","4","51.854992","11.418889","180.0","COCHSTEDT, GM","FM-15","EDBC ","V020","999,9,V,0015,1","22000,1,9,N","011265,1,N,1","+0270,1","+0170,1","99999,9","04,5,+01320,1,99,9",,,"04,99,1,99,9,99,9,99999,9,99,9,99,9",,"10129,1,99999,9",,,,,"MET051METAR EDBC 221120Z VRB03KT 9999 SCT044 27/17 Q1013;",
"10616499999","2010-07-22T11:50:00","4","51.854992","11.418889","180.0","COCHSTEDT, GM","FM-15","EDBC ","V020","110,1,N,0021,1","22000,1,9,N","011265,1,N,1","+0270,1","+0170,1","99999,9","04,5,+01320,1,99,9",,,"04,99,1,99,9,99,9,99999,9,99,9,99,9",,"10129,1,99999,9",,,,,"MET059METAR EDBC 221150Z 11004KT 030V170 9999 SCT044 27/17 Q1013;",
"10616499999","2010-07-22T12:20:00","4","51.854992","11.418889","180.0","COCHSTEDT, GM","FM-15","EDBC ","V020","999,9,V,0010,1","22000,1,9,N","011265,1,N,1","+0280,1","+0170,1","99999,9","04,5,+01320,1,99,9",,,"04,99,1,99,9,99,9,99999,9,99,9,99,9",,"10129,1,99999,9",,,,,"MET051METAR EDBC 221220Z VRB02KT 9999 SCT044 28/17 Q1013;",
"10616499999","2010-07-22T12:50:00","4","51.854992","11.418889","180.0","COCHSTEDT, GM","FM-15","EDBC ","V020","350,1,N,0041,1","22000,1,9,N","011265,1,N,1","+0270,1","+0170,1","99999,9","04,5,+01350,1,99,9",,,"04,99,1,99,9,99,9,99999,9,99,9,99,9",,"10129,1,99999,9",,,,,"MET059METAR EDBC 221250Z 35008KT 320V030 9999 SCT045 27/17 Q1013;",
"10616499999","2010-07-22T13:20:00","4","51.854992","11.418889","180.0","COCHSTEDT, GM","FM-15","EDBC ","V020","350,1,N,0026,1","22000,1,9,N","011265,1,N,1","+0280,1","+0180,1","99999,9","04,5,+01260,1,99,9",,,"04,99,1,99,9,99,9,99999,9,99,9,99,9",,"10129,1,99999,9",,,,,"MET059METAR EDBC 221320Z 35005KT 290V080 9999 SCT042 28/18 Q1013;",
"10616499999","2010-07-22T13:50:00","4","51.854992","11.418889","180.0","COCHSTEDT, GM","FM-15","EDBC ","V020","999,9,V,0015,1","22000,1,9,N","011265,1,N,1","+0290,1","+0170,1","99999,9","04,5,+01440,1,99,9",,,"04,99,1,99,9,99,9,99999,9,99,9,99,9",,"10119,1,99999,9",,,,,"MET051METAR EDBC 221350Z VRB03KT 9999 SCT048 29/17 Q1012;",
"10616499999","2010-07-23T04:20:00","4","51.854992","11.418889","180.0","COCHSTEDT, GM","FM-15","EDBC ","V020","350,1,N,0031,1","00120,1,C,N","003000,1,N,1","+0170,1","+0170,1","99999,9","07,5,+00120,1,99,9","08,5,+00390,1,99,9",,"08,99,1,99,9,99,9,99999,9,99,9,99,9",,"10159,1,99999,9","10,1",,,,"MET061METAR EDBC 230420Z 35006KT 3000 BR BKN004 OVC013 17/17 Q1016;",
"10616499999","2010-07-23T04:50:00","4","51.854992","11.418889","180.0","COCHSTEDT, GM","FM-15","EDBC ","V020","350,1,N,0036,1","00480,1,C,N","003500,1,N,1","+0170,1","+0170,1","99999,9","04,5,+00240,1,99,9","07,5,+00480,1,99,9",,"07,99,1,99,9,99,9,99999,9,99,9,99,9",,"10149,1,99999,9","10,1",,,,"MET061METAR EDBC 230450Z 35007KT 3500 BR SCT008 BKN016 17/17 Q1015;",
"10616499999","2010-07-23T05:20:00","4","51.854992","11.418889","180.0","COCHSTEDT, GM","FM-15","EDBC ","V020","340,1,N,0041,1","00150,1,C,N","003000,1,N,1","+0170,1","+0170,1","99999,9","02,5,+00060,1,99,9","04,5,+00150,1,99,9","07,5,+00480,1,99,9","07,99,1,99,9,99,9,99999,9,99,9,99,9",,"10159,1,99999,9",,,,,"MET065METAR EDBC 230520Z 34008KT 3000 FEW002 SCT005 BKN016 17/17 Q1016;",
"10616499999","2010-07-23T05:50:00","4","51.854992","11.418889","180.0","COCHSTEDT, GM","FM-15","EDBC ","V020","350,1,N,0031,1","00090,1,C,N","002000,1,N,1","+0170,1","+0170,1","99999,9","08,5,+00090,1,99,9",,,"08,99,1,99,9,99,9,99999,9,99,9,99,9",,"10149,1,99999,9","10,1",,,,"MET054METAR EDBC 230550Z 35006KT 2000 BR OVC003 17/17 Q1015;",
"10616499999","2010-07-23T06:20:00","4","51.854992","11.418889","180.0","COCHSTEDT, GM","FM-15","EDBC ","V020","360,1,N,0036,1","00090,1,9,N","001800,1,N,1","+0170,1","+0170,1","99999,9","08,1,+00090,1,99,9",,,"08,99,1,99,9,99,9,99999,9,99,9,99,9",,"10159,1,99999,9","10,1",,,,"MET053METAR EDBC 230620Z 36007KT 1800 BR OVC00317/17 Q1016;",
"10616499999","2010-07-23T06:50:00","4","51.854992","11.418889","180.0","COCHSTEDT, GM","FM-15","EDBC ","V020","040,1,N,0041,1","00090,1,C,N","001800,1,N,1","+0170,1","+0170,1","99999,9","08,5,+00090,1,99,9",,,"08,99,1,99,9,99,9,99999,9,99,9,99,9",,"10159,1,99999,9","10,1",,,,"MET054METAR EDBC 230650Z 04008KT 1800 BR OVC003 17/17 Q1016;",
"10616499999","2010-07-23T07:20:00","4","51.854992","11.418889","180.0","COCHSTEDT, GM","FM-15","EDBC ","V020","999,9,V,0015,1","00090,1,C,N","001800,1,N,1","+0170,1","+0170,1","99999,9","08,5,+00090,1,99,9",,,"08,99,1,99,9,99,9,99999,9,99,9,99,9",,"10159,1,99999,9","10,1",,,,"MET054METAR EDBC 230720Z VRB03KT 1800 BR OVC003 17/17 Q1016;",
"10616499999","2010-07-23T07:50:00","4","51.854992","11.418889","180.0","COCHSTEDT, GM","FM-15","EDBC ","V020","020,1,N,0041,1","00060,1,C,N","001000,1,N,1","+0170,1","+0170,1","99999,9","08,5,+00060,1,99,9",,,"08,99,1,99,9,99,9,99999,9,99,9,99,9",,"10159,1,99999,9","44,1",,,,"MET054METAR EDBC 230750Z 02008KT 1000 FG OVC002 17/17 Q1016;",
"10616499999","2010-07-23T08:20:00","4","51.854992","11.418889","180.0","COCHSTEDT, GM","FM-15","EDBC ","V020","020,1,N,0031,1","00150,1,C,N","002800,1,N,1","+0170,1","+0170,1","99999,9","07,5,+00150,1,99,9",,,"07,99,1,99,9,99,9,99999,9,99,9,99,9",,"10159,1,99999,9","10,1",,,,"MET054METAR EDBC 230820Z 02006KT 2800 BR BKN005 17/17 Q1016;",
"10616499999","2010-07-23T08:50:00","4","51.854992","11.418889","180.0","COCHSTEDT, GM","FM-15","EDBC ","V020","999,9,V,0015,1","00120,1,C,N","005000,1,N,1","+0170,1","+0170,1","99999,9","07,5,+00120,1,99,9",,,"07,99,1,99,9,99,9,99999,9,99,9,99,9",,"10169,1,99999,9",,,,,"MET051METAR EDBC 230850Z VRB03KT 5000 BKN004 17/17 Q1017;",
"10616499999","2010-07-23T09:20:00","4","51.854992","11.418889","180.0","COCHSTEDT, GM","FM-15","EDBC ","V020","999,9,9,9999,9","00150,5,9,N","999999,9,N,1","+0170,1","+0160,1","99999,9","07,5,+00150,5,99,9",,,,,"10170,1,99999,9",,,,,"MET050METAR EDBC 230920Z 02006K 5000 BKN005 17/16 Q1017;",
"10616499999","2010-07-23T09:50:00","4","51.854992","11.418889","180.0","COCHSTEDT, GM","FM-15","EDBC ","V020","020,1,N,0021,1","00150,1,C,N","005000,1,N,1","+0170,1","+0160,1","99999,9","07,5,+00150,1,99,9",,,"07,99,1,99,9,99,9,99999,9,99,9,99,9",,"10169,1,99999,9",,,,,"MET051METAR EDBC 230950Z 02004KT 5000 BKN005 17/16 Q1017;",
"10616499999","2010-07-23T10:20:00","4","51.854992","11.418889","180.0","COCHSTEDT, GM","FM-15","EDBC ","V020","020,1,N,0026,1","00450,1,C,N","008000,1,N,1","+0190,1","+0170,1","99999,9","07,5,+00450,1,99,9",,,"07,99,1,99,9,99,9,99999,9,99,9,99,9",,"10159,1,99999,9",,,,,"MET051METAR EDBC 231020Z 02005KT 8000 BKN015 19/17 Q1016;",
"10616499999","2010-07-23T10:50:00","4","51.854992","11.418889","180.0","COCHSTEDT, GM","FM-15","EDBC ","V020","030,1,N,0021,1","01200,1,C,N","008000,1,N,1","+0200,1","+0170,1","99999,9","04,5,+00420,1,99,9","07,5,+01200,1,99,9",,"07,99,1,99,9,99,9,99999,9,99,9,99,9",,"10159,1,99999,9",,,,,"MET058METAR EDBC 231050Z 03004KT 8000 SCT014 BKN040 20/17 Q1016;",
"10616499999","2010-07-23T11:20:00","4","51.854992","11.418889","180.0","COCHSTEDT, GM","FM-15","EDBC ","V020","040,1,N,0031,1","01650,5,C,N","008000,1,N,1","+0200,1","+0170,1","99999,9","04,5,+00540,1,99,9","07,5,+01650,5,99,9",,"07,99,1,99,9,99,9,99999,9,99,9,99,9",,"10159,1,99999,9",,,,,"MET066METAR EDBC 231120Z 04006KT 360V060 8000 SCT018 BKN055 20/17 Q1016;",
"10616499999","2010-07-23T11:50:00","4","51.854992","11.418889","180.0","COCHSTEDT, GM","FM-15","EDBC ","V020","030,1,N,0041,1","01800,1,C,N","008000,1,N,1","+0210,1","+0160,1","99999,9","04,5,+00600,1,99,9","07,5,+01800,1,99,9",,"07,99,1,99,9,99,9,99999,9,99,9,99,9",,"10159,1,99999,9",,,,,"MET058METAR EDBC 231150Z 03008KT 8000 SCT020 BKN060 21/16 Q1016;",
"10616499999","2010-07-23T12:20:00","4","51.854992","11.418889","180.0","COCHSTEDT, GM","FM-15","EDBC ","V020","040,1,N,0046,1","01800,1,C,N","008000,1,N,1","+0220,1","+0160,1","99999,9","04,5,+00750,1,99,9","07,5,+01800,1,99,9",,"07,99,1,99,9,99,9,99999,9,99,9,99,9",,"10149,1,99999,9",,,,,"MET066METAR EDBC 231220Z 04009KT 010V070 8000 SCT025 BKN060 22/16 Q1015;",
"10616499999","2010-07-23T12:50:00","4","51.854992","11.418889","180.0","COCHSTEDT, GM","FM-15","EDBC ","V020","040,1,N,0036,1","01800,1,C,N","008000,1,N,1","+0230,1","+0160,1","99999,9","04,5,+00840,1,99,9","07,5,+01800,1,99,9",,"07,99,1,99,9,99,9,99999,9,99,9,99,9",,"10159,1,99999,9",,,,,"MET058METAR EDBC 231250Z 04007KT 8000 SCT028 BKN060 23/16 Q1016;",
"10616499999","2010-07-23T13:20:00","4","51.854992","11.418889","180.0","COCHSTEDT, GM","FM-15","EDBC ","V020","030,1,N,0046,1","01950,5,C,N","008000,1,N,1","+0220,1","+0150,1","99999,9","04,5,+00900,1,99,9","07,5,+01950,5,99,9",,"07,99,1,99,9,99,9,99999,9,99,9,99,9",,"10149,1,99999,9",,,,,"MET066METAR EDBC 231320Z 03009KT 360V060 8000 SCT030 BKN065 22/15 Q1015;",
"10616499999","2010-07-23T13:50:00","4","51.854992","11.418889","180.0","COCHSTEDT, GM","FM-15","EDBC ","V020","020,1,N,0036,1","01950,5,C,N","008000,1,N,1","+0220,1","+0150,1","99999,9","04,5,+00900,1,99,9","07,5,+01950,5,99,9",,"07,99,1,99,9,99,9,99999,9,99,9,99,9",,"10149,1,99999,9",,,,,"MET058METAR EDBC 231350Z 02007KT 8000 SCT030 BKN065 22/15 Q1015;",
"10616499999","2010-07-26T04:20:00","4","51.854992","11.418889","180.0","COCHSTEDT, GM","FM-15","EDBC ","V020","250,1,N,0031,1","22000,1,9,N","008000,1,N,1","+0120,1","+0070,1","99999,9","04,5,+01950,5,99,9",,,"04,99,1,99,9,99,9,99999,9,99,9,99,9",,"10129,1,99999,9",,,,,"MET051METAR EDBC 260420Z 25006KT 8000 SCT065 12/07 Q1013;",
"10616499999","2010-07-26T04:50:00","4","51.854992","11.418889","180.0","COCHSTEDT, GM","FM-15","EDBC ","V020","260,1,N,0010,1","22000,1,9,N","011265,1,N,1","+0120,1","+0080,1","99999,9","04,5,+01950,5,99,9",,,"04,99,1,99,9,99,9,99999,9,99,9,99,9",,"10119,1,99999,9",,,,,"MET051METAR EDBC 260450Z 26002KT 9999 SCT065 12/08 Q1012;",
"10616499999","2010-07-26T05:20:00","4","51.854992","11.418889","180.0","COCHSTEDT, GM","FM-15","EDBC ","V020","999,9,V,0015,1","99999,9,9,Y","009900,1,N,1","+0130,1","+0080,1","99999,9",,,,,,"10119,1,99999,9",,,,,"MET045METAR EDBC 260520Z VRB03KT CAVOK 13/08 Q1012;",
"10616499999","2010-07-26T05:50:00","4","51.854992","11.418889","180.0","COCHSTEDT, GM","FM-15","EDBC ","V020","230,1,N,0015,1","99999,9,9,Y","009900,1,N,1","+0140,1","+0090,1","99999,9",,,,,,"10119,1,99999,9",,,,,"MET045METAR EDBC 260550Z 23003KT CAVOK 14/09 Q1012;",
"10616499999","2010-07-26T06:20:00","4","51.854992","11.418889","180.0","COCHSTEDT, GM","FM-15","EDBC ","V020","999,9,V,0005,1","99999,9,9,Y","009900,1,N,1","+0160,1","+0100,1","99999,9",,,,,,"10129,1,99999,9",,,,,"MET045METAR EDBC 260620Z VRB01KT CAVOK 16/10 Q1013;",
"10616499999","2010-07-26T06:50:00","4","51.854992","11.418889","180.0","COCHSTEDT, GM","FM-15","EDBC ","V020","350,1,N,0026,1","99999,9,9,Y","009900,1,N,1","+0160,1","+0110,1","99999,9",,,,,,"10129,1,99999,9",,,,,"MET053METAR EDBC 260650Z 35005KT 320V030 CAVOK 16/11 Q1013;",
"10616499999","2010-07-26T07:20:00","4","51.854992","11.418889","180.0","COCHSTEDT, GM","FM-15","EDBC ","V020","030,1,N,0021,1","99999,9,9,Y","009900,1,N,1","+0160,1","+0110,1","99999,9",,,,,,"10129,1,99999,9",,,,,"MET045METAR EDBC 260720Z 03004KT CAVOK 16/11 Q1013;",
"10616499999","2010-07-26T07:50:00","4","51.854992","11.418889","180.0","COCHSTEDT, GM","FM-15","EDBC ","V020","999,9,V,0010,1","99999,9,9,Y","009900,1,N,1","+0170,1","+0120,1","99999,9",,,,,,"10129,1,99999,9",,,,,"MET045METAR EDBC 260750Z VRB02KT CAVOK 17/12 Q1013;",
"10616499999","2010-07-26T08:20:00","4","51.854992","11.418889","180.0","COCHSTEDT, GM","FM-15","EDBC ","V020","999,9,V,0010,1","99999,9,9,Y","009900,1,N,1","+0170,1","+0120,1","99999,9",,,,,,"10129,1,99999,9",,,,,"MET045METAR EDBC 260820Z VRB02KT CAVOK 17/12 Q1013;",
"10616499999","2010-07-26T08:50:00","4","51.854992","11.418889","180.0","COCHSTEDT, GM","FM-15","EDBC ","V020","999,9,V,0015,1","99999,9,9,Y","009900,1,N,1","+0190,1","+0120,1","99999,9",,,,,,"10119,1,99999,9",,,,,"MET045METAR EDBC 260850Z VRB03KT CAVOK 19/12 Q1012;",
"10616499999","2010-07-26T09:20:00","4","51.854992","11.418889","180.0","COCHSTEDT, GM","FM-15","EDBC ","V020","180,1,N,0026,1","99999,9,9,Y","009900,1,N,1","+0200,1","+0100,1","99999,9",,,,,,"10119,1,99999,9",,,,,"MET053METAR EDBC 260920Z 18005KT 150V220 CAVOK 20/10 Q1012;",
"10616499999","2010-07-26T09:50:00","4","51.854992","11.418889","180.0","COCHSTEDT, GM","FM-15","EDBC ","V020","190,1,N,0021,1","99999,9,9,Y","009900,1,N,1","+0210,1","+0100,1","99999,9",,,,,,"10119,1,99999,9",,,,,"MET053METAR EDBC 260950Z 19004KT 130V250 CAVOK 21/10 Q1012;",
"10616499999","2010-07-26T10:20:00","4","51.854992","11.418889","180.0","COCHSTEDT, GM","FM-15","EDBC ","V020","190,1,N,0026,1","99999,9,9,Y","009900,1,N,1","+0210,1","+0100,1","99999,9",,,,,,"10119,1,99999,9",,,,,"MET053METAR EDBC 261020Z 19005KT 140V220 CAVOK 21/10 Q1012;",
"10616499999","2010-07-26T10:50:00","4","51.854992","11.418889","180.0","COCHSTEDT, GM","FM-15","EDBC ","V020","200,1,N,0031,1","99999,9,9,Y","009900,1,N,1","+0220,1","+0110,1","99999,9",,,,,,"10119,1,99999,9",,,,,"MET053METAR EDBC 261050Z 20006KT 130V240 CAVOK 22/11 Q1012;",
"10616499999","2010-07-26T11:20:00","4","51.854992","11.418889","180.0","COCHSTEDT, GM","FM-15","EDBC ","V020","170,1,N,0041,1","99999,9,9,Y","009900,1,N,1","+0210,1","+0110,1","99999,9",,,,,,"10108,1,99999,9",,,,,"MET053METAR EDBC 261120Z 17008KT 120V200 CAVOK 21/11 Q1011;",
"10616499999","2010-07-26T11:50:00","4","51.854992","11.418889","180.0","COCHSTEDT, GM","FM-15","EDBC ","V020","999,9,9,9999,9","22000,1,9,N","999999,9,N,1","+0220,1","+0100,1","99999,9","04,5,+01380,5,99,9",,,,,"10110,1,99999,9",,,,,"MET054METAR EDBC 261150Z 17008KT 140V210 SCT046 22/10 Q1011;",
"10616499999","2010-07-26T12:20:00","4","51.854992","11.418889","180.0","COCHSTEDT, GM","FM-15","EDBC ","V020","180,1,N,0041,1","99999,9,9,Y","009900,1,N,1","+0220,1","+0100,1","99999,9",,,,,,"10108,1,99999,9",,,,,"MET053METAR EDBC 261220Z 18008KT 140V240 CAVOK 22/10 Q1011;",
"10616499999","2010-07-26T12:50:00","4","51.854992","11.418889","180.0","COCHSTEDT, GM","FM-15","EDBC ","V020","160,1,N,0031,1","99999,9,9,Y","009900,1,N,1","+0230,1","+0110,1","99999,9",,,,,,"10108,1,99999,9",,,,,"MET045METAR EDBC 261250Z 16006KT CAVOK 23/11 Q1011;",
"10616499999","2010-07-26T13:20:00","4","51.854992","11.418889","180.0","COCHSTEDT, GM","FM-15","EDBC ","V020","150,1,N,0036,1","99999,9,9,Y","009900,1,N,1","+0220,1","+0110,1","99999,9",,,,,,"10108,1,99999,9",,,,,"MET045METAR EDBC 261320Z 15007KT CAVOK 22/11 Q1011;",
"10616499999","2010-07-26T14:20:00","4","51.854992","11.418889","180.0","COCHSTEDT, GM","FM-15","EDBC ","V020","190,1,N,0031,1","99999,9,9,Y","009900,1,N,1","+0220,1","+0110,1","99999,9",,,,,,"10108,1,99999,9",,,,,"MET045METAR EDBC 261420Z 19006KT CAVOK 22/11 Q1011;",
"10616499999","2010-07-26T14:50:00","4","51.854992","11.418889","180.0","COCHSTEDT, GM","FM-15","EDBC ","V020","190,1,N,0021,1","22000,1,9,N","011265,1,N,1","+0220,1","+0110,1","99999,9","04,5,+01380,1,99,9",,,"04,99,1,99,9,99,9,99999,9,99,9,99,9",,"10108,1,99999,9",,,,,"MET051METAR EDBC 261450Z 19004KT 9999 SCT046 22/11 Q1011;",
"10616499999","2010-07-26T15:20:00","4","51.854992","11.418889","180.0","COCHSTEDT, GM","FM-15","EDBC ","V020","999,9,9,9999,9","22000,1,9,N","009900,1,N,1","+9999,9","+0130,1","99999,9",,,,,,"10108,1,99999,9",,,,,"MET038METAR EDBC 261520Z CAVOK 220/13 Q1011;",
"10616499999","2010-07-27T04:20:00","4","51.854992","11.418889","180.0","COCHSTEDT, GM","FM-15","EDBC ","V020","280,1,N,0021,1","01800,1,C,N","003000,1,N,1","+0150,1","+0130,1","99999,9","07,5,+01800,1,99,9",,,"07,99,1,99,9,99,9,99999,9,99,9,99,9",,"10129,1,99999,9",,,,,"MET059METAR EDBC 270420Z 28004KT 250V320 3000 BKN060 15/13 Q1013;",
"10616499999","2010-07-27T04:50:00","4","51.854992","11.418889","180.0","COCHSTEDT, GM","FM-15","EDBC ","V020","999,9,V,0010,1","01950,5,C,N","003000,1,N,1","+0150,1","+0140,1","99999,9","07,5,+01950,5,99,9",,,"07,99,1,99,9,99,9,99999,9,99,9,99,9",,"10139,1,99999,9",,,,,"MET051METAR EDBC 270450Z VRB02KT 3000 BKN065 15/14 Q1014;",
"10616499999","2010-07-27T05:20:00","4","51.854992","11.418889","180.0","COCHSTEDT, GM","FM-15","EDBC ","V020","270,1,N,0021,1","01950,5,C,N","003000,1,N,1","+0150,1","+0140,1","99999,9","07,5,+01950,5,99,9",,,"07,99,1,99,9,99,9,99999,9,99,9,99,9",,"10139,1,99999,9",,,,,"MET059METAR EDBC 270520Z 27004KT 250V320 3000 BKN065 15/14 Q1014;",
"10616499999","2010-07-27T05:50:00","4","51.854992","11.418889","180.0","COCHSTEDT, GM","FM-15","EDBC ","V020","290,1,N,0031,1","02100,1,C,N","003000,1,N,1","+0160,1","+0140,1","99999,9","07,5,+02100,1,99,9",,,"07,99,1,99,9,99,9,99999,9,99,9,99,9",,"10139,1,99999,9",,,,,"MET051METAR EDBC 270550Z 29006KT 3000 BKN070 16/14 Q1014;",
"10616499999","2010-07-27T06:20:00","4","51.854992","11.418889","180.0","COCHSTEDT, GM","FM-15","EDBC ","V020","300,1,N,0031,1","02100,1,C,N","005000,1,N,1","+0160,1","+0140,1","99999,9","07,5,+02100,1,99,9",,,"07,99,1,99,9,99,9,99999,9,99,9,99,9",,"10139,1,99999,9",,,,,"MET059METAR EDBC 270620Z 30006KT 260V320 5000 BKN070 16/14 Q1014;",
"10616499999","2010-07-27T06:50:00","4","51.854992","11.418889","180.0","COCHSTEDT, GM","FM-15","EDBC ","V020","300,1,N,0031,1","22000,1,9,N","005000,1,N,1","+0170,1","+0140,1","99999,9",,,,"00,99,1,99,9,99,9,99999,9,99,9,99,9",,"10149,1,99999,9",,,,,"MET056METAR EDBC 270650Z 30006KT 260V330 5000 NSC 17/14 Q1015;","Q01    003SCCGA1"
"10616499999","2010-07-27T07:20:00","4","51.854992","11.418889","180.0","COCHSTEDT, GM","FM-15","EDBC ","V020","290,1,N,0031,1","22000,1,9,N","005000,1,N,1","+0180,1","+0140,1","99999,9",,,,,,"10150,1,99999,9",,,,,"MET052METAR EDBC 270720Z 29006KT 5000 BKN 080 18/14 Q1015;",
"10616499999","2010-07-27T07:50:00","4","51.854992","11.418889","180.0","COCHSTEDT, GM","FM-15","EDBC ","V020","290,1,N,0031,1","02400,1,C,N","005000,1,N,1","+0180,1","+0140,1","99999,9","07,5,+02400,1,99,9",,,"07,99,1,99,9,99,9,99999,9,99,9,99,9",,"10149,1,99999,9",,,,,"MET059METAR EDBC 270750Z 29006KT 250V330 5000 BKN080 18/14 Q1015;",
"10616499999","2010-07-27T08:20:00","4","51.854992","11.418889","180.0","COCHSTEDT, GM","FM-15","EDBC ","V020","320,1,N,0036,1","22000,1,9,N","005000,1,N,1","+0190,1","+0140,1","99999,9",,,,,,"10150,1,99999,9",,,,,"MET060METAR EDBC 270820Z 32007KT 280V350 5000 BKN 080 19/14 Q1015;",
"10616499999","2010-07-27T09:20:00","4","51.854992","11.418889","180.0","COCHSTEDT, GM","FM-15","EDBC ","V020","330,1,N,0031,1","22000,1,9,N","006000,1,N,1","+0210,1","+0140,1","99999,9",,,,"00,99,1,99,9,99,9,99999,9,99,9,99,9",,"10149,1,99999,9",,,,,"MET056METAR EDBC 270920Z 33006KT 300V030 6000 NSC 21/14 Q1015;","Q01    003SCCGA1"
"10616499999","2010-07-27T09:50:00","4","51.854992","11.418889","180.0","COCHSTEDT, GM","FM-15","EDBC ","V020","340,1,N,0036,1","99999,9,9,Y","009900,1,N,1","+0220,1","+0140,1","99999,9",,,,,,"10149,1,99999,9",,,,,"MET053METAR EDBC 270950Z 34007KT 290V010 CAVOK 22/14 Q1015;",
"10616499999","2010-07-27T10:20:00","4","51.854992","11.418889","180.0","COCHSTEDT, GM","FM-15","EDBC ","V020","320,1,N,0041,1","99999,9,9,Y","009900,1,N,1","+0230,1","+0140,1","99999,9",,,,,,"10149,1,99999,9",,,,,"MET053METAR EDBC 271020Z 32008KT 270V040 CAVOK 23/14 Q1015;",
"10616499999","2010-07-27T10:50:00","4","51.854992","11.418889","180.0","COCHSTEDT, GM","FM-15","EDBC ","V020","320,1,N,0041,1","99999,9,9,Y","009900,1,N,1","+0220,1","+0140,1","99999,9",,,,,,"10149,1,99999,9",,,,,"MET053METAR EDBC 271050Z 32008KT 270V360 CAVOK 22/14 Q1015;",
"10616499999","2010-07-27T11:20:00","4","51.854992","11.418889","180.0","COCHSTEDT, GM","FM-15","EDBC ","V020","340,1,N,0036,1","22000,1,9,N","009000,1,N,1","+0230,1","+0120,1","99999,9","04,5,+01350,1,99,9",,,"04,99,1,99,9,99,9,99999,9,99,9,99,9",,"10149,1,99999,9",,,,,"MET059METAR EDBC 271120Z 34007KT 290V030 9000 SCT045 23/12 Q1015;",
"10616499999","2010-07-27T11:50:00","4","51.854992","11.418889","180.0","COCHSTEDT, GM","FM-15","EDBC ","V020","310,1,N,0041,1","22000,1,9,N","011265,1,N,1","+0230,1","+0130,1","99999,9","04,5,+01440,1,99,9",,,"04,99,1,99,9,99,9,99999,9,99,9,99,9",,"10149,1,99999,9",,,,,"MET051METAR EDBC 271150Z 31008KT 9999 SCT048 23/13 Q1015;",
"10616499999","2010-07-27T12:20:00","4","51.854992","11.418889","180.0","COCHSTEDT, GM","FM-15","EDBC ","V020","300,1,N,0026,1","22000,1,9,N","011265,1,N,1","+0240,1","+0120,1","99999,9","04,5,+01440,1,99,9",,,"04,99,1,99,9,99,9,99999,9,99,9,99,9",,"10149,1,99999,9",,,,,"MET051METAR EDBC 271220Z 30005KT 9999 SCT048 24/12 Q1015;",
"10616499999","2010-07-27T12:50:00","4","51.854992","11.418889","180.0","COCHSTEDT, GM","FM-15","EDBC ","V020","290,1,N,0031,1","99999,9,9,Y","009900,1,N,1","+0240,1","+0110,1","99999,9",,,,,,"10149,1,99999,9",,,,,"MET045METAR EDBC 271250Z 29006KT CAVOK 24/11 Q1015;",
"10616499999","2010-07-27T13:20:00","4","51.854992","11.418889","180.0","COCHSTEDT, GM","FM-15","EDBC ","V020","270,1,N,0026,1","01800,1,9,N","011265,1,N,1","+0240,1","+0110,1","99999,9","07,1,+01800,1,99,9",,,"07,99,1,99,9,99,9,99999,9,99,9,99,9",,"10149,1,99999,9","16,1",,,,"MET057METAR EDBC 271320Z 27005KT 9999 VCSH BKN060/ 24/11 Q1015;",
"10616499999","2010-07-27T13:50:00","4","51.854992","11.418889","180.0","COCHSTEDT, GM","FM-15","EDBC ","V020","999,9,9,9999,9","99999,9,9,Y","009900,1,N,1","+0230,1","+0120,1","99999,9",,,,,,"10149,1,99999,9",,,,,"MET037METAR EDBC 271350Z CAVOK 23/12 Q1015;",
"10616499999","2010-07-27T14:20:00","4","51.854992","11.418889","180.0","COCHSTEDT, GM","FM-15","EDBC ","V020","300,1,N,0031,1","99999,9,9,Y","009900,1,N,1","+0230,1","+0120,1","99999,9",,,,,,"10149,1,99999,9",,,,,"MET045METAR EDBC 271420Z 30006KT CAVOK 23/12 Q1015;",
"10616499999","2010-07-27T14:50:00","4","51.854992","11.418889","180.0","COCHSTEDT, GM","FM-15","EDBC ","V020","999,9,9,9999,9","03600,1,C,N","011265,1,N,1","+0230,1","+0120,1","99999,9","04,5,+01740,5,99,9","07,5,+03600,1,99,9",,"07,99,1,99,9,99,9,99999,9,99,9,99,9",,"10149,1,99999,9","16,1",,,,"MET055METAR EDBC 271450Z 9999 VCSH SCT058 BKN120 23/12 Q1015;",
"10616499999","2010-07-27T15:20:00","4","51.854992","11.418889","180.0","COCHSTEDT, GM","FM-15","EDBC ","V020","999,9,9,9999,9","01950,5,9,N","011265,1,N,1","+0210,1","+0130,1","99999,9","07,5,+01950,5,99,9",,,,,"10160,1,99999,9",,,,,"MET057METAR EDBC 271520Z 350 08KT 9999 VCTS BKN065 21/13 Q1016;",
"10616499999","2010-07-27T15:50:00","4","51.854992","11.418889","180.0","COCHSTEDT, GM","FM-15","EDBC ","V020","280,1,N,0026,1","99999,9,9,Y","009900,1,N,1","+0220,1","+0130,1","99999,9",,,,,,"10159,1,99999,9",,,,,"MET045METAR EDBC 271550Z 28005KT CAVOK 22/13 Q1016;",
"10616499999","2010-07-27T16:20:00","4","51.854992","11.418889","180.0","COCHSTEDT, GM","FM-15","EDBC ","V020","270,1,N,0046,1","99999,9,9,Y","009900,1,N,1","+0200,1","+0110,1","99999,9",,,,,,"10159,1,99999,9",,,,,"MET045METAR EDBC 271620Z 27009KT CAVOK 20/11 Q1016;",
"10616499999","2010-07-27T16:50:00","4","51.854992","11.418889","180.0","COCHSTEDT, GM","FM-15","EDBC ","V020","250,1,N,0031,1","99999,9,9,Y","009900,1,N,1","+0210,1","+0130,1","99999,9",,,,,,"10159,1,99999,9",,,,,"MET045METAR EDBC 271650Z 25006KT CAVOK 21/13 Q1016;",
"10616499999","2010-07-28T04:20:00","4","51.854992","11.418889","180.0","COCHSTEDT, GM","FM-15","EDBC ","V020","220,1,N,0021,1","22000,1,9,N","008000,1,N,1","+0140,1","+0120,1","99999,9","04,5,+02100,1,99,9",,,"04,99,1,99,9,99,9,99999,9,99,9,99,9",,"10149,1,99999,9",,,,,"MET051METAR EDBC 280420Z 22004KT 8000 SCT070 14/12 Q1015;",
"10616499999","2010-07-28T04:50:00","4","51.854992","11.418889","180.0","COCHSTEDT, GM","FM-15","EDBC ","V020","230,1,N,0021,1","22000,1,9,N","008000,1,N,1","+0150,1","+0130,1","99999,9",,,,,,"10150,1,99999,9",,,,,"MET052METAR EDBC 280450Z 23004KT 8000 SCT 065 15/13 Q1015;",
"10616499999","2010-07-28T05:20:00","4","51.854992","11.418889","180.0","COCHSTEDT, GM","FM-15","EDBC ","V020","250,1,N,0015,1","99999,9,9,Y","009900,1,N,1","+0150,1","+0130,1","99999,9",,,,,,"10149,1,99999,9",,,,,"MET045METAR EDBC 280520Z 25003KT CAVOK 15/13 Q1015;",
"10616499999","2010-07-28T05:50:00","4","51.854992","11.418889","180.0","COCHSTEDT, GM","FM-15","EDBC ","V020","240,1,N,0021,1","99999,9,9,Y","009900,1,N,1","+0170,1","+0130,1","99999,9",,,,,,"10149,1,99999,9",,,,,"MET045METAR EDBC 280550Z 24004KT CAVOK 17/13 Q1015;",
"10616499999","2010-07-28T06:20:00","4","51.854992","11.418889","180.0","COCHSTEDT, GM","FM-15","EDBC ","V020","230,1,N,0021,1","99999,9,9,Y","009900,1,N,1","+0180,1","+0130,1","99999,9",,,,,,"10139,1,99999,9",,,,,"MET053METAR EDBC 280620Z 23004KT 210V270 CAVOK 18/13 Q1014;",
"10616499999","2010-07-28T06:50:00","4","51.854992","11.418889","180.0","COCHSTEDT, GM","FM-15","EDBC ","V020","230,1,N,0026,1","99999,9,9,Y","009900,1,N,1","+0190,1","+0130,1","99999,9",,,,,,"10139,1,99999,9",,,,,"MET053METAR EDBC 280650Z 23005KT 200V260 CAVOK 19/13 Q1014;",
"10616499999","2010-07-28T07:20:00","4","51.854992","11.418889","180.0","COCHSTEDT, GM","FM-15","EDBC ","V020","220,1,N,0026,1","99999,9,9,Y","009900,1,N,1","+0210,1","+0130,1","99999,9",,,,,,"10139,1,99999,9",,,,,"MET053METAR EDBC 280720Z 22005KT 200V260 CAVOK 21/13 Q1014;",
"10616499999","2010-07-28T07:50:00","4","51.854992","11.418889","180.0","COCHSTEDT, GM","FM-15","EDBC ","V020","220,1,N,0031,1","99999,9,9,Y","009900,1,N,1","+0220,1","+0120,1","99999,9",,,,,,"10139,1,99999,9",,,,,"MET053METAR EDBC 280750Z 22006KT 190V260 CAVOK 22/12 Q1014;",
"10616499999","2010-07-28T08:20:00","4","51.854992","11.418889","180.0","COCHSTEDT, GM","FM-15","EDBC ","V020","260,1,N,0026,1","99999,9,9,Y","009900,1,N,1","+0220,1","+0120,1","99999,9",,,,,,"10129,1,99999,9",,,,,"MET053METAR EDBC 280820Z 26005KT 210V310 CAVOK 22/12 Q1013;",
"10616499999","2010-07-28T08:50:00","4","51.854992","11.418889","180.0","COCHSTEDT, GM","FM-15","EDBC ","V020","210,1,N,0031,1","01170,1,C,N","011265,1,N,1","+0210,1","+0130,1","99999,9","02,5,+00900,1,99,9","04,5,+01170,1,99,9","07,5,+01500,1,99,9","07,99,1,99,9,99,9,99999,9,99,9,99,9",,"10129,1,99999,9",,,,,"MET073METAR EDBC 280850Z 21006KT 170V250 9999 FEW030 SCT039 BKN050 21/13 Q1013;",
"10616499999","2010-07-28T09:20:00","4","51.854992","11.418889","180.0","COCHSTEDT, GM","FM-15","EDBC ","V020","230,1,N,0036,1","01500,1,C,N","009000,1,N,1","+0220,1","+0120,1","99999,9","02,5,+00900,1,99,9","07,5,+01500,1,99,9",,"07,99,1,99,9,99,9,99999,9,99,9,99,9",,"10129,1,99999,9",,,,,"MET066METAR EDBC 280920Z 23007KT 190V270 9000 FEW030 BKN050 22/12 Q1013;",
"10616499999","2010-07-28T09:50:00","4","51.854992","11.418889","180.0","COCHSTEDT, GM","FM-15","EDBC ","V020","250,1,N,0067,1","01500,1,C,N","009000,1,N,1","+0210,1","+0130,1","99999,9","02,5,+01140,1,99,9","07,5,+01500,1,99,9",,"07,99,1,99,9,99,9,99999,9,99,9,99,9",,"10129,1,99999,9",,,,,"MET058METAR EDBC 280950Z 25013KT 9000 FEW038 BKN050 21/13 Q1013;",
"10616499999","2010-07-28T10:20:00","4","51.854992","11.418889","180.0","COCHSTEDT, GM","FM-15","EDBC ","V020","240,1,N,0077,1","01800,1,C,N","009000,1,N,1","+0200,1","+0140,1","99999,9","02,5,+01200,1,99,9","07,5,+01800,1,99,9",,"07,99,1,99,9,99,9,99999,9,99,9,99,9",,"10129,1,99999,9",,,,,"MET058METAR EDBC 281020Z 24015KT 9000 FEW040 BKN060 20/14 Q1013;",
"10616499999","2010-07-28T10:50:00","4","51.854992","11.418889","180.0","COCHSTEDT, GM","FM-15","EDBC ","V020","260,1,N,0062,1","01320,1,C,N","011265,1,N,1","+0200,1","+0140,1","99999,9","07,5,+01320,1,99,9",,,"07,99,1,99,9,99,9,99999,9,99,9,99,9",,"10129,1,99999,9",,,,,"MET051METAR EDBC 281050Z 26012KT 9999 BKN044 20/14 Q1013;",
"10616499999","2010-07-28T11:20:00","4","51.854992","11.418889","180.0","COCHSTEDT, GM","FM-15","EDBC ","V020","260,1,N,0062,1","01320,1,C,N","009000,1,N,1","+0200,1","+0140,1","99999,9","07,5,+01320,1,99,9",,,"07,99,1,99,9,99,9,99999,9,99,9,99,9",,"10119,1,99999,9",,,,,"MET051METAR EDBC 281120Z 26012KT 9000 BKN044 20/14 Q1012;",
"10616499999","2010-07-28T11:50:00","4","51.854992","11.418889","180.0","COCHSTEDT, GM","FM-15","EDBC ","V020","999,9,9,9999,9","01080,5,9,N","011265,1,N,1","+0200,1","+0150,1","99999,9","04,5,+00780,5,99,9","07,5,+01080,5,99,9",,,,"10120,1,99999,9",,,,,"MET059METAR EDBC 281150Z 27009/KT 9999 SCT026 BKN036 20/15 Q1012;",
"10616499999","2010-07-28T12:20:00","4","51.854992","11.418889","180.0","COCHSTEDT, GM","FM-15","EDBC ","V020","250,1,N,0046,1","00540,1,C,N","011265,1,N,1","+0190,1","+0160,1","99999,9","07,5,+00540,1,99,9",,,"07,99,1,99,9,99,9,99999,9,99,9,99,9",,"10119,1,99999,9","80,1",,,,"MET057METAR EDBC 281220Z 25009KT 9999 -SHRA BKN018 19/16 Q1012;",
"10616499999","2010-07-28T12:50:00","4","51.854992","11.418889","180.0","COCHSTEDT, GM","FM-15","EDBC ","V020","250,1,N,0046,1","01200,1,C,N","011265,1,N,1","+0190,1","+0160,1","99999,9","04,5,+00420,1,99,9","07,5,+01200,1,99,9",,"07,99,1,99,9,99,9,99999,9,99,9,99,9",,"10119,1,99999,9",,,,,"MET063METAR EDBC 281250Z 25009KT 9999 SCT014 BKN040 19/16 Q1012 RERA;",
"10616499999","2010-07-28T13:20:00","4","51.854992","11.418889","180.0","COCHSTEDT, GM","FM-15","EDBC ","V020","280,1,N,0046,1","01440,1,C,N","011265,1,N,1","+0200,1","+0160,1","99999,9","04,5,+00660,1,99,9","07,5,+01440,1,99,9",,"07,99,1,99,9,99,9,99999,9,99,9,99,9",,"10119,1,99999,9",,,,,"MET066METAR EDBC 281320Z 28009KT 250V320 9999 SCT022 BKN048 20/16 Q1012;",
"10616499999","2010-07-28T13:50:00","4","51.854992","11.418889","180.0","COCHSTEDT, GM","FM-15","EDBC ","V020","310,1,N,0067,1","01440,1,C,N","011265,1,N,1","+0210,1","+0150,1","99999,9","07,5,+01440,1,99,9",,,"07,99,1,99,9,99,9,99999,9,99,9,99,9",,"10108,1,99999,9",,,,,"MET051METAR EDBC 281350Z 31013KT 9999 BKN048 21/15 Q1011;",
"10616499999","2010-07-29T04:20:00","4","51.854992","11.418889","180.0","COCHSTEDT, GM","FM-15","EDBC ","V020","230,1,N,0021,1","22000,1,9,N","005000,1,N,1","+0130,1","+0120,1","99999,9",,,,"00,99,1,99,9,99,9,99999,9,99,9,99,9",,"10091,1,99999,9",,,,,"MET048METAR EDBC 290420Z 23004KT 5000 NSC 13/12 Q1009;","Q01    003SCCGA1"
"10616499999","2010-07-29T04:50:00","4","51.854992","11.418889","180.0","COCHSTEDT, GM","FM-15","EDBC ","V020","210,1,N,0015,1","22000,1,9,N","005000,1,N,1","+0130,1","+0130,1","99999,9",,,,"00,99,1,99,9,99,9,99999,9,99,9,99,9",,"10091,1,99999,9",,,,,"MET048METAR EDBC 290450Z 21003KT 5000 NSC 13/13 Q1009;","Q01    003SCCGA1"
"10616499999","2010-07-29T05:20:00","4","51.854992","11.418889","180.0","COCHSTEDT, GM","FM-15","EDBC ","V020","999,9,V,0010,1","22000,1,9,N","006000,1,N,1","+0140,1","+0130,1","99999,9",,,,"00,99,1,99,9,99,9,99999,9,99,9,99,9",,"10091,1,99999,9",,,,,"MET048METAR EDBC 290520Z VRB02KT 6000 NSC 14/13 Q1009;","Q01    003SCCGA1"
"10616499999","2010-07-29T05:50:00","4","51.854992","11.418889","180.0","COCHSTEDT, GM","FM-15","EDBC ","V020","999,9,V,0010,1","22000,1,9,N","007000,1,N,1","+0150,1","+0130,1","99999,9",,,,"00,99,1,99,9,99,9,99999,9,99,9,99,9",,"10091,1,99999,9",,,,,"MET048METAR EDBC 290550Z VRB02KT 7000 NSC 15/13 Q1009;","Q01    003SCCGA1"
"10616499999","2010-07-29T06:20:00","4","51.854992","11.418889","180.0","COCHSTEDT, GM","FM-15","EDBC ","V020","280,1,N,0021,1","01200,1,C,N","011265,1,N,1","+0150,1","+0130,1","99999,9","02,5,+00300,1,99,9","07,5,+01200,1,99,9",,"07,99,1,99,9,99,9,99999,9,99,9,99,9",,"10091,1,99999,9",,,,,"MET066METAR EDBC 290620Z 28004KT 230V340 9999 FEW010 BKN040 15/13 Q1009;",
"10616499999","2010-07-29T06:50:00","4","51.854992","11.418889","180.0","COCHSTEDT, GM","FM-15","EDBC ","V020","260,1,N,0021,1","99999,9,C,N","011265,1,N,1","+0150,1","+0130,1","99999,9","02,5,+00360,1,99,9","04,5,+00960,1,99,9",,"04,99,1,99,9,99,9,99999,9,99,9,99,9",,"10091,1,99999,9",,,,,"MET058METAR EDBC 290650Z 26004KT 9999 FEW012 SCT032 15/13 Q1009;","P01 009603SCOCIG"
"10616499999","2010-07-29T07:20:00","4","51.854992","11.418889","180.0","COCHSTEDT, GM","FM-15","EDBC ","V020","310,1,N,0031,1","22000,1,9,N","011265,1,N,1","+0150,1","+0130,1","99999,9","04,5,+00480,5,99,9",,,"02,99,1,99,9,99,9,99999,9,99,9,99,9",,"10090,1,99999,9",,,,,"MET067METAR EDBC 290720Z 31006KT 270V340 9999 FEW0068 SCT016 15/13 Q1009;",
"10616499999","2010-07-29T07:50:00","4","51.854992","11.418889","180.0","COCHSTEDT, GM","FM-15","EDBC ","V020","310,1,N,0031,1","99999,9,C,N","009000,1,N,1","+0160,1","+0130,1","99999,9","02,5,+00360,1,99,9","04,5,+02100,1,99,9",,"04,99,1,99,9,99,9,99999,9,99,9,99,9",,"10091,1,99999,9",,,,,"MET066METAR EDBC 290750Z 31006KT 280V350 9000 FEW012 SCT070 16/13 Q1009;","P01 021003SCOCIG"
"10616499999","2010-07-29T08:20:00","4","51.854992","11.418889","180.0","COCHSTEDT, GM","FM-15","EDBC ","V020","300,1,N,0051,1","99999,9,C,N","009000,1,N,1","+0170,1","+0130,1","99999,9","02,5,+00300,1,99,9","04,5,+02100,1,99,9",,"04,99,1,99,9,99,9,99999,9,99,9,99,9",,"10081,1,99999,9",,,,,"MET066METAR EDBC 290820Z 30010KT 260V330 9000 FEW010 SCT070 17/13 Q1008;","P01 021003SCOCIG"
"10616499999","2010-07-29T08:50:00","4","51.854992","11.418889","180.0","COCHSTEDT, GM","FM-15","EDBC ","V020","300,1,N,0051,1","22000,1,9,N","009000,1,N,1","+0170,1","+0120,1","99999,9","02,5,+00600,1,99,9",,,"02,99,1,99,9,99,9,99999,9,99,9,99,9",,"10081,1,99999,9",,,,,"MET059METAR EDBC 290850Z 30010KT 260V320 9000 FEW020 17/12 Q1008;",
"10616499999","2010-07-29T09:20:00","4","51.854992","11.418889","180.0","COCHSTEDT, GM","FM-15","EDBC ","V020","280,1,N,0041,1","00960,1,C,N","011265,1,N,1","+0180,1","+0120,1","99999,9","07,5,+00960,1,99,9",,,"07,99,1,99,9,99,9,99999,9,99,9,99,9",,"10091,1,99999,9",,,,,"MET059METAR EDBC 290920Z 28008KT 230V330 9999 BKN032 18/12 Q1009;",
"10616499999","2010-07-29T09:50:00","4","51.854992","11.418889","180.0","COCHSTEDT, GM","FM-15","EDBC ","V020","290,1,N,0046,1","22000,1,9,N","011265,1,N,1","+0180,1","+0100,1","99999,9","04,5,+00840,1,99,9",,,"04,99,1,99,9,99,9,99999,9,99,9,99,9",,"10091,1,99999,9",,,,,"MET059METAR EDBC 290950Z 29009KT 250V330 9999 SCT028 18/10 Q1009;",
"10616499999","2010-07-29T10:20:00","4","51.854992","11.418889","180.0","COCHSTEDT, GM","FM-15","EDBC ","V020","290,1,N,0051,1","22000,1,9,N","011265,1,N,1","+0190,1","+0110,1","99999,9","04,5,+01050,1,99,9",,,"04,99,1,99,9,99,9,99999,9,99,9,99,9",,"10081,1,99999,9",,,,,"MET051METAR EDBC 291020Z 29010KT 9999 SCT035 19/11 Q1008;",
"10616499999","2010-07-29T10:50:00","4","51.854992","11.418889","180.0","COCHSTEDT, GM","FM-15","EDBC ","V020","270,1,N,0051,1","22000,1,9,N","011265,1,N,1","+0190,1","+0100,1","99999,9","04,5,+01260,1,99,9",,,"04,99,1,99,9,99,9,99999,9,99,9,99,9",,"10081,1,99999,9",,,,,"MET051METAR EDBC 291050Z 27010KT 9999 SCT042 19/10 Q1008;",
"10616499999","2010-07-29T11:20:00","4","51.854992","11.418889","180.0","COCHSTEDT, GM","FM-15","EDBC ","V020","310,1,N,0041,1","22000,1,9,N","011265,1,N,1","+0200,1","+0100,1","99999,9","04,5,+01320,1,99,9",,,"04,99,1,99,9,99,9,99999,9,99,9,99,9",,"10081,1,99999,9",,,,,"MET059METAR EDBC 291120Z 31008KT 280V340 9999 SCT044 20/10 Q1008;",
"10616499999","2010-07-29T11:50:00","4","51.854992","11.418889","180.0","COCHSTEDT, GM","FM-15","EDBC ","V020","280,1,N,0051,1","22000,1,9,N","011265,1,N,1","+0200,1","+0110,1","99999,9","04,5,+01380,1,99,9",,,"04,99,1,99,9,99,9,99999,9,99,9,99,9",,"10081,1,99999,9",,,,,"MET059METAR EDBC 291150Z 28010KT 240V310 9999 SCT046 20/11 Q1008;",
"10616499999","2010-07-29T12:20:00","4","51.854992","11.418889","180.0","COCHSTEDT, GM","FM-15","EDBC ","V020","310,1,N,0051,1","22000,1,9,N","011265,1,N,1","+0210,1","+0100,1","99999,9","04,5,+01350,1,99,9",,,"04,99,1,99,9,99,9,99999,9,99,9,99,9",,"10081,1,99999,9",,,,,"MET051METAR EDBC 291220Z 31010KT 9999 SCT045 21/10 Q1008;",
"10616499999","2010-07-29T12:50:00","4","51.854992","11.418889","180.0","COCHSTEDT, GM","FM-15","EDBC ","V020","320,1,N,0067,1","22000,1,9,N","011265,1,N,1","+0190,1","+0110,1","99999,9","04,5,+01260,1,99,9",,,"04,99,1,99,9,99,9,99999,9,99,9,99,9",,"10081,1,99999,9",,,,,"MET059METAR EDBC 291250Z 32013KT 280V350 9999 SCT042 19/11 Q1008;",
"10616499999","2010-07-29T13:20:00","4","51.854992","11.418889","180.0","COCHSTEDT, GM","FM-15","EDBC ","V020","320,1,N,0062,1","22000,1,9,N","011265,1,N,1","+0200,1","+0100,1","99999,9","04,5,+01320,1,99,9",,,"04,99,1,99,9,99,9,99999,9,99,9,99,9",,"10081,1,99999,9",,,,,"MET051METAR EDBC 291320Z 32012KT 9999 SCT044 20/10 Q1008;",
"10616499999","2010-07-29T13:50:00","4","51.854992","11.418889","180.0","COCHSTEDT, GM","FM-15","EDBC ","V020","300,1,N,0051,1","99999,9,C,N","011265,1,N,1","+0200,1","+0100,1","99999,9","02,5,+01260,1,99,9","04,5,+02640,5,99,9",,"04,99,1,99,9,99,9,99999,9,99,9,99,9",,"10081,1,99999,9",,,,,"MET058METAR EDBC 291350Z 30010KT 9999 FEW042 SCT088 20/10 Q1008;","P01 026403SCOCIG"
"10616499999","2010-07-30T04:20:00","4","51.854992","11.418889","180.0","COCHSTEDT, GM","FM-15","EDBC ","V020","280,1,N,0031,1","99999,9,9,Y","009900,1,N,1","+0140,1","+0110,1","99999,9",,,,,,"10108,1,99999,9",,,,,"MET045METAR EDBC 300420Z 28006KT CAVOK 14/11 Q1011;",
"10616499999","2010-07-30T04:50:00","4","51.854992","11.418889","180.0","COCHSTEDT, GM","FM-15","EDBC ","V020","250,1,N,0031,1","99999,9,9,Y","009900,1,N,1","+0140,1","+0110,1","99999,9",,,,,,"10108,1,99999,9",,,,,"MET045METAR EDBC 300450Z 25006KT CAVOK 14/11 Q1011;",
"10616499999","2010-07-30T05:20:00","4","51.854992","11.418889","180.0","COCHSTEDT, GM","FM-15","EDBC ","V020","280,1,N,0036,1","99999,9,9,Y","009900,1,N,1","+0150,1","+0110,1","99999,9",,,,,,"10119,1,99999,9",,,,,"MET045METAR EDBC 300520Z 28007KT CAVOK 15/11 Q1012;",
"10616499999","2010-07-30T05:50:00","4","51.854992","11.418889","180.0","COCHSTEDT, GM","FM-15","EDBC ","V020","270,1,N,0036,1","99999,9,9,Y","009900,1,N,1","+0150,1","+0120,1","99999,9",,,,,,"10119,1,99999,9",,,,,"MET053METAR EDBC 300550Z 27007KT 240V300 CAVOK 15/12 Q1012;",
"10616499999","2010-07-30T06:20:00","4","51.854992","11.418889","180.0","COCHSTEDT, GM","FM-15","EDBC ","V020","280,1,N,0057,1","22000,1,9,N","009000,1,N,1","+0160,1","+0120,1","99999,9","02,5,+00360,1,99,9",,,"02,99,1,99,9,99,9,99999,9,99,9,99,9",,"10119,1,99999,9",,,,,"MET051METAR EDBC 300620Z 28011KT 9000 FEW012 16/12 Q1012;",
"10616499999","2010-07-30T06:50:00","4","51.854992","11.418889","180.0","COCHSTEDT, GM","FM-15","EDBC ","V020","300,1,N,0041,1","22000,1,9,N","009000,1,N,1","+0160,1","+0120,1","99999,9","02,5,+00360,1,99,9",,,"02,99,1,99,9,99,9,99999,9,99,9,99,9",,"10129,1,99999,9",,,,,"MET051METAR EDBC 300650Z 30008KT 9000 FEW012 16/12 Q1013;",
"10616499999","2010-07-30T07:20:00","4","51.854992","11.418889","180.0","COCHSTEDT, GM","FM-15","EDBC ","V020","310,1,N,0041,1","22000,1,9,N","009000,1,N,1","+0160,1","+0120,1","99999,9","02,5,+00480,1,99,9",,,"02,99,1,99,9,99,9,99999,9,99,9,99,9",,"10129,1,99999,9",,,,,"MET059METAR EDBC 300720Z 31008KT 240V340 9000 FEW016 16/12 Q1013;",
"10616499999","2010-07-30T07:50:00","4","51.854992","11.418889","180.0","COCHSTEDT, GM","FM-15","EDBC ","V020","300,1,N,0041,1","22000,1,9,N","009000,1,N,1","+0180,1","+0120,1","99999,9","02,5,+00750,1,99,9",,,"02,99,1,99,9,99,9,99999,9,99,9,99,9",,"10129,1,99999,9",,,,,"MET059METAR EDBC 300750Z 30008KT 260V340 9000 FEW025 18/12 Q1013;",
"10616499999","2010-07-30T08:20:00","4","51.854992","11.418889","180.0","COCHSTEDT, GM","FM-15","EDBC ","V020","310,1,N,0036,1","02400,5,C,N","011265,1,N,1","+0170,1","+0110,1","99999,9","04,5,+00750,1,99,9","02,5,+02400,1,99,9",,,,"10129,1,99999,9",,,,,"MET066METAR EDBC 300820Z 31007KT 280V340 9999 SCT025 FEW080 17/11 Q1013;","Q01+000022SCOTCV"
"10616499999","2010-07-30T08:50:00","4","51.854992","11.418889","180.0","COCHSTEDT, GM","FM-15","EDBC ","V020","300,1,N,0046,1","02550,5,C,N","011265,1,N,1","+0180,1","+0110,1","99999,9","04,5,+01200,1,99,9","02,5,+02550,5,99,9",,,,"10129,1,99999,9",,,,,"MET066METAR EDBC 300850Z 30009KT 270V330 9999 SCT040 FEW085 18/11 Q1013;","Q01+000022SCOTCV"
"10616499999","2010-07-30T09:20:00","4","51.854992","11.418889","180.0","COCHSTEDT, GM","FM-15","EDBC ","V020","270,1,N,0046,1","99999,9,C,N","011265,1,N,1","+0180,1","+0120,1","99999,9","04,5,+00840,1,99,9","04,5,+01710,5,99,9",,"04,99,1,99,9,99,9,99999,9,99,9,99,9",,"10129,1,99999,9",,,,,"MET066METAR EDBC 300920Z 27009KT 230V300 9999 SCT028 SCT057 18/12 Q1013;","P01 017103SCOCIG"
"10616499999","2010-07-30T09:50:00","4","51.854992","11.418889","180.0","COCHSTEDT, GM","FM-15","EDBC ","V020","270,1,N,0041,1","99999,9,C,N","011265,1,N,1","+0190,1","+0110,1","99999,9","02,5,+00900,1,99,9","04,5,+02400,1,99,9",,"04,99,1,99,9,99,9,99999,9,99,9,99,9",,"10139,1,99999,9",,,,,"MET066METAR EDBC 300950Z 27008KT 250V360 9999 FEW030 SCT080 19/11 Q1014;","P01 024003SCOCIG"
"10616499999","2010-07-30T10:20:00","4","51.854992","11.418889","180.0","COCHSTEDT, GM","FM-15","EDBC ","V020","250,1,N,0046,1","22000,1,9,N","011265,1,N,1","+0200,1","+0110,1","99999,9","04,5,+01200,1,99,9",,,"04,99,1,99,9,99,9,99999,9,99,9,99,9",,"10129,1,99999,9",,,,,"MET059METAR EDBC 301020Z 25009KT 220V300 9999 SCT040 20/11 Q1013;",
"10616499999","2010-07-30T10:50:00","4","51.854992","11.418889","180.0","COCHSTEDT, GM","FM-15","EDBC ","V020","230,1,N,0031,1","22000,1,9,N","011265,1,N,1","+0200,1","+0110,1","99999,9","04,5,+01200,1,99,9",,,"04,99,1,99,9,99,9,99999,9,99,9,99,9",,"10139,1,99999,9",,,,,"MET059METAR EDBC 301050Z 23006KT 200V280 9999 SCT040 20/11 Q1014;",
"10616499999","2010-07-30T11:20:00","4","51.854992","11.418889","180.0","COCHSTEDT, GM","FM-15","EDBC ","V020","220,1,N,0041,1","02460,5,C,N","011265,1,N,1","+0200,1","+0110,1","99999,9","04,5,+01200,1,99,9","07,5,+02460,5,99,9",,"07,99,1,99,9,99,9,99999,9,99,9,99,9",,"10139,1,99999,9",,,,,"MET058METAR EDBC 301120Z 22008KT 9999 SCT040 BKN082 20/11 Q1014;",
"10616499999","2010-07-30T11:50:00","4","51.854992","11.418889","180.0","COCHSTEDT, GM","FM-15","EDBC ","V020","220,1,N,0041,1","02580,5,C,N","011265,1,N,1","+0200,1","+0100,1","99999,9","04,5,+01260,1,99,9","07,5,+02580,5,99,9",,"07,99,1,99,9,99,9,99999,9,99,9,99,9",,"10139,1,99999,9",,,,,"MET058METAR EDBC 301150Z 22008KT 9999 SCT042 BKN086 20/10 Q1014;",
"10616499999","2010-07-30T12:20:00","4","51.854992","11.418889","180.0","COCHSTEDT, GM","FM-15","EDBC ","V020","220,1,N,0041,1","02280,5,C,N","011265,1,N,1","+0200,1","+0110,1","99999,9","04,5,+01320,1,99,9","07,5,+02280,5,99,9",,"07,99,1,99,9,99,9,99999,9,99,9,99,9",,"10139,1,99999,9",,,,,"MET058METAR EDBC 301220Z 22008KT 9999 SCT044 BKN076 20/11 Q1014;",
"10616499999","2010-07-30T12:50:00","4","51.854992","11.418889","180.0","COCHSTEDT, GM","FM-15","EDBC ","V020","210,1,N,0031,1","02580,5,C,N","011265,1,N,1","+0200,1","+0110,1","99999,9","04,5,+01440,1,99,9","07,5,+02580,5,99,9",,"07,99,1,99,9,99,9,99999,9,99,9,99,9",,"10139,1,99999,9",,,,,"MET058METAR EDBC 301250Z 21006KT 9999 SCT048 BKN086 20/11 Q1014;",
"10616499999","2010-07-30T13:20:00","4","51.854992","11.418889","180.0","COCHSTEDT, GM","FM-15","EDBC ","V020","210,1,N,0031,1","02460,5,C,N","011265,1,N,1","+0200,1","+0110,1","99999,9","04,5,+01440,1,99,9","07,5,+02460,5,99,9",,"07,99,1,99,9,99,9,99999,9,99,9,99,9",,"10139,1,99999,9",,,,,"MET058METAR EDBC 301320Z 21006KT 9999 SCT048 BKN082 20/11 Q1014;",
"10616499999","2010-07-30T13:50:00","4","51.854992","11.418889","180.0","COCHSTEDT, GM","FM-15","EDBC ","V020","200,1,N,0026,1","02580,5,C,N","011265,1,N,1","+0200,1","+0100,1","99999,9","04,5,+01440,1,99,9","07,5,+02580,5,99,9",,"07,99,1,99,9,99,9,99999,9,99,9,99,9",,"10139,1,99999,9",,,,,"MET058METAR EDBC 301350Z 20005KT 9999 SCT048 BKN086 20/10 Q1014;",
"10616499999","2010-08-02T03:50:00","4","51.854992","11.418889","180.0","COCHSTEDT, GM","FM-15","EDBC ","V020","250,1,N,0026,1","04500,1,C,N","008000,1,N,1","+0170,1","+0160,1","99999,9","02,5,+01620,5,99,9","07,5,+04500,1,99,9",,"07,99,1,99,9,99,9,99999,9,99,9,99,9",,"10139,1,99999,9",,,,,"MET058METAR EDBC 020350Z 25005KT 8000 FEW054 BKN150 17/16 Q1014;",
"10616499999","2010-08-02T04:20:00","4","51.854992","11.418889","180.0","COCHSTEDT, GM","FM-15","EDBC ","V020","280,1,N,0026,1","99999,9,9,Y","009900,1,N,1","+0180,1","+0160,1","99999,9",,,,,,"10139,1,99999,9",,,,,"MET045METAR EDBC 020420Z 28005KT CAVOK 18/16 Q1014;",
"10616499999","2010-08-02T04:50:00","4","51.854992","11.418889","180.0","COCHSTEDT, GM","FM-15","EDBC ","V020","999,9,V,0015,1","01080,1,C,N","011265,1,N,1","+0180,1","+0160,1","99999,9","07,5,+01080,1,99,9",,,"07,99,1,99,9,99,9,99999,9,99,9,99,9",,"10139,1,99999,9",,,,,"MET051METAR EDBC 020450Z VRB03KT 9999 BKN036 18/16 Q1014;",
"10616499999","2010-08-02T05:20:00","4","51.854992","11.418889","180.0","COCHSTEDT, GM","FM-15","EDBC ","V020","220,1,N,0026,1","01080,1,C,N","008000,1,N,1","+0180,1","+0170,1","99999,9","07,5,+01080,1,99,9",,,"07,99,1,99,9,99,9,99999,9,99,9,99,9",,"10139,1,99999,9",,,,,"MET051METAR EDBC 020520Z 22005KT 8000 BKN036 18/17 Q1014;",
"10616499999","2010-08-02T05:50:00","4","51.854992","11.418889","180.0","COCHSTEDT, GM","FM-15","EDBC ","V020","220,1,N,0021,1","00960,1,C,N","011265,1,N,1","+0180,1","+0170,1","99999,9","07,5,+00960,1,99,9",,,"07,99,1,99,9,99,9,99999,9,99,9,99,9",,"10139,1,99999,9","61,1",,,,"MET055METAR EDBC 020550Z 22004KT 9999 -RA BKN032 18/17 Q1014;",
"10616499999","2010-08-02T06:20:00","4","51.854992","11.418889","180.0","COCHSTEDT, GM","FM-15","EDBC ","V020","999,9,V,0010,1","00840,1,C,N","011265,1,N,1","+0180,1","+0170,1","99999,9","07,5,+00840,1,99,9",,,"07,99,1,99,9,99,9,99999,9,99,9,99,9",,"10139,1,99999,9",,,,,"MET056METAR EDBC 020620Z VRB02KT 9999 BKN028 18/17 Q1014 RERA;",
"10616499999","2010-08-02T06:50:00","4","51.854992","11.418889","180.0","COCHSTEDT, GM","FM-15","EDBC ","V020","300,1,N,0026,1","00840,1,C,N","011265,1,N,1","+0190,1","+0160,1","99999,9","07,5,+00840,1,99,9",,,"07,99,1,99,9,99,9,99999,9,99,9,99,9",,"10139,1,99999,9",,,,,"MET059METAR EDBC 020650Z 30005KT 240V020 9999 BKN028 19/16 Q1014;",
"10616499999","2010-08-02T07:20:00","4","51.854992","11.418889","180.0","COCHSTEDT, GM","FM-15","EDBC ","V020","290,1,N,0036,1","00840,1,C,N","011265,1,N,1","+0200,1","+0140,1","99999,9","07,5,+00840,1,99,9",,,"07,99,1,99,9,99,9,99999,9,99,9,99,9",,"10139,1,99999,9",,,,,"MET051METAR EDBC 020720Z 29007KT 9999 BKN028 20/14 Q1014;",
"10616499999","2010-08-02T07:50:00","4","51.854992","11.418889","180.0","COCHSTEDT, GM","FM-15","EDBC ","V020","310,1,N,0046,1","22000,1,9,N","011265,1,N,1","+0210,1","+0140,1","99999,9","04,5,+00900,1,99,9",,,"04,99,1,99,9,99,9,99999,9,99,9,99,9",,"10139,1,99999,9",,,,,"MET051METAR EDBC 020750Z 31009KT 9999 SCT030 21/14 Q1014;",
"10616499999","2010-08-02T08:20:00","4","51.854992","11.418889","180.0","COCHSTEDT, GM","FM-15","EDBC ","V020","300,1,N,0046,1","22000,1,9,N","011265,1,N,1","+0220,1","+0140,1","99999,9","04,5,+00990,1,99,9",,,"04,99,1,99,9,99,9,99999,9,99,9,99,9",,"10139,1,99999,9",,,,,"MET051METAR EDBC 020820Z 30009KT 9999 SCT033 22/14 Q1014;",
"10616499999","2010-08-02T08:50:00","4","51.854992","11.418889","180.0","COCHSTEDT, GM","FM-15","EDBC ","V020","310,1,N,0057,1","22000,1,9,N","011265,1,N,1","+0220,1","+0140,1","99999,9","04,5,+01020,1,99,9",,,"04,99,1,99,9,99,9,99999,9,99,9,99,9",,"10139,1,99999,9",,,,,"MET059METAR EDBC 020850Z 31011KT 280V360 9999 SCT034 22/14 Q1014;",
"10616499999","2010-08-02T09:20:00","4","51.854992","11.418889","180.0","COCHSTEDT, GM","FM-15","EDBC ","V020","320,1,N,0051,1","99999,9,9,Y","009900,1,N,1","+0220,1","+0140,1","99999,9",,,,,,"10139,1,99999,9",,,,,"MET053METAR EDBC 020920Z 32010KT 270V360 CAVOK 22/14 Q1014;",
"10616499999","2010-08-02T09:50:00","4","51.854992","11.418889","180.0","COCHSTEDT, GM","FM-15","EDBC ","V020","310,1,N,0036,1","99999,9,9,Y","009900,1,N,1","+0220,1","+0140,1","99999,9",,,,,,"10139,1,99999,9",,,,,"MET053METAR EDBC 020950Z 31007KT 270V350 CAVOK 22/14 Q1014;",
"10616499999","2010-08-02T10:20:00","4","51.854992","11.418889","180.0","COCHSTEDT, GM","FM-15","EDBC ","V020","340,1,N,0041,1","22000,1,9,N","011265,1,N,1","+0220,1","+0140,1","99999,9","04,5,+01140,1,99,9",,,"04,99,1,99,9,99,9,99999,9,99,9,99,9",,"10139,1,99999,9",,,,,"MET059METAR EDBC 021020Z 34008KT 290V030 9999 SCT038 22/14 Q1014;",
"10616499999","2010-08-02T10:50:00","4","51.854992","11.418889","180.0","COCHSTEDT, GM","FM-15","EDBC ","V020","330,1,N,0051,1","01140,1,C,N","011265,1,N,1","+0230,1","+0140,1","99999,9","07,5,+01140,1,99,9",,,"07,99,1,99,9,99,9,99999,9,99,9,99,9",,"10139,1,99999,9",,,,,"MET059METAR EDBC 021050Z 33010KT 300V010 9999 BKN038 23/14 Q1014;",
"10616499999","2010-08-02T11:20:00","4","51.854992","11.418889","180.0","COCHSTEDT, GM","FM-15","EDBC ","V020","320,1,N,0041,1","02640,5,C,N","011265,1,N,1","+0230,1","+0130,1","99999,9","04,5,+01320,1,99,9","07,5,+02640,5,99,9",,"07,99,1,99,9,99,9,99999,9,99,9,99,9",,"10139,1,99999,9",,,,,"MET066METAR EDBC 021120Z 32008KT 280V030 9999 SCT044 BKN088 23/13 Q1014;",
"10616499999","2010-08-02T11:50:00","4","51.854992","11.418889","180.0","COCHSTEDT, GM","FM-15","EDBC ","V020","330,1,N,0041,1","22000,1,9,N","011265,1,N,1","+0240,1","+0130,1","99999,9","04,5,+01350,1,99,9",,,"04,99,1,99,9,99,9,99999,9,99,9,99,9",,"10139,1,99999,9",,,,,"MET059METAR EDBC 021150Z 33008KT 280V040 9999 SCT045 24/13 Q1014;",
"10616499999","2010-08-02T12:20:00","4","51.854992","11.418889","180.0","COCHSTEDT, GM","FM-15","EDBC ","V020","350,1,N,0031,1","22000,1,9,N","011265,1,N,1","+0230,1","+0130,1","99999,9","04,5,+01350,1,99,9",,,"04,99,1,99,9,99,9,99999,9,99,9,99,9",,"10139,1,99999,9",,,,,"MET059METAR EDBC 021220Z 35006KT 300V040 9999 SCT045 23/13 Q1014;",
"10616499999","2010-08-02T12:50:00","4","51.854992","11.418889","180.0","COCHSTEDT, GM","FM-15","EDBC ","V020","999,9,V,0015,1","22000,1,9,N","011265,1,N,1","+0230,1","+0120,1","99999,9","04,5,+01440,1,99,9",,,"04,99,1,99,9,99,9,99999,9,99,9,99,9",,"10139,1,99999,9",,,,,"MET051METAR EDBC 021250Z VRB03KT 9999 SCT048 23/12 Q1014;",
"10616499999","2010-08-02T13:20:00","4","51.854992","11.418889","180.0","COCHSTEDT, GM","FM-15","EDBC ","V020","330,1,N,0031,1","22000,1,9,N","011265,1,N,1","+0230,1","+0130,1","99999,9","04,5,+01440,1,99,9",,,"04,99,1,99,9,99,9,99999,9,99,9,99,9",,"10139,1,99999,9",,,,,"MET059METAR EDBC 021320Z 33006KT 280V010 9999 SCT048 23/13 Q1014;",
"10616499999","2010-08-02T13:50:00","4","51.854992","11.418889","180.0","COCHSTEDT, GM","FM-15","EDBC ","V020","340,1,N,0046,1","22000,1,9,N","999999,9,N,1","+0230,1","+0120,1","99999,9","04,5,+01500,5,99,9",,,,,"10140,1,99999,9",,,,,"MET054METAR EDBC 021350Z 34009KT 320V030 SCT050 23/12 Q1014;",
"10616499999","2010-08-03T04:20:00","4","51.854992","11.418889","180.0","COCHSTEDT, GM","FM-15","EDBC ","V020","290,1,N,0031,1","01020,1,C,N","005000,1,N,1","+0160,1","+0150,1","99999,9","02,5,+00180,1,99,9","07,5,+01020,1,99,9",,"07,99,1,99,9,99,9,99999,9,99,9,99,9",,"10119,1,99999,9","10,1",,,,"MET061METAR EDBC 030420Z 29006KT 5000 BR FEW006 BKN034 16/15 Q1012;",
"10616499999","2010-08-03T04:50:00","4","51.854992","11.418889","180.0","COCHSTEDT, GM","FM-15","EDBC ","V020","310,1,N,0031,1","01200,1,C,N","004000,1,N,1","+0160,1","+0150,1","99999,9","04,5,+00120,1,99,9","07,5,+01200,1,99,9",,"07,99,1,99,9,99,9,99999,9,99,9,99,9",,"10119,1,99999,9","10,1",,,,"MET061METAR EDBC 030450Z 31006KT 4000 BR SCT004 BKN040 16/15 Q1012;",
"10616499999","2010-08-03T05:20:00","4","51.854992","11.418889","180.0","COCHSTEDT, GM","FM-15","EDBC ","V020","310,1,N,0046,1","01320,1,C,N","004000,1,N,1","+0160,1","+0150,1","99999,9","04,5,+00120,1,99,9","07,5,+01320,1,99,9",,"07,99,1,99,9,99,9,99999,9,99,9,99,9",,"10119,1,99999,9","10,1",,,,"MET061METAR EDBC 030520Z 31009KT 4000 BR SCT004 BKN044 16/15 Q1012;",
"10616499999","2010-08-03T05:50:00","4","51.854992","11.418889","180.0","COCHSTEDT, GM","FM-15","EDBC ","V020","300,1,N,0041,1","01500,1,C,N","004800,1,N,1","+0160,1","+0150,1","99999,9","04,5,+01500,1,99,9","07,5,+01560,5,99,9",,"07,99,1,99,9,99,9,99999,9,99,9,99,9",,"10129,1,99999,9","10,1",,,,"MET061METAR EDBC 030550Z 30008KT 4800 BR SCT050 BKN052 16/15 Q1013;",
"10616499999","2010-08-03T06:20:00","4","51.854992","11.418889","180.0","COCHSTEDT, GM","FM-15","EDBC ","V020","320,1,N,0046,1","00960,1,C,N","005000,1,N,1","+0160,1","+0150,1","99999,9","04,5,+00150,1,99,9","07,5,+00960,1,99,9",,"07,99,1,99,9,99,9,99999,9,99,9,99,9",,"10129,1,99999,9","10,1",,,,"MET061METAR EDBC 030620Z 32009KT 5000 BR SCT005 BKN032 16/15 Q1013;",
"10616499999","2010-08-03T06:50:00","4","51.854992","11.418889","180.0","COCHSTEDT, GM","FM-15","EDBC ","V020","330,1,N,0051,1","01050,1,C,N","005000,1,N,1","+0160,1","+0150,1","99999,9","04,5,+00180,1,99,9","07,5,+01050,1,99,9",,"07,99,1,99,9,99,9,99999,9,99,9,99,9",,"10129,1,99999,9","10,1",,,,"MET061METAR EDBC 030650Z 33010KT 5000 BR SCT006 BKN035 16/15 Q1013;",
"10616499999","2010-08-03T07:20:00","4","51.854992","11.418889","180.0","COCHSTEDT, GM","FM-15","EDBC ","V020","330,1,N,0046,1","01020,1,C,N","005000,1,N,1","+0160,1","+0140,1","99999,9","04,5,+00240,1,99,9","07,5,+01020,1,99,9",,"07,99,1,99,9,99,9,99999,9,99,9,99,9",,"10129,1,99999,9","10,1",,,,"MET061METAR EDBC 030720Z 33009KT 5000 BR SCT008 BKN034 16/14 Q1013;",
"10616499999","2010-08-03T07:50:00","4","51.854992","11.418889","180.0","COCHSTEDT, GM","FM-15","EDBC ","V020","310,1,N,0046,1","01200,1,C,N","011265,1,N,1","+0160,1","+0140,1","99999,9","04,5,+00360,1,99,9","07,5,+01200,1,99,9",,"07,99,1,99,9,99,9,99999,9,99,9,99,9",,"10129,1,99999,9",,,,,"MET058METAR EDBC 030750Z 31009KT 9999 SCT012 BKN040 16/14 Q1013;",
"10616499999","2010-08-03T08:20:00","4","51.854992","11.418889","180.0","COCHSTEDT, GM","FM-15","EDBC ","V020","300,1,N,0041,1","01080,1,C,N","011265,1,N,1","+0170,1","+0140,1","99999,9","04,5,+00450,1,99,9","07,5,+01080,1,99,9",,"07,99,1,99,9,99,9,99999,9,99,9,99,9",,"10129,1,99999,9",,,,,"MET058METAR EDBC 030820Z 30008KT 9999 SCT015 BKN036 17/14 Q1013;",
"10616499999","2010-08-03T08:50:00","4","51.854992","11.418889","180.0","COCHSTEDT, GM","FM-15","EDBC ","V020","300,1,N,0046,1","01050,1,C,N","011265,1,N,1","+0170,1","+0140,1","99999,9","04,5,+00450,1,99,9","07,5,+01050,1,99,9",,"07,99,1,99,9,99,9,99999,9,99,9,99,9",,"10129,1,99999,9",,,,,"MET058METAR EDBC 030850Z 30009KT 9999 SCT015 BKN035 17/14 Q1013;",
"10616499999","2010-08-03T09:20:00","4","51.854992","11.418889","180.0","COCHSTEDT, GM","FM-15","EDBC ","V020","320,1,N,0046,1","01200,1,C,N","011265,1,N,1","+0180,1","+0140,1","99999,9","04,5,+00450,1,99,9","07,5,+01200,1,99,9",,"07,99,1,99,9,99,9,99999,9,99,9,99,9",,"10129,1,99999,9",,,,,"MET058METAR EDBC 030920Z 32009KT 9999 SCT015 BKN040 18/14 Q1013;",
"10616499999","2010-08-03T09:50:00","4","51.854992","11.418889","180.0","COCHSTEDT, GM","FM-15","EDBC ","V020","310,1,N,0046,1","01530,5,C,N","011265,1,N,1","+0180,1","+0140,1","99999,9","04,5,+00540,1,99,9","07,5,+01530,5,99,9",,"07,99,1,99,9,99,9,99999,9,99,9,99,9",,"10129,1,99999,9",,,,,"MET058METAR EDBC 030950Z 31009KT 9999 SCT018 BKN051 18/14 Q1013;",
"10616499999","2010-08-03T10:20:00","4","51.854992","11.418889","180.0","COCHSTEDT, GM","FM-15","EDBC ","V020","320,1,N,0046,1","01620,5,C,N","005000,1,N,1","+0160,1","+0140,1","99999,9","04,5,+00600,1,99,9","07,5,+01620,5,99,9",,"07,99,1,99,9,99,9,99999,9,99,9,99,9",,"10129,1,99999,9","81,1",,,,"MET063METAR EDBC 031020Z 32009KT 5000 SHRA SCT020 BKN054 16/14 Q1013;",
"10616499999","2010-08-03T10:50:00","4","51.854992","11.418889","180.0","COCHSTEDT, GM","FM-15","EDBC ","V020","310,1,N,0041,1","01440,1,C,N","011265,1,N,1","+0170,1","+0150,1","99999,9","04,5,+00480,1,99,9","07,5,+01440,1,99,9",,"07,99,1,99,9,99,9,99999,9,99,9,99,9",,"10129,1,99999,9",,,,,"MET063METAR EDBC 031050Z 31008KT 9999 SCT016 BKN048 17/15 Q1013 RERA;",
"10616499999","2010-08-03T11:20:00","4","51.854992","11.418889","180.0","COCHSTEDT, GM","FM-15","EDBC ","V020","310,1,N,0031,1","01800,1,C,N","011265,1,N,1","+0170,1","+0150,1","99999,9","04,5,+00450,1,99,9","07,5,+01800,1,99,9",,"07,99,1,99,9,99,9,99999,9,99,9,99,9",,"10119,1,99999,9",,,,,"MET066METAR EDBC 031120Z 31006KT 270V340 9999 SCT015 BKN060 17/15 Q1012;",
"10616499999","2010-08-03T11:50:00","4","51.854992","11.418889","180.0","COCHSTEDT, GM","FM-15","EDBC ","V020","310,1,N,0041,1","01800,1,C,N","011265,1,N,1","+0180,1","+0140,1","99999,9","04,5,+00600,1,99,9","07,5,+01800,1,99,9",,"07,99,1,99,9,99,9,99999,9,99,9,99,9",,"10119,1,99999,9",,,,,"MET066METAR EDBC 031150Z 31008KT 280V340 9999 SCT020 BKN060 18/14 Q1012;",
"10616499999","2010-08-03T12:20:00","4","51.854992","11.418889","180.0","COCHSTEDT, GM","FM-15","EDBC ","V020","310,1,N,0041,1","01950,5,C,N","011265,1,N,1","+0180,1","+0130,1","99999,9","04,5,+00660,1,99,9","07,5,+01950,5,99,9",,"07,99,1,99,9,99,9,99999,9,99,9,99,9",,"10119,1,99999,9",,,,,"MET066METAR EDBC 031220Z 31008KT 280V340 9999 SCT022 BKN065 18/13 Q1012;",
"10616499999","2010-08-03T12:50:00","4","51.854992","11.418889","180.0","COCHSTEDT, GM","FM-15","EDBC ","V020","330,1,N,0031,1","01200,1,C,N","011265,1,N,1","+0180,1","+0140,1","99999,9","02,5,+00660,1,99,9","07,5,+01200,1,99,9",,"07,99,1,99,9,99,9,99999,9,99,9,99,9",,"10129,1,99999,9",,,,,"MET066METAR EDBC 031250Z 33006KT 300V020 9999 FEW022 BKN040 18/14 Q1013;",
"10616499999","2010-08-03T13:20:00","4","51.854992","11.418889","180.0","COCHSTEDT, GM","FM-15","EDBC ","V020","300,1,N,0041,1","99999,9,C,N","011265,1,N,1","+0210,1","+0130,1","99999,9","04,5,+00900,1,99,9","04,5,+01500,1,99,9",,"04,99,1,99,9,99,9,99999,9,99,9,99,9",,"10129,1,99999,9",,,,,"MET066METAR EDBC 031320Z 30008KT 260V350 9999 SCT030 SCT050 21/13 Q1013;","P01 015003SCOCIG"
"10616499999","2010-08-03T13:50:00","4","51.854992","11.418889","180.0","COCHSTEDT, GM","FM-15","EDBC ","V020","290,1,N,0067,1","22000,1,9,N","011265,1,N,1","+0180,1","+0130,1","99999,9","04,5,+00750,1,99,9",,,"04,99,1,99,9,99,9,99999,9,99,9,99,9",,"10129,1,99999,9",,,,,"MET051METAR EDBC 031350Z 29013KT 9999 SCT025 18/13 Q1013;",
"10616499999","2010-08-04T03:50:00","4","51.854992","11.418889","180.0","COCHSTEDT, GM","FM-15","EDBC ","V020","210,1,N,0015,1","99999,9,9,Y","009900,1,N,1","+0120,1","+0110,1","99999,9",,,,,,"10119,1,99999,9",,,,,"MET045METAR EDBC 040350Z 21003KT CAVOK 12/11 Q1012;",
"10616499999","2010-08-04T04:20:00","4","51.854992","11.418889","180.0","COCHSTEDT, GM","FM-15","EDBC ","V020","210,1,N,0021,1","99999,9,9,Y","009900,1,N,1","+0120,1","+0110,1","99999,9",,,,,,"10119,1,99999,9",,,,,"MET045METAR EDBC 040420Z 21004KT CAVOK 12/11 Q1012;",
"10616499999","2010-08-04T04:50:00","4","51.854992","11.418889","180.0","COCHSTEDT, GM","FM-15","EDBC ","V020","200,1,N,0026,1","99999,9,9,Y","009900,1,N,1","+0130,1","+0110,1","99999,9",,,,,,"10119,1,99999,9",,,,,"MET046METAR EDBC 040450Z 200005KT CAVOK 13/11 Q1012;",
"10616499999","2010-08-04T05:20:00","4","51.854992","11.418889","180.0","COCHSTEDT, GM","FM-15","EDBC ","V020","999,9,V,0015,1","99999,9,9,Y","009900,1,N,1","+0140,1","+0120,1","99999,9",,,,,,"10119,1,99999,9",,,,,"MET045METAR EDBC 040520Z VRB03KT CAVOK 14/12 Q1012;",
"10616499999","2010-08-04T05:50:00","4","51.854992","11.418889","180.0","COCHSTEDT, GM","FM-15","EDBC ","V020","999,9,V,0015,1","99999,9,9,Y","009900,1,N,1","+0150,1","+0120,1","99999,9",,,,,,"10119,1,99999,9",,,,,"MET045METAR EDBC 040550Z VRB03KT CAVOK 15/12 Q1012;",
"10616499999","2010-08-04T06:20:00","4","51.854992","11.418889","180.0","COCHSTEDT, GM","FM-15","EDBC ","V020","180,1,N,0026,1","99999,9,9,Y","009900,1,N,1","+0160,1","+0120,1","99999,9",,,,,,"10119,1,99999,9",,,,,"MET045METAR EDBC 040620Z 18005KT CAVOK 16/12 Q1012;",
"10616499999","2010-08-04T06:50:00","4","51.854992","11.418889","180.0","COCHSTEDT, GM","FM-15","EDBC ","V020","180,1,N,0026,1","99999,9,9,Y","009900,1,N,1","+0170,1","+0120,1","99999,9",,,,,,"10119,1,99999,9",,,,,"MET053METAR EDBC 040650Z 18005KT 140V210 CAVOK 17/12 Q1012;",
"10616499999","2010-08-04T07:20:00","4","51.854992","11.418889","180.0","COCHSTEDT, GM","FM-15","EDBC ","V020","180,1,N,0026,1","99999,9,9,Y","009900,1,N,1","+0190,1","+0120,1","99999,9",,,,,,"10119,1,99999,9",,,,,"MET053METAR EDBC 040720Z 18005KT 150V230 CAVOK 19/12 Q1012;",
"10616499999","2010-08-04T07:50:00","4","51.854992","11.418889","180.0","COCHSTEDT, GM","FM-15","EDBC ","V020","180,1,N,0026,1","99999,9,9,Y","009900,1,N,1","+0190,1","+0110,1","99999,9",,,,,,"10119,1,99999,9",,,,,"MET053METAR EDBC 040750Z 18005KT 110V230 CAVOK 19/11 Q1012;",
"10616499999","2010-08-04T08:20:00","4","51.854992","11.418889","180.0","COCHSTEDT, GM","FM-15","EDBC ","V020","999,9,V,0015,1","99999,9,9,Y","009900,1,N,1","+0200,1","+0120,1","99999,9",,,,,,"10108,1,99999,9",,,,,"MET053METAR EDBC 040820Z VRB03KT 050V190 CAVOK 20/12 Q1011;",
"10616499999","2010-08-04T08:50:00","4","51.854992","11.418889","180.0","COCHSTEDT, GM","FM-15","EDBC ","V020","180,1,N,0026,1","99999,9,9,Y","009900,1,N,1","+0210,1","+0130,1","99999,9",,,,,,"10108,1,99999,9",,,,,"MET045METAR EDBC 040850Z 18005KT CAVOK 21/13 Q1011;",
"10616499999","2010-08-04T09:20:00","4","51.854992","11.418889","180.0","COCHSTEDT, GM","FM-15","EDBC ","V020","180,1,N,0026,1","99999,9,C,N","011265,1,N,1","+0210,1","+0120,1","99999,9","02,5,+01080,1,99,9","04,5,+01350,1,99,9",,"04,99,1,99,9,99,9,99999,9,99,9,99,9",,"10108,1,99999,9",,,,,"MET066METAR EDBC 040920Z 18005KT 140V210 9999 FEW036 SCT045 21/12 Q1011;","P01 013503SCOCIG"
"10616499999","2010-08-04T09:50:00","4","51.854992","11.418889","180.0","COCHSTEDT, GM","FM-15","EDBC ","V020","999,9,V,0026,1","01380,1,C,N","011265,1,N,1","+0210,1","+0120,1","99999,9","07,5,+01380,1,99,9",,,"07,99,1,99,9,99,9,99999,9,99,9,99,9",,"10108,1,99999,9",,,,,"MET051METAR EDBC 040950Z VRB05KT 9999 BKN046 21/12 Q1011;",
"10616499999","2010-08-04T10:20:00","4","51.854992","11.418889","180.0","COCHSTEDT, GM","FM-15","EDBC ","V020","240,1,N,0051,1","99999,9,9,Y","009900,1,N,1","+0210,1","+0090,1","99999,9",,,,,,"10108,1,99999,9",,,,,"MET045METAR EDBC 041020Z 24010KT CAVOK 21/09 Q1011;",
"10616499999","2010-08-04T10:50:00","4","51.854992","11.418889","180.0","COCHSTEDT, GM","FM-15","EDBC ","V020","200,1,N,0057,1","99999,9,9,Y","009900,1,N,1","+0210,1","+0110,1","99999,9",,,,,,"10102,1,99999,9",,,,,"MET045METAR EDBC 041050Z 20011KT CAVOK 21/11 Q1010;",
"10616499999","2010-08-04T11:20:00","4","51.854992","11.418889","180.0","COCHSTEDT, GM","FM-15","EDBC ","V020","260,1,N,0057,1","22000,1,9,N","011265,1,N,1","+0220,1","+0110,1","99999,9","04,5,+01380,1,99,9",,,"04,99,1,99,9,99,9,99999,9,99,9,99,9",,"10102,1,99999,9",,,,,"MET051METAR EDBC 041120Z 26011KT 9999 SCT046 22/11 Q1010;",
"10616499999","2010-08-04T11:50:00","4","51.854992","11.418889","180.0","COCHSTEDT, GM","FM-15","EDBC ","V020","230,1,N,0057,1","22000,1,9,N","011265,1,N,1","+0210,1","+0110,1","99999,9","04,5,+01440,1,99,9",,,"04,99,1,99,9,99,9,99999,9,99,9,99,9",,"10102,1,99999,9",,,,,"MET059METAR EDBC 041150Z 23011KT 190V250 9999 SCT048 21/11 Q1010;",
"10616499999","2010-08-04T12:20:00","4","51.854992","11.418889","180.0","COCHSTEDT, GM","FM-15","EDBC ","V020","240,1,N,0041,1","99999,9,9,Y","009900,1,N,1","+0210,1","+0110,1","99999,9",,,,,,"10102,1,99999,9",,,,,"MET045METAR EDBC 041220Z 24008KT CAVOK 21/11 Q1010;",
"10616499999","2010-08-04T12:50:00","4","51.854992","11.418889","180.0","COCHSTEDT, GM","FM-15","EDBC ","V020","220,1,N,0031,1","99999,9,9,Y","009900,1,N,1","+0210,1","+0110,1","99999,9",,,,,,"10102,1,99999,9",,,,,"MET053METAR EDBC 041250Z 22006KT 190V250 CAVOK 21/11 Q1010;",
"10616499999","2010-08-04T13:20:00","4","51.854992","11.418889","180.0","COCHSTEDT, GM","FM-15","EDBC ","V020","220,1,N,0031,1","99999,9,9,Y","009900,1,N,1","+0210,1","+0110,1","99999,9",,,,,,"10091,1,99999,9",,,,,"MET045METAR EDBC 041320Z 22006KT CAVOK 21/11 Q1009;",
"10616499999","2010-08-04T13:50:00","4","51.854992","11.418889","180.0","COCHSTEDT, GM","FM-15","EDBC ","V020","999,9,V,0015,1","99999,9,9,Y","009900,1,N,1","+0220,1","+0110,1","99999,9",,,,,,"10091,1,99999,9",,,,,"MET045METAR EDBC 041350Z VRB03KT CAVOK 22/11 Q1009;",
"10616499999","2010-08-05T03:50:00","4","51.854992","11.418889","180.0","COCHSTEDT, GM","FM-15","EDBC ","V020","160,1,N,0015,1","99999,9,9,Y","009900,1,N,1","+0150,1","+0120,1","99999,9",,,,,,"10061,1,99999,9",,,,,"MET045METAR EDBC 050350Z 16003KT CAVOK 15/12 Q1006;",
"10616499999","2010-08-05T04:20:00","4","51.854992","11.418889","180.0","COCHSTEDT, GM","FM-15","EDBC ","V020","150,1,N,0036,1","99999,9,9,Y","009900,1,N,1","+0150,1","+0120,1","99999,9",,,,,,"10061,1,99999,9",,,,,"MET045METAR EDBC 050420Z 15007KT CAVOK 15/12 Q1006;",
"10616499999","2010-08-05T04:50:00","4","51.854992","11.418889","180.0","COCHSTEDT, GM","FM-15","EDBC ","V020","160,1,N,0031,1","99999,9,9,Y","009900,1,N,1","+0160,1","+0120,1","99999,9",,,,,,"10061,1,99999,9",,,,,"MET045METAR EDBC 050450Z 16006KT CAVOK 16/12 Q1006;",
"10616499999","2010-08-05T05:20:00","4","51.854992","11.418889","180.0","COCHSTEDT, GM","FM-15","EDBC ","V020","140,1,N,0026,1","99999,9,9,Y","009900,1,N,1","+0160,1","+0130,1","99999,9",,,,,,"10061,1,99999,9",,,,,"MET045METAR EDBC 050520Z 14005KT CAVOK 16/13 Q1006;",
"10616499999","2010-08-05T05:50:00","4","51.854992","11.418889","180.0","COCHSTEDT, GM","FM-15","EDBC ","V020","999,9,V,0010,1","99999,9,9,Y","009900,1,N,1","+0170,1","+0130,1","99999,9",,,,,,"10061,1,99999,9",,,,,"MET045METAR EDBC 050550Z VRB02KT CAVOK 17/13 Q1006;",
"10616499999","2010-08-05T06:20:00","4","51.854992","11.418889","180.0","COCHSTEDT, GM","FM-15","EDBC ","V020","180,1,N,0021,1","99999,9,9,Y","009900,1,N,1","+0170,1","+0130,1","99999,9",,,,,,"10061,1,99999,9",,,,,"MET053METAR EDBC 050620Z 18004KT 150V210 CAVOK 17/13 Q1006;",
"10616499999","2010-08-05T06:50:00","4","51.854992","11.418889","180.0","COCHSTEDT, GM","FM-15","EDBC ","V020","160,1,N,0021,1","99999,9,9,Y","009900,1,N,1","+0180,1","+0130,1","99999,9",,,,,,"10061,1,99999,9",,,,,"MET045METAR EDBC 050650Z 16004KT CAVOK 18/13 Q1006;",
"10616499999","2010-08-05T07:20:00","4","51.854992","11.418889","180.0","COCHSTEDT, GM","FM-15","EDBC ","V020","160,1,N,0021,1","99999,9,9,Y","009900,1,N,1","+0190,1","+0130,1","99999,9",,,,,,"10061,1,99999,9",,,,,"MET053METAR EDBC 050720Z 16004KT 120V220 CAVOK 19/13 Q1006;",
"10616499999","2010-08-05T07:50:00","4","51.854992","11.418889","180.0","COCHSTEDT, GM","FM-15","EDBC ","V020","210,1,N,0021,1","99999,9,9,Y","009900,1,N,1","+0190,1","+0130,1","99999,9",,,,,,"10071,1,99999,9",,,,,"MET053METAR EDBC 050750Z 21004KT 170V250 CAVOK 19/13 Q1007;",
"10616499999","2010-08-05T08:20:00","4","51.854992","11.418889","180.0","COCHSTEDT, GM","FM-15","EDBC ","V020","999,9,V,0010,1","99999,9,9,Y","009900,1,N,1","+0200,1","+0130,1","99999,9",,,,,,"10071,1,99999,9",,,,,"MET045METAR EDBC 050820Z VRB02KT CAVOK 20/13 Q1007;",
"10616499999","2010-08-05T08:50:00","4","51.854992","11.418889","180.0","COCHSTEDT, GM","FM-15","EDBC ","V020","210,1,N,0036,1","99999,9,9,Y","009900,1,N,1","+0210,1","+0130,1","99999,9",,,,,,"10071,1,99999,9",,,,,"MET045METAR EDBC 050850Z 21007KT CAVOK 21/13 Q1007;",
"10616499999","2010-08-05T09:20:00","4","51.854992","11.418889","180.0","COCHSTEDT, GM","FM-15","EDBC ","V020","250,1,N,0036,1","99999,9,9,Y","009900,1,N,1","+0210,1","+0130,1","99999,9",,,,,,"10071,1,99999,9",,,,,"MET053METAR EDBC 050920Z 25007KT 220V280 CAVOK 21/13 Q1007;",
"10616499999","2010-08-05T09:50:00","4","51.854992","11.418889","180.0","COCHSTEDT, GM","FM-15","EDBC ","V020","290,1,N,0026,1","99999,9,9,Y","009900,1,N,1","+0210,1","+0130,1","99999,9",,,,,,"10071,1,99999,9",,,,,"MET053METAR EDBC 050950Z 29005KT 250V350 CAVOK 21/13 Q1007;",
"10616499999","2010-08-05T10:20:00","4","51.854992","11.418889","180.0","COCHSTEDT, GM","FM-15","EDBC ","V020","270,1,N,0031,1","99999,9,9,Y","009900,1,N,1","+0220,1","+0130,1","99999,9",,,,,,"10071,1,99999,9",,,,,"MET053METAR EDBC 051020Z 27006KT 230V300 CAVOK 22/13 Q1007;",
"10616499999","2010-08-05T10:50:00","4","51.854992","11.418889","180.0","COCHSTEDT, GM","FM-15","EDBC ","V020","270,1,N,0041,1","99999,9,9,Y","009900,1,N,1","+0220,1","+0130,1","99999,9",,,,,,"10071,1,99999,9",,,,,"MET045METAR EDBC 051050Z 27008KT CAVOK 22/13 Q1007;",
"10616499999","2010-08-05T11:20:00","4","51.854992","11.418889","180.0","COCHSTEDT, GM","FM-15","EDBC ","V020","290,1,N,0051,1","99999,9,9,Y","009900,1,N,1","+0210,1","+0130,1","99999,9",,,,,,"10071,1,99999,9",,,,,"MET053METAR EDBC 051120Z 29010KT 250V310 CAVOK 21/13 Q1007;",
"10616499999","2010-08-05T11:50:00","4","51.854992","11.418889","180.0","COCHSTEDT, GM","FM-15","EDBC ","V020","270,1,N,0036,1","99999,9,9,Y","009900,1,N,1","+0220,1","+0140,1","99999,9",,,,,,"10071,1,99999,9",,,,,"MET053METAR EDBC 051150Z 27007KT 240V300 CAVOK 22/14 Q1007;",
"10616499999","2010-08-05T12:20:00","4","51.854992","11.418889","180.0","COCHSTEDT, GM","FM-15","EDBC ","V020","320,1,N,0031,1","99999,9,9,Y","009900,1,N,1","+0220,1","+0130,1","99999,9",,,,,,"10071,1,99999,9",,,,,"MET053METAR EDBC 051220Z 32006KT 280V360 CAVOK 22/13 Q1007;",
"10616499999","2010-08-05T12:50:00","4","51.854992","11.418889","180.0","COCHSTEDT, GM","FM-15","EDBC ","V020","300,1,N,0031,1","99999,9,9,Y","009900,1,N,1","+0220,1","+0140,1","99999,9",,,,,,"10071,1,99999,9",,,,,"MET053METAR EDBC 051250Z 30006KT 260V020 CAVOK 22/14 Q1007;",
"10616499999","2010-08-05T13:20:00","4","51.854992","11.418889","180.0","COCHSTEDT, GM","FM-15","EDBC ","V020","999,9,V,0021,1","99999,9,9,Y","009900,1,N,1","+0230,1","+0140,1","99999,9",,,,,,"10071,1,99999,9",,,,,"MET045METAR EDBC 051320Z VRB04KT CAVOK 23/14 Q1007;",
"10616499999","2010-08-05T13:50:00","4","51.854992","11.418889","180.0","COCHSTEDT, GM","FM-15","EDBC ","V020","999,9,V,0015,1","99999,9,9,Y","009900,1,N,1","+0230,1","+0140,1","99999,9",,,,,,"10081,1,99999,9",,,,,"MET045METAR EDBC 051350Z VRB03KT CAVOK 23/14 Q1008;",
"10616499999","2010-08-06T03:50:00","4","51.854992","11.418889","180.0","COCHSTEDT, GM","FM-15","EDBC ","V020","330,1,N,0051,1","00480,1,C,N","001000,1,N,1","+0150,1","+0150,1","99999,9","04,5,+00120,1,99,9","07,5,+00480,1,99,9",,"07,99,1,99,9,99,9,99999,9,99,9,99,9",,"10119,1,99999,9","10,1","51,1","61,1",,"MET067METAR EDBC 060350Z 33010KT 1000 BR -DZRA SCT004 BKN016 15/15 Q1012;",
"10616499999","2010-08-06T04:20:00","4","51.854992","11.418889","180.0","COCHSTEDT, GM","FM-15","EDBC ","V020","330,1,N,0051,1","00150,1,C,N","001500,1,N,1","+0150,1","+0150,1","99999,9","07,5,+00150,1,99,9",,,"07,99,1,99,9,99,9,99999,9,99,9,99,9",,"10129,1,99999,9","10,1",,,,"MET059METAR EDBC 060420Z 33010KT 1500 BR BKN005 15/15 Q1013 REDZ;",
"10616499999","2010-08-06T04:50:00","4","51.854992","11.418889","180.0","COCHSTEDT, GM","FM-15","EDBC ","V020","330,1,N,0057,1","00120,1,C,N","001200,1,N,1","+0150,1","+0150,1","99999,9","07,5,+00120,1,99,9",,,"07,99,1,99,9,99,9,99999,9,99,9,99,9",,"10129,1,99999,9","10,1",,,,"MET054METAR EDBC 060450Z 33011KT 1200 BR BKN004 15/15 Q1013;",
"10616499999","2010-08-06T05:20:00","4","51.854992","11.418889","180.0","COCHSTEDT, GM","FM-15","EDBC ","V020","320,1,N,0057,1","00150,1,C,N","002000,1,N,1","+0150,1","+0150,1","99999,9","07,5,+00150,1,99,9",,,"07,99,1,99,9,99,9,99999,9,99,9,99,9",,"10129,1,99999,9","10,1",,,,"MET054METAR EDBC 060520Z 32011KT 2000 BR BKN005 15/15 Q1013;",
"10616499999","2010-08-06T05:50:00","4","51.854992","11.418889","180.0","COCHSTEDT, GM","FM-15","EDBC ","V020","310,1,N,0051,1","00150,1,C,N","003500,1,N,1","+0150,1","+0150,1","99999,9","07,5,+00150,1,99,9",,,"07,99,1,99,9,99,9,99999,9,99,9,99,9",,"10139,1,99999,9","10,1",,,,"MET054METAR EDBC 060550Z 31010KT 3500 BR BKN005 15/15 Q1014;",
"10616499999","2010-08-06T06:20:00","4","51.854992","11.418889","180.0","COCHSTEDT, GM","FM-15","EDBC ","V020","300,1,N,0046,1","00180,1,C,N","006000,1,N,1","+0150,1","+0140,1","99999,9","07,5,+00180,1,99,9",,,"07,99,1,99,9,99,9,99999,9,99,9,99,9",,"10139,1,99999,9",,,,,"MET051METAR EDBC 060620Z 30009KT 6000 BKN006 15/14 Q1014;",
"10616499999","2010-08-06T06:50:00","4","51.854992","11.418889","180.0","COCHSTEDT, GM","FM-15","EDBC ","V020","310,1,N,0062,1","00600,1,C,N","008000,1,N,1","+0150,1","+0140,1","99999,9","04,5,+00150,1,99,9","07,5,+00600,1,99,9",,"07,99,1,99,9,99,9,99999,9,99,9,99,9",,"10139,1,99999,9",,,,,"MET058METAR EDBC 060650Z 31012KT 8000 SCT005 BKN020 15/14 Q1014;",
"10616499999","2010-08-06T07:20:00","4","51.854992","11.418889","180.0","COCHSTEDT, GM","FM-15","EDBC ","V020","320,1,N,0062,1","00660,1,C,N","011265,1,N,1","+0150,1","+0140,1","99999,9","04,5,+00180,1,99,9","07,5,+00660,1,99,9",,"07,99,1,99,9,99,9,99999,9,99,9,99,9",,"10139,1,99999,9",,,,,"MET058METAR EDBC 060720Z 32012KT 9999 SCT006 BKN022 15/14 Q1014;",
"10616499999","2010-08-06T07:50:00","4","51.854992","11.418889","180.0","COCHSTEDT, GM","FM-15","EDBC ","V020","320,1,N,0067,1","00270,1,C,N","011265,1,N,1","+0150,1","+0140,1","99999,9","02,5,+00150,1,99,9","04,5,+00270,1,99,9","07,5,+00600,1,99,9","07,99,1,99,9,99,9,99999,9,99,9,99,9",,"10139,1,99999,9",,,,,"MET065METAR EDBC 060750Z 32013KT 9999 FEW005 SCT009 BKN020 15/14 Q1014;",
"10616499999","2010-08-06T08:20:00","4","51.854992","11.418889","180.0","COCHSTEDT, GM","FM-15","EDBC ","V020","320,1,N,0062,1","00720,1,C,N","011265,1,N,1","+0150,1","+0140,1","99999,9","02,5,+00240,1,99,9","07,5,+00720,1,99,9",,"07,99,1,99,9,99,9,99999,9,99,9,99,9",,"10149,1,99999,9",,,,,"MET066METAR EDBC 060820Z 32012KT 290V350 9999 FEW008 BKN024 15/14 Q1015;",
"10616499999","2010-08-06T08:50:00","4","51.854992","11.418889","180.0","COCHSTEDT, GM","FM-15","EDBC ","V020","320,1,N,0067,1","00750,1,C,N","008000,1,N,1","+0150,1","+0140,1","99999,9","02,5,+00150,1,99,9","07,5,+00750,1,99,9",,"07,99,1,99,9,99,9,99999,9,99,9,99,9",,"10149,1,99999,9","80,1",,,,"MET064METAR EDBC 060850Z 32013KT 8000 -SHRA FEW005 BKN025 15/14 Q1015;",
"10616499999","2010-08-06T09:20:00","4","51.854992","11.418889","180.0","COCHSTEDT, GM","FM-15","EDBC ","V020","310,1,N,0067,1","00750,1,C,N","011265,1,N,1","+0150,1","+0140,1","99999,9","02,5,+00240,1,99,9","07,5,+00750,1,99,9",,"07,99,1,99,9,99,9,99999,9,99,9,99,9",,"10149,1,99999,9",,,,,"MET058METAR EDBC 060920Z 31013KT 9999 FEW008 BKN025 15/14 Q1015;",
"10616499999","2010-08-06T09:50:00","4","51.854992","11.418889","180.0","COCHSTEDT, GM","FM-15","EDBC ","V020","320,1,N,0057,1","00780,1,C,N","011265,1,N,1","+0150,1","+0140,1","99999,9","02,5,+00240,1,99,9","07,5,+00780,1,99,9",,"07,99,1,99,9,99,9,99999,9,99,9,99,9",,"10149,1,99999,9",,,,,"MET058METAR EDBC 060950Z 32011KT 9999 FEW008 BKN026 15/14 Q1015;",
"10616499999","2010-08-06T10:20:00","4","51.854992","11.418889","180.0","COCHSTEDT, GM","FM-15","EDBC ","V020","320,1,N,0062,1","00750,1,C,N","008000,1,N,1","+0150,1","+0150,1","99999,9","02,5,+00240,1,99,9","07,5,+00750,1,99,9",,"07,99,1,99,9,99,9,99999,9,99,9,99,9",,"10149,1,99999,9","80,1",,,,"MET064METAR EDBC 061020Z 32012KT 8000 -SHRA FEW008 BKN025 15/15 Q1015;",
"10616499999","2010-08-06T10:50:00","4","51.854992","11.418889","180.0","COCHSTEDT, GM","FM-15","EDBC ","V020","320,1,N,0057,1","22000,1,9,N","008000,1,N,1","+0160,1","+0150,1","99999,9","04,5,+00240,1,99,9","07,1,+07800,1,99,9",,"07,99,1,99,9,99,9,99999,9,99,9,99,9",,"10149,1,99999,9",,,,,"MET059METAR EDBC 061050Z 32011KT 8000 SCT008 BKN2600 16/15 Q1015;",
"10616499999","2010-08-06T11:20:00","4","51.854992","11.418889","180.0","COCHSTEDT, GM","FM-15","EDBC ","V020","320,1,N,0057,1","01350,1,C,N","011265,1,N,1","+0160,1","+0150,1","99999,9","02,5,+00240,1,99,9","07,5,+01350,1,99,9",,"07,99,1,99,9,99,9,99999,9,99,9,99,9",,"10149,1,99999,9",,,,,"MET066METAR EDBC 061120Z 32011KT 290V350 9999 FEW008 BKN045 16/15 Q1015;",
"10616499999","2010-08-06T11:50:00","4","51.854992","11.418889","180.0","COCHSTEDT, GM","FM-15","EDBC ","V020","320,1,N,0057,1","01350,1,C,N","011265,1,N,1","+0160,1","+0150,1","99999,9","02,5,+00240,1,99,9","07,5,+01350,1,99,9",,"07,99,1,99,9,99,9,99999,9,99,9,99,9",,"10149,1,99999,9",,,,,"MET058METAR EDBC 061150Z 32011KT 9999 FEW008 BKN045 16/15 Q1015;",
"10616499999","2010-08-06T12:20:00","4","51.854992","11.418889","180.0","COCHSTEDT, GM","FM-15","EDBC ","V020","310,1,N,0062,1","01440,1,C,N","011265,1,N,1","+0160,1","+0140,1","99999,9","02,5,+00240,1,99,9","07,5,+01440,1,99,9",,"07,99,1,99,9,99,9,99999,9,99,9,99,9",,"10149,1,99999,9",,,,,"MET058METAR EDBC 061220Z 31012KT 9999 FEW008 BKN048 16/14 Q1015;",
"10616499999","2010-08-06T12:50:00","4","51.854992","11.418889","180.0","COCHSTEDT, GM","FM-15","EDBC ","V020","310,1,N,0051,1","01440,1,C,N","011265,1,N,1","+0170,1","+0140,1","99999,9","02,5,+00300,1,99,9","07,5,+01440,1,99,9",,"07,99,1,99,9,99,9,99999,9,99,9,99,9",,"10149,1,99999,9",,,,,"MET058METAR EDBC 061250Z 31010KT 9999 FEW010 BKN048 17/14 Q1015;",
"10616499999","2010-08-06T13:20:00","4","51.854992","11.418889","180.0","COCHSTEDT, GM","FM-15","EDBC ","V020","300,1,N,0046,1","01650,5,C,N","011265,1,N,1","+0170,1","+0140,1","99999,9","02,5,+00450,1,99,9","07,5,+01650,5,99,9",,"07,99,1,99,9,99,9,99999,9,99,9,99,9",,"10159,1,99999,9",,,,,"MET058METAR EDBC 061320Z 30009KT 9999 FEW015 BKN055 17/14 Q1016;",
"10616499999","2010-08-06T13:50:00","4","51.854992","11.418889","180.0","COCHSTEDT, GM","FM-15","EDBC ","V020","310,1,N,0051,1","01800,1,C,N","011265,1,N,1","+0180,1","+0140,1","99999,9","02,5,+00600,1,99,9","07,5,+01800,1,99,9",,"07,99,1,99,9,99,9,99999,9,99,9,99,9",,"10159,1,99999,9",,,,,"MET058METAR EDBC 061350Z 31010KT 9999 FEW020 BKN060 18/14 Q1016;",
"10616499999","2010-08-09T04:20:00","4","51.854992","11.418889","180.0","COCHSTEDT, GM","FM-15","EDBC ","V020","250,1,N,0026,1","00150,1,C,N","004000,1,N,1","+0160,1","+0150,1","99999,9","07,5,+00150,1,99,9",,,"07,99,1,99,9,99,9,99999,9,99,9,99,9",,"10149,1,99999,9",,,,,"MET051METAR EDBC 090420Z 25005KT 4000 BKN005 16/15 Q1015;",
"10616499999","2010-08-09T04:50:00","4","51.854992","11.418889","180.0","COCHSTEDT, GM","FM-15","EDBC ","V020","260,1,N,0031,1","00150,1,C,N","004000,1,N,1","+0160,1","+0160,1","99999,9","07,5,+00150,1,99,9",,,"07,99,1,99,9,99,9,99999,9,99,9,99,9",,"10149,1,99999,9",,,,,"MET051METAR EDBC 090450Z 26006KT 4000 BKN005 16/16 Q1015;",
"10616499999","2010-08-09T05:20:00","4","51.854992","11.418889","180.0","COCHSTEDT, GM","FM-15","EDBC ","V020","250,1,N,0031,1","00150,1,C,N","003000,1,N,1","+0160,1","+0160,1","99999,9","07,5,+00150,1,99,9",,,"07,99,1,99,9,99,9,99999,9,99,9,99,9",,"10149,1,99999,9",,,,,"MET051METAR EDBC 090520Z 25006KT 3000 BKN005 16/16 Q1015;",
"10616499999","2010-08-09T05:50:00","4","51.854992","11.418889","180.0","COCHSTEDT, GM","FM-15","EDBC ","V020","260,1,N,0026,1","00150,1,C,N","003000,1,N,1","+0160,1","+0160,1","99999,9","07,5,+00150,1,99,9",,,"07,99,1,99,9,99,9,99999,9,99,9,99,9",,"10160,1,99999,9",,,,,"MET055METAR EDBC 090550Z 26005KT 3000 BKN005 -RA 16/16 Q1016;",
"10616499999","2010-08-09T06:20:00","4","51.854992","11.418889","180.0","COCHSTEDT, GM","FM-15","EDBC ","V020","280,1,N,0026,1","00150,1,C,N","003000,1,N,1","+0160,1","+0160,1","99999,9","07,5,+00150,1,99,9",,,"07,99,1,99,9,99,9,99999,9,99,9,99,9",,"10160,1,99999,9",,,,,"MET055METAR EDBC 090620Z 28005KT 3000 BKN005 -RA 16/16 Q1016;",
"10616499999","2010-08-09T06:50:00","4","51.854992","11.418889","180.0","COCHSTEDT, GM","FM-15","EDBC ","V020","290,1,N,0021,1","00150,1,C,N","002500,1,N,1","+0170,1","+0160,1","99999,9","08,5,+00150,1,99,9",,,"08,99,1,99,9,99,9,99999,9,99,9,99,9",,"10160,1,99999,9",,,,,"MET055METAR EDBC 090650Z 29004KT 2500 OVC005 -RA 17/16 Q1016;",
"10616499999","2010-08-09T07:20:00","4","51.854992","11.418889","180.0","COCHSTEDT, GM","FM-15","EDBC ","V020","290,1,N,0026,1","00150,1,C,N","002000,1,N,1","+9999,9","+0160,1","99999,9","08,5,+00150,1,99,9",,,"08,99,1,99,9,99,9,99999,9,99,9,99,9",,"10160,1,99999,9",,,,,"MET061METAR EDBC 090720Z 29005KT 260V330 2000 OVC005 RA16/16 Q1016;",
"10616499999","2010-08-09T07:50:00","4","51.854992","11.418889","180.0","COCHSTEDT, GM","FM-15","EDBC ","V020","310,1,N,0031,1","00120,1,C,N","002000,1,N,1","+0160,1","+0160,1","99999,9","08,5,+00120,1,99,9",,,"08,99,1,99,9,99,9,99999,9,99,9,99,9",,"10160,1,99999,9",,,,,"MET063METAR EDBC 090750Z 31006KT 270V330 2000 OVC004 -RA 16/16 Q1016;",
"10616499999","2010-08-09T08:20:00","4","51.854992","11.418889","180.0","COCHSTEDT, GM","FM-15","EDBC ","V020","300,1,N,0031,1","00150,1,C,N","003000,1,N,1","+0170,1","+0160,1","99999,9","08,5,+00150,1,99,9",,,"08,99,1,99,9,99,9,99999,9,99,9,99,9",,"10169,1,99999,9",,,,,"MET051METAR EDBC 090820Z 30006KT 3000 OVC005 17/16 Q1017;",
"10616499999","2010-08-09T08:50:00","4","51.854992","11.418889","180.0","COCHSTEDT, GM","FM-15","EDBC ","V020","320,1,N,0021,1","00120,1,C,N","002500,1,N,1","+0170,1","+0160,1","99999,9","08,5,+00120,1,99,9",,,"08,99,1,99,9,99,9,99999,9,99,9,99,9",,"10169,1,99999,9",,,,,"MET059METAR EDBC 090850Z 32004KT 270V350 2500 OVC004 17/16 Q1017;",
"10616499999","2010-08-09T09:20:00","4","51.854992","11.418889","180.0","COCHSTEDT, GM","FM-15","EDBC ","V020","320,1,N,0021,1","00150,1,C,N","002000,1,N,1","+0170,1","+0160,1","99999,9","08,5,+00150,1,99,9",,,"08,99,1,99,9,99,9,99999,9,99,9,99,9",,"10169,1,99999,9",,,,,"MET059METAR EDBC 090920Z 32004KT 280V360 2000 OVC005 17/16 Q1017;",
"10616499999","2010-08-09T09:50:00","4","51.854992","11.418889","180.0","COCHSTEDT, GM","FM-15","EDBC ","V020","330,1,N,0026,1","00150,1,C,N","002000,1,N,1","+0170,1","+0160,1","99999,9","08,5,+00150,1,99,9",,,"08,99,1,99,9,99,9,99999,9,99,9,99,9",,"10170,1,99999,9",,,,,"MET064METAR EDBC 090950Z 33005KT 290V360 2000 OVC005 SHRA 17/16 Q1017;",
"10616499999","2010-08-09T10:20:00","4","51.854992","11.418889","180.0","COCHSTEDT, GM","FM-15","EDBC ","V020","999,9,V,0015,1","00120,1,C,N","002000,1,N,1","+0160,1","+0160,1","99999,9","08,5,+00120,1,99,9",,,"08,99,1,99,9,99,9,99999,9,99,9,99,9",,"10170,1,99999,9",,,,,"MET056METAR EDBC 091020Z VRB03KT 2000 OVC004 SHRA 16/16 Q1017;",
"10616499999","2010-08-09T10:50:00","4","51.854992","11.418889","180.0","COCHSTEDT, GM","FM-15","EDBC ","V020","010,1,N,0021,1","00300,1,C,N","004000,1,N,1","+0170,1","+0160,1","99999,9","07,5,+00300,1,99,9",,,"07,99,1,99,9,99,9,99999,9,99,9,99,9",,"10169,1,99999,9","10,1","80,1",,,"MET068METAR EDBC 091050Z 01004KT 340V040 4000 BR -SHRA BKN010 17/16 Q1017;",
"10616499999","2010-08-09T11:20:00","4","51.854992","11.418889","180.0","COCHSTEDT, GM","FM-15","EDBC ","V020","030,1,N,0026,1","00780,1,C,N","005000,1,N,1","+0170,1","+0170,1","99999,9","04,5,+00360,1,99,9","07,5,+00780,1,99,9",,"07,99,1,99,9,99,9,99999,9,99,9,99,9",,"10169,1,99999,9","10,1",,,,"MET066METAR EDBC 091120Z 03005KT 5000 BR SCT012 BKN026 17/17 Q1017 RERA;",
"10616499999","2010-08-09T11:50:00","4","51.854992","11.418889","180.0","COCHSTEDT, GM","FM-15","EDBC ","V020","999,9,V,0015,1","00780,1,C,N","008000,1,N,1","+0180,1","+0170,1","99999,9","02,5,+00120,1,99,9","04,5,+00780,1,99,9","07,5,+01080,1,99,9","07,99,1,99,9,99,9,99999,9,99,9,99,9",,"10169,1,99999,9",,,,,"MET065METAR EDBC 091150Z VRB03KT 8000 FEW004 SCT026 BKN036 18/17 Q1017;",
"10616499999","2010-08-09T12:20:00","4","51.854992","11.418889","180.0","COCHSTEDT, GM","FM-15","EDBC ","V020","999,9,V,0010,1","01200,1,C,N","011265,1,N,1","+0180,1","+0170,1","99999,9","04,5,+00540,1,99,9","07,5,+01200,1,99,9",,"07,99,1,99,9,99,9,99999,9,99,9,99,9",,"10169,1,99999,9",,,,,"MET058METAR EDBC 091220Z VRB02KT 9999 SCT018 BKN040 18/17 Q1017;",
"10616499999","2010-08-09T12:50:00","4","51.854992","11.418889","180.0","COCHSTEDT, GM","FM-15","EDBC ","V020","160,1,N,0031,1","00840,1,C,N","004000,1,N,1","+0170,1","+0160,1","99999,9","07,5,+00840,1,99,9",,,"07,99,1,99,9,99,9,99999,9,99,9,99,9",,"10169,1,99999,9","10,1","80,1",,,"MET060METAR EDBC 091250Z 16006KT 4000 BR -SHRA BKN028 17/16 Q1017;",
"10616499999","2010-08-09T13:20:00","4","51.854992","11.418889","180.0","COCHSTEDT, GM","FM-15","EDBC ","V020","140,1,N,0021,1","00990,1,C,N","004000,1,N,1","+0170,1","+0170,1","99999,9","02,5,+00330,1,99,9","04,5,+00990,1,99,9","07,5,+01410,1,99,9","07,99,1,99,9,99,9,99999,9,99,9,99,9",,"10169,1,99999,9","10,1",,,,"MET068METAR EDBC 091320Z 14004KT 4000 BR FEW011 SCT033 BKN047 17/17 Q1017;",
"10616499999","2010-08-09T13:50:00","4","51.854992","11.418889","180.0","COCHSTEDT, GM","FM-15","EDBC ","V020","160,1,N,0015,1","22000,1,9,N","011265,1,N,1","+0170,1","+0170,1","99999,9","04,5,+00840,1,99,9","07,1,+01440,1,99,9",,"07,99,1,99,9,99,9,99999,9,99,9,99,9",,"10169,1,99999,9",,,,,"MET057METAR EDBC 091350Z 16003KT 9999 SCT028 BKN04817/17 Q1017;",
"10616499999","2010-08-10T04:20:00","4","51.854992","11.418889","180.0","COCHSTEDT, GM","FM-15","EDBC ","V020","190,1,N,0015,1","99999,9,9,Y","009900,1,N,1","+0130,1","+0130,1","99999,9",,,,,,"10159,1,99999,9",,,,,"MET045METAR EDBC 100420Z 19003KT CAVOK 13/13 Q1016;",
"10616499999","2010-08-10T04:50:00","4","51.854992","11.418889","180.0","COCHSTEDT, GM","FM-15","EDBC ","V020","190,1,N,0021,1","99999,9,9,Y","009900,1,N,1","+0140,1","+0130,1","99999,9",,,,,,"10159,1,99999,9",,,,,"MET045METAR EDBC 100450Z 19004KT CAVOK 14/13 Q1016;",
"10616499999","2010-08-10T05:20:00","4","51.854992","11.418889","180.0","COCHSTEDT, GM","FM-15","EDBC ","V020","170,1,N,0021,1","99999,9,9,Y","009900,1,N,1","+0150,1","+0140,1","99999,9",,,,,,"10159,1,99999,9",,,,,"MET045METAR EDBC 100520Z 17004KT CAVOK 15/14 Q1016;",
"10616499999","2010-08-10T05:50:00","4","51.854992","11.418889","180.0","COCHSTEDT, GM","FM-15","EDBC ","V020","180,1,N,0026,1","99999,9,9,Y","009900,1,N,1","+0170,1","+0150,1","99999,9",,,,,,"10159,1,99999,9",,,,,"MET045METAR EDBC 100550Z 18005KT CAVOK 17/15 Q1016;",
"10616499999","2010-08-10T06:20:00","4","51.854992","11.418889","180.0","COCHSTEDT, GM","FM-15","EDBC ","V020","190,1,N,0026,1","22000,1,9,N","009000,1,N,1","+0180,1","+0150,1","99999,9",,,,"00,99,1,99,9,99,9,99999,9,99,9,99,9",,"10159,1,99999,9",,,,,"MET048METAR EDBC 100620Z 19005KT 9000 SKC 18/15 Q1016;","Q01    003SCCGA1"
"10616499999","2010-08-10T06:50:00","4","51.854992","11.418889","180.0","COCHSTEDT, GM","FM-15","EDBC ","V020","170,1,N,0026,1","99999,9,9,Y","009900,1,N,1","+0180,1","+0150,1","99999,9",,,,,,"10159,1,99999,9",,,,,"MET045METAR EDBC 100650Z 17005KT CAVOK 18/15 Q1016;",
"10616499999","2010-08-10T07:20:00","4","51.854992","11.418889","180.0","COCHSTEDT, GM","FM-15","EDBC ","V020","160,1,N,0031,1","22000,1,9,N","009000,1,N,1","+0190,1","+0150,1","99999,9",,,,"00,99,1,99,9,99,9,99999,9,99,9,99,9",,"10159,1,99999,9",,,,,"MET048METAR EDBC 100720Z 16006KT 9000 SKC 19/15 Q1016;","Q01    003SCCGA1"
"10616499999","2010-08-10T07:50:00","4","51.854992","11.418889","180.0","COCHSTEDT, GM","FM-15","EDBC ","V020","180,1,N,0026,1","99999,9,9,Y","009900,1,N,1","+0200,1","+0150,1","99999,9",,,,,,"10159,1,99999,9",,,,,"MET053METAR EDBC 100750Z 18005KT 140V220 CAVOK 20/15 Q1016;",
"10616499999","2010-08-10T08:20:00","4","51.854992","11.418889","180.0","COCHSTEDT, GM","FM-15","EDBC ","V020","190,1,N,0021,1","99999,9,9,Y","009900,1,N,1","+0210,1","+0150,1","99999,9",,,,,,"10159,1,99999,9",,,,,"MET053METAR EDBC 100820Z 19004KT 160V230 CAVOK 21/15 Q1016;",
"10616499999","2010-08-10T08:50:00","4","51.854992","11.418889","180.0","COCHSTEDT, GM","FM-15","EDBC ","V020","180,1,N,0026,1","99999,9,9,Y","009900,1,N,1","+0220,1","+0150,1","99999,9",,,,,,"10159,1,99999,9",,,,,"MET053METAR EDBC 100850Z 18005KT 130V240 CAVOK 22/15 Q1016;",
"10616499999","2010-08-10T09:20:00","4","51.854992","11.418889","180.0","COCHSTEDT, GM","FM-15","EDBC ","V020","999,9,V,0015,1","22000,1,9,N","011265,1,N,1","+0240,1","+0120,1","99999,9","02,5,+01350,1,99,9",,,"02,99,1,99,9,99,9,99999,9,99,9,99,9",,"10159,1,99999,9",,,,,"MET051METAR EDBC 100920Z VRB03KT 9999 FEW045 24/12 Q1016;",
"10616499999","2010-08-10T09:50:00","4","51.854992","11.418889","180.0","COCHSTEDT, GM","FM-15","EDBC ","V020","999,9,V,0015,1","22000,1,9,N","011265,1,N,1","+0230,1","+0110,1","99999,9","02,5,+01350,1,99,9",,,"02,99,1,99,9,99,9,99999,9,99,9,99,9",,"10159,1,99999,9",,,,,"MET051METAR EDBC 100950Z VRB03KT 9999 FEW045 23/11 Q1016;",
"10616499999","2010-08-10T10:20:00","4","51.854992","11.418889","180.0","COCHSTEDT, GM","FM-15","EDBC ","V020","230,1,N,0031,1","22000,1,9,N","011265,1,N,1","+0230,1","+0100,1","99999,9","02,5,+01350,1,99,9",,,"02,99,1,99,9,99,9,99999,9,99,9,99,9",,"10159,1,99999,9",,,,,"MET059METAR EDBC 101020Z 23006KT 210V270 9999 FEW045 23/10 Q1016;",
"10616499999","2010-08-10T10:50:00","4","51.854992","11.418889","180.0","COCHSTEDT, GM","FM-15","EDBC ","V020","210,1,N,0041,1","22000,1,9,N","011265,1,N,1","+0250,1","+0090,1","99999,9","02,5,+01440,1,99,9",,,"02,99,1,99,9,99,9,99999,9,99,9,99,9",,"10159,1,99999,9",,,,,"MET059METAR EDBC 101050Z 21008KT 160V260 9999 FEW048 25/09 Q1016;",
"10616499999","2010-08-10T11:20:00","4","51.854992","11.418889","180.0","COCHSTEDT, GM","FM-15","EDBC ","V020","270,1,N,0026,1","99999,9,9,Y","009900,1,N,1","+0240,1","+0100,1","99999,9",,,,,,"10159,1,99999,9",,,,,"MET053METAR EDBC 101120Z 27005KT 240V300 CAVOK 24/10 Q1016;",
"10616499999","2010-08-10T11:50:00","4","51.854992","11.418889","180.0","COCHSTEDT, GM","FM-15","EDBC ","V020","230,1,N,0031,1","99999,9,9,Y","009900,1,N,1","+0250,1","+0100,1","99999,9",,,,,,"10149,1,99999,9",,,,,"MET053METAR EDBC 101150Z 23006KT 170V300 CAVOK 25/10 Q1015;",
"10616499999","2010-08-10T12:20:00","4","51.854992","11.418889","180.0","COCHSTEDT, GM","FM-15","EDBC ","V020","250,1,N,0031,1","99999,9,9,Y","009900,1,N,1","+0250,1","+0100,1","99999,9",,,,,,"10149,1,99999,9",,,,,"MET053METAR EDBC 101220Z 25006KT 210V290 CAVOK 25/10 Q1015;",
"10616499999","2010-08-10T12:50:00","4","51.854992","11.418889","180.0","COCHSTEDT, GM","FM-15","EDBC ","V020","260,1,N,0036,1","99999,9,9,Y","009900,1,N,1","+0250,1","+0100,1","99999,9",,,,,,"10149,1,99999,9",,,,,"MET053METAR EDBC 101250Z 26007KT 230V300 CAVOK 25/10 Q1015;",
"10616499999","2010-08-10T13:20:00","4","51.854992","11.418889","180.0","COCHSTEDT, GM","FM-15","EDBC ","V020","220,1,N,0026,1","99999,9,9,Y","009900,1,N,1","+0260,1","+0100,1","99999,9",,,,,,"10149,1,99999,9",,,,,"MET053METAR EDBC 101320Z 22005KT 170V280 CAVOK 26/10 Q1015;",
"10616499999","2010-08-10T13:50:00","4","51.854992","11.418889","180.0","COCHSTEDT, GM","FM-15","EDBC ","V020","160,1,N,0036,1","99999,9,9,Y","009900,1,N,1","+0260,1","+0110,1","99999,9",,,,,,"10149,1,99999,9",,,,,"MET053METAR EDBC 101350Z 16007KT 090V220 CAVOK 26/11 Q1015;",
"10616499999","2010-08-11T04:20:00","4","51.854992","11.418889","180.0","COCHSTEDT, GM","FM-15","EDBC ","V020","170,1,N,0021,1","99999,9,9,Y","009900,1,N,1","+0180,1","+0120,1","99999,9",,,,,,"10119,1,99999,9",,,,,"MET045METAR EDBC 110420Z 17004KT CAVOK 18/12 Q1012;",
"10616499999","2010-08-11T04:50:00","4","51.854992","11.418889","180.0","COCHSTEDT, GM","FM-15","EDBC ","V020","999,9,V,0015,1","99999,9,9,Y","009900,1,N,1","+0170,1","+0130,1","99999,9",,,,,,"10129,1,99999,9",,,,,"MET045METAR EDBC 110450Z VRB03KT CAVOK 17/13 Q1013;",
"10616499999","2010-08-11T05:20:00","4","51.854992","11.418889","180.0","COCHSTEDT, GM","FM-15","EDBC ","V020","280,1,N,0051,1","99999,9,9,Y","009900,1,N,1","+0190,1","+0120,1","99999,9",,,,,,"10129,1,99999,9",,,,,"MET045METAR EDBC 110520Z 28010KT CAVOK 19/12 Q1013;",
"10616499999","2010-08-11T05:50:00","4","51.854992","11.418889","180.0","COCHSTEDT, GM","FM-15","EDBC ","V020","290,1,N,0031,1","99999,9,C,N","006000,1,N,1","+0180,1","+0140,1","99999,9","02,5,+00600,1,99,9","04,5,+02100,1,99,9",,"04,99,1,99,9,99,9,99999,9,99,9,99,9",,"10130,1,99999,9",,,,,"MET062METAR EDBC 110550Z 29006KT 6000 FEW020 SCT070 -RA 18/14 Q1013;","P01 021003SCOCIG"
"10616499999","2010-08-11T06:20:00","4","51.854992","11.418889","180.0","COCHSTEDT, GM","FM-15","EDBC ","V020","999,9,V,0015,1","22000,1,9,N","005000,1,N,1","+0170,1","+0150,1","99999,9","02,5,+00900,1,99,9",,,"02,99,1,99,9,99,9,99999,9,99,9,99,9",,"10129,1,99999,9",,,,,"MET051METAR EDBC 110620Z VRB03KT 5000 FEW030 17/15 Q1013;",
"10616499999","2010-08-11T06:50:00","4","51.854992","11.418889","180.0","COCHSTEDT, GM","FM-15","EDBC ","V020","999,9,V,0010,1","22000,1,9,N","005000,1,N,1","+0170,1","+0150,1","99999,9","02,5,+00900,1,99,9",,,"02,99,1,99,9,99,9,99999,9,99,9,99,9",,"10129,1,99999,9",,,,,"MET051METAR EDBC 110650Z VRB02KT 5000 FEW030 17/15 Q1013;",
"10616499999","2010-08-11T07:20:00","4","51.854992","11.418889","180.0","COCHSTEDT, GM","FM-15","EDBC ","V020","999,9,V,0005,1","99999,9,C,N","005000,1,N,1","+0170,1","+0160,1","99999,9","02,5,+01050,1,99,9","04,5,+02250,5,99,9",,"04,99,1,99,9,99,9,99999,9,99,9,99,9",,"10129,1,99999,9",,,,,"MET058METAR EDBC 110720Z VRB01KT 5000 FEW035 SCT075 17/16 Q1013;","P01 022503SCOCIG"
"10616499999","2010-08-11T07:50:00","4","51.854992","11.418889","180.0","COCHSTEDT, GM","FM-15","EDBC ","V020","150,1,N,0031,1","01980,5,C,N","009000,1,N,1","+0170,1","+0160,1","99999,9","02,5,+01350,1,99,9","07,5,+01980,5,99,9",,"07,99,1,99,9,99,9,99999,9,99,9,99,9",,"10129,1,99999,9",,,,,"MET058METAR EDBC 110750Z 15006KT 9000 FEW045 BKN066 17/16 Q1013;",
"10616499999","2010-08-11T08:20:00","4","51.854992","11.418889","180.0","COCHSTEDT, GM","FM-15","EDBC ","V020","150,1,N,0036,1","02250,5,C,N","009000,1,N,1","+0170,1","+0160,1","99999,9","02,5,+01050,1,99,9","07,5,+02250,5,99,9",,"07,99,1,99,9,99,9,99999,9,99,9,99,9",,"10129,1,99999,9",,,,,"MET058METAR EDBC 110820Z 15007KT 9000 FEW035 BKN075 17/16 Q1013;",
"10616499999","2010-08-11T08:50:00","4","51.854992","11.418889","180.0","COCHSTEDT, GM","FM-15","EDBC ","V020","160,1,N,0041,1","02250,5,C,N","009000,1,N,1","+0180,1","+0160,1","99999,9","02,5,+01350,1,99,9","07,5,+02250,5,99,9",,"07,99,1,99,9,99,9,99999,9,99,9,99,9",,"10129,1,99999,9",,,,,"MET058METAR EDBC 110850Z 16008KT 9000 FEW045 BKN075 18/16 Q1013;",
"10616499999","2010-08-11T09:20:00","4","51.854992","11.418889","180.0","COCHSTEDT, GM","FM-15","EDBC ","V020","170,1,N,0036,1","22000,1,9,N","009000,1,N,1","+0180,1","+0170,1","99999,9",,,,"00,99,1,99,9,99,9,99999,9,99,9,99,9",,"10129,1,99999,9",,,,,"MET048METAR EDBC 110920Z 17007KT 9000 NSC 18/17 Q1013;","Q01    003SCCGA1"
"10616499999","2010-08-11T09:50:00","4","51.854992","11.418889","180.0","COCHSTEDT, GM","FM-15","EDBC ","V020","170,1,N,0036,1","01950,5,C,N","009000,1,N,1","+0190,1","+0170,1","99999,9","02,5,+01350,1,99,9","07,5,+01950,5,99,9",,"07,99,1,99,9,99,9,99999,9,99,9,99,9",,"10129,1,99999,9",,,,,"MET058METAR EDBC 110950Z 17007KT 9000 FEW045 BKN065 19/17 Q1013;",
"10616499999","2010-08-11T10:20:00","4","51.854992","11.418889","180.0","COCHSTEDT, GM","FM-15","EDBC ","V020","170,1,N,0031,1","22000,1,9,N","009000,1,N,1","+0200,1","+0170,1","99999,9","02,5,+01380,1,99,9",,,"02,99,1,99,9,99,9,99999,9,99,9,99,9",,"10129,1,99999,9",,,,,"MET051METAR EDBC 111020Z 17006KT 9000 FEW046 20/17 Q1013;",
"10616499999","2010-08-11T10:50:00","4","51.854992","11.418889","180.0","COCHSTEDT, GM","FM-15","EDBC ","V020","210,1,N,0057,1","22000,1,9,N","009000,1,N,1","+0220,1","+0160,1","99999,9","02,5,+01350,1,99,9",,,"02,99,1,99,9,99,9,99999,9,99,9,99,9",,"10129,1,99999,9",,,,,"MET051METAR EDBC 111050Z 21011KT 9000 FEW045 22/16 Q1013;",
"10616499999","2010-08-11T11:20:00","4","51.854992","11.418889","180.0","COCHSTEDT, GM","FM-15","EDBC ","V020","250,1,N,0057,1","22000,1,9,N","009000,1,N,1","+0220,1","+0160,1","99999,9","04,5,+01200,1,99,9",,,"04,99,1,99,9,99,9,99999,9,99,9,99,9",,"10129,1,99999,9",,,,,"MET051METAR EDBC 111120Z 25011KT 9000 SCT040 22/16 Q1013;",
"10616499999","2010-08-11T11:50:00","4","51.854992","11.418889","180.0","COCHSTEDT, GM","FM-15","EDBC ","V020","270,1,N,0041,1","22000,1,9,N","011265,1,N,1","+0230,1","+0160,1","99999,9","04,5,+01080,1,99,9",,,"04,99,1,99,9,99,9,99999,9,99,9,99,9",,"10129,1,99999,9",,,,,"MET051METAR EDBC 111150Z 27008KT 9999 SCT036 23/16 Q1013;",
"10616499999","2010-08-11T12:20:00","4","51.854992","11.418889","180.0","COCHSTEDT, GM","FM-15","EDBC ","V020","230,1,N,0031,1","01290,1,C,N","011265,1,N,1","+0230,1","+0150,1","99999,9","07,5,+01290,1,99,9",,,"07,99,1,99,9,99,9,99999,9,99,9,99,9",,"10129,1,99999,9",,,,,"MET051METAR EDBC 111220Z 23006KT 9999 BKN043 23/15 Q1013;",
"10616499999","2010-08-11T12:50:00","4","51.854992","11.418889","180.0","COCHSTEDT, GM","FM-15","EDBC ","V020","260,1,N,0031,1","01860,5,C,N","011265,1,N,1","+0220,1","+0150,1","99999,9","04,5,+01050,1,99,9","07,5,+01860,5,99,9",,"07,99,1,99,9,99,9,99999,9,99,9,99,9",,"10129,1,99999,9",,,,,"MET066METAR EDBC 111250Z 26006KT 220V290 9999 SCT035 BKN062 22/15 Q1013;",
"10616499999","2010-08-11T13:20:00","4","51.854992","11.418889","180.0","COCHSTEDT, GM","FM-15","EDBC ","V020","200,1,N,0041,1","01050,1,C,N","011265,1,N,1","+0220,1","+0160,1","99999,9","04,5,+00870,1,99,9","07,5,+01050,1,99,9",,"07,99,1,99,9,99,9,99999,9,99,9,99,9",,"10129,1,99999,9","80,1",,,,"MET072METAR EDBC 111320Z 20008KT 170V230 9999 -SHRA SCT029 BKN035 22/16 Q1013;",
"10616499999","2010-08-11T13:50:00","4","51.854992","11.418889","180.0","COCHSTEDT, GM","FM-15","EDBC ","V020","220,1,N,0021,1","01200,1,C,N","011265,1,N,1","+0220,1","+0170,1","99999,9","07,5,+01200,1,99,9",,,"07,99,1,99,9,99,9,99999,9,99,9,99,9",,"10129,1,99999,9",,,,,"MET056METAR EDBC 111350Z 22004KT 9999 BKN040 22/17 Q1013 RERA;",
"10616499999","2010-08-12T04:20:00","4","51.854992","11.418889","180.0","COCHSTEDT, GM","FM-15","EDBC ","V020","160,1,N,0031,1","22000,1,9,N","004000,1,N,1","+0160,1","+0160,1","99999,9",,,,"00,99,1,99,9,99,9,99999,9,99,9,99,9",,"10119,1,99999,9",,,,,"MET048METAR EDBC 120420Z 16006KT 4000 NSC 16/16 Q1012;","Q01    003SCCGA1"
"10616499999","2010-08-12T04:50:00","4","51.854992","11.418889","180.0","COCHSTEDT, GM","FM-15","EDBC ","V020","150,1,N,0026,1","22000,1,9,N","004000,1,N,1","+0160,1","+0160,1","99999,9","02,5,+01200,1,99,9",,,"02,99,1,99,9,99,9,99999,9,99,9,99,9",,"10119,1,99999,9",,,,,"MET051METAR EDBC 120450Z 15005KT 4000 FEW040 16/16 Q1012;",
"10616499999","2010-08-12T05:20:00","4","51.854992","11.418889","180.0","COCHSTEDT, GM","FM-15","EDBC ","V020","170,1,N,0021,1","22000,1,9,N","004000,1,N,1","+0160,1","+0160,1","99999,9","02,5,+01200,1,99,9",,,"02,99,1,99,9,99,9,99999,9,99,9,99,9",,"10119,1,99999,9",,,,,"MET051METAR EDBC 120520Z 17004KT 4000 FEW040 16/16 Q1012;",
"10616499999","2010-08-12T05:50:00","4","51.854992","11.418889","180.0","COCHSTEDT, GM","FM-15","EDBC ","V020","999,9,V,0015,1","22000,1,9,N","004000,1,N,1","+0160,1","+0160,1","99999,9","02,5,+01200,1,99,9",,,"02,99,1,99,9,99,9,99999,9,99,9,99,9",,"10119,1,99999,9",,,,,"MET051METAR EDBC 120550Z VRB03KT 4000 FEW040 16/16 Q1012;",
"10616499999","2010-08-12T06:20:00","4","51.854992","11.418889","180.0","COCHSTEDT, GM","FM-15","EDBC ","V020","210,1,N,0015,1","22000,1,9,N","004000,1,N,1","+0160,1","+0160,1","99999,9",,,,"00,99,1,99,9,99,9,99999,9,99,9,99,9",,"10119,1,99999,9",,,,,"MET048METAR EDBC 120620Z 21003KT 4000 NSC 16/16 Q1012;","Q01    003SCCGA1"
"10616499999","2010-08-12T06:50:00","4","51.854992","11.418889","180.0","COCHSTEDT, GM","FM-15","EDBC ","V020","999,9,V,0015,1","22000,1,9,N","004000,1,N,1","+0170,1","+0160,1","99999,9",,,,"00,99,1,99,9,99,9,99999,9,99,9,99,9",,"10119,1,99999,9",,,,,"MET048METAR EDBC 120650Z VRB03KT 4000 NSC 17/16 Q1012;","Q01    003SCCGA1"
"10616499999","2010-08-12T07:20:00","4","51.854992","11.418889","180.0","COCHSTEDT, GM","FM-15","EDBC ","V020","190,1,N,0021,1","22000,1,9,N","005000,1,N,1","+0180,1","+0170,1","99999,9",,,,"00,99,1,99,9,99,9,99999,9,99,9,99,9",,"10119,1,99999,9",,,,,"MET048METAR EDBC 120720Z 19004KT 5000 NSC 18/17 Q1012;","Q01    003SCCGA1"
"10616499999","2010-08-12T07:50:00","4","51.854992","11.418889","180.0","COCHSTEDT, GM","FM-15","EDBC ","V020","160,1,N,0015,1","22000,1,9,N","005000,1,N,1","+0180,1","+0170,1","99999,9","04,5,+01350,1,99,9",,,"04,99,1,99,9,99,9,99999,9,99,9,99,9",,"10119,1,99999,9",,,,,"MET051METAR EDBC 120750Z 16003KT 5000 SCT045 18/17 Q1012;",
"10616499999","2010-08-12T08:20:00","4","51.854992","11.418889","180.0","COCHSTEDT, GM","FM-15","EDBC ","V020","160,1,N,0026,1","22000,1,9,N","005000,1,N,1","+0180,1","+0170,1","99999,9","04,5,+01440,1,99,9",,,"04,99,1,99,9,99,9,99999,9,99,9,99,9",,"10119,1,99999,9",,,,,"MET051METAR EDBC 120820Z 16005KT 5000 SCT048 18/17 Q1012;",
"10616499999","2010-08-12T08:50:00","4","51.854992","11.418889","180.0","COCHSTEDT, GM","FM-15","EDBC ","V020","160,1,N,0031,1","22000,1,9,N","005000,1,N,1","+0180,1","+0180,1","99999,9","04,5,+01440,1,99,9",,,"04,99,1,99,9,99,9,99999,9,99,9,99,9",,"10119,1,99999,9",,,,,"MET051METAR EDBC 120850Z 16006KT 5000 SCT048 18/18 Q1012;",
"10616499999","2010-08-12T09:20:00","4","51.854992","11.418889","180.0","COCHSTEDT, GM","FM-15","EDBC ","V020","170,1,N,0041,1","01650,5,C,N","005000,1,N,1","+0190,1","+0180,1","99999,9","02,5,+00240,1,99,9","07,5,+01650,5,99,9",,"07,99,1,99,9,99,9,99999,9,99,9,99,9",,"10119,1,99999,9",,,,,"MET058METAR EDBC 120920Z 17008KT 5000 FEW008 BKN055 19/18 Q1012;",
"10616499999","2010-08-12T09:50:00","4","51.854992","11.418889","180.0","COCHSTEDT, GM","FM-15","EDBC ","V020","170,1,N,0036,1","01200,1,C,N","004000,1,N,1","+0180,1","+0170,1","99999,9","02,5,+00600,1,99,9","07,5,+01200,1,99,9",,"07,99,1,99,9,99,9,99999,9,99,9,99,9",,"10120,1,99999,9",,,,,"MET062METAR EDBC 120950Z 17007KT 4000 FEW020 BKN040 -RA 18/17 Q1012;",
"10616499999","2010-08-12T10:20:00","4","51.854992","11.418889","180.0","COCHSTEDT, GM","FM-15","EDBC ","V020","170,1,N,0041,1","01650,5,C,N","005000,1,N,1","+0180,1","+0180,1","99999,9","02,5,+00600,1,99,9","07,5,+01650,5,99,9",,"07,99,1,99,9,99,9,99999,9,99,9,99,9",,"10119,1,99999,9","53,1","63,1",,,"MET063METAR EDBC 121020Z 17008KT 5000 DZRA FEW020 BKN055 18/18 Q1012;",
"10616499999","2010-08-12T10:50:00","4","51.854992","11.418889","180.0","COCHSTEDT, GM","FM-15","EDBC ","V020","180,1,N,0041,1","01500,1,C,N","005000,1,N,1","+0180,1","+0170,1","99999,9","02,5,+00750,1,99,9","07,5,+01500,1,99,9",,"07,99,1,99,9,99,9,99999,9,99,9,99,9",,"10119,1,99999,9","53,1","63,1",,,"MET063METAR EDBC 121050Z 18008KT 5000 DZRA FEW025 BKN050 18/17 Q1012;",
"10616499999","2010-08-12T11:20:00","4","51.854992","11.418889","180.0","COCHSTEDT, GM","FM-15","EDBC ","V020","190,1,N,0036,1","01350,1,C,N","005000,1,N,1","+0180,1","+0170,1","99999,9","02,5,+00240,1,99,9","07,5,+01350,1,99,9",,"07,99,1,99,9,99,9,99999,9,99,9,99,9",,"10119,1,99999,9","53,1","63,1",,,"MET063METAR EDBC 121120Z 19007KT 5000 DZRA FEW008 BKN045 18/17 Q1012;",
"10616499999","2010-08-12T11:50:00","4","51.854992","11.418889","180.0","COCHSTEDT, GM","FM-15","EDBC ","V020","180,1,N,0041,1","99999,9,C,N","005000,1,N,1","+0180,1","+0170,1","99999,9","02,5,+00240,1,99,9","04,5,+01200,1,99,9",,"04,99,1,99,9,99,9,99999,9,99,9,99,9",,"10119,1,99999,9","53,1","63,1",,,"MET063METAR EDBC 121150Z 18008KT 5000 DZRA FEW008 SCT040 18/17 Q1012;","P01 012003SCOCIG"
"10616499999","2010-08-12T12:20:00","4","51.854992","11.418889","180.0","COCHSTEDT, GM","FM-15","EDBC ","V020","160,1,N,0036,1","01500,1,C,N","005000,1,N,1","+0180,1","+0170,1","99999,9","02,5,+00300,1,99,9","07,5,+01500,1,99,9",,"07,99,1,99,9,99,9,99999,9,99,9,99,9",,"10119,1,99999,9","53,1","63,1",,,"MET063METAR EDBC 121220Z 16007KT 5000 DZRA FEW010 BKN050 18/17 Q1012;",
"10616499999","2010-08-12T12:50:00","4","51.854992","11.418889","180.0","COCHSTEDT, GM","FM-15","EDBC ","V020","170,1,N,0036,1","01500,1,C,N","005000,1,N,1","+0180,1","+0170,1","99999,9","02,5,+00240,1,99,9","07,5,+01500,1,99,9",,"07,99,1,99,9,99,9,99999,9,99,9,99,9",,"10119,1,99999,9","53,1","63,1",,,"MET063METAR EDBC 121250Z 17007KT 5000 DZRA FEW008 BKN050 18/17 Q1012;",
"10616499999","2010-08-12T13:20:00","4","51.854992","11.418889","180.0","COCHSTEDT, GM","FM-15","EDBC ","V020","170,1,N,0026,1","01350,1,C,N","005000,1,N,1","+0180,1","+0170,1","99999,9","04,5,+00180,1,99,9","07,5,+01350,1,99,9",,"07,99,1,99,9,99,9,99999,9,99,9,99,9",,"10119,1,99999,9",,,,,"MET058METAR EDBC 121320Z 17005KT 5000 SCT006 BKN045 18/17 Q1012;",
"10616499999","2010-08-12T13:50:00","4","51.854992","11.418889","180.0","COCHSTEDT, GM","FM-15","EDBC ","V020","170,1,N,0021,1","01350,1,C,N","005000,1,N,1","+0180,1","+0170,1","99999,9","04,5,+00210,1,99,9","07,5,+01350,1,99,9",,"07,99,1,99,9,99,9,99999,9,99,9,99,9",,"10119,1,99999,9",,,,,"MET058METAR EDBC 121350Z 17004KT 5000 SCT007 BKN045 18/17 Q1012;",
"10616499999","2010-08-13T04:20:00","4","51.854992","11.418889","180.0","COCHSTEDT, GM","FM-15","EDBC ","V020","999,9,V,0010,1","22000,1,9,N","005000,1,N,1","+0150,1","+0130,1","99999,9",,,,"00,99,1,99,9,99,9,99999,9,99,9,99,9",,"10149,1,99999,9",,,,,"MET048METAR EDBC 130420Z VRB02KT 5000 NSC 15/13 Q1015;","Q01    003SCCGA1"
"10616499999","2010-08-13T04:50:00","4","51.854992","11.418889","180.0","COCHSTEDT, GM","FM-15","EDBC ","V020","999,9,V,0010,1","22000,1,9,N","005000,1,N,1","+0140,1","+0130,1","99999,9",,,,"00,99,1,99,9,99,9,99999,9,99,9,99,9",,"10159,1,99999,9",,,,,"MET048METAR EDBC 130450Z VRB02KT 5000 SKC 14/13 Q1016;","Q01    003SCCGA1"
"10616499999","2010-08-13T05:20:00","4","51.854992","11.418889","180.0","COCHSTEDT, GM","FM-15","EDBC ","V020","250,1,N,0015,1","22000,1,9,N","007000,1,N,1","+0150,1","+0130,1","99999,9",,,,"00,99,1,99,9,99,9,99999,9,99,9,99,9",,"10159,1,99999,9",,,,,"MET048METAR EDBC 130520Z 25003KT 7000 NSC 15/13 Q1016;","Q01    003SCCGA1"
"10616499999","2010-08-13T05:50:00","4","51.854992","11.418889","180.0","COCHSTEDT, GM","FM-15","EDBC ","V020","280,1,N,0021,1","22000,1,9,N","007000,1,N,1","+0160,1","+0130,1","99999,9",,,,"00,99,1,99,9,99,9,99999,9,99,9,99,9",,"10159,1,99999,9",,,,,"MET056METAR EDBC 130550Z 28004KT 260V320 7000 NSC 16/13 Q1016;","Q01    003SCCGA1"
"10616499999","2010-08-13T06:20:00","4","51.854992","11.418889","180.0","COCHSTEDT, GM","FM-15","EDBC ","V020","310,1,N,0021,1","22000,1,9,N","007000,1,N,1","+0160,1","+0140,1","99999,9",,,,"00,99,1,99,9,99,9,99999,9,99,9,99,9",,"10159,1,99999,9",,,,,"MET056METAR EDBC 130620Z 31004KT 250V010 7000 NSC 16/14 Q1016;","Q01    003SCCGA1"
"10616499999","2010-08-13T06:50:00","4","51.854992","11.418889","180.0","COCHSTEDT, GM","FM-15","EDBC ","V020","999,9,V,0015,1","22000,1,9,N","007000,1,N,1","+0180,1","+0150,1","99999,9",,,,"00,99,1,99,9,99,9,99999,9,99,9,99,9",,"10159,1,99999,9",,,,,"MET048METAR EDBC 130650Z VRB03KT 7000 NSC 18/15 Q1016;","Q01    003SCCGA1"
"10616499999","2010-08-13T07:20:00","4","51.854992","11.418889","180.0","COCHSTEDT, GM","FM-15","EDBC ","V020","270,1,N,0021,1","22000,1,9,N","006000,1,N,1","+0170,1","+0150,1","99999,9",,,,"00,99,1,99,9,99,9,99999,9,99,9,99,9",,"10169,1,99999,9",,,,,"MET056METAR EDBC 130720Z 27004KT 240V300 6000 NSC 17/15 Q1017;","Q01    003SCCGA1"
"10616499999","2010-08-13T07:50:00","4","51.854992","11.418889","180.0","COCHSTEDT, GM","FM-15","EDBC ","V020","010,1,N,0021,1","22000,1,9,N","006000,1,N,1","+0180,1","+0150,1","99999,9",,,,"00,99,1,99,9,99,9,99999,9,99,9,99,9",,"10169,1,99999,9",,,,,"MET056METAR EDBC 130750Z 01004KT 340V050 6000 NSC 18/15 Q1017;","Q01    003SCCGA1"
"10616499999","2010-08-13T08:20:00","4","51.854992","11.418889","180.0","COCHSTEDT, GM","FM-15","EDBC ","V020","010,1,N,0021,1","99999,9,C,N","007000,1,N,1","+0180,1","+0150,1","99999,9","02,5,+00360,1,99,9","04,5,+00660,1,99,9",,"04,99,1,99,9,99,9,99999,9,99,9,99,9",,"10169,1,99999,9",,,,,"MET066METAR EDBC 130820Z 01004KT 330V050 7000 FEW012 SCT022 18/15 Q1017;","P01 006603SCOCIG"
"10616499999","2010-08-13T08:50:00","4","51.854992","11.418889","180.0","COCHSTEDT, GM","FM-15","EDBC ","V020","340,1,N,0026,1","22000,1,9,N","008000,1,N,1","+0190,1","+0150,1","99999,9","02,5,+00450,1,99,9",,,"02,99,1,99,9,99,9,99999,9,99,9,99,9",,"10169,1,99999,9",,,,,"MET059METAR EDBC 130850Z 34005KT 310V040 8000 FEW015 19/15 Q1017;",
"10616499999","2010-08-13T09:20:00","4","51.854992","11.418889","180.0","COCHSTEDT, GM","FM-15","EDBC ","V020","350,1,N,0026,1","22000,1,9,N","008000,1,N,1","+0190,1","+0150,1","99999,9","02,5,+00600,1,99,9",,,"02,99,1,99,9,99,9,99999,9,99,9,99,9",,"10169,1,99999,9",,,,,"MET059METAR EDBC 130920Z 35005KT 310V030 8000 FEW020 19/15 Q1017;",
"10616499999","2010-08-13T09:50:00","4","51.854992","11.418889","180.0","COCHSTEDT, GM","FM-15","EDBC ","V020","010,1,N,0021,1","22000,1,9,N","008000,1,N,1","+0190,1","+0140,1","99999,9","02,5,+00600,1,99,9",,,"02,99,1,99,9,99,9,99999,9,99,9,99,9",,"10169,1,99999,9",,,,,"MET059METAR EDBC 130950Z 01004KT 300V070 8000 FEW020 19/14 Q1017;",
"10616499999","2010-08-13T10:20:00","4","51.854992","11.418889","180.0","COCHSTEDT, GM","FM-15","EDBC ","V020","999,9,V,0010,1","22000,1,9,N","008000,1,N,1","+0200,1","+0140,1","99999,9","02,5,+00750,1,99,9",,,"02,99,1,99,9,99,9,99999,9,99,9,99,9",,"10169,1,99999,9",,,,,"MET051METAR EDBC 131020Z VRB02KT 8000 FEW025 20/14 Q1017;",
"10616499999","2010-08-13T10:50:00","4","51.854992","11.418889","180.0","COCHSTEDT, GM","FM-15","EDBC ","V020","999,9,V,0010,1","22000,1,9,N","008000,1,N,1","+0200,1","+0140,1","99999,9","02,5,+00750,1,99,9",,,"02,99,1,99,9,99,9,99999,9,99,9,99,9",,"10169,1,99999,9",,,,,"MET051METAR EDBC 131050Z VRB02KT 8000 FEW025 20/14 Q1017;",
"10616499999","2010-08-13T11:20:00","4","51.854992","11.418889","180.0","COCHSTEDT, GM","FM-15","EDBC ","V020","999,9,V,0015,1","22000,1,9,N","008000,1,N,1","+0210,1","+0140,1","99999,9","02,5,+00840,1,99,9",,,"02,99,1,99,9,99,9,99999,9,99,9,99,9",,"10180,1,99999,9",,,,,"MET051METAR EDBC 131120Z VRB03KT 8000 FEW028 21/14 Q1018;",
"10616499999","2010-08-13T11:50:00","4","51.854992","11.418889","180.0","COCHSTEDT, GM","FM-15","EDBC ","V020","999,9,V,0015,1","22000,1,9,N","008000,1,N,1","+0210,1","+0140,1","99999,9","02,5,+00840,1,99,9",,,"02,99,1,99,9,99,9,99999,9,99,9,99,9",,"10180,1,99999,9",,,,,"MET051METAR EDBC 131150Z VRB03KT 8000 FEW028 21/14 Q1018;",
"10616499999","2010-08-13T12:20:00","4","51.854992","11.418889","180.0","COCHSTEDT, GM","FM-15","EDBC ","V020","999,9,V,0015,1","22000,1,9,N","008000,1,N,1","+0210,1","+0150,1","99999,9","02,5,+00840,1,99,9",,,"02,99,1,99,9,99,9,99999,9,99,9,99,9",,"10180,1,99999,9",,,,,"MET051METAR EDBC 131220Z VRB03KT 8000 FEW028 21/15 Q1018;",
"10616499999","2010-08-13T12:50:00","4","51.854992","11.418889","180.0","COCHSTEDT, GM","FM-15","EDBC ","V020","090,1,N,0026,1","22000,1,9,N","008000,1,N,1","+0210,1","+0130,1","99999,9","02,5,+00900,1,99,9",,,"02,99,1,99,9,99,9,99999,9,99,9,99,9",,"10169,1,99999,9",,,,,"MET059METAR EDBC 131250Z 09005KT 060V120 8000 FEW030 21/13 Q1017;",
"10616499999","2010-08-13T13:20:00","4","51.854992","11.418889","180.0","COCHSTEDT, GM","FM-15","EDBC ","V020","110,1,N,0026,1","22000,1,9,N","008000,1,N,1","+0210,1","+0120,1","99999,9","02,5,+01050,1,99,9",,,"02,99,1,99,9,99,9,99999,9,99,9,99,9",,"10169,1,99999,9",,,,,"MET059METAR EDBC 131320Z 11005KT 080V150 8000 FEW035 21/12 Q1017;",
"10616499999","2010-08-13T13:50:00","4","51.854992","11.418889","180.0","COCHSTEDT, GM","FM-15","EDBC ","V020","100,1,N,0036,1","22000,1,9,N","008000,1,N,1","+0210,1","+0120,1","99999,9","02,5,+00900,1,99,9",,,"02,99,1,99,9,99,9,99999,9,99,9,99,9",,"10169,1,99999,9",,,,,"MET051METAR EDBC 131350Z 10007KT 8000 FEW030 21/12 Q1017;",
"10616499999","2010-08-16T04:20:00","4","51.854992","11.418889","180.0","COCHSTEDT, GM","FM-15","EDBC ","V020","230,1,N,0036,1","02400,1,C,N","005000,1,N,1","+0140,1","+0130,1","99999,9","02,5,+01200,1,99,9","07,5,+02400,1,99,9",,"07,99,1,99,9,99,9,99999,9,99,9,99,9",,"10091,1,99999,9","53,1","63,1",,,"MET063METAR EDBC 160420Z 23007KT 5000 DZRA FEW040 BKN080 14/13 Q1009;",
"10616499999","2010-08-16T04:50:00","4","51.854992","11.418889","180.0","COCHSTEDT, GM","FM-15","EDBC ","V020","180,1,N,0031,1","02400,1,C,N","005000,1,N,1","+0140,1","+0130,1","99999,9","02,5,+01050,1,99,9","07,5,+02400,1,99,9",,"07,99,1,99,9,99,9,99999,9,99,9,99,9",,"10091,1,99999,9","53,1","63,1",,,"MET063METAR EDBC 160450Z 18006KT 5000 DZRA FEW035 BKN080 14/13 Q1009;",
"10616499999","2010-08-16T05:20:00","4","51.854992","11.418889","180.0","COCHSTEDT, GM","FM-15","EDBC ","V020","210,1,N,0036,1","22000,1,9,N","007000,1,N,1","+0140,1","+0130,1","99999,9",,,,"00,99,1,99,9,99,9,99999,9,99,9,99,9",,"10091,1,99999,9",,,,,"MET048METAR EDBC 160520Z 21007KT 7000 NSC 14/13 Q1009;","Q01    003SCCGA1"
"10616499999","2010-08-16T05:50:00","4","51.854992","11.418889","180.0","COCHSTEDT, GM","FM-15","EDBC ","V020","180,1,N,0031,1","02400,1,C,N","008000,1,N,1","+0140,1","+0130,1","99999,9","02,5,+01200,1,99,9","07,5,+02400,1,99,9",,"07,99,1,99,9,99,9,99999,9,99,9,99,9",,"10102,1,99999,9",,,,,"MET058METAR EDBC 160550Z 18006KT 8000 FEW040 BKN080 14/13 Q1010;",
"10616499999","2010-08-16T06:20:00","4","51.854992","11.418889","180.0","COCHSTEDT, GM","FM-15","EDBC ","V020","200,1,N,0036,1","02550,5,C,N","011265,1,N,1","+0140,1","+0130,1","99999,9","02,5,+00900,1,99,9","07,5,+02550,5,99,9",,"07,99,1,99,9,99,9,99999,9,99,9,99,9",,"10102,1,99999,9",,,,,"MET058METAR EDBC 160620Z 20007KT 9999 FEW030 BKN085 14/13 Q1010;",
"10616499999","2010-08-16T06:50:00","4","51.854992","11.418889","180.0","COCHSTEDT, GM","FM-15","EDBC ","V020","190,1,N,0021,1","99999,9,9,Y","009900,1,N,1","+0140,1","+0130,1","99999,9",,,,,,"10102,1,99999,9",,,,,"MET045METAR EDBC 160650Z 19004KT CAVOK 14/13 Q1010;",
"10616499999","2010-08-16T07:20:00","4","51.854992","11.418889","180.0","COCHSTEDT, GM","FM-15","EDBC ","V020","150,1,N,0031,1","99999,9,9,Y","009900,1,N,1","+0150,1","+0130,1","99999,9",,,,,,"10102,1,99999,9",,,,,"MET045METAR EDBC 160720Z 15006KT CAVOK 15/13 Q1010;",
"10616499999","2010-08-16T07:50:00","4","51.854992","11.418889","180.0","COCHSTEDT, GM","FM-15","EDBC ","V020","150,1,N,0036,1","99999,9,9,Y","009900,1,N,1","+0150,1","+0130,1","99999,9",,,,,,"10102,1,99999,9",,,,,"MET045METAR EDBC 160750Z 15007KT CAVOK 15/13 Q1010;",
"10616499999","2010-08-16T08:20:00","4","51.854992","11.418889","180.0","COCHSTEDT, GM","FM-15","EDBC ","V020","170,1,N,0046,1","99999,9,9,Y","009900,1,N,1","+0160,1","+0130,1","99999,9",,,,,,"10102,1,99999,9",,,,,"MET045METAR EDBC 160820Z 17009KT CAVOK 16/13 Q1010;",
"10616499999","2010-08-16T08:50:00","4","51.854992","11.418889","180.0","COCHSTEDT, GM","FM-15","EDBC ","V020","160,1,N,0046,1","03000,1,C,N","011265,1,N,1","+0160,1","+0140,1","99999,9","02,5,+01200,1,99,9","07,5,+03000,1,99,9",,"07,99,1,99,9,99,9,99999,9,99,9,99,9",,"10102,1,99999,9",,,,,"MET058METAR EDBC 160850Z 16009KT 9999 FEW040 BKN100 16/14 Q1010;",
"10616499999","2010-08-16T09:20:00","4","51.854992","11.418889","180.0","COCHSTEDT, GM","FM-15","EDBC ","V020","170,1,N,0046,1","03000,1,C,N","011265,1,N,1","+0170,1","+0140,1","99999,9","02,5,+00360,1,99,9","07,5,+03000,1,99,9",,"07,99,1,99,9,99,9,99999,9,99,9,99,9",,"10102,1,99999,9",,,,,"MET058METAR EDBC 160920Z 17009KT 9999 FEW012 BKN100 17/14 Q1010;",
"10616499999","2010-08-16T09:50:00","4","51.854992","11.418889","180.0","COCHSTEDT, GM","FM-15","EDBC ","V020","190,1,N,0051,1","04500,1,C,N","011265,1,N,1","+0180,1","+0140,1","99999,9","02,5,+00480,1,99,9","07,5,+04500,1,99,9",,"07,99,1,99,9,99,9,99999,9,99,9,99,9",,"10102,1,99999,9",,,,,"MET066METAR EDBC 160950Z 19010KT 140V230 9999 FEW016 BKN150 18/14 Q1010;",
"10616499999","2010-08-16T10:20:00","4","51.854992","11.418889","180.0","COCHSTEDT, GM","FM-15","EDBC ","V020","170,1,N,0051,1","03000,1,C,N","011265,1,N,1","+0180,1","+0120,1","99999,9","02,5,+00750,1,99,9","07,5,+03000,1,99,9",,"07,99,1,99,9,99,9,99999,9,99,9,99,9",,"10102,1,99999,9",,,,,"MET058METAR EDBC 161020Z 17010KT 9999 FEW025 BKN100 18/12 Q1010;",
"10616499999","2010-08-16T10:50:00","4","51.854992","11.418889","180.0","COCHSTEDT, GM","FM-15","EDBC ","V020","180,1,N,0057,1","03000,1,C,N","011265,1,N,1","+0190,1","+0130,1","99999,9","02,5,+00600,1,99,9","07,5,+03000,1,99,9",,"07,99,1,99,9,99,9,99999,9,99,9,99,9",,"10102,1,99999,9",,,,,"MET058METAR EDBC 161050Z 18011KT 9999 FEW020 BKN100 19/13 Q1010;",
"10616499999","2010-08-16T11:20:00","4","51.854992","11.418889","180.0","COCHSTEDT, GM","FM-15","EDBC ","V020","160,1,N,0041,1","22000,1,9,N","011265,1,N,1","+0170,1","+0140,1","99999,9","02,5,+00360,1,99,9",,,"02,99,1,99,9,99,9,99999,9,99,9,99,9",,"10102,1,99999,9",,,,,"MET051METAR EDBC 161120Z 16008KT 9999 FEW012 17/14 Q1010;",
"10616499999","2010-08-16T11:50:00","4","51.854992","11.418889","180.0","COCHSTEDT, GM","FM-15","EDBC ","V020","130,1,N,0036,1","01800,1,C,N","011265,1,N,1","+0170,1","+0140,1","99999,9","02,5,+00450,1,99,9","07,5,+01800,1,99,9",,"07,99,1,99,9,99,9,99999,9,99,9,99,9",,"10102,1,99999,9",,,,,"MET058METAR EDBC 161150Z 13007KT 9999 FEW015 BKN060 17/14 Q1010;",
"10616499999","2010-08-16T12:20:00","4","51.854992","11.418889","180.0","COCHSTEDT, GM","FM-15","EDBC ","V020","130,1,N,0041,1","01800,1,C,N","011265,1,N,1","+0180,1","+0140,1","99999,9","02,5,+00600,1,99,9","07,5,+01800,1,99,9",,"07,99,1,99,9,99,9,99999,9,99,9,99,9",,"10102,1,99999,9",,,,,"MET066METAR EDBC 161220Z 13008KT 110V170 9999 FEW020 BKN060 18/14 Q1010;",
"10616499999","2010-08-16T12:50:00","4","51.854992","11.418889","180.0","COCHSTEDT, GM","FM-15","EDBC ","V020","170,1,N,0041,1","02100,1,C,N","011265,1,N,1","+0200,1","+0130,1","99999,9","02,5,+00840,1,99,9","07,5,+02100,1,99,9",,"07,99,1,99,9,99,9,99999,9,99,9,99,9",,"10091,1,99999,9",,,,,"MET066METAR EDBC 161250Z 17008KT 110V200 9999 FEW028 BKN070 20/13 Q1009;",
"10616499999","2010-08-16T13:20:00","4","51.854992","11.418889","180.0","COCHSTEDT, GM","FM-15","EDBC ","V020","170,1,N,0072,1","02400,1,C,N","011265,1,N,1","+0200,1","+0110,1","99999,9","02,5,+01050,1,99,9","07,5,+02400,1,99,9",,"07,99,1,99,9,99,9,99999,9,99,9,99,9",,"10091,1,99999,9",,,,,"MET058METAR EDBC 161320Z 17014KT 9999 FEW035 BKN080 20/11 Q1009;",
"10616499999","2010-08-16T13:50:00","4","51.854992","11.418889","180.0","COCHSTEDT, GM","FM-15","EDBC ","V020","200,1,N,0051,1","02400,1,C,N","011265,1,N,1","+0200,1","+0110,1","99999,9","02,5,+01080,1,99,9","07,5,+02400,1,99,9",,"07,99,1,99,9,99,9,99999,9,99,9,99,9",,"10102,1,99999,9",,,,,"MET066METAR EDBC 161350Z 20010KT 170V230 9999 FEW036 BKN080 20/11 Q1010;",
"10616499999","2010-08-17T04:20:00","4","51.854992","11.418889","180.0","COCHSTEDT, GM","FM-15","EDBC ","V020","999,9,9,9999,9","01560,5,9,N","011265,1,N,1","+0130,1","+0130,1","99999,9","04,5,+01440,5,99,9","07,5,+01560,5,99,9",,,,"10050,1,99999,9",,,,,"MET063METAR EDBC 170420Z 19008K 9999 -DZRA SCT048 BKN052 13/13 Q1005;",
"10616499999","2010-08-17T04:50:00","4","51.854992","11.418889","180.0","COCHSTEDT, GM","FM-15","EDBC ","V020","190,1,N,0036,1","01260,1,C,N","011265,1,N,1","+0130,1","+0130,1","99999,9","02,5,+00750,1,99,9","07,5,+01260,1,99,9",,"07,99,1,99,9,99,9,99999,9,99,9,99,9",,"10051,1,99999,9","51,1","61,1",,,"MET064METAR EDBC 170450Z 19007KT 9999 -DZRA FEW025 BKN042 13/13 Q1005;",
"10616499999","2010-08-17T05:20:00","4","51.854992","11.418889","180.0","COCHSTEDT, GM","FM-15","EDBC ","V020","190,1,N,0031,1","01050,1,C,N","011265,1,N,1","+0140,1","+0130,1","99999,9","02,5,+00840,1,99,9","04,5,+01050,1,99,9","07,5,+01560,5,99,9","07,99,1,99,9,99,9,99999,9,99,9,99,9",,"10051,1,99999,9","51,1","61,1",,,"MET071METAR EDBC 170520Z 19006KT 9999 -DZRA FEW028 SCT035 BKN052 14/13 Q1005;",
"10616499999","2010-08-17T05:50:00","4","51.854992","11.418889","180.0","COCHSTEDT, GM","FM-15","EDBC ","V020","190,1,N,0026,1","00840,1,C,N","011265,1,N,1","+0140,1","+0140,1","99999,9","07,5,+00840,1,99,9",,,"07,99,1,99,9,99,9,99999,9,99,9,99,9",,"10051,1,99999,9",,,,,"MET056METAR EDBC 170550Z 19005KT 9999 BKN028 14/14 Q1005 REDZ;",
"10616499999","2010-08-17T06:20:00","4","51.854992","11.418889","180.0","COCHSTEDT, GM","FM-15","EDBC ","V020","180,1,N,0026,1","00840,1,C,N","011265,1,N,1","+0140,1","+0140,1","99999,9","07,5,+00840,1,99,9",,,"07,99,1,99,9,99,9,99999,9,99,9,99,9",,"10051,1,99999,9",,,,,"MET050METAR EDBC 170620Z 18005KT9999 BKN028 14/14 Q1005;",
"10616499999","2010-08-17T06:50:00","4","51.854992","11.418889","180.0","COCHSTEDT, GM","FM-15","EDBC ","V020","200,1,N,0031,1","00900,1,C,N","011265,1,N,1","+0140,1","+0140,1","99999,9","07,5,+00900,1,99,9",,,"07,99,1,99,9,99,9,99999,9,99,9,99,9",,"10051,1,99999,9","61,1",,,,"MET055METAR EDBC 170650Z 20006KT 9999 -RA BKN030 14/14 Q1005;",
"10616499999","2010-08-17T07:20:00","4","51.854992","11.418889","180.0","COCHSTEDT, GM","FM-15","EDBC ","V020","210,1,N,0036,1","00960,1,C,N","011265,1,N,1","+0150,1","+0140,1","99999,9","07,5,+00960,1,99,9",,,"07,99,1,99,9,99,9,99999,9,99,9,99,9",,"10041,1,99999,9","61,1",,,,"MET055METAR EDBC 170720Z 21007KT 9999 -RA BKN032 15/14 Q1004;",
"10616499999","2010-08-17T07:50:00","4","51.854992","11.418889","180.0","COCHSTEDT, GM","FM-15","EDBC ","V020","230,1,N,0036,1","01050,1,C,N","011265,1,N,1","+0150,1","+0140,1","99999,9","02,5,+00150,1,99,9","07,5,+01050,1,99,9",,"07,99,1,99,9,99,9,99999,9,99,9,99,9",,"10051,1,99999,9","61,1",,,,"MET062METAR EDBC 170750Z 23007KT 9999 -RA FEW005 BKN035 15/14 Q1005;",
"10616499999","2010-08-17T08:20:00","4","51.854992","11.418889","180.0","COCHSTEDT, GM","FM-15","EDBC ","V020","240,1,N,0031,1","01020,1,C,N","011265,1,N,1","+0160,1","+0140,1","99999,9","02,5,+00210,1,99,9","07,5,+01020,1,99,9",,"07,99,1,99,9,99,9,99999,9,99,9,99,9",,"10041,1,99999,9",,,,,"MET071METAR EDBC 170820Z 24006KT 210V270 9999 FEW007 BKN034 16/14 Q1004 RERA;",
"10616499999","2010-08-17T08:50:00","4","51.854992","11.418889","180.0","COCHSTEDT, GM","FM-15","EDBC ","V020","250,1,N,0026,1","01140,1,C,N","011265,1,N,1","+0160,1","+0140,1","99999,9","02,5,+00240,1,99,9","04,5,+01140,1,99,9","07,5,+03600,1,99,9","07,99,1,99,9,99,9,99999,9,99,9,99,9",,"10051,1,99999,9",,,,,"MET073METAR EDBC 170850Z 25005KT 210V280 9999 FEW008 SCT038 BKN120 16/14 Q1005;",
"10616499999","2010-08-17T09:20:00","4","51.854992","11.418889","180.0","COCHSTEDT, GM","FM-15","EDBC ","V020","280,1,N,0021,1","01200,1,C,N","011265,1,N,1","+0170,1","+0150,1","99999,9","04,5,+00360,1,99,9","07,5,+01200,1,99,9",,"07,99,1,99,9,99,9,99999,9,99,9,99,9",,"10041,1,99999,9",,,,,"MET066METAR EDBC 170920Z 28004KT 220V330 9999 SCT012 BKN040 17/15 Q1004;",
"10616499999","2010-08-17T09:50:00","4","51.854992","11.418889","180.0","COCHSTEDT, GM","FM-15","EDBC ","V020","260,1,N,0021,1","01020,1,C,N","011265,1,N,1","+0170,1","+0150,1","99999,9","04,5,+00540,1,99,9","07,5,+01020,1,99,9",,"07,99,1,99,9,99,9,99999,9,99,9,99,9",,"10041,1,99999,9",,,,,"MET066METAR EDBC 170950Z 26004KT 200V350 9999 SCT018 BKN034 17/15 Q1004;",
"10616499999","2010-08-17T10:20:00","4","51.854992","11.418889","180.0","COCHSTEDT, GM","FM-15","EDBC ","V020","040,1,N,0031,1","01440,1,C,N","011265,1,N,1","+0160,1","+0150,1","99999,9","04,5,+00420,1,99,9","07,5,+01440,1,99,9",,"07,99,1,99,9,99,9,99999,9,99,9,99,9",,"10051,1,99999,9",,,,,"MET058METAR EDBC 171020Z 04006KT 9999 SCT014 BKN048 16/15 Q1005;",
"10616499999","2010-08-17T10:50:00","4","51.854992","11.418889","180.0","COCHSTEDT, GM","FM-15","EDBC ","V020","040,1,N,0031,1","00540,1,C,N","011265,1,N,1","+0170,1","+0150,1","99999,9","07,5,+00540,1,99,9",,,"07,99,1,99,9,99,9,99999,9,99,9,99,9",,"10051,1,99999,9","16,1",,,,"MET056METAR EDBC 171050Z 04006KT 9999 VCSH BKN018 17/15 Q1005;",
"10616499999","2010-08-17T11:20:00","4","51.854992","11.418889","180.0","COCHSTEDT, GM","FM-15","EDBC ","V020","360,1,N,0026,1","00990,1,C,N","011265,1,N,1","+0150,1","+0150,1","99999,9","02,5,+00330,1,99,9","07,5,+00990,1,99,9",,"07,99,1,99,9,99,9,99999,9,99,9,99,9",,"10051,1,99999,9","51,1","61,1",,,"MET072METAR EDBC 171120Z 36005KT 310V030 9999 -DZRA FEW011 BKN033 15/15 Q1005;",
"10616499999","2010-08-17T11:50:00","4","51.854992","11.418889","180.0","COCHSTEDT, GM","FM-15","EDBC ","V020","030,1,N,0026,1","01050,1,C,N","011265,1,N,1","+0170,1","+0150,1","99999,9","02,5,+00210,1,99,9","07,5,+01050,1,99,9",,"07,99,1,99,9,99,9,99999,9,99,9,99,9",,"10041,1,99999,9",,,,,"MET066METAR EDBC 171150Z 03005KT 360V070 9999 FEW007 BKN035 17/15 Q1004;",
"10616499999","2010-08-17T12:20:00","4","51.854992","11.418889","180.0","COCHSTEDT, GM","FM-15","EDBC ","V020","300,1,N,0051,1","00600,1,C,N","011265,1,N,1","+0170,1","+0150,1","99999,9","04,5,+00300,1,99,9","07,5,+00600,1,99,9","07,5,+00900,1,99,9","07,99,1,99,9,99,9,99999,9,99,9,99,9",,"10041,1,99999,9","16,1",,,,"MET078METAR EDBC 171220Z 30010KT 270V330 9999 VCSH SCT010 BKN020 BKN030 17/15 Q1004;",
"10616499999","2010-08-17T12:50:00","4","51.854992","11.418889","180.0","COCHSTEDT, GM","FM-15","EDBC ","V020","270,1,N,0057,1","00900,1,C,N","011265,1,N,1","+0160,1","+0150,1","99999,9","02,5,+00300,1,99,9","07,5,+00900,1,99,9",,"07,99,1,99,9,99,9,99999,9,99,9,99,9",,"10041,1,99999,9","53,1","63,1",,,"MET063METAR EDBC 171250Z 27011KT 9999 DZRA FEW010 BKN030 16/15 Q1004;",
"10616499999","2010-08-17T13:20:00","4","51.854992","11.418889","180.0","COCHSTEDT, GM","FM-15","EDBC ","V020","280,1,N,0062,1","00900,1,C,N","011265,1,N,1","+0160,1","+0150,1","99999,9","02,5,+00300,1,99,9","07,5,+00900,1,99,9",,"07,99,1,99,9,99,9,99999,9,99,9,99,9",,"10041,1,99999,9",,,,,"MET058METAR EDBC 171320Z 28012KT 9999 FEW010 BKN030 16/15 Q1004;",
"10616499999","2010-08-17T13:50:00","4","51.854992","11.418889","180.0","COCHSTEDT, GM","FM-15","EDBC ","V020","270,1,N,0062,1","00750,1,C,N","011265,1,N,1","+0170,1","+0150,1","99999,9","02,5,+00300,1,99,9","07,5,+00750,1,99,9",,"07,99,1,99,9,99,9,99999,9,99,9,99,9",,"10041,1,99999,9",,,,,"MET058METAR EDBC 171350Z 27012KT 9999 FEW010 BKN025 17/15 Q1004;",
"10616499999","2010-08-18T04:20:00","4","51.854992","11.418889","180.0","COCHSTEDT, GM","FM-15","EDBC ","V020","250,1,N,0057,1","00750,1,C,N","011265,1,N,1","+0140,1","+0130,1","99999,9","07,5,+00750,1,99,9",,,"07,99,1,99,9,99,9,99999,9,99,9,99,9",,"10051,1,99999,9",,,,,"MET051METAR EDBC 180420Z 25011KT 9999 BKN025 14/13 Q1005;",
"10616499999","2010-08-18T04:50:00","4","51.854992","11.418889","180.0","COCHSTEDT, GM","FM-15","EDBC ","V020","250,1,N,0051,1","01740,5,C,N","011265,1,N,1","+0140,1","+0130,1","99999,9","04,5,+00840,1,99,9","07,5,+01740,5,99,9",,"07,99,1,99,9,99,9,99999,9,99,9,99,9",,"10051,1,99999,9",,,,,"MET058METAR EDBC 180450Z 25010KT 9999 SCT028 BKN058 14/13 Q1005;",
"10616499999","2010-08-18T05:20:00","4","51.854992","11.418889","180.0","COCHSTEDT, GM","FM-15","EDBC ","V020","240,1,N,0051,1","01560,5,C,N","011265,1,N,1","+0150,1","+0130,1","99999,9","04,5,+01260,1,99,9","07,5,+01560,5,99,9",,"07,99,1,99,9,99,9,99999,9,99,9,99,9",,"10051,1,99999,9",,,,,"MET057METAR EDBC 180520Z 24010KT9999 SCT042 BKN052 15/13 Q1005;",
"10616499999","2010-08-18T05:50:00","4","51.854992","11.418889","180.0","COCHSTEDT, GM","FM-15","EDBC ","V020","230,1,N,0051,1","01260,1,C,N","011265,1,N,1","+0150,1","+0130,1","99999,9","02,5,+00180,1,99,9","04,5,+01260,1,99,9","07,5,+01650,5,99,9","07,99,1,99,9,99,9,99999,9,99,9,99,9",,"10051,1,99999,9","51,1","61,1",,,"MET071METAR EDBC 180550Z 23010KT 9999 -DZRA FEW006 SCT042 BKN055 15/13 Q1005;",
"10616499999","2010-08-18T06:20:00","4","51.854992","11.418889","180.0","COCHSTEDT, GM","FM-15","EDBC ","V020","220,1,N,0051,1","01800,1,C,N","011265,1,N,1","+0150,1","+0140,1","99999,9","02,5,+00840,1,99,9","07,5,+01800,1,99,9",,"07,99,1,99,9,99,9,99999,9,99,9,99,9",,"10051,1,99999,9",,,,,"MET057METAR EDBC 180620Z 22010KT9999 FEW028 BKN060 15/14 Q1005;",
"10616499999","2010-08-18T06:50:00","4","51.854992","11.418889","180.0","COCHSTEDT, GM","FM-15","EDBC ","V020","220,1,N,0046,1","02220,5,C,N","011265,1,N,1","+0150,1","+0140,1","99999,9","02,5,+00900,1,99,9","07,5,+02220,5,99,9",,"07,99,1,99,9,99,9,99999,9,99,9,99,9",,"10051,1,99999,9",,,,,"MET058METAR EDBC 180650Z 22009KT 9999 FEW030 BKN074 15/14 Q1005;",
"10616499999","2010-08-18T07:20:00","4","51.854992","11.418889","180.0","COCHSTEDT, GM","FM-15","EDBC ","V020","240,1,N,0046,1","02160,5,C,N","011265,1,N,1","+0160,1","+0140,1","99999,9","02,5,+00600,1,99,9","07,5,+02160,5,99,9",,"07,99,1,99,9,99,9,99999,9,99,9,99,9",,"10051,1,99999,9",,,,,"MET058METAR EDBC 180720Z 24009KT 9999 FEW020 BKN072 16/14 Q1005;",
"10616499999","2010-08-18T07:50:00","4","51.854992","11.418889","180.0","COCHSTEDT, GM","FM-15","EDBC ","V020","250,1,N,0062,1","22000,1,9,N","011265,1,N,1","+0170,1","+0140,1","99999,9","04,5,+00600,1,99,9",,,"04,99,1,99,9,99,9,99999,9,99,9,99,9",,"10061,1,99999,9",,,,,"MET051METAR EDBC 180750Z 25012KT 9999 SCT020 17/14 Q1006;",
"10616499999","2010-08-18T08:20:00","4","51.854992","11.418889","180.0","COCHSTEDT, GM","FM-15","EDBC ","V020","240,1,N,0093,1","22000,1,9,N","011265,1,N,1","+0170,1","+0130,1","99999,9","04,5,+00600,1,99,9",,,"04,99,1,99,9,99,9,99999,9,99,9,99,9",,"10061,1,99999,9",,,,,"MET051METAR EDBC 180820Z 24018KT 9999 SCT020 17/13 Q1006;",
"10616499999","2010-08-18T08:50:00","4","51.854992","11.418889","180.0","COCHSTEDT, GM","FM-15","EDBC ","V020","240,1,N,0072,1","99999,9,C,N","011265,1,N,1","+0180,1","+0130,1","99999,9","02,5,+00720,1,99,9","04,5,+00900,1,99,9",,"04,99,1,99,9,99,9,99999,9,99,9,99,9",,"10061,1,99999,9",,,,,"MET058METAR EDBC 180850Z 24014KT 9999 FEW024 SCT030 18/13 Q1006;","P01 009003SCOCIG"
"10616499999","2010-08-18T09:20:00","4","51.854992","11.418889","180.0","COCHSTEDT, GM","FM-15","EDBC ","V020","250,1,N,0082,1","22000,1,9,N","011265,1,N,1","+0190,1","+0130,1","99999,9","04,5,+01050,1,99,9",,,"04,99,1,99,9,99,9,99999,9,99,9,99,9",,"10061,1,99999,9",,,,,"MET051METAR EDBC 180920Z 25016KT 9999 SCT035 19/13 Q1006;",
"10616499999","2010-08-18T09:50:00","4","51.854992","11.418889","180.0","COCHSTEDT, GM","FM-15","EDBC ","V020","240,1,N,0077,1","22000,1,9,N","011265,1,N,1","+0190,1","+0130,1","99999,9","04,5,+01140,1,99,9",,,"04,99,1,99,9,99,9,99999,9,99,9,99,9",,"10061,1,99999,9",,,,,"MET059METAR EDBC 180950Z 24015KT 210V270 9999 SCT038 19/13 Q1006;",
"10616499999","2010-08-18T10:20:00","4","51.854992","11.418889","180.0","COCHSTEDT, GM","FM-15","EDBC ","V020","250,1,N,0077,1","99999,9,C,N","011265,1,N,1","+0190,1","+0130,1","99999,9","02,5,+00750,1,99,9","04,5,+01080,1,99,9",,"04,99,1,99,9,99,9,99999,9,99,9,99,9",,"10061,1,99999,9",,,,,"MET058METAR EDBC 181020Z 25015KT 9999 FEW025 SCT036 19/13 Q1006;","P01 010803SCOCIG"
"10616499999","2010-08-18T10:50:00","4","51.854992","11.418889","180.0","COCHSTEDT, GM","FM-15","EDBC ","V020","240,1,N,0067,1","99999,9,C,N","011265,1,N,1","+0190,1","+0130,1","99999,9","02,5,+00660,1,99,9","04,5,+01200,1,99,9",,"04,99,1,99,9,99,9,99999,9,99,9,99,9",,"10061,1,99999,9",,,,,"MET058METAR EDBC 181050Z 24013KT 9999 FEW022 SCT040 19/13 Q1006;","P01 012003SCOCIG"
"10616499999","2010-08-18T11:20:00","4","51.854992","11.418889","180.0","COCHSTEDT, GM","FM-15","EDBC ","V020","230,1,N,0077,1","22000,1,9,N","011265,1,N,1","+0190,1","+0140,1","99999,9","04,5,+00960,1,99,9",,,"04,99,1,99,9,99,9,99999,9,99,9,99,9",,"10061,1,99999,9",,,,,"MET051METAR EDBC 181120Z 23015KT 9999 SCT032 19/14 Q1006;",
"10616499999","2010-08-18T11:50:00","4","51.854992","11.418889","180.0","COCHSTEDT, GM","FM-15","EDBC ","V020","230,1,N,0077,1","22000,1,9,N","011265,1,N,1","+0200,1","+0130,1","99999,9","04,5,+01050,1,99,9",,,"04,99,1,99,9,99,9,99999,9,99,9,99,9",,"10061,1,99999,9",,,,,"MET051METAR EDBC 181150Z 23015KT 9999 SCT035 20/13 Q1006;",
"10616499999","2010-08-18T12:20:00","4","51.854992","11.418889","180.0","COCHSTEDT, GM","FM-15","EDBC ","V020","220,1,N,0072,1","22000,1,9,N","011265,1,N,1","+0200,1","+0140,1","99999,9","04,5,+00750,1,99,9",,,"04,99,1,99,9,99,9,99999,9,99,9,99,9",,"10061,1,99999,9",,,,,"MET051METAR EDBC 181220Z 22014KT 9999 SCT025 20/14 Q1006;",
"10616499999","2010-08-18T12:50:00","4","51.854992","11.418889","180.0","COCHSTEDT, GM","FM-15","EDBC ","V020","220,1,N,0087,1","22000,1,9,N","011265,1,N,1","+0200,1","+0140,1","99999,9","04,5,+00750,1,99,9",,,"04,99,1,99,9,99,9,99999,9,99,9,99,9",,"10061,1,99999,9",,,,,"MET051METAR EDBC 181250Z 22017KT 9999 SCT025 20/14 Q1006;",
"10616499999","2010-08-18T13:20:00","4","51.854992","11.418889","180.0","COCHSTEDT, GM","FM-15","EDBC ","V020","240,1,N,0077,1","22000,1,9,N","011265,1,N,1","+0200,1","+0140,1","99999,9","04,5,+00900,1,99,9",,,"04,99,1,99,9,99,9,99999,9,99,9,99,9",,"10061,1,99999,9",,,,,"MET051METAR EDBC 181320Z 24015KT 9999 SCT030 20/14 Q1006;",
"10616499999","2010-08-18T13:50:00","4","51.854992","11.418889","180.0","COCHSTEDT, GM","FM-15","EDBC ","V020","240,1,N,0082,1","22000,1,9,N","011265,1,N,1","+0210,1","+0140,1","99999,9","04,5,+01050,1,99,9",,,"04,99,1,99,9,99,9,99999,9,99,9,99,9",,"10061,1,99999,9",,,,,"MET051METAR EDBC 181350Z 24016KT 9999 SCT035 21/14 Q1006;",
"10616499999","2010-08-19T04:20:00","4","51.854992","11.418889","180.0","COCHSTEDT, GM","FM-15","EDBC ","V020","240,1,N,0036,1","99999,9,9,Y","009900,1,N,1","+0120,1","+0100,1","99999,9",,,,,,"10108,1,99999,9",,,,,"MET045METAR EDBC 190420Z 24007KT CAVOK 12/10 Q1011;",
"10616499999","2010-08-19T04:50:00","4","51.854992","11.418889","180.0","COCHSTEDT, GM","FM-15","EDBC ","V020","240,1,N,0031,1","22000,1,9,N","011265,1,N,1","+0120,1","+0100,1","99999,9","04,5,+01440,1,99,9",,,"04,99,1,99,9,99,9,99999,9,99,9,99,9",,"10108,1,99999,9",,,,,"MET051METAR EDBC 190450Z 24006KT 9999 SCT048 12/10 Q1011;",
"10616499999","2010-08-19T05:20:00","4","51.854992","11.418889","180.0","COCHSTEDT, GM","FM-15","EDBC ","V020","240,1,N,0051,1","22000,1,9,N","011265,1,N,1","+0130,1","+0100,1","99999,9","02,5,+01380,1,99,9",,,"02,99,1,99,9,99,9,99999,9,99,9,99,9",,"10119,1,99999,9",,,,,"MET051METAR EDBC 190520Z 24010KT 9999 FEW046 13/10 Q1012;",
"10616499999","2010-08-19T05:50:00","4","51.854992","11.418889","180.0","COCHSTEDT, GM","FM-15","EDBC ","V020","240,1,N,0031,1","99999,9,9,Y","009900,1,N,1","+0130,1","+0110,1","99999,9",,,,,,"10119,1,99999,9",,,,,"MET045METAR EDBC 190550Z 24006KT CAVOK 13/11 Q1012;",
"10616499999","2010-08-19T06:20:00","4","51.854992","11.418889","180.0","COCHSTEDT, GM","FM-15","EDBC ","V020","250,1,N,0036,1","99999,9,9,Y","009900,1,N,1","+0140,1","+0110,1","99999,9",,,,,,"10119,1,99999,9",,,,,"MET045METAR EDBC 190620Z 25007KT CAVOK 14/11 Q1012;",
"10616499999","2010-08-19T06:50:00","4","51.854992","11.418889","180.0","COCHSTEDT, GM","FM-15","EDBC ","V020","260,1,N,0046,1","99999,9,9,Y","009900,1,N,1","+0150,1","+0110,1","99999,9",,,,,,"10129,1,99999,9",,,,,"MET045METAR EDBC 190650Z 26009KT CAVOK 15/11 Q1013;",
"10616499999","2010-08-19T07:20:00","4","51.854992","11.418889","180.0","COCHSTEDT, GM","FM-15","EDBC ","V020","260,1,N,0041,1","99999,9,9,Y","009900,1,N,1","+0160,1","+0110,1","99999,9",,,,,,"10129,1,99999,9",,,,,"MET045METAR EDBC 190720Z 26008KT CAVOK 16/11 Q1013;",
"10616499999","2010-08-19T07:50:00","4","51.854992","11.418889","180.0","COCHSTEDT, GM","FM-15","EDBC ","V020","250,1,N,0051,1","99999,9,9,Y","009900,1,N,1","+0160,1","+0110,1","99999,9",,,,,,"10129,1,99999,9",,,,,"MET045METAR EDBC 190750Z 25010KT CAVOK 16/11 Q1013;",
"10616499999","2010-08-19T08:20:00","4","51.854992","11.418889","180.0","COCHSTEDT, GM","FM-15","EDBC ","V020","240,1,N,0057,1","99999,9,9,Y","009900,1,N,1","+0170,1","+0110,1","99999,9",,,,,,"10139,1,99999,9",,,,,"MET045METAR EDBC 190820Z 24011KT CAVOK 17/11 Q1014;",
"10616499999","2010-08-19T08:50:00","4","51.854992","11.418889","180.0","COCHSTEDT, GM","FM-15","EDBC ","V020","250,1,N,0057,1","99999,9,9,Y","009900,1,N,1","+0180,1","+0110,1","99999,9",,,,,,"10139,1,99999,9",,,,,"MET053METAR EDBC 190850Z 25011KT 220V280 CAVOK 18/11 Q1014;",
"10616499999","2010-08-19T09:20:00","4","51.854992","11.418889","180.0","COCHSTEDT, GM","FM-15","EDBC ","V020","260,1,N,0051,1","99999,9,9,Y","009900,1,N,1","+0180,1","+0090,1","99999,9",,,,,,"10139,1,99999,9",,,,,"MET053METAR EDBC 190920Z 26010KT 230V300 CAVOK 18/09 Q1014;",
"10616499999","2010-08-19T09:50:00","4","51.854992","11.418889","180.0","COCHSTEDT, GM","FM-15","EDBC ","V020","280,1,N,0062,1","99999,9,9,Y","009900,1,N,1","+0200,1","+0070,1","99999,9",,,,,,"10139,1,99999,9",,,,,"MET045METAR EDBC 190950Z 28012KT CAVOK 20/07 Q1014;",
"10616499999","2010-08-19T10:20:00","4","51.854992","11.418889","180.0","COCHSTEDT, GM","FM-15","EDBC ","V020","280,1,N,0057,1","99999,9,9,Y","009900,1,N,1","+0200,1","+0080,1","99999,9",,,,,,"10139,1,99999,9",,,,,"MET053METAR EDBC 191020Z 28011KT 230V330 CAVOK 20/08 Q1014;",
"10616499999","2010-08-19T10:50:00","4","51.854992","11.418889","180.0","COCHSTEDT, GM","FM-15","EDBC ","V020","270,1,N,0062,1","99999,9,9,Y","009900,1,N,1","+0200,1","+0080,1","99999,9",,,,,,"10139,1,99999,9",,,,,"MET045METAR EDBC 191050Z 27012KT CAVOK 20/08 Q1014;",
"10616499999","2010-08-19T11:20:00","4","51.854992","11.418889","180.0","COCHSTEDT, GM","FM-15","EDBC ","V020","270,1,N,0057,1","99999,9,9,Y","009900,1,N,1","+0210,1","+0070,1","99999,9",,,,,,"10149,1,99999,9",,,,,"MET053METAR EDBC 191120Z 27011KT 230V300 CAVOK 21/07 Q1015;",
"10616499999","2010-08-19T11:50:00","4","51.854992","11.418889","180.0","COCHSTEDT, GM","FM-15","EDBC ","V020","240,1,N,0072,1","99999,9,9,Y","009900,1,N,1","+0210,1","+0070,1","99999,9",,,,,,"10149,1,99999,9",,,,,"MET044METAR EDBC 191150Z 24014KT CAVOK21/07 Q1015;",
"10616499999","2010-08-19T12:20:00","4","51.854992","11.418889","180.0","COCHSTEDT, GM","FM-15","EDBC ","V020","240,1,N,0077,1","99999,9,9,Y","009900,1,N,1","+0210,1","+0080,1","99999,9",,,,,,"10149,1,99999,9",,,,,"MET053METAR EDBC 191220Z 24015KT 190V270 CAVOK 21/08 Q1015;",
"10616499999","2010-08-19T12:50:00","4","51.854992","11.418889","180.0","COCHSTEDT, GM","FM-15","EDBC ","V020","270,1,N,0062,1","99999,9,9,Y","009900,1,N,1","+0210,1","+0080,1","99999,9",,,,,,"10149,1,99999,9",,,,,"MET045METAR EDBC 191250Z 27012KT CAVOK 21/08 Q1015;",
"10616499999","2010-08-19T13:20:00","4","51.854992","11.418889","180.0","COCHSTEDT, GM","FM-15","EDBC ","V020","260,1,N,0067,1","99999,9,9,Y","009900,1,N,1","+0210,1","+0070,1","99999,9",,,,,,"10149,1,99999,9",,,,,"MET053METAR EDBC 191320Z 26013KT 230V290 CAVOK 21/07 Q1015;",
"10616499999","2010-08-19T13:50:00","4","51.854992","11.418889","180.0","COCHSTEDT, GM","FM-15","EDBC ","V020","270,1,N,0046,1","99999,9,9,Y","009900,1,N,1","+0200,1","+0090,1","99999,9",,,,,,"10149,1,99999,9",,,,,"MET045METAR EDBC 191350Z 27009KT CAVOK 20/09 Q1015;",
"10616499999","2010-08-20T04:20:00","4","51.854992","11.418889","180.0","COCHSTEDT, GM","FM-15","EDBC ","V020","200,1,N,0031,1","99999,9,9,Y","009900,1,N,1","+0110,1","+0090,1","99999,9",,,,,,"10210,1,99999,9",,,,,"MET045METAR EDBC 200420Z 20006KT CAVOK 11/09 Q1021;",
"10616499999","2010-08-20T04:50:00","4","51.854992","11.418889","180.0","COCHSTEDT, GM","FM-15","EDBC ","V020","210,1,N,0026,1","99999,9,9,Y","009900,1,N,1","+0110,1","+0100,1","99999,9",,,,,,"10210,1,99999,9",,,,,"MET045METAR EDBC 200450Z 21005KT CAVOK 11/10 Q1021;",
"10616499999","2010-08-20T05:20:00","4","51.854992","11.418889","180.0","COCHSTEDT, GM","FM-15","EDBC ","V020","210,1,N,0021,1","99999,9,9,Y","009900,1,N,1","+0120,1","+0100,1","99999,9",,,,,,"10210,1,99999,9",,,,,"MET045METAR EDBC 200520Z 21004KT CAVOK 12/10 Q1021;",
"10616499999","2010-08-20T05:50:00","4","51.854992","11.418889","180.0","COCHSTEDT, GM","FM-15","EDBC ","V020","210,1,N,0026,1","99999,9,9,Y","009900,1,N,1","+0140,1","+0110,1","99999,9",,,,,,"10210,1,99999,9",,,,,"MET045METAR EDBC 200550Z 21005KT CAVOK 14/11 Q1021;",
"10616499999","2010-08-20T06:20:00","4","51.854992","11.418889","180.0","COCHSTEDT, GM","FM-15","EDBC ","V020","210,1,N,0021,1","99999,9,9,Y","009900,1,N,1","+0160,1","+0120,1","99999,9",,,,,,"10210,1,99999,9",,,,,"MET044METAR EDBC 200620Z 21004KT CAVOK16/12 Q1021;",
"10616499999","2010-08-20T06:50:00","4","51.854992","11.418889","180.0","COCHSTEDT, GM","FM-15","EDBC ","V020","210,1,N,0021,1","99999,9,9,Y","009900,1,N,1","+0170,1","+0120,1","99999,9",,,,,,"10210,1,99999,9",,,,,"MET045METAR EDBC 200650Z 21004KT CAVOK 17/12 Q1021;",
"10616499999","2010-08-20T07:20:00","4","51.854992","11.418889","180.0","COCHSTEDT, GM","FM-15","EDBC ","V020","180,1,N,0036,1","99999,9,9,Y","009900,1,N,1","+0190,1","+0120,1","99999,9",,,,,,"10210,1,99999,9",,,,,"MET045METAR EDBC 200720Z 18007KT CAVOK 19/12 Q1021;",
"10616499999","2010-08-20T07:50:00","4","51.854992","11.418889","180.0","COCHSTEDT, GM","FM-15","EDBC ","V020","180,1,N,0041,1","99999,9,9,Y","009900,1,N,1","+0190,1","+0120,1","99999,9",,,,,,"10220,1,99999,9",,,,,"MET045METAR EDBC 200750Z 18008KT CAVOK 19/12 Q1022;",
"10616499999","2010-08-20T08:20:00","4","51.854992","11.418889","180.0","COCHSTEDT, GM","FM-15","EDBC ","V020","180,1,N,0036,1","99999,9,9,Y","009900,1,N,1","+0200,1","+0120,1","99999,9",,,,,,"10220,1,99999,9",,,,,"MET045METAR EDBC 200820Z 18007KT CAVOK 20/12 Q1022;",
"10616499999","2010-08-20T08:50:00","4","51.854992","11.418889","180.0","COCHSTEDT, GM","FM-15","EDBC ","V020","180,1,N,0041,1","99999,9,9,Y","009900,1,N,1","+0210,1","+0110,1","99999,9",,,,,,"10220,1,99999,9",,,,,"MET045METAR EDBC 200850Z 18008KT CAVOK 21/11 Q1022;",
"10616499999","2010-08-20T09:20:00","4","51.854992","11.418889","180.0","COCHSTEDT, GM","FM-15","EDBC ","V020","200,1,N,0036,1","99999,9,9,Y","009900,1,N,1","+0230,1","+0110,1","99999,9",,,,,,"10220,1,99999,9",,,,,"MET045METAR EDBC 200920Z 20007KT CAVOK 23/11 Q1022;",
"10616499999","2010-08-20T09:50:00","4","51.854992","11.418889","180.0","COCHSTEDT, GM","FM-15","EDBC ","V020","180,1,N,0046,1","99999,9,9,Y","009900,1,N,1","+0220,1","+0100,1","99999,9",,,,,,"10210,1,99999,9",,,,,"MET045METAR EDBC 200950Z 18009KT CAVOK 22/10 Q1021;",
"10616499999","2010-08-20T10:20:00","4","51.854992","11.418889","180.0","COCHSTEDT, GM","FM-15","EDBC ","V020","190,1,N,0051,1","99999,9,9,Y","009900,1,N,1","+0230,1","+0090,1","99999,9",,,,,,"10210,1,99999,9",,,,,"MET045METAR EDBC 201020Z 19010KT CAVOK 23/09 Q1021;",
"10616499999","2010-08-20T11:20:00","4","51.854992","11.418889","180.0","COCHSTEDT, GM","FM-15","EDBC ","V020","180,1,N,0046,1","99999,9,9,Y","009900,1,N,1","+0230,1","+0090,1","99999,9",,,,,,"10210,1,99999,9",,,,,"MET045METAR EDBC 201120Z 18009KT CAVOK 23/09 Q1021;",
"10616499999","2010-08-20T11:50:00","4","51.854992","11.418889","180.0","COCHSTEDT, GM","FM-15","EDBC ","V020","210,1,N,0041,1","99999,9,9,Y","009900,1,N,1","+0240,1","+0100,1","99999,9",,,,,,"10210,1,99999,9",,,,,"MET053METAR EDBC 201150Z 21008KT 150V250 CAVOK 24/10 Q1021;",
"10616499999","2010-08-20T12:20:00","4","51.854992","11.418889","180.0","COCHSTEDT, GM","FM-15","EDBC ","V020","190,1,N,0041,1","99999,9,9,Y","009900,1,N,1","+0240,1","+0100,1","99999,9",,,,,,"10210,1,99999,9",,,,,"MET053METAR EDBC 201220Z 19008KT 140V240 CAVOK 24/10 Q1021;",
"10616499999","2010-08-20T12:50:00","4","51.854992","11.418889","180.0","COCHSTEDT, GM","FM-15","EDBC ","V020","170,1,N,0041,1","99999,9,9,Y","009900,1,N,1","+0240,1","+0100,1","99999,9",,,,,,"10210,1,99999,9",,,,,"MET053METAR EDBC 201250Z 17008KT 120V220 CAVOK 24/10 Q1021;",
"10616499999","2010-08-20T13:20:00","4","51.854992","11.418889","180.0","COCHSTEDT, GM","FM-15","EDBC ","V020","170,1,N,0041,1","99999,9,9,Y","009900,1,N,1","+0250,1","+0100,1","99999,9",,,,,,"10210,1,99999,9",,,,,"MET053METAR EDBC 201320Z 17008KT 140V220 CAVOK 25/10 Q1021;",
"10616499999","2010-08-20T13:50:00","4","51.854992","11.418889","180.0","COCHSTEDT, GM","FM-15","EDBC ","V020","170,1,N,0036,1","99999,9,9,Y","009900,1,N,1","+0250,1","+0100,1","99999,9",,,,,,"10200,1,99999,9",,,,,"MET053METAR EDBC 201350Z 17007KT 120V220 CAVOK 25/10 Q1020;",
"10616499999","2010-08-23T04:20:00","4","51.854992","11.418889","180.0","COCHSTEDT, GM","FM-15","EDBC ","V020","140,1,N,0015,1","22000,1,9,N","004000,1,N,1","+0170,1","+0170,1","99999,9","04,5,+01440,1,99,9",,,"04,99,1,99,9,99,9,99999,9,99,9,99,9",,"10091,1,99999,9",,,,,"MET051METAR EDBC 230420Z 14003KT 4000 SCT048 17/17 Q1009;",
"10616499999","2010-08-23T04:50:00","4","51.854992","11.418889","180.0","COCHSTEDT, GM","FM-15","EDBC ","V020","130,1,N,0021,1","22000,1,9,N","005000,1,N,1","+0170,1","+0170,1","99999,9",,,,"00,99,1,99,9,99,9,99999,9,99,9,99,9",,"10081,1,99999,9",,,,,"MET048METAR EDBC 230450Z 13004KT 5000 NSC 17/17 Q1008;","Q01    003SCCGA1"
"10616499999","2010-08-23T05:20:00","4","51.854992","11.418889","180.0","COCHSTEDT, GM","FM-15","EDBC ","V020","140,1,N,0021,1","22000,1,9,N","005000,1,N,1","+0180,1","+0170,1","99999,9",,,,"00,99,1,99,9,99,9,99999,9,99,9,99,9",,"10081,1,99999,9",,,,,"MET048METAR EDBC 230520Z 14004KT 5000 NSC 18/17 Q1008;","Q01    003SCCGA1"
"10616499999","2010-08-23T05:50:00","4","51.854992","11.418889","180.0","COCHSTEDT, GM","FM-15","EDBC ","V020","190,1,N,0021,1","22000,1,9,N","005000,1,N,1","+0180,1","+0170,1","99999,9",,,,"00,99,1,99,9,99,9,99999,9,99,9,99,9",,"10081,1,99999,9",,,,,"MET048METAR EDBC 230550Z 19004KT 5000 NSC 18/17 Q1008;","Q01    003SCCGA1"
"10616499999","2010-08-23T06:20:00","4","51.854992","11.418889","180.0","COCHSTEDT, GM","FM-15","EDBC ","V020","190,1,N,0031,1","22000,1,9,N","008000,1,N,1","+0180,1","+0180,1","99999,9",,,,"00,99,1,99,9,99,9,99999,9,99,9,99,9",,"10071,1,99999,9",,,,,"MET048METAR EDBC 230620Z 19006KT 8000 NSC 18/18 Q1007;","Q01    003SCCGA1"
"10616499999","2010-08-23T06:50:00","4","51.854992","11.418889","180.0","COCHSTEDT, GM","FM-15","EDBC ","V020","160,1,N,0021,1","22000,1,9,N","009000,1,N,1","+0190,1","+0180,1","99999,9",,,,"00,99,1,99,9,99,9,99999,9,99,9,99,9",,"10071,1,99999,9",,,,,"MET048METAR EDBC 230650Z 16004KT 9000 NSC 19/18 Q1007;","Q01    003SCCGA1"
"10616499999","2010-08-23T07:20:00","4","51.854992","11.418889","180.0","COCHSTEDT, GM","FM-15","EDBC ","V020","160,1,N,0036,1","99999,9,9,Y","009900,1,N,1","+0190,1","+0180,1","99999,9",,,,,,"10061,1,99999,9",,,,,"MET045METAR EDBC 230720Z 16007KT CAVOK 19/18 Q1006;",
"10616499999","2010-08-23T07:50:00","4","51.854992","11.418889","180.0","COCHSTEDT, GM","FM-15","EDBC ","V020","180,1,N,0051,1","99999,9,9,Y","009900,1,N,1","+0200,1","+0180,1","99999,9",,,,,,"10061,1,99999,9",,,,,"MET045METAR EDBC 230750Z 18010KT CAVOK 20/18 Q1006;",
"10616499999","2010-08-23T08:20:00","4","51.854992","11.418889","180.0","COCHSTEDT, GM","FM-15","EDBC ","V020","170,1,N,0041,1","99999,9,9,Y","009900,1,N,1","+0200,1","+0180,1","99999,9",,,,,,"10061,1,99999,9",,,,,"MET045METAR EDBC 230820Z 17008KT CAVOK 20/18 Q1006;",
"10616499999","2010-08-23T08:50:00","4","51.854992","11.418889","180.0","COCHSTEDT, GM","FM-15","EDBC ","V020","170,1,N,0026,1","99999,9,9,Y","009900,1,N,1","+0200,1","+0180,1","99999,9",,,,,,"10051,1,99999,9",,,,,"MET045METAR EDBC 230850Z 17005KT CAVOK 20/18 Q1005;",
"10616499999","2010-08-23T09:20:00","4","51.854992","11.418889","180.0","COCHSTEDT, GM","FM-15","EDBC ","V020","170,1,N,0046,1","99999,9,9,Y","009900,1,N,1","+0200,1","+0180,1","99999,9",,,,,,"10051,1,99999,9",,,,,"MET045METAR EDBC 230920Z 17009KT CAVOK 20/18 Q1005;",
"10616499999","2010-08-23T09:50:00","4","51.854992","11.418889","180.0","COCHSTEDT, GM","FM-15","EDBC ","V020","180,1,N,0051,1","99999,9,9,Y","009900,1,N,1","+0200,1","+0180,1","99999,9",,,,,,"10051,1,99999,9",,,,,"MET045METAR EDBC 230950Z 18010KT CAVOK 20/18 Q1005;",
"10616499999","2010-08-23T10:20:00","4","51.854992","11.418889","180.0","COCHSTEDT, GM","FM-15","EDBC ","V020","180,1,N,0041,1","22000,1,9,N","011265,1,N,1","+0200,1","+0180,1","99999,9","04,5,+02400,1,99,9",,,"04,99,1,99,9,99,9,99999,9,99,9,99,9",,"10051,1,99999,9","63,1",,,,"MET056METAR EDBC 231020Z 18008KT 9999 VCRA SCT080 20/18 Q1005;",
"10616499999","2010-08-23T10:50:00","4","51.854992","11.418889","180.0","COCHSTEDT, GM","FM-15","EDBC ","V020","200,1,N,0046,1","02400,1,C,N","006000,1,N,1","+0200,1","+0180,1","99999,9","02,5,+00600,1,99,9","07,5,+02400,1,99,9",,"07,99,1,99,9,99,9,99999,9,99,9,99,9",,"10051,1,99999,9","63,1",,,,"MET061METAR EDBC 231050Z 20009KT 6000 RA FEW020 BKN080 20/18 Q1005;",
"10616499999","2010-08-23T11:20:00","4","51.854992","11.418889","180.0","COCHSTEDT, GM","FM-15","EDBC ","V020","200,1,N,0036,1","02400,1,C,N","008000,1,N,1","+0200,1","+0180,1","99999,9","02,5,+00600,1,99,9","07,5,+02400,1,99,9",,"07,99,1,99,9,99,9,99999,9,99,9,99,9",,"10051,1,99999,9",,,,,"MET058METAR EDBC 231120Z 20007KT 8000 FEW020 BKN080 20/18 Q1005;",
"10616499999","2010-08-23T11:50:00","4","51.854992","11.418889","180.0","COCHSTEDT, GM","FM-15","EDBC ","V020","190,1,N,0036,1","22000,1,9,N","011265,1,N,1","+0190,1","+0180,1","99999,9","04,5,+01200,1,99,9",,,"04,99,1,99,9,99,9,99999,9,99,9,99,9",,"10041,1,99999,9",,,,,"MET051METAR EDBC 231150Z 19007KT 9999 SCT040 19/18 Q1004;",
"10616499999","2010-08-23T12:20:00","4","51.854992","11.418889","180.0","COCHSTEDT, GM","FM-15","EDBC ","V020","190,1,N,0041,1","02400,1,C,N","011265,1,N,1","+0200,1","+0190,1","99999,9","02,5,+01140,1,99,9","07,5,+02400,1,99,9",,"07,99,1,99,9,99,9,99999,9,99,9,99,9",,"10041,1,99999,9",,,,,"MET058METAR EDBC 231220Z 19008KT 9999 FEW038 BKN080 20/19 Q1004;",
"10616499999","2010-08-23T12:50:00","4","51.854992","11.418889","180.0","COCHSTEDT, GM","FM-15","EDBC ","V020","190,1,N,0036,1","99999,9,9,Y","009900,1,N,1","+0210,1","+0190,1","99999,9",,,,,,"10041,1,99999,9",,,,,"MET045METAR EDBC 231250Z 19007KT CAVOK 21/19 Q1004;",
"10616499999","2010-08-23T13:20:00","4","51.854992","11.418889","180.0","COCHSTEDT, GM","FM-15","EDBC ","V020","200,1,N,0057,1","99999,9,9,Y","009900,1,N,1","+0220,1","+0190,1","99999,9",,,,,,"10031,1,99999,9",,,,,"MET045METAR EDBC 231320Z 20011KT CAVOK 22/19 Q1003;",
"10616499999","2010-08-23T13:50:00","4","51.854992","11.418889","180.0","COCHSTEDT, GM","FM-15","EDBC ","V020","210,1,N,0062,1","99999,9,9,Y","009900,1,N,1","+0220,1","+0180,1","99999,9",,,,,,"10031,1,99999,9",,,,,"MET045METAR EDBC 231350Z 21012KT CAVOK 22/18 Q1003;",
"10616499999","2010-08-24T04:20:00","4","51.854992","11.418889","180.0","COCHSTEDT, GM","FM-15","EDBC ","V020","240,1,N,0051,1","22000,1,9,N","008000,1,N,1","+0170,1","+0150,1","99999,9",,,,"00,99,1,99,9,99,9,99999,9,99,9,99,9",,"10031,1,99999,9",,,,,"MET048METAR EDBC 240420Z 24010KT 8000 NSC 17/15 Q1003;","Q01    003SCCGA1"
"10616499999","2010-08-24T04:50:00","4","51.854992","11.418889","180.0","COCHSTEDT, GM","FM-15","EDBC ","V020","230,1,N,0057,1","99999,9,9,Y","009900,1,N,1","+0170,1","+0150,1","99999,9",,,,,,"10031,1,99999,9",,,,,"MET045METAR EDBC 240450Z 23011KT CAVOK 17/15 Q1003;",
"10616499999","2010-08-24T05:20:00","4","51.854992","11.418889","180.0","COCHSTEDT, GM","FM-15","EDBC ","V020","230,1,N,0046,1","99999,9,9,Y","009900,1,N,1","+0170,1","+0150,1","99999,9",,,,,,"10041,1,99999,9",,,,,"MET045METAR EDBC 240520Z 23009KT CAVOK 17/15 Q1004;",
"10616499999","2010-08-24T05:50:00","4","51.854992","11.418889","180.0","COCHSTEDT, GM","FM-15","EDBC ","V020","240,1,N,0021,1","22000,1,9,N","011265,1,N,1","+0180,1","+0150,1","99999,9","02,5,+00600,1,99,9",,,"02,99,1,99,9,99,9,99999,9,99,9,99,9",,"10041,1,99999,9",,,,,"MET051METAR EDBC 240550Z 24004KT 9999 FEW020 18/15 Q1004;",
"10616499999","2010-08-24T06:20:00","4","51.854992","11.418889","180.0","COCHSTEDT, GM","FM-15","EDBC ","V020","240,1,N,0026,1","99999,9,9,Y","009900,1,N,1","+0180,1","+0150,1","99999,9",,,,,,"10051,1,99999,9",,,,,"MET045METAR EDBC 240620Z 24005KT CAVOK 18/15 Q1005;",
"10616499999","2010-08-24T06:50:00","4","51.854992","11.418889","180.0","COCHSTEDT, GM","FM-15","EDBC ","V020","260,1,N,0041,1","22000,1,9,N","011265,1,N,1","+0190,1","+0140,1","99999,9","02,5,+00600,1,99,9",,,"02,99,1,99,9,99,9,99999,9,99,9,99,9",,"10051,1,99999,9",,,,,"MET051METAR EDBC 240650Z 26008KT 9999 FEW020 19/14 Q1005;",
"10616499999","2010-08-24T07:20:00","4","51.854992","11.418889","180.0","COCHSTEDT, GM","FM-15","EDBC ","V020","270,1,N,0072,1","22000,1,9,N","011265,1,N,1","+0180,1","+0120,1","99999,9","02,5,+00750,1,99,9",,,"02,99,1,99,9,99,9,99999,9,99,9,99,9",,"10051,1,99999,9",,,,,"MET051METAR EDBC 240720Z 27014KT 9999 FEW025 18/12 Q1005;",
"10616499999","2010-08-24T07:50:00","4","51.854992","11.418889","180.0","COCHSTEDT, GM","FM-15","EDBC ","V020","270,1,N,0062,1","22000,1,9,N","011265,1,N,1","+0190,1","+0120,1","99999,9","02,5,+00840,1,99,9",,,"02,99,1,99,9,99,9,99999,9,99,9,99,9",,"10051,1,99999,9",,,,,"MET051METAR EDBC 240750Z 27012KT 9999 FEW028 19/12 Q1005;",
"10616499999","2010-08-24T08:20:00","4","51.854992","11.418889","180.0","COCHSTEDT, GM","FM-15","EDBC ","V020","270,1,N,0051,1","22000,1,9,N","011265,1,N,1","+0190,1","+0130,1","99999,9","02,5,+00900,1,99,9",,,"02,99,1,99,9,99,9,99999,9,99,9,99,9",,"10061,1,99999,9",,,,,"MET051METAR EDBC 240820Z 27010KT 9999 FEW030 19/13 Q1006;",
"10616499999","2010-08-24T08:50:00","4","51.854992","11.418889","180.0","COCHSTEDT, GM","FM-15","EDBC ","V020","250,1,N,0093,1","22000,1,9,N","011265,1,N,1","+0200,1","+0110,1","99999,9","02,5,+01050,1,99,9",,,"02,99,1,99,9,99,9,99999,9,99,9,99,9",,"10061,1,99999,9",,,,,"MET051METAR EDBC 240850Z 25018KT 9999 FEW035 20/11 Q1006;",
"10616499999","2010-08-24T09:20:00","4","51.854992","11.418889","180.0","COCHSTEDT, GM","FM-15","EDBC ","V020","250,1,N,0082,1","22000,1,9,N","011265,1,N,1","+0210,1","+0120,1","99999,9","02,5,+01200,1,99,9",,,"02,99,1,99,9,99,9,99999,9,99,9,99,9",,"10061,1,99999,9",,,,,"MET059METAR EDBC 240920Z 25016KT 220V280 9999 FEW040 21/12 Q1006;",
"10616499999","2010-08-24T09:50:00","4","51.854992","11.418889","180.0","COCHSTEDT, GM","FM-15","EDBC ","V020","260,1,N,0087,1","22000,1,9,N","011265,1,N,1","+0210,1","+0090,1","99999,9","02,5,+01350,1,99,9",,,"02,99,1,99,9,99,9,99999,9,99,9,99,9",,"10061,1,99999,9",,,,,"MET051METAR EDBC 240950Z 26017KT 9999 FEW045 21/09 Q1006;",
"10616499999","2010-08-24T10:20:00","4","51.854992","11.418889","180.0","COCHSTEDT, GM","FM-15","EDBC ","V020","260,1,N,0077,1","99999,9,9,Y","009900,1,N,1","+0210,1","+0090,1","99999,9",,,,,,"10071,1,99999,9",,,,,"MET045METAR EDBC 241020Z 26015KT CAVOK 21/09 Q1007;",
"10616499999","2010-08-24T10:50:00","4","51.854992","11.418889","180.0","COCHSTEDT, GM","FM-15","EDBC ","V020","260,1,N,0077,1","99999,9,9,Y","009900,1,N,1","+0210,1","+0090,1","99999,9",,,,,,"10071,1,99999,9",,,,,"MET045METAR EDBC 241050Z 26015KT CAVOK 21/09 Q1007;",
"10616499999","2010-08-24T11:20:00","4","51.854992","11.418889","180.0","COCHSTEDT, GM","FM-15","EDBC ","V020","250,1,N,0082,1","99999,9,9,Y","009900,1,N,1","+0210,1","+0090,1","99999,9",,,,,,"10071,1,99999,9",,,,,"MET045METAR EDBC 241120Z 25016KT CAVOK 21/09 Q1007;",
"10616499999","2010-08-24T11:50:00","4","51.854992","11.418889","180.0","COCHSTEDT, GM","FM-15","EDBC ","V020","270,1,N,0062,1","99999,9,9,Y","009900,1,N,1","+0200,1","+0100,1","99999,9",,,,,,"10071,1,99999,9",,,,,"MET045METAR EDBC 241150Z 27012KT CAVOK 20/10 Q1007;",
"10616499999","2010-08-24T12:20:00","4","51.854992","11.418889","180.0","COCHSTEDT, GM","FM-15","EDBC ","V020","260,1,N,0082,1","99999,9,9,Y","009900,1,N,1","+0210,1","+0080,1","99999,9",,,,,,"10071,1,99999,9",,,,,"MET045METAR EDBC 241220Z 26016KT CAVOK 21/08 Q1007;",
"10616499999","2010-08-24T12:50:00","4","51.854992","11.418889","180.0","COCHSTEDT, GM","FM-15","EDBC ","V020","260,1,N,0062,1","99999,9,9,Y","009900,1,N,1","+0210,1","+0090,1","99999,9",,,,,,"10071,1,99999,9",,,,,"MET045METAR EDBC 241250Z 26012KT CAVOK 21/09 Q1007;",
"10616499999","2010-08-24T13:20:00","4","51.854992","11.418889","180.0","COCHSTEDT, GM","FM-15","EDBC ","V020","260,1,N,0067,1","99999,9,9,Y","009900,1,N,1","+0210,1","+0090,1","99999,9",,,,,,"10071,1,99999,9",,,,,"MET053METAR EDBC 241320Z 26013KT 240V300 CAVOK 21/09 Q1007;",
"10616499999","2010-08-24T13:50:00","4","51.854992","11.418889","180.0","COCHSTEDT, GM","FM-15","EDBC ","V020","270,1,N,0062,1","99999,9,9,Y","009900,1,N,1","+0210,1","+0090,1","99999,9",,,,,,"10071,1,99999,9",,,,,"MET053METAR EDBC 241350Z 27012KT 240V300 CAVOK 21/09 Q1007;",
"10616499999","2010-08-24T14:20:00","4","51.854992","11.418889","180.0","COCHSTEDT, GM","FM-15","EDBC ","V020","280,1,N,0067,1","99999,9,9,Y","009900,1,N,1","+0210,1","+0090,1","99999,9",,,,,,"10071,1,99999,9",,,,,"MET053METAR EDBC 241420Z 28013KT 240V310 CAVOK 21/09 Q1007;",
"10616499999","2010-08-25T04:20:00","4","51.854992","11.418889","180.0","COCHSTEDT, GM","FM-15","EDBC ","V020","210,1,N,0036,1","99999,9,9,Y","009900,1,N,1","+0120,1","+0090,1","99999,9",,,,,,"10119,1,99999,9",,,,,"MET045METAR EDBC 250420Z 21007KT CAVOK 12/09 Q1012;",
"10616499999","2010-08-25T04:50:00","4","51.854992","11.418889","180.0","COCHSTEDT, GM","FM-15","EDBC ","V020","210,1,N,0046,1","22000,1,9,N","011265,1,N,1","+0130,1","+0090,1","99999,9","04,5,+01200,1,99,9",,,"04,99,1,99,9,99,9,99999,9,99,9,99,9",,"10119,1,99999,9",,,,,"MET051METAR EDBC 250450Z 21009KT 9999 SCT040 13/09 Q1012;",
"10616499999","2010-08-25T05:20:00","4","51.854992","11.418889","180.0","COCHSTEDT, GM","FM-15","EDBC ","V020","210,1,N,0041,1","99999,9,9,Y","009900,1,N,1","+0140,1","+0090,1","99999,9",,,,,,"10129,1,99999,9",,,,,"MET045METAR EDBC 250520Z 21008KT CAVOK 14/09 Q1013;",
"10616499999","2010-08-25T05:50:00","4","51.854992","11.418889","180.0","COCHSTEDT, GM","FM-15","EDBC ","V020","230,1,N,0067,1","22000,1,9,N","011265,1,N,1","+0140,1","+0090,1","99999,9","02,5,+01050,1,99,9",,,"02,99,1,99,9,99,9,99999,9,99,9,99,9",,"10129,1,99999,9",,,,,"MET051METAR EDBC 250550Z 23013KT 9999 FEW035 14/09 Q1013;",
"10616499999","2010-08-25T06:20:00","4","51.854992","11.418889","180.0","COCHSTEDT, GM","FM-15","EDBC ","V020","230,1,N,0072,1","99999,9,C,N","011265,1,N,1","+0150,1","+0100,1","99999,9","02,5,+01050,1,99,9","04,5,+02550,5,99,9",,"04,99,1,99,9,99,9,99999,9,99,9,99,9",,"10129,1,99999,9",,,,,"MET058METAR EDBC 250620Z 23014KT 9999 FEW035 SCT085 15/10 Q1013;","P01 025503SCOCIG"
"10616499999","2010-08-25T06:50:00","4","51.854992","11.418889","180.0","COCHSTEDT, GM","FM-15","EDBC ","V020","240,1,N,0082,1","99999,9,9,Y","009900,1,N,1","+0150,1","+0090,1","99999,9",,,,,,"10129,1,99999,9",,,,,"MET045METAR EDBC 250650Z 24016KT CAVOK 15/09 Q1013;",
"10616499999","2010-08-25T07:20:00","4","51.854992","11.418889","180.0","COCHSTEDT, GM","FM-15","EDBC ","V020","240,1,N,0077,1","99999,9,9,Y","009900,1,N,1","+0160,1","+0100,1","99999,9",,,,,,"10129,1,99999,9",,,,,"MET045METAR EDBC 250720Z 24015KT CAVOK 16/10 Q1013;",
"10616499999","2010-08-25T07:50:00","4","51.854992","11.418889","180.0","COCHSTEDT, GM","FM-15","EDBC ","V020","250,1,N,0093,1","99999,9,9,Y","009900,1,N,1","+0160,1","+0100,1","99999,9",,,,,,"10139,1,99999,9",,,,,"MET045METAR EDBC 250750Z 25018KT CAVOK 16/10 Q1014;",
"10616499999","2010-08-25T08:20:00","4","51.854992","11.418889","180.0","COCHSTEDT, GM","FM-15","EDBC ","V020","250,1,N,0082,1","02250,5,C,N","011265,1,N,1","+0160,1","+0100,1","99999,9","02,5,+01800,1,99,9","07,5,+02250,5,99,9",,"07,99,1,99,9,99,9,99999,9,99,9,99,9",,"10139,1,99999,9",,,,,"MET058METAR EDBC 250820Z 25016KT 9999 FEW060 BKN075 16/10 Q1014;",
"10616499999","2010-08-25T08:50:00","4","51.854992","11.418889","180.0","COCHSTEDT, GM","FM-15","EDBC ","V020","250,1,N,0082,1","22000,1,9,N","011265,1,N,1","+0160,1","+0100,1","99999,9","04,5,+01200,1,99,9",,,"04,99,1,99,9,99,9,99999,9,99,9,99,9",,"10149,1,99999,9",,,,,"MET051METAR EDBC 250850Z 25016KT 9999 SCT040 16/10 Q1015;",
"10616499999","2010-08-25T09:20:00","4","51.854992","11.418889","180.0","COCHSTEDT, GM","FM-15","EDBC ","V020","250,1,N,0098,1","99999,9,9,Y","009900,1,N,1","+0170,1","+0110,1","99999,9",,,,,,"10149,1,99999,9",,,,,"MET045METAR EDBC 250920Z 25019KT CAVOK 17/11 Q1015;",
"10616499999","2010-08-25T09:50:00","4","51.854992","11.418889","180.0","COCHSTEDT, GM","FM-15","EDBC ","V020","250,1,N,0087,1","99999,9,9,Y","009900,1,N,1","+0170,1","+0110,1","99999,9",,,,,,"10149,1,99999,9",,,,,"MET045METAR EDBC 250950Z 25017KT CAVOK 17/11 Q1015;",
"10616499999","2010-08-25T10:20:00","4","51.854992","11.418889","180.0","COCHSTEDT, GM","FM-15","EDBC ","V020","250,1,N,0087,1","99999,9,9,Y","009900,1,N,1","+0170,1","+0100,1","99999,9",,,,,,"10149,1,99999,9",,,,,"MET045METAR EDBC 251020Z 25017KT CAVOK 17/10 Q1015;",
"10616499999","2010-08-25T10:50:00","4","51.854992","11.418889","180.0","COCHSTEDT, GM","FM-15","EDBC ","V020","250,1,N,0087,1","02100,1,C,N","011265,1,N,1","+0170,1","+0100,1","99999,9","02,5,+00900,1,99,9","07,5,+02100,1,99,9",,"07,99,1,99,9,99,9,99999,9,99,9,99,9",,"10149,1,99999,9",,,,,"MET058METAR EDBC 251050Z 25017KT 9999 FEW030 BKN070 17/10 Q1015;",
"10616499999","2010-08-25T11:20:00","4","51.854992","11.418889","180.0","COCHSTEDT, GM","FM-15","EDBC ","V020","250,1,N,0072,1","01080,1,C,N","011265,1,N,1","+0170,1","+0100,1","99999,9","07,5,+01080,1,99,9",,,"07,99,1,99,9,99,9,99999,9,99,9,99,9",,"10149,1,99999,9",,,,,"MET051METAR EDBC 251120Z 25014KT 9999 BKN036 17/10 Q1015;",
"10616499999","2010-08-25T11:50:00","4","51.854992","11.418889","180.0","COCHSTEDT, GM","FM-15","EDBC ","V020","260,1,N,0082,1","02040,5,C,N","011265,1,N,1","+0180,1","+0110,1","99999,9","02,5,+00990,1,99,9","07,5,+02040,5,99,9",,"07,99,1,99,9,99,9,99999,9,99,9,99,9",,"10149,1,99999,9",,,,,"MET058METAR EDBC 251150Z 26016KT 9999 FEW033 BKN068 18/11 Q1015;",
"10616499999","2010-08-25T12:20:00","4","51.854992","11.418889","180.0","COCHSTEDT, GM","FM-15","EDBC ","V020","260,1,N,0098,1","01920,5,C,N","011265,1,N,1","+0190,1","+0090,1","99999,9","04,5,+01260,1,99,9","07,5,+01920,5,99,9",,"07,99,1,99,9,99,9,99999,9,99,9,99,9",,"10149,1,99999,9",,,,,"MET058METAR EDBC 251220Z 26019KT 9999 SCT042 BKN064 19/09 Q1015;",
"10616499999","2010-08-25T12:50:00","4","51.854992","11.418889","180.0","COCHSTEDT, GM","FM-15","EDBC ","V020","270,1,N,0077,1","01800,1,C,N","011265,1,N,1","+0180,1","+0090,1","99999,9","04,5,+01320,1,99,9","07,5,+01800,1,99,9",,"07,99,1,99,9,99,9,99999,9,99,9,99,9",,"10149,1,99999,9",,,,,"MET066METAR EDBC 251250Z 27015KT 250V310 9999 SCT044 BKN060 18/09 Q1015;",
"10616499999","2010-08-25T13:20:00","4","51.854992","11.418889","180.0","COCHSTEDT, GM","FM-15","EDBC ","V020","270,1,N,0067,1","01770,5,C,N","011265,1,N,1","+0180,1","+0100,1","99999,9","04,5,+01290,1,99,9","07,5,+01770,5,99,9",,"07,99,1,99,9,99,9,99999,9,99,9,99,9",,"10149,1,99999,9",,,,"0144,1","MET069METAR EDBC 251320Z 27013G28KT 200V310 9999 SCT043 BKN059 18/10 Q1015;",
"10616499999","2010-08-25T13:50:00","4","51.854992","11.418889","180.0","COCHSTEDT, GM","FM-15","EDBC ","V020","240,1,N,0067,1","02100,1,C,N","011265,1,N,1","+0190,1","+0090,1","99999,9","02,5,+01290,1,99,9","07,5,+02100,1,99,9",,"07,99,1,99,9,99,9,99999,9,99,9,99,9",,"10149,1,99999,9",,,,,"MET066METAR EDBC 251350Z 24013KT 220V280 9999 FEW043 BKN070 19/09 Q1015;",
"10616499999","2010-08-26T04:20:00","4","51.854992","11.418889","180.0","COCHSTEDT, GM","FM-15","EDBC ","V020","160,1,N,0021,1","00900,1,C,N","005000,1,N,1","+0130,1","+0120,1","99999,9","07,5,+00900,1,99,9",,,"07,99,1,99,9,99,9,99999,9,99,9,99,9",,"10119,1,99999,9","63,1",,,,"MET054METAR EDBC 260420Z 16004KT 5000 RA BKN030 13/12 Q1012;",
"10616499999","2010-08-26T04:50:00","4","51.854992","11.418889","180.0","COCHSTEDT, GM","FM-15","EDBC ","V020","170,1,N,0026,1","01650,5,C,N","006000,1,N,1","+0130,1","+0120,1","99999,9","07,5,+01650,5,99,9",,,"07,99,1,99,9,99,9,99999,9,99,9,99,9",,"10108,1,99999,9","63,1",,,,"MET054METAR EDBC 260450Z 17005KT 6000 RA BKN055 13/12 Q1011;",
"10616499999","2010-08-26T05:20:00","4","51.854992","11.418889","180.0","COCHSTEDT, GM","FM-15","EDBC ","V020","160,1,N,0026,1","01200,1,C,N","006000,1,N,1","+0130,1","+0130,1","99999,9","07,5,+01200,1,99,9",,,"07,99,1,99,9,99,9,99999,9,99,9,99,9",,"10108,1,99999,9","63,1",,,,"MET054METAR EDBC 260520Z 16005KT 6000 RA BKN040 13/13 Q1011;",
"10616499999","2010-08-26T05:50:00","4","51.854992","11.418889","180.0","COCHSTEDT, GM","FM-15","EDBC ","V020","160,1,N,0041,1","22000,1,9,N","006000,1,N,1","+0130,1","+0130,1","99999,9",,,,,,"10110,1,99999,9","63,1",,,,"MET055METAR EDBC 260550Z 16008KT 6000 RA BKN O35 13/13 Q1011;",
"10616499999","2010-08-26T06:20:00","4","51.854992","11.418889","180.0","COCHSTEDT, GM","FM-15","EDBC ","V020","150,1,N,0041,1","00960,1,C,N","008000,1,N,1","+0140,1","+0130,1","99999,9","07,5,+00960,1,99,9",,,"07,99,1,99,9,99,9,99999,9,99,9,99,9",,"10102,1,99999,9",,,,,"MET051METAR EDBC 260620Z 15008KT 8000 BKN032 14/13 Q1010;",
"10616499999","2010-08-26T06:50:00","4","51.854992","11.418889","180.0","COCHSTEDT, GM","FM-15","EDBC ","V020","150,1,N,0041,1","00900,1,C,N","008000,1,N,1","+0140,1","+0130,1","99999,9","07,5,+00900,1,99,9",,,"07,99,1,99,9,99,9,99999,9,99,9,99,9",,"10102,1,99999,9",,,,,"MET051METAR EDBC 260650Z 15008KT 8000 BKN030 14/13 Q1010;",
"10616499999","2010-08-26T07:20:00","4","51.854992","11.418889","180.0","COCHSTEDT, GM","FM-15","EDBC ","V020","150,1,N,0031,1","22000,1,9,N","008000,1,N,1","+0140,1","+0130,1","99999,9","04,5,+00300,1,99,9",,,"04,99,1,99,9,99,9,99999,9,99,9,99,9",,"10091,1,99999,9",,,,,"MET051METAR EDBC 260720Z 15006KT 8000 SCT010 14/13 Q1009;",
"10616499999","2010-08-26T07:50:00","4","51.854992","11.418889","180.0","COCHSTEDT, GM","FM-15","EDBC ","V020","999,9,V,0015,1","00300,1,C,N","004000,1,N,1","+0140,1","+0140,1","99999,9","07,5,+00300,1,99,9",,,"07,99,1,99,9,99,9,99999,9,99,9,99,9",,"10102,1,99999,9",,,,,"MET051METAR EDBC 260750Z VRB03KT 4000 BKN010 14/14 Q1010;",
"10616499999","2010-08-26T08:20:00","4","51.854992","11.418889","180.0","COCHSTEDT, GM","FM-15","EDBC ","V020","160,1,N,0051,1","00300,1,C,N","004000,1,N,1","+0140,1","+0140,1","99999,9","07,5,+00300,1,99,9",,,"07,99,1,99,9,99,9,99999,9,99,9,99,9",,"10091,1,99999,9",,,,,"MET051METAR EDBC 260820Z 16010KT 4000 BKN010 14/14 Q1009;",
"10616499999","2010-08-26T08:50:00","4","51.854992","11.418889","180.0","COCHSTEDT, GM","FM-15","EDBC ","V020","160,1,N,0041,1","22000,1,9,N","007000,1,N,1","+0150,1","+0150,1","99999,9","04,5,+00240,1,99,9",,,"04,99,1,99,9,99,9,99999,9,99,9,99,9",,"10091,1,99999,9",,,,,"MET051METAR EDBC 260850Z 16008KT 7000 SCT008 15/15 Q1009;",
"10616499999","2010-08-26T09:20:00","4","51.854992","11.418889","180.0","COCHSTEDT, GM","FM-15","EDBC ","V020","170,1,N,0036,1","99999,9,C,N","008000,1,N,1","+0160,1","+0150,1","99999,9","02,5,+00240,1,99,9","04,5,+00600,1,99,9",,"04,99,1,99,9,99,9,99999,9,99,9,99,9",,"10081,1,99999,9",,,,,"MET066METAR EDBC 260920Z 17007KT 140V200 8000 FEW008 SCT020 16/15 Q1008;","P01 006003SCOCIG"
"10616499999","2010-08-26T09:50:00","4","51.854992","11.418889","180.0","COCHSTEDT, GM","FM-15","EDBC ","V020","180,1,N,0036,1","00600,1,C,N","011265,1,N,1","+0160,1","+0150,1","99999,9","07,5,+00600,1,99,9",,,"07,99,1,99,9,99,9,99999,9,99,9,99,9",,"10081,1,99999,9",,,,,"MET051METAR EDBC 260950Z 18007KT 9999 BKN020 16/15 Q1008;",
"10616499999","2010-08-26T10:20:00","4","51.854992","11.418889","180.0","COCHSTEDT, GM","FM-15","EDBC ","V020","180,1,N,0026,1","00600,1,C,N","011265,1,N,1","+0160,1","+0150,1","99999,9","07,5,+00600,1,99,9",,,"07,99,1,99,9,99,9,99999,9,99,9,99,9",,"10081,1,99999,9","51,1","61,1",,,"MET057METAR EDBC 261020Z 18005KT 9999 -DZRA BKN020 16/15 Q1008;",
"10616499999","2010-08-26T10:50:00","4","51.854992","11.418889","180.0","COCHSTEDT, GM","FM-15","EDBC ","V020","999,9,V,0015,1","00600,1,C,N","006000,1,N,1","+0160,1","+0150,1","99999,9","02,5,+00150,1,99,9","07,5,+00600,1,99,9",,"07,99,1,99,9,99,9,99999,9,99,9,99,9",,"10081,1,99999,9","51,1","61,1",,,"MET064METAR EDBC 261050Z VRB03KT 6000 -DZRA FEW005 BKN020 16/15 Q1008;",
"10616499999","2010-08-26T11:20:00","4","51.854992","11.418889","180.0","COCHSTEDT, GM","FM-15","EDBC ","V020","999,9,V,0010,1","00390,1,C,N","003000,1,N,1","+0160,1","+0150,1","99999,9","04,5,+00150,1,99,9","07,5,+00390,1,99,9",,"07,99,1,99,9,99,9,99999,9,99,9,99,9",,"10081,1,99999,9","63,1",,,,"MET061METAR EDBC 261120Z VRB02KT 3000 RA SCT005 BKN013 16/15 Q1008;",
"10616499999","2010-08-26T11:50:00","4","51.854992","11.418889","180.0","COCHSTEDT, GM","FM-15","EDBC ","V020","999,9,V,0010,1","00450,1,C,N","006000,1,N,1","+0160,1","+0160,1","99999,9","02,5,+00060,1,99,9","07,5,+00450,1,99,9",,"07,99,1,99,9,99,9,99999,9,99,9,99,9",,"10081,1,99999,9","61,1",,,,"MET062METAR EDBC 261150Z VRB02KT 6000 -RA FEW002 BKN015 16/16 Q1008;",
"10616499999","2010-08-26T12:20:00","4","51.854992","11.418889","180.0","COCHSTEDT, GM","FM-15","EDBC ","V020","999,9,V,0010,1","00540,1,C,N","008000,1,N,1","+0160,1","+0160,1","99999,9","02,5,+00450,1,99,9","07,5,+00540,1,99,9",,"07,99,1,99,9,99,9,99999,9,99,9,99,9",,"10081,1,99999,9",,,,,"MET063METAR EDBC 261220Z VRB02KT 8000 FEW015 BKN018 16/16 Q1008 RERA;",
"10616499999","2010-08-26T12:50:00","4","51.854992","11.418889","180.0","COCHSTEDT, GM","FM-15","EDBC ","V020","120,1,N,0026,1","01530,5,C,N","009000,1,N,1","+0170,1","+0160,1","99999,9","04,5,+00690,1,99,9","07,5,+01530,5,99,9",,"07,99,1,99,9,99,9,99999,9,99,9,99,9",,"10081,1,99999,9",,,,,"MET058METAR EDBC 261250Z 12005KT 9000 SCT023 BKN051 17/16 Q1008;",
"10616499999","2010-08-26T13:20:00","4","51.854992","11.418889","180.0","COCHSTEDT, GM","FM-15","EDBC ","V020","080,1,N,0031,1","00750,1,C,N","005000,1,N,1","+0170,1","+0160,1","99999,9","07,5,+00750,1,99,9",,,"07,99,1,99,9,99,9,99999,9,99,9,99,9",,"10071,1,99999,9",,,,,"MET059METAR EDBC 261320Z 08006KT 040V100 5000 BKN025 17/16 Q1007;",
"10616499999","2010-08-26T13:50:00","4","51.854992","11.418889","180.0","COCHSTEDT, GM","FM-15","EDBC ","V020","999,9,V,0010,1","00750,1,C,N","011265,1,N,1","+0170,1","+0170,1","99999,9","02,5,+00240,1,99,9","07,5,+00750,1,99,9",,"07,99,1,99,9,99,9,99999,9,99,9,99,9",,"10081,1,99999,9",,,,,"MET058METAR EDBC 261350Z VRB02KT 9999 FEW008 BKN025 17/17 Q1008;",
"10616499999","2010-08-27T04:20:00","4","51.854992","11.418889","180.0","COCHSTEDT, GM","FM-15","EDBC ","V020","220,1,N,0057,1","01440,1,C,N","007000,1,N,1","+0180,1","+0170,1","99999,9","07,5,+01440,1,99,9",,,"07,99,1,99,9,99,9,99999,9,99,9,99,9",,"09990,1,99999,9",,,,,"MET051METAR EDBC 270420Z 22011KT 7000 BKN048 18/17 Q0999;",
"10616499999","2010-08-27T04:50:00","4","51.854992","11.418889","180.0","COCHSTEDT, GM","FM-15","EDBC ","V020","220,1,N,0051,1","01350,1,C,N","007000,1,N,1","+0180,1","+0170,1","99999,9","07,5,+01350,1,99,9",,,"07,99,1,99,9,99,9,99999,9,99,9,99,9",,"09990,1,99999,9",,,,,"MET051METAR EDBC 270450Z 22010KT 7000 BKN045 18/17 Q0999;",
"10616499999","2010-08-27T05:20:00","4","51.854992","11.418889","180.0","COCHSTEDT, GM","FM-15","EDBC ","V020","230,1,N,0041,1","00600,1,C,N","007000,1,N,1","+0180,1","+0170,1","99999,9","07,5,+00600,1,99,9",,,"07,99,1,99,9,99,9,99999,9,99,9,99,9",,"09980,1,99999,9","63,1",,,,"MET054METAR EDBC 270520Z 23008KT 7000 RA BKN020 18/17 Q0998;",
"10616499999","2010-08-27T05:50:00","4","51.854992","11.418889","180.0","COCHSTEDT, GM","FM-15","EDBC ","V020","290,1,N,0026,1","00600,1,C,N","006000,1,N,1","+0180,1","+0170,1","99999,9","02,5,+00210,1,99,9","07,5,+00600,1,99,9",,"07,99,1,99,9,99,9,99999,9,99,9,99,9",,"09980,1,99999,9","63,1",,,,"MET061METAR EDBC 270550Z 29005KT 6000 RA FEW007 BKN020 18/17 Q0998;",
"10616499999","2010-08-27T06:20:00","4","51.854992","11.418889","180.0","COCHSTEDT, GM","FM-15","EDBC ","V020","300,1,N,0057,1","00750,1,C,N","003000,1,N,1","+0170,1","+0170,1","99999,9","04,5,+00240,1,99,9","07,5,+00750,1,99,9",,"07,99,1,99,9,99,9,99999,9,99,9,99,9",,"09990,1,99999,9","65,1",,,,"MET062METAR EDBC 270620Z 30011KT 3000 +RA SCT008 BKN025 17/17 Q0999;",
"10616499999","2010-08-27T06:50:00","4","51.854992","11.418889","180.0","COCHSTEDT, GM","FM-15","EDBC ","V020","280,1,N,0046,1","01350,1,C,N","003000,1,N,1","+0170,1","+0170,1","99999,9","02,5,+00150,1,99,9","07,5,+01350,1,99,9",,"07,99,1,99,9,99,9,99999,9,99,9,99,9",,"09990,1,99999,9","61,1",,,,"MET062METAR EDBC 270650Z 28009KT 3000 -RA FEW005 BKN045 17/17 Q0999;",
"10616499999","2010-08-27T07:20:00","4","51.854992","11.418889","180.0","COCHSTEDT, GM","FM-15","EDBC ","V020","280,1,N,0031,1","01500,1,C,N","008000,1,N,1","+0170,1","+0170,1","99999,9","02,5,+00150,1,99,9","07,5,+01500,1,99,9",,"07,99,1,99,9,99,9,99999,9,99,9,99,9",,"09990,1,99999,9",,,,,"MET058METAR EDBC 270720Z 28006KT 8000 FEW005 BKN050 17/17 Q0999;",
"10616499999","2010-08-27T07:50:00","4","51.854992","11.418889","180.0","COCHSTEDT, GM","FM-15","EDBC ","V020","270,1,N,0036,1","22000,1,9,N","008000,1,N,1","+0180,1","+0170,1","99999,9","04,5,+00180,1,99,9",,,"04,99,1,99,9,99,9,99999,9,99,9,99,9",,"09990,1,99999,9","53,1","63,1",,,"MET056METAR EDBC 270750Z 27007KT 8000 DZRA SCT006 18/17 Q0999;",
"10616499999","2010-08-27T08:20:00","4","51.854992","11.418889","180.0","COCHSTEDT, GM","FM-15","EDBC ","V020","280,1,N,0041,1","00180,1,C,N","008000,1,N,1","+0180,1","+0170,1","99999,9","07,5,+00180,1,99,9",,,"07,99,1,99,9,99,9,99999,9,99,9,99,9",,"09990,1,99999,9",,,,,"MET051METAR EDBC 270820Z 28008KT 8000 BKN006 18/17 Q0999;",
"10616499999","2010-08-27T08:50:00","4","51.854992","11.418889","180.0","COCHSTEDT, GM","FM-15","EDBC ","V020","270,1,N,0036,1","00300,1,C,N","008000,1,N,1","+0180,1","+0170,1","99999,9","07,5,+00300,1,99,9",,,"07,99,1,99,9,99,9,99999,9,99,9,99,9",,"10000,1,99999,9",,,,,"MET051METAR EDBC 270850Z 27007KT 8000 BKN010 18/17 Q1000;",
"10616499999","2010-08-27T09:50:00","4","51.854992","11.418889","180.0","COCHSTEDT, GM","FM-15","EDBC ","V020","290,1,N,0051,1","01500,1,C,N","011265,1,N,1","+0190,1","+0180,1","99999,9","04,5,+00300,1,99,9","07,5,+01500,1,99,9",,"07,99,1,99,9,99,9,99999,9,99,9,99,9",,"10000,1,99999,9",,,,,"MET058METAR EDBC 270950Z 29010KT 9999 SCT010 BKN050 19/18 Q1000;",
"10616499999","2010-08-27T10:20:00","4","51.854992","11.418889","180.0","COCHSTEDT, GM","FM-15","EDBC ","V020","290,1,N,0072,1","01050,1,C,N","011265,1,N,1","+0190,1","+0170,1","99999,9","07,5,+01050,1,99,9",,,"07,99,1,99,9,99,9,99999,9,99,9,99,9",,"10000,1,99999,9",,,,,"MET051METAR EDBC 271020Z 29014KT 9999 BKN035 19/17 Q1000;",
"10616499999","2010-08-27T10:50:00","4","51.854992","11.418889","180.0","COCHSTEDT, GM","FM-15","EDBC ","V020","290,1,N,0067,1","01350,1,C,N","011265,1,N,1","+0190,1","+0170,1","99999,9","04,5,+00450,1,99,9","07,5,+01350,1,99,9",,"07,99,1,99,9,99,9,99999,9,99,9,99,9",,"10010,1,99999,9",,,,,"MET058METAR EDBC 271050Z 29013KT 9999 SCT015 BKN045 19/17 Q1001;",
"10616499999","2010-08-27T11:20:00","4","51.854992","11.418889","180.0","COCHSTEDT, GM","FM-15","EDBC ","V020","310,1,N,0046,1","01050,1,C,N","011265,1,N,1","+0190,1","+0170,1","99999,9","02,5,+00450,1,99,9","07,5,+01050,1,99,9",,"07,99,1,99,9,99,9,99999,9,99,9,99,9",,"10010,1,99999,9",,,,,"MET066METAR EDBC 271120Z 31009KT 270V340 9999 FEW015 BKN035 19/17 Q1001;",
"10616499999","2010-08-27T11:50:00","4","51.854992","11.418889","180.0","COCHSTEDT, GM","FM-15","EDBC ","V020","290,1,N,0057,1","00990,1,C,N","011265,1,N,1","+0200,1","+0170,1","99999,9","04,5,+00450,1,99,9","07,5,+00990,1,99,9",,"07,99,1,99,9,99,9,99999,9,99,9,99,9",,"10010,1,99999,9",,,,,"MET066METAR EDBC 271150Z 29011KT 260V320 9999 SCT015 BKN033 20/17 Q1001;",
"10616499999","2010-08-27T12:20:00","4","51.854992","11.418889","180.0","COCHSTEDT, GM","FM-15","EDBC ","V020","290,1,N,0036,1","00720,1,C,N","011265,1,N,1","+0190,1","+0160,1","99999,9","04,5,+00660,1,99,9","07,5,+00720,1,99,9",,"07,99,1,99,9,99,9,99999,9,99,9,99,9",,"10010,1,99999,9",,,,,"MET066METAR EDBC 271220Z 29007KT 260V320 9999 SCT022 BKN024 19/16 Q1001;",
"10616499999","2010-08-27T12:50:00","4","51.854992","11.418889","180.0","COCHSTEDT, GM","FM-15","EDBC ","V020","330,1,N,0031,1","01110,1,C,N","008000,1,N,1","+0190,1","+0170,1","99999,9","07,5,+01110,1,99,9",,,"07,99,1,99,9,99,9,99999,9,99,9,99,9",,"10010,1,99999,9","80,1",,,,"MET065METAR EDBC 271250Z 33006KT 300V360 8000 -SHRA BKN037 19/17 Q1001;",
"10616499999","2010-08-27T13:20:00","4","51.854992","11.418889","180.0","COCHSTEDT, GM","FM-15","EDBC ","V020","330,1,N,0036,1","01080,1,C,N","011265,1,N,1","+0180,1","+0170,1","99999,9","02,5,+00240,1,99,9","04,5,+01080,1,99,9","07,5,+01380,1,99,9","07,99,1,99,9,99,9,99999,9,99,9,99,9",,"10010,1,99999,9",,,,,"MET065METAR EDBC 271320Z 33007KT 9999 FEW008 SCT036 BKN046 18/17 Q1001;",
"10616499999","2010-08-27T13:50:00","4","51.854992","11.418889","180.0","COCHSTEDT, GM","FM-15","EDBC ","V020","320,1,N,0041,1","00660,1,C,N","011265,1,N,1","+0180,1","+0160,1","99999,9","02,5,+00240,1,99,9","04,5,+00660,1,99,9","07,5,+01020,1,99,9","07,99,1,99,9,99,9,99999,9,99,9,99,9",,"10010,1,99999,9",,,,,"MET065METAR EDBC 271350Z 32008KT 9999 FEW008 SCT022 BKN034 18/16 Q1001;",
"10616499999","2010-08-30T04:20:00","4","51.854992","11.418889","180.0","COCHSTEDT, GM","FM-15","EDBC ","V020","210,1,N,0031,1","99999,9,9,Y","009900,1,N,1","+0070,1","+0060,1","99999,9",,,,,,"10031,1,99999,9",,,,,"MET045METAR EDBC 300420Z 21006KT CAVOK 07/06 Q1003;",
"10616499999","2010-08-30T05:20:00","4","51.854992","11.418889","180.0","COCHSTEDT, GM","FM-15","EDBC ","V020","200,1,N,0021,1","99999,9,9,Y","009900,1,N,1","+0080,1","+0070,1","99999,9",,,,,,"10031,1,99999,9",,,,,"MET044METAR EDBC 300520Z 20004KTCAVOK 08/07 Q1003;",
"10616499999","2010-08-30T05:50:00","4","51.854992","11.418889","180.0","COCHSTEDT, GM","FM-15","EDBC ","V020","200,1,N,0021,1","22000,1,9,N","011265,1,N,1","+0090,1","+0070,1","99999,9","02,5,+01020,1,99,9",,,"02,99,1,99,9,99,9,99999,9,99,9,99,9",,"10031,1,99999,9",,,,,"MET051METAR EDBC 300550Z 20004KT 9999 FEW034 09/07 Q1003;",
"10616499999","2010-08-30T06:20:00","4","51.854992","11.418889","180.0","COCHSTEDT, GM","FM-15","EDBC ","V020","999,9,V,0015,1","22000,1,9,N","011265,1,N,1","+0100,1","+0080,1","99999,9","04,5,+01050,1,99,9",,,"04,99,1,99,9,99,9,99999,9,99,9,99,9",,"10041,1,99999,9",,,,,"MET051METAR EDBC 300620Z VRB03KT 9999 SCT035 10/08 Q1004;",
"10616499999","2010-08-30T06:50:00","4","51.854992","11.418889","180.0","COCHSTEDT, GM","FM-15","EDBC ","V020","999,9,V,0015,1","22000,1,9,N","011265,1,N,1","+0100,1","+0080,1","99999,9","04,5,+01050,1,99,9",,,"04,99,1,99,9,99,9,99999,9,99,9,99,9",,"10041,1,99999,9",,,,,"MET051METAR EDBC 300650Z VRB03KT 9999 SCT035 10/08 Q1004;",
"10616499999","2010-08-30T07:20:00","4","51.854992","11.418889","180.0","COCHSTEDT, GM","FM-15","EDBC ","V020","340,1,N,0026,1","01020,1,C,N","011265,1,N,1","+0100,1","+0080,1","99999,9","02,5,+00300,1,99,9","04,5,+01020,1,99,9","07,5,+01680,5,99,9","07,99,1,99,9,99,9,99999,9,99,9,99,9",,"10041,1,99999,9",,,,,"MET065METAR EDBC 300720Z 34005KT 9999 FEW010 SCT034 BKN056 10/08 Q1004;",
"10616499999","2010-08-30T07:50:00","4","51.854992","11.418889","180.0","COCHSTEDT, GM","FM-15","EDBC ","V020","330,1,N,0041,1","01140,1,C,N","011265,1,N,1","+0100,1","+0070,1","99999,9","07,5,+01140,1,99,9",,,"07,99,1,99,9,99,9,99999,9,99,9,99,9",,"10051,1,99999,9",,,,,"MET051METAR EDBC 300750Z 33008KT 9999 BKN038 10/07 Q1005;",
"10616499999","2010-08-30T08:20:00","4","51.854992","11.418889","180.0","COCHSTEDT, GM","FM-15","EDBC ","V020","330,1,N,0036,1","01800,1,C,N","011265,1,N,1","+0100,1","+0080,1","99999,9","04,5,+00540,1,99,9","07,5,+01800,1,99,9",,"07,99,1,99,9,99,9,99999,9,99,9,99,9",,"10051,1,99999,9",,,,,"MET058METAR EDBC 300820Z 33007KT 9999 SCT018 BKN060 10/08 Q1005;",
"10616499999","2010-08-30T08:50:00","4","51.854992","11.418889","180.0","COCHSTEDT, GM","FM-15","EDBC ","V020","320,1,N,0041,1","01440,1,C,N","011265,1,N,1","+0110,1","+0070,1","99999,9","02,5,+00480,1,99,9","07,5,+01440,1,99,9",,"07,99,1,99,9,99,9,99999,9,99,9,99,9",,"10061,1,99999,9",,,,,"MET058METAR EDBC 300850Z 32008KT 9999 FEW016 BKN048 11/07 Q1006;",
"10616499999","2010-08-30T09:20:00","4","51.854992","11.418889","180.0","COCHSTEDT, GM","FM-15","EDBC ","V020","330,1,N,0041,1","00840,1,C,N","011265,1,N,1","+0120,1","+0080,1","99999,9","07,5,+00840,1,99,9",,,"07,99,1,99,9,99,9,99999,9,99,9,99,9",,"10061,1,99999,9",,,,,"MET051METAR EDBC 300920Z 33008KT 9999 BKN028 12/08 Q1006;",
"10616499999","2010-08-30T09:50:00","4","51.854992","11.418889","180.0","COCHSTEDT, GM","FM-15","EDBC ","V020","300,1,N,0041,1","00660,1,C,N","011265,1,N,1","+0130,1","+0070,1","99999,9","07,5,+00660,1,99,9",,,"07,99,1,99,9,99,9,99999,9,99,9,99,9",,"10061,1,99999,9",,,,,"MET051METAR EDBC 300950Z 30008KT 9999 BKN022 13/07 Q1006;",
"10616499999","2010-08-30T10:20:00","4","51.854992","11.418889","180.0","COCHSTEDT, GM","FM-15","EDBC ","V020","330,1,N,0051,1","00840,1,C,N","011265,1,N,1","+0120,1","+0080,1","99999,9","07,5,+00840,1,99,9",,,"07,99,1,99,9,99,9,99999,9,99,9,99,9",,"10071,1,99999,9",,,,,"MET051METAR EDBC 301020Z 33010KT 9999 BKN028 12/08 Q1007;",
"10616499999","2010-08-30T10:50:00","4","51.854992","11.418889","180.0","COCHSTEDT, GM","FM-15","EDBC ","V020","310,1,N,0072,1","01350,1,C,N","011265,1,N,1","+0120,1","+0070,1","99999,9","07,5,+01350,1,99,9",,,"07,99,1,99,9,99,9,99999,9,99,9,99,9",,"10071,1,99999,9",,,,,"MET051METAR EDBC 301050Z 31014KT 9999 BKN045 12/07 Q1007;",
"10616499999","2010-08-30T11:20:00","4","51.854992","11.418889","180.0","COCHSTEDT, GM","FM-15","EDBC ","V020","310,1,N,0067,1","01260,1,C,N","011265,1,N,1","+0100,1","+0090,1","99999,9","04,5,+00270,1,99,9","07,5,+01260,1,99,9",,"07,99,1,99,9,99,9,99999,9,99,9,99,9",,"10071,1,99999,9",,,,,"MET058METAR EDBC 301120Z 31013KT 9999 SCT009 BKN042 10/09 Q1007;",
"10616499999","2010-08-30T11:50:00","4","51.854992","11.418889","180.0","COCHSTEDT, GM","FM-15","EDBC ","V020","300,1,N,0057,1","01350,1,C,N","008000,1,N,1","+0110,1","+0090,1","99999,9","04,5,+00300,1,99,9","07,5,+01350,1,99,9",,"07,99,1,99,9,99,9,99999,9,99,9,99,9",,"10081,1,99999,9",,,,,"MET066METAR EDBC 301150Z 30011KT 270V330 8000 SCT010 BKN045 11/09 Q1008;",
"10616499999","2010-08-30T12:50:00","4","51.854992","11.418889","180.0","COCHSTEDT, GM","FM-15","EDBC ","V020","300,1,N,0062,1","00750,1,C,N","004000,1,N,1","+0100,1","+0090,1","99999,9","04,5,+00180,1,99,9","07,5,+00750,1,99,9",,"07,99,1,99,9,99,9,99999,9,99,9,99,9",,"10081,1,99999,9",,,,,"MET058METAR EDBC 301250Z 30012KT 4000 SCT006 BKN025 10/09 Q1008;",
"10616499999","2010-08-30T13:20:00","4","51.854992","11.418889","180.0","COCHSTEDT, GM","FM-15","EDBC ","V020","290,1,N,0057,1","00900,1,C,N","004000,1,N,1","+0100,1","+0090,1","99999,9","04,5,+00180,1,99,9","07,5,+00900,1,99,9",,"07,99,1,99,9,99,9,99999,9,99,9,99,9",,"10081,1,99999,9","61,1",,,,"MET062METAR EDBC 301320Z 29011KT 4000 -RA SCT006 BKN030 10/09 Q1008;",
"10616499999","2010-08-30T13:50:00","4","51.854992","11.418889","180.0","COCHSTEDT, GM","FM-15","EDBC ","V020","290,1,N,0067,1","00750,1,C,N","005000,1,N,1","+0100,1","+0100,1","99999,9","04,5,+00180,1,99,9","07,5,+00750,1,99,9",,"07,99,1,99,9,99,9,99999,9,99,9,99,9",,"10081,1,99999,9","61,1",,,,"MET062METAR EDBC 301350Z 29013KT 5000 -RA SCT006 BKN025 10/10 Q1008;",
"10616499999","2010-08-31T04:20:00","4","51.854992","11.418889","180.0","COCHSTEDT, GM","FM-15","EDBC ","V020","330,1,N,0057,1","00150,1,C,N","006000,1,N,1","+0100,1","+0100,1","99999,9","07,5,+00150,1,99,9",,,"07,99,1,99,9,99,9,99999,9,99,9,99,9",,"10169,1,99999,9",,,,,"MET051METAR EDBC 310420Z 33011KT 6000 BKN005 10/10 Q1017;",
"10616499999","2010-08-31T04:50:00","4","51.854992","11.418889","180.0","COCHSTEDT, GM","FM-15","EDBC ","V020","320,1,N,0057,1","00150,1,C,N","005000,1,N,1","+0100,1","+0100,1","99999,9","04,5,+00120,1,99,9","07,5,+00150,1,99,9",,"07,99,1,99,9,99,9,99999,9,99,9,99,9",,"10169,1,99999,9","10,1",,,,"MET061METAR EDBC 310450Z 32011KT 5000 BR SCT004 BKN005 10/10 Q1017;",
"10616499999","2010-08-31T05:20:00","4","51.854992","11.418889","180.0","COCHSTEDT, GM","FM-15","EDBC ","V020","320,1,N,0051,1","00120,1,C,N","006000,1,N,1","+0100,1","+0100,1","99999,9","02,5,+00090,1,99,9","07,5,+00120,1,99,9",,"07,99,1,99,9,99,9,99999,9,99,9,99,9",,"10180,1,99999,9",,,,,"MET058METAR EDBC 310520Z 32010KT 6000 FEW003 BKN004 10/10 Q1018;",
"10616499999","2010-08-31T05:50:00","4","51.854992","11.418889","180.0","COCHSTEDT, GM","FM-15","EDBC ","V020","320,1,N,0051,1","00090,1,C,N","004000,1,N,1","+0100,1","+0100,1","99999,9","02,5,+00060,1,99,9","07,5,+00090,1,99,9",,"07,99,1,99,9,99,9,99999,9,99,9,99,9",,"10180,1,99999,9","10,1",,,,"MET061METAR EDBC 310550Z 32010KT 4000 BR FEW002 BKN003 10/10 Q1018;",
"10616499999","2010-08-31T06:20:00","4","51.854992","11.418889","180.0","COCHSTEDT, GM","FM-15","EDBC ","V020","320,1,N,0057,1","00090,1,C,N","004000,1,N,1","+0110,1","+0110,1","99999,9","04,5,+00060,1,99,9","07,5,+00090,1,99,9",,"07,99,1,99,9,99,9,99999,9,99,9,99,9",,"10180,1,99999,9","10,1",,,,"MET061METAR EDBC 310620Z 32011KT 4000 BR SCT002 BKN003 11/11 Q1018;",
"10616499999","2010-08-31T06:50:00","4","51.854992","11.418889","180.0","COCHSTEDT, GM","FM-15","EDBC ","V020","310,1,N,0057,1","00120,1,C,N","006000,1,N,1","+0110,1","+0110,1","99999,9","07,5,+00120,1,99,9",,,"07,99,1,99,9,99,9,99999,9,99,9,99,9",,"10180,1,99999,9",,,,,"MET051METAR EDBC 310650Z 31011KT 6000 BKN004 11/11 Q1018;",
"10616499999","2010-08-31T07:20:00","4","51.854992","11.418889","180.0","COCHSTEDT, GM","FM-15","EDBC ","V020","320,1,N,0046,1","00150,1,C,N","011265,1,N,1","+0110,1","+0110,1","99999,9","07,5,+00150,1,99,9",,,"07,99,1,99,9,99,9,99999,9,99,9,99,9",,"10190,1,99999,9",,,,,"MET051METAR EDBC 310720Z 32009KT 9999 BKN005 11/11 Q1019;",
"10616499999","2010-08-31T07:50:00","4","51.854992","11.418889","180.0","COCHSTEDT, GM","FM-15","EDBC ","V020","310,1,N,0051,1","00240,1,C,N","011265,1,N,1","+0120,1","+0110,1","99999,9","07,5,+00240,1,99,9",,,"07,99,1,99,9,99,9,99999,9,99,9,99,9",,"10190,1,99999,9",,,,,"MET051METAR EDBC 310750Z 31010KT 9999 BKN008 12/11 Q1019;",
"10616499999","2010-08-31T08:20:00","4","51.854992","11.418889","180.0","COCHSTEDT, GM","FM-15","EDBC ","V020","320,1,N,0057,1","00360,1,C,N","011265,1,N,1","+0120,1","+0110,1","99999,9","07,5,+00360,1,99,9",,,"07,99,1,99,9,99,9,99999,9,99,9,99,9",,"10190,1,99999,9",,,,,"MET051METAR EDBC 310820Z 32011KT 9999 BKN012 12/11 Q1019;",
"10616499999","2010-08-31T08:50:00","4","51.854992","11.418889","180.0","COCHSTEDT, GM","FM-15","EDBC ","V020","320,1,N,0051,1","00450,1,C,N","011265,1,N,1","+0120,1","+0110,1","99999,9","02,5,+00390,1,99,9","07,5,+00450,1,99,9",,"07,99,1,99,9,99,9,99999,9,99,9,99,9",,"10190,1,99999,9",,,,,"MET058METAR EDBC 310850Z 32010KT 9999 FEW013 BKN015 12/11 Q1019;",
"10616499999","2010-08-31T09:20:00","4","51.854992","11.418889","180.0","COCHSTEDT, GM","FM-15","EDBC ","V020","330,1,N,0051,1","00750,1,C,N","011265,1,N,1","+0140,1","+0110,1","99999,9","04,5,+00300,1,99,9","07,5,+00750,1,99,9",,"07,99,1,99,9,99,9,99999,9,99,9,99,9",,"10190,1,99999,9",,,,,"MET058METAR EDBC 310920Z 33010KT 9999 SCT010 BKN025 14/11 Q1019;",
"10616499999","2010-08-31T09:50:00","4","51.854992","11.418889","180.0","COCHSTEDT, GM","FM-15","EDBC ","V020","320,1,N,0062,1","00750,1,C,N","011265,1,N,1","+0140,1","+0110,1","99999,9","02,5,+00480,1,99,9","07,5,+00750,1,99,9",,"07,99,1,99,9,99,9,99999,9,99,9,99,9",,"10200,1,99999,9",,,,,"MET058METAR EDBC 310950Z 32012KT 9999 FEW016 BKN025 14/11 Q1020;",
"10616499999","2010-08-31T10:20:00","4","51.854992","11.418889","180.0","COCHSTEDT, GM","FM-15","EDBC ","V020","320,1,N,0057,1","22000,1,9,N","011265,1,N,1","+0150,1","+0110,1","99999,9","04,5,+00720,1,99,9",,,"04,99,1,99,9,99,9,99999,9,99,9,99,9",,"10190,1,99999,9",,,,,"MET051METAR EDBC 311020Z 32011KT 9999 SCT024 15/11 Q1019;",
"10616499999","2010-08-31T10:50:00","4","51.854992","11.418889","180.0","COCHSTEDT, GM","FM-15","EDBC ","V020","320,1,N,0072,1","22000,1,9,N","011265,1,N,1","+0150,1","+0100,1","99999,9","04,5,+00990,1,99,9",,,"04,99,1,99,9,99,9,99999,9,99,9,99,9",,"10190,1,99999,9",,,,,"MET051METAR EDBC 311050Z 32014KT 9999 SCT033 15/10 Q1019;",
"10616499999","2010-08-31T11:20:00","4","51.854992","11.418889","180.0","COCHSTEDT, GM","FM-15","EDBC ","V020","330,1,N,0077,1","99999,9,9,Y","009900,1,N,1","+0160,1","+0080,1","99999,9",,,,,,"10190,1,99999,9",,,,,"MET045METAR EDBC 311120Z 33015KT CAVOK 16/08 Q1019;",
"10616499999","2010-08-31T11:50:00","4","51.854992","11.418889","180.0","COCHSTEDT, GM","FM-15","EDBC ","V020","320,1,N,0067,1","99999,9,9,Y","009900,1,N,1","+0170,1","+0090,1","99999,9",,,,,,"10190,1,99999,9",,,,,"MET045METAR EDBC 311150Z 32013KT CAVOK 17/09 Q1019;",
"10616499999","2010-08-31T12:20:00","4","51.854992","11.418889","180.0","COCHSTEDT, GM","FM-15","EDBC ","V020","330,1,N,0072,1","99999,9,9,Y","009900,1,N,1","+0170,1","+0070,1","99999,9",,,,,,"10190,1,99999,9",,,,,"MET053METAR EDBC 311220Z 33014KT 300V010 CAVOK 17/07 Q1019;",
"10616499999","2010-08-31T12:50:00","4","51.854992","11.418889","180.0","COCHSTEDT, GM","FM-15","EDBC ","V020","330,1,N,0072,1","99999,9,9,Y","009900,1,N,1","+0180,1","+0070,1","99999,9",,,,,,"10190,1,99999,9",,,,,"MET053METAR EDBC 311250Z 33014KT 290V010 CAVOK 18/07 Q1019;",
"10616499999","2010-08-31T13:20:00","4","51.854992","11.418889","180.0","COCHSTEDT, GM","FM-15","EDBC ","V020","320,1,N,0077,1","99999,9,9,Y","009900,1,N,1","+0170,1","+0050,1","99999,9",,,,,,"10190,1,99999,9",,,,,"MET053METAR EDBC 311320Z 32015KT 280V350 CAVOK 17/05 Q1019;",
"10616499999","2010-08-31T13:50:00","4","51.854992","11.418889","180.0","COCHSTEDT, GM","FM-15","EDBC ","V020","310,1,N,0072,1","99999,9,9,Y","009900,1,N,1","+0170,1","+0070,1","99999,9",,,,,,"10190,1,99999,9",,,,,"MET053METAR EDBC 311350Z 31014KT 270V350 CAVOK 17/07 Q1019;",
"10616499999","2010-09-01T03:50:00","4","51.854992","11.418889","180.0","COCHSTEDT, GM","FM-15","EDBC ","V020","300,1,N,0041,1","00120,1,C,N","006000,1,N,1","+0110,1","+0110,1","99999,9","07,5,+00120,1,99,9",,,"07,99,1,99,9,99,9,99999,9,99,9,99,9",,"10180,1,99999,9",,,,,"MET051METAR EDBC 010350Z 30008KT 6000 BKN004 11/11 Q1018;",
"10616499999","2010-09-01T04:20:00","4","51.854992","11.418889","180.0","COCHSTEDT, GM","FM-15","EDBC ","V020","300,1,N,0057,1","00090,1,C,N","005000,1,N,1","+0110,1","+0110,1","99999,9","07,5,+00090,1,99,9",,,"07,99,1,99,9,99,9,99999,9,99,9,99,9",,"10180,1,99999,9","10,1",,,,"MET054METAR EDBC 010420Z 30011KT 5000 BR BKN003 11/11 Q1018;",
"10616499999","2010-09-01T04:50:00","4","51.854992","11.418889","180.0","COCHSTEDT, GM","FM-15","EDBC ","V020","300,1,N,0046,1","00060,1,C,N","003000,1,N,1","+0110,1","+0110,1","99999,9","07,5,+00060,1,99,9",,,"07,99,1,99,9,99,9,99999,9,99,9,99,9",,"10180,1,99999,9","10,1","53,1",,,"MET057METAR EDBC 010450Z 30009KT 3000 DZ BR BKN002 11/11 Q1018;",
"10616499999","2010-09-01T05:20:00","4","51.854992","11.418889","180.0","COCHSTEDT, GM","FM-15","EDBC ","V020","310,1,N,0046,1","00090,1,C,N","004000,1,N,1","+0110,1","+0110,1","99999,9","07,5,+00090,1,99,9",,,"07,99,1,99,9,99,9,99999,9,99,9,99,9",,"10180,1,99999,9","10,1","53,1",,,"MET056METAR EDBC 010520Z 31009KT4000 DZ BR BKN003 11/11 Q1018;",
"10616499999","2010-09-01T05:50:00","4","51.854992","11.418889","180.0","COCHSTEDT, GM","FM-15","EDBC ","V020","310,1,N,0041,1","00060,1,C,N","003000,1,N,1","+0110,1","+0110,1","99999,9","07,5,+00060,1,99,9",,,"07,99,1,99,9,99,9,99999,9,99,9,99,9",,"10180,1,99999,9","10,1",,,,"MET059METAR EDBC 010550Z 31008KT 3000 BR BKN002 11/11 Q1018 REDZ;",
"10616499999","2010-09-01T06:20:00","4","51.854992","11.418889","180.0","COCHSTEDT, GM","FM-15","EDBC ","V020","320,1,N,0041,1","00120,1,C,N","005000,1,N,1","+0110,1","+0110,1","99999,9","07,5,+00120,1,99,9","08,5,+00180,1,99,9",,"08,99,1,99,9,99,9,99999,9,99,9,99,9",,"10180,1,99999,9","10,1",,,,"MET061METAR EDBC 010620Z 32008KT 5000 BR BKN004 OVC006 11/11 Q1018;",
"10616499999","2010-09-01T06:50:00","4","51.854992","11.418889","180.0","COCHSTEDT, GM","FM-15","EDBC ","V020","320,1,N,0046,1","00120,1,C,N","005000,1,N,1","+0120,1","+0110,1","99999,9","07,5,+00120,1,99,9","07,5,+00300,1,99,9",,"07,99,1,99,9,99,9,99999,9,99,9,99,9",,"10180,1,99999,9","10,1",,,,"MET061METAR EDBC 010650Z 32009KT 5000 BR BKN004 BKN010 12/11 Q1018;",
"10616499999","2010-09-01T07:20:00","4","51.854992","11.418889","180.0","COCHSTEDT, GM","FM-15","EDBC ","V020","320,1,N,0046,1","00300,1,C,N","011265,1,N,1","+0120,1","+0110,1","99999,9","07,5,+00300,1,99,9","07,5,+00420,1,99,9",,"07,99,1,99,9,99,9,99999,9,99,9,99,9",,"10180,1,99999,9",,,,,"MET058METAR EDBC 010720Z 32009KT 9999 BKN010 BKN014 12/11 Q1018;",
"10616499999","2010-09-01T07:50:00","4","51.854992","11.418889","180.0","COCHSTEDT, GM","FM-15","EDBC ","V020","320,1,N,0046,1","00300,1,C,N","011265,1,N,1","+0130,1","+0110,1","99999,9","07,5,+00300,1,99,9",,,"07,99,1,99,9,99,9,99999,9,99,9,99,9",,"10180,1,99999,9",,,,,"MET059METAR EDBC 010750Z 32009KT 300V360 9999 BKN010 13/11 Q1018;",
"10616499999","2010-09-01T08:20:00","4","51.854992","11.418889","180.0","COCHSTEDT, GM","FM-15","EDBC ","V020","330,1,N,0046,1","99999,9,C,N","011265,1,N,1","+0140,1","+0110,1","99999,9","04,5,+00390,1,99,9","04,5,+01050,1,99,9",,"04,99,1,99,9,99,9,99999,9,99,9,99,9",,"10180,1,99999,9",,,,,"MET066METAR EDBC 010820Z 33009KT 300V360 9999 SCT013 SCT035 14/11 Q1018;","P01 010503SCOCIG"
"10616499999","2010-09-01T08:50:00","4","51.854992","11.418889","180.0","COCHSTEDT, GM","FM-15","EDBC ","V020","320,1,N,0046,1","00750,1,C,N","011265,1,N,1","+0140,1","+0110,1","99999,9","04,5,+00510,1,99,9","07,5,+00750,1,99,9",,"07,99,1,99,9,99,9,99999,9,99,9,99,9",,"10180,1,99999,9",,,,,"MET066METAR EDBC 010850Z 32009KT 290V350 9999 SCT017 BKN025 14/11 Q1018;",
"10616499999","2010-09-01T09:20:00","4","51.854992","11.418889","180.0","COCHSTEDT, GM","FM-15","EDBC ","V020","310,1,N,0046,1","01050,1,C,N","011265,1,N,1","+0150,1","+0110,1","99999,9","04,5,+00510,1,99,9","07,5,+01050,1,99,9",,"07,99,1,99,9,99,9,99999,9,99,9,99,9",,"10180,1,99999,9",,,,,"MET058METAR EDBC 010920Z 31009KT 9999 SCT017 BKN035 15/11 Q1018;",
"10616499999","2010-09-01T09:50:00","4","51.854992","11.418889","180.0","COCHSTEDT, GM","FM-15","EDBC ","V020","310,1,N,0051,1","00900,1,C,N","011265,1,N,1","+0150,1","+0110,1","99999,9","07,5,+00900,1,99,9",,,"07,99,1,99,9,99,9,99999,9,99,9,99,9",,"10180,1,99999,9",,,,,"MET059METAR EDBC 010950Z 31010KT 280V340 9999 BKN030 15/11 Q1018;",
"10616499999","2010-09-01T10:20:00","4","51.854992","11.418889","180.0","COCHSTEDT, GM","FM-15","EDBC ","V020","300,1,N,0057,1","01470,1,C,N","011265,1,N,1","+0150,1","+0110,1","99999,9","04,5,+00690,1,99,9","07,5,+01470,1,99,9",,"07,99,1,99,9,99,9,99999,9,99,9,99,9",,"10180,1,99999,9",,,,,"MET058METAR EDBC 011020Z 30011KT 9999 SCT023 BKN049 15/11 Q1018;",
"10616499999","2010-09-01T10:50:00","4","51.854992","11.418889","180.0","COCHSTEDT, GM","FM-15","EDBC ","V020","300,1,N,0062,1","01440,1,C,N","011265,1,N,1","+0150,1","+0110,1","99999,9","04,5,+00480,1,99,9","07,5,+01440,1,99,9",,"07,99,1,99,9,99,9,99999,9,99,9,99,9",,"10180,1,99999,9",,,,,"MET058METAR EDBC 011050Z 30012KT 9999 SCT016 BKN048 15/11 Q1018;",
"10616499999","2010-09-01T11:20:00","4","51.854992","11.418889","180.0","COCHSTEDT, GM","FM-15","EDBC ","V020","300,1,N,0051,1","01590,5,C,N","011265,1,N,1","+0170,1","+0120,1","99999,9","04,5,+00750,1,99,9","07,5,+01590,5,99,9",,"07,99,1,99,9,99,9,99999,9,99,9,99,9",,"10180,1,99999,9",,,,,"MET066METAR EDBC 011120Z 30010KT 270V330 9999 SCT025 BKN053 17/12 Q1018;",
"10616499999","2010-09-01T11:50:00","4","51.854992","11.418889","180.0","COCHSTEDT, GM","FM-15","EDBC ","V020","300,1,N,0057,1","01350,1,C,N","011265,1,N,1","+0170,1","+0110,1","99999,9","04,5,+00750,1,99,9","07,5,+01350,1,99,9",,"07,99,1,99,9,99,9,99999,9,99,9,99,9",,"10180,1,99999,9",,,,,"MET058METAR EDBC 011150Z 30011KT 9999 SCT025 BKN045 17/11 Q1018;",
"10616499999","2010-09-01T12:20:00","4","51.854992","11.418889","180.0","COCHSTEDT, GM","FM-15","EDBC ","V020","300,1,N,0057,1","01350,1,C,N","011265,1,N,1","+0150,1","+0100,1","99999,9","04,5,+00750,1,99,9","07,5,+01350,1,99,9",,"07,99,1,99,9,99,9,99999,9,99,9,99,9",,"10180,1,99999,9",,,,,"MET066METAR EDBC 011220Z 30011KT 270V330 9999 SCT025 BKN045 15/10 Q1018;",
"10616499999","2010-09-01T12:50:00","4","51.854992","11.418889","180.0","COCHSTEDT, GM","FM-15","EDBC ","V020","320,1,N,0046,1","01650,5,C,N","011265,1,N,1","+0160,1","+0110,1","99999,9","04,5,+00750,1,99,9","07,5,+01650,5,99,9",,"07,99,1,99,9,99,9,99999,9,99,9,99,9",,"10180,1,99999,9",,,,,"MET066METAR EDBC 011250Z 32009KT 280V350 9999 SCT025 BKN055 16/11 Q1018;",
"10616499999","2010-09-01T13:20:00","4","51.854992","11.418889","180.0","COCHSTEDT, GM","FM-15","EDBC ","V020","300,1,N,0051,1","01650,5,C,N","011265,1,N,1","+0160,1","+0100,1","99999,9","04,5,+00900,1,99,9","07,5,+01650,5,99,9",,"07,99,1,99,9,99,9,99999,9,99,9,99,9",,"10180,1,99999,9",,,,,"MET058METAR EDBC 011320Z 30010KT 9999 SCT030 BKN055 16/10 Q1018;",
"10616499999","2010-09-01T13:50:00","4","51.854992","11.418889","180.0","COCHSTEDT, GM","FM-15","EDBC ","V020","310,1,N,0046,1","01650,5,C,N","011265,1,N,1","+0150,1","+0110,1","99999,9","04,5,+00750,1,99,9","07,5,+01650,5,99,9",,"07,99,1,99,9,99,9,99999,9,99,9,99,9",,"10180,1,99999,9","63,1",,,,"MET061METAR EDBC 011350Z 31009KT 9999 RA SCT025 BKN055 15/11 Q1018;",
"10616499999","2010-09-02T04:20:00","4","51.854992","11.418889","180.0","COCHSTEDT, GM","FM-15","EDBC ","V020","290,1,N,0046,1","01560,5,C,N","011265,1,N,1","+0120,1","+0120,1","99999,9","02,5,+00180,1,99,9","07,5,+01560,5,99,9",,"07,99,1,99,9,99,9,99999,9,99,9,99,9",,"10169,1,99999,9",,,,,"MET058METAR EDBC 020420Z 29009KT 9999 FEW006 BKN052 12/12 Q1017;",
"10616499999","2010-09-02T04:50:00","4","51.854992","11.418889","180.0","COCHSTEDT, GM","FM-15","EDBC ","V020","290,1,N,0046,1","01560,5,C,N","011265,1,N,1","+0120,1","+0110,1","99999,9","02,5,+00240,1,99,9","07,5,+01560,5,99,9",,"07,99,1,99,9,99,9,99999,9,99,9,99,9",,"10169,1,99999,9",,,,,"MET058METAR EDBC 020450Z 29009KT 9999 FEW008 BKN052 12/11 Q1017;",
"10616499999","2010-09-02T05:20:00","4","51.854992","11.418889","180.0","COCHSTEDT, GM","FM-15","EDBC ","V020","290,1,N,0046,1","01620,5,C,N","011265,1,N,1","+0120,1","+0110,1","99999,9","02,5,+00180,1,99,9","07,5,+01620,5,99,9",,"07,99,1,99,9,99,9,99999,9,99,9,99,9",,"10169,1,99999,9",,,,,"MET058METAR EDBC 020520Z 29009KT 9999 FEW006 BKN054 12/11 Q1017;",
"10616499999","2010-09-02T05:50:00","4","51.854992","11.418889","180.0","COCHSTEDT, GM","FM-15","EDBC ","V020","290,1,N,0041,1","01620,5,C,N","011265,1,N,1","+0130,1","+0120,1","99999,9","02,5,+00240,1,99,9","07,5,+01620,5,99,9",,"07,99,1,99,9,99,9,99999,9,99,9,99,9",,"10169,1,99999,9",,,,,"MET058METAR EDBC 020550Z 29008KT 9999 FEW008 BKN054 13/12 Q1017;",
"10616499999","2010-09-02T06:20:00","4","51.854992","11.418889","180.0","COCHSTEDT, GM","FM-15","EDBC ","V020","290,1,N,0041,1","99999,9,9,Y","009900,1,N,1","+0130,1","+0120,1","99999,9",,,,,,"10169,1,99999,9",,,,,"MET045METAR EDBC 020620Z 29008KT CAVOK 13/12 Q1017;",
"10616499999","2010-09-02T06:50:00","4","51.854992","11.418889","180.0","COCHSTEDT, GM","FM-15","EDBC ","V020","300,1,N,0041,1","01200,1,C,N","008000,1,N,1","+0130,1","+0120,1","99999,9","04,5,+00240,1,99,9","07,5,+01200,1,99,9",,"07,99,1,99,9,99,9,99999,9,99,9,99,9",,"10180,1,99999,9",,,,,"MET058METAR EDBC 020650Z 30008KT 8000 SCT008 BKN040 13/12 Q1018;",
"10616499999","2010-09-02T07:20:00","4","51.854992","11.418889","180.0","COCHSTEDT, GM","FM-15","EDBC ","V020","300,1,N,0036,1","00270,1,C,N","006000,1,N,1","+0130,1","+0120,1","99999,9","04,5,+00210,1,99,9","07,5,+00270,1,99,9","07,5,+01050,1,99,9","07,99,1,99,9,99,9,99999,9,99,9,99,9",,"10180,1,99999,9",,,,,"MET065METAR EDBC 020720Z 30007KT 6000 SCT007 BKN009 BKN035 13/12 Q1018;",
"10616499999","2010-09-02T07:50:00","4","51.854992","11.418889","180.0","COCHSTEDT, GM","FM-15","EDBC ","V020","330,1,N,0041,1","00300,1,C,N","004000,1,N,1","+0120,1","+0120,1","99999,9","04,5,+00150,1,99,9","07,5,+00300,1,99,9","07,5,+00600,1,99,9","07,99,1,99,9,99,9,99999,9,99,9,99,9",,"10180,1,99999,9","53,1",,,,"MET068METAR EDBC 020750Z 33008KT 4000 DZ SCT005 BKN010 BKN020 12/12 Q1018;",
"10616499999","2010-09-02T08:20:00","4","51.854992","11.418889","180.0","COCHSTEDT, GM","FM-15","EDBC ","V020","300,1,N,0036,1","00600,1,C,N","006000,1,N,1","+0130,1","+0120,1","99999,9","04,5,+00180,1,99,9","07,5,+00600,1,99,9",,"07,99,1,99,9,99,9,99999,9,99,9,99,9",,"10180,1,99999,9",,,,,"MET058METAR EDBC 020820Z 30007KT 6000 SCT006 BKN020 13/12 Q1018;",
"10616499999","2010-09-02T08:50:00","4","51.854992","11.418889","180.0","COCHSTEDT, GM","FM-15","EDBC ","V020","300,1,N,0036,1","01050,1,C,N","007000,1,N,1","+0130,1","+0120,1","99999,9","04,5,+00210,1,99,9","07,5,+01050,1,99,9",,"07,99,1,99,9,99,9,99999,9,99,9,99,9",,"10180,1,99999,9",,,,,"MET066METAR EDBC 020850Z 30007KT 270V330 7000 SCT007 BKN035 13/12 Q1018;",
"10616499999","2010-09-02T09:20:00","4","51.854992","11.418889","180.0","COCHSTEDT, GM","FM-15","EDBC ","V020","300,1,N,0046,1","01350,1,C,N","009000,1,N,1","+0130,1","+0120,1","99999,9","02,5,+00240,1,99,9","08,5,+01350,1,99,9",,"08,99,1,99,9,99,9,99999,9,99,9,99,9",,"10180,1,99999,9",,,,,"MET066METAR EDBC 020920Z 30009KT 260V320 9000 FEW008 OVC045 13/12 Q1018;",
"10616499999","2010-09-02T09:50:00","4","51.854992","11.418889","180.0","COCHSTEDT, GM","FM-15","EDBC ","V020","290,1,N,0057,1","01500,1,C,N","011265,1,N,1","+0140,1","+0120,1","99999,9","04,5,+00360,1,99,9","07,5,+01500,1,99,9",,"07,99,1,99,9,99,9,99999,9,99,9,99,9",,"10180,1,99999,9",,,,,"MET066METAR EDBC 020950Z 29011KT 270V330 9999 SCT012 BKN050 14/12 Q1018;",
"10616499999","2010-09-02T10:20:00","4","51.854992","11.418889","180.0","COCHSTEDT, GM","FM-15","EDBC ","V020","300,1,N,0057,1","01500,1,C,N","011265,1,N,1","+0140,1","+0120,1","99999,9","04,5,+00450,1,99,9","08,5,+01500,1,99,9",,"08,99,1,99,9,99,9,99999,9,99,9,99,9",,"10180,1,99999,9",,,,,"MET058METAR EDBC 021020Z 30011KT 9999 SCT015 OVC050 14/12 Q1018;",
"10616499999","2010-09-02T10:50:00","4","51.854992","11.418889","180.0","COCHSTEDT, GM","FM-15","EDBC ","V020","300,1,N,0057,1","01440,1,C,N","011265,1,N,1","+0140,1","+0110,1","99999,9","07,5,+01440,1,99,9",,,"07,99,1,99,9,99,9,99999,9,99,9,99,9",,"10180,1,99999,9",,,,,"MET051METAR EDBC 021050Z 30011KT 9999 BKN048 14/11 Q1018;",
"10616499999","2010-09-02T11:20:00","4","51.854992","11.418889","180.0","COCHSTEDT, GM","FM-15","EDBC ","V020","300,1,N,0051,1","01350,1,C,N","011265,1,N,1","+0150,1","+0110,1","99999,9","02,5,+00540,1,99,9","07,5,+01350,1,99,9",,"07,99,1,99,9,99,9,99999,9,99,9,99,9",,"10180,1,99999,9",,,,,"MET066METAR EDBC 021120Z 30010KT 260V330 9999 FEW018 BKN045 15/11 Q1018;",
"10616499999","2010-09-02T11:50:00","4","51.854992","11.418889","180.0","COCHSTEDT, GM","FM-15","EDBC ","V020","310,1,N,0057,1","01440,1,C,N","011265,1,N,1","+0150,1","+0110,1","99999,9","04,5,+00600,1,99,9","07,5,+01440,1,99,9",,"07,99,1,99,9,99,9,99999,9,99,9,99,9",,"10180,1,99999,9",,,,,"MET058METAR EDBC 021150Z 31011KT 9999 SCT020 BKN048 15/11 Q1018;",
"10616499999","2010-09-02T12:20:00","4","51.854992","11.418889","180.0","COCHSTEDT, GM","FM-15","EDBC ","V020","310,1,N,0041,1","01500,1,C,N","011265,1,N,1","+0150,1","+0110,1","99999,9","02,5,+00600,1,99,9","07,5,+01500,1,99,9",,"07,99,1,99,9,99,9,99999,9,99,9,99,9",,"10180,1,99999,9",,,,,"MET066METAR EDBC 021220Z 31008KT 270V330 9999 FEW020 BKN050 15/11 Q1018;",
"10616499999","2010-09-02T12:50:00","4","51.854992","11.418889","180.0","COCHSTEDT, GM","FM-15","EDBC ","V020","310,1,N,0046,1","01650,5,C,N","011265,1,N,1","+0150,1","+0120,1","99999,9","04,5,+00750,1,99,9","07,5,+01650,5,99,9",,"07,99,1,99,9,99,9,99999,9,99,9,99,9",,"10180,1,99999,9",,,,,"MET058METAR EDBC 021250Z 31009KT 9999 SCT025 BKN055 15/12 Q1018;",
"10616499999","2010-09-02T13:20:00","4","51.854992","11.418889","180.0","COCHSTEDT, GM","FM-15","EDBC ","V020","290,1,N,0041,1","22000,1,9,N","011265,1,N,1","+0150,1","+0120,1","99999,9","02,5,+00750,1,99,9",,,"02,99,1,99,9,99,9,99999,9,99,9,99,9",,"10169,1,99999,9",,,,,"MET051METAR EDBC 021320Z 29008KT 9999 FEW025 15/12 Q1017;",
"10616499999","2010-09-02T13:50:00","4","51.854992","11.418889","180.0","COCHSTEDT, GM","FM-15","EDBC ","V020","300,1,N,0031,1","22000,1,9,N","011265,1,N,1","+0150,1","+0120,1","99999,9","02,5,+00600,1,99,9",,,"02,99,1,99,9,99,9,99999,9,99,9,99,9",,"10169,1,99999,9",,,,,"MET051METAR EDBC 021350Z 30006KT 9999 FEW020 15/12 Q1017;",
"10616499999","2010-09-03T04:20:00","4","51.854992","11.418889","180.0","COCHSTEDT, GM","FM-15","EDBC ","V020","290,1,N,0026,1","00030,5,9,N","999999,9,N,1","+0110,1","+0110,1","99999,9","08,5,+00030,5,99,9",,,,,"10190,1,99999,9",,,,,"MET053METAR EDBC 030420Z 29005KT 700 FG OVC001 11/11 Q1019;",
"10616499999","2010-09-03T04:50:00","4","51.854992","11.418889","180.0","COCHSTEDT, GM","FM-15","EDBC ","V020","300,1,N,0031,1","22000,1,9,N","999999,9,N,1","+0110,1","+0110,1","99999,9",,,,,,"10200,1,99999,9",,,,,"MET052METAR EDBC 030450Z 30006KT 900 FG VV/// 11/11 Q1020;",
"10616499999","2010-09-03T05:20:00","4","51.854992","11.418889","180.0","COCHSTEDT, GM","FM-15","EDBC ","V020","310,1,N,0026,1","00090,1,C,N","001700,1,N,1","+0110,1","+0110,1","99999,9","08,5,+00090,1,99,9",,,"08,99,1,99,9,99,9,99999,9,99,9,99,9",,"10200,1,99999,9","10,1",,,,"MET054METAR EDBC 030520Z 31005KT 1700 BR OVC003 11/11 Q1020;",
"10616499999","2010-09-03T05:50:00","4","51.854992","11.418889","180.0","COCHSTEDT, GM","FM-15","EDBC ","V020","300,1,N,0031,1","00090,1,C,N","002000,1,N,1","+0110,1","+0110,1","99999,9","08,5,+00090,1,99,9",,,"08,99,1,99,9,99,9,99999,9,99,9,99,9",,"10200,1,99999,9","10,1",,,,"MET054METAR EDBC 030550Z 30006KT 2000 BR OVC003 11/11 Q1020;",
"10616499999","2010-09-03T06:20:00","4","51.854992","11.418889","180.0","COCHSTEDT, GM","FM-15","EDBC ","V020","320,1,N,0026,1","00090,1,C,N","002500,1,N,1","+0110,1","+0110,1","99999,9","07,5,+00090,1,99,9",,,"07,99,1,99,9,99,9,99999,9,99,9,99,9",,"10200,1,99999,9","10,1",,,,"MET054METAR EDBC 030620Z 32005KT 2500 BR BKN003 11/11 Q1020;",
"10616499999","2010-09-03T06:50:00","4","51.854992","11.418889","180.0","COCHSTEDT, GM","FM-15","EDBC ","V020","330,1,N,0036,1","00150,1,C,N","002500,1,N,1","+0110,1","+0110,1","99999,9","07,5,+00150,1,99,9",,,"07,99,1,99,9,99,9,99999,9,99,9,99,9",,"10200,1,99999,9","10,1",,,,"MET054METAR EDBC 030650Z 33007KT 2500 BR BKN005 11/11 Q1020;",
"10616499999","2010-09-03T07:20:00","4","51.854992","11.418889","180.0","COCHSTEDT, GM","FM-15","EDBC ","V020","330,1,N,0031,1","00360,1,C,N","004000,1,N,1","+0120,1","+0120,1","99999,9","07,5,+00360,1,99,9",,,"07,99,1,99,9,99,9,99999,9,99,9,99,9",,"10200,1,99999,9",,,,,"MET051METAR EDBC 030720Z 33006KT 4000 BKN012 12/12 Q1020;",
"10616499999","2010-09-03T07:50:00","4","51.854992","11.418889","180.0","COCHSTEDT, GM","FM-15","EDBC ","V020","340,1,N,0036,1","22000,1,9,N","011265,1,N,1","+0130,1","+0120,1","99999,9","04,5,+00240,1,99,9",,,"04,99,1,99,9,99,9,99999,9,99,9,99,9",,"10210,1,99999,9",,,,,"MET051METAR EDBC 030750Z 34007KT 9999 SCT008 13/12 Q1021;",
"10616499999","2010-09-03T08:20:00","4","51.854992","11.418889","180.0","COCHSTEDT, GM","FM-15","EDBC ","V020","320,1,N,0026,1","22000,1,9,N","011265,1,N,1","+0140,1","+0110,1","99999,9","02,5,+00780,1,99,9",,,"02,99,1,99,9,99,9,99999,9,99,9,99,9",,"10210,1,99999,9",,,,,"MET051METAR EDBC 030820Z 32005KT 9999 FEW026 14/11 Q1021;",
"10616499999","2010-09-03T08:50:00","4","51.854992","11.418889","180.0","COCHSTEDT, GM","FM-15","EDBC ","V020","320,1,N,0031,1","22000,1,9,N","011265,1,N,1","+0140,1","+0100,1","99999,9","04,5,+00720,1,99,9",,,"04,99,1,99,9,99,9,99999,9,99,9,99,9",,"10210,1,99999,9",,,,,"MET051METAR EDBC 030850Z 32006KT 9999 SCT024 14/10 Q1021;",
"10616499999","2010-09-03T09:20:00","4","51.854992","11.418889","180.0","COCHSTEDT, GM","FM-15","EDBC ","V020","330,1,N,0026,1","99999,9,9,Y","009900,1,N,1","+0150,1","+0080,1","99999,9",,,,,,"10210,1,99999,9",,,,,"MET045METAR EDBC 030920Z 33005KT CAVOK 15/08 Q1021;",
"10616499999","2010-09-03T09:50:00","4","51.854992","11.418889","180.0","COCHSTEDT, GM","FM-15","EDBC ","V020","340,1,N,0026,1","99999,9,9,Y","009900,1,N,1","+0160,1","+0070,1","99999,9",,,,,,"10210,1,99999,9",,,,,"MET053METAR EDBC 030950Z 34005KT 300V040 CAVOK 16/07 Q1021;",
"10616499999","2010-09-03T10:20:00","4","51.854992","11.418889","180.0","COCHSTEDT, GM","FM-15","EDBC ","V020","320,1,N,0041,1","99999,9,9,Y","009900,1,N,1","+0160,1","+0070,1","99999,9",,,,,,"10210,1,99999,9",,,,,"MET053METAR EDBC 031020Z 32008KT 290V360 CAVOK 16/07 Q1021;",
"10616499999","2010-09-03T10:50:00","4","51.854992","11.418889","180.0","COCHSTEDT, GM","FM-15","EDBC ","V020","330,1,N,0051,1","99999,9,9,Y","009900,1,N,1","+0160,1","+0050,1","99999,9",,,,,,"10210,1,99999,9",,,,,"MET053METAR EDBC 031050Z 33010KT 290V010 CAVOK 16/05 Q1021;",
"10616499999","2010-09-03T11:20:00","4","51.854992","11.418889","180.0","COCHSTEDT, GM","FM-15","EDBC ","V020","330,1,N,0041,1","99999,9,9,Y","009900,1,N,1","+0160,1","+0060,1","99999,9",,,,,,"10200,1,99999,9",,,,,"MET053METAR EDBC 031120Z 33008KT 310V010 CAVOK 16/06 Q1020;",
"10616499999","2010-09-03T11:50:00","4","51.854992","11.418889","180.0","COCHSTEDT, GM","FM-15","EDBC ","V020","330,1,N,0041,1","99999,9,9,Y","009900,1,N,1","+0170,1","+0060,1","99999,9",,,,,,"10200,1,99999,9",,,,,"MET053METAR EDBC 031150Z 33008KT 300V010 CAVOK 17/06 Q1020;",
"10616499999","2010-09-03T13:20:00","4","51.854992","11.418889","180.0","COCHSTEDT, GM","FM-15","EDBC ","V020","350,1,N,0036,1","99999,9,9,Y","009900,1,N,1","+0170,1","+0040,1","99999,9",,,,,,"10200,1,99999,9",,,,,"MET053METAR EDBC 031320Z 35007KT 300V050 CAVOK 17/04 Q1020;",
"10616499999","2010-09-03T13:50:00","4","51.854992","11.418889","180.0","COCHSTEDT, GM","FM-15","EDBC ","V020","320,1,N,0041,1","99999,9,9,Y","009900,1,N,1","+0170,1","+0050,1","99999,9",,,,,,"10200,1,99999,9",,,,,"MET053METAR EDBC 031350Z 32008KT 260V360 CAVOK 17/05 Q1020;",
"10616499999","2010-09-06T04:20:00","4","51.854992","11.418889","180.0","COCHSTEDT, GM","FM-15","EDBC ","V020","360,1,N,0026,1","99999,9,9,Y","009900,1,N,1","+0060,1","+0060,1","99999,9",,,,,,"10230,1,99999,9",,,,,"MET045METAR EDBC 060420Z 36005KT CAVOK 06/06 Q1023;",
"10616499999","2010-09-06T04:50:00","4","51.854992","11.418889","180.0","COCHSTEDT, GM","FM-15","EDBC ","V020","010,1,N,0026,1","99999,9,9,Y","009900,1,N,1","+0060,1","+0060,1","99999,9",,,,,,"10230,1,99999,9",,,,,"MET045METAR EDBC 060450Z 01005KT CAVOK 06/06 Q1023;",
"10616499999","2010-09-06T05:20:00","4","51.854992","11.418889","180.0","COCHSTEDT, GM","FM-15","EDBC ","V020","020,1,N,0031,1","99999,9,9,Y","009900,1,N,1","+0060,1","+0060,1","99999,9",,,,,,"10230,1,99999,9",,,,,"MET045METAR EDBC 060520Z 02006KT CAVOK 06/06 Q1023;",
"10616499999","2010-09-06T05:50:00","4","51.854992","11.418889","180.0","COCHSTEDT, GM","FM-15","EDBC ","V020","020,1,N,0021,1","22000,1,9,N","002000,1,N,1","+0070,1","+0060,1","99999,9",,,,"00,99,1,99,9,99,9,99999,9,99,9,99,9",,"10230,1,99999,9","10,1",,,,"MET051METAR EDBC 060550Z 02004KT 2000 BR NSC 07/06 Q1023;","Q01    003SCCGA1"
"10616499999","2010-09-06T06:20:00","4","51.854992","11.418889","180.0","COCHSTEDT, GM","FM-15","EDBC ","V020","010,1,N,0021,1","22000,1,9,N","008000,1,N,1","+9999,9","+9999,9","99999,9",,,,"00,99,1,99,9,99,9,99999,9,99,9,99,9",,"10230,1,99999,9",,,,,"MET049METAR EDBC 060620Z 01004KT 8000 NSC 08 /08 Q1023;","Q01    003SCCGA1"
"10616499999","2010-09-06T06:50:00","4","51.854992","11.418889","180.0","COCHSTEDT, GM","FM-15","EDBC ","V020","999,9,V,0015,1","99999,9,9,Y","009900,1,N,1","+0090,1","+0080,1","99999,9",,,,,,"10230,1,99999,9",,,,,"MET045METAR EDBC 060650Z VRB03KT CAVOK 09/08 Q1023;",
"10616499999","2010-09-06T07:20:00","4","51.854992","11.418889","180.0","COCHSTEDT, GM","FM-15","EDBC ","V020","999,9,V,0015,1","99999,9,9,Y","009900,1,N,1","+0100,1","+0080,1","99999,9",,,,,,"10230,1,99999,9",,,,,"MET045METAR EDBC 060720Z VRB03KT CAVOK 10/08 Q1023;",
"10616499999","2010-09-06T07:50:00","4","51.854992","11.418889","180.0","COCHSTEDT, GM","FM-15","EDBC ","V020","060,1,N,0021,1","99999,9,9,Y","009900,1,N,1","+0110,1","+0080,1","99999,9",,,,,,"10230,1,99999,9",,,,,"MET045METAR EDBC 060750Z 06004KT CAVOK 11/08 Q1023;",
"10616499999","2010-09-06T08:20:00","4","51.854992","11.418889","180.0","COCHSTEDT, GM","FM-15","EDBC ","V020","060,1,N,0021,1","99999,9,9,Y","009900,1,N,1","+0120,1","+0080,1","99999,9",,,,,,"10230,1,99999,9",,,,,"MET045METAR EDBC 060820Z 06004KT CAVOK 12/08 Q1023;",
"10616499999","2010-09-06T08:50:00","4","51.854992","11.418889","180.0","COCHSTEDT, GM","FM-15","EDBC ","V020","050,1,N,0026,1","99999,9,9,Y","009900,1,N,1","+0130,1","+0090,1","99999,9",,,,,,"10230,1,99999,9",,,,,"MET045METAR EDBC 060850Z 05005KT CAVOK 13/09 Q1023;",
"10616499999","2010-09-06T09:20:00","4","51.854992","11.418889","180.0","COCHSTEDT, GM","FM-15","EDBC ","V020","060,1,N,0036,1","99999,9,9,Y","009900,1,N,1","+0140,1","+0100,1","99999,9",,,,,,"10230,1,99999,9",,,,,"MET045METAR EDBC 060920Z 06007KT CAVOK 14/10 Q1023;",
"10616499999","2010-09-06T09:50:00","4","51.854992","11.418889","180.0","COCHSTEDT, GM","FM-15","EDBC ","V020","070,1,N,0036,1","22000,1,9,N","011265,1,N,1","+0140,1","+0090,1","99999,9","04,5,+00840,1,99,9",,,"04,99,1,99,9,99,9,99999,9,99,9,99,9",,"10230,1,99999,9",,,,,"MET051METAR EDBC 060950Z 07007KT 9999 SCT028 14/09 Q1023;",
"10616499999","2010-09-06T10:20:00","4","51.854992","11.418889","180.0","COCHSTEDT, GM","FM-15","EDBC ","V020","090,1,N,0051,1","22000,1,9,N","011265,1,N,1","+0150,1","+0080,1","99999,9",,,,,,"10220,1,99999,9",,,,,"MET048METAR EDBC 061020Z 09010KT 9999 032 15/08 Q1022;",
"10616499999","2010-09-06T10:50:00","4","51.854992","11.418889","180.0","COCHSTEDT, GM","FM-15","EDBC ","V020","090,1,N,0046,1","01560,5,C,N","011265,1,N,1","+0150,1","+0070,1","99999,9","02,5,+01320,1,99,9","07,5,+01560,5,99,9",,"07,99,1,99,9,99,9,99999,9,99,9,99,9",,"10220,1,99999,9",,,,,"MET058METAR EDBC 061050Z 09009KT 9999 FEW044 BKN052 15/07 Q1022;",
"10616499999","2010-09-06T11:20:00","4","51.854992","11.418889","180.0","COCHSTEDT, GM","FM-15","EDBC ","V020","100,1,N,0057,1","01590,5,9,N","999999,9,N,1","+0160,1","+0060,1","99999,9","02,5,+01350,5,99,9","04,5,+01590,5,99,9",,,"999,M,+9999,9","10220,1,99999,9",,,,,"MET053METAR EDBC 061120Z 10011KT FEW045 SCT053 16/06 Q1022;","Q01 +00112ATMX  "
"10616499999","2010-09-06T11:50:00","4","51.854992","11.418889","180.0","COCHSTEDT, GM","FM-15","EDBC ","V020","100,1,N,0051,1","99999,9,9,Y","009900,1,N,1","+0160,1","+0060,1","99999,9",,,,,,"10210,1,99999,9",,,,,"MET045METAR EDBC 061150Z 10010KT CAVOK 16/06 Q1021;",
"10616499999","2010-09-06T12:20:00","4","51.854992","11.418889","180.0","COCHSTEDT, GM","FM-15","EDBC ","V020","100,1,N,0041,1","22000,1,9,N","011265,1,N,1","+0160,1","+0070,1","99999,9","04,5,+01440,1,99,9",,,"04,99,1,99,9,99,9,99999,9,99,9,99,9",,"10210,1,99999,9",,,,,"MET051METAR EDBC 061220Z 10008KT 9999 SCT048 16/07 Q1021;",
"10616499999","2010-09-06T12:50:00","4","51.854992","11.418889","180.0","COCHSTEDT, GM","FM-15","EDBC ","V020","100,1,N,0057,1","99999,9,9,Y","009900,1,N,1","+0160,1","+0070,1","99999,9",,,,,,"10210,1,99999,9",,,,,"MET045METAR EDBC 061250Z 10011KT CAVOK 16/07 Q1021;",
"10616499999","2010-09-06T13:50:00","4","51.854992","11.418889","180.0","COCHSTEDT, GM","FM-15","EDBC ","V020","110,1,N,0051,1","99999,9,9,Y","009900,1,N,1","+0170,1","+0060,1","99999,9",,,,,,"10200,1,99999,9",,,,,"MET045METAR EDBC 061350Z 11010KT CAVOK 17/06 Q1020;",
"10616499999","2010-09-07T03:50:00","4","51.854992","11.418889","180.0","COCHSTEDT, GM","FM-15","EDBC ","V020","090,1,N,0031,1","99999,9,9,Y","009900,1,N,1","+0060,1","+0060,1","99999,9",,,,,,"10139,1,99999,9",,,,,"MET045METAR EDBC 070350Z 09006KT CAVOK 06/06 Q1014;",
"10616499999","2010-09-07T04:20:00","4","51.854992","11.418889","180.0","COCHSTEDT, GM","FM-15","EDBC ","V020","110,1,N,0031,1","99999,9,9,Y","009900,1,N,1","+0060,1","+0050,1","99999,9",,,,,,"10139,1,99999,9",,,,,"MET045METAR EDBC 070420Z 11006KT CAVOK 06/05 Q1014;",
"10616499999","2010-09-07T04:50:00","4","51.854992","11.418889","180.0","COCHSTEDT, GM","FM-15","EDBC ","V020","120,1,N,0036,1","99999,9,9,Y","009900,1,N,1","+0060,1","+0060,1","99999,9",,,,,,"10139,1,99999,9",,,,,"MET045METAR EDBC 070450Z 12007KT CAVOK 06/06 Q1014;",
"10616499999","2010-09-07T05:20:00","4","51.854992","11.418889","180.0","COCHSTEDT, GM","FM-15","EDBC ","V020","070,1,N,0031,1","99999,9,9,Y","009900,1,N,1","+0060,1","+0060,1","99999,9",,,,,,"10139,1,99999,9",,,,,"MET045METAR EDBC 070520Z 07006KT CAVOK 06/06 Q1014;",
"10616499999","2010-09-07T05:50:00","4","51.854992","11.418889","180.0","COCHSTEDT, GM","FM-15","EDBC ","V020","080,1,N,0026,1","99999,9,9,Y","009900,1,N,1","+0070,1","+0060,1","99999,9",,,,,,"10139,1,99999,9",,,,,"MET045METAR EDBC 070550Z 08005KT CAVOK 07/06 Q1014;",
"10616499999","2010-09-07T06:20:00","4","51.854992","11.418889","180.0","COCHSTEDT, GM","FM-15","EDBC ","V020","090,1,N,0046,1","99999,9,9,Y","009900,1,N,1","+0080,1","+0070,1","99999,9",,,,,,"10129,1,99999,9",,,,,"MET045METAR EDBC 070620Z 09009KT CAVOK 08/07 Q1013;",
"10616499999","2010-09-07T06:50:00","4","51.854992","11.418889","180.0","COCHSTEDT, GM","FM-15","EDBC ","V020","090,1,N,0051,1","99999,9,9,Y","009900,1,N,1","+0100,1","+0070,1","99999,9",,,,,,"10129,1,99999,9",,,,,"MET045METAR EDBC 070650Z 09010KT CAVOK 10/07 Q1013;",
"10616499999","2010-09-07T07:20:00","4","51.854992","11.418889","180.0","COCHSTEDT, GM","FM-15","EDBC ","V020","110,1,N,0057,1","99999,9,9,Y","009900,1,N,1","+0100,1","+0070,1","99999,9",,,,,,"10129,1,99999,9",,,,,"MET045METAR EDBC 070720Z 11011KT CAVOK 10/07 Q1013;",
"10616499999","2010-09-07T07:50:00","4","51.854992","11.418889","180.0","COCHSTEDT, GM","FM-15","EDBC ","V020","110,1,N,0062,1","99999,9,9,Y","009900,1,N,1","+0120,1","+0080,1","99999,9",,,,,,"10119,1,99999,9",,,,,"MET045METAR EDBC 070750Z 11012KT CAVOK 12/08 Q1012;",
"10616499999","2010-09-07T08:20:00","4","51.854992","11.418889","180.0","COCHSTEDT, GM","FM-15","EDBC ","V020","110,1,N,0067,1","99999,9,9,Y","009900,1,N,1","+0130,1","+0080,1","99999,9",,,,,,"10119,1,99999,9",,,,,"MET045METAR EDBC 070820Z 11013KT CAVOK 13/08 Q1012;",
"10616499999","2010-09-07T08:50:00","4","51.854992","11.418889","180.0","COCHSTEDT, GM","FM-15","EDBC ","V020","110,1,N,0082,1","99999,9,9,Y","009900,1,N,1","+0140,1","+0080,1","99999,9",,,,,,"10119,1,99999,9",,,,,"MET045METAR EDBC 070850Z 11016KT CAVOK 14/08 Q1012;",
"10616499999","2010-09-07T09:20:00","4","51.854992","11.418889","180.0","COCHSTEDT, GM","FM-15","EDBC ","V020","110,1,N,0082,1","99999,9,9,Y","009900,1,N,1","+0150,1","+0080,1","99999,9",,,,,,"10119,1,99999,9",,,,,"MET045METAR EDBC 070920Z 11016KT CAVOK 15/08 Q1012;",
"10616499999","2010-09-07T09:50:00","4","51.854992","11.418889","180.0","COCHSTEDT, GM","FM-15","EDBC ","V020","100,1,N,0082,1","99999,9,9,Y","009900,1,N,1","+0150,1","+0080,1","99999,9",,,,,,"10119,1,99999,9",,,,,"MET044METAR EDBC 070950Z 10016KT CAVOK15/08 Q1012;",
"10616499999","2010-09-07T10:20:00","4","51.854992","11.418889","180.0","COCHSTEDT, GM","FM-15","EDBC ","V020","110,1,N,0077,1","99999,9,9,Y","009900,1,N,1","+0160,1","+0080,1","99999,9",,,,,,"10119,1,99999,9",,,,,"MET053METAR EDBC 071020Z 11015KT 080V150 CAVOK 16/08 Q1012;",
"10616499999","2010-09-07T10:50:00","4","51.854992","11.418889","180.0","COCHSTEDT, GM","FM-15","EDBC ","V020","120,1,N,0082,1","99999,9,9,Y","009900,1,N,1","+0170,1","+0070,1","99999,9",,,,,,"10108,1,99999,9",,,,,"MET045METAR EDBC 071050Z 12016KT CAVOK 17/07 Q1011;",
"10616499999","2010-09-07T11:20:00","4","51.854992","11.418889","180.0","COCHSTEDT, GM","FM-15","EDBC ","V020","110,1,N,0087,1","99999,9,9,Y","009900,1,N,1","+0170,1","+0060,1","99999,9",,,,,,"10108,1,99999,9",,,,,"MET045METAR EDBC 071120Z 11017KT CAVOK 17/06 Q1011;",
"10616499999","2010-09-07T11:50:00","4","51.854992","11.418889","180.0","COCHSTEDT, GM","FM-15","EDBC ","V020","120,1,N,0082,1","99999,9,9,Y","009900,1,N,1","+0180,1","+0060,1","99999,9",,,,,,"10108,1,99999,9",,,,,"MET045METAR EDBC 071150Z 12016KT CAVOK 18/06 Q1011;",
"10616499999","2010-09-07T12:20:00","4","51.854992","11.418889","180.0","COCHSTEDT, GM","FM-15","EDBC ","V020","110,1,N,0087,1","99999,9,9,Y","009900,1,N,1","+0180,1","+0070,1","99999,9",,,,,,"10108,1,99999,9",,,,,"MET045METAR EDBC 071220Z 11017KT CAVOK 18/07 Q1011;",
"10616499999","2010-09-07T12:50:00","4","51.854992","11.418889","180.0","COCHSTEDT, GM","FM-15","EDBC ","V020","110,1,N,0087,1","99999,9,9,Y","009900,1,N,1","+0170,1","+0070,1","99999,9",,,,,"999,M,+9999,9","10100,1,99999,9",,,,,"MET054METAR EDBC 071250Z 11017KT 080V140 /CAVOK 17/07 Q1010;","Q01 -00172ATMX  "
"10616499999","2010-09-07T13:20:00","4","51.854992","11.418889","180.0","COCHSTEDT, GM","FM-15","EDBC ","V020","110,1,N,0082,1","99999,9,9,Y","009900,1,N,1","+0170,1","+0070,1","99999,9",,,,,,"10102,1,99999,9",,,,,"MET045METAR EDBC 071320Z 11016KT CAVOK 17/07 Q1010;",
"10616499999","2010-09-07T13:50:00","4","51.854992","11.418889","180.0","COCHSTEDT, GM","FM-15","EDBC ","V020","110,1,N,0098,1","99999,9,9,Y","009900,1,N,1","+0170,1","+0070,1","99999,9",,,,,,"10102,1,99999,9",,,,,"MET045METAR EDBC 071350Z 11019KT CAVOK 17/07 Q1010;",
"10616499999","2010-09-08T04:20:00","4","51.854992","11.418889","180.0","COCHSTEDT, GM","FM-15","EDBC ","V020","090,1,N,0057,1","01680,5,C,N","011265,1,N,1","+0120,1","+0090,1","99999,9","04,5,+01290,1,99,9","07,5,+01680,5,99,9",,"07,99,1,99,9,99,9,99999,9,99,9,99,9",,"10081,1,99999,9",,,,,"MET058METAR EDBC 080420Z 09011KT 9999 SCT043 BKN056 12/09 Q1008;",
"10616499999","2010-09-08T04:50:00","4","51.854992","11.418889","180.0","COCHSTEDT, GM","FM-15","EDBC ","V020","110,1,N,0062,1","01440,1,C,N","011265,1,N,1","+0120,1","+0090,1","99999,9","02,5,+00840,1,99,9","04,5,+01440,1,99,9","07,5,+01680,5,99,9","07,99,1,99,9,99,9,99999,9,99,9,99,9",,"10081,1,99999,9",,,,,"MET065METAR EDBC 080450Z 11012KT 9999 FEW028 SCT048 BKN056 12/09 Q1008;",
"10616499999","2010-09-08T05:20:00","4","51.854992","11.418889","180.0","COCHSTEDT, GM","FM-15","EDBC ","V020","110,1,N,0067,1","01440,1,C,N","011265,1,N,1","+0120,1","+0090,1","99999,9","07,5,+01440,1,99,9",,,"07,99,1,99,9,99,9,99999,9,99,9,99,9",,"10081,1,99999,9",,,,,"MET051METAR EDBC 080520Z 11013KT 9999 BKN048 12/09 Q1008;",
"10616499999","2010-09-08T05:50:00","4","51.854992","11.418889","180.0","COCHSTEDT, GM","FM-15","EDBC ","V020","110,1,N,0062,1","01620,5,C,N","011265,1,N,1","+0130,1","+0090,1","99999,9","04,5,+01440,1,99,9","07,5,+01620,5,99,9",,"07,99,1,99,9,99,9,99999,9,99,9,99,9",,"10081,1,99999,9",,,,,"MET058METAR EDBC 080550Z 11012KT 9999 SCT048 BKN054 13/09 Q1008;",
"10616499999","2010-09-08T06:20:00","4","51.854992","11.418889","180.0","COCHSTEDT, GM","FM-15","EDBC ","V020","110,1,N,0072,1","99999,9,9,Y","011265,1,N,1","+0130,1","+0090,1","99999,9",,,,,,"10080,1,99999,9",,,,,"MET050METAR EDBC 080620Z 11014KT 9999 CAVOK 13/09 Q1008;",
"10616499999","2010-09-08T06:50:00","4","51.854992","11.418889","180.0","COCHSTEDT, GM","FM-15","EDBC ","V020","110,1,N,0072,1","01620,5,C,N","011265,1,N,1","+0130,1","+0090,1","99999,9","02,5,+00780,1,99,9","07,5,+01620,5,99,9",,"07,99,1,99,9,99,9,99999,9,99,9,99,9",,"10081,1,99999,9",,,,,"MET058METAR EDBC 080650Z 11014KT 9999 FEW026 BKN054 13/09 Q1008;",
"10616499999","2010-09-08T07:20:00","4","51.854992","11.418889","180.0","COCHSTEDT, GM","FM-15","EDBC ","V020","110,1,N,0072,1","99999,9,9,Y","009900,1,N,1","+0130,1","+0090,1","99999,9",,,,,,"10081,1,99999,9",,,,,"MET045METAR EDBC 080720Z 11014KT CAVOK 13/09 Q1008;",
"10616499999","2010-09-08T07:50:00","4","51.854992","11.418889","180.0","COCHSTEDT, GM","FM-15","EDBC ","V020","110,1,N,0072,1","01680,5,9,N","999999,9,N,1","+0140,1","+0100,1","99999,9","04,5,+00720,5,99,9","07,5,+01680,5,99,9",,,"999,M,+9999,9","10080,1,99999,9",,,,,"MET053METAR EDBC 080750Z 11014KT SCT024 BKN056 14/10 Q1008;","Q01 -00142ATMX  "
"10616499999","2010-09-08T08:20:00","4","51.854992","11.418889","180.0","COCHSTEDT, GM","FM-15","EDBC ","V020","110,1,N,0082,1","01680,5,9,N","999999,9,N,1","+0150,1","+0100,1","99999,9","02,5,+00720,5,99,9","07,5,+01680,5,99,9",,,"999,M,+9999,9","10080,1,99999,9",,,,,"MET053METAR EDBC 080820Z 11016KT FEW024 BKN056 15/10 Q1008;","Q01 -00162ATMX  "
"10616499999","2010-09-08T08:50:00","4","51.854992","11.418889","180.0","COCHSTEDT, GM","FM-15","EDBC ","V020","110,1,N,0082,1","01710,5,C,N","011265,1,N,1","+0150,1","+0100,1","99999,9","04,5,+00690,1,99,9","07,5,+01710,5,99,9",,"07,99,1,99,9,99,9,99999,9,99,9,99,9",,"10081,1,99999,9",,,,,"MET066METAR EDBC 080850Z 11016KT 090V150 9999 SCT023 BKN057 15/10 Q1008;",
"10616499999","2010-09-08T09:20:00","4","51.854992","11.418889","180.0","COCHSTEDT, GM","FM-15","EDBC ","V020","120,1,N,0087,1","00720,1,C,N","011265,1,N,1","+0160,1","+0100,1","99999,9","07,5,+00720,1,99,9",,,"07,99,1,99,9,99,9,99999,9,99,9,99,9",,"10081,1,99999,9",,,,,"MET051METAR EDBC 080920Z 12017KT 9999 BKN024 16/10 Q1008;",
"10616499999","2010-09-08T09:50:00","4","51.854992","11.418889","180.0","COCHSTEDT, GM","FM-15","EDBC ","V020","110,1,N,0098,1","01740,5,C,N","011265,1,N,1","+0170,1","+0110,1","99999,9","04,5,+00720,1,99,9","07,5,+01740,5,99,9",,"07,99,1,99,9,99,9,99999,9,99,9,99,9",,"10071,1,99999,9",,,,,"MET058METAR EDBC 080950Z 11019KT 9999 SCT024 BKN058 17/11 Q1007;",
"10616499999","2010-09-08T10:20:00","4","51.854992","11.418889","180.0","COCHSTEDT, GM","FM-15","EDBC ","V020","110,1,N,0098,1","22000,1,9,N","011265,1,N,1","+0170,1","+0110,1","99999,9","04,5,+00750,1,99,9",,,"04,99,1,99,9,99,9,99999,9,99,9,99,9",,"10071,1,99999,9",,,,,"MET051METAR EDBC 081020Z 11019KT 9999 SCT025 17/11 Q1007;",
"10616499999","2010-09-08T10:50:00","4","51.854992","11.418889","180.0","COCHSTEDT, GM","FM-15","EDBC ","V020","110,1,N,0087,1","22000,1,9,N","011265,1,N,1","+0170,1","+0110,1","99999,9","04,5,+00780,1,99,9",,,"04,99,1,99,9,99,9,99999,9,99,9,99,9",,"10081,1,99999,9",,,,,"MET051METAR EDBC 081050Z 11017KT 9999 SCT026 17/11 Q1008;",
"10616499999","2010-09-08T11:20:00","4","51.854992","11.418889","180.0","COCHSTEDT, GM","FM-15","EDBC ","V020","110,1,N,0082,1","22000,1,9,N","011265,1,N,1","+0180,1","+0110,1","99999,9","04,5,+00780,1,99,9",,,"04,99,1,99,9,99,9,99999,9,99,9,99,9",,"10071,1,99999,9",,,,,"MET051METAR EDBC 081120Z 11016KT 9999 SCT026 18/11 Q1007;",
"10616499999","2010-09-08T11:50:00","4","51.854992","11.418889","180.0","COCHSTEDT, GM","FM-15","EDBC ","V020","100,1,N,0093,1","22000,1,9,N","011265,1,N,1","+0180,1","+0110,1","99999,9","04,5,+00840,1,99,9",,,"04,99,1,99,9,99,9,99999,9,99,9,99,9",,"10071,1,99999,9",,,,,"MET051METAR EDBC 081150Z 10018KT 9999 SCT028 18/11 Q1007;",
"10616499999","2010-09-08T12:20:00","4","51.854992","11.418889","180.0","COCHSTEDT, GM","FM-15","EDBC ","V020","110,1,N,0087,1","22000,1,9,N","011265,1,N,1","+0180,1","+0120,1","99999,9",,,,,,"10070,1,99999,9",,,,,"MET051METAR EDBC 081220Z 11017KT 9999 BKNO3O 18/12 Q1007;",
"10616499999","2010-09-08T12:50:00","4","51.854992","11.418889","180.0","COCHSTEDT, GM","FM-15","EDBC ","V020","110,1,N,0087,1","00900,1,C,N","011265,1,N,1","+0170,1","+0110,1","99999,9","07,5,+00900,1,99,9",,,"07,99,1,99,9,99,9,99999,9,99,9,99,9",,"10071,1,99999,9",,,,,"MET051METAR EDBC 081250Z 11017KT 9999 BKN030 17/11 Q1007;",
"10616499999","2010-09-08T13:20:00","4","51.854992","11.418889","180.0","COCHSTEDT, GM","FM-15","EDBC ","V020","110,1,N,0087,1","00960,1,C,N","011265,1,N,1","+0180,1","+0120,1","99999,9","07,5,+00960,1,99,9",,,"07,99,1,99,9,99,9,99999,9,99,9,99,9",,"10071,1,99999,9",,,,,"MET051METAR EDBC 081320Z 11017KT 9999 BKN032 18/12 Q1007;",
"10616499999","2010-09-08T13:50:00","4","51.854992","11.418889","180.0","COCHSTEDT, GM","FM-15","EDBC ","V020","110,1,N,0087,1","00960,1,C,N","011265,1,N,1","+0180,1","+0110,1","99999,9","07,5,+00960,1,99,9",,,"07,99,1,99,9,99,9,99999,9,99,9,99,9",,"10071,1,99999,9",,,,,"MET051METAR EDBC 081350Z 11017KT 9999 BKN032 18/11 Q1007;",
"10616499999","2010-09-09T03:50:00","4","51.854992","11.418889","180.0","COCHSTEDT, GM","FM-15","EDBC ","V020","140,1,N,0031,1","00180,1,C,N","003000,1,N,1","+0130,1","+0130,1","99999,9","07,5,+00180,1,99,9",,,"07,99,1,99,9,99,9,99999,9,99,9,99,9",,"10091,1,99999,9","81,1",,,,"MET056METAR EDBC 090350Z 14006KT 3000 SHRA BKN006 13/13 Q1009;",
"10616499999","2010-09-09T04:20:00","4","51.854992","11.418889","180.0","COCHSTEDT, GM","FM-15","EDBC ","V020","180,1,N,0015,1","00150,1,C,N","002000,1,N,1","+0130,1","+0130,1","99999,9","07,5,+00150,1,99,9",,,"07,99,1,99,9,99,9,99999,9,99,9,99,9",,"10091,1,99999,9","81,1",,,,"MET056METAR EDBC 090420Z 18003KT 2000 SHRA BKN005 13/13 Q1009;",
"10616499999","2010-09-09T04:50:00","4","51.854992","11.418889","180.0","COCHSTEDT, GM","FM-15","EDBC ","V020","170,1,N,0021,1","01050,1,C,N","001000,1,N,1","+0130,1","+0130,1","99999,9","04,5,+00150,1,99,9","07,5,+01050,1,99,9",,"07,99,1,99,9,99,9,99999,9,99,9,99,9",,"10091,1,99999,9","63,1",,,,"MET061METAR EDBC 090450Z 17004KT 1000 RA SCT005 BKN035 13/13 Q1009;",
"10616499999","2010-09-09T05:20:00","4","51.854992","11.418889","180.0","COCHSTEDT, GM","FM-15","EDBC ","V020","170,1,N,0015,1","00150,5,9,N","999999,9,N,1","+0130,1","+0130,1","99999,9","07,5,+00150,5,99,9","08,5,+01080,5,99,9",,,,"10100,1,99999,9",,,,,"MET064METAR EDBC 090520Z 17003KT 800 FG -RA BKN005 OVC036 13/13 Q1010;",
"10616499999","2010-09-09T05:50:00","4","51.854992","11.418889","180.0","COCHSTEDT, GM","FM-15","EDBC ","V020","170,1,N,0015,1","00060,1,C,N","001000,1,N,1","+0130,1","+0130,1","99999,9","07,5,+00060,1,99,9","08,5,+01080,1,99,9",,"08,99,1,99,9,99,9,99999,9,99,9,99,9",,"10102,1,99999,9","44,1","61,1",,,"MET064METAR EDBC 090550Z 17003KT1000 -RA FG BKN002 OVC036 13/13 Q1010;",
"10616499999","2010-09-09T06:20:00","4","51.854992","11.418889","180.0","COCHSTEDT, GM","FM-15","EDBC ","V020","160,1,N,0021,1","00090,5,9,N","999999,9,N,1","+0140,1","+0140,1","99999,9","07,5,+00090,5,99,9","08,5,+01080,5,99,9",,,,"10100,1,99999,9",,,,,"MET064METAR EDBC 090620Z 16004KT 800 FG -RA BKN003 OVC036 14/14 Q1010;",
"10616499999","2010-09-09T06:50:00","4","51.854992","11.418889","180.0","COCHSTEDT, GM","FM-15","EDBC ","V020","160,1,N,0026,1","00750,1,C,N","002000,1,N,1","+0140,1","+0140,1","99999,9","07,5,+00750,1,99,9",,,"07,99,1,99,9,99,9,99999,9,99,9,99,9",,"10102,1,99999,9","10,1","61,1",,,"MET058METAR EDBC 090650Z 16005KT 2000 -RA BR BKN025 14/14 Q1010;",
"10616499999","2010-09-09T07:20:00","4","51.854992","11.418889","180.0","COCHSTEDT, GM","FM-15","EDBC ","V020","180,1,N,0026,1","02280,5,C,N","008000,1,N,1","+0140,1","+0140,1","99999,9","04,5,+00750,1,99,9","07,5,+02280,5,99,9",,"07,99,1,99,9,99,9,99999,9,99,9,99,9",,"10102,1,99999,9",,,,,"MET058METAR EDBC 090720Z 18005KT 8000 SCT025 BKN076 14/14 Q1010;",
"10616499999","2010-09-09T07:50:00","4","51.854992","11.418889","180.0","COCHSTEDT, GM","FM-15","EDBC ","V020","210,1,N,0026,1","22000,1,9,N","011265,1,N,1","+0150,1","+0140,1","99999,9","04,5,+01440,1,99,9",,,"04,99,1,99,9,99,9,99999,9,99,9,99,9",,"10102,1,99999,9",,,,,"MET051METAR EDBC 090750Z 21005KT 9999 SCT048 15/14 Q1010;",
"10616499999","2010-09-09T08:20:00","4","51.854992","11.418889","180.0","COCHSTEDT, GM","FM-15","EDBC ","V020","220,1,N,0031,1","02460,5,C,N","011265,1,N,1","+0160,1","+0130,1","99999,9","04,5,+00360,1,99,9","07,5,+02460,5,99,9",,"07,99,1,99,9,99,9,99999,9,99,9,99,9",,"10102,1,99999,9",,,,,"MET058METAR EDBC 090820Z 22006KT 9999 SCT012 BKN082 16/13 Q1010;",
"10616499999","2010-09-09T08:50:00","4","51.854992","11.418889","180.0","COCHSTEDT, GM","FM-15","EDBC ","V020","200,1,N,0036,1","02460,5,C,N","011265,1,N,1","+0160,1","+0130,1","99999,9","04,5,+00450,1,99,9","07,5,+02460,5,99,9",,"07,99,1,99,9,99,9,99999,9,99,9,99,9",,"10108,1,99999,9",,,,,"MET058METAR EDBC 090850Z 20007KT 9999 SCT015 BKN082 16/13 Q1011;",
"10616499999","2010-09-09T09:20:00","4","51.854992","11.418889","180.0","COCHSTEDT, GM","FM-15","EDBC ","V020","240,1,N,0046,1","99999,9,C,N","011265,1,N,1","+0160,1","+0130,1","99999,9","02,5,+00510,1,99,9","04,5,+00690,1,99,9",,"04,99,1,99,9,99,9,99999,9,99,9,99,9",,"10108,1,99999,9",,,,,"MET058METAR EDBC 090920Z 24009KT 9999 FEW017 SCT023 16/13 Q1011;","P01 006903SCOCIG"
"10616499999","2010-09-09T09:50:00","4","51.854992","11.418889","180.0","COCHSTEDT, GM","FM-15","EDBC ","V020","240,1,N,0051,1","00960,1,C,N","011265,1,N,1","+0180,1","+0130,1","99999,9","02,5,+00540,1,99,9","07,5,+00960,1,99,9",,"07,99,1,99,9,99,9,99999,9,99,9,99,9",,"10108,1,99999,9",,,,,"MET058METAR EDBC 090950Z 24010KT 9999 FEW018 BKN032 18/13 Q1011;",
"10616499999","2010-09-09T10:20:00","4","51.854992","11.418889","180.0","COCHSTEDT, GM","FM-15","EDBC ","V020","240,1,N,0041,1","00900,1,C,N","011265,1,N,1","+0180,1","+0130,1","99999,9","04,5,+00660,1,99,9","07,5,+00900,1,99,9",,"07,99,1,99,9,99,9,99999,9,99,9,99,9",,"10108,1,99999,9",,,,,"MET058METAR EDBC 091020Z 24008KT 9999 SCT022 BKN030 18/13 Q1011;",
"10616499999","2010-09-09T10:50:00","4","51.854992","11.418889","180.0","COCHSTEDT, GM","FM-15","EDBC ","V020","300,1,N,0026,1","01290,1,C,N","011265,1,N,1","+0180,1","+0130,1","99999,9","04,5,+00990,1,99,9","07,5,+01290,1,99,9",,"07,99,1,99,9,99,9,99999,9,99,9,99,9",,"10108,1,99999,9",,,,,"MET058METAR EDBC 091050Z 30005KT 9999 SCT033 BKN043 18/13 Q1011;",
"10616499999","2010-09-09T11:20:00","4","51.854992","11.418889","180.0","COCHSTEDT, GM","FM-15","EDBC ","V020","240,1,N,0036,1","01020,1,C,N","011265,1,N,1","+0170,1","+0140,1","99999,9","04,5,+00780,1,99,9","07,5,+01020,1,99,9",,"07,99,1,99,9,99,9,99999,9,99,9,99,9",,"10108,1,99999,9",,,,,"MET058METAR EDBC 091120Z 24007KT 9999 SCT026 BKN034 17/14 Q1011;",
"10616499999","2010-09-09T11:50:00","4","51.854992","11.418889","180.0","COCHSTEDT, GM","FM-15","EDBC ","V020","230,1,N,0046,1","01560,5,C,N","011265,1,N,1","+0170,1","+0130,1","99999,9","04,5,+00660,1,99,9","07,5,+01560,5,99,9",,"07,99,1,99,9,99,9,99999,9,99,9,99,9",,"10119,1,99999,9",,,,,"MET058METAR EDBC 091150Z 23009KT 9999 SCT022 BKN052 17/13 Q1012;",
"10616499999","2010-09-09T12:20:00","4","51.854992","11.418889","180.0","COCHSTEDT, GM","FM-15","EDBC ","V020","270,1,N,0036,1","00660,1,C,N","011265,1,N,1","+0170,1","+0130,1","99999,9","07,5,+00660,1,99,9",,,"07,99,1,99,9,99,9,99999,9,99,9,99,9",,"10119,1,99999,9",,,,,"MET051METAR EDBC 091220Z 27007KT 9999 BKN022 17/13 Q1012;",
"10616499999","2010-09-09T12:50:00","4","51.854992","11.418889","180.0","COCHSTEDT, GM","FM-15","EDBC ","V020","280,1,N,0026,1","01080,1,C,N","011265,1,N,1","+0170,1","+0130,1","99999,9","04,5,+00660,1,99,9","07,5,+01080,1,99,9",,"07,99,1,99,9,99,9,99999,9,99,9,99,9",,"10119,1,99999,9",,,,,"MET058METAR EDBC 091250Z 28005KT 9999 SCT022 BKN036 17/13 Q1012;",
"10616499999","2010-09-09T13:20:00","4","51.854992","11.418889","180.0","COCHSTEDT, GM","FM-15","EDBC ","V020","020,1,N,0026,1","00900,1,C,N","011265,1,N,1","+0160,1","+0140,1","99999,9","04,5,+00450,1,99,9","07,5,+00900,1,99,9",,"07,99,1,99,9,99,9,99999,9,99,9,99,9",,"10119,1,99999,9","61,1",,,,"MET072METAR EDBC 091320Z 02005KT 320V040 9999 -RASH SCT015 BKN030 16/14 Q1012;",
"10616499999","2010-09-09T13:50:00","4","51.854992","11.418889","180.0","COCHSTEDT, GM","FM-15","EDBC ","V020","999,9,C,0000,1","00750,1,C,N","011265,1,N,1","+0160,1","+0140,1","99999,9","07,5,+00750,1,99,9",,,"07,99,1,99,9,99,9,99999,9,99,9,99,9",,"10119,1,99999,9","61,1",,,,"MET057METAR EDBC 091350Z 00000KT 9999 -RASH BKN025 16/14 Q1012;",
"10616499999","2010-09-10T04:20:00","4","51.854992","11.418889","180.0","COCHSTEDT, GM","FM-15","EDBC ","V020","240,1,N,0026,1","22000,1,9,N","004000,1,N,1","+0130,1","+0120,1","99999,9","04,5,+02340,5,99,9",,,"04,99,1,99,9,99,9,99999,9,99,9,99,9",,"10180,1,99999,9","10,1",,,,"MET054METAR EDBC 100420Z 24005KT 4000 BR SCT078 13/12 Q1018;",
"10616499999","2010-09-10T04:50:00","4","51.854992","11.418889","180.0","COCHSTEDT, GM","FM-15","EDBC ","V020","210,1,N,0015,1","22000,1,9,N","005000,1,N,1","+0120,1","+0110,1","99999,9","04,5,+02760,5,99,9",,,"04,99,1,99,9,99,9,99999,9,99,9,99,9",,"10180,1,99999,9",,,,,"MET051METAR EDBC 100450Z 21003KT 5000 SCT092 12/11 Q1018;",
"10616499999","2010-09-10T05:20:00","4","51.854992","11.418889","180.0","COCHSTEDT, GM","FM-15","EDBC ","V020","999,9,V,0010,1","22000,1,9,N","008000,1,N,1","+0120,1","+0110,1","99999,9","04,5,+02340,5,99,9",,,"04,99,1,99,9,99,9,99999,9,99,9,99,9",,"10180,1,99999,9",,,,,"MET051METAR EDBC 100520Z VRB02KT 8000 SCT078 12/11 Q1018;",
"10616499999","2010-09-10T05:50:00","4","51.854992","11.418889","180.0","COCHSTEDT, GM","FM-15","EDBC ","V020","999,9,V,0010,1","99999,9,C,N","009000,1,N,1","+0130,1","+0110,1","99999,9","02,5,+00600,1,99,9","04,5,+02520,5,99,9",,"04,99,1,99,9,99,9,99999,9,99,9,99,9",,"10190,1,99999,9",,,,,"MET058METAR EDBC 100550Z VRB02KT 9000 FEW020 SCT084 13/11 Q1019;","P01 025203SCOCIG"
"10616499999","2010-09-10T06:20:00","4","51.854992","11.418889","180.0","COCHSTEDT, GM","FM-15","EDBC ","V020","999,9,V,0015,1","22000,1,9,N","009000,1,N,1","+0130,1","+0110,1","99999,9","04,5,+02760,5,99,9",,,"04,99,1,99,9,99,9,99999,9,99,9,99,9",,"10190,1,99999,9",,,,,"MET051METAR EDBC 100620Z VRB03KT 9000 SCT092 13/11 Q1019;",
"10616499999","2010-09-10T06:50:00","4","51.854992","11.418889","180.0","COCHSTEDT, GM","FM-15","EDBC ","V020","160,1,N,0015,1","99999,9,9,Y","009900,1,N,1","+0130,1","+0120,1","99999,9",,,,,,"10190,1,99999,9",,,,,"MET044METAR EDBC 100650Z 16003KTCAVOK 13/12 Q1019;",
"10616499999","2010-09-10T07:20:00","4","51.854992","11.418889","180.0","COCHSTEDT, GM","FM-15","EDBC ","V020","220,1,N,0021,1","22000,1,9,N","009000,1,N,1","+0140,1","+0130,1","99999,9","04,5,+02640,5,99,9",,,,,"10190,1,99999,9",,,,,"MET060METAR EDBC 100720Z 22004KT 180V240 90000 SCT088 14/13 Q1019;",
"10616499999","2010-09-10T07:50:00","4","51.854992","11.418889","180.0","COCHSTEDT, GM","FM-15","EDBC ","V020","240,1,N,0031,1","99999,9,9,Y","009900,1,N,1","+0150,1","+0120,1","99999,9",,,,,,"10200,1,99999,9",,,,,"MET045METAR EDBC 100750Z 24006KT CAVOK 15/12 Q1020;",
"10616499999","2010-09-10T08:20:00","4","51.854992","11.418889","180.0","COCHSTEDT, GM","FM-15","EDBC ","V020","240,1,N,0021,1","99999,9,9,Y","009900,1,N,1","+0170,1","+0130,1","99999,9",,,,,,"10200,1,99999,9",,,,,"MET053METAR EDBC 100820Z 24004KT 190V300 CAVOK 17/13 Q1020;",
"10616499999","2010-09-10T08:50:00","4","51.854992","11.418889","180.0","COCHSTEDT, GM","FM-15","EDBC ","V020","999,9,V,0015,1","99999,9,C,N","011265,1,N,1","+0170,1","+0130,1","99999,9","02,5,+00810,1,99,9","04,5,+00900,1,99,9",,"04,99,1,99,9,99,9,99999,9,99,9,99,9",,"10200,1,99999,9",,,,,"MET058METAR EDBC 100850Z VRB03KT 9999 FEW027 SCT030 17/13 Q1020;","P01 009003SCOCIG"
"10616499999","2010-09-10T09:20:00","4","51.854992","11.418889","180.0","COCHSTEDT, GM","FM-15","EDBC ","V020","230,1,N,0041,1","01050,1,C,N","011265,1,N,1","+0180,1","+0130,1","99999,9","07,5,+01050,1,99,9",,,"07,99,1,99,9,99,9,99999,9,99,9,99,9",,"10200,1,99999,9",,,,,"MET059METAR EDBC 100920Z 23008KT 200V270 9999 BKN035 18/13 Q1020;",
"10616499999","2010-09-10T09:50:00","4","51.854992","11.418889","180.0","COCHSTEDT, GM","FM-15","EDBC ","V020","230,1,N,0041,1","99999,9,C,N","011265,1,N,1","+0180,1","+0120,1","99999,9","02,5,+00840,1,99,9","04,5,+01140,1,99,9",,"04,99,1,99,9,99,9,99999,9,99,9,99,9",,"10200,1,99999,9",,,,,"MET066METAR EDBC 100950Z 23008KT 200V260 9999 FEW028 SCT038 18/12 Q1020;","P01 011403SCOCIG"
"10616499999","2010-09-10T10:20:00","4","51.854992","11.418889","180.0","COCHSTEDT, GM","FM-15","EDBC ","V020","250,1,N,0026,1","01200,1,C,N","011265,1,N,1","+0180,1","+0120,1","99999,9","07,5,+01200,1,99,9",,,"07,99,1,99,9,99,9,99999,9,99,9,99,9",,"10200,1,99999,9",,,,,"MET059METAR EDBC 101020Z 25005KT 210V290 9999 BKN040 18/12 Q1020;",
"10616499999","2010-09-10T10:50:00","4","51.854992","11.418889","180.0","COCHSTEDT, GM","FM-15","EDBC ","V020","260,1,N,0046,1","22000,1,9,N","011265,1,N,1","+0180,1","+0120,1","99999,9","04,5,+01050,1,99,9",,,"04,99,1,99,9,99,9,99999,9,99,9,99,9",,"10200,1,99999,9",,,,,"MET059METAR EDBC 101050Z 26009KT 230V290 9999 SCT035 18/12 Q1020;",
"10616499999","2010-09-10T11:20:00","4","51.854992","11.418889","180.0","COCHSTEDT, GM","FM-15","EDBC ","V020","260,1,N,0026,1","01860,5,C,N","011265,1,N,1","+0180,1","+0120,1","99999,9","02,5,+01020,1,99,9","07,5,+01860,5,99,9",,"07,99,1,99,9,99,9,99999,9,99,9,99,9",,"10200,1,99999,9",,,,,"MET066METAR EDBC 101120Z 26005KT 230V290 9999 FEW034 BKN062 18/12 Q1020;",
"10616499999","2010-09-10T11:50:00","4","51.854992","11.418889","180.0","COCHSTEDT, GM","FM-15","EDBC ","V020","270,1,N,0026,1","22000,1,9,N","999999,9,N,1","+0190,1","+0110,1","99999,9","04,5,+01200,5,99,9",,,,,"10200,1,99999,9",,,,,"MET054METAR EDBC 101150Z 27005KT 240V300 SCT040 19/11 Q1020;",
"10616499999","2010-09-10T12:20:00","4","51.854992","11.418889","180.0","COCHSTEDT, GM","FM-15","EDBC ","V020","290,1,N,0021,1","22000,1,9,N","011265,1,N,1","+0190,1","+0110,1","99999,9","04,5,+01410,1,99,9",,,"04,99,1,99,9,99,9,99999,9,99,9,99,9",,"10200,1,99999,9",,,,,"MET051METAR EDBC 101220Z 29004KT 9999 SCT047 19/11 Q1020;",
"10616499999","2010-09-10T12:50:00","4","51.854992","11.418889","180.0","COCHSTEDT, GM","FM-15","EDBC ","V020","300,1,N,0021,1","01260,1,C,N","011265,1,N,1","+0190,1","+0120,1","99999,9","07,5,+01260,1,99,9",,,"07,99,1,99,9,99,9,99999,9,99,9,99,9",,"10200,1,99999,9",,,,,"MET051METAR EDBC 101250Z 30004KT 9999 BKN042 19/12 Q1020;",
"10616499999","2010-09-10T13:20:00","4","51.854992","11.418889","180.0","COCHSTEDT, GM","FM-15","EDBC ","V020","290,1,N,0021,1","99999,9,9,Y","009900,1,N,1","+0200,1","+0120,1","99999,9",,,,,,"10200,1,99999,9",,,,,"MET045METAR EDBC 101320Z 29004KT CAVOK 20/12 Q1020;",
"10616499999","2010-09-10T13:50:00","4","51.854992","11.418889","180.0","COCHSTEDT, GM","FM-15","EDBC ","V020","210,1,N,0036,1","99999,9,C,N","011265,1,N,1","+0180,1","+0120,1","99999,9","02,5,+00180,1,99,9","04,5,+00750,1,99,9",,"04,99,1,99,9,99,9,99999,9,99,9,99,9",,"10200,1,99999,9","61,1",,,,"MET064METAR EDBC 101350Z 21007KT 9999 -RASH FEW006 SCT025 18/12 Q1020;","P01 007503SCOCIG"
"10616499999","2010-09-12T09:20:00","4","51.854992","11.418889","180.0","COCHSTEDT, GM","FM-15","EDBC ","V020","210,1,N,0036,1","22000,1,9,N","011265,1,N,1","+0210,1","+0130,1","99999,9","04,5,+01260,1,99,9",,,"04,99,1,99,9,99,9,99999,9,99,9,99,9",,"10190,1,99999,9",,,,,"MET051METAR EDBC 120920Z 21007KT 9999 SCT042 21/13 Q1019;",
"10616499999","2010-09-12T09:50:00","4","51.854992","11.418889","180.0","COCHSTEDT, GM","FM-15","EDBC ","V020","220,1,N,0041,1","22000,1,9,N","011265,1,N,1","+0210,1","+0130,1","99999,9","02,5,+01260,1,99,9",,,"02,99,1,99,9,99,9,99999,9,99,9,99,9",,"10190,1,99999,9",,,,,"MET051METAR EDBC 120950Z 22008KT 9999 FEW042 21/13 Q1019;",
"10616499999","2010-09-12T10:20:00","4","51.854992","11.418889","180.0","COCHSTEDT, GM","FM-15","EDBC ","V020","200,1,N,0046,1","22000,1,9,N","011265,1,N,1","+0220,1","+0130,1","99999,9","02,5,+01440,1,99,9",,,"02,99,1,99,9,99,9,99999,9,99,9,99,9",,"10190,1,99999,9",,,,,"MET051METAR EDBC 121020Z 20009KT 9999 FEW048 22/13 Q1019;",
"10616499999","2010-09-12T10:50:00","4","51.854992","11.418889","180.0","COCHSTEDT, GM","FM-15","EDBC ","V020","210,1,N,0057,1","99999,9,9,Y","009900,1,N,1","+0220,1","+0130,1","99999,9",,,,,,"10190,1,99999,9",,,,,"MET045METAR EDBC 121050Z 21011KT CAVOK 22/13 Q1019;",
"10616499999","2010-09-13T04:50:00","4","51.854992","11.418889","180.0","COCHSTEDT, GM","FM-15","EDBC ","V020","310,1,N,0046,1","22000,1,9,N","005000,1,N,1","+0130,1","+0130,1","99999,9","04,5,+00300,1,99,9",,,"04,99,1,99,9,99,9,99999,9,99,9,99,9",,"10200,1,99999,9","53,1","63,1",,,"MET056METAR EDBC 130450Z 31009KT 5000 DZRA SCT010 13/13 Q1020;",
"10616499999","2010-09-13T05:20:00","4","51.854992","11.418889","180.0","COCHSTEDT, GM","FM-15","EDBC ","V020","310,1,N,0046,1","00150,1,C,N","005000,1,N,1","+0130,1","+0130,1","99999,9","07,5,+00150,1,99,9",,,"07,99,1,99,9,99,9,99999,9,99,9,99,9",,"10210,1,99999,9","63,1",,,,"MET054METAR EDBC 130520Z 31009KT 5000 RA BKN005 13/13 Q1021;",
"10616499999","2010-09-13T05:50:00","4","51.854992","11.418889","180.0","COCHSTEDT, GM","FM-15","EDBC ","V020","310,1,N,0051,1","00150,1,C,N","005000,1,N,1","+0130,1","+0130,1","99999,9","07,5,+00150,1,99,9",,,"07,99,1,99,9,99,9,99999,9,99,9,99,9",,"10210,1,99999,9","53,1","63,1",,,"MET056METAR EDBC 130550Z 31010KT 5000 DZRA BKN005 13/13 Q1021;",
"10616499999","2010-09-13T06:20:00","4","51.854992","11.418889","180.0","COCHSTEDT, GM","FM-15","EDBC ","V020","310,1,N,0046,1","00150,1,C,N","005000,1,N,1","+0130,1","+0130,1","99999,9","07,5,+00150,1,99,9",,,"07,99,1,99,9,99,9,99999,9,99,9,99,9",,"10210,1,99999,9","63,1",,,,"MET054METAR EDBC 130620Z 31009KT 5000 RA BKN005 13/13 Q1021;",
"10616499999","2010-09-13T06:50:00","4","51.854992","11.418889","180.0","COCHSTEDT, GM","FM-15","EDBC ","V020","300,1,N,0051,1","00150,1,C,N","005000,1,N,1","+0130,1","+0130,1","99999,9","07,5,+00150,1,99,9",,,"07,99,1,99,9,99,9,99999,9,99,9,99,9",,"10220,1,99999,9","53,1","63,1",,,"MET056METAR EDBC 130650Z 30010KT 5000 DZRA BKN005 13/13 Q1022;",
"10616499999","2010-09-13T07:20:00","4","51.854992","11.418889","180.0","COCHSTEDT, GM","FM-15","EDBC ","V020","300,1,N,0057,1","00150,1,C,N","005000,1,N,1","+0130,1","+0130,1","99999,9","07,5,+00150,1,99,9",,,"07,99,1,99,9,99,9,99999,9,99,9,99,9",,"10220,1,99999,9","53,1","63,1",,,"MET064METAR EDBC 130720Z 30011KT 270V330 5000 DZRA BKN005 13/13 Q1022;",
"10616499999","2010-09-13T07:50:00","4","51.854992","11.418889","180.0","COCHSTEDT, GM","FM-15","EDBC ","V020","300,1,N,0057,1","22000,1,9,N","005000,1,N,1","+0130,1","+0120,1","99999,9","02,5,+00210,1,99,9",,,"02,99,1,99,9,99,9,99999,9,99,9,99,9",,"10220,1,99999,9",,,,,"MET051METAR EDBC 130750Z 30011KT 5000 FEW007 13/12 Q1022;",
"10616499999","2010-09-13T08:20:00","4","51.854992","11.418889","180.0","COCHSTEDT, GM","FM-15","EDBC ","V020","300,1,N,0062,1","22000,1,9,N","005000,1,N,1","+0140,1","+0120,1","99999,9","04,5,+00210,1,99,9",,,"04,99,1,99,9,99,9,99999,9,99,9,99,9",,"10220,1,99999,9",,,,,"MET051METAR EDBC 130820Z 30012KT 5000 SCT007 14/12 Q1022;",
"10616499999","2010-09-13T08:50:00","4","51.854992","11.418889","180.0","COCHSTEDT, GM","FM-15","EDBC ","V020","300,1,N,0046,1","22000,1,9,N","006000,1,N,1","+0140,1","+0130,1","99999,9","04,5,+00360,1,99,9",,,"04,99,1,99,9,99,9,99999,9,99,9,99,9",,"10230,1,99999,9",,,,,"MET051METAR EDBC 130850Z 30009KT 6000 SCT012 14/13 Q1023;",
"10616499999","2010-09-13T09:20:00","4","51.854992","11.418889","180.0","COCHSTEDT, GM","FM-15","EDBC ","V020","310,1,N,0067,1","22000,1,9,N","007000,1,N,1","+0150,1","+0120,1","99999,9","04,5,+00390,1,99,9",,,"04,99,1,99,9,99,9,99999,9,99,9,99,9",,"10230,1,99999,9",,,,,"MET059METAR EDBC 130920Z 31013KT 270V330 7000 SCT013 15/12 Q1023;",
"10616499999","2010-09-13T09:50:00","4","51.854992","11.418889","180.0","COCHSTEDT, GM","FM-15","EDBC ","V020","300,1,N,0062,1","22000,1,9,N","007000,1,N,1","+0150,1","+0120,1","99999,9","04,5,+00450,1,99,9",,,"04,99,1,99,9,99,9,99999,9,99,9,99,9",,"10230,1,99999,9",,,,,"MET059METAR EDBC 130950Z 30012KT 260V330 7000 SCT015 15/12 Q1023;",
"10616499999","2010-09-13T10:20:00","4","51.854992","11.418889","180.0","COCHSTEDT, GM","FM-15","EDBC ","V020","310,1,N,0057,1","22000,1,9,N","007000,1,N,1","+0160,1","+0120,1","99999,9","04,5,+00540,1,99,9",,,"04,99,1,99,9,99,9,99999,9,99,9,99,9",,"10230,1,99999,9",,,,,"MET051METAR EDBC 131020Z 31011KT 7000 SCT018 16/12 Q1023;",
"10616499999","2010-09-13T10:50:00","4","51.854992","11.418889","180.0","COCHSTEDT, GM","FM-15","EDBC ","V020","310,1,N,0062,1","22000,1,9,N","011265,1,N,1","+0160,1","+0120,1","99999,9","04,5,+00750,1,99,9",,,"04,99,1,99,9,99,9,99999,9,99,9,99,9",,"10230,1,99999,9",,,,,"MET059METAR EDBC 131050Z 31012KT 270V330 9999 SCT025 16/12 Q1023;",
"10616499999","2010-09-13T11:20:00","4","51.854992","11.418889","180.0","COCHSTEDT, GM","FM-15","EDBC ","V020","300,1,N,0062,1","22000,1,9,N","011265,1,N,1","+0150,1","+0110,1","99999,9","04,5,+01260,5,99,9",,,,,"10230,1,99999,9",,,,,"MET058METAR EDBC 131120Z 30012KT 9999 FES022 SCT042 15/11 Q1023;",
"10616499999","2010-09-13T11:50:00","4","51.854992","11.418889","180.0","COCHSTEDT, GM","FM-15","EDBC ","V020","300,1,N,0062,1","22000,1,9,N","011265,1,N,1","+0170,1","+0110,1","99999,9","04,5,+00750,1,99,9",,,"04,99,1,99,9,99,9,99999,9,99,9,99,9",,"10230,1,99999,9",,,,,"MET051METAR EDBC 131150Z 30012KT 9999 SCT025 17/11 Q1023;",
"10616499999","2010-09-13T12:20:00","4","51.854992","11.418889","180.0","COCHSTEDT, GM","FM-15","EDBC ","V020","300,1,N,0057,1","99999,9,9,Y","009900,1,N,1","+0160,1","+0110,1","99999,9",,,,,,"10230,1,99999,9",,,,,"MET053METAR EDBC 131220Z 30011KT 260V320 CAVOK 16/11 Q1023;",
"10616499999","2010-09-13T12:50:00","4","51.854992","11.418889","180.0","COCHSTEDT, GM","FM-15","EDBC ","V020","290,1,N,0051,1","99999,9,9,Y","009900,1,N,1","+0180,1","+0100,1","99999,9",,,,,,"10230,1,99999,9",,,,,"MET045METAR EDBC 131250Z 29010KT CAVOK 18/10 Q1023;",
"10616499999","2010-09-13T13:20:00","4","51.854992","11.418889","180.0","COCHSTEDT, GM","FM-15","EDBC ","V020","280,1,N,0072,1","22000,1,9,N","011265,1,N,1","+0170,1","+0100,1","99999,9","04,5,+01020,1,99,9",,,"04,99,1,99,9,99,9,99999,9,99,9,99,9",,"10230,1,99999,9",,,,,"MET051METAR EDBC 131320Z 28014KT 9999 SCT034 17/10 Q1023;",
"10616499999","2010-09-13T13:50:00","4","51.854992","11.418889","180.0","COCHSTEDT, GM","FM-15","EDBC ","V020","280,1,N,0072,1","22000,1,9,N","011265,1,N,1","+0170,1","+0110,1","99999,9","04,5,+01110,1,99,9",,,"04,99,1,99,9,99,9,99999,9,99,9,99,9",,"10230,1,99999,9",,,,,"MET051METAR EDBC 131350Z 28014KT 9999 SCT037 17/11 Q1023;",
"10616499999","2010-09-14T04:20:00","4","51.854992","11.418889","180.0","COCHSTEDT, GM","FM-15","EDBC ","V020","210,1,N,0062,1","01650,5,C,N","005000,1,N,1","+0120,1","+0110,1","99999,9","02,5,+01200,1,99,9","07,5,+01650,5,99,9",,"07,99,1,99,9,99,9,99999,9,99,9,99,9",,"10190,1,99999,9",,,,,"MET058METAR EDBC 140420Z 21012KT 5000 FEW040 BKN055 12/11 Q1019;",
"10616499999","2010-09-14T04:50:00","4","51.854992","11.418889","180.0","COCHSTEDT, GM","FM-15","EDBC ","V020","190,1,N,0067,1","01620,5,C,N","005000,1,N,1","+0120,1","+0110,1","99999,9","02,5,+00600,1,99,9","07,5,+01620,5,99,9",,"07,99,1,99,9,99,9,99999,9,99,9,99,9",,"10180,1,99999,9","53,1","63,1",,,"MET063METAR EDBC 140450Z 19013KT 5000 DZRA FEW020 BKN054 12/11 Q1018;",
"10616499999","2010-09-14T05:20:00","4","51.854992","11.418889","180.0","COCHSTEDT, GM","FM-15","EDBC ","V020","190,1,N,0072,1","01440,1,C,N","005000,1,N,1","+0120,1","+0110,1","99999,9","02,5,+00720,1,99,9","07,5,+01440,1,99,9",,"07,99,1,99,9,99,9,99999,9,99,9,99,9",,"10169,1,99999,9","53,1","63,1",,,"MET063METAR EDBC 140520Z 19014KT 5000 DZRA FEW024 BKN048 12/11 Q1017;",
"10616499999","2010-09-14T05:50:00","4","51.854992","11.418889","180.0","COCHSTEDT, GM","FM-15","EDBC ","V020","210,1,N,0077,1","01260,1,C,N","005000,1,N,1","+0130,1","+0110,1","99999,9","02,5,+00720,1,99,9","07,5,+01260,1,99,9",,"07,99,1,99,9,99,9,99999,9,99,9,99,9",,"10169,1,99999,9","53,1","63,1",,,"MET063METAR EDBC 140550Z 21015KT 5000 DZRA FEW024 BKN042 13/11 Q1017;",
"10616499999","2010-09-14T06:20:00","4","51.854992","11.418889","180.0","COCHSTEDT, GM","FM-15","EDBC ","V020","210,1,N,0077,1","01080,1,C,N","005000,1,N,1","+0120,1","+0110,1","99999,9","02,5,+00570,1,99,9","07,5,+01080,1,99,9",,"07,99,1,99,9,99,9,99999,9,99,9,99,9",,"10169,1,99999,9","53,1","63,1",,,"MET063METAR EDBC 140620Z 21015KT 5000 DZRA FEW019 BKN036 12/11 Q1017;",
"10616499999","2010-09-14T06:50:00","4","51.854992","11.418889","180.0","COCHSTEDT, GM","FM-15","EDBC ","V020","220,1,N,0087,1","01140,1,C,N","005000,1,N,1","+0130,1","+0120,1","99999,9","07,5,+01140,1,99,9",,,"07,99,1,99,9,99,9,99999,9,99,9,99,9",,"10159,1,99999,9","53,1","63,1",,,"MET056METAR EDBC 140650Z 22017KT 5000 DZRA BKN038 13/12 Q1016;",
"10616499999","2010-09-14T07:20:00","4","51.854992","11.418889","180.0","COCHSTEDT, GM","FM-15","EDBC ","V020","230,1,N,0077,1","22000,1,9,N","005000,1,N,1","+0130,1","+0120,1","99999,9","04,5,+00900,1,99,9",,,"04,99,1,99,9,99,9,99999,9,99,9,99,9",,"10159,1,99999,9","53,1","63,1",,,"MET056METAR EDBC 140720Z 23015KT 5000 DZRA SCT030 13/12 Q1016;",
"10616499999","2010-09-14T07:50:00","4","51.854992","11.418889","180.0","COCHSTEDT, GM","FM-15","EDBC ","V020","240,1,N,0062,1","00900,1,C,N","005000,1,N,1","+0130,1","+0120,1","99999,9","02,5,+00540,1,99,9","07,5,+00900,1,99,9",,"07,99,1,99,9,99,9,99999,9,99,9,99,9",,"10169,1,99999,9","53,1","63,1",,,"MET063METAR EDBC 140750Z 24012KT 5000 DZRA FEW018 BKN030 13/12 Q1017;",
"10616499999","2010-09-14T08:20:00","4","51.854992","11.418889","180.0","COCHSTEDT, GM","FM-15","EDBC ","V020","230,1,N,0067,1","00900,1,C,N","005000,1,N,1","+0130,1","+0120,1","99999,9","02,5,+00600,1,99,9","07,5,+00900,1,99,9",,"07,99,1,99,9,99,9,99999,9,99,9,99,9",,"10159,1,99999,9","53,1","63,1",,,"MET063METAR EDBC 140820Z 23013KT 5000 DZRA FEW020 BKN030 13/12 Q1016;",
"10616499999","2010-09-14T08:50:00","4","51.854992","11.418889","180.0","COCHSTEDT, GM","FM-15","EDBC ","V020","220,1,N,0067,1","00810,1,C,N","005000,1,N,1","+0130,1","+0120,1","99999,9","07,5,+00810,1,99,9","08,5,+01020,1,99,9",,"08,99,1,99,9,99,9,99999,9,99,9,99,9",,"10159,1,99999,9","63,1",,,,"MET061METAR EDBC 140850Z 22013KT 5000 RA BKN027 OVC034 13/12 Q1016;",
"10616499999","2010-09-14T09:20:00","4","51.854992","11.418889","180.0","COCHSTEDT, GM","FM-15","EDBC ","V020","230,1,N,0072,1","22000,1,9,N","005000,1,N,1","+0130,1","+0120,1","99999,9","04,5,+00720,1,99,9",,,"04,99,1,99,9,99,9,99999,9,99,9,99,9",,"10159,1,99999,9","53,1","63,1",,,"MET056METAR EDBC 140920Z 23014KT 5000 DZRA SCT024 13/12 Q1016;",
"10616499999","2010-09-14T09:50:00","4","51.854992","11.418889","180.0","COCHSTEDT, GM","FM-15","EDBC ","V020","230,1,N,0067,1","01140,1,C,N","005000,1,N,1","+0140,1","+0130,1","99999,9","04,5,+00750,1,99,9","07,5,+01140,1,99,9",,"07,99,1,99,9,99,9,99999,9,99,9,99,9",,"10159,1,99999,9","53,1","63,1",,,"MET063METAR EDBC 140950Z 23013KT 5000 DZRA SCT025 BKN038 14/13 Q1016;",
"10616499999","2010-09-14T10:20:00","4","51.854992","11.418889","180.0","COCHSTEDT, GM","FM-15","EDBC ","V020","230,1,N,0072,1","01350,1,C,N","005000,1,N,1","+0140,1","+0130,1","99999,9","04,5,+00720,1,99,9","07,5,+01350,1,99,9",,"07,99,1,99,9,99,9,99999,9,99,9,99,9",,"10159,1,99999,9","63,1",,,,"MET061METAR EDBC 141020Z 23014KT 5000 RA SCT024 BKN045 14/13 Q1016;",
"10616499999","2010-09-14T10:50:00","4","51.854992","11.418889","180.0","COCHSTEDT, GM","FM-15","EDBC ","V020","230,1,N,0072,1","01200,1,C,N","005000,1,N,1","+0140,1","+0130,1","99999,9","04,5,+00720,1,99,9","07,5,+01200,1,99,9",,"07,99,1,99,9,99,9,99999,9,99,9,99,9",,"10159,1,99999,9","63,1",,,,"MET061METAR EDBC 141050Z 23014KT 5000 RA SCT024 BKN040 14/13 Q1016;",
"10616499999","2010-09-14T11:20:00","4","51.854992","11.418889","180.0","COCHSTEDT, GM","FM-15","EDBC ","V020","230,1,N,0072,1","01200,1,C,N","005000,1,N,1","+0140,1","+0130,1","99999,9","04,5,+01050,1,99,9","07,5,+01200,1,99,9",,"07,99,1,99,9,99,9,99999,9,99,9,99,9",,"10149,1,99999,9","63,1",,,,"MET061METAR EDBC 141120Z 23014KT 5000 RA SCT035 BKN040 14/13 Q1015;",
"10616499999","2010-09-14T11:50:00","4","51.854992","11.418889","180.0","COCHSTEDT, GM","FM-15","EDBC ","V020","230,1,N,0077,1","01290,1,C,N","006000,1,N,1","+0150,1","+0140,1","99999,9","04,5,+01050,1,99,9","07,5,+01290,1,99,9",,"07,99,1,99,9,99,9,99999,9,99,9,99,9",,"10149,1,99999,9","63,1",,,,"MET061METAR EDBC 141150Z 23015KT 6000 RA SCT035 BKN043 15/14 Q1015;",
"10616499999","2010-09-14T12:20:00","4","51.854992","11.418889","180.0","COCHSTEDT, GM","FM-15","EDBC ","V020","230,1,N,0067,1","01140,1,C,N","008000,1,N,1","+0150,1","+0140,1","99999,9","07,5,+01140,1,99,9",,,"07,99,1,99,9,99,9,99999,9,99,9,99,9",,"10149,1,99999,9","61,1",,,,"MET055METAR EDBC 141220Z 23013KT 8000 -RA BKN038 15/14 Q1015;",
"10616499999","2010-09-14T12:50:00","4","51.854992","11.418889","180.0","COCHSTEDT, GM","FM-15","EDBC ","V020","230,1,N,0057,1","01320,1,C,N","008000,1,N,1","+0150,1","+0140,1","99999,9","04,5,+01020,1,99,9","07,5,+01320,1,99,9",,"07,99,1,99,9,99,9,99999,9,99,9,99,9",,"10149,1,99999,9","61,1",,,,"MET062METAR EDBC 141250Z 23011KT 8000 -RA SCT034 BKN044 15/14 Q1015;",
"10616499999","2010-09-14T13:20:00","4","51.854992","11.418889","180.0","COCHSTEDT, GM","FM-15","EDBC ","V020","220,1,N,0051,1","00960,1,C,N","008000,1,N,1","+0150,1","+0140,1","99999,9","07,5,+00960,1,99,9",,,"07,99,1,99,9,99,9,99999,9,99,9,99,9",,"10139,1,99999,9","61,1",,,,"MET055METAR EDBC 141320Z 22010KT 8000 -RA BKN032 15/14 Q1014;",
"10616499999","2010-09-15T04:20:00","4","51.854992","11.418889","180.0","COCHSTEDT, GM","FM-15","EDBC ","V020","300,1,N,0098,1","01200,1,C,N","005000,1,N,1","+0110,1","+0100,1","99999,9","04,5,+00300,1,99,9","07,5,+01200,1,99,9",,"07,99,1,99,9,99,9,99999,9,99,9,99,9",,"10071,1,99999,9","63,1",,,"0159,1","MET064METAR EDBC 150420Z 30019G31KT 5000 RA SCT010 BKN040 11/10 Q1007;",
"10616499999","2010-09-15T04:50:00","4","51.854992","11.418889","180.0","COCHSTEDT, GM","FM-15","EDBC ","V020","270,1,N,0082,1","01500,1,C,N","007000,1,N,1","+0110,1","+0100,1","99999,9","04,5,+01050,1,99,9","07,5,+01500,1,99,9",,"07,99,1,99,9,99,9,99999,9,99,9,99,9",,"10071,1,99999,9","63,1",,,,"MET061METAR EDBC 150450Z 27016KT 7000 RA SCT035 BKN050 11/10 Q1007;",
"10616499999","2010-09-15T05:20:00","4","51.854992","11.418889","180.0","COCHSTEDT, GM","FM-15","EDBC ","V020","260,1,N,0062,1","01500,1,C,N","007000,1,N,1","+0110,1","+0100,1","99999,9","04,5,+01050,1,99,9","07,5,+01500,1,99,9",,"07,99,1,99,9,99,9,99999,9,99,9,99,9",,"10071,1,99999,9","53,1","63,1",,,"MET063METAR EDBC 150520Z 26012KT 7000 DZRA SCT035 BKN050 11/10 Q1007;",
"10616499999","2010-09-15T05:50:00","4","51.854992","11.418889","180.0","COCHSTEDT, GM","FM-15","EDBC ","V020","250,1,N,0051,1","99999,9,C,N","007000,1,N,1","+0110,1","+0100,1","99999,9","02,5,+00600,1,99,9","04,5,+01200,1,99,9",,"04,99,1,99,9,99,9,99999,9,99,9,99,9",,"10081,1,99999,9","53,1","63,1",,,"MET063METAR EDBC 150550Z 25010KT 7000 DZRA FEW020 SCT040 11/10 Q1008;","P01 012003SCOCIG"
"10616499999","2010-09-15T06:20:00","4","51.854992","11.418889","180.0","COCHSTEDT, GM","FM-15","EDBC ","V020","270,1,N,0031,1","22000,1,9,N","011265,1,N,1","+0120,1","+0100,1","99999,9","02,5,+01050,1,99,9",,,"02,99,1,99,9,99,9,99999,9,99,9,99,9",,"10071,1,99999,9",,,,,"MET059METAR EDBC 150620Z 27006KT 240V360 9999 FEW035 12/10 Q1007;",
"10616499999","2010-09-15T06:50:00","4","51.854992","11.418889","180.0","COCHSTEDT, GM","FM-15","EDBC ","V020","270,1,N,0057,1","99999,9,9,Y","009900,1,N,1","+0120,1","+0100,1","99999,9",,,,,,"10081,1,99999,9",,,,,"MET045METAR EDBC 150650Z 27011KT CAVOK 12/10 Q1008;",
"10616499999","2010-09-15T07:20:00","4","51.854992","11.418889","180.0","COCHSTEDT, GM","FM-15","EDBC ","V020","250,1,N,0067,1","99999,9,9,Y","009900,1,N,1","+0130,1","+0100,1","99999,9",,,,,,"10081,1,99999,9",,,,,"MET045METAR EDBC 150720Z 25013KT CAVOK 13/10 Q1008;",
"10616499999","2010-09-15T08:20:00","4","51.854992","11.418889","180.0","COCHSTEDT, GM","FM-15","EDBC ","V020","270,1,N,0082,1","22000,1,9,N","011265,1,N,1","+0150,1","+0090,1","99999,9","04,5,+01050,1,99,9",,,"04,99,1,99,9,99,9,99999,9,99,9,99,9",,"10091,1,99999,9",,,,,"MET051METAR EDBC 150820Z 27016KT 9999 SCT035 15/09 Q1009;",
"10616499999","2010-09-15T08:50:00","4","51.854992","11.418889","180.0","COCHSTEDT, GM","FM-15","EDBC ","V020","270,1,N,0067,1","22000,1,9,N","011265,1,N,1","+0140,1","+0080,1","99999,9","04,5,+00900,1,99,9",,,"04,99,1,99,9,99,9,99999,9,99,9,99,9",,"10091,1,99999,9",,,,,"MET051METAR EDBC 150850Z 27013KT 9999 SCT030 14/08 Q1009;",
"10616499999","2010-09-15T09:20:00","4","51.854992","11.418889","180.0","COCHSTEDT, GM","FM-15","EDBC ","V020","270,1,N,0082,1","22000,1,9,N","011265,1,N,1","+0140,1","+0080,1","99999,9","04,5,+00900,1,99,9",,,"04,99,1,99,9,99,9,99999,9,99,9,99,9",,"10091,1,99999,9",,,,,"MET051METAR EDBC 150920Z 27016KT 9999 SCT030 14/08 Q1009;",
"10616499999","2010-09-15T09:50:00","4","51.854992","11.418889","180.0","COCHSTEDT, GM","FM-15","EDBC ","V020","260,1,N,0082,1","22000,1,9,N","011265,1,N,1","+0160,1","+0080,1","99999,9","04,5,+01050,1,99,9",,,"04,99,1,99,9,99,9,99999,9,99,9,99,9",,"10091,1,99999,9",,,,,"MET051METAR EDBC 150950Z 26016KT 9999 SCT035 16/08 Q1009;",
"10616499999","2010-09-15T10:20:00","4","51.854992","11.418889","180.0","COCHSTEDT, GM","FM-15","EDBC ","V020","240,1,N,0062,1","22000,1,9,N","011265,1,N,1","+0150,1","+0090,1","99999,9","04,5,+01050,1,99,9",,,"04,99,1,99,9,99,9,99999,9,99,9,99,9",,"10091,1,99999,9",,,,"0113,1","MET054METAR EDBC 151020Z 24012G22KT 9999 SCT035 15/09 Q1009;",
"10616499999","2010-09-15T10:50:00","4","51.854992","11.418889","180.0","COCHSTEDT, GM","FM-15","EDBC ","V020","260,1,N,0067,1","22000,1,9,N","011265,1,N,1","+0170,1","+0080,1","99999,9","04,5,+01200,1,99,9",,,"04,99,1,99,9,99,9,99999,9,99,9,99,9",,"10091,1,99999,9",,,,,"MET059METAR EDBC 151050Z 26013KT 230V290 9999 SCT040 17/08 Q1009;",
"10616499999","2010-09-15T11:20:00","4","51.854992","11.418889","180.0","COCHSTEDT, GM","FM-15","EDBC ","V020","230,1,N,0087,1","22000,1,9,N","011265,1,N,1","+0170,1","+0090,1","99999,9","04,5,+01350,1,99,9",,,"04,99,1,99,9,99,9,99999,9,99,9,99,9",,"10091,1,99999,9",,,,,"MET059METAR EDBC 151120Z 23017KT 200V260 9999 SCT045 17/09 Q1009;",
"10616499999","2010-09-15T11:50:00","4","51.854992","11.418889","180.0","COCHSTEDT, GM","FM-15","EDBC ","V020","250,1,N,0077,1","22000,1,9,N","011265,1,N,1","+0170,1","+0070,1","99999,9","04,5,+01290,1,99,9",,,"04,99,1,99,9,99,9,99999,9,99,9,99,9",,"10081,1,99999,9",,,,,"MET059METAR EDBC 151150Z 25015KT 210V280 9999 SCT043 17/07 Q1008;",
"10616499999","2010-09-15T12:20:00","4","51.854992","11.418889","180.0","COCHSTEDT, GM","FM-15","EDBC ","V020","240,1,N,0087,1","99999,9,C,N","011265,1,N,1","+0170,1","+0080,1","99999,9","02,5,+01140,1,99,9","04,5,+01680,5,99,9",,"04,99,1,99,9,99,9,99999,9,99,9,99,9",,"10081,1,99999,9",,,,,"MET058METAR EDBC 151220Z 24017KT 9999 FEW038 SCT056 17/08 Q1008;","P01 016803SCOCIG"
"10616499999","2010-09-15T12:50:00","4","51.854992","11.418889","180.0","COCHSTEDT, GM","FM-15","EDBC ","V020","230,1,N,0072,1","99999,9,9,Y","009900,1,N,1","+0180,1","+0080,1","99999,9",,,,,,"10081,1,99999,9",,,,,"MET045METAR EDBC 151250Z 23014KT CAVOK 18/08 Q1008;",
"10616499999","2010-09-15T13:20:00","4","51.854992","11.418889","180.0","COCHSTEDT, GM","FM-15","EDBC ","V020","240,1,N,0087,1","22000,1,9,N","011265,1,N,1","+0180,1","+0070,1","99999,9","02,5,+01350,1,99,9",,,"02,99,1,99,9,99,9,99999,9,99,9,99,9",,"10071,1,99999,9",,,,"0149,1","MET054METAR EDBC 151320Z 24017G29KT 9999 FEW045 18/07 Q1007;",
"10616499999","2010-09-15T13:50:00","4","51.854992","11.418889","180.0","COCHSTEDT, GM","FM-15","EDBC ","V020","240,1,N,0077,1","22000,1,9,N","011265,1,N,1","+0180,1","+0080,1","99999,9","04,5,+01410,1,99,9",,,"04,99,1,99,9,99,9,99999,9,99,9,99,9",,"10071,1,99999,9",,,,,"MET051METAR EDBC 151350Z 24015KT 9999 SCT047 18/08 Q1007;",
"10616499999","2010-09-16T04:20:00","4","51.854992","11.418889","180.0","COCHSTEDT, GM","FM-15","EDBC ","V020","270,1,N,0082,1","00900,1,C,N","005000,1,N,1","+0080,1","+0060,1","99999,9","07,5,+00900,1,99,9",,,"07,99,1,99,9,99,9,99999,9,99,9,99,9",,"10051,1,99999,9","63,1",,,,"MET054METAR EDBC 160420Z 27016KT 5000 RA BKN030 08/06 Q1005;",
"10616499999","2010-09-16T04:50:00","4","51.854992","11.418889","180.0","COCHSTEDT, GM","FM-15","EDBC ","V020","260,1,N,0062,1","22000,1,9,N","006000,1,N,1","+0080,1","+0060,1","99999,9","04,5,+01350,1,99,9",,,"04,99,1,99,9,99,9,99999,9,99,9,99,9",,"10051,1,99999,9","63,1",,,,"MET054METAR EDBC 160450Z 26012KT 6000 RA SCT045 08/06 Q1005;",
"10616499999","2010-09-16T05:20:00","4","51.854992","11.418889","180.0","COCHSTEDT, GM","FM-15","EDBC ","V020","260,1,N,0051,1","22000,1,9,N","006000,1,N,1","+0070,1","+0060,1","99999,9","02,5,+01350,1,99,9",,,"02,99,1,99,9,99,9,99999,9,99,9,99,9",,"10061,1,99999,9",,,,,"MET051METAR EDBC 160520Z 26010KT 6000 FEW045 07/06 Q1006;",
"10616499999","2010-09-16T05:50:00","4","51.854992","11.418889","180.0","COCHSTEDT, GM","FM-15","EDBC ","V020","250,1,N,0062,1","99999,9,9,Y","009900,1,N,1","+0080,1","+0060,1","99999,9",,,,,,"10061,1,99999,9",,,,,"MET045METAR EDBC 160550Z 25012KT CAVOK 08/06 Q1006;",
"10616499999","2010-09-16T06:20:00","4","51.854992","11.418889","180.0","COCHSTEDT, GM","FM-15","EDBC ","V020","230,1,N,0051,1","99999,9,9,Y","009900,1,N,1","+0090,1","+0070,1","99999,9",,,,,,"10061,1,99999,9",,,,,"MET045METAR EDBC 160620Z 23010KT CAVOK 09/07 Q1006;",
"10616499999","2010-09-16T06:50:00","4","51.854992","11.418889","180.0","COCHSTEDT, GM","FM-15","EDBC ","V020","240,1,N,0062,1","99999,9,9,Y","009900,1,N,1","+0100,1","+0070,1","99999,9",,,,,,"10071,1,99999,9",,,,,"MET045METAR EDBC 160650Z 24012KT CAVOK 10/07 Q1007;",
"10616499999","2010-09-16T07:20:00","4","51.854992","11.418889","180.0","COCHSTEDT, GM","FM-15","EDBC ","V020","240,1,N,0057,1","99999,9,9,Y","009900,1,N,1","+0110,1","+0070,1","99999,9",,,,,,"10071,1,99999,9",,,,,"MET045METAR EDBC 160720Z 24011KT CAVOK 11/07 Q1007;",
"10616499999","2010-09-16T07:50:00","4","51.854992","11.418889","180.0","COCHSTEDT, GM","FM-15","EDBC ","V020","240,1,N,0082,1","99999,9,9,Y","009900,1,N,1","+0120,1","+0070,1","99999,9",,,,,,"10081,1,99999,9",,,,,"MET045METAR EDBC 160750Z 24016KT CAVOK 12/07 Q1008;",
"10616499999","2010-09-16T08:20:00","4","51.854992","11.418889","180.0","COCHSTEDT, GM","FM-15","EDBC ","V020","250,1,N,0082,1","22000,1,9,N","011265,1,N,1","+0130,1","+0080,1","99999,9","02,5,+00720,1,99,9",,,"02,99,1,99,9,99,9,99999,9,99,9,99,9",,"10081,1,99999,9",,,,,"MET051METAR EDBC 160820Z 25016KT 9999 FEW024 13/08 Q1008;",
"10616499999","2010-09-16T08:50:00","4","51.854992","11.418889","180.0","COCHSTEDT, GM","FM-15","EDBC ","V020","240,1,N,0093,1","22000,1,9,N","011265,1,N,1","+0130,1","+0070,1","99999,9","02,5,+00720,1,99,9",,,"02,99,1,99,9,99,9,99999,9,99,9,99,9",,"10081,1,99999,9",,,,,"MET051METAR EDBC 160850Z 24018KT 9999 FEW024 13/07 Q1008;",
"10616499999","2010-09-16T09:20:00","4","51.854992","11.418889","180.0","COCHSTEDT, GM","FM-15","EDBC ","V020","240,1,N,0098,1","99999,9,9,Y","009900,1,N,1","+0130,1","+0070,1","99999,9",,,,,,"10091,1,99999,9",,,,,"MET045METAR EDBC 160920Z 24019KT CAVOK 13/07 Q1009;",
"10616499999","2010-09-16T09:50:00","4","51.854992","11.418889","180.0","COCHSTEDT, GM","FM-15","EDBC ","V020","250,1,N,0103,1","22000,1,9,N","011265,1,N,1","+0140,1","+0070,1","99999,9","02,5,+01050,1,99,9",,,"02,99,1,99,9,99,9,99999,9,99,9,99,9",,"10081,1,99999,9",,,,,"MET051METAR EDBC 160950Z 25020KT 9999 FEW035 14/07 Q1008;",
"10616499999","2010-09-16T10:20:00","4","51.854992","11.418889","180.0","COCHSTEDT, GM","FM-15","EDBC ","V020","240,1,N,0093,1","22000,1,9,N","011265,1,N,1","+0150,1","+0070,1","99999,9","02,5,+01050,1,99,9",,,"02,99,1,99,9,99,9,99999,9,99,9,99,9",,"10091,1,99999,9",,,,,"MET051METAR EDBC 161020Z 24018KT 9999 FEW035 15/07 Q1009;",
"10616499999","2010-09-16T10:50:00","4","51.854992","11.418889","180.0","COCHSTEDT, GM","FM-15","EDBC ","V020","240,1,N,0077,1","22000,1,9,N","011265,1,N,1","+0160,1","+0060,1","99999,9","02,5,+01140,1,99,9",,,"02,99,1,99,9,99,9,99999,9,99,9,99,9",,"10081,1,99999,9",,,,,"MET051METAR EDBC 161050Z 24015KT 9999 FEW038 16/06 Q1008;",
"10616499999","2010-09-16T11:20:00","4","51.854992","11.418889","180.0","COCHSTEDT, GM","FM-15","EDBC ","V020","230,1,N,0093,1","22000,1,9,N","011265,1,N,1","+0160,1","+0060,1","99999,9","02,5,+01200,1,99,9",,,"02,99,1,99,9,99,9,99999,9,99,9,99,9",,"10081,1,99999,9",,,,,"MET051METAR EDBC 161120Z 23018KT 9999 FEW040 16/06 Q1008;",
"10616499999","2010-09-16T11:50:00","4","51.854992","11.418889","180.0","COCHSTEDT, GM","FM-15","EDBC ","V020","240,1,N,0087,1","99999,9,9,Y","009900,1,N,1","+0160,1","+0060,1","99999,9",,,,,,"10081,1,99999,9",,,,,"MET045METAR EDBC 161150Z 24017KT CAVOK 16/06 Q1008;",
"10616499999","2010-09-16T12:20:00","4","51.854992","11.418889","180.0","COCHSTEDT, GM","FM-15","EDBC ","V020","240,1,N,0087,1","99999,9,9,Y","009900,1,N,1","+0150,1","+0060,1","99999,9",,,,,,"10081,1,99999,9",,,,,"MET045METAR EDBC 161220Z 24017KT CAVOK 15/06 Q1008;",
"10616499999","2010-09-16T12:50:00","4","51.854992","11.418889","180.0","COCHSTEDT, GM","FM-15","EDBC ","V020","260,1,N,0093,1","99999,9,9,Y","009900,1,N,1","+0160,1","+0050,1","99999,9",,,,,,"10081,1,99999,9",,,,,"MET045METAR EDBC 161250Z 26018KT CAVOK 16/05 Q1008;",
"10616499999","2010-09-16T13:20:00","4","51.854992","11.418889","180.0","COCHSTEDT, GM","FM-15","EDBC ","V020","260,1,N,0072,1","99999,9,9,Y","009900,1,N,1","+0160,1","+0060,1","99999,9",,,,,,"10081,1,99999,9",,,,,"MET045METAR EDBC 161320Z 26014KT CAVOK 16/06 Q1008;",
"10616499999","2010-09-16T13:50:00","4","51.854992","11.418889","180.0","COCHSTEDT, GM","FM-15","EDBC ","V020","250,1,N,0093,1","99999,9,9,Y","009900,1,N,1","+0170,1","+0060,1","99999,9",,,,,,"10081,1,99999,9",,,,,"MET045METAR EDBC 161350Z 25018KT CAVOK 17/06 Q1008;",
"10616499999","2010-09-16T14:20:00","4","51.854992","11.418889","180.0","COCHSTEDT, GM","FM-15","EDBC ","V020","250,1,N,0087,1","99999,9,9,Y","009900,1,N,1","+0170,1","+0060,1","99999,9",,,,,,"10071,1,99999,9",,,,,"MET045METAR EDBC 161420Z 25017KT CAVOK 17/06 Q1007;",
"10616499999","2010-09-16T14:50:00","4","51.854992","11.418889","180.0","COCHSTEDT, GM","FM-15","EDBC ","V020","250,1,N,0093,1","99999,9,9,Y","009900,1,N,1","+0170,1","+0060,1","99999,9",,,,,,"10071,1,99999,9",,,,,"MET045METAR EDBC 161450Z 25018KT CAVOK 17/06 Q1007;",
"10616499999","2010-09-16T15:20:00","4","51.854992","11.418889","180.0","COCHSTEDT, GM","FM-15","EDBC ","V020","240,1,N,0072,1","99999,9,9,Y","009900,1,N,1","+0170,1","+0070,1","99999,9",,,,,,"10071,1,99999,9",,,,,"MET045METAR EDBC 161520Z 24014KT CAVOK 17/07 Q1007;",
"10616499999","2010-09-16T15:50:00","4","51.854992","11.418889","180.0","COCHSTEDT, GM","FM-15","EDBC ","V020","220,1,N,0067,1","99999,9,9,Y","009900,1,N,1","+0170,1","+0070,1","99999,9",,,,,,"10071,1,99999,9",,,,,"MET044METAR EDBC 161550Z 22013KT CAVOK17/07 Q1007;",
"10616499999","2010-09-16T16:20:00","4","51.854992","11.418889","180.0","COCHSTEDT, GM","FM-15","EDBC ","V020","240,1,N,0072,1","99999,9,9,Y","009900,1,N,1","+0160,1","+0050,1","99999,9",,,,,,"10071,1,99999,9",,,,,"MET045METAR EDBC 161620Z 24014KT CAVOK 16/05 Q1007;",
"10616499999","2010-09-16T16:50:00","4","51.854992","11.418889","180.0","COCHSTEDT, GM","FM-15","EDBC ","V020","240,1,N,0041,1","99999,9,9,Y","009900,1,N,1","+0150,1","+0060,1","99999,9",,,,,,"10071,1,99999,9",,,,,"MET045METAR EDBC 161650Z 24008KT CAVOK 15/06 Q1007;",
"10616499999","2010-09-17T04:20:00","4","51.854992","11.418889","180.0","COCHSTEDT, GM","FM-15","EDBC ","V020","220,1,N,0031,1","22000,1,9,N","006000,1,N,1","+0100,1","+0080,1","99999,9","02,5,+01440,1,99,9",,,"02,99,1,99,9,99,9,99999,9,99,9,99,9",,"10071,1,99999,9",,,,,"MET051METAR EDBC 170420Z 22006KT 6000 FEW048 10/08 Q1007;",
"10616499999","2010-09-17T04:50:00","4","51.854992","11.418889","180.0","COCHSTEDT, GM","FM-15","EDBC ","V020","210,1,N,0021,1","22000,1,9,N","007000,1,N,1","+0100,1","+0080,1","99999,9","04,5,+01200,1,99,9",,,"04,99,1,99,9,99,9,99999,9,99,9,99,9",,"10071,1,99999,9",,,,,"MET051METAR EDBC 170450Z 21004KT 7000 SCT040 10/08 Q1007;",
"10616499999","2010-09-17T05:20:00","4","51.854992","11.418889","180.0","COCHSTEDT, GM","FM-15","EDBC ","V020","200,1,N,0021,1","99999,9,C,N","007000,1,N,1","+0110,1","+0080,1","99999,9","02,5,+00450,1,99,9","04,5,+01200,1,99,9",,"04,99,1,99,9,99,9,99999,9,99,9,99,9",,"10071,1,99999,9",,,,,"MET058METAR EDBC 170520Z 20004KT 7000 FEW015 SCT040 11/08 Q1007;","P01 012003SCOCIG"
"10616499999","2010-09-17T05:50:00","4","51.854992","11.418889","180.0","COCHSTEDT, GM","FM-15","EDBC ","V020","200,1,N,0026,1","22000,1,9,N","007000,1,N,1","+0100,1","+0090,1","99999,9","04,5,+01440,1,99,9",,,"04,99,1,99,9,99,9,99999,9,99,9,99,9",,"10071,1,99999,9",,,,,"MET051METAR EDBC 170550Z 20005KT 7000 SCT048 10/09 Q1007;",
"10616499999","2010-09-17T06:20:00","4","51.854992","11.418889","180.0","COCHSTEDT, GM","FM-15","EDBC ","V020","200,1,N,0015,1","22000,1,9,N","007000,1,N,1","+0110,1","+0090,1","99999,9","04,5,+00750,1,99,9",,,"04,99,1,99,9,99,9,99999,9,99,9,99,9",,"10081,1,99999,9",,,,,"MET051METAR EDBC 170620Z 20003KT 7000 SCT025 11/09 Q1008;",
"10616499999","2010-09-17T06:50:00","4","51.854992","11.418889","180.0","COCHSTEDT, GM","FM-15","EDBC ","V020","230,1,N,0036,1","00900,1,C,N","007000,1,N,1","+0110,1","+0090,1","99999,9","07,5,+00900,1,99,9",,,"07,99,1,99,9,99,9,99999,9,99,9,99,9",,"10081,1,99999,9",,,,,"MET051METAR EDBC 170650Z 23007KT 7000 BKN030 11/09 Q1008;",
"10616499999","2010-09-17T07:20:00","4","51.854992","11.418889","180.0","COCHSTEDT, GM","FM-15","EDBC ","V020","240,1,N,0041,1","22000,1,9,N","011265,1,N,1","+0110,1","+0080,1","99999,9","04,5,+00900,1,99,9",,,"04,99,1,99,9,99,9,99999,9,99,9,99,9",,"10081,1,99999,9",,,,,"MET051METAR EDBC 170720Z 24008KT 9999 SCT030 11/08 Q1008;",
"10616499999","2010-09-17T07:50:00","4","51.854992","11.418889","180.0","COCHSTEDT, GM","FM-15","EDBC ","V020","250,1,N,0046,1","00600,1,C,N","011265,1,N,1","+0120,1","+0080,1","99999,9","07,5,+00600,1,99,9",,,"07,99,1,99,9,99,9,99999,9,99,9,99,9",,"10081,1,99999,9","16,1",,,,"MET056METAR EDBC 170750Z 25009KT 9999 VCSH BKN020 12/08 Q1008;",
"10616499999","2010-09-17T08:20:00","4","51.854992","11.418889","180.0","COCHSTEDT, GM","FM-15","EDBC ","V020","290,1,N,0062,1","99999,9,C,N","011265,1,N,1","+0110,1","+0080,1","99999,9","02,5,+00450,1,99,9","04,5,+00660,1,99,9",,"04,99,1,99,9,99,9,99999,9,99,9,99,9",,"10091,1,99999,9","16,1",,,,"MET063METAR EDBC 170820Z 29012KT 9999 VCSH FEW015 SCT022 11/08 Q1009;","P01 006603SCOCIG"
"10616499999","2010-09-17T08:50:00","4","51.854992","11.418889","180.0","COCHSTEDT, GM","FM-15","EDBC ","V020","270,1,N,0051,1","99999,9,C,N","011265,1,N,1","+0120,1","+0080,1","99999,9","02,5,+00570,1,99,9","04,5,+00840,1,99,9",,"04,99,1,99,9,99,9,99999,9,99,9,99,9",,"10091,1,99999,9",,,,,"MET058METAR EDBC 170850Z 27010KT 9999 FEW019 SCT028 12/08 Q1009;","P01 008403SCOCIG"
"10616499999","2010-09-17T09:20:00","4","51.854992","11.418889","180.0","COCHSTEDT, GM","FM-15","EDBC ","V020","280,1,N,0093,1","22000,1,9,N","011265,1,N,1","+0130,1","+0080,1","99999,9","04,5,+00900,1,99,9",,,"04,99,1,99,9,99,9,99999,9,99,9,99,9",,"10091,1,99999,9",,,,,"MET051METAR EDBC 170920Z 28018KT 9999 SCT030 13/08 Q1009;",
"10616499999","2010-09-17T09:50:00","4","51.854992","11.418889","180.0","COCHSTEDT, GM","FM-15","EDBC ","V020","280,1,N,0093,1","22000,1,9,N","011265,1,N,1","+0130,1","+0070,1","99999,9","04,5,+00900,1,99,9",,,"04,99,1,99,9,99,9,99999,9,99,9,99,9",,"10091,1,99999,9",,,,,"MET051METAR EDBC 170950Z 28018KT 9999 SCT030 13/07 Q1009;",
"10616499999","2010-09-17T10:20:00","4","51.854992","11.418889","180.0","COCHSTEDT, GM","FM-15","EDBC ","V020","270,1,N,0082,1","22000,1,9,N","011265,1,N,1","+0140,1","+0070,1","99999,9","04,5,+00900,1,99,9",,,"04,99,1,99,9,99,9,99999,9,99,9,99,9",,"10102,1,99999,9",,,,,"MET051METAR EDBC 171020Z 27016KT 9999 SCT030 14/07 Q1010;",
"10616499999","2010-09-17T10:50:00","4","51.854992","11.418889","180.0","COCHSTEDT, GM","FM-15","EDBC ","V020","280,1,N,0087,1","22000,1,9,N","011265,1,N,1","+0140,1","+0070,1","99999,9","04,5,+01050,1,99,9",,,"04,99,1,99,9,99,9,99999,9,99,9,99,9",,"10102,1,99999,9",,,,,"MET051METAR EDBC 171050Z 28017KT 9999 SCT035 14/07 Q1010;",
"10616499999","2010-09-17T11:20:00","4","51.854992","11.418889","180.0","COCHSTEDT, GM","FM-15","EDBC ","V020","270,1,N,0062,1","22000,1,9,N","011265,1,N,1","+0140,1","+0070,1","99999,9","04,5,+01200,1,99,9",,,"04,99,1,99,9,99,9,99999,9,99,9,99,9",,"10102,1,99999,9",,,,,"MET051METAR EDBC 171120Z 27012KT 9999 SCT040 14/07 Q1010;",
"10616499999","2010-09-17T11:50:00","4","51.854992","11.418889","180.0","COCHSTEDT, GM","FM-15","EDBC ","V020","270,1,N,0077,1","99999,9,9,Y","009900,1,N,1","+0140,1","+0060,1","99999,9",,,,,,"10102,1,99999,9",,,,,"MET045METAR EDBC 171150Z 27015KT CAVOK 14/06 Q1010;",
"10616499999","2010-09-17T12:20:00","4","51.854992","11.418889","180.0","COCHSTEDT, GM","FM-15","EDBC ","V020","280,1,N,0082,1","99999,9,9,Y","009900,1,N,1","+0130,1","+0060,1","99999,9",,,,,,"10102,1,99999,9",,,,,"MET045METAR EDBC 171220Z 28016KT CAVOK 13/06 Q1010;",
"10616499999","2010-09-17T12:50:00","4","51.854992","11.418889","180.0","COCHSTEDT, GM","FM-15","EDBC ","V020","250,1,N,0087,1","22000,1,9,N","011265,1,N,1","+0150,1","+0060,1","99999,9","02,5,+01260,1,99,9",,,"02,99,1,99,9,99,9,99999,9,99,9,99,9",,"10102,1,99999,9",,,,,"MET051METAR EDBC 171250Z 25017KT 9999 FEW042 15/06 Q1010;",
"10616499999","2010-09-17T13:20:00","4","51.854992","11.418889","180.0","COCHSTEDT, GM","FM-15","EDBC ","V020","270,1,N,0093,1","22000,1,9,N","011265,1,N,1","+0140,1","+0060,1","99999,9","04,5,+01080,1,99,9",,,"04,99,1,99,9,99,9,99999,9,99,9,99,9",,"10102,1,99999,9",,,,"0144,1","MET062METAR EDBC 171320Z 27018G28KT 240V300 9999 SCT036 14/06 Q1010;",
"10616499999","2010-09-17T13:50:00","4","51.854992","11.418889","180.0","COCHSTEDT, GM","FM-15","EDBC ","V020","260,1,N,0108,1","22000,1,9,N","011265,1,N,1","+0150,1","+0060,1","99999,9","02,5,+01050,1,99,9",,,"02,99,1,99,9,99,9,99999,9,99,9,99,9",,"10102,1,99999,9",,,,,"MET051METAR EDBC 171350Z 26021KT 9999 FEW035 15/06 Q1010;",
"10616499999","2010-09-19T08:20:00","4","51.854992","11.418889","180.0","COCHSTEDT, GM","FM-15","EDBC ","V020","260,1,N,0046,1","99999,9,9,Y","009900,1,N,1","+0120,1","+0060,1","99999,9",,,,,,"10169,1,99999,9",,,,,"MET045METAR EDBC 190820Z 26009KT CAVOK 12/06 Q1017;",
"10616499999","2010-09-19T08:50:00","4","51.854992","11.418889","180.0","COCHSTEDT, GM","FM-15","EDBC ","V020","260,1,N,0046,1","22000,1,9,N","011265,1,N,1","+0130,1","+0070,1","99999,9","02,5,+00750,1,99,9",,,"02,99,1,99,9,99,9,99999,9,99,9,99,9",,"10169,1,99999,9",,,,,"MET051METAR EDBC 190850Z 26009KT 9999 FEW025 13/07 Q1017;",
"10616499999","2010-09-19T09:20:00","4","51.854992","11.418889","180.0","COCHSTEDT, GM","FM-15","EDBC ","V020","260,1,N,0062,1","22000,1,9,N","011265,1,N,1","+0140,1","+0060,1","99999,9","02,5,+00900,1,99,9",,,"02,99,1,99,9,99,9,99999,9,99,9,99,9",,"10169,1,99999,9",,,,,"MET059METAR EDBC 190920Z 26012KT 230V290 9999 FEW030 14/06 Q1017;",
"10616499999","2010-09-19T09:50:00","4","51.854992","11.418889","180.0","COCHSTEDT, GM","FM-15","EDBC ","V020","260,1,N,0051,1","22000,1,9,N","011265,1,N,1","+0140,1","+0050,1","99999,9","04,5,+01200,1,99,9",,,"04,99,1,99,9,99,9,99999,9,99,9,99,9",,"10169,1,99999,9",,,,,"MET059METAR EDBC 190950Z 26010KT 230V300 9999 SCT040 14/05 Q1017;",
"10616499999","2010-09-19T10:20:00","4","51.854992","11.418889","180.0","COCHSTEDT, GM","FM-15","EDBC ","V020","240,1,N,0057,1","22000,1,9,N","011265,1,N,1","+0140,1","+0050,1","99999,9","04,5,+01350,1,99,9",,,"04,99,1,99,9,99,9,99999,9,99,9,99,9",,"10169,1,99999,9",,,,,"MET059METAR EDBC 191020Z 24011KT 200V290 9999 SCT045 14/05 Q1017;",
"10616499999","2010-09-19T10:50:00","4","51.854992","11.418889","180.0","COCHSTEDT, GM","FM-15","EDBC ","V020","260,1,N,0041,1","22000,1,9,N","011265,1,N,1","+0140,1","+0060,1","99999,9","04,5,+01350,1,99,9",,,"04,99,1,99,9,99,9,99999,9,99,9,99,9",,"10169,1,99999,9",,,,,"MET059METAR EDBC 191050Z 26008KT 220V280 9999 SCT045 14/06 Q1017;",
"10616499999","2010-09-19T11:20:00","4","51.854992","11.418889","180.0","COCHSTEDT, GM","FM-15","EDBC ","V020","240,1,N,0072,1","22000,1,9,N","011265,1,N,1","+0160,1","+0050,1","99999,9","04,5,+01440,1,99,9",,,"04,99,1,99,9,99,9,99999,9,99,9,99,9",,"10169,1,99999,9",,,,,"MET051METAR EDBC 191120Z 24014KT 9999 SCT048 16/05 Q1017;",
"10616499999","2010-09-19T11:50:00","4","51.854992","11.418889","180.0","COCHSTEDT, GM","FM-15","EDBC ","V020","250,1,N,0072,1","22000,1,9,N","011265,1,N,1","+0160,1","+0060,1","99999,9","04,5,+01440,1,99,9",,,"04,99,1,99,9,99,9,99999,9,99,9,99,9",,"10159,1,99999,9",,,,,"MET059METAR EDBC 191150Z 25014KT 220V280 9999 SCT048 16/06 Q1016;",
"10616499999","2010-09-19T12:20:00","4","51.854992","11.418889","180.0","COCHSTEDT, GM","FM-15","EDBC ","V020","250,1,N,0062,1","99999,9,9,Y","009900,1,N,1","+0160,1","+0040,1","99999,9",,,,,,"10159,1,99999,9",,,,,"MET053METAR EDBC 191220Z 25012KT 220V290 CAVOK 16/04 Q1016;",
"10616499999","2010-09-19T12:50:00","4","51.854992","11.418889","180.0","COCHSTEDT, GM","FM-15","EDBC ","V020","270,1,N,0051,1","99999,9,9,Y","009900,1,N,1","+0160,1","+0050,1","99999,9",,,,,,"10159,1,99999,9",,,,,"MET045METAR EDBC 191250Z 27010KT CAVOK 16/05 Q1016;",
"10616499999","2010-09-19T13:20:00","4","51.854992","11.418889","180.0","COCHSTEDT, GM","FM-15","EDBC ","V020","250,1,N,0077,1","99999,9,9,Y","009900,1,N,1","+0160,1","+0050,1","99999,9",,,,,,"10159,1,99999,9",,,,,"MET045METAR EDBC 191320Z 25015KT CAVOK 16/05 Q1016;",
"10616499999","2010-09-19T13:50:00","4","51.854992","11.418889","180.0","COCHSTEDT, GM","FM-15","EDBC ","V020","240,1,N,0067,1","99999,9,9,Y","009900,1,N,1","+0170,1","+0050,1","99999,9",,,,,,"10159,1,99999,9",,,,,"MET045METAR EDBC 191350Z 24013KT CAVOK 17/05 Q1016;",
"10616499999","2010-09-19T14:20:00","4","51.854992","11.418889","180.0","COCHSTEDT, GM","FM-15","EDBC ","V020","240,1,N,0036,1","99999,9,9,Y","009900,1,N,1","+0150,1","+0050,1","99999,9",,,,,,"10159,1,99999,9",,,,,"MET045METAR EDBC 191420Z 24007KT CAVOK 15/05 Q1016;",
"10616499999","2010-09-19T14:50:00","4","51.854992","11.418889","180.0","COCHSTEDT, GM","FM-15","EDBC ","V020","280,1,N,0041,1","99999,9,9,Y","009900,1,N,1","+0150,1","+0050,1","99999,9",,,,,,"10159,1,99999,9",,,,,"MET045METAR EDBC 191450Z 28008KT CAVOK 15/05 Q1016;",
"10616499999","2010-09-19T15:20:00","4","51.854992","11.418889","180.0","COCHSTEDT, GM","FM-15","EDBC ","V020","270,1,N,0036,1","99999,9,9,Y","009900,1,N,1","+0150,1","+0060,1","99999,9",,,,,,"10159,1,99999,9",,,,,"MET045METAR EDBC 191520Z 27007KT CAVOK 15/06 Q1016;",
"10616499999","2010-09-19T15:50:00","4","51.854992","11.418889","180.0","COCHSTEDT, GM","FM-15","EDBC ","V020","270,1,N,0041,1","99999,9,9,Y","009900,1,N,1","+0150,1","+0060,1","99999,9",,,,,,"10159,1,99999,9",,,,,"MET045METAR EDBC 191550Z 27008KT CAVOK 15/06 Q1016;",
"10616499999","2010-09-19T16:20:00","4","51.854992","11.418889","180.0","COCHSTEDT, GM","FM-15","EDBC ","V020","250,1,N,0062,1","99999,9,9,Y","009900,1,N,1","+0150,1","+0060,1","99999,9",,,,,,"10159,1,99999,9",,,,,"MET045METAR EDBC 191620Z 25012KT CAVOK 15/06 Q1016;",
"10616499999","2010-09-19T16:50:00","4","51.854992","11.418889","180.0","COCHSTEDT, GM","FM-15","EDBC ","V020","240,1,N,0051,1","99999,9,9,Y","009900,1,N,1","+0140,1","+0070,1","99999,9",,,,,,"10159,1,99999,9",,,,,"MET045METAR EDBC 191650Z 24010KT CAVOK 14/07 Q1016;",
"10616499999","2010-09-20T04:20:00","4","51.854992","11.418889","180.0","COCHSTEDT, GM","FM-15","EDBC ","V020","200,1,N,0036,1","99999,9,9,Y","009900,1,N,1","+0110,1","+0080,1","99999,9",,,,,,"10149,1,99999,9",,,,,"MET045METAR EDBC 200420Z 20007KT CAVOK 11/08 Q1015;",
"10616499999","2010-09-20T04:50:00","4","51.854992","11.418889","180.0","COCHSTEDT, GM","FM-15","EDBC ","V020","200,1,N,0051,1","99999,9,9,Y","009900,1,N,1","+0110,1","+0070,1","99999,9",,,,,,"10149,1,99999,9",,,,,"MET045METAR EDBC 200450Z 20010KT CAVOK 11/07 Q1015;",
"10616499999","2010-09-20T05:20:00","4","51.854992","11.418889","180.0","COCHSTEDT, GM","FM-15","EDBC ","V020","190,1,N,0057,1","99999,9,9,Y","009900,1,N,1","+0120,1","+0070,1","99999,9",,,,,,"10149,1,99999,9",,,,,"MET045METAR EDBC 200520Z 19011KT CAVOK 12/07 Q1015;",
"10616499999","2010-09-20T05:50:00","4","51.854992","11.418889","180.0","COCHSTEDT, GM","FM-15","EDBC ","V020","190,1,N,0051,1","99999,9,9,Y","009900,1,N,1","+0110,1","+0070,1","99999,9",,,,,,"10149,1,99999,9",,,,,"MET045METAR EDBC 200550Z 19010KT CAVOK 11/07 Q1015;",
"10616499999","2010-09-20T06:20:00","4","51.854992","11.418889","180.0","COCHSTEDT, GM","FM-15","EDBC ","V020","190,1,N,0046,1","99999,9,9,Y","009900,1,N,1","+0110,1","+0080,1","99999,9",,,,,,"10149,1,99999,9",,,,,"MET044METAR EDBC 200620Z 19009KT CAVOK11/08 Q1015;",
"10616499999","2010-09-20T06:50:00","4","51.854992","11.418889","180.0","COCHSTEDT, GM","FM-15","EDBC ","V020","180,1,N,0046,1","99999,9,9,Y","009900,1,N,1","+0120,1","+0080,1","99999,9",,,,,,"10159,1,99999,9",,,,,"MET045METAR EDBC 200650Z 18009KT CAVOK 12/08 Q1016;",
"10616499999","2010-09-20T07:20:00","4","51.854992","11.418889","180.0","COCHSTEDT, GM","FM-15","EDBC ","V020","200,1,N,0041,1","99999,9,9,Y","009900,1,N,1","+0120,1","+0080,1","99999,9",,,,,,"10159,1,99999,9",,,,,"MET045METAR EDBC 200720Z 20008KT CAVOK 12/08 Q1016;",
"10616499999","2010-09-20T07:50:00","4","51.854992","11.418889","180.0","COCHSTEDT, GM","FM-15","EDBC ","V020","210,1,N,0057,1","99999,9,9,Y","009900,1,N,1","+0130,1","+0080,1","99999,9",,,,,,"10159,1,99999,9",,,,,"MET045METAR EDBC 200750Z 21011KT CAVOK 13/08 Q1016;",
"10616499999","2010-09-20T08:20:00","4","51.854992","11.418889","180.0","COCHSTEDT, GM","FM-15","EDBC ","V020","210,1,N,0062,1","99999,9,9,Y","009900,1,N,1","+0140,1","+0080,1","99999,9",,,,,,"10159,1,99999,9",,,,,"MET045METAR EDBC 200820Z 21012KT CAVOK 14/08 Q1016;",
"10616499999","2010-09-20T08:50:00","4","51.854992","11.418889","180.0","COCHSTEDT, GM","FM-15","EDBC ","V020","220,1,N,0062,1","99999,9,9,Y","009900,1,N,1","+0140,1","+0070,1","99999,9",,,,,,"10159,1,99999,9",,,,,"MET045METAR EDBC 200850Z 22012KT CAVOK 14/07 Q1016;",
"10616499999","2010-09-20T09:20:00","4","51.854992","11.418889","180.0","COCHSTEDT, GM","FM-15","EDBC ","V020","210,1,N,0046,1","99999,9,9,Y","009900,1,N,1","+0140,1","+0080,1","99999,9",,,,,,"10159,1,99999,9",,,,,"MET045METAR EDBC 200920Z 21009KT CAVOK 14/08 Q1016;",
"10616499999","2010-09-20T09:50:00","4","51.854992","11.418889","180.0","COCHSTEDT, GM","FM-15","EDBC ","V020","210,1,N,0062,1","99999,9,9,Y","009900,1,N,1","+0140,1","+0080,1","99999,9",,,,,,"10159,1,99999,9",,,,,"MET045METAR EDBC 200950Z 21012KT CAVOK 14/08 Q1016;",
"10616499999","2010-09-20T10:20:00","4","51.854992","11.418889","180.0","COCHSTEDT, GM","FM-15","EDBC ","V020","220,1,N,0082,1","99999,9,9,Y","009900,1,N,1","+0160,1","+0080,1","99999,9",,,,,,"10159,1,99999,9",,,,,"MET045METAR EDBC 201020Z 22016KT CAVOK 16/08 Q1016;",
"10616499999","2010-09-20T12:50:00","4","51.854992","11.418889","180.0","COCHSTEDT, GM","FM-15","EDBC ","V020","220,1,N,0062,1","99999,9,9,Y","009900,1,N,1","+0160,1","+0090,1","99999,9",,,,,,"10149,1,99999,9",,,,,"MET045METAR EDBC 201250Z 22012KT CAVOK 16/09 Q1015;",
"10616499999","2010-09-20T13:20:00","4","51.854992","11.418889","180.0","COCHSTEDT, GM","FM-15","EDBC ","V020","210,1,N,0067,1","99999,9,9,Y","009900,1,N,1","+0170,1","+0080,1","99999,9",,,,,,"10149,1,99999,9",,,,,"MET045METAR EDBC 201320Z 21013KT CAVOK 17/08 Q1015;",
"10616499999","2010-09-20T13:50:00","4","51.854992","11.418889","180.0","COCHSTEDT, GM","FM-15","EDBC ","V020","200,1,N,0057,1","99999,9,9,Y","009900,1,N,1","+0170,1","+0090,1","99999,9",,,,,,"10139,1,99999,9",,,,,"MET045METAR EDBC 201350Z 20011KT CAVOK 17/09 Q1014;",
"10616499999","2010-09-21T04:20:00","4","51.854992","11.418889","180.0","COCHSTEDT, GM","FM-15","EDBC ","V020","270,1,N,0036,1","22000,1,9,N","007000,1,N,1","+0100,1","+0090,1","99999,9",,,,"00,99,1,99,9,99,9,99999,9,99,9,99,9",,"10169,1,99999,9",,,,,"MET048METAR EDBC 210420Z 27007KT 7000 NSC 10/09 Q1017;","Q01    003SCCGA1"
"10616499999","2010-09-21T05:20:00","4","51.854992","11.418889","180.0","COCHSTEDT, GM","FM-15","EDBC ","V020","270,1,N,0031,1","22000,1,9,N","008000,1,N,1","+0120,1","+0100,1","99999,9","04,5,+00750,1,99,9",,,"04,99,1,99,9,99,9,99999,9,99,9,99,9",,"10180,1,99999,9",,,,,"MET051METAR EDBC 210520Z 27006KT 8000 SCT025 12/10 Q1018;",
"10616499999","2010-09-21T05:50:00","4","51.854992","11.418889","180.0","COCHSTEDT, GM","FM-15","EDBC ","V020","250,1,N,0031,1","22000,1,9,N","008000,1,N,1","+0120,1","+0100,1","99999,9","04,5,+00810,1,99,9",,,"04,99,1,99,9,99,9,99999,9,99,9,99,9",,"10180,1,99999,9",,,,,"MET051METAR EDBC 210550Z 25006KT 8000 SCT027 12/10 Q1018;",
"10616499999","2010-09-21T06:20:00","4","51.854992","11.418889","180.0","COCHSTEDT, GM","FM-15","EDBC ","V020","260,1,N,0031,1","22000,1,9,N","008000,1,N,1","+0140,1","+0110,1","99999,9","04,5,+00840,1,99,9",,,"04,99,1,99,9,99,9,99999,9,99,9,99,9",,"10180,1,99999,9",,,,,"MET059METAR EDBC 210620Z 26006KT 200V290 8000 SCT028 14/11 Q1018;",
"10616499999","2010-09-21T06:50:00","4","51.854992","11.418889","180.0","COCHSTEDT, GM","FM-15","EDBC ","V020","230,1,N,0031,1","22000,1,9,N","011265,1,N,1","+0140,1","+0110,1","99999,9","04,5,+00900,1,99,9",,,"04,99,1,99,9,99,9,99999,9,99,9,99,9",,"10190,1,99999,9",,,,,"MET051METAR EDBC 210650Z 23006KT 9999 SCT030 14/11 Q1019;",
"10616499999","2010-09-21T07:20:00","4","51.854992","11.418889","180.0","COCHSTEDT, GM","FM-15","EDBC ","V020","240,1,N,0031,1","22000,1,9,N","008000,1,N,1","+0150,1","+0120,1","99999,9","02,5,+01350,1,99,9",,,"02,99,1,99,9,99,9,99999,9,99,9,99,9",,"10190,1,99999,9",,,,,"MET051METAR EDBC 210720Z 24006KT 8000 FEW045 15/12 Q1019;",
"10616499999","2010-09-21T07:50:00","4","51.854992","11.418889","180.0","COCHSTEDT, GM","FM-15","EDBC ","V020","280,1,N,0051,1","22000,1,9,N","008000,1,N,1","+0160,1","+0120,1","99999,9","02,5,+00600,1,99,9",,,"02,99,1,99,9,99,9,99999,9,99,9,99,9",,"10190,1,99999,9",,,,,"MET059METAR EDBC 210750Z 28010KT 250V310 8000 FEW020 16/12 Q1019;",
"10616499999","2010-09-21T08:20:00","4","51.854992","11.418889","180.0","COCHSTEDT, GM","FM-15","EDBC ","V020","280,1,N,0057,1","22000,1,9,N","008000,1,N,1","+0160,1","+0120,1","99999,9","02,5,+00600,1,99,9",,,"02,99,1,99,9,99,9,99999,9,99,9,99,9",,"10200,1,99999,9",,,,,"MET051METAR EDBC 210820Z 28011KT 8000 FEW020 16/12 Q1020;",
"10616499999","2010-09-21T08:50:00","4","51.854992","11.418889","180.0","COCHSTEDT, GM","FM-15","EDBC ","V020","290,1,N,0051,1","22000,1,9,N","008000,1,N,1","+0170,1","+0120,1","99999,9","02,5,+00750,1,99,9",,,"02,99,1,99,9,99,9,99999,9,99,9,99,9",,"10200,1,99999,9",,,,,"MET051METAR EDBC 210850Z 29010KT 8000 FEW025 17/12 Q1020;",
"10616499999","2010-09-21T09:20:00","4","51.854992","11.418889","180.0","COCHSTEDT, GM","FM-15","EDBC ","V020","290,1,N,0046,1","22000,1,9,N","008000,1,N,1","+0170,1","+0110,1","99999,9","02,5,+00750,1,99,9",,,"02,99,1,99,9,99,9,99999,9,99,9,99,9",,"10200,1,99999,9",,,,,"MET059METAR EDBC 210920Z 29009KT 260V330 8000 FEW025 17/11 Q1020;",
"10616499999","2010-09-21T09:50:00","4","51.854992","11.418889","180.0","COCHSTEDT, GM","FM-15","EDBC ","V020","270,1,N,0051,1","22000,1,9,N","011265,1,N,1","+0170,1","+0110,1","99999,9","02,5,+00900,1,99,9",,,"02,99,1,99,9,99,9,99999,9,99,9,99,9",,"10200,1,99999,9",,,,,"MET059METAR EDBC 210950Z 27010KT 250V310 9999 FEW030 17/11 Q1020;",
"10616499999","2010-09-21T10:20:00","4","51.854992","11.418889","180.0","COCHSTEDT, GM","FM-15","EDBC ","V020","280,1,N,0057,1","22000,1,9,N","008000,1,N,1","+0180,1","+0110,1","99999,9","02,5,+00900,1,99,9",,,"02,99,1,99,9,99,9,99999,9,99,9,99,9",,"10200,1,99999,9",,,,,"MET059METAR EDBC 211020Z 28011KT 250V310 8000 FEW030 18/11 Q1020;",
"10616499999","2010-09-21T10:50:00","4","51.854992","11.418889","180.0","COCHSTEDT, GM","FM-15","EDBC ","V020","290,1,N,0046,1","22000,1,9,N","011265,1,N,1","+0190,1","+0110,1","99999,9","02,5,+01050,1,99,9",,,"02,99,1,99,9,99,9,99999,9,99,9,99,9",,"10200,1,99999,9",,,,,"MET059METAR EDBC 211050Z 29009KT 260V340 9999 FEW035 19/11 Q1020;",
"10616499999","2010-09-21T11:20:00","4","51.854992","11.418889","180.0","COCHSTEDT, GM","FM-15","EDBC ","V020","320,1,N,0051,1","22000,1,9,N","011265,1,N,1","+0180,1","+0110,1","99999,9","02,5,+00960,1,99,9",,,"02,99,1,99,9,99,9,99999,9,99,9,99,9",,"10200,1,99999,9",,,,,"MET059METAR EDBC 211120Z 32010KT 280V350 9999 FEW032 18/11 Q1020;",
"10616499999","2010-09-21T11:50:00","4","51.854992","11.418889","180.0","COCHSTEDT, GM","FM-15","EDBC ","V020","310,1,N,0041,1","22000,1,9,N","011265,1,N,1","+0190,1","+0110,1","99999,9","02,5,+01080,1,99,9",,,"02,99,1,99,9,99,9,99999,9,99,9,99,9",,"10200,1,99999,9",,,,,"MET059METAR EDBC 211150Z 31008KT 280V340 9999 FEW036 19/11 Q1020;",
"10616499999","2010-09-21T12:20:00","4","51.854992","11.418889","180.0","COCHSTEDT, GM","FM-15","EDBC ","V020","310,1,N,0046,1","22000,1,9,N","011265,1,N,1","+0190,1","+0110,1","99999,9","02,5,+01080,1,99,9",,,"02,99,1,99,9,99,9,99999,9,99,9,99,9",,"10210,1,99999,9",,,,,"MET059METAR EDBC 211220Z 31009KT 250V340 9999 FEW036 19/11 Q1021;",
"10616499999","2010-09-21T12:50:00","4","51.854992","11.418889","180.0","COCHSTEDT, GM","FM-15","EDBC ","V020","290,1,N,0046,1","22000,1,9,N","011265,1,N,1","+0200,1","+0110,1","99999,9","02,5,+01200,1,99,9",,,"02,99,1,99,9,99,9,99999,9,99,9,99,9",,"10200,1,99999,9",,,,,"MET059METAR EDBC 211250Z 29009KT 250V320 9999 FEW040 20/11 Q1020;",
"10616499999","2010-09-21T13:20:00","4","51.854992","11.418889","180.0","COCHSTEDT, GM","FM-15","EDBC ","V020","310,1,N,0051,1","99999,9,9,Y","009900,1,N,1","+0180,1","+0100,1","99999,9",,,,,,"10210,1,99999,9",,,,,"MET053METAR EDBC 211320Z 31010KT 270V330 CAVOK 18/10 Q1021;",
"10616499999","2010-09-21T13:50:00","4","51.854992","11.418889","180.0","COCHSTEDT, GM","FM-15","EDBC ","V020","310,1,N,0051,1","99999,9,9,Y","009900,1,N,1","+0200,1","+0110,1","99999,9",,,,,,"10210,1,99999,9",,,,,"MET053METAR EDBC 211350Z 31010KT 270V340 CAVOK 20/11 Q1021;",
"10616499999","2010-09-22T04:20:00","4","51.854992","11.418889","180.0","COCHSTEDT, GM","FM-15","EDBC ","V020","999,9,V,0005,1","22000,1,9,N","002000,1,N,1","+0090,1","+0090,1","99999,9",,,,"00,99,1,99,9,99,9,99999,9,99,9,99,9",,"10230,1,99999,9","12,1",,,,"MET053METAR EDBC 220420Z VRB01KT 2000 MIFG NSC 09/09 Q1023;","Q01    003SCCGA1"
"10616499999","2010-09-22T04:50:00","4","51.854992","11.418889","180.0","COCHSTEDT, GM","FM-15","EDBC ","V020","999,9,C,0000,1","22000,1,9,N","001500,1,N,1","+0090,1","+0090,1","99999,9",,,,"00,99,1,99,9,99,9,99999,9,99,9,99,9",,"10230,1,99999,9","12,1",,,,"MET053METAR EDBC 220450Z 00000KT 1500 MIFG NSC 09/09 Q1023;","Q01    003SCCGA1"
"10616499999","2010-09-22T05:20:00","4","51.854992","11.418889","180.0","COCHSTEDT, GM","FM-15","EDBC ","V020","999,9,V,0010,1","22000,1,9,N","002000,1,N,1","+0080,1","+0080,1","99999,9",,,,"00,99,1,99,9,99,9,99999,9,99,9,99,9",,"10230,1,99999,9","12,1",,,,"MET053METAR EDBC 220520Z VRB02KT 2000 MIFG NSC 08/08 Q1023;","Q01    003SCCGA1"
"10616499999","2010-09-22T05:50:00","4","51.854992","11.418889","180.0","COCHSTEDT, GM","FM-15","EDBC ","V020","999,9,V,0015,1","22000,1,9,N","002000,1,N,1","+0080,1","+0080,1","99999,9",,,,"00,99,1,99,9,99,9,99999,9,99,9,99,9",,"10230,1,99999,9","12,1",,,,"MET068METAR EDBC 220550Z VRB03KT 2000 R26/0800V1500U MIFG NSC 08/08 Q1023;","Q01    003SCCGA1"
"10616499999","2010-09-22T06:20:00","4","51.854992","11.418889","180.0","COCHSTEDT, GM","FM-15","EDBC ","V020","999,9,V,0010,1","22000,1,9,N","006000,1,N,1","+0100,1","+0100,1","99999,9",,,,"00,99,1,99,9,99,9,99999,9,99,9,99,9",,"10230,1,99999,9",,,,,"MET048METAR EDBC 220620Z VRB02KT 6000 NSC 10/10 Q1023;","Q01    003SCCGA1"
"10616499999","2010-09-22T06:50:00","4","51.854992","11.418889","180.0","COCHSTEDT, GM","FM-15","EDBC ","V020","170,1,N,0015,1","22000,1,9,N","008000,1,N,1","+0120,1","+0110,1","99999,9",,,,"00,99,1,99,9,99,9,99999,9,99,9,99,9",,"10230,1,99999,9",,,,,"MET048METAR EDBC 220650Z 17003KT 8000 NSC 12/11 Q1023;","Q01    003SCCGA1"
"10616499999","2010-09-22T07:50:00","4","51.854992","11.418889","180.0","COCHSTEDT, GM","FM-15","EDBC ","V020","150,1,N,0026,1","99999,9,9,Y","009900,1,N,1","+0140,1","+0110,1","99999,9",,,,,,"10230,1,99999,9",,,,,"MET045METAR EDBC 220750Z 15005KT CAVOK 14/11 Q1023;",
"10616499999","2010-09-22T08:20:00","4","51.854992","11.418889","180.0","COCHSTEDT, GM","FM-15","EDBC ","V020","140,1,N,0026,1","99999,9,9,Y","009900,1,N,1","+0160,1","+0120,1","99999,9",,,,,,"10230,1,99999,9",,,,,"MET045METAR EDBC 220820Z 14005KT CAVOK 16/12 Q1023;",
"10616499999","2010-09-22T08:50:00","4","51.854992","11.418889","180.0","COCHSTEDT, GM","FM-15","EDBC ","V020","150,1,N,0036,1","99999,9,9,Y","009900,1,N,1","+0160,1","+0120,1","99999,9",,,,,,"10230,1,99999,9",,,,,"MET045METAR EDBC 220850Z 15007KT CAVOK 16/12 Q1023;",
"10616499999","2010-09-22T09:20:00","4","51.854992","11.418889","180.0","COCHSTEDT, GM","FM-15","EDBC ","V020","160,1,N,0046,1","99999,9,9,Y","009900,1,N,1","+0170,1","+0130,1","99999,9",,,,,,"10230,1,99999,9",,,,,"MET045METAR EDBC 220920Z 16009KT CAVOK 17/13 Q1023;",
"10616499999","2010-09-22T09:50:00","4","51.854992","11.418889","180.0","COCHSTEDT, GM","FM-15","EDBC ","V020","150,1,N,0041,1","99999,9,9,Y","009900,1,N,1","+9999,9","+9999,9","99999,9",,,,,,"10230,1,99999,9",,,,,"MET045METAR EDBC 220950Z 15008KT CAVOK 09/13 Q1023;","Q01 +00903ATOT  "
"10616499999","2010-09-22T10:20:00","4","51.854992","11.418889","180.0","COCHSTEDT, GM","FM-15","EDBC ","V020","140,1,N,0041,1","99999,9,9,Y","009900,1,N,1","+0190,1","+0120,1","99999,9",,,,,,"10230,1,99999,9",,,,,"MET053METAR EDBC 221020Z 14008KT 110V170 CAVOK 19/12 Q1023;",
"10616499999","2010-09-22T10:50:00","4","51.854992","11.418889","180.0","COCHSTEDT, GM","FM-15","EDBC ","V020","150,1,N,0046,1","99999,9,9,Y","009900,1,N,1","+0190,1","+0120,1","99999,9",,,,,,"10230,1,99999,9",,,,,"MET053METAR EDBC 221050Z 15009KT 110V180 CAVOK 19/12 Q1023;",
"10616499999","2010-09-22T11:50:00","4","51.854992","11.418889","180.0","COCHSTEDT, GM","FM-15","EDBC ","V020","160,1,N,0046,1","99999,9,9,Y","009900,1,N,1","+0200,1","+0120,1","99999,9",,,,,,"10220,1,99999,9",,,,,"MET053METAR EDBC 221150Z 16009KT 120V190 CAVOK 20/12 Q1022;",
"10616499999","2010-09-22T12:20:00","4","51.854992","11.418889","180.0","COCHSTEDT, GM","FM-15","EDBC ","V020","170,1,N,0046,1","99999,9,9,Y","009900,1,N,1","+0200,1","+0110,1","99999,9",,,,,,"10220,1,99999,9",,,,,"MET053METAR EDBC 221220Z 17009KT 140V200 CAVOK 20/11 Q1022;",
"10616499999","2010-09-22T12:50:00","4","51.854992","11.418889","180.0","COCHSTEDT, GM","FM-15","EDBC ","V020","170,1,N,0041,1","99999,9,9,Y","009900,1,N,1","+0210,1","+0110,1","99999,9",,,,,,"10210,1,99999,9",,,,,"MET053METAR EDBC 221250Z 17008KT 130V190 CAVOK 21/11 Q1021;",
"10616499999","2010-09-22T13:20:00","4","51.854992","11.418889","180.0","COCHSTEDT, GM","FM-15","EDBC ","V020","160,1,N,0051,1","99999,9,9,Y","009900,1,N,1","+0210,1","+0120,1","99999,9",,,,,,"10210,1,99999,9",,,,,"MET045METAR EDBC 221320Z 16010KT CAVOK 21/12 Q1021;",
"10616499999","2010-09-22T13:50:00","4","51.854992","11.418889","180.0","COCHSTEDT, GM","FM-15","EDBC ","V020","160,1,N,0051,1","99999,9,9,Y","009900,1,N,1","+0210,1","+0120,1","99999,9",,,,,,"10210,1,99999,9",,,,,"MET053METAR EDBC 221350Z 16010KT 130V190 CAVOK 21/12 Q1021;",
"10616499999","2010-09-23T03:50:00","4","51.854992","11.418889","180.0","COCHSTEDT, GM","FM-15","EDBC ","V020","190,1,N,0026,1","99999,9,9,Y","009900,1,N,1","+0100,1","+0090,1","99999,9",,,,,,"10159,1,99999,9",,,,,"MET045METAR EDBC 230350Z 19005KT CAVOK 10/09 Q1016;",
"10616499999","2010-09-23T04:20:00","4","51.854992","11.418889","180.0","COCHSTEDT, GM","FM-15","EDBC ","V020","190,1,N,0031,1","99999,9,9,Y","009900,1,N,1","+0100,1","+0080,1","99999,9",,,,,,"10159,1,99999,9",,,,,"MET045METAR EDBC 230420Z 19006KT CAVOK 10/08 Q1016;",
"10616499999","2010-09-23T04:50:00","4","51.854992","11.418889","180.0","COCHSTEDT, GM","FM-15","EDBC ","V020","230,1,N,0021,1","99999,9,9,Y","009900,1,N,1","+0110,1","+0090,1","99999,9",,,,,,"10159,1,99999,9",,,,,"MET045METAR EDBC 230450Z 23004KT CAVOK 11/09 Q1016;",
"10616499999","2010-09-23T05:20:00","4","51.854992","11.418889","180.0","COCHSTEDT, GM","FM-15","EDBC ","V020","240,1,N,0015,1","99999,9,9,Y","009900,1,N,1","+0100,1","+0080,1","99999,9",,,,,,"10159,1,99999,9",,,,,"MET045METAR EDBC 230520Z 24003KT CAVOK 10/08 Q1016;",
"10616499999","2010-09-23T05:50:00","4","51.854992","11.418889","180.0","COCHSTEDT, GM","FM-15","EDBC ","V020","210,1,N,0015,1","99999,9,9,Y","009900,1,N,1","+0110,1","+0090,1","99999,9",,,,,,"10159,1,99999,9",,,,,"MET045METAR EDBC 230550Z 21003KT CAVOK 11/09 Q1016;",
"10616499999","2010-09-23T06:20:00","4","51.854992","11.418889","180.0","COCHSTEDT, GM","FM-15","EDBC ","V020","190,1,N,0021,1","99999,9,9,Y","009900,1,N,1","+0120,1","+0100,1","99999,9",,,,,,"10159,1,99999,9",,,,,"MET045METAR EDBC 230620Z 19004KT CAVOK 12/10 Q1016;",
"10616499999","2010-09-23T06:50:00","4","51.854992","11.418889","180.0","COCHSTEDT, GM","FM-15","EDBC ","V020","210,1,N,0010,1","99999,9,9,Y","009900,1,N,1","+0150,1","+0110,1","99999,9",,,,,,"10159,1,99999,9",,,,,"MET045METAR EDBC 230650Z 21002KT CAVOK 15/11 Q1016;",
"10616499999","2010-09-23T07:20:00","4","51.854992","11.418889","180.0","COCHSTEDT, GM","FM-15","EDBC ","V020","220,1,N,0015,1","99999,9,9,Y","009900,1,N,1","+0160,1","+0110,1","99999,9",,,,,,"10149,1,99999,9",,,,,"MET045METAR EDBC 230720Z 22003KT CAVOK 16/11 Q1015;",
"10616499999","2010-09-23T07:50:00","4","51.854992","11.418889","180.0","COCHSTEDT, GM","FM-15","EDBC ","V020","200,1,N,0026,1","99999,9,9,Y","009900,1,N,1","+0170,1","+0120,1","99999,9",,,,,,"10149,1,99999,9",,,,,"MET045METAR EDBC 230750Z 20005KT CAVOK 17/12 Q1015;",
"10616499999","2010-09-23T08:20:00","4","51.854992","11.418889","180.0","COCHSTEDT, GM","FM-15","EDBC ","V020","200,1,N,0021,1","99999,9,9,Y","009900,1,N,1","+0180,1","+0120,1","99999,9",,,,,,"10149,1,99999,9",,,,,"MET053METAR EDBC 230820Z 20004KT 170V230 CAVOK 18/12 Q1015;",
"10616499999","2010-09-23T08:50:00","4","51.854992","11.418889","180.0","COCHSTEDT, GM","FM-15","EDBC ","V020","200,1,N,0021,1","99999,9,9,Y","009900,1,N,1","+0190,1","+0120,1","99999,9",,,,,,"10149,1,99999,9",,,,,"MET045METAR EDBC 230850Z 20004KT CAVOK 19/12 Q1015;",
"10616499999","2010-09-23T09:20:00","4","51.854992","11.418889","180.0","COCHSTEDT, GM","FM-15","EDBC ","V020","200,1,N,0036,1","99999,9,9,Y","009900,1,N,1","+0210,1","+0120,1","99999,9",,,,,,"10149,1,99999,9",,,,,"MET045METAR EDBC 230920Z 20007KT CAVOK 21/12 Q1015;",
"10616499999","2010-09-23T09:50:00","4","51.854992","11.418889","180.0","COCHSTEDT, GM","FM-15","EDBC ","V020","210,1,N,0036,1","99999,9,9,Y","009900,1,N,1","+0210,1","+0120,1","99999,9",,,,,,"10139,1,99999,9",,,,,"MET045METAR EDBC 230950Z 21007KT CAVOK 21/12 Q1014;",
"10616499999","2010-09-23T10:20:00","4","51.854992","11.418889","180.0","COCHSTEDT, GM","FM-15","EDBC ","V020","200,1,N,0046,1","99999,9,9,Y","009900,1,N,1","+0220,1","+0120,1","99999,9",,,,,,"10139,1,99999,9",,,,,"MET045METAR EDBC 231020Z 20009KT CAVOK 22/12 Q1014;",
"10616499999","2010-09-23T10:50:00","4","51.854992","11.418889","180.0","COCHSTEDT, GM","FM-15","EDBC ","V020","210,1,N,0046,1","99999,9,9,Y","009900,1,N,1","+0220,1","+0120,1","99999,9",,,,,,"10139,1,99999,9",,,,,"MET045METAR EDBC 231050Z 21009KT CAVOK 22/12 Q1014;",
"10616499999","2010-09-23T11:20:00","4","51.854992","11.418889","180.0","COCHSTEDT, GM","FM-15","EDBC ","V020","210,1,N,0046,1","99999,9,9,Y","009900,1,N,1","+0220,1","+0110,1","99999,9",,,,,,"10129,1,99999,9",,,,,"MET053METAR EDBC 231120Z 21009KT 160V250 CAVOK 22/11 Q1013;",
"10616499999","2010-09-23T11:50:00","4","51.854992","11.418889","180.0","COCHSTEDT, GM","FM-15","EDBC ","V020","170,1,N,0057,1","99999,9,9,Y","009900,1,N,1","+0230,1","+0100,1","99999,9",,,,,,"10129,1,99999,9",,,,,"MET053METAR EDBC 231150Z 17011KT 130V200 CAVOK 23/10 Q1013;",
"10616499999","2010-09-23T12:20:00","4","51.854992","11.418889","180.0","COCHSTEDT, GM","FM-15","EDBC ","V020","180,1,N,0057,1","99999,9,9,Y","009900,1,N,1","+0230,1","+0100,1","99999,9",,,,,,"10119,1,99999,9",,,,,"MET045METAR EDBC 231220Z 18011KT CAVOK 23/10 Q1012;",
"10616499999","2010-09-23T12:50:00","4","51.854992","11.418889","180.0","COCHSTEDT, GM","FM-15","EDBC ","V020","170,1,N,0051,1","99999,9,9,Y","009900,1,N,1","+0230,1","+0110,1","99999,9",,,,,,"10119,1,99999,9",,,,,"MET053METAR EDBC 231250Z 17010KT 140V200 CAVOK 23/11 Q1012;",
"10616499999","2010-09-23T13:20:00","4","51.854992","11.418889","180.0","COCHSTEDT, GM","FM-15","EDBC ","V020","190,1,N,0051,1","99999,9,9,Y","009900,1,N,1","+0230,1","+0110,1","99999,9",,,,,,"10119,1,99999,9",,,,,"MET045METAR EDBC 231320Z 19010KT CAVOK 23/11 Q1012;",
"10616499999","2010-09-23T13:50:00","4","51.854992","11.418889","180.0","COCHSTEDT, GM","FM-15","EDBC ","V020","180,1,N,0062,1","99999,9,9,Y","009900,1,N,1","+0230,1","+0100,1","99999,9",,,,,,"10108,1,99999,9",,,,,"MET045METAR EDBC 231350Z 18012KT CAVOK 23/10 Q1011;",
"10616499999","2010-09-24T03:50:00","4","51.854992","11.418889","180.0","COCHSTEDT, GM","FM-15","EDBC ","V020","170,1,N,0031,1","99999,9,9,Y","009900,1,N,1","+0130,1","+0110,1","99999,9",,,,,,"10041,1,99999,9",,,,,"MET045METAR EDBC 240350Z 17006KT CAVOK 13/11 Q1004;",
"10616499999","2010-09-24T04:20:00","4","51.854992","11.418889","180.0","COCHSTEDT, GM","FM-15","EDBC ","V020","210,1,N,0026,1","99999,9,9,Y","009900,1,N,1","+0130,1","+0110,1","99999,9",,,,,,"10041,1,99999,9",,,,,"MET052METAR EDBC 240420Z 21005KT 160V250 CAVOK13/11 Q1004;",
"10616499999","2010-09-24T04:50:00","4","51.854992","11.418889","180.0","COCHSTEDT, GM","FM-15","EDBC ","V020","190,1,N,0021,1","99999,9,9,Y","009900,1,N,1","+0140,1","+0120,1","99999,9",,,,,,"10041,1,99999,9",,,,,"MET045METAR EDBC 240450Z 19004KT CAVOK 14/12 Q1004;",
"10616499999","2010-09-24T05:20:00","4","51.854992","11.418889","180.0","COCHSTEDT, GM","FM-15","EDBC ","V020","160,1,N,0026,1","99999,9,9,Y","009900,1,N,1","+0140,1","+0120,1","99999,9",,,,,,"10031,1,99999,9",,,,,"MET045METAR EDBC 240520Z 16005KT CAVOK 14/12 Q1003;",
"10616499999","2010-09-24T05:50:00","4","51.854992","11.418889","180.0","COCHSTEDT, GM","FM-15","EDBC ","V020","190,1,N,0031,1","99999,9,9,Y","009900,1,N,1","+0140,1","+0120,1","99999,9",,,,,,"10031,1,99999,9",,,,,"MET045METAR EDBC 240550Z 19006KT CAVOK 14/12 Q1003;",
"10616499999","2010-09-24T06:20:00","4","51.854992","11.418889","180.0","COCHSTEDT, GM","FM-15","EDBC ","V020","180,1,N,0031,1","99999,9,9,Y","009900,1,N,1","+0150,1","+0130,1","99999,9",,,,,,"10031,1,99999,9",,,,,"MET045METAR EDBC 240620Z 18006KT CAVOK 15/13 Q1003;",
"10616499999","2010-09-24T06:50:00","4","51.854992","11.418889","180.0","COCHSTEDT, GM","FM-15","EDBC ","V020","180,1,N,0036,1","99999,9,9,Y","009900,1,N,1","+0160,1","+0130,1","99999,9",,,,,,"10031,1,99999,9",,,,,"MET045METAR EDBC 240650Z 18007KT CAVOK 16/13 Q1003;",
"10616499999","2010-09-24T07:20:00","4","51.854992","11.418889","180.0","COCHSTEDT, GM","FM-15","EDBC ","V020","190,1,N,0036,1","99999,9,9,Y","009900,1,N,1","+0180,1","+0140,1","99999,9",,,,,,"10031,1,99999,9",,,,,"MET045METAR EDBC 240720Z 19007KT CAVOK 18/14 Q1003;",
"10616499999","2010-09-24T07:50:00","4","51.854992","11.418889","180.0","COCHSTEDT, GM","FM-15","EDBC ","V020","200,1,N,0031,1","99999,9,9,Y","009900,1,N,1","+0180,1","+0140,1","99999,9",,,,,,"10031,1,99999,9",,,,,"MET045METAR EDBC 240750Z 20006KT CAVOK 18/14 Q1003;",
"10616499999","2010-09-24T08:20:00","4","51.854992","11.418889","180.0","COCHSTEDT, GM","FM-15","EDBC ","V020","200,1,N,0031,1","99999,9,9,Y","009900,1,N,1","+0190,1","+0140,1","99999,9",,,,,,"10031,1,99999,9",,,,,"MET045METAR EDBC 240820Z 20006KT CAVOK 19/14 Q1003;",
"10616499999","2010-09-24T08:50:00","4","51.854992","11.418889","180.0","COCHSTEDT, GM","FM-15","EDBC ","V020","170,1,N,0031,1","99999,9,9,Y","009900,1,N,1","+0190,1","+0140,1","99999,9",,,,,,"10031,1,99999,9",,,,,"MET053METAR EDBC 240850Z 17006KT 150V210 CAVOK 19/14 Q1003;",
"10616499999","2010-09-24T09:20:00","4","51.854992","11.418889","180.0","COCHSTEDT, GM","FM-15","EDBC ","V020","180,1,N,0051,1","99999,9,9,Y","009900,1,N,1","+0200,1","+0140,1","99999,9",,,,,,"10020,1,99999,9",,,,,"MET045METAR EDBC 240920Z 18010KT CAVOK 20/14 Q1002;",
"10616499999","2010-09-24T09:50:00","4","51.854992","11.418889","180.0","COCHSTEDT, GM","FM-15","EDBC ","V020","190,1,N,0046,1","99999,9,9,Y","009900,1,N,1","+0200,1","+0130,1","99999,9",,,,,,"10020,1,99999,9",,,,,"MET045METAR EDBC 240950Z 19009KT CAVOK 20/13 Q1002;",
"10616499999","2010-09-24T10:20:00","4","51.854992","11.418889","180.0","COCHSTEDT, GM","FM-15","EDBC ","V020","210,1,N,0046,1","99999,9,9,Y","009900,1,N,1","+0200,1","+0140,1","99999,9",,,,,,"10020,1,99999,9",,,,,"MET045METAR EDBC 241020Z 21009KT CAVOK 20/14 Q1002;",
"10616499999","2010-09-24T10:50:00","4","51.854992","11.418889","180.0","COCHSTEDT, GM","FM-15","EDBC ","V020","190,1,N,0051,1","99999,9,9,Y","009900,1,N,1","+0200,1","+0130,1","99999,9",,,,,,"10020,1,99999,9",,,,,"MET045METAR EDBC 241050Z 19010KT CAVOK 20/13 Q1002;",
"10616499999","2010-09-24T11:20:00","4","51.854992","11.418889","180.0","COCHSTEDT, GM","FM-15","EDBC ","V020","220,1,N,0036,1","99999,9,9,Y","009900,1,N,1","+0200,1","+0130,1","99999,9",,,,,,"10020,1,99999,9",,,,,"MET045METAR EDBC 241120Z 22007KT CAVOK 20/13 Q1002;",
"10616499999","2010-09-24T11:50:00","4","51.854992","11.418889","180.0","COCHSTEDT, GM","FM-15","EDBC ","V020","200,1,N,0046,1","99999,9,9,Y","009900,1,N,1","+0200,1","+0130,1","99999,9",,,,,,"10010,1,99999,9",,,,,"MET045METAR EDBC 241150Z 20009KT CAVOK 20/13 Q1001;",
"10616499999","2010-09-24T12:20:00","4","51.854992","11.418889","180.0","COCHSTEDT, GM","FM-15","EDBC ","V020","200,1,N,0046,1","99999,9,9,Y","009900,1,N,1","+0210,1","+0130,1","99999,9",,,,,,"10010,1,99999,9",,,,,"MET053METAR EDBC 241220Z 20009KT 170V230 CAVOK 21/13 Q1001;",
"10616499999","2010-09-24T12:50:00","4","51.854992","11.418889","180.0","COCHSTEDT, GM","FM-15","EDBC ","V020","220,1,N,0036,1","99999,9,9,Y","009900,1,N,1","+0210,1","+0140,1","99999,9",,,,,,"10010,1,99999,9",,,,,"MET045METAR EDBC 241250Z 22007KT CAVOK 21/14 Q1001;",
"10616499999","2010-09-24T13:20:00","4","51.854992","11.418889","180.0","COCHSTEDT, GM","FM-15","EDBC ","V020","210,1,N,0036,1","99999,9,9,Y","009900,1,N,1","+0220,1","+0130,1","99999,9",,,,,,"10000,1,99999,9",,,,,"MET045METAR EDBC 241320Z 21007KT CAVOK 22/13 Q1000;",
"10616499999","2010-09-24T13:50:00","4","51.854992","11.418889","180.0","COCHSTEDT, GM","FM-15","EDBC ","V020","220,1,N,0036,1","99999,9,9,Y","009900,1,N,1","+0220,1","+0130,1","99999,9",,,,,,"10000,1,99999,9",,,,,"MET045METAR EDBC 241350Z 22007KT CAVOK 22/13 Q1000;",
"10616499999","2010-09-27T04:20:00","4","51.854992","11.418889","180.0","COCHSTEDT, GM","FM-15","EDBC ","V020","280,1,N,0093,1","00720,1,C,N","005000,1,N,1","+0090,1","+0080,1","99999,9","07,5,+00720,1,99,9",,,"07,99,1,99,9,99,9,99999,9,99,9,99,9",,"10041,1,99999,9","65,1",,,,"MET055METAR EDBC 270420Z 28018KT 5000 +RA BKN024 09/08 Q1004;",
"10616499999","2010-09-27T04:50:00","4","51.854992","11.418889","180.0","COCHSTEDT, GM","FM-15","EDBC ","V020","280,1,N,0098,1","00600,1,C,N","005000,1,N,1","+0090,1","+0080,1","99999,9","02,5,+00300,1,99,9","07,5,+00600,1,99,9",,"07,99,1,99,9,99,9,99999,9,99,9,99,9",,"10041,1,99999,9","65,1",,,,"MET062METAR EDBC 270450Z 28019KT 5000 +RA FEW010 BKN020 09/08 Q1004;",
"10616499999","2010-09-27T05:20:00","4","51.854992","11.418889","180.0","COCHSTEDT, GM","FM-15","EDBC ","V020","280,1,N,0103,1","00600,1,C,N","004000,1,N,1","+0090,1","+0080,1","99999,9","04,5,+00360,1,99,9","07,5,+00600,1,99,9",,"07,99,1,99,9,99,9,99999,9,99,9,99,9",,"10041,1,99999,9","65,1",,,,"MET062METAR EDBC 270520Z 28020KT 4000 +RA SCT012 BKN020 09/08 Q1004;",
"10616499999","2010-09-27T05:50:00","4","51.854992","11.418889","180.0","COCHSTEDT, GM","FM-15","EDBC ","V020","280,1,N,0103,1","00660,1,C,N","003000,1,N,1","+0090,1","+0080,1","99999,9","02,5,+00300,1,99,9","07,5,+00660,1,99,9",,"07,99,1,99,9,99,9,99999,9,99,9,99,9",,"10051,1,99999,9","65,1",,,,"MET062METAR EDBC 270550Z 28020KT 3000 +RA FEW010 BKN022 09/08 Q1005;",
"10616499999","2010-09-27T06:20:00","4","51.854992","11.418889","180.0","COCHSTEDT, GM","FM-15","EDBC ","V020","280,1,N,0098,1","00600,1,C,N","003000,1,N,1","+0090,1","+0080,1","99999,9","02,5,+00300,1,99,9","07,5,+00600,1,99,9",,"07,99,1,99,9,99,9,99999,9,99,9,99,9",,"10051,1,99999,9","65,1",,,,"MET062METAR EDBC 270620Z 28019KT 3000 +RA FEW010 BKN020 09/08 Q1005;",
"10616499999","2010-09-27T06:50:00","4","51.854992","11.418889","180.0","COCHSTEDT, GM","FM-15","EDBC ","V020","280,1,N,0103,1","00600,1,C,N","003000,1,N,1","+0090,1","+0080,1","99999,9","02,5,+00300,1,99,9","07,5,+00600,1,99,9",,"07,99,1,99,9,99,9,99999,9,99,9,99,9",,"10051,1,99999,9","65,1",,,"0154,1","MET065METAR EDBC 270650Z 28020G30KT 3000 +RA FEW010 BKN020 09/08 Q1005;",
"10616499999","2010-09-27T07:20:00","4","51.854992","11.418889","180.0","COCHSTEDT, GM","FM-15","EDBC ","V020","280,1,N,0103,1","00660,1,C,N","003000,1,N,1","+0090,1","+0080,1","99999,9","04,5,+00240,1,99,9","07,5,+00660,1,99,9",,"07,99,1,99,9,99,9,99999,9,99,9,99,9",,"10051,1,99999,9","65,1",,,,"MET062METAR EDBC 270720Z 28020KT 3000 +RA SCT008 BKN022 09/08 Q1005;",
"10616499999","2010-09-27T07:50:00","4","51.854992","11.418889","180.0","COCHSTEDT, GM","FM-15","EDBC ","V020","280,1,N,0098,1","00600,1,C,N","003000,1,N,1","+0090,1","+0090,1","99999,9","02,5,+00240,1,99,9","07,5,+00600,1,99,9",,"07,99,1,99,9,99,9,99999,9,99,9,99,9",,"10051,1,99999,9","65,1",,,,"MET062METAR EDBC 270750Z 28019KT 3000 +RA FEW008 BKN020 09/09 Q1005;",
"10616499999","2010-09-27T08:20:00","4","51.854992","11.418889","180.0","COCHSTEDT, GM","FM-15","EDBC ","V020","280,1,N,0093,1","00600,1,C,N","003000,1,N,1","+0090,1","+0090,1","99999,9","02,5,+00300,1,99,9","07,5,+00600,1,99,9",,"07,99,1,99,9,99,9,99999,9,99,9,99,9",,"10051,1,99999,9","65,1",,,,"MET062METAR EDBC 270820Z 28018KT 3000 +RA FEW010 BKN020 09/09 Q1005;",
"10616499999","2010-09-27T08:50:00","4","51.854992","11.418889","180.0","COCHSTEDT, GM","FM-15","EDBC ","V020","280,1,N,0093,1","00660,1,C,N","003000,1,N,1","+0090,1","+0090,1","99999,9","02,5,+00240,1,99,9","07,5,+00660,1,99,9",,"07,99,1,99,9,99,9,99999,9,99,9,99,9",,"10051,1,99999,9","65,1",,,"0144,1","MET065METAR EDBC 270850Z 28018G28KT 3000 +RA FEW008 BKN022 09/09 Q1005;",
"10616499999","2010-09-27T09:20:00","4","51.854992","11.418889","180.0","COCHSTEDT, GM","FM-15","EDBC ","V020","280,1,N,0087,1","00630,1,C,N","003000,1,N,1","+0090,1","+0090,1","99999,9","02,5,+00180,1,99,9","07,5,+00630,1,99,9",,"07,99,1,99,9,99,9,99999,9,99,9,99,9",,"10051,1,99999,9","65,1",,,,"MET062METAR EDBC 270920Z 28017KT 3000 +RA FEW006 BKN021 09/09 Q1005;",
"10616499999","2010-09-27T09:50:00","4","51.854992","11.418889","180.0","COCHSTEDT, GM","FM-15","EDBC ","V020","280,1,N,0103,1","00660,1,C,N","003000,1,N,1","+0090,1","+0090,1","99999,9","02,5,+00240,1,99,9","07,5,+00660,1,99,9",,"07,99,1,99,9,99,9,99999,9,99,9,99,9",,"10051,1,99999,9","65,1",,,,"MET062METAR EDBC 270950Z 28020KT 3000 +RA FEW008 BKN022 09/09 Q1005;",
"10616499999","2010-09-27T10:20:00","4","51.854992","11.418889","180.0","COCHSTEDT, GM","FM-15","EDBC ","V020","280,1,N,0098,1","99999,9,C,N","003000,1,N,1","+0100,1","+0090,1","99999,9","02,5,+00240,1,99,9","04,5,+00600,1,99,9",,"04,99,1,99,9,99,9,99999,9,99,9,99,9",,"10051,1,99999,9","65,1",,,"0149,1","MET065METAR EDBC 271020Z 28019G29KT 3000 +RA FEW008 SCT020 10/09 Q1005;","P01 006003SCOCIG"
"10616499999","2010-09-27T10:50:00","4","51.854992","11.418889","180.0","COCHSTEDT, GM","FM-15","EDBC ","V020","280,1,N,0093,1","00600,1,C,N","003000,1,N,1","+0100,1","+0090,1","99999,9","02,5,+00300,1,99,9","07,5,+00600,1,99,9",,"07,99,1,99,9,99,9,99999,9,99,9,99,9",,"10051,1,99999,9","63,1",,,,"MET061METAR EDBC 271050Z 28018KT 3000 RA FEW010 BKN020 10/09 Q1005;",
"10616499999","2010-09-27T11:20:00","4","51.854992","11.418889","180.0","COCHSTEDT, GM","FM-15","EDBC ","V020","280,1,N,0098,1","00600,1,C,N","003000,1,N,1","+0100,1","+0090,1","99999,9","02,5,+00300,1,99,9","07,5,+00600,1,99,9",,"07,99,1,99,9,99,9,99999,9,99,9,99,9",,"10051,1,99999,9","63,1",,,,"MET061METAR EDBC 271120Z 28019KT 3000 RA FEW010 BKN020 10/09 Q1005;",
"10616499999","2010-09-27T11:50:00","4","51.854992","11.418889","180.0","COCHSTEDT, GM","FM-15","EDBC ","V020","280,1,N,0098,1","00600,1,C,N","005000,1,N,1","+0100,1","+0090,1","99999,9","02,5,+00270,1,99,9","08,5,+00600,1,99,9",,"08,99,1,99,9,99,9,99999,9,99,9,99,9",,"10051,1,99999,9","63,1",,,,"MET061METAR EDBC 271150Z 28019KT 5000 RA FEW009 OVC020 10/09 Q1005;",
"10616499999","2010-09-27T12:20:00","4","51.854992","11.418889","180.0","COCHSTEDT, GM","FM-15","EDBC ","V020","280,1,N,0098,1","00570,1,C,N","006000,1,N,1","+0100,1","+0090,1","99999,9","02,5,+00270,1,99,9","08,5,+00570,1,99,9",,"08,99,1,99,9,99,9,99999,9,99,9,99,9",,"10051,1,99999,9","63,1",,,,"MET061METAR EDBC 271220Z 28019KT 6000 RA FEW009 OVC019 10/09 Q1005;",
"10616499999","2010-09-27T12:50:00","4","51.854992","11.418889","180.0","COCHSTEDT, GM","FM-15","EDBC ","V020","280,1,N,0093,1","00510,1,C,N","005000,1,N,1","+0100,1","+0090,1","99999,9","02,5,+00270,1,99,9","07,5,+00510,1,99,9","08,5,+00570,1,99,9","08,99,1,99,9,99,9,99999,9,99,9,99,9",,"10051,1,99999,9","63,1",,,"0144,1","MET071METAR EDBC 271250Z 28018G28KT 5000 RA FEW009 BKN017 OVC019 10/09 Q1005;",
"10616499999","2010-09-27T13:20:00","4","51.854992","11.418889","180.0","COCHSTEDT, GM","FM-15","EDBC ","V020","280,1,N,0093,1","00600,1,C,N","006000,1,N,1","+0100,1","+0090,1","99999,9","02,5,+00210,1,99,9","08,5,+00600,1,99,9",,"08,99,1,99,9,99,9,99999,9,99,9,99,9",,"10051,1,99999,9","61,1",,,,"MET067METAR EDBC 271320Z 28018KT 6000 -RA FEW007 OVC020 10/09 Q1005 RERA;",
"10616499999","2010-09-27T13:50:00","4","51.854992","11.418889","180.0","COCHSTEDT, GM","FM-15","EDBC ","V020","280,1,N,0093,1","00240,1,C,N","003000,1,N,1","+0100,1","+0090,1","99999,9","02,5,+00150,1,99,9","08,5,+00240,1,99,9",,"08,99,1,99,9,99,9,99999,9,99,9,99,9",,"10051,1,99999,9","61,1",,,,"MET062METAR EDBC 271350Z 28018KT 3000 -RA FEW005 OVC008 10/09 Q1005;",
"10616499999","2010-09-28T04:20:00","4","51.854992","11.418889","180.0","COCHSTEDT, GM","FM-15","EDBC ","V020","330,1,N,0046,1","00300,1,C,N","005000,1,N,1","+0110,1","+0100,1","99999,9","07,5,+00300,1,99,9",,,"07,99,1,99,9,99,9,99999,9,99,9,99,9",,"10102,1,99999,9",,,,,"MET051METAR EDBC 280420Z 33009KT 5000 BKN010 11/10 Q1010;",
"10616499999","2010-09-28T04:50:00","4","51.854992","11.418889","180.0","COCHSTEDT, GM","FM-15","EDBC ","V020","330,1,N,0051,1","00300,1,C,N","005000,1,N,1","+0110,1","+0100,1","99999,9","07,5,+00300,1,99,9",,,"07,99,1,99,9,99,9,99999,9,99,9,99,9",,"10102,1,99999,9",,,,,"MET051METAR EDBC 280450Z 33010KT 5000 BKN010 11/10 Q1010;",
"10616499999","2010-09-28T05:20:00","4","51.854992","11.418889","180.0","COCHSTEDT, GM","FM-15","EDBC ","V020","340,1,N,0046,1","00300,1,C,N","003000,1,N,1","+0110,1","+0100,1","99999,9","07,5,+00300,1,99,9",,,"07,99,1,99,9,99,9,99999,9,99,9,99,9",,"10102,1,99999,9",,,,,"MET051METAR EDBC 280520Z 34009KT 3000 BKN010 11/10 Q1010;",
"10616499999","2010-09-28T05:50:00","4","51.854992","11.418889","180.0","COCHSTEDT, GM","FM-15","EDBC ","V020","340,1,N,0062,1","00360,1,C,N","006000,1,N,1","+0100,1","+0100,1","99999,9","07,5,+00360,1,99,9",,,"07,99,1,99,9,99,9,99999,9,99,9,99,9",,"10102,1,99999,9",,,,,"MET051METAR EDBC 280550Z 34012KT 6000 BKN012 10/10 Q1010;",
"10616499999","2010-09-28T06:20:00","4","51.854992","11.418889","180.0","COCHSTEDT, GM","FM-15","EDBC ","V020","340,1,N,0051,1","00300,1,C,N","006000,1,N,1","+0100,1","+0100,1","99999,9","07,5,+00300,1,99,9",,,"07,99,1,99,9,99,9,99999,9,99,9,99,9",,"10108,1,99999,9",,,,,"MET051METAR EDBC 280620Z 34010KT 6000 BKN010 10/10 Q1011;",
"10616499999","2010-09-28T06:50:00","4","51.854992","11.418889","180.0","COCHSTEDT, GM","FM-15","EDBC ","V020","340,1,N,0057,1","00300,1,C,N","006000,1,N,1","+0100,1","+0100,1","99999,9","07,5,+00300,1,99,9",,,"07,99,1,99,9,99,9,99999,9,99,9,99,9",,"10108,1,99999,9",,,,,"MET051METAR EDBC 280650Z 34011KT 6000 BKN010 10/10 Q1011;",
"10616499999","2010-09-28T07:20:00","4","51.854992","11.418889","180.0","COCHSTEDT, GM","FM-15","EDBC ","V020","350,1,N,0067,1","00300,1,C,N","006000,1,N,1","+0100,1","+0100,1","99999,9","07,5,+00300,1,99,9",,,"07,99,1,99,9,99,9,99999,9,99,9,99,9",,"10108,1,99999,9",,,,,"MET051METAR EDBC 280720Z 35013KT 6000 BKN010 10/10 Q1011;",
"10616499999","2010-09-28T07:50:00","4","51.854992","11.418889","180.0","COCHSTEDT, GM","FM-15","EDBC ","V020","340,1,N,0051,1","00420,1,C,N","006000,1,N,1","+0100,1","+0100,1","99999,9","07,5,+00420,1,99,9",,,"07,99,1,99,9,99,9,99999,9,99,9,99,9",,"10108,1,99999,9",,,,,"MET051METAR EDBC 280750Z 34010KT 6000 BKN014 10/10 Q1011;",
"10616499999","2010-09-28T08:20:00","4","51.854992","11.418889","180.0","COCHSTEDT, GM","FM-15","EDBC ","V020","340,1,N,0046,1","00150,1,C,N","005000,1,N,1","+0100,1","+0100,1","99999,9","07,5,+00150,1,99,9",,,"07,99,1,99,9,99,9,99999,9,99,9,99,9",,"10119,1,99999,9",,,,,"MET051METAR EDBC 280820Z 34009KT 5000 BKN005 10/10 Q1012;",
"10616499999","2010-09-28T08:50:00","4","51.854992","11.418889","180.0","COCHSTEDT, GM","FM-15","EDBC ","V020","340,1,N,0046,1","00180,1,C,N","003000,1,N,1","+0100,1","+0100,1","99999,9","07,5,+00180,1,99,9",,,"07,99,1,99,9,99,9,99999,9,99,9,99,9",,"10119,1,99999,9",,,,,"MET051METAR EDBC 280850Z 34009KT 3000 BKN006 10/10 Q1012;",
"10616499999","2010-09-28T09:20:00","4","51.854992","11.418889","180.0","COCHSTEDT, GM","FM-15","EDBC ","V020","340,1,N,0041,1","00150,1,C,N","003000,1,N,1","+0100,1","+0100,1","99999,9","07,5,+00150,1,99,9",,,"07,99,1,99,9,99,9,99999,9,99,9,99,9",,"10119,1,99999,9",,,,,"MET051METAR EDBC 280920Z 34008KT 3000 BKN005 10/10 Q1012;",
"10616499999","2010-09-28T09:50:00","4","51.854992","11.418889","180.0","COCHSTEDT, GM","FM-15","EDBC ","V020","330,1,N,0051,1","00300,1,C,N","005000,1,N,1","+0100,1","+0100,1","99999,9","07,5,+00300,1,99,9",,,"07,99,1,99,9,99,9,99999,9,99,9,99,9",,"10129,1,99999,9",,,,,"MET051METAR EDBC 280950Z 33010KT 5000 BKN010 10/10 Q1013;",
"10616499999","2010-09-28T10:20:00","4","51.854992","11.418889","180.0","COCHSTEDT, GM","FM-15","EDBC ","V020","320,1,N,0051,1","00300,1,C,N","005000,1,N,1","+0110,1","+0100,1","99999,9","07,5,+00300,1,99,9",,,"07,99,1,99,9,99,9,99999,9,99,9,99,9",,"10129,1,99999,9",,,,,"MET051METAR EDBC 281020Z 32010KT 5000 BKN010 11/10 Q1013;",
"10616499999","2010-09-28T10:50:00","4","51.854992","11.418889","180.0","COCHSTEDT, GM","FM-15","EDBC ","V020","320,1,N,0051,1","00270,1,C,N","005000,1,N,1","+0110,1","+0090,1","99999,9","07,5,+00270,1,99,9",,,"07,99,1,99,9,99,9,99999,9,99,9,99,9",,"10129,1,99999,9",,,,,"MET051METAR EDBC 281050Z 32010KT 5000 BKN009 11/09 Q1013;",
"10616499999","2010-09-28T11:20:00","4","51.854992","11.418889","180.0","COCHSTEDT, GM","FM-15","EDBC ","V020","320,1,N,0031,1","00180,1,C,N","005000,1,N,1","+0100,1","+0090,1","99999,9","07,5,+00180,1,99,9",,,"07,99,1,99,9,99,9,99999,9,99,9,99,9",,"10139,1,99999,9","51,1","61,1",,,"MET057METAR EDBC 281120Z 32006KT 5000 -DZRA BKN006 10/09 Q1014;",
"10616499999","2010-09-28T11:50:00","4","51.854992","11.418889","180.0","COCHSTEDT, GM","FM-15","EDBC ","V020","330,1,N,0036,1","00450,1,C,N","006000,1,N,1","+0100,1","+0100,1","99999,9","04,5,+00300,1,99,9","07,5,+00450,1,99,9",,"07,99,1,99,9,99,9,99999,9,99,9,99,9",,"10139,1,99999,9",,,,,"MET058METAR EDBC 281150Z 33007KT 6000 SCT010 BKN015 10/10 Q1014;",
"10616499999","2010-09-28T12:20:00","4","51.854992","11.418889","180.0","COCHSTEDT, GM","FM-15","EDBC ","V020","320,1,N,0041,1","00240,1,C,N","004000,1,N,1","+0100,1","+0100,1","99999,9","07,5,+00240,1,99,9",,,"07,99,1,99,9,99,9,99999,9,99,9,99,9",,"10139,1,99999,9","81,1",,,,"MET056METAR EDBC 281220Z 32008KT 4000 SHRA BKN008 10/10 Q1014;",
"10616499999","2010-09-28T12:50:00","4","51.854992","11.418889","180.0","COCHSTEDT, GM","FM-15","EDBC ","V020","320,1,N,0036,1","00360,1,C,N","008000,1,N,1","+0100,1","+0090,1","99999,9","07,5,+00360,1,99,9",,,"07,99,1,99,9,99,9,99999,9,99,9,99,9",,"10139,1,99999,9",,,,,"MET051METAR EDBC 281250Z 32007KT 8000 BKN012 10/09 Q1014;",
"10616499999","2010-09-28T13:20:00","4","51.854992","11.418889","180.0","COCHSTEDT, GM","FM-15","EDBC ","V020","330,1,N,0041,1","00450,1,C,N","008000,1,N,1","+0100,1","+0090,1","99999,9","07,5,+00450,1,99,9",,,"07,99,1,99,9,99,9,99999,9,99,9,99,9",,"10139,1,99999,9",,,,,"MET051METAR EDBC 281320Z 33008KT 8000 BKN015 10/09 Q1014;",
"10616499999","2010-09-28T13:50:00","4","51.854992","11.418889","180.0","COCHSTEDT, GM","FM-15","EDBC ","V020","330,1,N,0041,1","00450,1,C,N","008000,1,N,1","+0110,1","+0090,1","99999,9","07,5,+00450,1,99,9",,,"07,99,1,99,9,99,9,99999,9,99,9,99,9",,"10139,1,99999,9",,,,,"MET051METAR EDBC 281350Z 33008KT 8000 BKN015 11/09 Q1014;",
"10616499999","2010-09-29T04:20:00","4","51.854992","11.418889","180.0","COCHSTEDT, GM","FM-15","EDBC ","V020","340,1,N,0026,1","01350,1,C,N","005000,1,N,1","+0080,1","+0070,1","99999,9","07,5,+01350,1,99,9",,,"07,99,1,99,9,99,9,99999,9,99,9,99,9",,"10180,1,99999,9",,,,,"MET051METAR EDBC 290420Z 34005KT 5000 BKN045 08/07 Q1018;",
"10616499999","2010-09-29T04:50:00","4","51.854992","11.418889","180.0","COCHSTEDT, GM","FM-15","EDBC ","V020","330,1,N,0026,1","01350,1,C,N","005000,1,N,1","+0070,1","+0070,1","99999,9","07,5,+01350,1,99,9",,,"07,99,1,99,9,99,9,99999,9,99,9,99,9",,"10190,1,99999,9",,,,,"MET051METAR EDBC 290450Z 33005KT 5000 BKN045 07/07 Q1019;",
"10616499999","2010-09-29T05:20:00","4","51.854992","11.418889","180.0","COCHSTEDT, GM","FM-15","EDBC ","V020","340,1,N,0026,1","99999,9,C,N","005000,1,N,1","+0070,1","+0070,1","99999,9","02,5,+00240,1,99,9","04,5,+01200,1,99,9",,"04,99,1,99,9,99,9,99999,9,99,9,99,9",,"10190,1,99999,9",,,,,"MET058METAR EDBC 290520Z 34005KT 5000 FEW008 SCT040 07/07 Q1019;","P01 012003SCOCIG"
"10616499999","2010-09-29T05:50:00","4","51.854992","11.418889","180.0","COCHSTEDT, GM","FM-15","EDBC ","V020","330,1,N,0026,1","22000,1,9,N","005000,1,N,1","+0070,1","+0070,1","99999,9","04,5,+00270,1,99,9",,,"04,99,1,99,9,99,9,99999,9,99,9,99,9",,"10190,1,99999,9",,,,,"MET051METAR EDBC 290550Z 33005KT 5000 SCT009 07/07 Q1019;",
"10616499999","2010-09-29T06:20:00","4","51.854992","11.418889","180.0","COCHSTEDT, GM","FM-15","EDBC ","V020","340,1,N,0026,1","22000,1,9,N","005000,1,N,1","+0070,1","+0070,1","99999,9","02,5,+00150,1,99,9",,,"02,99,1,99,9,99,9,99999,9,99,9,99,9",,"10190,1,99999,9",,,,,"MET051METAR EDBC 290620Z 34005KT 5000 FEW005 07/07 Q1019;",
"10616499999","2010-09-29T06:50:00","4","51.854992","11.418889","180.0","COCHSTEDT, GM","FM-15","EDBC ","V020","340,1,N,0036,1","22000,1,9,N","007000,1,N,1","+0080,1","+0080,1","99999,9","02,5,+00150,1,99,9",,,"02,99,1,99,9,99,9,99999,9,99,9,99,9",,"10190,1,99999,9",,,,,"MET051METAR EDBC 290650Z 34007KT 7000 FEW005 08/08 Q1019;",
"10616499999","2010-09-29T07:20:00","4","51.854992","11.418889","180.0","COCHSTEDT, GM","FM-15","EDBC ","V020","360,1,N,0031,1","22000,1,9,N","007000,1,N,1","+0090,1","+0080,1","99999,9","02,5,+00300,1,99,9",,,"02,99,1,99,9,99,9,99999,9,99,9,99,9",,"10200,1,99999,9",,,,,"MET059METAR EDBC 290720Z 36006KT 310V030 7000 FEW010 09/08 Q1020;",
"10616499999","2010-09-29T07:50:00","4","51.854992","11.418889","180.0","COCHSTEDT, GM","FM-15","EDBC ","V020","020,1,N,0041,1","22000,1,9,N","008000,1,N,1","+0090,1","+0070,1","99999,9","02,5,+00300,1,99,9",,,"02,99,1,99,9,99,9,99999,9,99,9,99,9",,"10200,1,99999,9",,,,,"MET059METAR EDBC 290750Z 02008KT 340V040 8000 FEW010 09/07 Q1020;",
"10616499999","2010-09-29T08:20:00","4","51.854992","11.418889","180.0","COCHSTEDT, GM","FM-15","EDBC ","V020","020,1,N,0041,1","99999,9,C,N","009000,1,N,1","+0100,1","+0080,1","99999,9","02,5,+00300,1,99,9","04,5,+00660,1,99,9",,"04,99,1,99,9,99,9,99999,9,99,9,99,9",,"10200,1,99999,9",,,,,"MET058METAR EDBC 290820Z 02008KT 9000 FEW010 SCT022 10/08 Q1020;","P01 006603SCOCIG"
"10616499999","2010-09-29T08:50:00","4","51.854992","11.418889","180.0","COCHSTEDT, GM","FM-15","EDBC ","V020","010,1,N,0036,1","99999,9,C,N","009000,1,N,1","+0100,1","+0070,1","99999,9","02,5,+00360,1,99,9","04,5,+00600,1,99,9",,"04,99,1,99,9,99,9,99999,9,99,9,99,9",,"10200,1,99999,9",,,,,"MET066METAR EDBC 290850Z 01007KT 320V040 9000 FEW012 SCT020 10/07 Q1020;","P01 006003SCOCIG"
"10616499999","2010-09-29T09:20:00","4","51.854992","11.418889","180.0","COCHSTEDT, GM","FM-15","EDBC ","V020","010,1,N,0031,1","99999,9,C,N","009000,1,N,1","+0100,1","+0070,1","99999,9","02,5,+00450,1,99,9","04,5,+00660,1,99,9",,"04,99,1,99,9,99,9,99999,9,99,9,99,9",,"10200,1,99999,9",,,,,"MET066METAR EDBC 290920Z 01006KT 310V040 9000 FEW015 SCT022 10/07 Q1020;","P01 006603SCOCIG"
"10616499999","2010-09-29T09:50:00","4","51.854992","11.418889","180.0","COCHSTEDT, GM","FM-15","EDBC ","V020","030,1,N,0036,1","99999,9,C,N","009000,1,N,1","+0100,1","+0070,1","99999,9","02,5,+00480,1,99,9","04,5,+00750,1,99,9",,"04,99,1,99,9,99,9,99999,9,99,9,99,9",,"10200,1,99999,9",,,,,"MET066METAR EDBC 290950Z 03007KT 360V060 9000 FEW016 SCT025 10/07 Q1020;","P01 007503SCOCIG"
"10616499999","2010-09-29T10:20:00","4","51.854992","11.418889","180.0","COCHSTEDT, GM","FM-15","EDBC ","V020","040,1,N,0041,1","01620,5,C,N","007000,1,N,1","+0100,1","+0070,1","99999,9","04,5,+00540,1,99,9","07,5,+01620,5,99,9",,"07,99,1,99,9,99,9,99999,9,99,9,99,9",,"10200,1,99999,9",,,,,"MET058METAR EDBC 291020Z 04008KT 7000 SCT018 BKN054 10/07 Q1020;",
"10616499999","2010-09-29T10:50:00","4","51.854992","11.418889","180.0","COCHSTEDT, GM","FM-15","EDBC ","V020","020,1,N,0031,1","01620,5,C,N","009000,1,N,1","+0100,1","+0070,1","99999,9","04,5,+00540,1,99,9","07,5,+01620,5,99,9",,"07,99,1,99,9,99,9,99999,9,99,9,99,9",,"10200,1,99999,9",,,,,"MET066METAR EDBC 291050Z 02006KT 340V070 9000 SCT018 BKN054 10/07 Q1020;",
"10616499999","2010-09-29T11:20:00","4","51.854992","11.418889","180.0","COCHSTEDT, GM","FM-15","EDBC ","V020","030,1,N,0031,1","00540,1,C,N","009000,1,N,1","+0100,1","+0070,1","99999,9","07,5,+00540,1,99,9",,,"07,99,1,99,9,99,9,99999,9,99,9,99,9",,"10200,1,99999,9",,,,,"MET059METAR EDBC 291120Z 03006KT 350V050 9000 BKN018 10/07 Q1020;",
"10616499999","2010-09-29T11:50:00","4","51.854992","11.418889","180.0","COCHSTEDT, GM","FM-15","EDBC ","V020","040,1,N,0036,1","00450,1,C,N","009000,1,N,1","+0100,1","+0070,1","99999,9","07,5,+00450,1,99,9",,,"07,99,1,99,9,99,9,99999,9,99,9,99,9",,"10200,1,99999,9",,,,,"MET051METAR EDBC 291150Z 04007KT 9000 BKN015 10/07 Q1020;",
"10616499999","2010-09-29T12:20:00","4","51.854992","11.418889","180.0","COCHSTEDT, GM","FM-15","EDBC ","V020","040,1,N,0026,1","01200,1,C,N","011265,1,N,1","+0100,1","+0070,1","99999,9","02,5,+00450,1,99,9","07,5,+01200,1,99,9",,"07,99,1,99,9,99,9,99999,9,99,9,99,9",,"10200,1,99999,9",,,,,"MET066METAR EDBC 291220Z 04005KT 010V070 9999 FEW015 BKN040 10/07 Q1020;",
"10616499999","2010-09-29T12:50:00","4","51.854992","11.418889","180.0","COCHSTEDT, GM","FM-15","EDBC ","V020","030,1,N,0021,1","01200,1,C,N","011265,1,N,1","+0100,1","+0060,1","99999,9","02,5,+00450,1,99,9","07,5,+01200,1,99,9",,"07,99,1,99,9,99,9,99999,9,99,9,99,9",,"10200,1,99999,9",,,,,"MET066METAR EDBC 291250Z 03004KT 350V060 9999 FEW015 BKN040 10/06 Q1020;",
"10616499999","2010-09-29T13:20:00","4","51.854992","11.418889","180.0","COCHSTEDT, GM","FM-15","EDBC ","V020","030,1,N,0021,1","01350,1,C,N","011265,1,N,1","+0100,1","+0070,1","99999,9","07,5,+01350,1,99,9",,,"07,99,1,99,9,99,9,99999,9,99,9,99,9",,"10200,1,99999,9",,,,,"MET051METAR EDBC 291320Z 03004KT 9999 BKN045 10/07 Q1020;",
"10616499999","2010-09-29T13:50:00","4","51.854992","11.418889","180.0","COCHSTEDT, GM","FM-15","EDBC ","V020","999,9,V,0015,1","01350,1,C,N","011265,1,N,1","+0100,1","+0070,1","99999,9","07,5,+01350,1,99,9",,,"07,99,1,99,9,99,9,99999,9,99,9,99,9",,"10200,1,99999,9",,,,,"MET051METAR EDBC 291350Z VRB03KT 9999 BKN045 10/07 Q1020;",
"10616499999","2010-09-30T04:20:00","4","51.854992","11.418889","180.0","COCHSTEDT, GM","FM-15","EDBC ","V020","040,1,N,0026,1","22000,1,9,N","007000,1,N,1","+0060,1","+0060,1","99999,9",,,,"00,99,1,99,9,99,9,99999,9,99,9,99,9",,"10190,1,99999,9",,,,,"MET048METAR EDBC 300420Z 04005KT 7000 NSC 06/06 Q1019;","Q01    003SCCGA1"
"10616499999","2010-09-30T04:50:00","4","51.854992","11.418889","180.0","COCHSTEDT, GM","FM-15","EDBC ","V020","040,1,N,0015,1","22000,1,9,N","007000,1,N,1","+0060,1","+0060,1","99999,9",,,,"00,99,1,99,9,99,9,99999,9,99,9,99,9",,"10190,1,99999,9",,,,,"MET048METAR EDBC 300450Z 04003KT 7000 NSC 06/06 Q1019;","Q01    003SCCGA1"
"10616499999","2010-09-30T05:20:00","4","51.854992","11.418889","180.0","COCHSTEDT, GM","FM-15","EDBC ","V020","060,1,N,0015,1","22000,1,9,N","008000,1,N,1","+0060,1","+0060,1","99999,9",,,,"00,99,1,99,9,99,9,99999,9,99,9,99,9",,"10190,1,99999,9",,,,,"MET048METAR EDBC 300520Z 06003KT 8000 NSC 06/06 Q1019;","Q01    003SCCGA1"
"10616499999","2010-09-30T05:50:00","4","51.854992","11.418889","180.0","COCHSTEDT, GM","FM-15","EDBC ","V020","070,1,N,0015,1","22000,1,9,N","008000,1,N,1","+0060,1","+0060,1","99999,9",,,,"00,99,1,99,9,99,9,99999,9,99,9,99,9",,"10190,1,99999,9",,,,,"MET048METAR EDBC 300550Z 07003KT 8000 NSC 06/06 Q1019;","Q01    003SCCGA1"
"10616499999","2010-09-30T06:20:00","4","51.854992","11.418889","180.0","COCHSTEDT, GM","FM-15","EDBC ","V020","070,1,N,0021,1","22000,1,9,N","008000,1,N,1","+0070,1","+0060,1","99999,9",,,,"00,99,1,99,9,99,9,99999,9,99,9,99,9",,"10190,1,99999,9",,,,,"MET048METAR EDBC 300620Z 07004KT 8000 NSC 07/06 Q1019;","Q01    003SCCGA1"
"10616499999","2010-09-30T06:50:00","4","51.854992","11.418889","180.0","COCHSTEDT, GM","FM-15","EDBC ","V020","070,1,N,0021,1","22000,1,9,N","008000,1,N,1","+0070,1","+0060,1","99999,9",,,,"00,99,1,99,9,99,9,99999,9,99,9,99,9",,"10190,1,99999,9",,,,,"MET048METAR EDBC 300650Z 07004KT 8000 NSC 07/06 Q1019;","Q01    003SCCGA1"
"10616499999","2010-09-30T07:20:00","4","51.854992","11.418889","180.0","COCHSTEDT, GM","FM-15","EDBC ","V020","090,1,N,0031,1","22000,1,9,N","008000,1,N,1","+0070,1","+0070,1","99999,9",,,,"00,99,1,99,9,99,9,99999,9,99,9,99,9",,"10190,1,99999,9",,,,,"MET048METAR EDBC 300720Z 09006KT 8000 NSC 07/07 Q1019;","Q01    003SCCGA1"
"10616499999","2010-09-30T07:50:00","4","51.854992","11.418889","180.0","COCHSTEDT, GM","FM-15","EDBC ","V020","100,1,N,0036,1","22000,1,9,N","008000,1,N,1","+0080,1","+0070,1","99999,9",,,,"00,99,1,99,9,99,9,99999,9,99,9,99,9",,"10190,1,99999,9",,,,,"MET048METAR EDBC 300750Z 10007KT 8000 NSC 08/07 Q1019;","Q01    003SCCGA1"
"10616499999","2010-09-30T08:20:00","4","51.854992","11.418889","180.0","COCHSTEDT, GM","FM-15","EDBC ","V020","110,1,N,0036,1","22000,1,9,N","008000,1,N,1","+0090,1","+0070,1","99999,9",,,,"00,99,1,99,9,99,9,99999,9,99,9,99,9",,"10190,1,99999,9",,,,,"MET048METAR EDBC 300820Z 11007KT 8000 NSC 09/07 Q1019;","Q01    003SCCGA1"
"10616499999","2010-09-30T08:50:00","4","51.854992","11.418889","180.0","COCHSTEDT, GM","FM-15","EDBC ","V020","110,1,N,0041,1","22000,1,9,N","011265,1,N,1","+0100,1","+0070,1","99999,9","02,5,+00360,1,99,9",,,"02,99,1,99,9,99,9,99999,9,99,9,99,9",,"10190,1,99999,9",,,,,"MET051METAR EDBC 300850Z 11008KT 9999 FEW012 10/07 Q1019;",
"10616499999","2010-09-30T09:20:00","4","51.854992","11.418889","180.0","COCHSTEDT, GM","FM-15","EDBC ","V020","110,1,N,0041,1","22000,1,9,N","011265,1,N,1","+0100,1","+0070,1","99999,9","02,5,+00450,1,99,9",,,"02,99,1,99,9,99,9,99999,9,99,9,99,9",,"10190,1,99999,9",,,,,"MET059METAR EDBC 300920Z 11008KT 070V150 9999 FEW015 10/07 Q1019;",
"10616499999","2010-09-30T09:50:00","4","51.854992","11.418889","180.0","COCHSTEDT, GM","FM-15","EDBC ","V020","110,1,N,0036,1","22000,1,9,N","011265,1,N,1","+0100,1","+0070,1","99999,9","02,5,+00540,1,99,9",,,"02,99,1,99,9,99,9,99999,9,99,9,99,9",,"10190,1,99999,9",,,,,"MET051METAR EDBC 300950Z 11007KT 9999 FEW018 10/07 Q1019;",
"10616499999","2010-09-30T10:20:00","4","51.854992","11.418889","180.0","COCHSTEDT, GM","FM-15","EDBC ","V020","100,1,N,0031,1","01650,5,9,N","999999,9,N,1","+0100,1","+0070,1","99999,9","02,5,+00510,5,99,9","07,5,+01650,5,99,9",,,"999,M,+9999,9","10190,1,99999,9",,,,,"MET061METAR EDBC 301020Z 10006KT 070V140 FEW017 BKN055 10/07 Q1019;","Q01 +00062ATMX  "
"10616499999","2010-09-30T10:50:00","4","51.854992","11.418889","180.0","COCHSTEDT, GM","FM-15","EDBC ","V020","100,1,N,0036,1","99999,9,C,N","011265,1,N,1","+0110,1","+0060,1","99999,9","02,5,+00570,1,99,9","04,5,+00930,1,99,9",,"04,99,1,99,9,99,9,99999,9,99,9,99,9",,"10190,1,99999,9",,,,,"MET066METAR EDBC 301050Z 10007KT 070V140 9999 FEW019 SCT031 11/06 Q1019;","P01 009303SCOCIG"
"10616499999","2010-09-30T11:20:00","4","51.854992","11.418889","180.0","COCHSTEDT, GM","FM-15","EDBC ","V020","110,1,N,0031,1","01530,5,C,N","009000,1,N,1","+0120,1","+0060,1","99999,9","02,5,+00720,1,99,9","07,5,+01530,5,99,9",,"07,99,1,99,9,99,9,99999,9,99,9,99,9",,"10180,1,99999,9",,,,,"MET066METAR EDBC 301120Z 11006KT 080V150 9000 FEW024 BKN051 12/06 Q1018;",
"10616499999","2010-09-30T11:50:00","4","51.854992","11.418889","180.0","COCHSTEDT, GM","FM-15","EDBC ","V020","110,1,N,0031,1","22000,1,9,N","011265,1,N,1","+0120,1","+0050,1","99999,9","02,5,+00960,1,99,9",,,"02,99,1,99,9,99,9,99999,9,99,9,99,9",,"10180,1,99999,9",,,,,"MET059METAR EDBC 301150Z 11006KT 070V160 9999 FEW032 12/05 Q1018;",
"10616499999","2010-09-30T12:50:00","4","51.854992","11.418889","180.0","COCHSTEDT, GM","FM-15","EDBC ","V020","110,1,N,0031,1","22000,1,9,N","011265,1,N,1","+0130,1","+0050,1","99999,9","02,5,+00930,1,99,9",,,"02,99,1,99,9,99,9,99999,9,99,9,99,9",,"10180,1,99999,9",,,,,"MET059METAR EDBC 301250Z 11006KT 070V140 9999 FEW031 13/05 Q1018;",
"10616499999","2010-09-30T13:20:00","4","51.854992","11.418889","180.0","COCHSTEDT, GM","FM-15","EDBC ","V020","120,1,N,0036,1","99999,9,9,Y","009900,1,N,1","+0120,1","+0040,1","99999,9",,,,,,"10180,1,99999,9",,,,,"MET053METAR EDBC 301320Z 12007KT 070V160 CAVOK 12/04 Q1018;",
"10616499999","2010-09-30T13:50:00","4","51.854992","11.418889","180.0","COCHSTEDT, GM","FM-15","EDBC ","V020","120,1,N,0031,1","22000,1,9,N","011265,1,N,1","+0110,1","+0060,1","99999,9","02,5,+00990,1,99,9",,,"02,99,1,99,9,99,9,99999,9,99,9,99,9",,"10180,1,99999,9",,,,,"MET059METAR EDBC 301350Z 12006KT 080V150 9999 FEW033 11/06 Q1018;",
"10616499999","2010-09-30T14:20:00","4","51.854992","11.418889","180.0","COCHSTEDT, GM","FM-15","EDBC ","V020","110,1,N,0041,1","99999,9,C,N","011265,1,N,1","+0110,1","+0050,1","99999,9","02,5,+00870,1,99,9","04,5,+01440,1,99,9",,"04,99,1,99,9,99,9,99999,9,99,9,99,9",,"10169,1,99999,9",,,,,"MET066METAR EDBC 301420Z 11008KT 070V130 9999 FEW029 SCT048 11/05 Q1017;","P01 014403SCOCIG"
"10616499999","2010-09-30T14:50:00","4","51.854992","11.418889","180.0","COCHSTEDT, GM","FM-15","EDBC ","V020","100,1,N,0036,1","99999,9,C,N","011265,1,N,1","+0110,1","+0060,1","99999,9","02,5,+00900,1,99,9","04,5,+01500,1,99,9",,"04,99,1,99,9,99,9,99999,9,99,9,99,9",,"10169,1,99999,9",,,,,"MET058METAR EDBC 301450Z 10007KT 9999 FEW030 SCT050 11/06 Q1017;","P01 015003SCOCIG"
"10616499999","2010-09-30T15:20:00","4","51.854992","11.418889","180.0","COCHSTEDT, GM","FM-15","EDBC ","V020","110,1,N,0041,1","22000,1,9,N","011265,1,N,1","+0110,1","+0050,1","99999,9","02,5,+00900,1,99,9",,,"02,99,1,99,9,99,9,99999,9,99,9,99,9",,"10169,1,99999,9",,,,,"MET051METAR EDBC 301520Z 11008KT 9999 FEW030 11/05 Q1017;",
"10616499999","2010-09-30T15:50:00","4","51.854992","11.418889","180.0","COCHSTEDT, GM","FM-15","EDBC ","V020","110,1,N,0036,1","99999,9,9,Y","009900,1,N,1","+0100,1","+0050,1","99999,9",,,,,,"10169,1,99999,9",,,,,"MET045METAR EDBC 301550Z 11007KT CAVOK 10/05 Q1017;",
"10616499999","2010-09-30T16:20:00","4","51.854992","11.418889","180.0","COCHSTEDT, GM","FM-15","EDBC ","V020","110,1,N,0036,1","99999,9,9,Y","009900,1,N,1","+0100,1","+0060,1","99999,9",,,,,,"10169,1,99999,9",,,,,"MET045METAR EDBC 301620Z 11007KT CAVOK 10/06 Q1017;",
"10616499999","2010-10-01T04:20:00","4","51.854992","11.418889","180.0","COCHSTEDT, GM","FM-15","EDBC ","V020","100,1,N,0031,1","22000,1,9,N","007000,1,N,1","+0050,1","+0040,1","99999,9","04,5,+01080,1,99,9",,,"04,99,1,99,9,99,9,99999,9,99,9,99,9",,"10149,1,99999,9",,,,,"MET051METAR EDBC 010420Z 10006KT 7000 SCT036 05/04 Q1015;",
"10616499999","2010-10-01T04:50:00","4","51.854992","11.418889","180.0","COCHSTEDT, GM","FM-15","EDBC ","V020","110,1,N,0046,1","22000,1,9,N","008000,1,N,1","+0050,1","+0040,1","99999,9",,,,"00,99,1,99,9,99,9,99999,9,99,9,99,9",,"10149,1,99999,9",,,,,"MET048METAR EDBC 010450Z 11009KT 8000 NSC 05/04 Q1015;","Q01    003SCCGA1"
"10616499999","2010-10-01T05:20:00","4","51.854992","11.418889","180.0","COCHSTEDT, GM","FM-15","EDBC ","V020","110,1,N,0036,1","22000,1,9,N","008000,1,N,1","+0040,1","+0030,1","99999,9",,,,"00,99,1,99,9,99,9,99999,9,99,9,99,9",,"10149,1,99999,9",,,,,"MET048METAR EDBC 010520Z 11007KT 8000 NSC 04/03 Q1015;","Q01    003SCCGA1"
"10616499999","2010-10-01T05:50:00","4","51.854992","11.418889","180.0","COCHSTEDT, GM","FM-15","EDBC ","V020","110,1,N,0036,1","99999,9,C,N","011265,1,N,1","+0040,1","+0040,1","99999,9","02,5,+01200,1,99,9","04,5,+01800,1,99,9",,"04,99,1,99,9,99,9,99999,9,99,9,99,9",,"10159,1,99999,9",,,,,"MET066METAR EDBC 010550Z 11007KT 090V150 9999 FEW040 SCT060 04/04 Q1016;","P01 018003SCOCIG"
"10616499999","2010-10-01T06:20:00","4","51.854992","11.418889","180.0","COCHSTEDT, GM","FM-15","EDBC ","V020","110,1,N,0036,1","01620,5,C,N","011265,1,N,1","+0050,1","+0040,1","99999,9","02,5,+01260,1,99,9","07,5,+01620,5,99,9",,"07,99,1,99,9,99,9,99999,9,99,9,99,9",,"10159,1,99999,9",,,,,"MET058METAR EDBC 010620Z 11007KT 9999 FEW042 BKN054 05/04 Q1016;",
"10616499999","2010-10-01T06:50:00","4","51.854992","11.418889","180.0","COCHSTEDT, GM","FM-15","EDBC ","V020","110,1,N,0031,1","99999,9,9,Y","009900,1,N,1","+0050,1","+0040,1","99999,9",,,,,,"10159,1,99999,9",,,,,"MET045METAR EDBC 010650Z 11006KT CAVOK 05/04 Q1016;",
"10616499999","2010-10-01T07:20:00","4","51.854992","11.418889","180.0","COCHSTEDT, GM","FM-15","EDBC ","V020","110,1,N,0041,1","99999,9,9,Y","009900,1,N,1","+0060,1","+0050,1","99999,9",,,,,,"10159,1,99999,9",,,,,"MET045METAR EDBC 010720Z 11008KT CAVOK 06/05 Q1016;",
"10616499999","2010-10-01T07:50:00","4","51.854992","11.418889","180.0","COCHSTEDT, GM","FM-15","EDBC ","V020","120,1,N,0051,1","99999,9,9,Y","009900,1,N,1","+0070,1","+0050,1","99999,9",,,,,,"10159,1,99999,9",,,,,"MET045METAR EDBC 010750Z 12010KT CAVOK 07/05 Q1016;",
"10616499999","2010-10-01T08:20:00","4","51.854992","11.418889","180.0","COCHSTEDT, GM","FM-15","EDBC ","V020","120,1,N,0051,1","99999,9,9,Y","009900,1,N,1","+0090,1","+0060,1","99999,9",,,,,,"10159,1,99999,9",,,,,"MET045METAR EDBC 010820Z 12010KT CAVOK 09/06 Q1016;",
"10616499999","2010-10-01T08:50:00","4","51.854992","11.418889","180.0","COCHSTEDT, GM","FM-15","EDBC ","V020","120,1,N,0051,1","99999,9,9,Y","009900,1,N,1","+0090,1","+0050,1","99999,9",,,,,,"10159,1,99999,9",,,,,"MET045METAR EDBC 010850Z 12010KT CAVOK 09/05 Q1016;",
"10616499999","2010-10-01T09:20:00","4","51.854992","11.418889","180.0","COCHSTEDT, GM","FM-15","EDBC ","V020","100,1,N,0046,1","99999,9,9,Y","009900,1,N,1","+0090,1","+0050,1","99999,9","02,5,+01260,5,99,9","07,5,+01560,5,99,9",,,"999,M,+9999,9","10160,1,99999,9",,,,,"MET067METAR EDBC 010920Z 10009KT 070V130 CAVOK FEW042 BKN052 09/05 Q1016;","Q01 +00092ATMX  "
"10616499999","2010-10-01T09:50:00","4","51.854992","11.418889","180.0","COCHSTEDT, GM","FM-15","EDBC ","V020","100,1,N,0041,1","99999,9,9,Y","009900,1,N,1","+0100,1","+0060,1","99999,9",,,,,,"10159,1,99999,9",,,,,"MET045METAR EDBC 010950Z 10008KT CAVOK 10/06 Q1016;",
"10616499999","2010-10-01T10:20:00","4","51.854992","11.418889","180.0","COCHSTEDT, GM","FM-15","EDBC ","V020","100,1,N,0046,1","99999,9,9,Y","009900,1,N,1","+0110,1","+0060,1","99999,9",,,,,,"10159,1,99999,9",,,,,"MET053METAR EDBC 011020Z 10009KT 070V130 CAVOK 11/06 Q1016;",
"10616499999","2010-10-01T10:50:00","4","51.854992","11.418889","180.0","COCHSTEDT, GM","FM-15","EDBC ","V020","110,1,N,0046,1","99999,9,9,Y","009900,1,N,1","+0120,1","+0060,1","99999,9",,,,,,"10159,1,99999,9",,,,,"MET045METAR EDBC 011050Z 11009KT CAVOK 12/06 Q1016;",
"10616499999","2010-10-01T11:20:00","4","51.854992","11.418889","180.0","COCHSTEDT, GM","FM-15","EDBC ","V020","090,1,N,0041,1","99999,9,9,Y","009900,1,N,1","+0120,1","+0070,1","99999,9",,,,,,"10159,1,99999,9",,,,,"MET045METAR EDBC 011120Z 09008KT CAVOK 12/07 Q1016;",
"10616499999","2010-10-01T11:50:00","4","51.854992","11.418889","180.0","COCHSTEDT, GM","FM-15","EDBC ","V020","100,1,N,0041,1","99999,9,9,Y","009900,1,N,1","+0130,1","+0070,1","99999,9",,,,,,"10149,1,99999,9",,,,,"MET045METAR EDBC 011150Z 10008KT CAVOK 13/07 Q1015;",
"10616499999","2010-10-01T12:20:00","4","51.854992","11.418889","180.0","COCHSTEDT, GM","FM-15","EDBC ","V020","100,1,N,0041,1","99999,9,9,Y","009900,1,N,1","+0130,1","+0070,1","99999,9",,,,,,"10149,1,99999,9",,,,,"MET053METAR EDBC 011220Z 10008KT 060V120 CAVOK 13/07 Q1015;",
"10616499999","2010-10-01T12:50:00","4","51.854992","11.418889","180.0","COCHSTEDT, GM","FM-15","EDBC ","V020","110,1,N,0046,1","99999,9,9,Y","009900,1,N,1","+0130,1","+0070,1","99999,9",,,,,,"10149,1,99999,9",,,,,"MET053METAR EDBC 011250Z 11009KT 070V140 CAVOK 13/07 Q1015;",
"10616499999","2010-10-01T13:20:00","4","51.854992","11.418889","180.0","COCHSTEDT, GM","FM-15","EDBC ","V020","100,1,N,0041,1","22000,1,9,N","008000,1,N,1","+0130,1","+0060,1","99999,9",,,,"00,99,1,99,9,99,9,99999,9,99,9,99,9",,"10149,1,99999,9",,,,,"MET056METAR EDBC 011320Z 10008KT 060V130 8000 NSC 13/06 Q1015;","Q01    003SCCGA1"
"10616499999","2010-10-01T13:50:00","4","51.854992","11.418889","180.0","COCHSTEDT, GM","FM-15","EDBC ","V020","100,1,N,0041,1","22000,1,9,N","008000,1,N,1","+0130,1","+0060,1","99999,9",,,,"00,99,1,99,9,99,9,99999,9,99,9,99,9",,"10149,1,99999,9",,,,,"MET048METAR EDBC 011350Z 10008KT 8000 NSC 13/06 Q1015;","Q01    003SCCGA1"
"10616499999","2010-10-02T05:50:00","4","51.854992","11.418889","180.0","COCHSTEDT, GM","FM-15","EDBC ","V020","140,1,N,0041,1","22000,1,9,N","003000,1,N,1","+0070,1","+0070,1","99999,9",,,,"00,99,1,99,9,99,9,99999,9,99,9,99,9",,"10139,1,99999,9","10,1",,,,"MET051METAR EDBC 020550Z 14008KT 3000 BR NSC 07/07 Q1014;","Q01    003SCCGA1"
"10616499999","2010-10-02T06:20:00","4","51.854992","11.418889","180.0","COCHSTEDT, GM","FM-15","EDBC ","V020","140,1,N,0041,1","22000,1,9,N","003000,1,N,1","+0080,1","+0070,1","99999,9",,,,"00,99,1,99,9,99,9,99999,9,99,9,99,9",,"10139,1,99999,9","10,1",,,,"MET050METAR EDBC 020620Z 14008KT3000 BR NSC 08/07 Q1014;","Q01    003SCCGA1"
"10616499999","2010-10-02T06:50:00","4","51.854992","11.418889","180.0","COCHSTEDT, GM","FM-15","EDBC ","V020","140,1,N,0046,1","01680,5,C,N","004000,1,N,1","+0080,1","+0080,1","99999,9","07,5,+01680,5,99,9",,,"07,99,1,99,9,99,9,99999,9,99,9,99,9",,"10139,1,99999,9","10,1",,,,"MET054METAR EDBC 020650Z 14009KT 4000 BR BKN056 08/08 Q1014;",
"10616499999","2010-10-02T07:20:00","4","51.854992","11.418889","180.0","COCHSTEDT, GM","FM-15","EDBC ","V020","130,1,N,0041,1","01740,5,C,N","004000,1,N,1","+0080,1","+0080,1","99999,9","07,5,+01740,5,99,9",,,"07,99,1,99,9,99,9,99999,9,99,9,99,9",,"10139,1,99999,9","10,1",,,,"MET054METAR EDBC 020720Z 13008KT 4000 BR BKN058 08/08 Q1014;",
"10616499999","2010-10-02T07:50:00","4","51.854992","11.418889","180.0","COCHSTEDT, GM","FM-15","EDBC ","V020","130,1,N,0046,1","22000,1,9,N","004000,1,N,1","+0090,1","+0080,1","99999,9",,,,"00,99,1,99,9,99,9,99999,9,99,9,99,9",,"10139,1,99999,9","10,1",,,,"MET051METAR EDBC 020750Z 13009KT 4000 BR NSC 09/08 Q1014;","Q01    003SCCGA1"
"10616499999","2010-10-02T08:20:00","4","51.854992","11.418889","180.0","COCHSTEDT, GM","FM-15","EDBC ","V020","140,1,N,0041,1","22000,1,9,N","004000,1,N,1","+0100,1","+0090,1","99999,9",,,,"00,99,1,99,9,99,9,99999,9,99,9,99,9",,"10149,1,99999,9","10,1",,,,"MET051METAR EDBC 020820Z 14008KT 4000 BR NSC 10/09 Q1015;","Q01    003SCCGA1"
"10616499999","2010-10-02T08:50:00","4","51.854992","11.418889","180.0","COCHSTEDT, GM","FM-15","EDBC ","V020","140,1,N,0041,1","22000,1,9,N","005000,1,N,1","+0100,1","+0090,1","99999,9",,,,"00,99,1,99,9,99,9,99999,9,99,9,99,9",,"10149,1,99999,9","10,1",,,,"MET051METAR EDBC 020850Z 14008KT 5000 BR NSC 10/09 Q1015;","Q01    003SCCGA1"
"10616499999","2010-10-02T09:20:00","4","51.854992","11.418889","180.0","COCHSTEDT, GM","FM-15","EDBC ","V020","130,1,N,0041,1","22000,1,9,N","005000,1,N,1","+0110,1","+0100,1","99999,9",,,,"00,99,1,99,9,99,9,99999,9,99,9,99,9",,"10149,1,99999,9","10,1",,,,"MET051METAR EDBC 020920Z 13008KT 5000 BR NSC 11/10 Q1015;","Q01    003SCCGA1"
"10616499999","2010-10-02T09:50:00","4","51.854992","11.418889","180.0","COCHSTEDT, GM","FM-15","EDBC ","V020","140,1,N,0051,1","22000,1,9,N","005000,1,N,1","+0130,1","+0110,1","99999,9",,,,"00,99,1,99,9,99,9,99999,9,99,9,99,9",,"10149,1,99999,9","10,1",,,,"MET051METAR EDBC 020950Z 14010KT 5000 BR NSC 13/11 Q1015;","Q01    003SCCGA1"
"10616499999","2010-10-03T14:50:00","4","51.854992","11.418889","180.0","COCHSTEDT, GM","FM-15","EDBC ","V020","120,1,N,0077,1","99999,9,9,Y","009900,1,N,1","+0190,1","+0130,1","99999,9",,,,,,"10108,1,99999,9",,,,,"MET045METAR EDBC 031450Z 12015KT CAVOK 19/13 Q1011;",
"10616499999","2010-10-04T04:20:00","4","51.854992","11.418889","180.0","COCHSTEDT, GM","FM-15","EDBC ","V020","130,1,N,0057,1","99999,9,9,Y","009900,1,N,1","+0070,1","+0070,1","99999,9",,,,,,"10071,1,99999,9",,,,,"MET045METAR EDBC 040420Z 13011KT CAVOK 07/07 Q1007;",
"10616499999","2010-10-04T04:50:00","4","51.854992","11.418889","180.0","COCHSTEDT, GM","FM-15","EDBC ","V020","140,1,N,0051,1","22000,1,9,N","005000,1,N,1","+0070,1","+0070,1","99999,9",,,,"00,99,1,99,9,99,9,99999,9,99,9,99,9",,"10071,1,99999,9","10,1",,,,"MET051METAR EDBC 040450Z 14010KT 5000 BR NSC 07/07 Q1007;","Q01    003SCCGA1"
"10616499999","2010-10-04T05:20:00","4","51.854992","11.418889","180.0","COCHSTEDT, GM","FM-15","EDBC ","V020","140,1,N,0046,1","22000,1,9,N","006000,1,N,1","+0070,1","+0070,1","99999,9",,,,"00,99,1,99,9,99,9,99999,9,99,9,99,9",,"10081,1,99999,9",,,,,"MET048METAR EDBC 040520Z 14009KT 6000 NSC 07/07 Q1008;","Q01    003SCCGA1"
"10616499999","2010-10-04T05:50:00","4","51.854992","11.418889","180.0","COCHSTEDT, GM","FM-15","EDBC ","V020","130,1,N,0051,1","22000,1,9,N","005000,1,N,1","+0070,1","+0070,1","99999,9",,,,"00,99,1,99,9,99,9,99999,9,99,9,99,9",,"10081,1,99999,9","10,1",,,,"MET051METAR EDBC 040550Z 13010KT 5000 BR NSC 07/07 Q1008;","Q01    003SCCGA1"
"10616499999","2010-10-04T06:20:00","4","51.854992","11.418889","180.0","COCHSTEDT, GM","FM-15","EDBC ","V020","130,1,N,0057,1","22000,1,9,N","006000,1,N,1","+0080,1","+0080,1","99999,9",,,,"00,99,1,99,9,99,9,99999,9,99,9,99,9",,"10081,1,99999,9",,,,,"MET048METAR EDBC 040620Z 13011KT 6000 NSC 08/08 Q1008;","Q01    003SCCGA1"
"10616499999","2010-10-04T06:50:00","4","51.854992","11.418889","180.0","COCHSTEDT, GM","FM-15","EDBC ","V020","130,1,N,0057,1","22000,1,9,N","006000,1,N,1","+0070,1","+0070,1","99999,9",,,,"00,99,1,99,9,99,9,99999,9,99,9,99,9",,"10081,1,99999,9",,,,,"MET048METAR EDBC 040650Z 13011KT 6000 NSC 07/07 Q1008;","Q01    003SCCGA1"
"10616499999","2010-10-04T07:20:00","4","51.854992","11.418889","180.0","COCHSTEDT, GM","FM-15","EDBC ","V020","140,1,N,0062,1","22000,1,9,N","006000,1,N,1","+0050,1","+0040,1","99999,9",,,,"00,99,1,99,9,99,9,99999,9,99,9,99,9",,"10081,1,99999,9",,,,,"MET048METAR EDBC 040720Z 14012KT 6000 NSC 05/04 Q1008;","Q01    003SCCGA1"
"10616499999","2010-10-04T07:50:00","4","51.854992","11.418889","180.0","COCHSTEDT, GM","FM-15","EDBC ","V020","140,1,N,0057,1","22000,1,9,N","008000,1,N,1","+0010,1","+0000,1","99999,9",,,,"00,99,1,99,9,99,9,99999,9,99,9,99,9",,"10081,1,99999,9",,,,,"MET048METAR EDBC 040750Z 14011KT 8000 NSC 01/00 Q1008;","Q01    003SCCGA1"
"10616499999","2010-10-04T08:20:00","4","51.854992","11.418889","180.0","COCHSTEDT, GM","FM-15","EDBC ","V020","140,1,N,0067,1","99999,9,9,Y","009900,1,N,1","+0100,1","+0080,1","99999,9",,,,,,"10081,1,99999,9",,,,,"MET045METAR EDBC 040820Z 14013KT CAVOK 10/08 Q1008;",
"10616499999","2010-10-04T08:50:00","4","51.854992","11.418889","180.0","COCHSTEDT, GM","FM-15","EDBC ","V020","140,1,N,0062,1","99999,9,9,Y","009900,1,N,1","+0120,1","+0090,1","99999,9",,,,,,"10081,1,99999,9",,,,,"MET045METAR EDBC 040850Z 14012KT CAVOK 12/09 Q1008;",
"10616499999","2010-10-04T09:20:00","4","51.854992","11.418889","180.0","COCHSTEDT, GM","FM-15","EDBC ","V020","140,1,N,0072,1","99999,9,9,Y","009900,1,N,1","+0130,1","+0100,1","99999,9",,,,,,"10071,1,99999,9",,,,,"MET045METAR EDBC 040920Z 14014KT CAVOK 13/10 Q1007;",
"10616499999","2010-10-04T09:50:00","4","51.854992","11.418889","180.0","COCHSTEDT, GM","FM-15","EDBC ","V020","140,1,N,0067,1","99999,9,9,Y","009900,1,N,1","+0150,1","+0110,2","99999,9",,,,,,"10071,1,99999,9",,,,,"MET045METAR EDBC 040950Z 14013KT CAVOK 15/11 Q1007;",
"10616499999","2010-10-04T10:20:00","4","51.854992","11.418889","180.0","COCHSTEDT, GM","FM-15","EDBC ","V020","130,1,N,0067,1","99999,9,9,Y","009900,1,N,1","+0150,1","+0110,2","99999,9",,,,,,"10071,1,99999,9",,,,,"MET045METAR EDBC 041020Z 13013KT CAVOK 15/11 Q1007;",
"10616499999","2010-10-04T10:50:00","4","51.854992","11.418889","180.0","COCHSTEDT, GM","FM-15","EDBC ","V020","130,1,N,0067,1","99999,9,9,Y","009900,1,N,1","+0160,1","+0110,2","99999,9",,,,,,"10071,1,99999,9",,,,,"MET045METAR EDBC 041050Z 13013KT CAVOK 16/11 Q1007;",
"10616499999","2010-10-04T11:20:00","4","51.854992","11.418889","180.0","COCHSTEDT, GM","FM-15","EDBC ","V020","130,1,N,0072,1","99999,9,9,Y","009900,1,N,1","+0160,1","+0110,1","99999,9",,,,,,"10071,1,99999,9",,,,,"MET045METAR EDBC 041120Z 13014KT CAVOK 16/11 Q1007;",
"10616499999","2010-10-04T11:50:00","4","51.854992","11.418889","180.0","COCHSTEDT, GM","FM-15","EDBC ","V020","120,1,N,0077,1","99999,9,9,Y","009900,1,N,1","+0160,1","+0110,1","99999,9",,,,,,"10071,1,99999,9",,,,,"MET045METAR EDBC 041150Z 12015KT CAVOK 16/11 Q1007;",
"10616499999","2010-10-04T12:20:00","4","51.854992","11.418889","180.0","COCHSTEDT, GM","FM-15","EDBC ","V020","130,1,N,0072,1","99999,9,9,Y","009900,1,N,1","+0170,1","+0110,1","99999,9",,,,,,"10071,1,99999,9",,,,,"MET045METAR EDBC 041220Z 13014KT CAVOK 17/11 Q1007;",
"10616499999","2010-10-04T12:50:00","4","51.854992","11.418889","180.0","COCHSTEDT, GM","FM-15","EDBC ","V020","120,1,N,0077,1","99999,9,9,Y","009900,1,N,1","+0170,1","+0110,1","99999,9",,,,,,"10071,1,99999,9",,,,,"MET045METAR EDBC 041250Z 12015KT CAVOK 17/11 Q1007;",
"10616499999","2010-10-04T13:20:00","4","51.854992","11.418889","180.0","COCHSTEDT, GM","FM-15","EDBC ","V020","120,1,N,0072,1","99999,9,9,Y","009900,1,N,1","+0170,1","+0110,1","99999,9",,,,,,"10071,1,99999,9",,,,,"MET045METAR EDBC 041320Z 12014KT CAVOK 17/11 Q1007;",
"10616499999","2010-10-04T13:50:00","4","51.854992","11.418889","180.0","COCHSTEDT, GM","FM-15","EDBC ","V020","120,1,N,0072,1","99999,9,9,Y","009900,1,N,1","+0170,1","+0110,1","99999,9",,,,,,"10061,1,99999,9",,,,,"MET045METAR EDBC 041350Z 12014KT CAVOK 17/11 Q1006;",
"10616499999","2010-10-05T03:50:00","4","51.854992","11.418889","180.0","COCHSTEDT, GM","FM-15","EDBC ","V020","140,1,N,0051,1","99999,9,9,Y","009900,1,N,1","+0080,1","+0080,1","99999,9",,,,,,"10061,1,99999,9",,,,,"MET045METAR EDBC 050350Z 14010KT CAVOK 08/08 Q1006;",
"10616499999","2010-10-05T04:20:00","4","51.854992","11.418889","180.0","COCHSTEDT, GM","FM-15","EDBC ","V020","140,1,N,0062,1","99999,9,9,Y","009900,1,N,1","+0080,1","+0080,1","99999,9",,,,,,"10061,1,99999,9",,,,,"MET045METAR EDBC 050420Z 14012KT CAVOK 08/08 Q1006;",
"10616499999","2010-10-05T04:50:00","4","51.854992","11.418889","180.0","COCHSTEDT, GM","FM-15","EDBC ","V020","140,1,N,0057,1","22000,1,9,N","008000,1,N,1","+0080,1","+0080,1","99999,9",,,,"00,99,1,99,9,99,9,99999,9,99,9,99,9",,"10061,1,99999,9",,,,,"MET048METAR EDBC 050450Z 14011KT 8000 NSC 08/08 Q1006;","Q01    003SCCGA1"
"10616499999","2010-10-05T05:20:00","4","51.854992","11.418889","180.0","COCHSTEDT, GM","FM-15","EDBC ","V020","150,1,N,0051,1","22000,1,9,N","004000,1,N,1","+0080,1","+0080,1","99999,9",,,,"00,99,1,99,9,99,9,99999,9,99,9,99,9",,"10061,1,99999,9","10,1",,,,"MET051METAR EDBC 050520Z 15010KT 4000 BR NSC 08/08 Q1006;","Q01    003SCCGA1"
"10616499999","2010-10-05T05:50:00","4","51.854992","11.418889","180.0","COCHSTEDT, GM","FM-15","EDBC ","V020","160,1,N,0051,1","22000,1,9,N","003000,1,N,1","+0080,1","+0070,1","99999,9",,,,"00,99,1,99,9,99,9,99999,9,99,9,99,9",,"10061,1,99999,9","10,1",,,,"MET051METAR EDBC 050550Z 16010KT 3000 BR NSC 08/07 Q1006;","Q01    003SCCGA1"
"10616499999","2010-10-05T06:20:00","4","51.854992","11.418889","180.0","COCHSTEDT, GM","FM-15","EDBC ","V020","160,1,N,0051,1","22000,1,9,N","005000,1,N,1","+0080,1","+0080,1","99999,9",,,,"00,99,1,99,9,99,9,99999,9,99,9,99,9",,"10061,1,99999,9","10,1",,,,"MET051METAR EDBC 050620Z 16010KT 5000 BR NSC 08/08 Q1006;","Q01    003SCCGA1"
"10616499999","2010-10-05T06:50:00","4","51.854992","11.418889","180.0","COCHSTEDT, GM","FM-15","EDBC ","V020","160,1,N,0057,1","22000,1,9,N","005000,1,N,1","+0090,1","+0080,1","99999,9",,,,"00,99,1,99,9,99,9,99999,9,99,9,99,9",,"10061,1,99999,9","10,1",,,,"MET051METAR EDBC 050650Z 16011KT 5000 BR NSC 09/08 Q1006;","Q01    003SCCGA1"
"10616499999","2010-10-05T07:20:00","4","51.854992","11.418889","180.0","COCHSTEDT, GM","FM-15","EDBC ","V020","160,1,N,0062,1","22000,1,9,N","006000,1,N,1","+0100,1","+0090,1","99999,9",,,,"00,99,1,99,9,99,9,99999,9,99,9,99,9",,"10061,1,99999,9",,,,,"MET048METAR EDBC 050720Z 16012KT 6000 NSC 10/09 Q1006;","Q01    003SCCGA1"
"10616499999","2010-10-05T07:50:00","4","51.854992","11.418889","180.0","COCHSTEDT, GM","FM-15","EDBC ","V020","160,1,N,0062,1","22000,1,9,N","007000,1,N,1","+0110,1","+0090,1","99999,9",,,,"00,99,1,99,9,99,9,99999,9,99,9,99,9",,"10071,1,99999,9",,,,,"MET048METAR EDBC 050750Z 16012KT 7000 NSC 11/09 Q1007;","Q01    003SCCGA1"
"10616499999","2010-10-05T08:20:00","4","51.854992","11.418889","180.0","COCHSTEDT, GM","FM-15","EDBC ","V020","150,1,N,0062,1","22000,1,9,N","009000,1,N,1","+0120,1","+0100,1","99999,9",,,,"00,99,1,99,9,99,9,99999,9,99,9,99,9",,"10071,1,99999,9",,,,,"MET048METAR EDBC 050820Z 15012KT 9000 NSC 12/10 Q1007;","Q01    003SCCGA1"
"10616499999","2010-10-05T08:50:00","4","51.854992","11.418889","180.0","COCHSTEDT, GM","FM-15","EDBC ","V020","160,1,N,0057,1","99999,9,9,Y","009900,1,N,1","+0130,1","+0100,1","99999,9",,,,,,"10071,1,99999,9",,,,,"MET045METAR EDBC 050850Z 16011KT CAVOK 13/10 Q1007;",
"10616499999","2010-10-05T09:20:00","4","51.854992","11.418889","180.0","COCHSTEDT, GM","FM-15","EDBC ","V020","150,1,N,0057,1","99999,9,9,Y","009900,1,N,1","+0140,1","+0110,1","99999,9",,,,,,"10071,1,99999,9",,,,,"MET045METAR EDBC 050920Z 15011KT CAVOK 14/11 Q1007;",
"10616499999","2010-10-05T09:50:00","4","51.854992","11.418889","180.0","COCHSTEDT, GM","FM-15","EDBC ","V020","140,1,N,0062,1","99999,9,9,Y","009900,1,N,1","+0150,1","+0110,1","99999,9",,,,,,"10071,1,99999,9",,,,,"MET045METAR EDBC 050950Z 14012KT CAVOK 15/11 Q1007;",
"10616499999","2010-10-05T10:20:00","4","51.854992","11.418889","180.0","COCHSTEDT, GM","FM-15","EDBC ","V020","150,1,N,0057,1","99999,9,9,Y","009900,1,N,1","+0150,1","+0110,1","99999,9",,,,,,"10071,1,99999,9",,,,,"MET045METAR EDBC 051020Z 15011KT CAVOK 15/11 Q1007;",
"10616499999","2010-10-05T10:50:00","4","51.854992","11.418889","180.0","COCHSTEDT, GM","FM-15","EDBC ","V020","160,1,N,0067,1","99999,9,9,Y","009900,1,N,1","+0160,1","+0110,1","99999,9",,,,,,"10070,1,99999,9",,,,,"MET049METAR EDBC 051050Z 16013KT CAVOK NSC 16/11 Q1007;",
"10616499999","2010-10-05T11:20:00","4","51.854992","11.418889","180.0","COCHSTEDT, GM","FM-15","EDBC ","V020","140,1,N,0072,1","99999,9,9,Y","009900,1,N,1","+0170,1","+0120,1","99999,9",,,,,,"10071,1,99999,9",,,,,"MET045METAR EDBC 051120Z 14014KT CAVOK 17/12 Q1007;",
"10616499999","2010-10-05T11:50:00","4","51.854992","11.418889","180.0","COCHSTEDT, GM","FM-15","EDBC ","V020","150,1,N,0067,1","99999,9,9,Y","009900,1,N,1","+0170,1","+0120,1","99999,9",,,,,,"10071,1,99999,9",,,,,"MET045METAR EDBC 051150Z 15013KT CAVOK 17/12 Q1007;",
"10616499999","2010-10-05T12:20:00","4","51.854992","11.418889","180.0","COCHSTEDT, GM","FM-15","EDBC ","V020","160,1,N,0062,1","99999,9,9,Y","009900,1,N,1","+0170,1","+0120,1","99999,9",,,,,,"10071,1,99999,9",,,,,"MET045METAR EDBC 051220Z 16012KT CAVOK 17/12 Q1007;",
"10616499999","2010-10-05T12:50:00","4","51.854992","11.418889","180.0","COCHSTEDT, GM","FM-15","EDBC ","V020","160,1,N,0057,1","99999,9,9,Y","009900,1,N,1","+9999,9","+9999,9","99999,9",,,,,,,,,,,"MET046METAR EDBC 051250Z 16011KT CAVOK ///// Q 1007;",
"10616499999","2010-10-05T13:20:00","4","51.854992","11.418889","180.0","COCHSTEDT, GM","FM-15","EDBC ","V020","160,1,N,0057,1","99999,9,9,Y","009900,1,N,1","+9999,9","+9999,9","99999,9",,,,,,"10071,1,99999,9",,,,,"MET045METAR EDBC 051320Z 16011KT CAVOK ///// Q1007;",
"10616499999","2010-10-05T13:50:00","4","51.854992","11.418889","180.0","COCHSTEDT, GM","FM-15","EDBC ","V020","160,1,N,0051,1","22000,1,9,N","009000,1,N,1","+9999,9","+9999,9","99999,9",,,,"00,99,1,99,9,99,9,99999,9,99,9,99,9",,"10071,1,99999,9",,,,,"MET042METAR EDBC 051350Z 16010KT 9000 NSC Q1007;","Q01    003SCCGA1"
"10616499999","2010-10-06T05:50:00","4","51.854992","11.418889","180.0","COCHSTEDT, GM","FM-15","EDBC ","V020","180,1,N,0046,1","22000,1,9,N","005000,1,N,1","+0120,1","+0120,1","99999,9",,,,"00,99,1,99,9,99,9,99999,9,99,9,99,9",,"10129,1,99999,9","10,1",,,,"MET051METAR EDBC 060550Z 18009KT 5000 BR NSC 12/12 Q1013;","Q01    003SCCGA1"
"10616499999","2010-10-06T07:20:00","4","51.854992","11.418889","180.0","COCHSTEDT, GM","FM-15","EDBC ","V020","190,1,N,0036,1","22000,1,9,N","008000,1,N,1","+9999,9","+9999,9","99999,9",,,,"00,99,1,99,9,99,9,99999,9,99,9,99,9",,"10129,1,99999,9",,,,,"MET048METAR EDBC 060720Z 19007KT 8000 NSC ///// Q1013;","Q01    003SCCGA1"
"10616499999","2010-10-06T07:50:00","4","51.854992","11.418889","180.0","COCHSTEDT, GM","FM-15","EDBC ","V020","160,1,N,0036,1","22000,1,9,N","008000,1,N,1","+9999,9","+9999,9","99999,9",,,,"00,99,1,99,9,99,9,99999,9,99,9,99,9",,"10129,1,99999,9",,,,,"MET048METAR EDBC 060750Z 16007KT 8000 NSC ///// Q1013;","Q01    003SCCGA1"
"10616499999","2010-10-06T08:20:00","4","51.854992","11.418889","180.0","COCHSTEDT, GM","FM-15","EDBC ","V020","180,1,N,0036,1","22000,1,9,N","008000,1,N,1","+9999,9","+9999,9","99999,9",,,,"00,99,1,99,9,99,9,99999,9,99,9,99,9",,"10129,1,99999,9",,,,,"MET048METAR EDBC 060820Z 18007KT 8000 NSC ///// Q1013;","Q01    003SCCGA1"
"10616499999","2010-10-06T08:50:00","4","51.854992","11.418889","180.0","COCHSTEDT, GM","FM-15","EDBC ","V020","180,1,N,0036,1","22000,1,9,N","011265,1,N,1","+9999,9","+9999,9","99999,9","02,5,+00540,1,99,9",,,"02,99,1,99,9,99,9,99999,9,99,9,99,9",,"10139,1,99999,9",,,,,"MET051METAR EDBC 060850Z 18007KT 9999 FEW018 ///// Q1014;",
"10616499999","2010-10-06T09:20:00","4","51.854992","11.418889","180.0","COCHSTEDT, GM","FM-15","EDBC ","V020","190,1,N,0041,1","22000,1,9,N","011265,1,N,1","+0160,1","+0130,1","99999,9","02,5,+00390,1,99,9",,,"02,99,1,99,9,99,9,99999,9,99,9,99,9",,"10129,1,99999,9",,,,,"MET059METAR EDBC 060920Z 19008KT 140V210 9999 FEW013 16/13 Q1013;",
"10616499999","2010-10-06T09:50:00","4","51.854992","11.418889","180.0","COCHSTEDT, GM","FM-15","EDBC ","V020","180,1,N,0036,1","22000,1,9,N","011265,1,N,1","+9999,9","+9999,9","99999,9","02,5,+00390,1,99,9",,,"02,99,1,99,9,99,9,99999,9,99,9,99,9",,"10129,1,99999,9",,,,,"MET059METAR EDBC 060950Z 18007KT 150V210 9999 FEW013 ///// Q1013;",
"10616499999","2010-10-06T10:20:00","4","51.854992","11.418889","180.0","COCHSTEDT, GM","FM-15","EDBC ","V020","170,1,N,0051,1","22000,1,9,N","011265,1,N,1","+0200,1","+0150,1","99999,9","02,5,+00750,1,99,9",,,"02,99,1,99,9,99,9,99999,9,99,9,99,9",,"10129,1,99999,9",,,,,"MET051METAR EDBC 061020Z 17010KT 9999 FEW025 20/15 Q1013;",
"10616499999","2010-10-06T10:50:00","4","51.854992","11.418889","180.0","COCHSTEDT, GM","FM-15","EDBC ","V020","160,1,N,0057,1","99999,9,9,Y","009900,1,N,1","+0200,1","+0140,1","99999,9",,,,,,"10129,1,99999,9",,,,,"MET045METAR EDBC 061050Z 16011KT CAVOK 20/14 Q1013;",
"10616499999","2010-10-06T11:20:00","4","51.854992","11.418889","180.0","COCHSTEDT, GM","FM-15","EDBC ","V020","160,1,N,0057,1","99999,9,9,Y","009900,1,N,1","+9999,9","+9999,9","99999,9",,,,,,"10129,1,99999,9",,,,,"MET045METAR EDBC 061120Z 16011KT CAVOK ///// Q1013;",
"10616499999","2010-10-06T11:50:00","4","51.854992","11.418889","180.0","COCHSTEDT, GM","FM-15","EDBC ","V020","160,1,N,0062,1","99999,9,9,Y","009900,1,N,1","+9999,9","+9999,9","99999,9",,,,,,"10129,1,99999,9",,,,,"MET045METAR EDBC 061150Z 16012KT CAVOK ///// Q1013;",
"10616499999","2010-10-06T12:20:00","4","51.854992","11.418889","180.0","COCHSTEDT, GM","FM-15","EDBC ","V020","160,1,N,0067,1","99999,9,9,Y","009900,1,N,1","+9999,9","+9999,9","99999,9",,,,,,"10129,1,99999,9",,,,,"MET045METAR EDBC 061220Z 16013KT CAVOK ///// Q1013;",
"10616499999","2010-10-06T12:50:00","4","51.854992","11.418889","180.0","COCHSTEDT, GM","FM-15","EDBC ","V020","999,9,9,9999,9","99999,9,9,Y","009900,1,N,1","+9999,9","+9999,9","99999,9",,,,,,"10130,1,99999,9",,,,,"MET047METAR EDBC 061250Z 160/13 KT CAVOK ///// Q1013;",
"10616499999","2010-10-06T13:20:00","4","51.854992","11.418889","180.0","COCHSTEDT, GM","FM-15","EDBC ","V020","999,9,9,9999,9","99999,9,9,Y","009900,1,N,1","+9999,9","+9999,9","99999,9",,,,,,"10130,1,99999,9",,,,,"MET047METAR EDBC 061320Z 170/12 KT CAVOK ///// Q1013;",
"10616499999","2010-10-06T13:50:00","4","51.854992","11.418889","180.0","COCHSTEDT, GM","FM-15","EDBC ","V020","140,1,N,0072,1","99999,9,9,Y","009900,1,N,1","+9999,9","+9999,9","99999,9",,,,,,"10129,1,99999,9",,,,,"MET045METAR EDBC 061350Z 14014KT CAVOK ///// Q1013;",
"10616499999","2010-10-07T04:20:00","4","51.854992","11.418889","180.0","COCHSTEDT, GM","FM-15","EDBC ","V020","360,1,N,0010,1","22000,1,9,N","008000,1,N,1","+9999,9","+9999,9","99999,9",,,,"00,99,1,99,9,99,9,99999,9,99,9,99,9",,"10190,1,99999,9",,,,,"MET048METAR EDBC 070420Z 36002KT 8000 NSC ///// Q1019;","Q01    003SCCGA1"
"10616499999","2010-10-07T04:50:00","4","51.854992","11.418889","180.0","COCHSTEDT, GM","FM-15","EDBC ","V020","310,1,N,0021,1","22000,1,9,N","008000,1,N,1","+9999,9","+9999,9","99999,9",,,,"00,99,1,99,9,99,9,99999,9,99,9,99,9",,"10200,1,99999,9",,,,,"MET048METAR EDBC 070450Z 31004KT 8000 NSC ///// Q1020;","Q01    003SCCGA1"
"10616499999","2010-10-07T05:20:00","4","51.854992","11.418889","180.0","COCHSTEDT, GM","FM-15","EDBC ","V020","300,1,N,0015,1","22000,1,9,N","006000,1,N,1","+9999,9","+9999,9","99999,9",,,,"00,99,1,99,9,99,9,99999,9,99,9,99,9",,"10200,1,99999,9",,,,,"MET048METAR EDBC 070520Z 30003KT 6000 NSC ///// Q1020;","Q01    003SCCGA1"
"10616499999","2010-10-07T05:50:00","4","51.854992","11.418889","180.0","COCHSTEDT, GM","FM-15","EDBC ","V020","310,1,N,0015,1","22000,1,9,N","006000,1,N,1","+9999,9","+9999,9","99999,9",,,,"00,99,1,99,9,99,9,99999,9,99,9,99,9",,"10200,1,99999,9",,,,,"MET048METAR EDBC 070550Z 31003KT 6000 NSC ///// Q1020;","Q01    003SCCGA1"
"10616499999","2010-10-07T06:20:00","4","51.854992","11.418889","180.0","COCHSTEDT, GM","FM-15","EDBC ","V020","310,1,N,0015,1","22000,1,9,N","006000,1,N,1","+9999,9","+9999,9","99999,9",,,,"00,99,1,99,9,99,9,99999,9,99,9,99,9",,"10200,1,99999,9",,,,,"MET048METAR EDBC 070620Z 31003KT 6000 NSC ///// Q1020;","Q01    003SCCGA1"
"10616499999","2010-10-07T06:50:00","4","51.854992","11.418889","180.0","COCHSTEDT, GM","FM-15","EDBC ","V020","310,1,N,0010,1","22000,1,9,N","006000,1,N,1","+9999,9","+9999,9","99999,9","02,5,+00540,1,99,9",,,"02,99,1,99,9,99,9,99999,9,99,9,99,9",,"10200,1,99999,9",,,,,"MET051METAR EDBC 070650Z 31002KT 6000 FEW018 ///// Q1020;",
"10616499999","2010-10-07T07:20:00","4","51.854992","11.418889","180.0","COCHSTEDT, GM","FM-15","EDBC ","V020","999,9,V,0015,1","22000,1,9,N","007000,1,N,1","+9999,9","+9999,9","99999,9","02,5,+00480,1,99,9",,,"02,99,1,99,9,99,9,99999,9,99,9,99,9",,"10200,1,99999,9",,,,,"MET051METAR EDBC 070720Z VRB03KT 7000 FEW016 ///// Q1020;",
"10616499999","2010-10-07T07:50:00","4","51.854992","11.418889","180.0","COCHSTEDT, GM","FM-15","EDBC ","V020","310,1,N,0021,1","22000,1,9,N","008000,1,N,1","+9999,9","+9999,9","99999,9","02,5,+00420,1,99,9",,,"02,99,1,99,9,99,9,99999,9,99,9,99,9",,"10200,1,99999,9",,,,,"MET051METAR EDBC 070750Z 31004KT 8000 FEW014 ///// Q1020;",
"10616499999","2010-10-07T08:20:00","4","51.854992","11.418889","180.0","COCHSTEDT, GM","FM-15","EDBC ","V020","330,1,N,0021,1","99999,9,C,N","008000,1,N,1","+9999,9","+9999,9","99999,9","02,5,+00330,1,99,9","04,5,+00420,1,99,9",,"04,99,1,99,9,99,9,99999,9,99,9,99,9",,"10200,1,99999,9",,,,,"MET066METAR EDBC 070820Z 33004KT 300V010 8000 FEW011 SCT014 ///// Q1020;","P01 004203SCOCIG"
"10616499999","2010-10-07T08:50:00","4","51.854992","11.418889","180.0","COCHSTEDT, GM","FM-15","EDBC ","V020","340,1,N,0026,1","22000,1,9,N","008000,1,N,1","+9999,9","+9999,9","99999,9","02,5,+00300,1,99,9",,,"02,99,1,99,9,99,9,99999,9,99,9,99,9",,"10200,1,99999,9",,,,,"MET059METAR EDBC 070850Z 34005KT 320V020 8000 FEW010 ///// Q1020;",
"10616499999","2010-10-07T09:20:00","4","51.854992","11.418889","180.0","COCHSTEDT, GM","FM-15","EDBC ","V020","020,1,N,0021,1","22000,1,9,N","008000,1,N,1","+0150,1","+0130,1","99999,9","02,5,+00270,1,99,9",,,"02,99,1,99,9,99,9,99999,9,99,9,99,9",,"10220,1,99999,9",,,,,"MET059METAR EDBC 070920Z 02004KT 340V060 8000 FEW009 15/13 Q1022;",
"10616499999","2010-10-07T09:50:00","4","51.854992","11.418889","180.0","COCHSTEDT, GM","FM-15","EDBC ","V020","010,1,N,0021,1","22000,1,9,N","008000,1,N,1","+0160,1","+0140,1","99999,9","02,5,+00240,1,99,9",,,"02,99,1,99,9,99,9,99999,9,99,9,99,9",,"10220,1,99999,9",,,,,"MET059METAR EDBC 070950Z 01004KT 320V050 8000 FEW008 16/14 Q1022;",
"10616499999","2010-10-07T10:20:00","4","51.854992","11.418889","180.0","COCHSTEDT, GM","FM-15","EDBC ","V020","020,1,N,0021,1","22000,1,9,N","011265,1,N,1","+0170,1","+0140,1","99999,9","02,5,+00270,1,99,9",,,"02,99,1,99,9,99,9,99999,9,99,9,99,9",,"10220,1,99999,9",,,,,"MET059METAR EDBC 071020Z 02004KT 330V060 9999 FEW009 17/14 Q1022;",
"10616499999","2010-10-07T10:50:00","4","51.854992","11.418889","180.0","COCHSTEDT, GM","FM-15","EDBC ","V020","040,1,N,0021,1","22000,1,9,N","011265,1,N,1","+0170,1","+0130,1","99999,9","02,5,+00330,1,99,9",,,"02,99,1,99,9,99,9,99999,9,99,9,99,9",,"10220,1,99999,9",,,,,"MET059METAR EDBC 071050Z 04004KT 360V090 9999 FEW011 17/13 Q1022;",
"10616499999","2010-10-07T11:20:00","4","51.854992","11.418889","180.0","COCHSTEDT, GM","FM-15","EDBC ","V020","999,9,V,0015,1","22000,1,9,N","011265,1,N,1","+0170,1","+0140,1","99999,9","02,5,+00390,1,99,9",,,"02,99,1,99,9,99,9,99999,9,99,9,99,9",,"10220,1,99999,9",,,,,"MET051METAR EDBC 071120Z VRB03KT 9999 FEW013 17/14 Q1022;",
"10616499999","2010-10-07T11:50:00","4","51.854992","11.418889","180.0","COCHSTEDT, GM","FM-15","EDBC ","V020","090,1,N,0021,1","99999,9,9,Y","009900,1,N,1","+0170,1","+0130,1","99999,9",,,,,,"10220,1,99999,9",,,,,"MET053METAR EDBC 071150Z 09004KT 020V130 CAVOK 17/13 Q1022;",
"10616499999","2010-10-07T12:50:00","4","51.854992","11.418889","180.0","COCHSTEDT, GM","FM-15","EDBC ","V020","110,1,N,0031,1","22000,1,9,N","007000,1,N,1","+0180,1","+0140,1","99999,9","02,5,+00480,1,99,9",,,"02,99,1,99,9,99,9,99999,9,99,9,99,9",,"10220,1,99999,9",,,,,"MET059METAR EDBC 071250Z 11006KT 070V150 7000 FEW016 18/14 Q1022;",
"10616499999","2010-10-07T13:20:00","4","51.854992","11.418889","180.0","COCHSTEDT, GM","FM-15","EDBC ","V020","090,1,N,0026,1","22000,1,9,N","007000,1,N,1","+0180,1","+0140,1","99999,9","02,5,+00540,1,99,9",,,"02,99,1,99,9,99,9,99999,9,99,9,99,9",,"10220,1,99999,9",,,,,"MET059METAR EDBC 071320Z 09005KT 050V130 7000 FEW018 18/14 Q1022;",
"10616499999","2010-10-07T13:50:00","4","51.854992","11.418889","180.0","COCHSTEDT, GM","FM-15","EDBC ","V020","100,1,N,0036,1","00600,1,C,N","007000,1,N,1","+0180,1","+0130,1","99999,9","07,5,+00600,1,99,9",,,"07,99,1,99,9,99,9,99999,9,99,9,99,9",,"10220,1,99999,9",,,,,"MET051METAR EDBC 071350Z 10007KT 7000 BKN020 18/13 Q1022;",
"10616499999","2010-10-08T04:20:00","4","51.854992","11.418889","180.0","COCHSTEDT, GM","FM-15","EDBC ","V020","110,1,N,0031,1","00630,1,C,N","008000,1,N,1","+0120,1","+0110,1","99999,9","07,5,+00630,1,99,9",,,"07,99,1,99,9,99,9,99999,9,99,9,99,9",,"10230,1,99999,9",,,,,"MET051METAR EDBC 080420Z 11006KT 8000 BKN021 12/11 Q1023;",
"10616499999","2010-10-08T04:50:00","4","51.854992","11.418889","180.0","COCHSTEDT, GM","FM-15","EDBC ","V020","110,1,N,0036,1","22000,1,9,N","008000,1,N,1","+0110,1","+0100,1","99999,9","02,5,+00600,1,99,9",,,"02,99,1,99,9,99,9,99999,9,99,9,99,9",,"10230,1,99999,9",,,,,"MET051METAR EDBC 080450Z 11007KT 8000 FEW020 11/10 Q1023;",
"10616499999","2010-10-08T05:20:00","4","51.854992","11.418889","180.0","COCHSTEDT, GM","FM-15","EDBC ","V020","120,1,N,0046,1","22000,1,9,N","006000,1,N,1","+0110,1","+0100,1","99999,9",,,,"00,99,1,99,9,99,9,99999,9,99,9,99,9",,"10230,1,99999,9",,,,,"MET048METAR EDBC 080520Z 12009KT 6000 NSC 11/10 Q1023;","Q01    003SCCGA1"
"10616499999","2010-10-08T05:50:00","4","51.854992","11.418889","180.0","COCHSTEDT, GM","FM-15","EDBC ","V020","120,1,N,0041,1","22000,1,9,N","006000,1,N,1","+0100,1","+0090,1","99999,9",,,,"00,99,1,99,9,99,9,99999,9,99,9,99,9",,"10230,1,99999,9",,,,,"MET048METAR EDBC 080550Z 12008KT 6000 NSC 10/09 Q1023;","Q01    003SCCGA1"
"10616499999","2010-10-08T06:20:00","4","51.854992","11.418889","180.0","COCHSTEDT, GM","FM-15","EDBC ","V020","120,1,N,0046,1","22000,1,9,N","007000,1,N,1","+0100,1","+0090,1","99999,9",,,,"00,99,1,99,9,99,9,99999,9,99,9,99,9",,"10230,1,99999,9",,,,,"MET048METAR EDBC 080620Z 12009KT 7000 NSC 10/09 Q1023;","Q01    003SCCGA1"
"10616499999","2010-10-08T06:50:00","4","51.854992","11.418889","180.0","COCHSTEDT, GM","FM-15","EDBC ","V020","120,1,N,0046,1","22000,1,9,N","007000,1,N,1","+0100,1","+0090,1","99999,9",,,,"00,99,1,99,9,99,9,99999,9,99,9,99,9",,"10230,1,99999,9",,,,,"MET048METAR EDBC 080650Z 12009KT 7000 NSC 10/09 Q1023;","Q01    003SCCGA1"
"10616499999","2010-10-08T07:20:00","4","51.854992","11.418889","180.0","COCHSTEDT, GM","FM-15","EDBC ","V020","130,1,N,0046,1","22000,1,9,N","008000,1,N,1","+0100,1","+0090,1","99999,9",,,,"00,99,1,99,9,99,9,99999,9,99,9,99,9",,"10230,1,99999,9",,,,,"MET048METAR EDBC 080720Z 13009KT 8000 NSC 10/09 Q1023;","Q01    003SCCGA1"
"10616499999","2010-10-08T07:50:00","4","51.854992","11.418889","180.0","COCHSTEDT, GM","FM-15","EDBC ","V020","130,1,N,0046,1","22000,1,9,N","008000,1,N,1","+0110,1","+0090,1","99999,9",,,,"00,99,1,99,9,99,9,99999,9,99,9,99,9",,"10230,1,99999,9",,,,,"MET048METAR EDBC 080750Z 13009KT 8000 NSC 11/09 Q1023;","Q01    003SCCGA1"
"10616499999","2010-10-08T08:20:00","4","51.854992","11.418889","180.0","COCHSTEDT, GM","FM-15","EDBC ","V020","130,1,N,0057,1","99999,9,9,Y","009900,1,N,1","+0120,1","+0100,1","99999,9",,,,,,"10230,1,99999,9",,,,,"MET045METAR EDBC 080820Z 13011KT CAVOK 12/10 Q1023;",
"10616499999","2010-10-08T08:50:00","4","51.854992","11.418889","180.0","COCHSTEDT, GM","FM-15","EDBC ","V020","120,1,N,0057,1","99999,9,9,Y","009900,1,N,1","+0130,1","+0100,1","99999,9",,,,,,"10230,1,99999,9",,,,,"MET045METAR EDBC 080850Z 12011KT CAVOK 13/10 Q1023;",
"10616499999","2010-10-08T09:20:00","4","51.854992","11.418889","180.0","COCHSTEDT, GM","FM-15","EDBC ","V020","130,1,N,0062,1","99999,9,9,Y","009900,1,N,1","+0130,1","+0100,1","99999,9",,,,,,"10230,1,99999,9",,,,,"MET045METAR EDBC 080920Z 13012KT CAVOK 13/10 Q1023;",
"10616499999","2010-10-08T09:50:00","4","51.854992","11.418889","180.0","COCHSTEDT, GM","FM-15","EDBC ","V020","120,1,N,0062,1","99999,9,9,Y","009900,1,N,1","+0140,1","+0100,1","99999,9",,,,,,"10230,1,99999,9",,,,,"MET045METAR EDBC 080950Z 12012KT CAVOK 14/10 Q1023;",
"10616499999","2010-10-08T10:20:00","4","51.854992","11.418889","180.0","COCHSTEDT, GM","FM-15","EDBC ","V020","130,1,N,0062,1","99999,9,9,Y","009900,1,N,1","+0150,1","+0100,1","99999,9",,,,,,"10230,1,99999,9",,,,,"MET045METAR EDBC 081020Z 13012KT CAVOK 15/10 Q1023;",
"10616499999","2010-10-08T10:50:00","4","51.854992","11.418889","180.0","COCHSTEDT, GM","FM-15","EDBC ","V020","130,1,N,0067,1","99999,9,9,Y","009900,1,N,1","+0150,1","+0100,1","99999,9",,,,,,"10230,1,99999,9",,,,,"MET045METAR EDBC 081050Z 13013KT CAVOK 15/10 Q1023;",
"10616499999","2010-10-08T11:20:00","4","51.854992","11.418889","180.0","COCHSTEDT, GM","FM-15","EDBC ","V020","120,1,N,0072,1","99999,9,9,Y","009900,1,N,1","+0150,1","+0090,1","99999,9",,,,,,"10230,1,99999,9",,,,,"MET045METAR EDBC 081120Z 12014KT CAVOK 15/09 Q1023;",
"10616499999","2010-10-08T11:50:00","4","51.854992","11.418889","180.0","COCHSTEDT, GM","FM-15","EDBC ","V020","120,1,N,0067,1","99999,9,9,Y","009900,1,N,1","+0150,1","+0090,1","99999,9",,,,,,"10230,1,99999,9",,,,,"MET045METAR EDBC 081150Z 12013KT CAVOK 15/09 Q1023;",
"10616499999","2010-10-08T12:20:00","4","51.854992","11.418889","180.0","COCHSTEDT, GM","FM-15","EDBC ","V020","110,1,N,0057,1","99999,9,9,Y","009900,1,N,1","+0160,1","+0100,1","99999,9",,,,,,"10230,1,99999,9",,,,,"MET045METAR EDBC 081220Z 11011KT CAVOK 16/10 Q1023;",
"10616499999","2010-10-08T12:50:00","4","51.854992","11.418889","180.0","COCHSTEDT, GM","FM-15","EDBC ","V020","110,1,N,0067,1","99999,9,9,Y","009900,1,N,1","+0160,1","+0090,1","99999,9",,,,,,"10230,1,99999,9",,,,,"MET045METAR EDBC 081250Z 11013KT CAVOK 16/09 Q1023;",
"10616499999","2010-10-08T13:20:00","4","51.854992","11.418889","180.0","COCHSTEDT, GM","FM-15","EDBC ","V020","110,1,N,0067,1","99999,9,9,Y","009900,1,N,1","+0160,1","+0100,1","99999,9",,,,,,"10230,1,99999,9",,,,,"MET045METAR EDBC 081320Z 11013KT CAVOK 16/10 Q1023;",
"10616499999","2010-10-08T13:50:00","4","51.854992","11.418889","180.0","COCHSTEDT, GM","FM-15","EDBC ","V020","110,1,N,0057,1","99999,9,9,Y","009900,1,N,1","+0160,1","+0100,1","99999,9",,,,,,"10230,1,99999,9",,,,,"MET045METAR EDBC 081350Z 11011KT CAVOK 16/10 Q1023;",
"10616499999","2010-10-09T05:50:00","4","51.854992","11.418889","180.0","COCHSTEDT, GM","FM-15","EDBC ","V020","130,1,N,0041,1","22000,1,9,N","006000,1,N,1","+0080,1","+0060,1","99999,9",,,,"00,99,1,99,9,99,9,99999,9,99,9,99,9",,"10220,1,99999,9",,,,,"MET048METAR EDBC 090550Z 13008KT 6000 NSC 08/06 Q1022;","Q01    003SCCGA1"
"10616499999","2010-10-09T06:20:00","4","51.854992","11.418889","180.0","COCHSTEDT, GM","FM-15","EDBC ","V020","130,1,N,0031,1","22000,1,9,N","007000,1,N,1","+0070,1","+0060,1","99999,9",,,,"00,99,1,99,9,99,9,99999,9,99,9,99,9",,"10230,1,99999,9",,,,,"MET048METAR EDBC 090620Z 13006KT 7000 NSC 07/06 Q1023;","Q01    003SCCGA1"
"10616499999","2010-10-09T06:50:00","4","51.854992","11.418889","180.0","COCHSTEDT, GM","FM-15","EDBC ","V020","120,1,N,0041,1","22000,1,9,N","007000,1,N,1","+0080,1","+0070,1","99999,9",,,,"00,99,1,99,9,99,9,99999,9,99,9,99,9",,"10230,1,99999,9",,,,,"MET048METAR EDBC 090650Z 12008KT 7000 NSC 08/07 Q1023;","Q01    003SCCGA1"
"10616499999","2010-10-09T07:20:00","4","51.854992","11.418889","180.0","COCHSTEDT, GM","FM-15","EDBC ","V020","120,1,N,0041,1","22000,1,9,N","008000,1,N,1","+0090,1","+0070,1","99999,9",,,,"00,99,1,99,9,99,9,99999,9,99,9,99,9",,"10230,1,99999,9",,,,,"MET048METAR EDBC 090720Z 12008KT 8000 NSC 09/07 Q1023;","Q01    003SCCGA1"
"10616499999","2010-10-09T07:50:00","4","51.854992","11.418889","180.0","COCHSTEDT, GM","FM-15","EDBC ","V020","110,1,N,0041,1","22000,1,9,N","008000,1,N,1","+0100,1","+0070,1","99999,9",,,,"00,99,1,99,9,99,9,99999,9,99,9,99,9",,"10230,1,99999,9",,,,,"MET056METAR EDBC 090750Z 11008KT 080V140 8000 NSC 10/07 Q1023;","Q01    003SCCGA1"
"10616499999","2010-10-09T08:20:00","4","51.854992","11.418889","180.0","COCHSTEDT, GM","FM-15","EDBC ","V020","090,1,N,0031,1","22000,1,9,N","008000,1,N,1","+0090,1","+0070,1","99999,9",,,,"00,99,1,99,9,99,9,99999,9,99,9,99,9",,"10230,1,99999,9",,,,,"MET048METAR EDBC 090820Z 09006KT 8000 NSC 09/07 Q1023;","Q01    003SCCGA1"
"10616499999","2010-10-09T08:50:00","4","51.854992","11.418889","180.0","COCHSTEDT, GM","FM-15","EDBC ","V020","100,1,N,0036,1","22000,1,9,N","008000,1,N,1","+0100,1","+0070,1","99999,9",,,,"00,99,1,99,9,99,9,99999,9,99,9,99,9",,"10230,1,99999,9",,,,,"MET048METAR EDBC 090850Z 10007KT 8000 NSC 10/07 Q1023;","Q01    003SCCGA1"
"10616499999","2010-10-09T09:20:00","4","51.854992","11.418889","180.0","COCHSTEDT, GM","FM-15","EDBC ","V020","090,1,N,0026,1","99999,9,9,Y","009900,1,N,1","+0110,1","+0080,1","99999,9",,,,,,"10230,1,99999,9",,,,,"MET053METAR EDBC 090920Z 09005KT 070V140 CAVOK 11/08 Q1023;",
"10616499999","2010-10-09T09:50:00","4","51.854992","11.418889","180.0","COCHSTEDT, GM","FM-15","EDBC ","V020","110,1,N,0041,1","99999,9,9,Y","009900,1,N,1","+0130,1","+0090,1","99999,9",,,,,,"10230,1,99999,9",,,,,"MET053METAR EDBC 090950Z 11008KT 060V130 CAVOK 13/09 Q1023;",
"10616499999","2010-10-09T10:20:00","4","51.854992","11.418889","180.0","COCHSTEDT, GM","FM-15","EDBC ","V020","100,1,N,0051,1","99999,9,9,Y","009900,1,N,1","+0140,1","+0080,1","99999,9",,,,,,"10230,1,99999,9",,,,,"MET045METAR EDBC 091020Z 10010KT CAVOK 14/08 Q1023;",
"10616499999","2010-10-09T10:50:00","4","51.854992","11.418889","180.0","COCHSTEDT, GM","FM-15","EDBC ","V020","100,1,N,0046,1","99999,9,9,Y","009900,1,N,1","+0140,1","+0080,1","99999,9",,,,,,"10230,1,99999,9",,,,,"MET045METAR EDBC 091050Z 10009KT CAVOK 14/08 Q1023;",
"10616499999","2010-10-09T11:20:00","4","51.854992","11.418889","180.0","COCHSTEDT, GM","FM-15","EDBC ","V020","090,1,N,0041,1","99999,9,9,Y","009900,1,N,1","+0150,1","+0070,1","99999,9",,,,,,"10220,1,99999,9",,,,,"MET053METAR EDBC 091120Z 09008KT 060V120 CAVOK 15/07 Q1022;",
"10616499999","2010-10-09T11:50:00","4","51.854992","11.418889","180.0","COCHSTEDT, GM","FM-15","EDBC ","V020","100,1,N,0057,1","99999,9,9,Y","009900,1,N,1","+0160,1","+0060,1","99999,9",,,,,,"10220,1,99999,9",,,,,"MET053METAR EDBC 091150Z 10011KT 060V130 CAVOK 16/06 Q1022;",
"10616499999","2010-10-09T12:20:00","4","51.854992","11.418889","180.0","COCHSTEDT, GM","FM-15","EDBC ","V020","110,1,N,0062,1","99999,9,9,Y","009900,1,N,1","+0170,1","+0050,1","99999,9",,,,,,"10220,1,99999,9",,,,,"MET045METAR EDBC 091220Z 11012KT CAVOK 17/05 Q1022;",
"10616499999","2010-10-09T12:50:00","4","51.854992","11.418889","180.0","COCHSTEDT, GM","FM-15","EDBC ","V020","120,1,N,0062,1","99999,9,9,Y","009900,1,N,1","+0180,1","+0060,1","99999,9",,,,,,"10210,1,99999,9",,,,,"MET045METAR EDBC 091250Z 12012KT CAVOK 18/06 Q1021;",
"10616499999","2010-10-09T13:20:00","4","51.854992","11.418889","180.0","COCHSTEDT, GM","FM-15","EDBC ","V020","120,1,N,0067,1","99999,9,9,Y","009900,1,N,1","+0170,1","+0060,1","99999,9",,,,,,"10210,1,99999,9",,,,,"MET045METAR EDBC 091320Z 12013KT CAVOK 17/06 Q1021;",
"10616499999","2010-10-09T13:50:00","4","51.854992","11.418889","180.0","COCHSTEDT, GM","FM-15","EDBC ","V020","100,1,N,0062,1","99999,9,9,Y","009900,1,N,1","+0170,1","+0070,1","99999,9",,,,,,"10210,1,99999,9",,,,,"MET045METAR EDBC 091350Z 10012KT CAVOK 17/07 Q1021;",
"10616499999","2010-10-09T14:20:00","4","51.854992","11.418889","180.0","COCHSTEDT, GM","FM-15","EDBC ","V020","100,1,N,0072,1","99999,9,9,Y","009900,1,N,1","+0170,1","+0060,1","99999,9",,,,,,"10210,1,99999,9",,,,,"MET045METAR EDBC 091420Z 10014KT CAVOK 17/06 Q1021;",
"10616499999","2010-10-09T14:50:00","4","51.854992","11.418889","180.0","COCHSTEDT, GM","FM-15","EDBC ","V020","100,1,N,0057,1","99999,9,9,Y","009900,1,N,1","+0170,1","+0070,1","99999,9",,,,,,"10210,1,99999,9",,,,,"MET045METAR EDBC 091450Z 10011KT CAVOK 17/07 Q1021;",
"10616499999","2010-10-09T15:20:00","4","51.854992","11.418889","180.0","COCHSTEDT, GM","FM-15","EDBC ","V020","090,1,N,0057,1","99999,9,9,Y","009900,1,N,1","+0150,1","+0070,1","99999,9",,,,,,"10210,1,99999,9",,,,,"MET045METAR EDBC 091520Z 09011KT CAVOK 15/07 Q1021;",
"10616499999","2010-10-09T15:50:00","4","51.854992","11.418889","180.0","COCHSTEDT, GM","FM-15","EDBC ","V020","090,1,N,0062,1","99999,9,9,Y","009900,1,N,1","+0150,1","+0070,1","99999,9",,,,,,"10210,1,99999,9",,,,,"MET045METAR EDBC 091550Z 09012KT CAVOK 15/07 Q1021;",
"10616499999","2010-10-09T16:20:00","4","51.854992","11.418889","180.0","COCHSTEDT, GM","FM-15","EDBC ","V020","090,1,N,0051,1","99999,9,9,Y","009900,1,N,1","+0130,1","+0060,1","99999,9",,,,,,"10210,1,99999,9",,,,,"MET045METAR EDBC 091620Z 09010KT CAVOK 13/06 Q1021;",
"10616499999","2010-10-09T16:50:00","4","51.854992","11.418889","180.0","COCHSTEDT, GM","FM-15","EDBC ","V020","090,1,N,0051,1","99999,9,9,Y","009900,1,N,1","+0130,1","+0060,1","99999,9",,,,,,"10210,1,99999,9",,,,,"MET045METAR EDBC 091650Z 09010KT CAVOK 13/06 Q1021;",
"10616499999","2010-10-10T04:50:00","4","51.854992","11.418889","180.0","COCHSTEDT, GM","FM-15","EDBC ","V020","040,1,N,0021,1","22000,1,9,N","005000,1,N,1","+0030,1","+0030,1","99999,9",,,,"00,99,1,99,9,99,9,99999,9,99,9,99,9",,"10180,1,99999,9","10,1",,,,"MET051METAR EDBC 100450Z 04004KT 5000 BR NSC 03/03 Q1018;","Q01    003SCCGA1"
"10616499999","2010-10-10T05:20:00","4","51.854992","11.418889","180.0","COCHSTEDT, GM","FM-15","EDBC ","V020","050,1,N,0021,1","22000,1,9,N","005000,1,N,1","+0030,1","+0030,1","99999,9",,,,"00,99,1,99,9,99,9,99999,9,99,9,99,9",,"10180,1,99999,9","12,1",,,,"MET053METAR EDBC 100520Z 05004KT 5000 MIFG SKC 03/03 Q1018;","Q01    003SCCGA1"
"10616499999","2010-10-10T05:50:00","4","51.854992","11.418889","180.0","COCHSTEDT, GM","FM-15","EDBC ","V020","030,1,N,0015,1","22000,1,9,N","003000,1,N,1","+0030,1","+0020,1","99999,9",,,,"00,99,1,99,9,99,9,99999,9,99,9,99,9",,"10180,1,99999,9","12,1",,,,"MET053METAR EDBC 100550Z 03003KT 3000 MIFG SKC 03/02 Q1018;","Q01    003SCCGA1"
"10616499999","2010-10-10T06:20:00","4","51.854992","11.418889","180.0","COCHSTEDT, GM","FM-15","EDBC ","V020","999,9,V,0010,1","22000,1,9,N","004000,1,N,1","+0030,1","+0030,1","99999,9",,,,"00,99,1,99,9,99,9,99999,9,99,9,99,9",,"10180,1,99999,9","12,1",,,,"MET053METAR EDBC 100620Z VRB02KT 4000 MIFG SKC 03/03 Q1018;","Q01    003SCCGA1"
"10616499999","2010-10-10T06:50:00","4","51.854992","11.418889","180.0","COCHSTEDT, GM","FM-15","EDBC ","V020","020,1,N,0021,1","22000,1,9,N","005000,1,N,1","+0030,1","+0020,1","99999,9",,,,"00,99,1,99,9,99,9,99999,9,99,9,99,9",,"10180,1,99999,9","10,1",,,,"MET051METAR EDBC 100650Z 02004KT 5000 BR SKC 03/02 Q1018;","Q01    003SCCGA1"
"10616499999","2010-10-10T07:20:00","4","51.854992","11.418889","180.0","COCHSTEDT, GM","FM-15","EDBC ","V020","020,1,N,0021,1","22000,1,9,N","004000,1,N,1","+0040,1","+0030,1","99999,9",,,,,,"10190,1,99999,9","10,1",,,,"MET055METAR EDBC 100720Z 02004KT 350V050 4000 BR 04/03 Q1019;",
"10616499999","2010-10-10T07:50:00","4","51.854992","11.418889","180.0","COCHSTEDT, GM","FM-15","EDBC ","V020","050,1,N,0021,1","22000,1,9,N","004000,1,N,1","+0050,1","+0040,1","99999,9",,,,"00,99,1,99,9,99,9,99999,9,99,9,99,9",,"10180,1,99999,9","10,1",,,,"MET059METAR EDBC 100750Z 05004KT 360V090 4000 BR SKC 05/04 Q1018;","Q01    003SCCGA1"
"10616499999","2010-10-10T08:20:00","4","51.854992","11.418889","180.0","COCHSTEDT, GM","FM-15","EDBC ","V020","070,1,N,0026,1","22000,1,9,N","006000,1,N,1","+0060,1","+0040,1","99999,9",,,,,,"10180,1,99999,9",,,,,"MET044METAR EDBC 100820Z 07005KT 6000 06/04 Q1018;",
"10616499999","2010-10-10T08:50:00","4","51.854992","11.418889","180.0","COCHSTEDT, GM","FM-15","EDBC ","V020","100,1,N,0021,1","22000,1,9,N","008000,1,N,1","+0070,1","+0040,1","99999,9",,,,"00,99,1,99,9,99,9,99999,9,99,9,99,9",,"10180,1,99999,9",,,,,"MET056METAR EDBC 100850Z 10004KT 050V130 8000 SKC 07/04 Q1018;","Q01    003SCCGA1"
"10616499999","2010-10-10T09:20:00","4","51.854992","11.418889","180.0","COCHSTEDT, GM","FM-15","EDBC ","V020","070,1,N,0021,1","22000,1,9,N","008000,1,N,1","+0080,1","+0050,1","99999,9",,,,"00,99,1,99,9,99,9,99999,9,99,9,99,9",,"10180,1,99999,9",,,,,"MET056METAR EDBC 100920Z 07004KT 340V110 8000 SKC 08/05 Q1018;","Q01    003SCCGA1"
"10616499999","2010-10-10T09:50:00","4","51.854992","11.418889","180.0","COCHSTEDT, GM","FM-15","EDBC ","V020","999,9,V,0015,1","99999,9,9,Y","009900,1,N,1","+0090,1","+0050,1","99999,9",,,,,,"10180,1,99999,9",,,,,"MET045METAR EDBC 100950Z VRB03KT CAVOK 09/05 Q1018;",
"10616499999","2010-10-10T10:20:00","4","51.854992","11.418889","180.0","COCHSTEDT, GM","FM-15","EDBC ","V020","060,1,N,0026,1","99999,9,9,Y","009900,1,N,1","+0100,1","+0050,1","99999,9",,,,,,"10180,1,99999,9",,,,,"MET053METAR EDBC 101020Z 06005KT 010V100 CAVOK 10/05 Q1018;",
"10616499999","2010-10-10T10:50:00","4","51.854992","11.418889","180.0","COCHSTEDT, GM","FM-15","EDBC ","V020","070,1,N,0041,1","99999,9,9,Y","009900,1,N,1","+0100,1","+0050,1","99999,9",,,,,,"10180,1,99999,9",,,,,"MET053METAR EDBC 101050Z 07008KT 030V100 CAVOK 10/05 Q1018;",
"10616499999","2010-10-10T11:20:00","4","51.854992","11.418889","180.0","COCHSTEDT, GM","FM-15","EDBC ","V020","070,1,N,0041,1","99999,9,9,Y","009900,1,N,1","+0120,1","+0040,1","99999,9",,,,,,"10180,1,99999,9",,,,,"MET053METAR EDBC 101120Z 07008KT 040V100 CAVOK 12/04 Q1018;",
"10616499999","2010-10-10T11:50:00","4","51.854992","11.418889","180.0","COCHSTEDT, GM","FM-15","EDBC ","V020","040,1,N,0036,1","99999,9,9,Y","009900,1,N,1","+0120,1","+0050,1","99999,9",,,,,,"10180,1,99999,9",,,,,"MET053METAR EDBC 101150Z 04007KT 360V080 CAVOK 12/05 Q1018;",
"10616499999","2010-10-10T12:20:00","4","51.854992","11.418889","180.0","COCHSTEDT, GM","FM-15","EDBC ","V020","070,1,N,0041,1","99999,9,9,Y","009900,1,N,1","+0130,1","+0030,1","99999,9",,,,,,"10169,1,99999,9",,,,,"MET052METAR EDBC 101220Z 07008KT 040V110 CAVOK13/03 Q1017;",
"10616499999","2010-10-10T12:50:00","4","51.854992","11.418889","180.0","COCHSTEDT, GM","FM-15","EDBC ","V020","080,1,N,0057,1","99999,9,9,Y","009900,1,N,1","+0140,1","+0010,1","99999,9",,,,,,"10169,1,99999,9",,,,,"MET045METAR EDBC 101250Z 08011KT CAVOK 14/01 Q1017;",
"10616499999","2010-10-10T13:20:00","4","51.854992","11.418889","180.0","COCHSTEDT, GM","FM-15","EDBC ","V020","090,1,N,0041,1","99999,9,9,Y","009900,1,N,1","+0140,1","+0020,1","99999,9",,,,,,"10169,1,99999,9",,,,,"MET052METAR EDBC 101320Z 09008KT 060V120 CAVOK14/02 Q1017;",
"10616499999","2010-10-10T13:50:00","4","51.854992","11.418889","180.0","COCHSTEDT, GM","FM-15","EDBC ","V020","070,1,N,0041,1","99999,9,9,Y","009900,1,N,1","+0150,1","+0020,1","99999,9",,,,,,"10169,1,99999,9",,,,,"MET053METAR EDBC 101350Z 07008KT 030V100 CAVOK 15/02 Q1017;",
"10616499999","2010-10-10T14:20:00","4","51.854992","11.418889","180.0","COCHSTEDT, GM","FM-15","EDBC ","V020","070,1,N,0046,1","99999,9,9,Y","009900,1,N,1","+0140,1","+0030,1","99999,9",,,,,,"10169,1,99999,9",,,,,"MET045METAR EDBC 101420Z 07009KT CAVOK 14/03 Q1017;",
"10616499999","2010-10-10T14:50:00","4","51.854992","11.418889","180.0","COCHSTEDT, GM","FM-15","EDBC ","V020","070,1,N,0041,1","99999,9,9,Y","009900,1,N,1","+0140,1","+0030,1","99999,9",,,,,,"10169,1,99999,9",,,,,"MET044METAR EDBC 101450Z 07008KTCAVOK 14/03 Q1017;",
"10616499999","2010-10-10T15:20:00","4","51.854992","11.418889","180.0","COCHSTEDT, GM","FM-15","EDBC ","V020","060,1,N,0036,1","99999,9,9,Y","009900,1,N,1","+0130,1","+0030,1","99999,9",,,,,,"10169,1,99999,9",,,,,"MET052METAR EDBC 101520Z 06007KT 020V090 CAVOK13/03 Q1017;",
"10616499999","2010-10-10T16:20:00","4","51.854992","11.418889","180.0","COCHSTEDT, GM","FM-15","EDBC ","V020","060,1,N,0031,1","99999,9,9,Y","009900,1,N,1","+0120,1","+0030,1","99999,9",,,,,,"10159,1,99999,9",,,,,"MET053METAR EDBC 101620Z 06006KT 030V090 CAVOK 12/03 Q1016;",
"10616499999","2010-10-11T04:20:00","4","51.854992","11.418889","180.0","COCHSTEDT, GM","FM-15","EDBC ","V020","350,1,N,0026,1","22000,1,9,N","006000,1,N,1","+0020,1","+0020,1","99999,9",,,,"00,99,1,99,9,99,9,99999,9,99,9,99,9",,"10169,1,99999,9",,,,,"MET048METAR EDBC 110420Z 35005KT 6000 NSC 02/02 Q1017;","Q01    003SCCGA1"
"10616499999","2010-10-11T04:50:00","4","51.854992","11.418889","180.0","COCHSTEDT, GM","FM-15","EDBC ","V020","340,1,N,0031,1","22000,1,9,N","006000,1,N,1","+0020,1","+0020,1","99999,9",,,,"00,99,1,99,9,99,9,99999,9,99,9,99,9",,"10169,1,99999,9",,,,,"MET048METAR EDBC 110450Z 34006KT 6000 NSC 02/02 Q1017;","Q01    003SCCGA1"
"10616499999","2010-10-11T05:20:00","4","51.854992","11.418889","180.0","COCHSTEDT, GM","FM-15","EDBC ","V020","330,1,N,0021,1","22000,1,9,N","007000,1,N,1","+0020,1","+0010,1","99999,9",,,,"00,99,1,99,9,99,9,99999,9,99,9,99,9",,"10169,1,99999,9",,,,,"MET048METAR EDBC 110520Z 33004KT 7000 NSC 02/01 Q1017;","Q01    003SCCGA1"
"10616499999","2010-10-11T05:50:00","4","51.854992","11.418889","180.0","COCHSTEDT, GM","FM-15","EDBC ","V020","330,1,N,0015,1","22000,1,9,N","006000,1,N,1","+0030,1","+0020,1","99999,9",,,,"00,99,1,99,9,99,9,99999,9,99,9,99,9",,"10169,1,99999,9",,,,,"MET048METAR EDBC 110550Z 33003KT 6000 NSC 03/02 Q1017;","Q01    003SCCGA1"
"10616499999","2010-10-11T06:50:00","4","51.854992","11.418889","180.0","COCHSTEDT, GM","FM-15","EDBC ","V020","280,1,N,0015,1","22000,1,9,N","005000,1,N,1","+0020,1","+0020,1","99999,9",,,,"00,99,1,99,9,99,9,99999,9,99,9,99,9",,"10180,1,99999,9","12,1",,,,"MET063METAR EDBC 110650Z 28003KT 5000 R26/1400N MIFG NSC 02/02 Q1018;","Q01    003SCCGA1"
"10616499999","2010-10-11T07:20:00","4","51.854992","11.418889","180.0","COCHSTEDT, GM","FM-15","EDBC ","V020","250,1,N,0010,1","22000,1,9,N","006000,1,N,1","+0050,1","+0030,1","99999,9",,,,"00,99,1,99,9,99,9,99999,9,99,9,99,9",,"10169,1,99999,9",,,,,"MET048METAR EDBC 110720Z 25002KT 6000 NSC 05/03 Q1017;","Q01    003SCCGA1"
"10616499999","2010-10-11T07:50:00","4","51.854992","11.418889","180.0","COCHSTEDT, GM","FM-15","EDBC ","V020","999,9,V,0010,1","22000,1,9,N","006000,1,N,1","+0070,1","+0040,1","99999,9",,,,"00,99,1,99,9,99,9,99999,9,99,9,99,9",,"10180,1,99999,9",,,,,"MET048METAR EDBC 110750Z VRB02KT 6000 NSC 07/04 Q1018;","Q01    003SCCGA1"
"10616499999","2010-10-11T08:20:00","4","51.854992","11.418889","180.0","COCHSTEDT, GM","FM-15","EDBC ","V020","010,1,N,0031,1","22000,1,9,N","007000,1,N,1","+0060,1","+0040,1","99999,9",,,,"00,99,1,99,9,99,9,99999,9,99,9,99,9",,"10180,1,99999,9",,,,,"MET048METAR EDBC 110820Z 01006KT 7000 NSC 06/04 Q1018;","Q01    003SCCGA1"
"10616499999","2010-10-11T08:50:00","4","51.854992","11.418889","180.0","COCHSTEDT, GM","FM-15","EDBC ","V020","999,9,V,0010,1","22000,1,9,N","008000,1,N,1","+0070,1","+0040,1","99999,9",,,,"00,99,1,99,9,99,9,99999,9,99,9,99,9",,"10180,1,99999,9",,,,,"MET048METAR EDBC 110850Z VRB02KT 8000 NSC 07/04 Q1018;","Q01    003SCCGA1"
"10616499999","2010-10-11T09:20:00","4","51.854992","11.418889","180.0","COCHSTEDT, GM","FM-15","EDBC ","V020","999,9,V,0015,1","22000,1,9,N","008000,1,N,1","+0090,1","+0040,1","99999,9",,,,"00,99,1,99,9,99,9,99999,9,99,9,99,9",,"10180,1,99999,9",,,,,"MET048METAR EDBC 110920Z VRB03KT 8000 NSC 09/04 Q1018;","Q01    003SCCGA1"
"10616499999","2010-10-11T09:50:00","4","51.854992","11.418889","180.0","COCHSTEDT, GM","FM-15","EDBC ","V020","040,1,N,0026,1","22000,1,9,N","008000,1,N,1","+0100,1","+0050,1","99999,9",,,,"00,99,1,99,9,99,9,99999,9,99,9,99,9",,"10180,1,99999,9",,,,,"MET056METAR EDBC 110950Z 04005KT 350V080 8000 NSC 10/05 Q1018;","Q01    003SCCGA1"
"10616499999","2010-10-11T10:20:00","4","51.854992","11.418889","180.0","COCHSTEDT, GM","FM-15","EDBC ","V020","030,1,N,0031,1","22000,1,9,N","008000,1,N,1","+0100,1","+0050,1","99999,9",,,,"00,99,1,99,9,99,9,99999,9,99,9,99,9",,"10180,1,99999,9",,,,,"MET056METAR EDBC 111020Z 03006KT 350V060 8000 NSC 10/05 Q1018;","Q01    003SCCGA1"
"10616499999","2010-10-11T10:50:00","4","51.854992","11.418889","180.0","COCHSTEDT, GM","FM-15","EDBC ","V020","020,1,N,0021,1","99999,9,9,Y","009900,1,N,1","+0110,1","+0050,1","99999,9",,,,,,"10180,1,99999,9",,,,,"MET053METAR EDBC 111050Z 02004KT 330V090 CAVOK 11/05 Q1018;",
"10616499999","2010-10-11T11:20:00","4","51.854992","11.418889","180.0","COCHSTEDT, GM","FM-15","EDBC ","V020","999,9,V,0015,1","99999,9,9,Y","009900,1,N,1","+0120,1","+0050,1","99999,9",,,,,,"10180,1,99999,9",,,,,"MET045METAR EDBC 111120Z VRB03KT CAVOK 12/05 Q1018;",
"10616499999","2010-10-11T11:50:00","4","51.854992","11.418889","180.0","COCHSTEDT, GM","FM-15","EDBC ","V020","999,9,V,0010,1","99999,9,9,Y","009900,1,N,1","+0130,1","+0050,1","99999,9",,,,,,"10180,1,99999,9",,,,,"MET045METAR EDBC 111150Z VRB02KT CAVOK 13/05 Q1018;",
"10616499999","2010-10-11T12:20:00","4","51.854992","11.418889","180.0","COCHSTEDT, GM","FM-15","EDBC ","V020","999,9,V,0015,1","99999,9,9,Y","009900,1,N,1","+0130,1","+0040,1","99999,9",,,,,,"10169,1,99999,9",,,,,"MET045METAR EDBC 111220Z VRB03KT CAVOK 13/04 Q1017;",
"10616499999","2010-10-11T12:50:00","4","51.854992","11.418889","180.0","COCHSTEDT, GM","FM-15","EDBC ","V020","010,1,N,0031,1","99999,9,9,Y","009900,1,N,1","+0130,1","+0040,1","99999,9",,,,,,"10169,1,99999,9",,,,,"MET053METAR EDBC 111250Z 01006KT 340V050 CAVOK 13/04 Q1017;",
"10616499999","2010-10-11T13:20:00","4","51.854992","11.418889","180.0","COCHSTEDT, GM","FM-15","EDBC ","V020","020,1,N,0041,1","99999,9,9,Y","009900,1,N,1","+0130,1","+0040,1","99999,9",,,,,,"10169,1,99999,9",,,,,"MET045METAR EDBC 111320Z 02008KT CAVOK 13/04 Q1017;",
"10616499999","2010-10-11T13:50:00","4","51.854992","11.418889","180.0","COCHSTEDT, GM","FM-15","EDBC ","V020","030,1,N,0036,1","99999,9,9,Y","009900,1,N,1","+0130,1","+0050,1","99999,9",,,,,,"10169,1,99999,9",,,,,"MET053METAR EDBC 111350Z 03007KT 360V140 CAVOK 13/05 Q1017;",
"10616499999","2010-10-12T04:20:00","4","51.854992","11.418889","180.0","COCHSTEDT, GM","FM-15","EDBC ","V020","100,1,N,0021,1","00180,1,C,N","007000,1,N,1","+0040,1","+0030,1","99999,9","07,5,+00180,1,99,9",,,"07,99,1,99,9,99,9,99999,9,99,9,99,9",,"10180,1,99999,9",,,,,"MET051METAR EDBC 120420Z 10004KT 7000 BKN006 04/03 Q1018;",
"10616499999","2010-10-12T04:50:00","4","51.854992","11.418889","180.0","COCHSTEDT, GM","FM-15","EDBC ","V020","090,1,N,0021,1","00180,1,C,N","007000,1,N,1","+0040,1","+0030,1","99999,9","07,5,+00180,1,99,9",,,"07,99,1,99,9,99,9,99999,9,99,9,99,9",,"10180,1,99999,9",,,,,"MET059METAR EDBC 120450Z 09004KT 060V120 7000 BKN006 04/03 Q1018;",
"10616499999","2010-10-12T05:20:00","4","51.854992","11.418889","180.0","COCHSTEDT, GM","FM-15","EDBC ","V020","999,9,V,0015,1","00180,1,C,N","006000,1,N,1","+0040,1","+0030,1","99999,9","07,5,+00180,1,99,9",,,"07,99,1,99,9,99,9,99999,9,99,9,99,9",,"10180,1,99999,9",,,,,"MET051METAR EDBC 120520Z VRB03KT 6000 BKN006 04/03 Q1018;",
"10616499999","2010-10-12T05:50:00","4","51.854992","11.418889","180.0","COCHSTEDT, GM","FM-15","EDBC ","V020","999,9,V,0015,1","00180,1,C,N","006000,1,N,1","+0040,1","+0030,1","99999,9","07,5,+00180,1,99,9",,,"07,99,1,99,9,99,9,99999,9,99,9,99,9",,"10190,1,99999,9",,,,,"MET051METAR EDBC 120550Z VRB03KT 6000 BKN006 04/03 Q1019;",
"10616499999","2010-10-12T06:20:00","4","51.854992","11.418889","180.0","COCHSTEDT, GM","FM-15","EDBC ","V020","999,9,V,0015,1","00150,1,C,N","005000,1,N,1","+0050,1","+0030,1","99999,9","07,5,+00150,1,99,9",,,"07,99,1,99,9,99,9,99999,9,99,9,99,9",,"10190,1,99999,9",,,,,"MET051METAR EDBC 120620Z VRB03KT 5000 BKN005 05/03 Q1019;",
"10616499999","2010-10-12T06:50:00","4","51.854992","11.418889","180.0","COCHSTEDT, GM","FM-15","EDBC ","V020","999,9,V,0010,1","00240,1,C,N","005000,1,N,1","+0050,1","+0030,1","99999,9","07,5,+00240,1,99,9",,,"07,99,1,99,9,99,9,99999,9,99,9,99,9",,"10190,1,99999,9",,,,,"MET051METAR EDBC 120650Z VRB02KT 5000 BKN008 05/03 Q1019;",
"10616499999","2010-10-12T07:20:00","4","51.854992","11.418889","180.0","COCHSTEDT, GM","FM-15","EDBC ","V020","999,9,V,0015,1","00300,1,C,N","006000,1,N,1","+0050,1","+0040,1","99999,9","07,5,+00300,1,99,9",,,"07,99,1,99,9,99,9,99999,9,99,9,99,9",,"10190,1,99999,9",,,,,"MET051METAR EDBC 120720Z VRB03KT 6000 BKN010 05/04 Q1019;",
"10616499999","2010-10-12T07:50:00","4","51.854992","11.418889","180.0","COCHSTEDT, GM","FM-15","EDBC ","V020","060,1,N,0026,1","22000,1,9,N","006000,1,N,1","+0050,1","+0030,1","99999,9","04,5,+00300,1,99,9",,,"04,99,1,99,9,99,9,99999,9,99,9,99,9",,"10190,1,99999,9",,,,,"MET059METAR EDBC 120750Z 06005KT 030V090 6000 SCT010 05/03 Q1019;",
"10616499999","2010-10-12T08:20:00","4","51.854992","11.418889","180.0","COCHSTEDT, GM","FM-15","EDBC ","V020","110,1,N,0021,1","00330,1,C,N","007000,1,N,1","+0060,1","+0040,1","99999,9","07,5,+00330,1,99,9",,,"07,99,1,99,9,99,9,99999,9,99,9,99,9",,"10190,1,99999,9",,,,,"MET059METAR EDBC 120820Z 11004KT 060V140 7000 BKN011 06/04 Q1019;",
"10616499999","2010-10-12T08:50:00","4","51.854992","11.418889","180.0","COCHSTEDT, GM","FM-15","EDBC ","V020","999,9,V,0015,1","00330,1,C,N","007000,1,N,1","+0060,1","+0040,1","99999,9","07,5,+00330,1,99,9",,,"07,99,1,99,9,99,9,99999,9,99,9,99,9",,"10190,1,99999,9",,,,,"MET051METAR EDBC 120850Z VRB03KT 7000 BKN011 06/04 Q1019;",
"10616499999","2010-10-12T09:20:00","4","51.854992","11.418889","180.0","COCHSTEDT, GM","FM-15","EDBC ","V020","080,1,N,0021,1","00330,1,C,N","007000,1,N,1","+0070,1","+0040,1","99999,9","07,5,+00330,1,99,9",,,"07,99,1,99,9,99,9,99999,9,99,9,99,9",,"10190,1,99999,9",,,,,"MET059METAR EDBC 120920Z 08004KT 050V120 7000 BKN011 07/04 Q1019;",
"10616499999","2010-10-12T09:50:00","4","51.854992","11.418889","180.0","COCHSTEDT, GM","FM-15","EDBC ","V020","090,1,N,0026,1","00390,1,C,N","007000,1,N,1","+0070,1","+0040,1","99999,9","07,5,+00390,1,99,9",,,"07,99,1,99,9,99,9,99999,9,99,9,99,9",,"10190,1,99999,9",,,,,"MET059METAR EDBC 120950Z 09005KT 060V120 7000 BKN013 07/04 Q1019;",
"10616499999","2010-10-12T10:20:00","4","51.854992","11.418889","180.0","COCHSTEDT, GM","FM-15","EDBC ","V020","080,1,N,0021,1","00480,1,C,N","008000,1,N,1","+0080,1","+0040,1","99999,9","07,5,+00480,1,99,9",,,"07,99,1,99,9,99,9,99999,9,99,9,99,9",,"10190,1,99999,9",,,,,"MET059METAR EDBC 121020Z 08004KT 360V130 8000 BKN016 08/04 Q1019;",
"10616499999","2010-10-12T10:50:00","4","51.854992","11.418889","180.0","COCHSTEDT, GM","FM-15","EDBC ","V020","070,1,N,0021,1","22000,1,9,N","008000,1,N,1","+0080,1","+0050,1","99999,9","04,5,+00600,1,99,9",,,"04,99,1,99,9,99,9,99999,9,99,9,99,9",,"10190,1,99999,9",,,,,"MET059METAR EDBC 121050Z 07004KT 010V120 8000 SCT020 08/05 Q1019;",
"10616499999","2010-10-12T11:20:00","4","51.854992","11.418889","180.0","COCHSTEDT, GM","FM-15","EDBC ","V020","080,1,N,0036,1","22000,1,9,N","008000,1,N,1","+0080,1","+0040,1","99999,9","04,5,+00600,1,99,9",,,"04,99,1,99,9,99,9,99999,9,99,9,99,9",,"10180,1,99999,9",,,,,"MET051METAR EDBC 121120Z 08007KT 8000 SCT020 08/04 Q1018;",
"10616499999","2010-10-12T11:50:00","4","51.854992","11.418889","180.0","COCHSTEDT, GM","FM-15","EDBC ","V020","060,1,N,0031,1","22000,1,9,N","009000,1,N,1","+0090,1","+0040,1","99999,9","04,5,+00750,1,99,9",,,"04,99,1,99,9,99,9,99999,9,99,9,99,9",,"10180,1,99999,9",,,,,"MET059METAR EDBC 121150Z 06006KT 020V080 9000 SCT025 09/04 Q1018;",
"10616499999","2010-10-12T12:20:00","4","51.854992","11.418889","180.0","COCHSTEDT, GM","FM-15","EDBC ","V020","080,1,N,0026,1","22000,1,9,N","009000,1,N,1","+0090,1","+0050,1","99999,9","04,5,+00750,1,99,9",,,"04,99,1,99,9,99,9,99999,9,99,9,99,9",,"10180,1,99999,9",,,,,"MET059METAR EDBC 121220Z 08005KT 050V110 9000 SCT025 09/05 Q1018;",
"10616499999","2010-10-12T12:50:00","4","51.854992","11.418889","180.0","COCHSTEDT, GM","FM-15","EDBC ","V020","100,1,N,0021,1","22000,1,9,N","009000,1,N,1","+0100,1","+0040,1","99999,9","04,5,+00750,1,99,9",,,"04,99,1,99,9,99,9,99999,9,99,9,99,9",,"10169,1,99999,9",,,,,"MET059METAR EDBC 121250Z 10004KT 050V130 9000 SCT025 10/04 Q1017;",
"10616499999","2010-10-12T13:20:00","4","51.854992","11.418889","180.0","COCHSTEDT, GM","FM-15","EDBC ","V020","999,9,V,0015,1","22000,1,9,N","009000,1,N,1","+0110,1","+0040,1","99999,9","04,5,+00750,1,99,9",,,"04,99,1,99,9,99,9,99999,9,99,9,99,9",,"10169,1,99999,9",,,,,"MET051METAR EDBC 121320Z VRB03KT 9000 SCT025 11/04 Q1017;",
"10616499999","2010-10-12T13:50:00","4","51.854992","11.418889","180.0","COCHSTEDT, GM","FM-15","EDBC ","V020","090,1,N,0026,1","22000,1,9,N","009000,1,N,1","+0100,1","+0040,1","99999,9","04,5,+00750,1,99,9",,,"04,99,1,99,9,99,9,99999,9,99,9,99,9",,"10169,1,99999,9",,,,,"MET059METAR EDBC 121350Z 09005KT 060V130 9000 SCT025 10/04 Q1017;",
"10616499999","2010-10-13T04:20:00","4","51.854992","11.418889","180.0","COCHSTEDT, GM","FM-15","EDBC ","V020","350,1,N,0015,1","00900,1,C,N","007000,1,N,1","+0040,1","+0030,1","99999,9","07,5,+00900,1,99,9",,,"07,99,1,99,9,99,9,99999,9,99,9,99,9",,"10180,1,99999,9",,,,,"MET051METAR EDBC 130420Z 35003KT 7000 BKN030 04/03 Q1018;",
"10616499999","2010-10-13T04:50:00","4","51.854992","11.418889","180.0","COCHSTEDT, GM","FM-15","EDBC ","V020","999,9,V,0015,1","00900,1,C,N","007000,1,N,1","+0040,1","+0030,1","99999,9","07,5,+00900,1,99,9",,,"07,99,1,99,9,99,9,99999,9,99,9,99,9",,"10169,1,99999,9",,,,,"MET051METAR EDBC 130450Z VRB03KT 7000 BKN030 04/03 Q1017;",
"10616499999","2010-10-13T05:20:00","4","51.854992","11.418889","180.0","COCHSTEDT, GM","FM-15","EDBC ","V020","080,1,N,0015,1","00900,1,C,N","007000,1,N,1","+0040,1","+0030,1","99999,9","07,5,+00900,1,99,9",,,"07,99,1,99,9,99,9,99999,9,99,9,99,9",,"10169,1,99999,9",,,,,"MET051METAR EDBC 130520Z 08003KT 7000 BKN030 04/03 Q1017;",
"10616499999","2010-10-13T05:50:00","4","51.854992","11.418889","180.0","COCHSTEDT, GM","FM-15","EDBC ","V020","100,1,N,0021,1","22000,1,9,N","006000,1,N,1","+0040,1","+0030,1","99999,9","04,5,+00780,1,99,9",,,"04,99,1,99,9,99,9,99999,9,99,9,99,9",,"10169,1,99999,9",,,,,"MET051METAR EDBC 130550Z 10004KT 6000 SCT026 04/03 Q1017;",
"10616499999","2010-10-13T06:20:00","4","51.854992","11.418889","180.0","COCHSTEDT, GM","FM-15","EDBC ","V020","100,1,N,0026,1","22000,1,9,N","005000,1,N,1","+0040,1","+0030,1","99999,9","02,5,+00750,1,99,9",,,"02,99,1,99,9,99,9,99999,9,99,9,99,9",,"10180,1,99999,9",,,,,"MET051METAR EDBC 130620Z 10005KT 5000 FEW025 04/03 Q1018;",
"10616499999","2010-10-13T06:50:00","4","51.854992","11.418889","180.0","COCHSTEDT, GM","FM-15","EDBC ","V020","080,1,N,0021,1","22000,1,9,N","003000,1,N,1","+0040,1","+0040,1","99999,9","04,5,+00750,1,99,9",,,"04,99,1,99,9,99,9,99999,9,99,9,99,9",,"10180,1,99999,9",,,,,"MET061METAR EDBC 130650Z 08004KT 3000 R26/1400N SCT025 04/04 Q1018;",
"10616499999","2010-10-13T07:20:00","4","51.854992","11.418889","180.0","COCHSTEDT, GM","FM-15","EDBC ","V020","999,9,V,0015,1","22000,1,9,N","003000,1,N,1","+0050,1","+0050,1","99999,9","04,5,+00750,1,99,9",,,"04,99,1,99,9,99,9,99999,9,99,9,99,9",,"10180,1,99999,9",,,,,"MET061METAR EDBC 130720Z VRB03KT 3000 R26/1400N SCT025 05/05 Q1018;",
"10616499999","2010-10-13T07:50:00","4","51.854992","11.418889","180.0","COCHSTEDT, GM","FM-15","EDBC ","V020","140,1,N,0021,1","00750,1,C,N","002500,1,N,1","+0050,1","+0050,1","99999,9","07,5,+00750,1,99,9",,,"07,99,1,99,9,99,9,99999,9,99,9,99,9",,"10180,1,99999,9","10,1",,,,"MET054METAR EDBC 130750Z 14004KT 2500 BR BKN025 05/05 Q1018;",
"10616499999","2010-10-13T08:20:00","4","51.854992","11.418889","180.0","COCHSTEDT, GM","FM-15","EDBC ","V020","999,9,V,0015,1","00750,1,C,N","003000,1,N,1","+0060,1","+0050,1","99999,9","07,5,+00750,1,99,9",,,"07,99,1,99,9,99,9,99999,9,99,9,99,9",,"10180,1,99999,9","10,1",,,,"MET054METAR EDBC 130820Z VRB03KT 3000 BR BKN025 06/05 Q1018;",
"10616499999","2010-10-13T08:50:00","4","51.854992","11.418889","180.0","COCHSTEDT, GM","FM-15","EDBC ","V020","160,1,N,0026,1","00750,1,C,N","004000,1,N,1","+0070,1","+0050,1","99999,9","07,5,+00750,1,99,9",,,"07,99,1,99,9,99,9,99999,9,99,9,99,9",,"10180,1,99999,9","10,1",,,,"MET062METAR EDBC 130850Z 16005KT 120V180 4000 BR BKN025 07/05 Q1018;",
"10616499999","2010-10-13T09:20:00","4","51.854992","11.418889","180.0","COCHSTEDT, GM","FM-15","EDBC ","V020","999,9,V,0015,1","22000,1,9,N","006000,1,N,1","+0080,1","+0040,1","99999,9",,,,"00,99,1,99,9,99,9,99999,9,99,9,99,9",,"10180,1,99999,9",,,,,"MET048METAR EDBC 130920Z VRB03KT 6000 NSC 08/04 Q1018;","Q01    003SCCGA1"
"10616499999","2010-10-13T09:50:00","4","51.854992","11.418889","180.0","COCHSTEDT, GM","FM-15","EDBC ","V020","999,9,V,0015,1","22000,1,9,N","006000,1,N,1","+0100,1","+0040,1","99999,9",,,,"00,99,1,99,9,99,9,99999,9,99,9,99,9",,"10190,1,99999,9",,,,,"MET048METAR EDBC 130950Z VRB03KT 6000 NSC 10/04 Q1019;","Q01    003SCCGA1"
"10616499999","2010-10-13T10:20:00","4","51.854992","11.418889","180.0","COCHSTEDT, GM","FM-15","EDBC ","V020","090,1,N,0031,1","22000,1,9,N","007000,1,N,1","+0090,1","+0040,1","99999,9","02,5,+00600,1,99,9",,,"02,99,1,99,9,99,9,99999,9,99,9,99,9",,"10190,1,99999,9",,,,,"MET059METAR EDBC 131020Z 09006KT 030V120 7000 FEW020 09/04 Q1019;",
"10616499999","2010-10-13T10:50:00","4","51.854992","11.418889","180.0","COCHSTEDT, GM","FM-15","EDBC ","V020","060,1,N,0021,1","22000,1,9,N","008000,1,N,1","+0090,1","+0050,1","99999,9","04,5,+00570,1,99,9",,,"04,99,1,99,9,99,9,99999,9,99,9,99,9",,"10190,1,99999,9",,,,,"MET059METAR EDBC 131050Z 06004KT 340V110 8000 SCT019 09/05 Q1019;",
"10616499999","2010-10-13T11:20:00","4","51.854992","11.418889","180.0","COCHSTEDT, GM","FM-15","EDBC ","V020","070,1,N,0026,1","22000,1,9,N","011265,1,N,1","+0090,1","+0050,1","99999,9","04,5,+00600,1,99,9",,,"04,99,1,99,9,99,9,99999,9,99,9,99,9",,"10180,1,99999,9",,,,,"MET059METAR EDBC 131120Z 07005KT 040V100 9999 SCT020 09/05 Q1018;",
"10616499999","2010-10-13T11:50:00","4","51.854992","11.418889","180.0","COCHSTEDT, GM","FM-15","EDBC ","V020","120,1,N,0041,1","22000,1,9,N","011265,1,N,1","+0110,1","+0040,1","99999,9","04,5,+00630,1,99,9",,,"04,99,1,99,9,99,9,99999,9,99,9,99,9",,"10180,1,99999,9",,,,,"MET059METAR EDBC 131150Z 12008KT 070V150 9999 SCT021 11/04 Q1018;",
"10616499999","2010-10-13T12:20:00","4","51.854992","11.418889","180.0","COCHSTEDT, GM","FM-15","EDBC ","V020","080,1,N,0036,1","22000,1,9,N","011265,1,N,1","+0110,1","+0050,1","99999,9","04,5,+00690,1,99,9",,,"04,99,1,99,9,99,9,99999,9,99,9,99,9",,"10180,1,99999,9",,,,,"MET059METAR EDBC 131220Z 08007KT 050V120 9999 SCT023 11/05 Q1018;",
"10616499999","2010-10-13T12:50:00","4","51.854992","11.418889","180.0","COCHSTEDT, GM","FM-15","EDBC ","V020","110,1,N,0041,1","22000,1,9,N","011265,1,N,1","+0110,1","+0040,1","99999,9","04,5,+00750,1,99,9",,,"04,99,1,99,9,99,9,99999,9,99,9,99,9",,"10180,1,99999,9",,,,,"MET051METAR EDBC 131250Z 11008KT 9999 SCT025 11/04 Q1018;",
"10616499999","2010-10-13T13:20:00","4","51.854992","11.418889","180.0","COCHSTEDT, GM","FM-15","EDBC ","V020","120,1,N,0031,1","22000,1,9,N","011265,1,N,1","+0110,1","+0050,1","99999,9","02,5,+00720,1,99,9",,,"02,99,1,99,9,99,9,99999,9,99,9,99,9",,"10169,1,99999,9",,,,,"MET059METAR EDBC 131320Z 12006KT 090V150 9999 FEW024 11/05 Q1017;",
"10616499999","2010-10-13T13:50:00","4","51.854992","11.418889","180.0","COCHSTEDT, GM","FM-15","EDBC ","V020","080,1,N,0036,1","22000,1,9,N","011265,1,N,1","+0110,1","+0040,1","99999,9","02,5,+00750,1,99,9",,,"02,99,1,99,9,99,9,99999,9,99,9,99,9",,"10169,1,99999,9",,,,,"MET059METAR EDBC 131350Z 08007KT 050V120 9999 FEW025 11/04 Q1017;",
"10616499999","2010-10-14T04:20:00","4","51.854992","11.418889","180.0","COCHSTEDT, GM","FM-15","EDBC ","V020","290,1,N,0026,1","22000,1,9,N","007000,1,N,1","+0030,1","+0020,1","99999,9",,,,"00,99,1,99,9,99,9,99999,9,99,9,99,9",,"10139,1,99999,9",,,,,"MET048METAR EDBC 140420Z 29005KT 7000 NSC 03/02 Q1014;","Q01    003SCCGA1"
"10616499999","2010-10-14T04:50:00","4","51.854992","11.418889","180.0","COCHSTEDT, GM","FM-15","EDBC ","V020","240,1,N,0041,1","22000,1,9,N","007000,1,N,1","+0000,1","+0000,1","99999,9",,,,"00,99,1,99,9,99,9,99999,9,99,9,99,9",,"10139,1,99999,9",,,,,"MET064METAR EDBC 140450Z 24008KT 7000 R26/0600V0750D NSC 00/M00 Q1014;","Q01    003SCCGA1"
"10616499999","2010-10-14T05:20:00","4","51.854992","11.418889","180.0","COCHSTEDT, GM","FM-15","EDBC ","V020","240,1,N,0036,1","22000,1,9,N","006000,1,N,1","+0000,1","+0000,1","99999,9",,,,"00,99,1,99,9,99,9,99999,9,99,9,99,9",,"10139,1,99999,9",,,,,"MET049METAR EDBC 140520Z 24007KT 6000 NSC 00/M00 Q1014;","Q01    003SCCGA1"
"10616499999","2010-10-14T05:50:00","4","51.854992","11.418889","180.0","COCHSTEDT, GM","FM-15","EDBC ","V020","250,1,N,0036,1","22000,1,9,N","006000,1,N,1","+0010,1","+0000,1","99999,9",,,,"00,99,1,99,9,99,9,99999,9,99,9,99,9",,"10139,1,99999,9",,,,,"MET048METAR EDBC 140550Z 25007KT 6000 NSC 01/00 Q1014;","Q01    003SCCGA1"
"10616499999","2010-10-14T06:20:00","4","51.854992","11.418889","180.0","COCHSTEDT, GM","FM-15","EDBC ","V020","250,1,N,0031,1","22000,1,9,N","007000,1,N,1","+0010,1","+0010,1","99999,9",,,,"00,99,1,99,9,99,9,99999,9,99,9,99,9",,"10139,1,99999,9",,,,,"MET048METAR EDBC 140620Z 25006KT 7000 NSC 01/01 Q1014;","Q01    003SCCGA1"
"10616499999","2010-10-14T06:50:00","4","51.854992","11.418889","180.0","COCHSTEDT, GM","FM-15","EDBC ","V020","240,1,N,0031,1","22000,1,9,N","007000,1,N,1","+0020,1","+0010,1","99999,9",,,,"00,99,1,99,9,99,9,99999,9,99,9,99,9",,"10139,1,99999,9",,,,,"MET048METAR EDBC 140650Z 24006KT 7000 NSC 02/01 Q1014;","Q01    003SCCGA1"
"10616499999","2010-10-14T07:20:00","4","51.854992","11.418889","180.0","COCHSTEDT, GM","FM-15","EDBC ","V020","240,1,N,0031,1","22000,1,9,N","007000,1,N,1","+0040,1","+0030,1","99999,9",,,,"00,99,1,99,9,99,9,99999,9,99,9,99,9",,"10139,1,99999,9",,,,,"MET048METAR EDBC 140720Z 24006KT 7000 NSC 04/03 Q1014;","Q01    003SCCGA1"
"10616499999","2010-10-14T07:50:00","4","51.854992","11.418889","180.0","COCHSTEDT, GM","FM-15","EDBC ","V020","250,1,N,0036,1","22000,1,9,N","007000,1,N,1","+0060,1","+0040,1","99999,9",,,,"00,99,1,99,9,99,9,99999,9,99,9,99,9",,"10149,1,99999,9",,,,,"MET048METAR EDBC 140750Z 25007KT 7000 NSC 06/04 Q1015;","Q01    003SCCGA1"
"10616499999","2010-10-14T08:20:00","4","51.854992","11.418889","180.0","COCHSTEDT, GM","FM-15","EDBC ","V020","240,1,N,0031,1","22000,1,9,N","007000,1,N,1","+0070,1","+0050,1","99999,9",,,,"00,99,1,99,9,99,9,99999,9,99,9,99,9",,"10139,1,99999,9",,,,,"MET048METAR EDBC 140820Z 24006KT 7000 NSC 07/05 Q1014;","Q01    003SCCGA1"
"10616499999","2010-10-14T08:50:00","4","51.854992","11.418889","180.0","COCHSTEDT, GM","FM-15","EDBC ","V020","310,1,N,0041,1","00900,1,C,N","007000,1,N,1","+0090,1","+0040,1","99999,9","07,5,+00900,1,99,9",,,"07,99,1,99,9,99,9,99999,9,99,9,99,9",,"10139,1,99999,9",,,,,"MET051METAR EDBC 140850Z 31008KT 7000 BKN030 09/04 Q1014;",
"10616499999","2010-10-14T09:20:00","4","51.854992","11.418889","180.0","COCHSTEDT, GM","FM-15","EDBC ","V020","290,1,N,0031,1","22000,1,9,N","009000,1,N,1","+0090,1","+0050,1","99999,9","04,5,+01050,1,99,9",,,"04,99,1,99,9,99,9,99999,9,99,9,99,9",,"10139,1,99999,9",,,,,"MET059METAR EDBC 140920Z 29006KT 250V320 9000 SCT035 09/05 Q1014;",
"10616499999","2010-10-14T09:50:00","4","51.854992","11.418889","180.0","COCHSTEDT, GM","FM-15","EDBC ","V020","270,1,N,0041,1","22000,1,9,N","009000,1,N,1","+0100,1","+0050,1","99999,9","04,5,+01020,1,99,9",,,"04,99,1,99,9,99,9,99999,9,99,9,99,9",,"10139,1,99999,9",,,,,"MET059METAR EDBC 140950Z 27008KT 250V320 9000 SCT034 10/05 Q1014;",
"10616499999","2010-10-14T10:20:00","4","51.854992","11.418889","180.0","COCHSTEDT, GM","FM-15","EDBC ","V020","290,1,N,0036,1","00900,1,C,N","009000,1,N,1","+0100,1","+0050,1","99999,9","07,5,+00900,1,99,9",,,"07,99,1,99,9,99,9,99999,9,99,9,99,9",,"10139,1,99999,9",,,,,"MET051METAR EDBC 141020Z 29007KT 9000 BKN030 10/05 Q1014;",
"10616499999","2010-10-14T10:50:00","4","51.854992","11.418889","180.0","COCHSTEDT, GM","FM-15","EDBC ","V020","290,1,N,0036,1","00720,1,C,N","011265,1,N,1","+0100,1","+0050,1","99999,9","07,5,+00720,1,99,9",,,"07,99,1,99,9,99,9,99999,9,99,9,99,9",,"10139,1,99999,9",,,,,"MET059METAR EDBC 141050Z 29007KT 250V310 9999 BKN024 10/05 Q1014;",
"10616499999","2010-10-14T11:20:00","4","51.854992","11.418889","180.0","COCHSTEDT, GM","FM-15","EDBC ","V020","310,1,N,0041,1","00660,1,C,N","011265,1,N,1","+0090,1","+0050,1","99999,9","04,5,+00540,1,99,9","07,5,+00660,1,99,9","08,5,+00840,1,99,9","08,99,1,99,9,99,9,99999,9,99,9,99,9",,"10139,1,99999,9",,,,,"MET065METAR EDBC 141120Z 31008KT 9999 SCT018 BKN022 OVC028 09/05 Q1014;",
"10616499999","2010-10-14T11:50:00","4","51.854992","11.418889","180.0","COCHSTEDT, GM","FM-15","EDBC ","V020","290,1,N,0036,1","00840,1,C,N","009000,1,N,1","+0100,1","+0060,1","99999,9","02,5,+00480,1,99,9","08,5,+00840,1,99,9",,"08,99,1,99,9,99,9,99999,9,99,9,99,9",,"10139,1,99999,9",,,,,"MET058METAR EDBC 141150Z 29007KT 9000 FEW016 OVC028 10/06 Q1014;",
"10616499999","2010-10-14T12:20:00","4","51.854992","11.418889","180.0","COCHSTEDT, GM","FM-15","EDBC ","V020","280,1,N,0036,1","00810,1,C,N","011265,1,N,1","+0100,1","+0060,1","99999,9","08,5,+00810,1,99,9",,,"08,99,1,99,9,99,9,99999,9,99,9,99,9",,"10139,1,99999,9",,,,,"MET051METAR EDBC 141220Z 28007KT 9999 OVC027 10/06 Q1014;",
"10616499999","2010-10-14T12:50:00","4","51.854992","11.418889","180.0","COCHSTEDT, GM","FM-15","EDBC ","V020","310,1,N,0036,1","00840,1,C,N","011265,1,N,1","+0090,1","+0060,1","99999,9","02,5,+00600,1,99,9","08,5,+00840,1,99,9",,"08,99,1,99,9,99,9,99999,9,99,9,99,9",,"10139,1,99999,9",,,,,"MET058METAR EDBC 141250Z 31007KT 9999 FEW020 OVC028 09/06 Q1014;",
"10616499999","2010-10-14T13:20:00","4","51.854992","11.418889","180.0","COCHSTEDT, GM","FM-15","EDBC ","V020","280,1,N,0041,1","00840,1,C,N","011265,1,N,1","+0100,1","+0060,1","99999,9","08,5,+00840,1,99,9",,,"08,99,1,99,9,99,9,99999,9,99,9,99,9",,"10139,1,99999,9",,,,,"MET051METAR EDBC 141320Z 28008KT 9999 OVC028 10/06 Q1014;",
"10616499999","2010-10-14T13:50:00","4","51.854992","11.418889","180.0","COCHSTEDT, GM","FM-15","EDBC ","V020","270,1,N,0041,1","00960,1,C,N","011265,1,N,1","+0100,1","+0070,1","99999,9","08,5,+00960,1,99,9",,,"08,99,1,99,9,99,9,99999,9,99,9,99,9",,"10139,1,99999,9",,,,,"MET051METAR EDBC 141350Z 27008KT 9999 OVC032 10/07 Q1014;",
"10616499999","2010-10-15T04:20:00","4","51.854992","11.418889","180.0","COCHSTEDT, GM","FM-15","EDBC ","V020","310,1,N,0041,1","01260,1,C,N","006000,1,N,1","+0080,1","+0080,1","99999,9","04,5,+00630,1,99,9","07,5,+01260,1,99,9",,"07,99,1,99,9,99,9,99999,9,99,9,99,9",,"10119,1,99999,9",,,,,"MET058METAR EDBC 150420Z 31008KT 6000 SCT021 BKN042 08/08 Q1012;",
"10616499999","2010-10-15T04:50:00","4","51.854992","11.418889","180.0","COCHSTEDT, GM","FM-15","EDBC ","V020","300,1,N,0031,1","00930,1,C,N","006000,1,N,1","+0080,1","+0080,1","99999,9","02,5,+00150,1,99,9","07,5,+00930,1,99,9",,"07,99,1,99,9,99,9,99999,9,99,9,99,9",,"10119,1,99999,9",,,,,"MET058METAR EDBC 150450Z 30006KT 6000 FEW005 BKN031 08/08 Q1012;",
"10616499999","2010-10-15T05:20:00","4","51.854992","11.418889","180.0","COCHSTEDT, GM","FM-15","EDBC ","V020","300,1,N,0031,1","00900,1,C,N","006000,1,N,1","+0080,1","+0080,1","99999,9","02,5,+00150,1,99,9","07,5,+00900,1,99,9",,"07,99,1,99,9,99,9,99999,9,99,9,99,9",,"10119,1,99999,9",,,,,"MET058METAR EDBC 150520Z 30006KT 6000 FEW005 BKN030 08/08 Q1012;",
"10616499999","2010-10-15T05:50:00","4","51.854992","11.418889","180.0","COCHSTEDT, GM","FM-15","EDBC ","V020","300,1,N,0036,1","00900,1,C,N","006000,1,N,1","+0080,1","+0080,1","99999,9","02,5,+00150,1,99,9","07,5,+00900,1,99,9",,"07,99,1,99,9,99,9,99999,9,99,9,99,9",,"10119,1,99999,9",,,,,"MET066METAR EDBC 150550Z 30007KT 260V330 6000 FEW005 BKN030 08/08 Q1012;",
"10616499999","2010-10-15T06:20:00","4","51.854992","11.418889","180.0","COCHSTEDT, GM","FM-15","EDBC ","V020","300,1,N,0031,1","00810,1,C,N","006000,1,N,1","+0080,1","+0080,1","99999,9","02,5,+00150,1,99,9","07,5,+00810,1,99,9",,"07,99,1,99,9,99,9,99999,9,99,9,99,9",,"10119,1,99999,9",,,,,"MET058METAR EDBC 150620Z 30006KT 6000 FEW005 BKN027 08/08 Q1012;",
"10616499999","2010-10-15T06:50:00","4","51.854992","11.418889","180.0","COCHSTEDT, GM","FM-15","EDBC ","V020","300,1,N,0041,1","00750,1,C,N","006000,1,N,1","+0080,1","+0080,1","99999,9","02,5,+00150,1,99,9","04,5,+00750,1,99,9","07,5,+00870,1,99,9","07,99,1,99,9,99,9,99999,9,99,9,99,9",,"10119,1,99999,9",,,,,"MET065METAR EDBC 150650Z 30008KT 6000 FEW005 SCT025 BKN029 08/08 Q1012;",
"10616499999","2010-10-15T07:20:00","4","51.854992","11.418889","180.0","COCHSTEDT, GM","FM-15","EDBC ","V020","300,1,N,0036,1","00810,1,C,N","006000,1,N,1","+0090,1","+0080,1","99999,9","02,5,+00150,1,99,9","07,5,+00810,1,99,9",,"07,99,1,99,9,99,9,99999,9,99,9,99,9",,"10129,1,99999,9",,,,,"MET058METAR EDBC 150720Z 30007KT 6000 FEW005 BKN027 09/08 Q1013;",
"10616499999","2010-10-15T07:50:00","4","51.854992","11.418889","180.0","COCHSTEDT, GM","FM-15","EDBC ","V020","310,1,N,0046,1","00900,1,C,N","006000,1,N,1","+0090,1","+0070,1","99999,9","02,5,+00120,1,99,9","07,5,+00900,1,99,9",,"07,99,1,99,9,99,9,99999,9,99,9,99,9",,"10119,1,99999,9",,,,,"MET058METAR EDBC 150750Z 31009KT 6000 FEW004 BKN030 09/07 Q1012;",
"10616499999","2010-10-15T08:20:00","4","51.854992","11.418889","180.0","COCHSTEDT, GM","FM-15","EDBC ","V020","310,1,N,0041,1","00900,1,C,N","006000,1,N,1","+0090,1","+0070,1","99999,9","07,5,+00900,1,99,9",,,"07,99,1,99,9,99,9,99999,9,99,9,99,9",,"10129,1,99999,9",,,,,"MET051METAR EDBC 150820Z 31008KT 6000 BKN030 09/07 Q1013;",
"10616499999","2010-10-15T08:50:00","4","51.854992","11.418889","180.0","COCHSTEDT, GM","FM-15","EDBC ","V020","310,1,N,0057,1","01050,1,C,N","006000,1,N,1","+0100,1","+0060,1","99999,9","07,5,+01050,1,99,9",,,"07,99,1,99,9,99,9,99999,9,99,9,99,9",,"10119,1,99999,9",,,,,"MET051METAR EDBC 150850Z 31011KT 6000 BKN035 10/06 Q1012;",
"10616499999","2010-10-15T09:20:00","4","51.854992","11.418889","180.0","COCHSTEDT, GM","FM-15","EDBC ","V020","300,1,N,0041,1","01080,1,C,N","011265,1,N,1","+0100,1","+0070,1","99999,9","02,5,+00360,1,99,9","07,5,+01080,1,99,9",,"07,99,1,99,9,99,9,99999,9,99,9,99,9",,"10119,1,99999,9",,,,,"MET058METAR EDBC 150920Z 30008KT 9999 FEW012 BKN036 10/07 Q1012;",
"10616499999","2010-10-15T09:50:00","4","51.854992","11.418889","180.0","COCHSTEDT, GM","FM-15","EDBC ","V020","310,1,N,0051,1","01020,1,C,N","011265,1,N,1","+0100,1","+0060,1","99999,9","02,5,+00570,1,99,9","07,5,+01020,1,99,9",,"07,99,1,99,9,99,9,99999,9,99,9,99,9",,"10119,1,99999,9",,,,,"MET058METAR EDBC 150950Z 31010KT 9999 FEW019 BKN034 10/06 Q1012;",
"10616499999","2010-10-15T10:20:00","4","51.854992","11.418889","180.0","COCHSTEDT, GM","FM-15","EDBC ","V020","310,1,N,0046,1","01020,1,C,N","011265,1,N,1","+0100,1","+0070,1","99999,9","02,5,+00510,1,99,9","07,5,+01020,1,99,9",,"07,99,1,99,9,99,9,99999,9,99,9,99,9",,"10119,1,99999,9",,,,,"MET058METAR EDBC 151020Z 31009KT 9999 FEW017 BKN034 10/07 Q1012;",
"10616499999","2010-10-15T10:50:00","4","51.854992","11.418889","180.0","COCHSTEDT, GM","FM-15","EDBC ","V020","310,1,N,0051,1","01020,1,C,N","011265,1,N,1","+0110,1","+0070,1","99999,9","02,5,+00450,1,99,9","07,5,+01020,1,99,9",,"07,99,1,99,9,99,9,99999,9,99,9,99,9",,"10119,1,99999,9",,,,,"MET058METAR EDBC 151050Z 31010KT 9999 FEW015 BKN034 11/07 Q1012;",
"10616499999","2010-10-15T11:20:00","4","51.854992","11.418889","180.0","COCHSTEDT, GM","FM-15","EDBC ","V020","310,1,N,0041,1","00810,1,C,N","011265,1,N,1","+0100,1","+0070,1","99999,9","07,5,+00810,1,99,9",,,"07,99,1,99,9,99,9,99999,9,99,9,99,9",,"10119,1,99999,9",,,,,"MET051METAR EDBC 151120Z 31008KT 9999 BKN027 10/07 Q1012;",
"10616499999","2010-10-15T11:50:00","4","51.854992","11.418889","180.0","COCHSTEDT, GM","FM-15","EDBC ","V020","300,1,N,0031,1","00780,1,C,N","011265,1,N,1","+0100,1","+0080,1","99999,9","07,5,+00780,1,99,9",,,"07,99,1,99,9,99,9,99999,9,99,9,99,9",,"10119,1,99999,9",,,,,"MET051METAR EDBC 151150Z 30006KT 9999 BKN026 10/08 Q1012;",
"10616499999","2010-10-15T12:20:00","4","51.854992","11.418889","180.0","COCHSTEDT, GM","FM-15","EDBC ","V020","300,1,N,0036,1","00630,1,C,N","011265,1,N,1","+0090,1","+0080,1","99999,9","07,5,+00630,1,99,9",,,"07,99,1,99,9,99,9,99999,9,99,9,99,9",,"10108,1,99999,9",,,,,"MET051METAR EDBC 151220Z 30007KT 9999 BKN021 09/08 Q1011;",
"10616499999","2010-10-15T12:50:00","4","51.854992","11.418889","180.0","COCHSTEDT, GM","FM-15","EDBC ","V020","310,1,N,0031,1","00480,1,C,N","011265,1,N,1","+0100,1","+0070,1","99999,9","07,5,+00480,1,99,9","07,5,+00630,1,99,9",,"07,99,1,99,9,99,9,99999,9,99,9,99,9",,"10108,1,99999,9",,,,,"MET066METAR EDBC 151250Z 31006KT 290V350 9999 BKN016 BKN021 10/07 Q1011;",
"10616499999","2010-10-15T13:20:00","4","51.854992","11.418889","180.0","COCHSTEDT, GM","FM-15","EDBC ","V020","310,1,N,0031,1","00630,1,C,N","011265,1,N,1","+0100,1","+0070,1","99999,9","02,5,+00330,1,99,9","07,5,+00630,1,99,9",,"07,99,1,99,9,99,9,99999,9,99,9,99,9",,"10108,1,99999,9",,,,,"MET066METAR EDBC 151320Z 31006KT 290V350 9999 FEW011 BKN021 10/07 Q1011;",
"10616499999","2010-10-15T13:50:00","4","51.854992","11.418889","180.0","COCHSTEDT, GM","FM-15","EDBC ","V020","310,1,N,0031,1","00450,1,C,N","011265,1,N,1","+0100,1","+0080,1","99999,9","02,5,+00300,1,99,9","07,5,+00450,1,99,9",,"07,99,1,99,9,99,9,99999,9,99,9,99,9",,"10108,1,99999,9",,,,,"MET058METAR EDBC 151350Z 31006KT 9999 FEW010 BKN015 10/08 Q1011;",
"10616499999","2010-10-18T04:20:00","4","51.854992","11.418889","180.0","COCHSTEDT, GM","FM-15","EDBC ","V020","230,1,N,0026,1","22000,1,9,N","000100,1,N,1","-0010,1","-0010,1","99999,9",,,,,,"10210,1,99999,9","44,1",,,,"MET049METAR EDBC 180420Z 23005KT 0100 FG M01/M01 Q1021;",
"10616499999","2010-10-18T04:50:00","4","51.854992","11.418889","180.0","COCHSTEDT, GM","FM-15","EDBC ","V020","230,1,N,0031,1","00015,1,9,N","000000,1,N,1","+0000,1","+0000,1","99999,9","09,1,+00015,1,99,9",,,"09,99,1,99,9,99,9,00025,1,99,9,99,9",,"10210,1,99999,9","45,1",,,,"MET055METAR EDBC 180450Z 23006KT 0000 FG VV/// M00/M00 Q1021;",
"10616499999","2010-10-18T05:50:00","4","51.854992","11.418889","180.0","COCHSTEDT, GM","FM-15","EDBC ","V020","230,1,N,0031,1","00015,1,C,N","000100,1,N,1","+0000,1","+0000,1","99999,9","09,1,+00015,1,99,9",,,"09,99,1,99,9,99,9,00025,1,99,9,99,9",,"10220,1,99999,9","45,1",,,,"MET055METAR EDBC 180550Z 23006KT 0100 FG VV/// M00/M00 Q1022;",
"10616499999","2010-10-18T06:20:00","4","51.854992","11.418889","180.0","COCHSTEDT, GM","FM-15","EDBC ","V020","240,1,N,0031,1","22000,1,9,N","000200,1,N,1","+0000,1","+0000,1","99999,9",,,,"00,99,1,99,9,99,9,99999,9,99,9,99,9",,"10220,1,99999,9","44,1",,,,"MET053METAR EDBC 180620Z 24006KT 0200 FG SKC M00/M00 Q1022;","Q01    003SCCGA1"
"10616499999","2010-10-18T06:50:00","4","51.854992","11.418889","180.0","COCHSTEDT, GM","FM-15","EDBC ","V020","230,1,N,0026,1","22000,1,9,N","000200,1,N,1","+0000,1","+0000,1","99999,9",,,,"00,99,1,99,9,99,9,99999,9,99,9,99,9",,"10220,1,99999,9","44,1",,,,"MET053METAR EDBC 180650Z 23005KT 0200 FG SKC M00/M00 Q1022;","Q01    003SCCGA1"
"10616499999","2010-10-18T07:20:00","4","51.854992","11.418889","180.0","COCHSTEDT, GM","FM-15","EDBC ","V020","230,1,N,0031,1","22000,1,9,N","000200,1,N,1","+0000,1","+0000,1","99999,9",,,,"00,99,1,99,9,99,9,99999,9,99,9,99,9",,"10220,1,99999,9","44,1",,,,"MET051METAR EDBC 180720Z 23006KT 0200 FG SKC 00/00 Q1022;","Q01    003SCCGA1"
"10616499999","2010-10-18T07:50:00","4","51.854992","11.418889","180.0","COCHSTEDT, GM","FM-15","EDBC ","V020","230,1,N,0031,1","22000,1,9,N","000300,1,N,1","+0010,1","+0010,1","99999,9",,,,"00,99,1,99,9,99,9,99999,9,99,9,99,9",,"10220,1,99999,9","44,1",,,,"MET051METAR EDBC 180750Z 23006KT 0300 FG SKC 01/01 Q1022;","Q01    003SCCGA1"
"10616499999","2010-10-18T08:20:00","4","51.854992","11.418889","180.0","COCHSTEDT, GM","FM-15","EDBC ","V020","230,1,N,0021,1","22000,1,9,N","001500,1,N,1","+0030,1","+0030,1","99999,9",,,,"00,99,1,99,9,99,9,99999,9,99,9,99,9",,"10210,1,99999,9","10,1",,,,"MET051METAR EDBC 180820Z 23004KT 1500 BR SKC 03/03 Q1021;","Q01    003SCCGA1"
"10616499999","2010-10-18T08:50:00","4","51.854992","11.418889","180.0","COCHSTEDT, GM","FM-15","EDBC ","V020","220,1,N,0021,1","22000,1,9,N","009000,1,N,1","+0040,1","+0040,1","99999,9",,,,,,"10210,1,99999,9",,,,,"MET050METAR EDBC 180850Z 22004KT 9000 5000S 04/04 Q1021;",
"10616499999","2010-10-18T09:20:00","4","51.854992","11.418889","180.0","COCHSTEDT, GM","FM-15","EDBC ","V020","210,1,N,0021,1","22000,1,9,N","011265,1,N,1","+0060,1","+0050,1","99999,9",,,,"00,99,1,99,9,99,9,99999,9,99,9,99,9",,"10210,1,99999,9",,,,,"MET054METAR EDBC 180920Z 21004KT 9999 5000S SKC 06/05 Q1021;","Q01    003SCCGA1"
"10616499999","2010-10-18T09:50:00","4","51.854992","11.418889","180.0","COCHSTEDT, GM","FM-15","EDBC ","V020","210,1,N,0021,1","99999,9,9,Y","009900,1,N,1","+0070,1","+0010,1","99999,9",,,,,,"10210,1,99999,9",,,,,"MET045METAR EDBC 180950Z 21004KT CAVOK 07/01 Q1021;",
"10616499999","2010-10-18T10:20:00","4","51.854992","11.418889","180.0","COCHSTEDT, GM","FM-15","EDBC ","V020","160,1,N,0031,1","99999,9,9,Y","009900,1,N,1","+0080,1","+0030,1","99999,9",,,,,,"10210,1,99999,9",,,,,"MET045METAR EDBC 181020Z 16006KT CAVOK 08/03 Q1021;",
"10616499999","2010-10-18T10:50:00","4","51.854992","11.418889","180.0","COCHSTEDT, GM","FM-15","EDBC ","V020","160,1,N,0041,1","99999,9,9,Y","009900,1,N,1","+0090,1","+0010,1","99999,9",,,,,,"10210,1,99999,9",,,,,"MET045METAR EDBC 181050Z 16008KT CAVOK 09/01 Q1021;",
"10616499999","2010-10-18T11:20:00","4","51.854992","11.418889","180.0","COCHSTEDT, GM","FM-15","EDBC ","V020","160,1,N,0046,1","99999,9,9,Y","009900,1,N,1","+0090,1","+0020,1","99999,9",,,,,,"10200,1,99999,9",,,,,"MET045METAR EDBC 181120Z 16009KT CAVOK 09/02 Q1020;",
"10616499999","2010-10-18T11:50:00","4","51.854992","11.418889","180.0","COCHSTEDT, GM","FM-15","EDBC ","V020","160,1,N,0046,1","99999,9,9,Y","009900,1,N,1","+0090,1","+0010,1","99999,9",,,,,,"10200,1,99999,9",,,,,"MET045METAR EDBC 181150Z 16009KT CAVOK 09/01 Q1020;",
"10616499999","2010-10-18T12:20:00","4","51.854992","11.418889","180.0","COCHSTEDT, GM","FM-15","EDBC ","V020","180,1,N,0046,1","99999,9,9,Y","009900,1,N,1","+0100,1","+0020,1","99999,9",,,,,,"10190,1,99999,9",,,,,"MET045METAR EDBC 181220Z 18009KT CAVOK 10/02 Q1019;",
"10616499999","2010-10-18T12:50:00","4","51.854992","11.418889","180.0","COCHSTEDT, GM","FM-15","EDBC ","V020","160,1,N,0051,1","99999,9,9,Y","009900,1,N,1","+0100,1","+0020,1","99999,9",,,,,,"10190,1,99999,9",,,,,"MET045METAR EDBC 181250Z 16010KT CAVOK 10/02 Q1019;",
"10616499999","2010-10-18T13:20:00","4","51.854992","11.418889","180.0","COCHSTEDT, GM","FM-15","EDBC ","V020","180,1,N,0041,1","99999,9,9,Y","009900,1,N,1","+0100,1","+0010,1","99999,9",,,,,,"10190,1,99999,9",,,,,"MET053METAR EDBC 181320Z 18008KT 120V210 CAVOK 10/01 Q1019;",
"10616499999","2010-10-18T13:50:00","4","51.854992","11.418889","180.0","COCHSTEDT, GM","FM-15","EDBC ","V020","180,1,N,0036,1","99999,9,9,Y","009900,1,N,1","+0100,1","+0000,1","99999,9",,,,,,"10190,1,99999,9",,,,,"MET045METAR EDBC 181350Z 18007KT CAVOK 10/00 Q1019;",
"10616499999","2010-10-19T04:20:00","4","51.854992","11.418889","180.0","COCHSTEDT, GM","FM-15","EDBC ","V020","200,1,N,0062,1","99999,9,C,N","011265,1,N,1","+0050,1","+0030,1","99999,9","02,5,+01080,1,99,9","04,5,+01320,1,99,9",,"04,99,1,99,9,99,9,99999,9,99,9,99,9",,"10081,1,99999,9","80,1",,,,"MET064METAR EDBC 190420Z 20012KT 9999 -SHRA FEW036 SCT044 05/03 Q1008;","P01 013203SCOCIG"
"10616499999","2010-10-19T04:50:00","4","51.854992","11.418889","180.0","COCHSTEDT, GM","FM-15","EDBC ","V020","220,1,N,0077,1","02010,5,C,N","011265,1,N,1","+0060,1","+0030,1","99999,9","02,5,+00870,1,99,9","07,5,+02010,5,99,9",,"07,99,1,99,9,99,9,99999,9,99,9,99,9",,"10081,1,99999,9",,,,,"MET063METAR EDBC 190450Z 22015KT 9999 FEW029 BKN067 06/03 Q1008 RERA;",
"10616499999","2010-10-19T05:20:00","4","51.854992","11.418889","180.0","COCHSTEDT, GM","FM-15","EDBC ","V020","220,1,N,0067,1","99999,9,C,N","011265,1,N,1","+0060,1","+0030,1","99999,9","02,5,+00870,1,99,9","04,5,+02010,5,99,9",,"04,99,1,99,9,99,9,99999,9,99,9,99,9",,"10071,1,99999,9",,,,"0129,1","MET061METAR EDBC 190520Z 22013G25KT 9999 FEW029 SCT067 06/03 Q1007;","P01 020103SCOCIG"
"10616499999","2010-10-19T05:50:00","4","51.854992","11.418889","180.0","COCHSTEDT, GM","FM-15","EDBC ","V020","210,1,N,0082,1","22000,1,9,N","008000,1,N,1","+0050,1","+0030,1","99999,9","04,5,+01290,1,99,9",,,"04,99,1,99,9,99,9,99999,9,99,9,99,9",,"10071,1,99999,9",,,,,"MET051METAR EDBC 190550Z 21016KT 8000 SCT043 05/03 Q1007;",
"10616499999","2010-10-19T06:20:00","4","51.854992","11.418889","180.0","COCHSTEDT, GM","FM-15","EDBC ","V020","210,1,N,0082,1","02310,5,C,N","008000,1,N,1","+0060,1","+0030,1","99999,9","02,5,+00510,1,99,9","07,5,+02310,5,99,9",,"07,99,1,99,9,99,9,99999,9,99,9,99,9",,"10061,1,99999,9",,,,,"MET058METAR EDBC 190620Z 21016KT 8000 FEW017 BKN077 06/03 Q1006;",
"10616499999","2010-10-19T06:50:00","4","51.854992","11.418889","180.0","COCHSTEDT, GM","FM-15","EDBC ","V020","220,1,N,0082,1","22000,1,9,N","009000,1,N,1","+0060,1","+0030,1","99999,9",,,,"00,99,1,99,9,99,9,99999,9,99,9,99,9",,"10061,1,99999,9",,,,,"MET048METAR EDBC 190650Z 22016KT 9000 NSC 06/03 Q1006;","Q01    003SCCGA1"
"10616499999","2010-10-19T07:20:00","4","51.854992","11.418889","180.0","COCHSTEDT, GM","FM-15","EDBC ","V020","210,1,N,0067,1","99999,9,9,Y","009900,1,N,1","+0060,1","+0040,1","99999,9",,,,,,"10061,1,99999,9",,,,,"MET045METAR EDBC 190720Z 21013KT CAVOK 06/04 Q1006;",
"10616499999","2010-10-19T07:50:00","4","51.854992","11.418889","180.0","COCHSTEDT, GM","FM-15","EDBC ","V020","210,1,N,0072,1","99999,9,C,N","008000,1,N,1","+0060,1","+0040,1","99999,9","02,5,+00480,1,99,9","04,5,+01350,1,99,9",,"04,99,1,99,9,99,9,99999,9,99,9,99,9",,"10061,1,99999,9","80,1",,,,"MET064METAR EDBC 190750Z 21014KT 8000 -SHRA FEW016 SCT045 06/04 Q1006;","P01 013503SCOCIG"
"10616499999","2010-10-19T08:20:00","4","51.854992","11.418889","180.0","COCHSTEDT, GM","FM-15","EDBC ","V020","210,1,N,0072,1","01440,1,C,N","009000,1,N,1","+0060,1","+0040,1","99999,9","02,5,+00450,1,99,9","07,5,+01440,1,99,9",,"07,99,1,99,9,99,9,99999,9,99,9,99,9",,"10061,1,99999,9","80,1",,,,"MET064METAR EDBC 190820Z 21014KT 9000 -SHRA FEW015 BKN048 06/04 Q1006;",
"10616499999","2010-10-19T08:50:00","4","51.854992","11.418889","180.0","COCHSTEDT, GM","FM-15","EDBC ","V020","200,1,N,0082,1","00600,1,C,N","009000,1,N,1","+0060,1","+0040,1","99999,9","02,5,+00450,1,99,9","04,5,+00600,1,99,9","07,5,+01200,1,99,9","07,99,1,99,9,99,9,99999,9,99,9,99,9",,"10051,1,99999,9","80,1",,,,"MET071METAR EDBC 190850Z 20016KT 9000 -SHRA FEW015 SCT020 BKN040 06/04 Q1005;",
"10616499999","2010-10-19T09:20:00","4","51.854992","11.418889","180.0","COCHSTEDT, GM","FM-15","EDBC ","V020","210,1,N,0082,1","99999,9,C,N","011265,1,N,1","+0060,1","+0040,1","99999,9","02,5,+00450,1,99,9","04,5,+02400,1,99,9",,"04,99,1,99,9,99,9,99999,9,99,9,99,9",,"10051,1,99999,9","51,1","61,1",,,"MET064METAR EDBC 190920Z 21016KT 9999 -DZRA FEW015 SCT080 06/04 Q1005;","P01 024003SCOCIG"
"10616499999","2010-10-19T09:50:00","4","51.854992","11.418889","180.0","COCHSTEDT, GM","FM-15","EDBC ","V020","210,1,N,0072,1","01350,1,C,N","011265,1,N,1","+0070,1","+0040,1","99999,9","04,5,+00450,1,99,9","07,5,+01350,1,99,9",,"07,99,1,99,9,99,9,99999,9,99,9,99,9",,"10051,1,99999,9",,,,,"MET058METAR EDBC 190950Z 21014KT 9999 SCT015 BKN045 07/04 Q1005;",
"10616499999","2010-10-19T10:20:00","4","51.854992","11.418889","180.0","COCHSTEDT, GM","FM-15","EDBC ","V020","210,1,N,0077,1","01320,1,C,N","011265,1,N,1","+0070,1","+0040,1","99999,9","02,5,+00510,1,99,9","07,5,+01320,1,99,9",,"07,99,1,99,9,99,9,99999,9,99,9,99,9",,"10041,1,99999,9",,,,,"MET058METAR EDBC 191020Z 21015KT 9999 FEW017 BKN044 07/04 Q1004;",
"10616499999","2010-10-19T10:50:00","4","51.854992","11.418889","180.0","COCHSTEDT, GM","FM-15","EDBC ","V020","220,1,N,0072,1","00540,1,C,N","011265,1,N,1","+0070,1","+0040,1","99999,9","07,5,+00540,1,99,9",,,"07,99,1,99,9,99,9,99999,9,99,9,99,9",,"10041,1,99999,9",,,,,"MET051METAR EDBC 191050Z 22014KT 9999 BKN018 07/04 Q1004;",
"10616499999","2010-10-19T11:20:00","4","51.854992","11.418889","180.0","COCHSTEDT, GM","FM-15","EDBC ","V020","220,1,N,0077,1","00420,1,C,N","007000,1,N,1","+0070,1","+0050,1","99999,9","02,5,+00150,1,99,9","07,5,+00420,1,99,9",,"07,99,1,99,9,99,9,99999,9,99,9,99,9",,"10041,1,99999,9","63,1",,,,"MET061METAR EDBC 191120Z 22015KT 7000 RA FEW005 BKN014 07/05 Q1004;",
"10616499999","2010-10-19T11:50:00","4","51.854992","11.418889","180.0","COCHSTEDT, GM","FM-15","EDBC ","V020","210,1,N,0051,1","00450,1,C,N","007000,1,N,1","+0070,1","+0050,1","99999,9","02,5,+00390,1,99,9","07,5,+00450,1,99,9",,"07,99,1,99,9,99,9,99999,9,99,9,99,9",,"10041,1,99999,9","63,1",,,,"MET061METAR EDBC 191150Z 21010KT 7000 RA FEW013 BKN015 07/05 Q1004;",
"10616499999","2010-10-19T12:20:00","4","51.854992","11.418889","180.0","COCHSTEDT, GM","FM-15","EDBC ","V020","200,1,N,0051,1","00600,1,C,N","008000,1,N,1","+0070,1","+0050,1","99999,9","02,5,+00420,1,99,9","07,5,+00600,1,99,9",,"07,99,1,99,9,99,9,99999,9,99,9,99,9",,"10031,1,99999,9",,,,,"MET058METAR EDBC 191220Z 20010KT 8000 FEW014 BKN020 07/05 Q1003;",
"10616499999","2010-10-19T12:50:00","4","51.854992","11.418889","180.0","COCHSTEDT, GM","FM-15","EDBC ","V020","210,1,N,0046,1","00600,1,C,N","008000,1,N,1","+0070,1","+0050,1","99999,9","07,5,+00600,1,99,9",,,"07,99,1,99,9,99,9,99999,9,99,9,99,9",,"10031,1,99999,9",,,,,"MET051METAR EDBC 191250Z 21009KT 8000 BKN020 07/05 Q1003;",
"10616499999","2010-10-19T13:20:00","4","51.854992","11.418889","180.0","COCHSTEDT, GM","FM-15","EDBC ","V020","240,1,N,0057,1","00900,1,C,N","009000,1,N,1","+0070,1","+0050,1","99999,9","04,5,+00600,1,99,9","07,5,+00900,1,99,9",,"07,99,1,99,9,99,9,99999,9,99,9,99,9",,"10031,1,99999,9","63,1",,,,"MET061METAR EDBC 191320Z 24011KT 9000 RA SCT020 BKN030 07/05 Q1003;",
"10616499999","2010-10-19T13:50:00","4","51.854992","11.418889","180.0","COCHSTEDT, GM","FM-15","EDBC ","V020","230,1,N,0057,1","00750,1,C,N","011265,1,N,1","+0070,1","+0050,1","99999,9","02,5,+00630,1,99,9","07,5,+00750,1,99,9",,"07,99,1,99,9,99,9,99999,9,99,9,99,9",,"10031,1,99999,9",,,,,"MET058METAR EDBC 191350Z 23011KT 9999 FEW021 BKN025 07/05 Q1003;",
"10616499999","2010-10-19T14:20:00","4","51.854992","11.418889","180.0","COCHSTEDT, GM","FM-15","EDBC ","V020","230,1,N,0062,1","00690,1,C,N","011265,1,N,1","+0080,1","+0050,1","99999,9","02,5,+00540,1,99,9","04,5,+00690,1,99,9","08,5,+01350,1,99,9","08,99,1,99,9,99,9,99999,9,99,9,99,9",,"10020,1,99999,9",,,,,"MET065METAR EDBC 191420Z 23012KT 9999 FEW018 SCT023 OVC045 08/05 Q1002;",
"10616499999","2010-10-19T14:50:00","4","51.854992","11.418889","180.0","COCHSTEDT, GM","FM-15","EDBC ","V020","230,1,N,0067,1","99999,9,C,N","011265,1,N,1","+0080,1","+0050,1","99999,9","02,5,+00570,1,99,9","04,5,+01350,1,99,9",,"04,99,1,99,9,99,9,99999,9,99,9,99,9",,"10020,1,99999,9",,,,,"MET058METAR EDBC 191450Z 23013KT 9999 FEW019 SCT045 08/05 Q1002;","P01 013503SCOCIG"
"10616499999","2010-10-19T15:20:00","4","51.854992","11.418889","180.0","COCHSTEDT, GM","FM-15","EDBC ","V020","230,1,N,0067,1","22000,1,9,N","011265,1,N,1","+0080,1","+0050,1","99999,9","02,5,+00450,1,99,9",,,"02,99,1,99,9,99,9,99999,9,99,9,99,9",,"10020,1,99999,9",,,,,"MET051METAR EDBC 191520Z 23013KT 9999 FEW015 08/05 Q1002;",
"10616499999","2010-10-20T04:20:00","4","51.854992","11.418889","180.0","COCHSTEDT, GM","FM-15","EDBC ","V020","260,1,N,0041,1","00600,1,C,N","011265,1,N,1","+0060,1","+0050,1","99999,9","07,5,+00600,1,99,9",,,"07,99,1,99,9,99,9,99999,9,99,9,99,9",,"10010,1,99999,9",,,,,"MET051METAR EDBC 200420Z 26008KT 9999 BKN020 06/05 Q1001;",
"10616499999","2010-10-20T04:50:00","4","51.854992","11.418889","180.0","COCHSTEDT, GM","FM-15","EDBC ","V020","270,1,N,0051,1","00660,1,C,N","011265,1,N,1","+0070,1","+0050,1","99999,9","07,5,+00660,1,99,9",,,"07,99,1,99,9,99,9,99999,9,99,9,99,9",,"10010,1,99999,9",,,,,"MET051METAR EDBC 200450Z 27010KT 9999 BKN022 07/05 Q1001;",
"10616499999","2010-10-20T05:50:00","4","51.854992","11.418889","180.0","COCHSTEDT, GM","FM-15","EDBC ","V020","270,1,N,0062,1","01200,1,C,N","011265,1,N,1","+0070,1","+0050,1","99999,9","04,5,+00750,1,99,9","07,5,+01200,1,99,9",,"07,99,1,99,9,99,9,99999,9,99,9,99,9",,"10010,1,99999,9",,,,,"MET058METAR EDBC 200550Z 27012KT 9999 SCT025 BKN040 07/05 Q1001;",
"10616499999","2010-10-20T06:20:00","4","51.854992","11.418889","180.0","COCHSTEDT, GM","FM-15","EDBC ","V020","270,1,N,0057,1","01230,1,C,N","011265,1,N,1","+0070,1","+0050,1","99999,9","02,5,+00720,1,99,9","07,5,+01230,1,99,9",,"07,99,1,99,9,99,9,99999,9,99,9,99,9",,"10020,1,99999,9",,,,,"MET065METAR EDBC 200620Z 27011KT 240V300 9999FEW024 BKN041 07/05 Q1002;",
"10616499999","2010-10-20T06:50:00","4","51.854992","11.418889","180.0","COCHSTEDT, GM","FM-15","EDBC ","V020","260,1,N,0046,1","00780,1,C,N","011265,1,N,1","+0060,1","+0050,1","99999,9","07,5,+00780,1,99,9",,,"07,99,1,99,9,99,9,99999,9,99,9,99,9",,"10020,1,99999,9",,,,,"MET051METAR EDBC 200650Z 26009KT 9999 BKN026 06/05 Q1002;",
"10616499999","2010-10-20T07:20:00","4","51.854992","11.418889","180.0","COCHSTEDT, GM","FM-15","EDBC ","V020","270,1,N,0057,1","00600,1,C,N","006000,1,N,1","+0070,1","+0040,1","99999,9","07,5,+00600,1,99,9",,,"07,99,1,99,9,99,9,99999,9,99,9,99,9",,"10020,1,99999,9","53,1","63,1",,,"MET056METAR EDBC 200720Z 27011KT 6000 DZRA BKN020 07/04 Q1002;",
"10616499999","2010-10-20T07:50:00","4","51.854992","11.418889","180.0","COCHSTEDT, GM","FM-15","EDBC ","V020","280,1,N,0062,1","00450,1,C,N","008000,1,N,1","+0060,1","+0050,1","99999,9","07,5,+00450,1,99,9",,,"07,99,1,99,9,99,9,99999,9,99,9,99,9",,"10031,1,99999,9","51,1","61,1",,,"MET057METAR EDBC 200750Z 28012KT 8000 -DZRA BKN015 06/05 Q1003;",
"10616499999","2010-10-20T08:20:00","4","51.854992","11.418889","180.0","COCHSTEDT, GM","FM-15","EDBC ","V020","300,1,N,0062,1","00900,1,C,N","006000,1,N,1","+0060,1","+0050,1","99999,9","07,5,+00900,1,99,9",,,"07,99,1,99,9,99,9,99999,9,99,9,99,9",,"10031,1,99999,9","53,1","63,1",,,"MET056METAR EDBC 200820Z 30012KT 6000 DZRA BKN030 06/05 Q1003;",
"10616499999","2010-10-20T08:50:00","4","51.854992","11.418889","180.0","COCHSTEDT, GM","FM-15","EDBC ","V020","280,1,N,0046,1","00600,1,C,N","008000,1,N,1","+0060,1","+0050,1","99999,9","07,5,+00600,1,99,9",,,"07,99,1,99,9,99,9,99999,9,99,9,99,9",,"10031,1,99999,9",,,,,"MET064METAR EDBC 200850Z 28009KT 250V310 8000 BKN020 06/05 Q1003 REDZ;",
"10616499999","2010-10-20T09:20:00","4","51.854992","11.418889","180.0","COCHSTEDT, GM","FM-15","EDBC ","V020","280,1,N,0057,1","00540,1,C,N","011265,1,N,1","+0070,1","+0050,1","99999,9","02,5,+00180,1,99,9","07,5,+00540,1,99,9",,"07,99,1,99,9,99,9,99999,9,99,9,99,9",,"10031,1,99999,9",,,,,"MET058METAR EDBC 200920Z 28011KT 9999 FEW006 BKN018 07/05 Q1003;",
"10616499999","2010-10-20T09:50:00","4","51.854992","11.418889","180.0","COCHSTEDT, GM","FM-15","EDBC ","V020","300,1,N,0067,1","00720,1,C,N","011265,1,N,1","+0060,1","+0050,1","99999,9","04,5,+00300,1,99,9","07,5,+00720,1,99,9",,"07,99,1,99,9,99,9,99999,9,99,9,99,9",,"10041,1,99999,9",,,,,"MET066METAR EDBC 200950Z 30013KT 270V330 9999 SCT010 BKN024 06/05 Q1004;",
"10616499999","2010-10-20T10:20:00","4","51.854992","11.418889","180.0","COCHSTEDT, GM","FM-15","EDBC ","V020","300,1,N,0067,1","00420,1,C,N","006000,1,N,1","+0070,1","+0050,1","99999,9","02,5,+00240,1,99,9","07,5,+00420,1,99,9",,"07,99,1,99,9,99,9,99999,9,99,9,99,9",,"10041,1,99999,9","51,1","61,1",,,"MET064METAR EDBC 201020Z 30013KT 6000 -DZRA FEW008 BKN014 07/05 Q1004;",
"10616499999","2010-10-20T10:50:00","4","51.854992","11.418889","180.0","COCHSTEDT, GM","FM-15","EDBC ","V020","310,1,N,0082,1","00510,1,C,N","006000,1,N,1","+0060,1","+0040,1","99999,9","04,5,+00240,1,99,9","07,5,+00510,1,99,9",,"07,99,1,99,9,99,9,99999,9,99,9,99,9",,"10041,1,99999,9","51,1","61,1",,,"MET064METAR EDBC 201050Z 31016KT 6000 -DZRA SCT008 BKN017 06/04 Q1004;",
"10616499999","2010-10-20T11:20:00","4","51.854992","11.418889","180.0","COCHSTEDT, GM","FM-15","EDBC ","V020","290,1,N,0041,1","01350,1,C,N","011265,1,N,1","+0060,1","+0050,1","99999,9","04,5,+00630,1,99,9","07,5,+01350,1,99,9",,"07,99,1,99,9,99,9,99999,9,99,9,99,9",,"10041,1,99999,9",,,,,"MET071METAR EDBC 201120Z 29008KT 260V320 9999 SCT021 BKN045 06/05 Q1004 REDZ;",
"10616499999","2010-10-20T11:50:00","4","51.854992","11.418889","180.0","COCHSTEDT, GM","FM-15","EDBC ","V020","280,1,N,0057,1","00420,1,C,N","011265,1,N,1","+0070,1","+0040,1","99999,9","02,5,+00300,1,99,9","07,5,+00420,1,99,9","07,5,+01500,1,99,9","07,99,1,99,9,99,9,99999,9,99,9,99,9",,"10041,1,99999,9",,,,,"MET073METAR EDBC 201150Z 28011KT 250V310 9999 FEW010 BKN014 BKN050 07/04 Q1004;",
"10616499999","2010-10-20T12:20:00","4","51.854992","11.418889","180.0","COCHSTEDT, GM","FM-15","EDBC ","V020","280,1,N,0046,1","00480,1,C,N","011265,1,N,1","+0070,1","+0050,1","99999,9","02,5,+00390,1,99,9","04,5,+00480,1,99,9","07,5,+00570,1,99,9","07,99,1,99,9,99,9,99999,9,99,9,99,9",,"10051,1,99999,9",,,,,"MET065METAR EDBC 201220Z 28009KT 9999 FEW013 SCT016 BKN019 07/05 Q1005;",
"10616499999","2010-10-20T12:50:00","4","51.854992","11.418889","180.0","COCHSTEDT, GM","FM-15","EDBC ","V020","300,1,N,0062,1","00720,1,C,N","011265,1,N,1","+0070,1","+0040,1","99999,9","04,5,+00450,1,99,9","07,5,+00720,1,99,9","07,5,+01080,1,99,9","07,99,1,99,9,99,9,99999,9,99,9,99,9",,"10051,1,99999,9",,,,,"MET065METAR EDBC 201250Z 30012KT 9999 SCT015 BKN024 BKN036 07/04 Q1005;",
"10616499999","2010-10-20T13:20:00","4","51.854992","11.418889","180.0","COCHSTEDT, GM","FM-15","EDBC ","V020","280,1,N,0062,1","99999,9,C,N","011265,1,N,1","+0080,1","+0040,1","99999,9","02,5,+00480,1,99,9","04,5,+00630,1,99,9",,"04,99,1,99,9,99,9,99999,9,99,9,99,9",,"10051,1,99999,9",,,,,"MET058METAR EDBC 201320Z 28012KT 9999 FEW016 SCT021 08/04 Q1005;","P01 006303SCOCIG"
"10616499999","2010-10-20T13:50:00","4","51.854992","11.418889","180.0","COCHSTEDT, GM","FM-15","EDBC ","V020","280,1,N,0051,1","22000,1,9,N","011265,1,N,1","+0080,1","+0040,1","99999,9","02,5,+00690,1,99,9",,,"02,99,1,99,9,99,9,99999,9,99,9,99,9",,"10051,1,99999,9",,,,,"MET059METAR EDBC 201350Z 28010KT 250V310 9999 FEW023 08/04 Q1005;",
"10616499999","2010-10-21T04:20:00","4","51.854992","11.418889","180.0","COCHSTEDT, GM","FM-15","EDBC ","V020","250,1,N,0051,1","99999,9,9,Y","009900,1,N,1","+0020,1","+0000,1","99999,9",,,,,,"10159,1,99999,9",,,,,"MET046METAR EDBC 210420Z 25010KT CAVOK 02/M00 Q1016;",
"10616499999","2010-10-21T04:50:00","4","51.854992","11.418889","180.0","COCHSTEDT, GM","FM-15","EDBC ","V020","240,1,N,0046,1","99999,9,9,Y","009900,1,N,1","+0010,1","-0010,1","99999,9",,,,,,"10159,1,99999,9",,,,,"MET046METAR EDBC 210450Z 24009KT CAVOK 01/M01 Q1016;",
"10616499999","2010-10-21T05:20:00","4","51.854992","11.418889","180.0","COCHSTEDT, GM","FM-15","EDBC ","V020","240,1,N,0041,1","99999,9,9,Y","009900,1,N,1","+0010,1","-0010,1","99999,9",,,,,,"10159,1,99999,9",,,,,"MET046METAR EDBC 210520Z 24008KT CAVOK 01/M01 Q1016;",
"10616499999","2010-10-21T05:50:00","4","51.854992","11.418889","180.0","COCHSTEDT, GM","FM-15","EDBC ","V020","250,1,N,0062,1","99999,9,9,Y","009900,1,N,1","+0010,1","-0010,1","99999,9",,,,,,"10159,1,99999,9",,,,,"MET046METAR EDBC 210550Z 25012KT CAVOK 01/M01 Q1016;",
"10616499999","2010-10-21T06:20:00","4","51.854992","11.418889","180.0","COCHSTEDT, GM","FM-15","EDBC ","V020","230,1,N,0051,1","99999,9,9,Y","009900,1,N,1","+0020,1","+0000,1","99999,9",,,,,,"10159,1,99999,9",,,,,"MET046METAR EDBC 210620Z 23010KT CAVOK 02/M00 Q1016;",
"10616499999","2010-10-21T06:50:00","4","51.854992","11.418889","180.0","COCHSTEDT, GM","FM-15","EDBC ","V020","240,1,N,0062,1","99999,9,9,Y","009900,1,N,1","+0030,1","+0000,1","99999,9",,,,,,"10169,1,99999,9",,,,,"MET045METAR EDBC 210650Z 24012KT CAVOK 03/00 Q1017;",
"10616499999","2010-10-21T07:20:00","4","51.854992","11.418889","180.0","COCHSTEDT, GM","FM-15","EDBC ","V020","240,1,N,0057,1","22000,1,9,N","011265,1,N,1","+0040,1","+0010,1","99999,9","02,5,+00810,1,99,9",,,"02,99,1,99,9,99,9,99999,9,99,9,99,9",,"10169,1,99999,9",,,,,"MET051METAR EDBC 210720Z 24011KT 9999 FEW027 04/01 Q1017;",
"10616499999","2010-10-21T07:50:00","4","51.854992","11.418889","180.0","COCHSTEDT, GM","FM-15","EDBC ","V020","260,1,N,0077,1","22000,1,9,N","011265,1,N,1","+0050,1","+0000,1","99999,9","02,5,+00810,1,99,9",,,"02,99,1,99,9,99,9,99999,9,99,9,99,9",,"10169,1,99999,9",,,,"0129,1","MET054METAR EDBC 210750Z 26015G25KT 9999 FEW027 05/00 Q1017;",
"10616499999","2010-10-21T08:20:00","4","51.854992","11.418889","180.0","COCHSTEDT, GM","FM-15","EDBC ","V020","250,1,N,0093,1","01080,1,C,N","011265,1,N,1","+0050,1","+0020,1","99999,9","04,5,+00630,1,99,9","07,5,+01080,1,99,9",,"07,99,1,99,9,99,9,99999,9,99,9,99,9",,"10169,1,99999,9","80,1",,,"0144,1","MET067METAR EDBC 210820Z 25018G28KT 9999 -SHRA SCT021 BKN036 05/02 Q1017;",
"10616499999","2010-10-21T08:50:00","4","51.854992","11.418889","180.0","COCHSTEDT, GM","FM-15","EDBC ","V020","260,1,N,0103,1","22000,1,9,N","011265,1,N,1","+0060,1","+0010,1","99999,9","04,5,+00900,1,99,9",,,"04,99,1,99,9,99,9,99999,9,99,9,99,9",,"10169,1,99999,9",,,,,"MET051METAR EDBC 210850Z 26020KT 9999 SCT030 06/01 Q1017;",
"10616499999","2010-10-21T09:20:00","4","51.854992","11.418889","180.0","COCHSTEDT, GM","FM-15","EDBC ","V020","270,1,N,0082,1","01500,1,C,N","011265,1,N,1","+0060,1","+0010,1","99999,9","04,5,+00750,1,99,9","07,5,+01500,1,99,9",,"07,99,1,99,9,99,9,99999,9,99,9,99,9",,"10169,1,99999,9","80,1",,,,"MET072METAR EDBC 210920Z 27016KT 240V300 9999 -SHRA SCT025 BKN050 06/01 Q1017;",
"10616499999","2010-10-21T09:50:00","4","51.854992","11.418889","180.0","COCHSTEDT, GM","FM-15","EDBC ","V020","250,1,N,0093,1","00720,1,C,N","011265,1,N,1","+0060,1","+0020,1","99999,9","07,5,+00720,1,99,9",,,"07,99,1,99,9,99,9,99999,9,99,9,99,9",,"10180,1,99999,9",,,,,"MET056METAR EDBC 210950Z 25018KT 9999 BKN024 06/02 Q1018 RERA;",
"10616499999","2010-10-21T10:50:00","4","51.854992","11.418889","180.0","COCHSTEDT, GM","FM-15","EDBC ","V020","280,1,N,0093,1","01050,1,C,N","011265,1,N,1","+0050,1","+0020,1","99999,9","04,5,+00750,1,99,9","07,5,+01050,1,99,9",,"07,99,1,99,9,99,9,99999,9,99,9,99,9",,"10180,1,99999,9","80,1",,,"0144,1","MET067METAR EDBC 211050Z 28018G28KT 9999 -SHRA SCT025 BKN035 05/02 Q1018;",
"10616499999","2010-10-21T11:20:00","4","51.854992","11.418889","180.0","COCHSTEDT, GM","FM-15","EDBC ","V020","270,1,N,0077,1","00900,1,C,N","011265,1,N,1","+0050,1","+0020,1","99999,9","07,5,+00900,1,99,9",,,"07,99,1,99,9,99,9,99999,9,99,9,99,9",,"10180,1,99999,9",,,,"0129,1","MET059METAR EDBC 211120Z 27015G25KT 9999 BKN030 05/02 Q1018 RERA;",
"10616499999","2010-10-21T11:50:00","4","51.854992","11.418889","180.0","COCHSTEDT, GM","FM-15","EDBC ","V020","260,1,N,0057,1","00900,1,C,N","011265,1,N,1","+0060,1","+0030,1","99999,9","07,5,+00900,1,99,9",,,"07,99,1,99,9,99,9,99999,9,99,9,99,9",,"10180,1,99999,9",,,,,"MET051METAR EDBC 211150Z 26011KT 9999 BKN030 06/03 Q1018;",
"10616499999","2010-10-21T12:20:00","4","51.854992","11.418889","180.0","COCHSTEDT, GM","FM-15","EDBC ","V020","270,1,N,0062,1","00990,1,C,N","011265,1,N,1","+0070,1","+0020,1","99999,9","07,5,+00990,1,99,9",,,"07,99,1,99,9,99,9,99999,9,99,9,99,9",,"10190,1,99999,9",,,,,"MET051METAR EDBC 211220Z 27012KT 9999 BKN033 07/02 Q1019;",
"10616499999","2010-10-21T12:50:00","4","51.854992","11.418889","180.0","COCHSTEDT, GM","FM-15","EDBC ","V020","270,1,N,0087,1","00840,1,C,N","011265,1,N,1","+0070,1","+0020,1","99999,9","07,5,+00840,1,99,9",,,"07,99,1,99,9,99,9,99999,9,99,9,99,9",,"10190,1,99999,9",,,,,"MET051METAR EDBC 211250Z 27017KT 9999 BKN028 07/02 Q1019;",
"10616499999","2010-10-21T13:20:00","4","51.854992","11.418889","180.0","COCHSTEDT, GM","FM-15","EDBC ","V020","270,1,N,0072,1","00750,1,C,N","011265,1,N,1","+0070,1","+0030,1","99999,9","07,5,+00750,1,99,9",,,"07,99,1,99,9,99,9,99999,9,99,9,99,9",,"10190,1,99999,9",,,,"0123,1","MET062METAR EDBC 211320Z 27014G24KT 240V320 9999 BKN025 07/03 Q1019;",
"10616499999","2010-10-21T13:50:00","4","51.854992","11.418889","180.0","COCHSTEDT, GM","FM-15","EDBC ","V020","240,1,N,0077,1","00780,1,C,N","011265,1,N,1","+0070,1","+0030,1","99999,9","07,5,+00780,1,99,9",,,"07,99,1,99,9,99,9,99999,9,99,9,99,9",,"10190,1,99999,9",,,,,"MET051METAR EDBC 211350Z 24015KT 9999 BKN026 07/03 Q1019;",
"10616499999","2010-10-21T14:20:00","4","51.854992","11.418889","180.0","COCHSTEDT, GM","FM-15","EDBC ","V020","250,1,N,0093,1","22000,1,9,N","011265,1,N,1","+0070,1","+0030,1","99999,9","02,5,+00750,1,99,9",,,"02,99,1,99,9,99,9,99999,9,99,9,99,9",,"10190,1,99999,9",,,,,"MET051METAR EDBC 211420Z 25018KT 9999 FEW025 07/03 Q1019;",
"10616499999","2010-10-21T14:50:00","4","51.854992","11.418889","180.0","COCHSTEDT, GM","FM-15","EDBC ","V020","250,1,N,0087,1","99999,9,C,N","011265,1,N,1","+0070,1","+0030,1","99999,9","02,5,+00480,1,99,9","04,5,+01170,1,99,9",,"04,99,1,99,9,99,9,99999,9,99,9,99,9",,"10190,1,99999,9","16,1",,,,"MET063METAR EDBC 211450Z 25017KT 9999 VCSH FEW016 SCT039 07/03 Q1019;","P01 011703SCOCIG"
"10616499999","2010-10-21T15:20:00","4","51.854992","11.418889","180.0","COCHSTEDT, GM","FM-15","EDBC ","V020","240,1,N,0098,1","22000,1,9,N","011265,1,N,1","+0060,1","+0030,1","99999,9","04,5,+01080,1,99,9",,,"04,99,1,99,9,99,9,99999,9,99,9,99,9",,"10180,1,99999,9",,,,,"MET051METAR EDBC 211520Z 24019KT 9999 SCT036 06/03 Q1018;",
"10616499999","2010-10-21T15:50:00","4","51.854992","11.418889","180.0","COCHSTEDT, GM","FM-15","EDBC ","V020","240,1,N,0082,1","99999,9,9,Y","009900,1,N,1","+0060,1","+0030,1","99999,9",,,,,,"10180,1,99999,9",,,,,"MET045METAR EDBC 211550Z 24016KT CAVOK 06/03 Q1018;",
"10616499999","2010-10-22T04:20:00","4","51.854992","11.418889","180.0","COCHSTEDT, GM","FM-15","EDBC ","V020","230,1,N,0098,1","01440,1,C,N","011265,1,N,1","+0050,1","+0000,1","99999,9","07,5,+01440,1,99,9",,,"07,99,1,99,9,99,9,99999,9,99,9,99,9",,"10159,1,99999,9",,,,,"MET051METAR EDBC 220420Z 23019KT 9999 BKN048 05/00 Q1016;",
"10616499999","2010-10-22T04:50:00","4","51.854992","11.418889","180.0","COCHSTEDT, GM","FM-15","EDBC ","V020","220,1,N,0082,1","99999,9,9,Y","009900,1,N,1","+0040,1","+0000,1","99999,9",,,,,,"10159,1,99999,9",,,,,"MET045METAR EDBC 220450Z 22016KT CAVOK 04/00 Q1016;",
"10616499999","2010-10-22T05:20:00","4","51.854992","11.418889","180.0","COCHSTEDT, GM","FM-15","EDBC ","V020","230,1,N,0087,1","99999,9,9,Y","009900,1,N,1","+0050,1","+0010,1","99999,9",,,,,,"10159,1,99999,9",,,,,"MET045METAR EDBC 220520Z 23017KT CAVOK 05/01 Q1016;",
"10616499999","2010-10-22T05:50:00","4","51.854992","11.418889","180.0","COCHSTEDT, GM","FM-15","EDBC ","V020","220,1,N,0082,1","99999,9,9,Y","009900,1,N,1","+0050,1","+0010,1","99999,9",,,,,,"10159,1,99999,9",,,,,"MET044METAR EDBC 220550Z 22016KT CAVOK05/01 Q1016;",
"10616499999","2010-10-22T06:20:00","4","51.854992","11.418889","180.0","COCHSTEDT, GM","FM-15","EDBC ","V020","220,1,N,0077,1","22000,1,9,N","011265,1,N,1","+0040,1","+0010,1","99999,9","04,5,+01380,1,99,9",,,"04,99,1,99,9,99,9,99999,9,99,9,99,9",,"10159,1,99999,9",,,,,"MET051METAR EDBC 220620Z 22015KT 9999 SCT046 04/01 Q1016;",
"10616499999","2010-10-22T06:50:00","4","51.854992","11.418889","180.0","COCHSTEDT, GM","FM-15","EDBC ","V020","230,1,N,0082,1","01320,1,C,N","011265,1,N,1","+0050,1","+0010,1","99999,9","02,5,+00990,1,99,9","07,5,+01320,1,99,9",,"07,99,1,99,9,99,9,99999,9,99,9,99,9",,"10159,1,99999,9",,,,,"MET058METAR EDBC 220650Z 23016KT 9999 FEW033 BKN044 05/01 Q1016;",
"10616499999","2010-10-22T07:20:00","4","51.854992","11.418889","180.0","COCHSTEDT, GM","FM-15","EDBC ","V020","230,1,N,0077,1","01200,1,C,N","011265,1,N,1","+0060,1","+0020,1","99999,9","07,5,+01200,1,99,9",,,"07,99,1,99,9,99,9,99999,9,99,9,99,9",,"10169,1,99999,9",,,,,"MET051METAR EDBC 220720Z 23015KT 9999 BKN040 06/02 Q1017;",
"10616499999","2010-10-22T07:50:00","4","51.854992","11.418889","180.0","COCHSTEDT, GM","FM-15","EDBC ","V020","240,1,N,0087,1","99999,9,C,N","011265,1,N,1","+0060,1","+0020,1","99999,9","02,5,+01110,1,99,9","04,5,+01290,1,99,9",,"04,99,1,99,9,99,9,99999,9,99,9,99,9",,"10169,1,99999,9",,,,,"MET058METAR EDBC 220750Z 24017KT 9999 FEW037 SCT043 06/02 Q1017;","P01 012903SCOCIG"
"10616499999","2010-10-22T08:20:00","4","51.854992","11.418889","180.0","COCHSTEDT, GM","FM-15","EDBC ","V020","230,1,N,0093,1","22000,1,9,N","011265,1,N,1","+0070,1","+0020,1","99999,9","04,5,+01200,1,99,9",,,"04,99,1,99,9,99,9,99999,9,99,9,99,9",,"10169,1,99999,9",,,,,"MET051METAR EDBC 220820Z 23018KT 9999 SCT040 07/02 Q1017;",
"10616499999","2010-10-22T08:50:00","4","51.854992","11.418889","180.0","COCHSTEDT, GM","FM-15","EDBC ","V020","240,1,N,0087,1","22000,1,9,N","011265,1,N,1","+0070,1","+0030,1","99999,9","04,5,+01350,1,99,9",,,"04,99,1,99,9,99,9,99999,9,99,9,99,9",,"10169,1,99999,9",,,,,"MET051METAR EDBC 220850Z 24017KT 9999 SCT045 07/03 Q1017;",
"10616499999","2010-10-22T09:20:00","4","51.854992","11.418889","180.0","COCHSTEDT, GM","FM-15","EDBC ","V020","240,1,N,0077,1","99999,9,9,Y","009900,1,N,1","+0080,1","+0030,1","99999,9",,,,,,"10169,1,99999,9",,,,,"MET045METAR EDBC 220920Z 24015KT CAVOK 08/03 Q1017;",
"10616499999","2010-10-22T09:50:00","4","51.854992","11.418889","180.0","COCHSTEDT, GM","FM-15","EDBC ","V020","240,1,N,0077,1","99999,9,9,Y","009900,1,N,1","+0080,1","+0030,1","99999,9",,,,,,"10169,1,99999,9",,,,,"MET045METAR EDBC 220950Z 24015KT CAVOK 08/03 Q1017;",
"10616499999","2010-10-22T10:20:00","4","51.854992","11.418889","180.0","COCHSTEDT, GM","FM-15","EDBC ","V020","250,1,N,0072,1","99999,9,9,Y","009900,1,N,1","+0100,1","+0040,1","99999,9",,,,,,"10169,1,99999,9",,,,,"MET044METAR EDBC 221020Z 25014KT CAVOK10/04 Q1017;",
"10616499999","2010-10-22T10:50:00","4","51.854992","11.418889","180.0","COCHSTEDT, GM","FM-15","EDBC ","V020","240,1,N,0072,1","22000,1,9,N","011265,1,N,1","+0100,1","+0040,1","99999,9","04,5,+01350,1,99,9",,,"04,99,1,99,9,99,9,99999,9,99,9,99,9",,"10169,1,99999,9",,,,,"MET051METAR EDBC 221050Z 24014KT 9999 SCT045 10/04 Q1017;",
"10616499999","2010-10-22T11:20:00","4","51.854992","11.418889","180.0","COCHSTEDT, GM","FM-15","EDBC ","V020","240,1,N,0072,1","22000,1,9,N","011265,1,N,1","+0110,1","+0050,1","99999,9","04,5,+01320,1,99,9",,,"04,99,1,99,9,99,9,99999,9,99,9,99,9",,"10169,1,99999,9",,,,,"MET051METAR EDBC 221120Z 24014KT 9999 SCT044 11/05 Q1017;",
"10616499999","2010-10-22T11:50:00","4","51.854992","11.418889","180.0","COCHSTEDT, GM","FM-15","EDBC ","V020","240,1,N,0072,1","22000,1,9,N","011265,1,N,1","+0100,1","+0040,1","99999,9","04,5,+01320,1,99,9",,,"04,99,1,99,9,99,9,99999,9,99,9,99,9",,"10169,1,99999,9",,,,,"MET051METAR EDBC 221150Z 24014KT 9999 SCT044 10/04 Q1017;",
"10616499999","2010-10-22T12:20:00","4","51.854992","11.418889","180.0","COCHSTEDT, GM","FM-15","EDBC ","V020","240,1,N,0062,1","22000,1,9,N","011265,1,N,1","+0100,1","+0040,1","99999,9","04,5,+01320,1,99,9",,,"04,99,1,99,9,99,9,99999,9,99,9,99,9",,"10169,1,99999,9",,,,,"MET051METAR EDBC 221220Z 24012KT 9999 SCT044 10/04 Q1017;",
"10616499999","2010-10-22T12:50:00","4","51.854992","11.418889","180.0","COCHSTEDT, GM","FM-15","EDBC ","V020","250,1,N,0062,1","22000,1,9,N","011265,1,N,1","+0100,1","+0040,1","99999,9","04,5,+01380,1,99,9",,,"04,99,1,99,9,99,9,99999,9,99,9,99,9",,"10169,1,99999,9",,,,,"MET051METAR EDBC 221250Z 25012KT 9999 SCT046 10/04 Q1017;",
"10616499999","2010-10-22T13:20:00","4","51.854992","11.418889","180.0","COCHSTEDT, GM","FM-15","EDBC ","V020","260,1,N,0062,1","22000,1,9,N","011265,1,N,1","+0100,1","+0040,1","99999,9","04,5,+01410,1,99,9",,,"04,99,1,99,9,99,9,99999,9,99,9,99,9",,"10169,1,99999,9",,,,,"MET051METAR EDBC 221320Z 26012KT 9999 SCT047 10/04 Q1017;",
"10616499999","2010-10-22T13:50:00","4","51.854992","11.418889","180.0","COCHSTEDT, GM","FM-15","EDBC ","V020","250,1,N,0062,1","22000,1,9,N","011265,1,N,1","+0100,1","+0040,1","99999,9","04,5,+01440,1,99,9",,,"04,99,1,99,9,99,9,99999,9,99,9,99,9",,"10169,1,99999,9",,,,,"MET051METAR EDBC 221350Z 25012KT 9999 SCT048 10/04 Q1017;",
"10616499999","2010-10-25T04:20:00","4","51.854992","11.418889","180.0","COCHSTEDT, GM","FM-15","EDBC ","V020","260,1,N,0046,1","01440,1,C,N","011265,1,N,1","+0030,1","+0020,1","99999,9","02,5,+01200,1,99,9","07,5,+01440,1,99,9",,"07,99,1,99,9,99,9,99999,9,99,9,99,9",,"10149,1,99999,9",,,,,"MET058METAR EDBC 250420Z 26009KT 9999 FEW040 BKN048 03/02 Q1015;",
"10616499999","2010-10-25T04:50:00","4","51.854992","11.418889","180.0","COCHSTEDT, GM","FM-15","EDBC ","V020","250,1,N,0036,1","22000,1,9,N","011265,1,N,1","+0020,1","+0010,1","99999,9","04,5,+01380,1,99,9",,,"04,99,1,99,9,99,9,99999,9,99,9,99,9",,"10149,1,99999,9",,,,,"MET051METAR EDBC 250450Z 25007KT 9999 SCT046 02/01 Q1015;",
"10616499999","2010-10-25T05:20:00","4","51.854992","11.418889","180.0","COCHSTEDT, GM","FM-15","EDBC ","V020","250,1,N,0046,1","22000,1,9,N","011265,1,N,1","+0020,1","+0010,1","99999,9","02,5,+01470,1,99,9",,,"02,99,1,99,9,99,9,99999,9,99,9,99,9",,"10149,1,99999,9",,,,,"MET051METAR EDBC 250520Z 25009KT 9999 FEW049 02/01 Q1015;",
"10616499999","2010-10-25T05:50:00","4","51.854992","11.418889","180.0","COCHSTEDT, GM","FM-15","EDBC ","V020","260,1,N,0046,1","99999,9,9,Y","009900,1,N,1","+0020,1","+0010,1","99999,9",,,,,,"10159,1,99999,9",,,,,"MET045METAR EDBC 250550Z 26009KT CAVOK 02/01 Q1016;",
"10616499999","2010-10-25T06:20:00","4","51.854992","11.418889","180.0","COCHSTEDT, GM","FM-15","EDBC ","V020","270,1,N,0051,1","99999,9,9,Y","009900,1,N,1","+0030,1","+0010,1","99999,9",,,,,,"10159,1,99999,9",,,,,"MET045METAR EDBC 250620Z 27010KT CAVOK 03/01 Q1016;",
"10616499999","2010-10-25T06:50:00","4","51.854992","11.418889","180.0","COCHSTEDT, GM","FM-15","EDBC ","V020","270,1,N,0051,1","99999,9,9,Y","009900,1,N,1","+0030,1","+0010,1","99999,9",,,,,,"10159,1,99999,9",,,,,"MET045METAR EDBC 250650Z 27010KT CAVOK 03/01 Q1016;",
"10616499999","2010-10-25T07:20:00","4","51.854992","11.418889","180.0","COCHSTEDT, GM","FM-15","EDBC ","V020","280,1,N,0041,1","99999,9,9,Y","009900,1,N,1","+0040,1","+0020,1","99999,9",,,,,,"10169,1,99999,9",,,,,"MET045METAR EDBC 250720Z 28008KT CAVOK 04/02 Q1017;",
"10616499999","2010-10-25T07:50:00","4","51.854992","11.418889","180.0","COCHSTEDT, GM","FM-15","EDBC ","V020","290,1,N,0057,1","99999,9,9,Y","009900,1,N,1","+0040,1","+0020,1","99999,9",,,,,,"10169,1,99999,9",,,,,"MET045METAR EDBC 250750Z 29011KT CAVOK 04/02 Q1017;",
"10616499999","2010-10-25T08:20:00","4","51.854992","11.418889","180.0","COCHSTEDT, GM","FM-15","EDBC ","V020","290,1,N,0051,1","99999,9,9,Y","009900,1,N,1","+0050,1","+0030,1","99999,9",,,,,,"10169,1,99999,9",,,,,"MET045METAR EDBC 250820Z 29010KT CAVOK 05/03 Q1017;",
"10616499999","2010-10-25T08:50:00","4","51.854992","11.418889","180.0","COCHSTEDT, GM","FM-15","EDBC ","V020","290,1,N,0062,1","99999,9,9,Y","009900,1,N,1","+0060,1","+0030,1","99999,9",,,,,,"10180,1,99999,9",,,,,"MET045METAR EDBC 250850Z 29012KT CAVOK 06/03 Q1018;",
"10616499999","2010-10-25T09:20:00","4","51.854992","11.418889","180.0","COCHSTEDT, GM","FM-15","EDBC ","V020","290,1,N,0067,1","22000,1,9,N","011265,1,N,1","+0060,1","+0030,1","99999,9","02,5,+00360,1,99,9",,,"02,99,1,99,9,99,9,99999,9,99,9,99,9",,"10180,1,99999,9",,,,,"MET051METAR EDBC 250920Z 29013KT 9999 FEW012 06/03 Q1018;",
"10616499999","2010-10-25T09:50:00","4","51.854992","11.418889","180.0","COCHSTEDT, GM","FM-15","EDBC ","V020","310,1,N,0077,1","22000,1,9,N","011265,1,N,1","+0060,1","+0030,1","99999,9","02,5,+00390,1,99,9",,,"02,99,1,99,9,99,9,99999,9,99,9,99,9",,"10190,1,99999,9",,,,,"MET051METAR EDBC 250950Z 31015KT 9999 FEW013 06/03 Q1019;",
"10616499999","2010-10-25T10:20:00","4","51.854992","11.418889","180.0","COCHSTEDT, GM","FM-15","EDBC ","V020","310,1,N,0082,1","22000,1,9,N","011265,1,N,1","+0070,1","+0030,1","99999,9","02,5,+00480,1,99,9",,,"02,99,1,99,9,99,9,99999,9,99,9,99,9",,"10190,1,99999,9",,,,,"MET051METAR EDBC 251020Z 31016KT 9999 FEW016 07/03 Q1019;",
"10616499999","2010-10-25T10:50:00","4","51.854992","11.418889","180.0","COCHSTEDT, GM","FM-15","EDBC ","V020","300,1,N,0077,1","99999,9,C,N","011265,1,N,1","+0070,1","+0030,1","99999,9","02,5,+00360,1,99,9","04,5,+00420,1,99,9",,"04,99,1,99,9,99,9,99999,9,99,9,99,9",,"10190,1,99999,9",,,,,"MET058METAR EDBC 251050Z 30015KT 9999 FEW012 SCT014 07/03 Q1019;","P01 004203SCOCIG"
"10616499999","2010-10-25T11:20:00","4","51.854992","11.418889","180.0","COCHSTEDT, GM","FM-15","EDBC ","V020","310,1,N,0062,1","22000,1,9,N","011265,1,N,1","+0070,1","+0040,1","99999,9","04,5,+00480,1,99,9",,,"04,99,1,99,9,99,9,99999,9,99,9,99,9",,"10190,1,99999,9",,,,,"MET051METAR EDBC 251120Z 31012KT 9999 SCT016 07/04 Q1019;",
"10616499999","2010-10-25T11:50:00","4","51.854992","11.418889","180.0","COCHSTEDT, GM","FM-15","EDBC ","V020","300,1,N,0057,1","22000,1,9,N","011265,1,N,1","+0080,1","+0030,1","99999,9","04,5,+00600,1,99,9",,,"04,99,1,99,9,99,9,99999,9,99,9,99,9",,"10190,1,99999,9",,,,,"MET051METAR EDBC 251150Z 30011KT 9999 SCT020 08/03 Q1019;",
"10616499999","2010-10-25T12:20:00","4","51.854992","11.418889","180.0","COCHSTEDT, GM","FM-15","EDBC ","V020","320,1,N,0046,1","22000,1,9,N","011265,1,N,1","+0080,1","+0030,1","99999,9","04,5,+00810,1,99,9",,,"04,99,1,99,9,99,9,99999,9,99,9,99,9",,"10200,1,99999,9",,,,,"MET051METAR EDBC 251220Z 32009KT 9999 SCT027 08/03 Q1020;",
"10616499999","2010-10-25T12:50:00","4","51.854992","11.418889","180.0","COCHSTEDT, GM","FM-15","EDBC ","V020","320,1,N,0051,1","22000,1,9,N","011265,1,N,1","+0080,1","+0030,1","99999,9","04,5,+00720,1,99,9",,,"04,99,1,99,9,99,9,99999,9,99,9,99,9",,"10200,1,99999,9",,,,,"MET059METAR EDBC 251250Z 32010KT 290V360 9999 SCT024 08/03 Q1020;",
"10616499999","2010-10-25T13:20:00","4","51.854992","11.418889","180.0","COCHSTEDT, GM","FM-15","EDBC ","V020","310,1,N,0062,1","22000,1,9,N","011265,1,N,1","+0080,1","+0020,1","99999,9","04,5,+00870,1,99,9",,,"04,99,1,99,9,99,9,99999,9,99,9,99,9",,"10200,1,99999,9",,,,,"MET051METAR EDBC 251320Z 31012KT 9999 SCT029 08/02 Q1020;",
"10616499999","2010-10-25T13:50:00","4","51.854992","11.418889","180.0","COCHSTEDT, GM","FM-15","EDBC ","V020","310,1,N,0051,1","22000,1,9,N","011265,1,N,1","+0080,1","+0030,1","99999,9","04,5,+00780,1,99,9",,,"04,99,1,99,9,99,9,99999,9,99,9,99,9",,"10200,1,99999,9",,,,,"MET051METAR EDBC 251350Z 31010KT 9999 SCT026 08/03 Q1020;",
"10616499999","2010-10-26T04:20:00","4","51.854992","11.418889","180.0","COCHSTEDT, GM","FM-15","EDBC ","V020","290,1,N,0057,1","22000,1,9,N","011265,1,N,1","+0050,1","+0030,1","99999,9","04,5,+00300,1,99,9",,,"04,99,1,99,9,99,9,99999,9,99,9,99,9",,"10240,1,99999,9",,,,,"MET051METAR EDBC 260420Z 29011KT 9999 SCT010 05/03 Q1024;",
"10616499999","2010-10-26T04:50:00","4","51.854992","11.418889","180.0","COCHSTEDT, GM","FM-15","EDBC ","V020","290,1,N,0051,1","22000,1,9,N","011265,1,N,1","+0050,1","+0030,1","99999,9","02,5,+00300,1,99,9",,,"02,99,1,99,9,99,9,99999,9,99,9,99,9",,"10240,1,99999,9",,,,,"MET051METAR EDBC 260450Z 29010KT 9999 FEW010 05/03 Q1024;",
"10616499999","2010-10-26T05:20:00","4","51.854992","11.418889","180.0","COCHSTEDT, GM","FM-15","EDBC ","V020","290,1,N,0046,1","00300,1,C,N","011265,1,N,1","+0050,1","+0040,1","99999,9","07,5,+00300,1,99,9",,,"07,99,1,99,9,99,9,99999,9,99,9,99,9",,"10240,1,99999,9",,,,,"MET059METAR EDBC 260520Z 29009KT 260V320 9999 BKN010 05/04 Q1024;",
"10616499999","2010-10-26T05:50:00","4","51.854992","11.418889","180.0","COCHSTEDT, GM","FM-15","EDBC ","V020","300,1,N,0051,1","00300,1,C,N","011265,1,N,1","+0050,1","+0040,1","99999,9","07,5,+00300,1,99,9",,,"07,99,1,99,9,99,9,99999,9,99,9,99,9",,"10240,1,99999,9",,,,,"MET051METAR EDBC 260550Z 30010KT 9999 BKN010 05/04 Q1024;",
"10616499999","2010-10-26T06:20:00","4","51.854992","11.418889","180.0","COCHSTEDT, GM","FM-15","EDBC ","V020","290,1,N,0051,1","22000,1,9,N","011265,1,N,1","+0050,1","+0030,1","99999,9","04,5,+00360,1,99,9",,,"04,99,1,99,9,99,9,99999,9,99,9,99,9",,"10251,1,99999,9",,,,,"MET059METAR EDBC 260620Z 29010KT 260V320 9999 SCT012 05/03 Q1025;",
"10616499999","2010-10-26T06:50:00","4","51.854992","11.418889","180.0","COCHSTEDT, GM","FM-15","EDBC ","V020","300,1,N,0041,1","22000,1,9,N","011265,1,N,1","+0050,1","+0040,1","99999,9","04,5,+00360,1,99,9",,,"04,99,1,99,9,99,9,99999,9,99,9,99,9",,"10251,1,99999,9",,,,,"MET051METAR EDBC 260650Z 30008KT 9999 SCT012 05/04 Q1025;",
"10616499999","2010-10-26T07:20:00","4","51.854992","11.418889","180.0","COCHSTEDT, GM","FM-15","EDBC ","V020","290,1,N,0046,1","99999,9,C,N","011265,1,N,1","+0050,1","+0040,1","99999,9","02,5,+00270,1,99,9","04,5,+01200,1,99,9",,"04,99,1,99,9,99,9,99999,9,99,9,99,9",,"10251,1,99999,9",,,,,"MET066METAR EDBC 260720Z 29009KT 260V320 9999 FEW009 SCT040 05/04 Q1025;","P01 012003SCOCIG"
"10616499999","2010-10-26T07:50:00","4","51.854992","11.418889","180.0","COCHSTEDT, GM","FM-15","EDBC ","V020","300,1,N,0041,1","00300,1,C,N","011265,1,N,1","+0050,1","+0040,1","99999,9","07,5,+00300,1,99,9",,,"07,99,1,99,9,99,9,99999,9,99,9,99,9",,"10261,1,99999,9",,,,,"MET051METAR EDBC 260750Z 30008KT 9999 BKN010 05/04 Q1026;",
"10616499999","2010-10-26T08:20:00","4","51.854992","11.418889","180.0","COCHSTEDT, GM","FM-15","EDBC ","V020","290,1,N,0051,1","22000,1,9,N","011265,1,N,1","+0060,1","+0040,1","99999,9","04,5,+00360,1,99,9",,,"04,99,1,99,9,99,9,99999,9,99,9,99,9",,"10261,1,99999,9",,,,,"MET051METAR EDBC 260820Z 29010KT 9999 SCT012 06/04 Q1026;",
"10616499999","2010-10-26T08:50:00","4","51.854992","11.418889","180.0","COCHSTEDT, GM","FM-15","EDBC ","V020","290,1,N,0051,1","22000,1,9,N","011265,1,N,1","+0060,1","+0040,1","99999,9","04,5,+00360,1,99,9",,,"04,99,1,99,9,99,9,99999,9,99,9,99,9",,"10261,1,99999,9",,,,,"MET059METAR EDBC 260850Z 29010KT 260V320 9999 SCT012 06/04 Q1026;",
"10616499999","2010-10-26T09:20:00","4","51.854992","11.418889","180.0","COCHSTEDT, GM","FM-15","EDBC ","V020","300,1,N,0057,1","22000,1,9,N","011265,1,N,1","+0060,1","+0040,1","99999,9","04,5,+00420,1,99,9",,,"04,99,1,99,9,99,9,99999,9,99,9,99,9",,"10261,1,99999,9",,,,,"MET051METAR EDBC 260920Z 30011KT 9999 SCT014 06/04 Q1026;",
"10616499999","2010-10-26T09:50:00","4","51.854992","11.418889","180.0","COCHSTEDT, GM","FM-15","EDBC ","V020","300,1,N,0046,1","22000,1,9,N","011265,1,N,1","+0070,1","+0040,1","99999,9","04,5,+00360,1,99,9",,,"04,99,1,99,9,99,9,99999,9,99,9,99,9",,"10261,1,99999,9",,,,,"MET059METAR EDBC 260950Z 30009KT 270V330 9999 SCT012 07/04 Q1026;",
"10616499999","2010-10-26T10:20:00","4","51.854992","11.418889","180.0","COCHSTEDT, GM","FM-15","EDBC ","V020","310,1,N,0057,1","22000,1,9,N","011265,1,N,1","+0060,1","+0040,1","99999,9","04,5,+00420,1,99,9",,,"04,99,1,99,9,99,9,99999,9,99,9,99,9",,"10261,1,99999,9",,,,,"MET051METAR EDBC 261020Z 31011KT 9999 SCT014 06/04 Q1026;",
"10616499999","2010-10-26T10:50:00","4","51.854992","11.418889","180.0","COCHSTEDT, GM","FM-15","EDBC ","V020","310,1,N,0062,1","22000,1,9,N","011265,1,N,1","+0080,1","+0040,1","99999,9","04,5,+00480,1,99,9",,,"04,99,1,99,9,99,9,99999,9,99,9,99,9",,"10271,1,99999,9",,,,,"MET051METAR EDBC 261050Z 31012KT 9999 SCT016 08/04 Q1027;",
"10616499999","2010-10-26T11:20:00","4","51.854992","11.418889","180.0","COCHSTEDT, GM","FM-15","EDBC ","V020","310,1,N,0062,1","22000,1,9,N","011265,1,N,1","+0080,1","+0040,1","99999,9","04,5,+00450,1,99,9",,,"04,99,1,99,9,99,9,99999,9,99,9,99,9",,"10271,1,99999,9",,,,,"MET051METAR EDBC 261120Z 31012KT 9999 SCT015 08/04 Q1027;",
"10616499999","2010-10-26T11:50:00","4","51.854992","11.418889","180.0","COCHSTEDT, GM","FM-15","EDBC ","V020","310,1,N,0062,1","22000,1,9,N","011265,1,N,1","+0090,1","+0030,1","99999,9","04,5,+00660,1,99,9",,,"04,99,1,99,9,99,9,99999,9,99,9,99,9",,"10271,1,99999,9",,,,,"MET051METAR EDBC 261150Z 31012KT 9999 SCT022 09/03 Q1027;",
"10616499999","2010-10-26T12:20:00","4","51.854992","11.418889","180.0","COCHSTEDT, GM","FM-15","EDBC ","V020","330,1,N,0046,1","00750,1,C,N","011265,1,N,1","+0080,1","+0050,1","99999,9","07,5,+00750,1,99,9",,,"07,99,1,99,9,99,9,99999,9,99,9,99,9",,"10271,1,99999,9",,,,,"MET051METAR EDBC 261220Z 33009KT 9999 BKN025 08/05 Q1027;",
"10616499999","2010-10-26T12:50:00","4","51.854992","11.418889","180.0","COCHSTEDT, GM","FM-15","EDBC ","V020","310,1,N,0046,1","01320,1,C,N","011265,1,N,1","+0090,1","+0030,1","99999,9","02,5,+00630,1,99,9","07,5,+01320,1,99,9",,"07,99,1,99,9,99,9,99999,9,99,9,99,9",,"10261,1,99999,9",,,,,"MET066METAR EDBC 261250Z 31009KT 280V350 9999 FEW021 BKN044 09/03 Q1026;",
"10616499999","2010-10-26T13:20:00","4","51.854992","11.418889","180.0","COCHSTEDT, GM","FM-15","EDBC ","V020","310,1,N,0051,1","01140,1,C,N","011265,1,N,1","+0090,1","+0040,1","99999,9","07,5,+01140,1,99,9",,,"07,99,1,99,9,99,9,99999,9,99,9,99,9",,"10261,1,99999,9",,,,,"MET051METAR EDBC 261320Z 31010KT 9999 BKN038 09/04 Q1026;",
"10616499999","2010-10-26T13:50:00","4","51.854992","11.418889","180.0","COCHSTEDT, GM","FM-15","EDBC ","V020","310,1,N,0046,1","01020,1,C,N","011265,1,N,1","+0080,1","+0040,1","99999,9","02,5,+00570,1,99,9","04,5,+01020,1,99,9","07,5,+01680,5,99,9","07,99,1,99,9,99,9,99999,9,99,9,99,9",,"10261,1,99999,9",,,,,"MET073METAR EDBC 261350Z 31009KT 270V330 9999 FEW019 SCT034 BKN056 08/04 Q1026;",
"10616499999","2010-10-27T04:20:00","4","51.854992","11.418889","180.0","COCHSTEDT, GM","FM-15","EDBC ","V020","180,1,N,0072,1","99999,9,9,Y","009900,1,N,1","+0050,1","+0020,1","99999,9",,,,,,"10240,1,99999,9",,,,,"MET045METAR EDBC 270420Z 18014KT CAVOK 05/02 Q1024;",
"10616499999","2010-10-27T04:50:00","4","51.854992","11.418889","180.0","COCHSTEDT, GM","FM-15","EDBC ","V020","180,1,N,0067,1","99999,9,9,Y","009900,1,N,1","+0040,1","+0020,1","99999,9",,,,,,"10240,1,99999,9",,,,,"MET045METAR EDBC 270450Z 18013KT CAVOK 04/02 Q1024;",
"10616499999","2010-10-27T05:20:00","4","51.854992","11.418889","180.0","COCHSTEDT, GM","FM-15","EDBC ","V020","190,1,N,0062,1","99999,9,9,Y","009900,1,N,1","+0040,1","+0020,1","99999,9",,,,,,"10240,1,99999,9",,,,,"MET045METAR EDBC 270520Z 19012KT CAVOK 04/02 Q1024;",
"10616499999","2010-10-27T05:50:00","4","51.854992","11.418889","180.0","COCHSTEDT, GM","FM-15","EDBC ","V020","190,1,N,0051,1","99999,9,9,Y","009900,1,N,1","+0040,1","+0020,1","99999,9",,,,,,"10240,1,99999,9",,,,,"MET045METAR EDBC 270550Z 19010KT CAVOK 04/02 Q1024;",
"10616499999","2010-10-27T06:20:00","4","51.854992","11.418889","180.0","COCHSTEDT, GM","FM-15","EDBC ","V020","200,1,N,0051,1","99999,9,9,Y","009900,1,N,1","+0050,1","+0010,1","99999,9",,,,,,"10240,1,99999,9",,,,,"MET045METAR EDBC 270620Z 20010KT CAVOK 05/01 Q1024;",
"10616499999","2010-10-27T06:50:00","4","51.854992","11.418889","180.0","COCHSTEDT, GM","FM-15","EDBC ","V020","190,1,N,0067,1","99999,9,9,Y","009900,1,N,1","+0050,1","+0020,1","99999,9",,,,,,"10240,1,99999,9",,,,,"MET045METAR EDBC 270650Z 19013KT CAVOK 05/02 Q1024;",
"10616499999","2010-10-27T07:20:00","4","51.854992","11.418889","180.0","COCHSTEDT, GM","FM-15","EDBC ","V020","190,1,N,0067,1","99999,9,9,Y","009900,1,N,1","+0060,1","+0020,1","99999,9",,,,,,"10240,1,99999,9",,,,,"MET045METAR EDBC 270720Z 19013KT CAVOK 06/02 Q1024;",
"10616499999","2010-10-27T07:50:00","4","51.854992","11.418889","180.0","COCHSTEDT, GM","FM-15","EDBC ","V020","190,1,N,0062,1","22000,1,9,N","009900,1,N,1","+0070,1","+0020,1","99999,9",,,,,,"10230,1,99999,9",,,,,"MET046METAR EDBC 270750Z 19012KT CAVVOK 07/02 Q1023;",
"10616499999","2010-10-27T08:20:00","4","51.854992","11.418889","180.0","COCHSTEDT, GM","FM-15","EDBC ","V020","200,1,N,0067,1","99999,9,9,Y","009900,1,N,1","+0080,1","+0010,1","99999,9",,,,,,"10230,1,99999,9",,,,,"MET045METAR EDBC 270820Z 20013KT CAVOK 08/01 Q1023;",
"10616499999","2010-10-27T08:50:00","4","51.854992","11.418889","180.0","COCHSTEDT, GM","FM-15","EDBC ","V020","200,1,N,0077,1","99999,9,9,Y","009900,1,N,1","+0080,1","+0010,1","99999,9",,,,,,"10230,1,99999,9",,,,,"MET045METAR EDBC 270850Z 20015KT CAVOK 08/01 Q1023;",
"10616499999","2010-10-27T09:20:00","4","51.854992","11.418889","180.0","COCHSTEDT, GM","FM-15","EDBC ","V020","200,1,N,0077,1","99999,9,9,Y","009900,1,N,1","+0080,1","+0010,1","99999,9",,,,,,"10230,1,99999,9",,,,,"MET045METAR EDBC 270920Z 20015KT CAVOK 08/01 Q1023;",
"10616499999","2010-10-27T09:50:00","4","51.854992","11.418889","180.0","COCHSTEDT, GM","FM-15","EDBC ","V020","200,1,N,0077,1","99999,9,9,Y","009900,1,N,1","+0090,1","+0010,1","99999,9",,,,,,"10230,1,99999,9",,,,,"MET045METAR EDBC 270950Z 20015KT CAVOK 09/01 Q1023;",
"10616499999","2010-10-27T10:20:00","4","51.854992","11.418889","180.0","COCHSTEDT, GM","FM-15","EDBC ","V020","210,1,N,0087,1","99999,9,9,Y","009900,1,N,1","+0090,1","+0000,1","99999,9",,,,,,"10220,1,99999,9",,,,,"MET046METAR EDBC 271020Z 21017KT CAVOK 09/M00 Q1022;",
"10616499999","2010-10-27T10:50:00","4","51.854992","11.418889","180.0","COCHSTEDT, GM","FM-15","EDBC ","V020","210,1,N,0093,1","99999,9,9,Y","009900,1,N,1","+0090,1","+0000,1","99999,9",,,,,,"10220,1,99999,9",,,,,"MET045METAR EDBC 271050Z 21018KT CAVOK 09/00 Q1022;",
"10616499999","2010-10-27T11:20:00","4","51.854992","11.418889","180.0","COCHSTEDT, GM","FM-15","EDBC ","V020","210,1,N,0093,1","99999,9,9,Y","009900,1,N,1","+0090,1","+0000,1","99999,9",,,,,,"10220,1,99999,9",,,,,"MET045METAR EDBC 271120Z 21018KT CAVOK 09/00 Q1022;",
"10616499999","2010-10-27T11:50:00","4","51.854992","11.418889","180.0","COCHSTEDT, GM","FM-15","EDBC ","V020","200,1,N,0082,1","99999,9,9,Y","009900,1,N,1","+0090,1","+0010,1","99999,9",,,,,,"10220,1,99999,9",,,,,"MET045METAR EDBC 271150Z 20016KT CAVOK 09/01 Q1022;",
"10616499999","2010-10-27T12:20:00","4","51.854992","11.418889","180.0","COCHSTEDT, GM","FM-15","EDBC ","V020","200,1,N,0077,1","01650,5,C,N","011265,1,N,1","+0090,1","+0010,1","99999,9","02,5,+00630,1,99,9","07,5,+01650,5,99,9",,"07,99,1,99,9,99,9,99999,9,99,9,99,9",,"10220,1,99999,9",,,,,"MET058METAR EDBC 271220Z 20015KT 9999 FEW021 BKN055 09/01 Q1022;",
"10616499999","2010-10-27T12:50:00","4","51.854992","11.418889","180.0","COCHSTEDT, GM","FM-15","EDBC ","V020","210,1,N,0072,1","99999,9,C,N","011265,1,N,1","+0090,1","+0020,1","99999,9","02,5,+00600,1,99,9","04,5,+01020,1,99,9",,"04,99,1,99,9,99,9,99999,9,99,9,99,9",,"10210,1,99999,9","80,1",,,,"MET064METAR EDBC 271250Z 21014KT 9999 -SHRA FEW020 SCT034 09/02 Q1021;","P01 010203SCOCIG"
"10616499999","2010-10-27T13:20:00","4","51.854992","11.418889","180.0","COCHSTEDT, GM","FM-15","EDBC ","V020","220,1,N,0082,1","01470,1,C,N","011265,1,N,1","+0080,1","+0030,1","99999,9","02,5,+00570,1,99,9","07,5,+01470,1,99,9",,"07,99,1,99,9,99,9,99999,9,99,9,99,9",,"10210,1,99999,9",,,,,"MET063METAR EDBC 271320Z 22016KT 9999 FEW019 BKN049 08/03 Q1021 RERA;",
"10616499999","2010-10-27T13:50:00","4","51.854992","11.418889","180.0","COCHSTEDT, GM","FM-15","EDBC ","V020","210,1,N,0072,1","01290,1,C,N","011265,1,N,1","+0080,1","+0030,1","99999,9","02,5,+00900,1,99,9","07,5,+01290,1,99,9",,"07,99,1,99,9,99,9,99999,9,99,9,99,9",,"10210,1,99999,9","80,1",,,,"MET064METAR EDBC 271350Z 21014KT 9999 -SHRA FEW030 BKN043 08/03 Q1021;",
"10616499999","2010-10-28T03:50:00","4","51.854992","11.418889","180.0","COCHSTEDT, GM","FM-15","EDBC ","V020","210,1,N,0041,1","01320,1,C,N","011265,1,N,1","+0080,1","+0020,1","99999,9","07,5,+01320,1,99,9",,,"07,99,1,99,9,99,9,99999,9,99,9,99,9",,"10180,1,99999,9",,,,,"MET051METAR EDBC 280350Z 21008KT 9999 BKN044 08/02 Q1018;",
"10616499999","2010-10-28T04:20:00","4","51.854992","11.418889","180.0","COCHSTEDT, GM","FM-15","EDBC ","V020","200,1,N,0051,1","01080,1,C,N","011265,1,N,1","+0080,1","+0020,1","99999,9","07,5,+01080,1,99,9",,,"07,99,1,99,9,99,9,99999,9,99,9,99,9",,"10169,1,99999,9",,,,,"MET051METAR EDBC 280420Z 20010KT 9999 BKN036 08/02 Q1017;",
"10616499999","2010-10-28T04:50:00","4","51.854992","11.418889","180.0","COCHSTEDT, GM","FM-15","EDBC ","V020","210,1,N,0082,1","01110,1,C,N","011265,1,N,1","+0090,1","+0010,1","99999,9","02,5,+00960,1,99,9","07,5,+01110,1,99,9",,"07,99,1,99,9,99,9,99999,9,99,9,99,9",,"10169,1,99999,9","80,1",,,,"MET064METAR EDBC 280450Z 21016KT 9999 -SHRA FEW032 BKN037 09/01 Q1017;",
"10616499999","2010-10-28T05:20:00","4","51.854992","11.418889","180.0","COCHSTEDT, GM","FM-15","EDBC ","V020","210,1,N,0072,1","22000,1,9,N","011265,1,N,1","+0080,1","+0020,1","99999,9","02,5,+00900,1,99,9",,,"02,99,1,99,9,99,9,99999,9,99,9,99,9",,"10169,1,99999,9",,,,,"MET056METAR EDBC 280520Z 21014KT 9999 FEW030 08/02 Q1017 RERA;",
"10616499999","2010-10-28T05:50:00","4","51.854992","11.418889","180.0","COCHSTEDT, GM","FM-15","EDBC ","V020","210,1,N,0072,1","99999,9,9,Y","009900,1,N,1","+0080,1","+0010,1","99999,9",,,,,,"10169,1,99999,9",,,,,"MET045METAR EDBC 280550Z 21014KT CAVOK 08/01 Q1017;",
"10616499999","2010-10-28T06:20:00","4","51.854992","11.418889","180.0","COCHSTEDT, GM","FM-15","EDBC ","V020","230,1,N,0072,1","99999,9,9,Y","009900,1,N,1","+0080,1","+0010,1","99999,9",,,,,,"10169,1,99999,9",,,,,"MET045METAR EDBC 280620Z 23014KT CAVOK 08/01 Q1017;",
"10616499999","2010-10-28T06:50:00","4","51.854992","11.418889","180.0","COCHSTEDT, GM","FM-15","EDBC ","V020","230,1,N,0062,1","01680,5,C,N","011265,1,N,1","+0080,1","+0020,1","99999,9","02,5,+00720,1,99,9","07,5,+01680,5,99,9",,"07,99,1,99,9,99,9,99999,9,99,9,99,9",,"10169,1,99999,9",,,,,"MET058METAR EDBC 280650Z 23012KT 9999 FEW024 BKN056 08/02 Q1017;",
"10616499999","2010-10-28T07:20:00","4","51.854992","11.418889","180.0","COCHSTEDT, GM","FM-15","EDBC ","V020","220,1,N,0051,1","01560,5,C,N","011265,1,N,1","+0090,1","+0010,1","99999,9","04,5,+01320,1,99,9","07,5,+01560,5,99,9",,"07,99,1,99,9,99,9,99999,9,99,9,99,9",,"10169,1,99999,9",,,,,"MET058METAR EDBC 280720Z 22010KT 9999 SCT044 BKN052 09/01 Q1017;",
"10616499999","2010-10-28T07:50:00","4","51.854992","11.418889","180.0","COCHSTEDT, GM","FM-15","EDBC ","V020","240,1,N,0057,1","01440,1,C,N","011265,1,N,1","+0090,1","+0020,1","99999,9","02,5,+01200,1,99,9","07,5,+01440,1,99,9",,"07,99,1,99,9,99,9,99999,9,99,9,99,9",,"10169,1,99999,9",,,,,"MET058METAR EDBC 280750Z 24011KT 9999 FEW040 BKN048 09/02 Q1017;",
"10616499999","2010-10-28T08:20:00","4","51.854992","11.418889","180.0","COCHSTEDT, GM","FM-15","EDBC ","V020","270,1,N,0051,1","99999,9,C,N","011265,1,N,1","+0090,1","+0030,1","99999,9","02,5,+01260,1,99,9","04,5,+01740,5,99,9",,"04,99,1,99,9,99,9,99999,9,99,9,99,9",,"10180,1,99999,9",,,,,"MET058METAR EDBC 280820Z 27010KT 9999 FEW042 SCT058 09/03 Q1018;","P01 017403SCOCIG"
"10616499999","2010-10-28T08:50:00","4","51.854992","11.418889","180.0","COCHSTEDT, GM","FM-15","EDBC ","V020","260,1,N,0041,1","01500,1,C,N","011265,1,N,1","+0100,1","+0030,1","99999,9","02,5,+00960,1,99,9","07,5,+01500,1,99,9",,"07,99,1,99,9,99,9,99999,9,99,9,99,9",,"10180,1,99999,9",,,,,"MET058METAR EDBC 280850Z 26008KT 9999 FEW032 BKN050 10/03 Q1018;",
"10616499999","2010-10-28T09:20:00","4","51.854992","11.418889","180.0","COCHSTEDT, GM","FM-15","EDBC ","V020","240,1,N,0067,1","00840,1,C,N","011265,1,N,1","+0100,1","+0040,1","99999,9","07,5,+00840,1,99,9","07,5,+01740,5,99,9",,"07,99,1,99,9,99,9,99999,9,99,9,99,9",,"10180,1,99999,9",,,,,"MET058METAR EDBC 280920Z 24013KT 9999 BKN028 BKN058 10/04 Q1018;",
"10616499999","2010-10-28T09:50:00","4","51.854992","11.418889","180.0","COCHSTEDT, GM","FM-15","EDBC ","V020","240,1,N,0082,1","01950,5,C,N","011265,1,N,1","+0120,1","+0050,1","99999,9","02,5,+01290,1,99,9","07,5,+01950,5,99,9",,"07,99,1,99,9,99,9,99999,9,99,9,99,9",,"10180,1,99999,9",,,,,"MET058METAR EDBC 280950Z 24016KT 9999 FEW043 BKN065 12/05 Q1018;",
"10616499999","2010-10-28T10:20:00","4","51.854992","11.418889","180.0","COCHSTEDT, GM","FM-15","EDBC ","V020","250,1,N,0077,1","99999,9,9,Y","009900,1,N,1","+0120,1","+0040,1","99999,9",,,,,,"10180,1,99999,9",,,,,"MET045METAR EDBC 281020Z 25015KT CAVOK 12/04 Q1018;",
"10616499999","2010-10-28T10:50:00","4","51.854992","11.418889","180.0","COCHSTEDT, GM","FM-15","EDBC ","V020","260,1,N,0067,1","99999,9,9,Y","009900,1,N,1","+0120,1","+0040,1","99999,9",,,,,,"10180,1,99999,9",,,,,"MET045METAR EDBC 281050Z 26013KT CAVOK 12/04 Q1018;",
"10616499999","2010-10-28T11:20:00","4","51.854992","11.418889","180.0","COCHSTEDT, GM","FM-15","EDBC ","V020","250,1,N,0062,1","99999,9,9,Y","009900,1,N,1","+0120,1","+0050,1","99999,9",,,,,,"10180,1,99999,9",,,,,"MET045METAR EDBC 281120Z 25012KT CAVOK 12/05 Q1018;",
"10616499999","2010-10-28T11:50:00","4","51.854992","11.418889","180.0","COCHSTEDT, GM","FM-15","EDBC ","V020","250,1,N,0077,1","99999,9,9,Y","009900,1,N,1","+0120,1","+0050,1","99999,9",,,,,,"10180,1,99999,9",,,,,"MET045METAR EDBC 281150Z 25015KT CAVOK 12/05 Q1018;",
"10616499999","2010-10-28T12:20:00","4","51.854992","11.418889","180.0","COCHSTEDT, GM","FM-15","EDBC ","V020","250,1,N,0077,1","99999,9,9,Y","009900,1,N,1","+0120,1","+0050,1","99999,9",,,,,,"10180,1,99999,9",,,,,"MET045METAR EDBC 281220Z 25015KT CAVOK 12/05 Q1018;",
"10616499999","2010-10-28T12:50:00","4","51.854992","11.418889","180.0","COCHSTEDT, GM","FM-15","EDBC ","V020","240,1,N,0082,1","99999,9,9,Y","009900,1,N,1","+0120,1","+0050,1","99999,9",,,,,,"10180,1,99999,9",,,,,"MET045METAR EDBC 281250Z 24016KT CAVOK 12/05 Q1018;",
"10616499999","2010-10-28T13:20:00","4","51.854992","11.418889","180.0","COCHSTEDT, GM","FM-15","EDBC ","V020","250,1,N,0072,1","99999,9,9,Y","009900,1,N,1","+0120,1","+0050,1","99999,9",,,,,,"10180,1,99999,9",,,,,"MET045METAR EDBC 281320Z 25014KT CAVOK 12/05 Q1018;",
"10616499999","2010-10-28T13:50:00","4","51.854992","11.418889","180.0","COCHSTEDT, GM","FM-15","EDBC ","V020","250,1,N,0062,1","99999,9,9,Y","009900,1,N,1","+0120,1","+0050,1","99999,9",,,,,,"10180,1,99999,9",,,,,"MET045METAR EDBC 281350Z 25012KT CAVOK 12/05 Q1018;",
"10616499999","2010-10-28T14:20:00","4","51.854992","11.418889","180.0","COCHSTEDT, GM","FM-15","EDBC ","V020","240,1,N,0062,1","99999,9,9,Y","009900,1,N,1","+0120,1","+0050,1","99999,9",,,,,,"10180,1,99999,9",,,,,"MET045METAR EDBC 281420Z 24012KT CAVOK 12/05 Q1018;",
"10616499999","2010-10-28T14:50:00","4","51.854992","11.418889","180.0","COCHSTEDT, GM","FM-15","EDBC ","V020","240,1,N,0067,1","99999,9,9,Y","009900,1,N,1","+0120,1","+0060,1","99999,9",,,,,,"10180,1,99999,9",,,,,"MET045METAR EDBC 281450Z 24013KT CAVOK 12/06 Q1018;",
"10616499999","2010-10-28T15:20:00","4","51.854992","11.418889","180.0","COCHSTEDT, GM","FM-15","EDBC ","V020","240,1,N,0046,1","99999,9,9,Y","009900,1,N,1","+0110,1","+0060,1","99999,9",,,,,,"10180,1,99999,9",,,,,"MET045METAR EDBC 281520Z 24009KT CAVOK 11/06 Q1018;",
"10616499999","2010-10-28T15:50:00","4","51.854992","11.418889","180.0","COCHSTEDT, GM","FM-15","EDBC ","V020","230,1,N,0041,1","99999,9,9,Y","009900,1,N,1","+0100,1","+0060,1","99999,9",,,,,,"10180,1,99999,9",,,,,"MET045METAR EDBC 281550Z 23008KT CAVOK 10/06 Q1018;",
"10616499999","2010-10-28T16:50:00","4","51.854992","11.418889","180.0","COCHSTEDT, GM","FM-15","EDBC ","V020","210,1,N,0036,1","99999,9,9,Y","009900,1,N,1","+0090,1","+0050,1","99999,9",,,,,,"10180,1,99999,9",,,,,"MET045METAR EDBC 281650Z 21007KT CAVOK 09/05 Q1018;",
"10616499999","2010-10-28T17:20:00","4","51.854992","11.418889","180.0","COCHSTEDT, GM","FM-15","EDBC ","V020","230,1,N,0041,1","99999,9,9,Y","009900,1,N,1","+0090,1","+0050,1","99999,9",,,,,,"10180,1,99999,9",,,,,"MET045METAR EDBC 281720Z 23008KT CAVOK 09/05 Q1018;",
"10616499999","2010-10-28T17:50:00","4","51.854992","11.418889","180.0","COCHSTEDT, GM","FM-15","EDBC ","V020","170,1,N,0031,1","99999,9,9,Y","009900,1,N,1","+0080,1","+0050,1","99999,9",,,,,,"10190,1,99999,9",,,,,"MET045METAR EDBC 281750Z 17006KT CAVOK 08/05 Q1019;",
"10616499999","2010-10-28T18:20:00","4","51.854992","11.418889","180.0","COCHSTEDT, GM","FM-15","EDBC ","V020","190,1,N,0026,1","99999,9,9,Y","009900,1,N,1","+0070,1","+0050,1","99999,9",,,,,,"10190,1,99999,9",,,,,"MET045METAR EDBC 281820Z 19005KT CAVOK 07/05 Q1019;",
"10616499999","2010-10-28T18:50:00","4","51.854992","11.418889","180.0","COCHSTEDT, GM","FM-15","EDBC ","V020","210,1,N,0031,1","99999,9,9,Y","009900,1,N,1","+0080,1","+0050,1","99999,9",,,,,,"10190,1,99999,9",,,,,"MET045METAR EDBC 281850Z 21006KT CAVOK 08/05 Q1019;",
"10616499999","2010-10-29T04:20:00","4","51.854992","11.418889","180.0","COCHSTEDT, GM","FM-15","EDBC ","V020","200,1,N,0046,1","22000,1,9,N","008000,1,N,1","+0050,1","+0040,1","99999,9","02,5,+00600,1,99,9",,,"02,99,1,99,9,99,9,99999,9,99,9,99,9",,"10169,1,99999,9",,,,,"MET051METAR EDBC 290420Z 20009KT 8000 FEW020 05/04 Q1017;",
"10616499999","2010-10-29T04:50:00","4","51.854992","11.418889","180.0","COCHSTEDT, GM","FM-15","EDBC ","V020","190,1,N,0036,1","22000,1,9,N","008000,1,N,1","+0040,1","+0030,1","99999,9","02,5,+00660,1,99,9",,,"02,99,1,99,9,99,9,99999,9,99,9,99,9",,"10159,1,99999,9",,,,,"MET051METAR EDBC 290450Z 19007KT 8000 FEW022 04/03 Q1016;",
"10616499999","2010-10-29T05:20:00","4","51.854992","11.418889","180.0","COCHSTEDT, GM","FM-15","EDBC ","V020","190,1,N,0041,1","22000,1,9,N","008000,1,N,1","+0040,1","+0030,1","99999,9",,,,"00,99,1,99,9,99,9,99999,9,99,9,99,9",,"10159,1,99999,9",,,,,"MET048METAR EDBC 290520Z 19008KT 8000 NSC 04/03 Q1016;","Q01    003SCCGA1"
"10616499999","2010-10-29T05:50:00","4","51.854992","11.418889","180.0","COCHSTEDT, GM","FM-15","EDBC ","V020","190,1,N,0051,1","99999,9,9,Y","009900,1,N,1","+0040,1","+0040,1","99999,9",,,,,,"10159,1,99999,9",,,,,"MET045METAR EDBC 290550Z 19010KT CAVOK 04/04 Q1016;",
"10616499999","2010-10-29T06:20:00","4","51.854992","11.418889","180.0","COCHSTEDT, GM","FM-15","EDBC ","V020","200,1,N,0057,1","99999,9,9,Y","009900,1,N,1","+0060,1","+0040,1","99999,9",,,,,,"10159,1,99999,9",,,,,"MET045METAR EDBC 290620Z 20011KT CAVOK 06/04 Q1016;",
"10616499999","2010-10-29T06:50:00","4","51.854992","11.418889","180.0","COCHSTEDT, GM","FM-15","EDBC ","V020","200,1,N,0062,1","99999,9,9,Y","009900,1,N,1","+0080,1","+0050,1","99999,9",,,,,,"10159,1,99999,9",,,,,"MET045METAR EDBC 290650Z 20012KT CAVOK 08/05 Q1016;",
"10616499999","2010-10-29T07:20:00","4","51.854992","11.418889","180.0","COCHSTEDT, GM","FM-15","EDBC ","V020","190,1,N,0057,1","99999,9,9,Y","009900,1,N,1","+0080,1","+0050,1","99999,9",,,,,,"10159,1,99999,9",,,,,"MET045METAR EDBC 290720Z 19011KT CAVOK 08/05 Q1016;",
"10616499999","2010-10-29T07:50:00","4","51.854992","11.418889","180.0","COCHSTEDT, GM","FM-15","EDBC ","V020","210,1,N,0057,1","99999,9,9,Y","009900,1,N,1","+0080,1","+0050,1","99999,9",,,,,,"10149,1,99999,9",,,,,"MET045METAR EDBC 290750Z 21011KT CAVOK 08/05 Q1015;",
"10616499999","2010-10-29T08:20:00","4","51.854992","11.418889","180.0","COCHSTEDT, GM","FM-15","EDBC ","V020","190,1,N,0046,1","99999,9,9,Y","009900,1,N,1","+0090,1","+0060,1","99999,9",,,,,,"10149,1,99999,9",,,,,"MET045METAR EDBC 290820Z 19009KT CAVOK 09/06 Q1015;",
"10616499999","2010-10-29T08:50:00","4","51.854992","11.418889","180.0","COCHSTEDT, GM","FM-15","EDBC ","V020","190,1,N,0057,1","99999,9,9,Y","009900,1,N,1","+0100,1","+0060,1","99999,9",,,,,,"10149,1,99999,9",,,,,"MET045METAR EDBC 290850Z 19011KT CAVOK 10/06 Q1015;",
"10616499999","2010-10-29T09:20:00","4","51.854992","11.418889","180.0","COCHSTEDT, GM","FM-15","EDBC ","V020","200,1,N,0062,1","99999,9,9,Y","009900,1,N,1","+0100,1","+0060,1","99999,9",,,,,,"10149,1,99999,9",,,,,"MET045METAR EDBC 290920Z 20012KT CAVOK 10/06 Q1015;",
"10616499999","2010-10-29T09:50:00","4","51.854992","11.418889","180.0","COCHSTEDT, GM","FM-15","EDBC ","V020","200,1,N,0057,1","99999,9,9,Y","009900,1,N,1","+0110,1","+0060,1","99999,9",,,,,,"10149,1,99999,9",,,,,"MET045METAR EDBC 290950Z 20011KT CAVOK 11/06 Q1015;",
"10616499999","2010-10-29T10:20:00","4","51.854992","11.418889","180.0","COCHSTEDT, GM","FM-15","EDBC ","V020","200,1,N,0067,1","99999,9,9,Y","009900,1,N,1","+0120,1","+0060,1","99999,9",,,,,,"10139,1,99999,9",,,,,"MET045METAR EDBC 291020Z 20013KT CAVOK 12/06 Q1014;",
"10616499999","2010-10-29T10:50:00","4","51.854992","11.418889","180.0","COCHSTEDT, GM","FM-15","EDBC ","V020","180,1,N,0062,1","99999,9,9,Y","009900,1,N,1","+0130,1","+0060,1","99999,9",,,,,,"10139,1,99999,9",,,,,"MET045METAR EDBC 291050Z 18012KT CAVOK 13/06 Q1014;",
"10616499999","2010-10-29T11:20:00","4","51.854992","11.418889","180.0","COCHSTEDT, GM","FM-15","EDBC ","V020","180,1,N,0057,1","99999,9,9,Y","009900,1,N,1","+0130,1","+0060,1","99999,9",,,,,,"10139,1,99999,9",,,,,"MET045METAR EDBC 291120Z 18011KT CAVOK 13/06 Q1014;",
"10616499999","2010-10-29T11:50:00","4","51.854992","11.418889","180.0","COCHSTEDT, GM","FM-15","EDBC ","V020","170,1,N,0051,1","99999,9,9,Y","009900,1,N,1","+0140,1","+0070,1","99999,9",,,,,,"10129,1,99999,9",,,,,"MET045METAR EDBC 291150Z 17010KT CAVOK 14/07 Q1013;",
"10616499999","2010-10-29T12:20:00","4","51.854992","11.418889","180.0","COCHSTEDT, GM","FM-15","EDBC ","V020","200,1,N,0067,1","99999,9,9,Y","009900,1,N,1","+0140,1","+0060,1","99999,9",,,,,,"10129,1,99999,9",,,,,"MET045METAR EDBC 291220Z 20013KT CAVOK 14/06 Q1013;",
"10616499999","2010-10-29T12:50:00","4","51.854992","11.418889","180.0","COCHSTEDT, GM","FM-15","EDBC ","V020","180,1,N,0067,1","99999,9,9,Y","009900,1,N,1","+0130,1","+0060,1","99999,9",,,,,,"10119,1,99999,9",,,,,"MET045METAR EDBC 291250Z 18013KT CAVOK 13/06 Q1012;",
"10616499999","2010-10-29T13:20:00","4","51.854992","11.418889","180.0","COCHSTEDT, GM","FM-15","EDBC ","V020","180,1,N,0062,1","99999,9,9,Y","009900,1,N,1","+0130,1","+0060,1","99999,9",,,,,,"10119,1,99999,9",,,,,"MET045METAR EDBC 291320Z 18012KT CAVOK 13/06 Q1012;",
"10616499999","2010-10-29T13:50:00","4","51.854992","11.418889","180.0","COCHSTEDT, GM","FM-15","EDBC ","V020","160,1,N,0057,1","99999,9,9,Y","009900,1,N,1","+0130,1","+0060,1","99999,9",,,,,,"10119,1,99999,9",,,,,"MET045METAR EDBC 291350Z 16011KT CAVOK 13/06 Q1012;",
"10616499999","2010-11-01T05:20:00","4","51.854992","11.418889","180.0","COCHSTEDT, GM","FM-15","EDBC ","V020","310,1,N,0026,1","22000,1,9,N","005000,1,N,1","+0050,1","+0050,1","99999,9",,,,"00,99,1,99,9,99,9,99999,9,99,9,99,9",,"10061,1,99999,9","10,1",,,,"MET051METAR EDBC 010520Z 31005KT 5000 BR NSC 05/05 Q1006;","Q01    003SCCGA1"
"10616499999","2010-11-01T05:50:00","4","51.854992","11.418889","180.0","COCHSTEDT, GM","FM-15","EDBC ","V020","290,1,N,0021,1","22000,1,9,N","004000,1,N,1","+0050,1","+0050,1","99999,9",,,,"00,99,1,99,9,99,9,99999,9,99,9,99,9",,"10071,1,99999,9","10,1",,,,"MET051METAR EDBC 010550Z 29004KT 4000 BR NSC 05/05 Q1007;","Q01    003SCCGA1"
"10616499999","2010-11-01T06:20:00","4","51.854992","11.418889","180.0","COCHSTEDT, GM","FM-15","EDBC ","V020","300,1,N,0021,1","22000,1,9,N","004000,1,N,1","+0050,1","+0050,1","99999,9",,,,"00,99,1,99,9,99,9,99999,9,99,9,99,9",,"10071,1,99999,9","10,1",,,,"MET051METAR EDBC 010620Z 30004KT 4000 BR NSC 05/05 Q1007;","Q01    003SCCGA1"
"10616499999","2010-11-01T06:50:00","4","51.854992","11.418889","180.0","COCHSTEDT, GM","FM-15","EDBC ","V020","310,1,N,0036,1","22000,1,9,N","005000,1,N,1","+0060,1","+0050,1","99999,9",,,,"00,99,1,99,9,99,9,99999,9,99,9,99,9",,"10071,1,99999,9","10,1",,,,"MET051METAR EDBC 010650Z 31007KT 5000 BR NSC 06/05 Q1007;","Q01    003SCCGA1"
"10616499999","2010-11-01T07:20:00","4","51.854992","11.418889","180.0","COCHSTEDT, GM","FM-15","EDBC ","V020","320,1,N,0031,1","22000,1,9,N","005000,1,N,1","+0060,1","+0050,1","99999,9",,,,"00,99,1,99,9,99,9,99999,9,99,9,99,9",,"10071,1,99999,9","10,1",,,,"MET051METAR EDBC 010720Z 32006KT 5000 BR NSC 06/05 Q1007;","Q01    003SCCGA1"
"10616499999","2010-11-01T07:50:00","4","51.854992","11.418889","180.0","COCHSTEDT, GM","FM-15","EDBC ","V020","330,1,N,0026,1","22000,1,9,N","006000,1,N,1","+0070,1","+0050,1","99999,9",,,,"00,99,1,99,9,99,9,99999,9,99,9,99,9",,"10071,1,99999,9","10,1",,,,"MET051METAR EDBC 010750Z 33005KT 6000 BR NSC 07/05 Q1007;","Q01    003SCCGA1"
"10616499999","2010-11-01T08:20:00","4","51.854992","11.418889","180.0","COCHSTEDT, GM","FM-15","EDBC ","V020","330,1,N,0026,1","22000,1,9,N","005000,1,N,1","+0070,1","+0060,1","99999,9",,,,"00,99,1,99,9,99,9,99999,9,99,9,99,9",,"10071,1,99999,9","10,1",,,,"MET051METAR EDBC 010820Z 33005KT 5000 BR NSC 07/06 Q1007;","Q01    003SCCGA1"
"10616499999","2010-11-01T08:50:00","4","51.854992","11.418889","180.0","COCHSTEDT, GM","FM-15","EDBC ","V020","330,1,N,0031,1","22000,1,9,N","005000,1,N,1","+0080,1","+0060,1","99999,9",,,,"00,99,1,99,9,99,9,99999,9,99,9,99,9",,"10071,1,99999,9","10,1",,,,"MET051METAR EDBC 010850Z 33006KT 5000 BR NSC 08/06 Q1007;","Q01    003SCCGA1"
"10616499999","2010-11-01T09:20:00","4","51.854992","11.418889","180.0","COCHSTEDT, GM","FM-15","EDBC ","V020","330,1,N,0031,1","22000,1,9,N","005000,1,N,1","+0080,1","+0060,1","99999,9",,,,"00,99,1,99,9,99,9,99999,9,99,9,99,9",,"10081,1,99999,9","10,1",,,,"MET051METAR EDBC 010920Z 33006KT 5000 BR NSC 08/06 Q1008;","Q01    003SCCGA1"
"10616499999","2010-11-01T09:50:00","4","51.854992","11.418889","180.0","COCHSTEDT, GM","FM-15","EDBC ","V020","330,1,N,0031,1","22000,1,9,N","005000,1,N,1","+0080,1","+0060,1","99999,9",,,,"00,99,1,99,9,99,9,99999,9,99,9,99,9",,"10081,1,99999,9","10,1",,,,"MET051METAR EDBC 010950Z 33006KT 5000 BR NSC 08/06 Q1008;","Q01    003SCCGA1"
"10616499999","2010-11-01T10:20:00","4","51.854992","11.418889","180.0","COCHSTEDT, GM","FM-15","EDBC ","V020","340,1,N,0036,1","22000,1,9,N","005000,1,N,1","+0080,1","+0060,1","99999,9",,,,"00,99,1,99,9,99,9,99999,9,99,9,99,9",,"10081,1,99999,9","10,1",,,,"MET051METAR EDBC 011020Z 34007KT 5000 BR NSC 08/06 Q1008;","Q01    003SCCGA1"
"10616499999","2010-11-01T10:50:00","4","51.854992","11.418889","180.0","COCHSTEDT, GM","FM-15","EDBC ","V020","330,1,N,0036,1","22000,1,9,N","005000,1,N,1","+0080,1","+0060,1","99999,9",,,,"00,99,1,99,9,99,9,99999,9,99,9,99,9",,"10081,1,99999,9","10,1",,,,"MET051METAR EDBC 011050Z 33007KT 5000 BR NSC 08/06 Q1008;","Q01    003SCCGA1"
"10616499999","2010-11-01T11:20:00","4","51.854992","11.418889","180.0","COCHSTEDT, GM","FM-15","EDBC ","V020","340,1,N,0051,1","22000,1,9,N","005000,1,N,1","+0080,1","+0060,1","99999,9",,,,"00,99,1,99,9,99,9,99999,9,99,9,99,9",,"10081,1,99999,9","10,1",,,,"MET051METAR EDBC 011120Z 34010KT 5000 BR NSC 08/06 Q1008;","Q01    003SCCGA1"
"10616499999","2010-11-01T11:50:00","4","51.854992","11.418889","180.0","COCHSTEDT, GM","FM-15","EDBC ","V020","330,1,N,0051,1","22000,1,9,N","005000,1,N,1","+0080,1","+0060,1","99999,9",,,,"00,99,1,99,9,99,9,99999,9,99,9,99,9",,"10081,1,99999,9","10,1",,,,"MET051METAR EDBC 011150Z 33010KT 5000 BR NSC 08/06 Q1008;","Q01    003SCCGA1"
"10616499999","2010-11-01T12:20:00","4","51.854992","11.418889","180.0","COCHSTEDT, GM","FM-15","EDBC ","V020","320,1,N,0041,1","22000,1,9,N","005000,1,N,1","+0090,1","+0070,1","99999,9",,,,"00,99,1,99,9,99,9,99999,9,99,9,99,9",,"10081,1,99999,9","10,1",,,,"MET051METAR EDBC 011220Z 32008KT 5000 BR NSC 09/07 Q1008;","Q01    003SCCGA1"
"10616499999","2010-11-01T12:50:00","4","51.854992","11.418889","180.0","COCHSTEDT, GM","FM-15","EDBC ","V020","310,1,N,0046,1","22000,1,9,N","011265,1,N,1","+0080,1","+0060,1","99999,9",,,,,,"10080,1,99999,9",,,,,"MET052METAR EDBC 011250Z 31009KT 9999 BKN NSC 08/06 Q1008;",
"10616499999","2010-11-01T13:20:00","4","51.854992","11.418889","180.0","COCHSTEDT, GM","FM-15","EDBC ","V020","310,1,N,0046,1","22000,1,9,N","008000,1,N,1","+0080,1","+0060,1","99999,9",,,,"00,99,1,99,9,99,9,99999,9,99,9,99,9",,"10081,1,99999,9",,,,,"MET048METAR EDBC 011320Z 31009KT 8000 NSC 08/06 Q1008;","Q01    003SCCGA1"
"10616499999","2010-11-01T13:50:00","4","51.854992","11.418889","180.0","COCHSTEDT, GM","FM-15","EDBC ","V020","320,1,N,0041,1","22000,1,9,N","007000,1,N,1","+0080,1","+0060,1","99999,9",,,,"00,99,1,99,9,99,9,99999,9,99,9,99,9",,"10081,1,99999,9",,,,,"MET056METAR EDBC 011350Z 32008KT 290V350 7000 NSC 08/06 Q1008;","Q01    003SCCGA1"
"10616499999","2010-11-01T14:20:00","4","51.854992","11.418889","180.0","COCHSTEDT, GM","FM-15","EDBC ","V020","310,1,N,0036,1","22000,1,9,N","007000,1,N,1","+0080,1","+0070,1","99999,9","02,5,+00180,1,99,9",,,"02,99,1,99,9,99,9,99999,9,99,9,99,9",,"10091,1,99999,9",,,,,"MET051METAR EDBC 011420Z 31007KT 7000 FEW006 08/07 Q1009;",
"10616499999","2010-11-01T14:50:00","4","51.854992","11.418889","180.0","COCHSTEDT, GM","FM-15","EDBC ","V020","310,1,N,0057,1","22000,1,9,N","007000,1,N,1","+0080,1","+0060,1","99999,9","02,5,+00180,1,99,9",,,"02,99,1,99,9,99,9,99999,9,99,9,99,9",,"10091,1,99999,9","10,1",,,,"MET054METAR EDBC 011450Z 31011KT 7000 BR FEW006 08/06 Q1009;",
"10616499999","2010-11-02T05:20:00","4","51.854992","11.418889","180.0","COCHSTEDT, GM","FM-15","EDBC ","V020","270,1,N,0021,1","00480,1,C,N","005000,1,N,1","+0080,1","+0060,1","99999,9","07,5,+00480,1,99,9",,,"07,99,1,99,9,99,9,99999,9,99,9,99,9",,"10129,1,99999,9","10,1",,,,"MET054METAR EDBC 020520Z 27004KT 5000 BR BKN016 08/06 Q1013;",
"10616499999","2010-11-02T05:50:00","4","51.854992","11.418889","180.0","COCHSTEDT, GM","FM-15","EDBC ","V020","270,1,N,0015,1","22000,1,9,N","004000,1,N,1","+0080,1","+0060,1","99999,9",,,,,,"10130,1,99999,9","10,1",,,,"MET055METAR EDBC 020550Z 27003KT 4000 BR BKN 016 08/06 Q1013;",
"10616499999","2010-11-02T06:20:00","4","51.854992","11.418889","180.0","COCHSTEDT, GM","FM-15","EDBC ","V020","250,1,N,0015,1","00450,1,C,N","004000,1,N,1","+0070,1","+0060,1","99999,9","07,5,+00450,1,99,9",,,"07,99,1,99,9,99,9,99999,9,99,9,99,9",,"10129,1,99999,9","10,1",,,,"MET054METAR EDBC 020620Z 25003KT 4000 BR BKN015 07/06 Q1013;",
"10616499999","2010-11-02T06:50:00","4","51.854992","11.418889","180.0","COCHSTEDT, GM","FM-15","EDBC ","V020","230,1,N,0026,1","00480,1,C,N","003000,1,N,1","+0070,1","+0070,1","99999,9","08,5,+00480,1,99,9",,,"08,99,1,99,9,99,9,99999,9,99,9,99,9",,"10129,1,99999,9","10,1",,,,"MET054METAR EDBC 020650Z 23005KT 3000 BR OVC016 07/07 Q1013;",
"10616499999","2010-11-02T07:20:00","4","51.854992","11.418889","180.0","COCHSTEDT, GM","FM-15","EDBC ","V020","240,1,N,0026,1","00480,1,C,N","004000,1,N,1","+0070,1","+0070,1","99999,9","08,5,+00480,1,99,9",,,"08,99,1,99,9,99,9,99999,9,99,9,99,9",,"10139,1,99999,9","10,1",,,,"MET054METAR EDBC 020720Z 24005KT 4000 BR OVC016 07/07 Q1014;",
"10616499999","2010-11-02T07:50:00","4","51.854992","11.418889","180.0","COCHSTEDT, GM","FM-15","EDBC ","V020","210,1,N,0021,1","00420,1,C,N","003000,1,N,1","+0080,1","+0070,1","99999,9","08,5,+00420,1,99,9",,,"08,99,1,99,9,99,9,99999,9,99,9,99,9",,"10139,1,99999,9","10,1",,,,"MET062METAR EDBC 020750Z 21004KT 180V240 3000 BR OVC014 08/07 Q1014;",
"10616499999","2010-11-02T08:20:00","4","51.854992","11.418889","180.0","COCHSTEDT, GM","FM-15","EDBC ","V020","230,1,N,0021,1","00360,1,C,N","004000,1,N,1","+0080,1","+0070,1","99999,9","07,5,+00360,1,99,9",,,"07,99,1,99,9,99,9,99999,9,99,9,99,9",,"10139,1,99999,9","10,1",,,,"MET054METAR EDBC 020820Z 23004KT 4000 BR BKN012 08/07 Q1014;",
"10616499999","2010-11-02T08:50:00","4","51.854992","11.418889","180.0","COCHSTEDT, GM","FM-15","EDBC ","V020","240,1,N,0036,1","00360,1,C,N","005000,1,N,1","+0080,1","+0060,1","99999,9","07,5,+00360,1,99,9",,,"07,99,1,99,9,99,9,99999,9,99,9,99,9",,"10139,1,99999,9","10,1",,,,"MET054METAR EDBC 020850Z 24007KT 5000 BR BKN012 08/06 Q1014;",
"10616499999","2010-11-02T09:20:00","4","51.854992","11.418889","180.0","COCHSTEDT, GM","FM-15","EDBC ","V020","200,1,N,0031,1","00360,1,C,N","005000,1,N,1","+0080,1","+0060,1","99999,9","02,5,+00300,1,99,9","07,5,+00360,1,99,9",,"07,99,1,99,9,99,9,99999,9,99,9,99,9",,"10129,1,99999,9","10,1",,,,"MET061METAR EDBC 020920Z 20006KT 5000 BR FEW010 BKN012 08/06 Q1013;",
"10616499999","2010-11-02T09:50:00","4","51.854992","11.418889","180.0","COCHSTEDT, GM","FM-15","EDBC ","V020","200,1,N,0041,1","00360,1,C,N","008000,1,N,1","+0080,1","+0060,1","99999,9","07,5,+00360,1,99,9",,,"07,99,1,99,9,99,9,99999,9,99,9,99,9",,"10129,1,99999,9",,,,,"MET051METAR EDBC 020950Z 20008KT 8000 BKN012 08/06 Q1013;",
"10616499999","2010-11-02T10:20:00","4","51.854992","11.418889","180.0","COCHSTEDT, GM","FM-15","EDBC ","V020","220,1,N,0036,1","00360,1,C,N","011265,1,N,1","+0080,1","+0060,1","99999,9","07,5,+00360,1,99,9",,,"07,99,1,99,9,99,9,99999,9,99,9,99,9",,"10139,1,99999,9",,,,,"MET051METAR EDBC 021020Z 22007KT 9999 BKN012 08/06 Q1014;",
"10616499999","2010-11-02T10:50:00","4","51.854992","11.418889","180.0","COCHSTEDT, GM","FM-15","EDBC ","V020","240,1,N,0041,1","00330,1,C,N","011265,1,N,1","+0080,1","+0060,1","99999,9","07,5,+00330,1,99,9",,,"07,99,1,99,9,99,9,99999,9,99,9,99,9",,"10139,1,99999,9",,,,,"MET051METAR EDBC 021050Z 24008KT 9999 BKN011 08/06 Q1014;",
"10616499999","2010-11-02T11:20:00","4","51.854992","11.418889","180.0","COCHSTEDT, GM","FM-15","EDBC ","V020","230,1,N,0046,1","00390,1,C,N","011265,1,N,1","+0080,1","+0050,1","99999,9","07,5,+00390,1,99,9",,,"07,99,1,99,9,99,9,99999,9,99,9,99,9",,"10129,1,99999,9",,,,,"MET051METAR EDBC 021120Z 23009KT 9999 BKN013 08/05 Q1013;",
"10616499999","2010-11-02T11:50:00","4","51.854992","11.418889","180.0","COCHSTEDT, GM","FM-15","EDBC ","V020","230,1,N,0041,1","00420,1,C,N","011265,1,N,1","+0080,1","+0050,1","99999,9","07,5,+00420,1,99,9",,,"07,99,1,99,9,99,9,99999,9,99,9,99,9",,"10129,1,99999,9",,,,,"MET051METAR EDBC 021150Z 23008KT 9999 BKN014 08/05 Q1013;",
"10616499999","2010-11-02T12:20:00","4","51.854992","11.418889","180.0","COCHSTEDT, GM","FM-15","EDBC ","V020","230,1,N,0046,1","00450,1,C,N","011265,1,N,1","+0090,1","+0050,1","99999,9","07,5,+00450,1,99,9",,,"07,99,1,99,9,99,9,99999,9,99,9,99,9",,"10119,1,99999,9",,,,,"MET051METAR EDBC 021220Z 23009KT 9999 BKN015 09/05 Q1012;",
"10616499999","2010-11-02T12:50:00","4","51.854992","11.418889","180.0","COCHSTEDT, GM","FM-15","EDBC ","V020","220,1,N,0046,1","22000,1,9,N","011265,1,N,1","+0090,1","+0060,1","99999,9","04,5,+00450,1,99,9",,,"04,99,1,99,9,99,9,99999,9,99,9,99,9",,"10119,1,99999,9",,,,,"MET051METAR EDBC 021250Z 22009KT 9999 SCT015 09/06 Q1012;",
"10616499999","2010-11-02T13:20:00","4","51.854992","11.418889","180.0","COCHSTEDT, GM","FM-15","EDBC ","V020","240,1,N,0051,1","22000,1,9,N","011265,1,N,1","+0100,1","+0060,1","99999,9","02,5,+00480,1,99,9",,,"02,99,1,99,9,99,9,99999,9,99,9,99,9",,"10119,1,99999,9",,,,,"MET051METAR EDBC 021320Z 24010KT 9999 FEW016 10/06 Q1012;",
"10616499999","2010-11-02T13:50:00","4","51.854992","11.418889","180.0","COCHSTEDT, GM","FM-15","EDBC ","V020","240,1,N,0041,1","99999,9,9,Y","009900,1,N,1","+0100,1","+0060,1","99999,9",,,,,,"10119,1,99999,9",,,,,"MET045METAR EDBC 021350Z 24008KT CAVOK 10/06 Q1012;",
"10616499999","2010-11-02T14:20:00","4","51.854992","11.418889","180.0","COCHSTEDT, GM","FM-15","EDBC ","V020","240,1,N,0046,1","99999,9,9,Y","009900,1,N,1","+0090,1","+0060,1","99999,9",,,,,,"10129,1,99999,9",,,,,"MET045METAR EDBC 021420Z 24009KT CAVOK 09/06 Q1013;",
"10616499999","2010-11-02T14:50:00","4","51.854992","11.418889","180.0","COCHSTEDT, GM","FM-15","EDBC ","V020","220,1,N,0051,1","99999,9,9,Y","009900,1,N,1","+0090,1","+0060,1","99999,9",,,,,,"10119,1,99999,9",,,,,"MET045METAR EDBC 021450Z 22010KT CAVOK 09/06 Q1012;",
"10616499999","2010-11-02T15:20:00","4","51.854992","11.418889","180.0","COCHSTEDT, GM","FM-15","EDBC ","V020","220,1,N,0041,1","99999,9,9,Y","009900,1,N,1","+0080,1","+0060,1","99999,9",,,,,,"10119,1,99999,9",,,,,"MET045METAR EDBC 021520Z 22008KT CAVOK 08/06 Q1012;",
"10616499999","2010-11-02T15:50:00","4","51.854992","11.418889","180.0","COCHSTEDT, GM","FM-15","EDBC ","V020","210,1,N,0062,1","99999,9,9,Y","009900,1,N,1","+0080,1","+0060,1","99999,9",,,,,,"10119,1,99999,9",,,,,"MET045METAR EDBC 021550Z 21012KT CAVOK 08/06 Q1012;",
"10616499999","2010-11-03T04:50:00","4","51.854992","11.418889","180.0","COCHSTEDT, GM","FM-15","EDBC ","V020","240,1,N,0051,1","22000,1,9,N","011265,1,N,1","+0110,1","+0070,1","99999,9","04,5,+00780,1,99,9",,,"04,99,1,99,9,99,9,99999,9,99,9,99,9",,"10102,1,99999,9",,,,,"MET051METAR EDBC 030450Z 24010KT 9999 SCT026 11/07 Q1010;",
"10616499999","2010-11-03T05:20:00","4","51.854992","11.418889","180.0","COCHSTEDT, GM","FM-15","EDBC ","V020","240,1,N,0072,1","22000,1,9,N","011265,1,N,1","+0110,1","+0070,1","99999,9","04,5,+00840,1,99,9",,,"04,99,1,99,9,99,9,99999,9,99,9,99,9",,"10102,1,99999,9",,,,,"MET051METAR EDBC 030520Z 24014KT 9999 SCT028 11/07 Q1010;",
"10616499999","2010-11-03T05:50:00","4","51.854992","11.418889","180.0","COCHSTEDT, GM","FM-15","EDBC ","V020","230,1,N,0082,1","03000,1,C,N","011265,1,N,1","+0110,1","+0070,1","99999,9","02,5,+00840,1,99,9","07,5,+03000,1,99,9",,"07,99,1,99,9,99,9,99999,9,99,9,99,9",,"10102,1,99999,9",,,,,"MET058METAR EDBC 030550Z 23016KT 9999 FEW028 BKN100 11/07 Q1010;",
"10616499999","2010-11-03T06:20:00","4","51.854992","11.418889","180.0","COCHSTEDT, GM","FM-15","EDBC ","V020","210,1,N,0087,1","03000,1,C,N","011265,1,N,1","+0110,1","+0070,1","99999,9","02,5,+00750,1,99,9","07,5,+03000,1,99,9",,"07,99,1,99,9,99,9,99999,9,99,9,99,9",,"10091,1,99999,9",,,,,"MET058METAR EDBC 030620Z 21017KT 9999 FEW025 BKN100 11/07 Q1009;",
"10616499999","2010-11-03T06:50:00","4","51.854992","11.418889","180.0","COCHSTEDT, GM","FM-15","EDBC ","V020","200,1,N,0082,1","99999,9,9,Y","009900,1,N,1","+0110,1","+0070,1","99999,9",,,,,,"10091,1,99999,9",,,,,"MET045METAR EDBC 030650Z 20016KT CAVOK 11/07 Q1009;",
"10616499999","2010-11-03T07:20:00","4","51.854992","11.418889","180.0","COCHSTEDT, GM","FM-15","EDBC ","V020","200,1,N,0082,1","22000,1,9,N","011265,1,N,1","+0110,1","+0070,1","99999,9","02,5,+00990,1,99,9",,,"02,99,1,99,9,99,9,99999,9,99,9,99,9",,"10102,1,99999,9",,,,,"MET051METAR EDBC 030720Z 20016KT 9999 FEW033 11/07 Q1010;",
"10616499999","2010-11-03T07:50:00","4","51.854992","11.418889","180.0","COCHSTEDT, GM","FM-15","EDBC ","V020","210,1,N,0087,1","02460,5,C,N","011265,1,N,1","+0110,1","+0070,1","99999,9","04,5,+00900,1,99,9","07,5,+02460,5,99,9",,"07,99,1,99,9,99,9,99999,9,99,9,99,9",,"10102,1,99999,9",,,,,"MET058METAR EDBC 030750Z 21017KT 9999 SCT030 BKN082 11/07 Q1010;",
"10616499999","2010-11-03T08:20:00","4","51.854992","11.418889","180.0","COCHSTEDT, GM","FM-15","EDBC ","V020","220,1,N,0077,1","22000,1,9,N","011265,1,N,1","+0110,1","+0070,1","99999,9","02,5,+00840,1,99,9",,,"02,99,1,99,9,99,9,99999,9,99,9,99,9",,"10102,1,99999,9",,,,,"MET051METAR EDBC 030820Z 22015KT 9999 FEW028 11/07 Q1010;",
"10616499999","2010-11-03T08:50:00","4","51.854992","11.418889","180.0","COCHSTEDT, GM","FM-15","EDBC ","V020","220,1,N,0077,1","99999,9,C,N","011265,1,N,1","+0120,1","+0070,1","99999,9","02,5,+00840,1,99,9","04,5,+02100,1,99,9",,"04,99,1,99,9,99,9,99999,9,99,9,99,9",,"10102,1,99999,9",,,,,"MET058METAR EDBC 030850Z 22015KT 9999 FEW028 SCT070 12/07 Q1010;","P01 021003SCOCIG"
"10616499999","2010-11-03T09:20:00","4","51.854992","11.418889","180.0","COCHSTEDT, GM","FM-15","EDBC ","V020","220,1,N,0093,1","99999,9,C,N","011265,1,N,1","+0120,1","+0080,1","99999,9","02,5,+00840,1,99,9","04,5,+02280,5,99,9",,"04,99,1,99,9,99,9,99999,9,99,9,99,9",,"10091,1,99999,9",,,,"0149,1","MET061METAR EDBC 030920Z 22018G29KT 9999 FEW028 SCT076 12/08 Q1009;","P01 022803SCOCIG"
"10616499999","2010-11-03T09:50:00","4","51.854992","11.418889","180.0","COCHSTEDT, GM","FM-15","EDBC ","V020","220,1,N,0098,1","99999,9,C,N","011265,1,N,1","+0130,1","+0080,1","99999,9","02,5,+01380,1,99,9","04,5,+02640,5,99,9",,"04,99,1,99,9,99,9,99999,9,99,9,99,9",,"10091,1,99999,9",,,,"0154,1","MET061METAR EDBC 030950Z 22019G30KT 9999 FEW046 SCT088 13/08 Q1009;","P01 026403SCOCIG"
"10616499999","2010-11-03T10:20:00","4","51.854992","11.418889","180.0","COCHSTEDT, GM","FM-15","EDBC ","V020","220,1,N,0108,1","02400,1,C,N","011265,1,N,1","+0130,1","+0080,1","99999,9","02,5,+00960,1,99,9","07,5,+02400,1,99,9",,"07,99,1,99,9,99,9,99999,9,99,9,99,9",,"10091,1,99999,9",,,,"0159,1","MET061METAR EDBC 031020Z 22021G31KT 9999 FEW032 BKN080 13/08 Q1009;",
"10616499999","2010-11-03T10:50:00","4","51.854992","11.418889","180.0","COCHSTEDT, GM","FM-15","EDBC ","V020","230,1,N,0118,1","01020,1,C,N","011265,1,N,1","+0130,1","+0080,1","99999,9","02,5,+00780,1,99,9","04,5,+01020,1,99,9","07,5,+02220,5,99,9","07,99,1,99,9,99,9,99999,9,99,9,99,9",,"10091,1,99999,9",,,,,"MET065METAR EDBC 031050Z 23023KT 9999 FEW026 SCT034 BKN074 13/08 Q1009;",
"10616499999","2010-11-03T11:20:00","4","51.854992","11.418889","180.0","COCHSTEDT, GM","FM-15","EDBC ","V020","240,1,N,0103,1","00990,1,C,N","011265,1,N,1","+0130,1","+0090,1","99999,9","02,5,+00690,1,99,9","07,5,+00990,1,99,9",,"07,99,1,99,9,99,9,99999,9,99,9,99,9",,"10102,1,99999,9",,,,,"MET058METAR EDBC 031120Z 24020KT 9999 FEW023 BKN033 13/09 Q1010;",
"10616499999","2010-11-03T11:50:00","4","51.854992","11.418889","180.0","COCHSTEDT, GM","FM-15","EDBC ","V020","230,1,N,0093,1","01080,1,C,N","011265,1,N,1","+0130,1","+0090,1","99999,9","07,5,+01080,1,99,9",,,"07,99,1,99,9,99,9,99999,9,99,9,99,9",,"10102,1,99999,9",,,,,"MET051METAR EDBC 031150Z 23018KT 9999 BKN036 13/09 Q1010;",
"10616499999","2010-11-03T12:20:00","4","51.854992","11.418889","180.0","COCHSTEDT, GM","FM-15","EDBC ","V020","230,1,N,0093,1","99999,9,C,N","011265,1,N,1","+0130,1","+0090,1","99999,9","02,5,+00660,1,99,9","04,5,+01140,1,99,9",,"04,99,1,99,9,99,9,99999,9,99,9,99,9",,"10091,1,99999,9",,,,,"MET058METAR EDBC 031220Z 23018KT 9999 FEW022 SCT038 13/09 Q1009;","P01 011403SCOCIG"
"10616499999","2010-11-03T12:50:00","4","51.854992","11.418889","180.0","COCHSTEDT, GM","FM-15","EDBC ","V020","230,1,N,0108,1","00660,1,C,N","011265,1,N,1","+0130,1","+0100,1","99999,9","02,5,+00510,1,99,9","04,5,+00660,1,99,9","07,5,+01950,5,99,9","07,99,1,99,9,99,9,99999,9,99,9,99,9",,"10102,1,99999,9",,,,,"MET065METAR EDBC 031250Z 23021KT 9999 FEW017 SCT022 BKN065 13/10 Q1010;",
"10616499999","2010-11-03T13:20:00","4","51.854992","11.418889","180.0","COCHSTEDT, GM","FM-15","EDBC ","V020","230,1,N,0082,1","22000,1,9,N","011265,1,N,1","+0130,1","+0090,1","99999,9","04,5,+00600,1,99,9",,,"04,99,1,99,9,99,9,99999,9,99,9,99,9",,"10102,1,99999,9",,,,,"MET051METAR EDBC 031320Z 23016KT 9999 SCT020 13/09 Q1010;",
"10616499999","2010-11-03T13:50:00","4","51.854992","11.418889","180.0","COCHSTEDT, GM","FM-15","EDBC ","V020","220,1,N,0067,1","00870,1,C,N","011265,1,N,1","+0130,1","+0100,1","99999,9","02,5,+00570,1,99,9","07,5,+00870,1,99,9",,"07,99,1,99,9,99,9,99999,9,99,9,99,9",,"10102,1,99999,9",,,,,"MET058METAR EDBC 031350Z 22013KT 9999 FEW019 BKN029 13/10 Q1010;",
"10616499999","2010-11-03T14:20:00","4","51.854992","11.418889","180.0","COCHSTEDT, GM","FM-15","EDBC ","V020","220,1,N,0067,1","01020,1,C,N","011265,1,N,1","+0130,1","+0100,1","99999,9","02,5,+00600,1,99,9","07,5,+01020,1,99,9",,"07,99,1,99,9,99,9,99999,9,99,9,99,9",,"10102,1,99999,9",,,,,"MET058METAR EDBC 031420Z 22013KT 9999 FEW020 BKN034 13/10 Q1010;",
"10616499999","2010-11-03T14:50:00","4","51.854992","11.418889","180.0","COCHSTEDT, GM","FM-15","EDBC ","V020","220,1,N,0067,1","01050,1,C,N","011265,1,N,1","+0130,1","+0100,1","99999,9","02,5,+00600,1,99,9","07,5,+01050,1,99,9",,"07,99,1,99,9,99,9,99999,9,99,9,99,9",,"10108,1,99999,9","61,1",,,,"MET062METAR EDBC 031450Z 22013KT 9999 -RA FEW020 BKN035 13/10 Q1011;",
"10616499999","2010-11-03T15:20:00","4","51.854992","11.418889","180.0","COCHSTEDT, GM","FM-15","EDBC ","V020","230,1,N,0067,1","00990,1,C,N","011265,1,N,1","+0130,1","+0100,1","99999,9","02,5,+00600,1,99,9","07,5,+00990,1,99,9",,"07,99,1,99,9,99,9,99999,9,99,9,99,9",,"10108,1,99999,9","61,1",,,"0118,1","MET065METAR EDBC 031520Z 23013G23KT 9999 -RA FEW020 BKN033 13/10 Q1011;",
"10616499999","2010-11-03T15:50:00","4","51.854992","11.418889","180.0","COCHSTEDT, GM","FM-15","EDBC ","V020","250,1,N,0082,1","00630,1,C,N","004000,1,N,1","+0120,1","+0110,1","99999,9","07,5,+00630,1,99,9","08,5,+00870,1,99,9",,"08,99,1,99,9,99,9,99999,9,99,9,99,9",,"10108,1,99999,9","63,1",,,,"MET061METAR EDBC 031550Z 25016KT 4000 RA BKN021 OVC029 12/11 Q1011;",
"10616499999","2010-11-03T16:20:00","4","51.854992","11.418889","180.0","COCHSTEDT, GM","FM-15","EDBC ","V020","250,1,N,0067,1","01500,1,C,N","009000,1,N,1","+0120,1","+0100,1","99999,9","02,5,+00270,1,99,9","07,5,+01500,1,99,9",,"07,99,1,99,9,99,9,99999,9,99,9,99,9",,"10119,1,99999,9",,,,,"MET058METAR EDBC 031620Z 25013KT 9000 FEW009 BKN050 12/10 Q1012;",
"10616499999","2010-11-03T16:50:00","4","51.854992","11.418889","180.0","COCHSTEDT, GM","FM-15","EDBC ","V020","260,1,N,0072,1","99999,9,C,N","011265,1,N,1","+0120,1","+0080,1","99999,9","02,5,+00600,1,99,9","04,5,+02400,1,99,9",,"04,99,1,99,9,99,9,99999,9,99,9,99,9",,"10119,1,99999,9",,,,,"MET058METAR EDBC 031650Z 26014KT 9999 FEW020 SCT080 12/08 Q1012;","P01 024003SCOCIG"
"10616499999","2010-11-04T05:20:00","4","51.854992","11.418889","180.0","COCHSTEDT, GM","FM-15","EDBC ","V020","250,1,N,0082,1","00900,1,C,N","011265,1,N,1","+0130,1","+0110,1","99999,9","02,5,+00600,1,99,9","07,5,+00900,1,99,9",,"07,99,1,99,9,99,9,99999,9,99,9,99,9",,"10129,1,99999,9","51,1",,,,"MET062METAR EDBC 040520Z 25016KT 9999 -DZ FEW020 BKN030 13/11 Q1013;",
"10616499999","2010-11-04T05:50:00","4","51.854992","11.418889","180.0","COCHSTEDT, GM","FM-15","EDBC ","V020","240,1,N,0077,1","00900,1,C,N","008000,1,N,1","+0140,1","+0120,1","99999,9","04,5,+00600,1,99,9","07,5,+00900,1,99,9",,"07,99,1,99,9,99,9,99999,9,99,9,99,9",,"10119,1,99999,9","53,1","63,1",,,"MET065METAR EDBC 040550Z 24015KT 8000 SHDZRA SCT020 BKN030 14/12 Q1012;",
"10616499999","2010-11-04T06:20:00","4","51.854992","11.418889","180.0","COCHSTEDT, GM","FM-15","EDBC ","V020","240,1,N,0093,1","00960,1,C,N","011265,1,N,1","+0140,1","+0120,1","99999,9","02,5,+00630,1,99,9","04,5,+00960,1,99,9","07,5,+02160,5,99,9","07,99,1,99,9,99,9,99999,9,99,9,99,9",,"10119,1,99999,9",,,,,"MET070METAR EDBC 040620Z 24018KT 9999 FEW021 SCT032 BKN072 14/12 Q1012 RERA;",
"10616499999","2010-11-04T06:50:00","4","51.854992","11.418889","180.0","COCHSTEDT, GM","FM-15","EDBC ","V020","240,1,N,0087,1","01020,1,C,N","011265,1,N,1","+0140,1","+0120,1","99999,9","02,5,+00810,1,99,9","04,5,+01020,1,99,9","07,5,+02100,1,99,9","07,99,1,99,9,99,9,99999,9,99,9,99,9",,"10129,1,99999,9",,,,,"MET064METAR EDBC 040650Z 24017KT9999 FEW027 SCT034 BKN070 14/12 Q1013;",
"10616499999","2010-11-04T07:20:00","4","51.854992","11.418889","180.0","COCHSTEDT, GM","FM-15","EDBC ","V020","230,1,N,0087,1","00990,1,C,N","011265,1,N,1","+0140,1","+0120,1","99999,9","07,5,+00990,1,99,9",,,"07,99,1,99,9,99,9,99999,9,99,9,99,9",,"10129,1,99999,9",,,,,"MET051METAR EDBC 040720Z 23017KT 9999 BKN033 14/12 Q1013;",
"10616499999","2010-11-04T07:50:00","4","51.854992","11.418889","180.0","COCHSTEDT, GM","FM-15","EDBC ","V020","240,1,N,0082,1","01080,1,C,N","011265,1,N,1","+0150,1","+0120,1","99999,9","02,5,+00840,1,99,9","07,5,+01080,1,99,9",,"07,99,1,99,9,99,9,99999,9,99,9,99,9",,"10129,1,99999,9",,,,"0134,1","MET061METAR EDBC 040750Z 24016G26KT 9999 FEW028 BKN036 15/12 Q1013;",
"10616499999","2010-11-04T08:20:00","4","51.854992","11.418889","180.0","COCHSTEDT, GM","FM-15","EDBC ","V020","240,1,N,0103,1","01080,1,C,N","011265,1,N,1","+0150,1","+0120,1","99999,9","02,5,+00780,1,99,9","07,5,+01080,1,99,9",,"07,99,1,99,9,99,9,99999,9,99,9,99,9",,"10129,1,99999,9",,,,,"MET058METAR EDBC 040820Z 24020KT 9999 FEW026 BKN036 15/12 Q1013;",
"10616499999","2010-11-04T08:50:00","4","51.854992","11.418889","180.0","COCHSTEDT, GM","FM-15","EDBC ","V020","240,1,N,0093,1","01140,1,C,N","011265,1,N,1","+0150,1","+0120,1","99999,9","02,5,+00840,1,99,9","07,5,+01140,1,99,9",,"07,99,1,99,9,99,9,99999,9,99,9,99,9",,"10129,1,99999,9",,,,,"MET058METAR EDBC 040850Z 24018KT 9999 FEW028 BKN038 15/12 Q1013;",
"10616499999","2010-11-04T09:20:00","4","51.854992","11.418889","180.0","COCHSTEDT, GM","FM-15","EDBC ","V020","240,1,N,0093,1","01140,1,C,N","011265,1,N,1","+0150,1","+0120,1","99999,9","02,5,+00780,1,99,9","04,5,+01140,1,99,9","07,5,+02040,5,99,9","07,99,1,99,9,99,9,99999,9,99,9,99,9",,"10129,1,99999,9",,,,,"MET065METAR EDBC 040920Z 24018KT 9999 FEW026 SCT038 BKN068 15/12 Q1013;",
"10616499999","2010-11-04T09:50:00","4","51.854992","11.418889","180.0","COCHSTEDT, GM","FM-15","EDBC ","V020","250,1,N,0113,1","01500,1,C,N","011265,1,N,1","+0160,1","+0120,1","99999,9","04,5,+01170,1,99,9","07,5,+01500,1,99,9",,"07,99,1,99,9,99,9,99999,9,99,9,99,9",,"10139,1,99999,9",,,,,"MET058METAR EDBC 040950Z 25022KT 9999 SCT039 BKN050 16/12 Q1014;",
"10616499999","2010-11-04T10:20:00","4","51.854992","11.418889","180.0","COCHSTEDT, GM","FM-15","EDBC ","V020","250,1,N,0087,1","00840,1,C,N","011265,1,N,1","+0150,1","+0120,1","99999,9","02,5,+00600,1,99,9","04,5,+00840,1,99,9","07,5,+01200,1,99,9","07,99,1,99,9,99,9,99999,9,99,9,99,9",,"10139,1,99999,9","80,1",,,,"MET071METAR EDBC 041020Z 25017KT 9999 -SHRA FEW020 SCT028 BKN040 15/12 Q1014;",
"10616499999","2010-11-04T10:50:00","4","51.854992","11.418889","180.0","COCHSTEDT, GM","FM-15","EDBC ","V020","250,1,N,0129,1","00960,1,C,N","011265,1,N,1","+0150,1","+0110,1","99999,9","07,5,+00960,1,99,9",,,"07,99,1,99,9,99,9,99999,9,99,9,99,9",,"10139,1,99999,9",,,,,"MET051METAR EDBC 041050Z 25025KT 9999 BKN032 15/11 Q1014;",
"10616499999","2010-11-04T11:20:00","4","51.854992","11.418889","180.0","COCHSTEDT, GM","FM-15","EDBC ","V020","240,1,N,0108,1","01380,1,C,N","011265,1,N,1","+0160,1","+0110,1","99999,9","04,5,+01020,1,99,9","07,5,+01380,1,99,9",,"07,99,1,99,9,99,9,99999,9,99,9,99,9",,"10139,1,99999,9",,,,,"MET058METAR EDBC 041120Z 24021KT 9999 SCT034 BKN046 16/11 Q1014;",
"10616499999","2010-11-04T11:50:00","4","51.854992","11.418889","180.0","COCHSTEDT, GM","FM-15","EDBC ","V020","240,1,N,0108,1","01080,1,C,N","011265,1,N,1","+0150,1","+0110,1","99999,9","08,5,+01080,1,99,9",,,"08,99,1,99,9,99,9,99999,9,99,9,99,9",,"10139,1,99999,9",,,,,"MET050METAR EDBC 041150Z 24021KT9999 OVC036 15/11 Q1014;",
"10616499999","2010-11-04T12:20:00","4","51.854992","11.418889","180.0","COCHSTEDT, GM","FM-15","EDBC ","V020","240,1,N,0118,1","00960,1,C,N","011265,1,N,1","+0150,1","+0120,1","99999,9","07,5,+00960,1,99,9",,,"07,99,1,99,9,99,9,99999,9,99,9,99,9",,"10139,1,99999,9",,,,,"MET051METAR EDBC 041220Z 24023KT 9999 BKN032 15/12 Q1014;",
"10616499999","2010-11-04T12:50:00","4","51.854992","11.418889","180.0","COCHSTEDT, GM","FM-15","EDBC ","V020","240,1,N,0103,1","00960,1,C,N","011265,1,N,1","+0150,1","+0120,1","99999,9","07,5,+00960,1,99,9",,,"07,99,1,99,9,99,9,99999,9,99,9,99,9",,"10149,1,99999,9",,,,,"MET051METAR EDBC 041250Z 24020KT 9999 BKN032 15/12 Q1015;",
"10616499999","2010-11-04T13:20:00","4","51.854992","11.418889","180.0","COCHSTEDT, GM","FM-15","EDBC ","V020","250,1,N,0087,1","01050,1,C,N","011265,1,N,1","+0150,1","+0120,1","99999,9","02,5,+00600,1,99,9","07,5,+01050,1,99,9",,"07,99,1,99,9,99,9,99999,9,99,9,99,9",,"10149,1,99999,9","61,1",,,,"MET062METAR EDBC 041320Z 25017KT 9999 -RA FEW020 BKN035 15/12 Q1015;",
"10616499999","2010-11-04T13:50:00","4","51.854992","11.418889","180.0","COCHSTEDT, GM","FM-15","EDBC ","V020","240,1,N,0098,1","00900,1,C,N","011265,1,N,1","+0150,1","+0120,1","99999,9","02,5,+00600,1,99,9","07,5,+00900,1,99,9",,"07,99,1,99,9,99,9,99999,9,99,9,99,9",,"10149,1,99999,9",,,,,"MET058METAR EDBC 041350Z 24019KT 9999 FEW020 BKN030 15/12 Q1015;",
"10616499999","2010-11-04T14:20:00","4","51.854992","11.418889","180.0","COCHSTEDT, GM","FM-15","EDBC ","V020","240,1,N,0103,1","00930,1,C,N","011265,1,N,1","+0150,1","+0120,1","99999,9","02,5,+00630,1,99,9","07,5,+00930,1,99,9",,"07,99,1,99,9,99,9,99999,9,99,9,99,9",,"10149,1,99999,9",,,,,"MET058METAR EDBC 041420Z 24020KT 9999 FEW021 BKN031 15/12 Q1015;",
"10616499999","2010-11-04T14:50:00","4","51.854992","11.418889","180.0","COCHSTEDT, GM","FM-15","EDBC ","V020","250,1,N,0093,1","00840,1,C,N","011265,1,N,1","+0150,1","+0120,1","99999,9","02,5,+00600,1,99,9","07,5,+00840,1,99,9",,"07,99,1,99,9,99,9,99999,9,99,9,99,9",,"10149,1,99999,9",,,,,"MET058METAR EDBC 041450Z 25018KT 9999 FEW020 BKN028 15/12 Q1015;",
"10616499999","2010-11-04T15:20:00","4","51.854992","11.418889","180.0","COCHSTEDT, GM","FM-15","EDBC ","V020","250,1,N,0087,1","00900,1,C,N","011265,1,N,1","+0150,1","+0120,1","99999,9","02,5,+00570,1,99,9","07,5,+00900,1,99,9",,"07,99,1,99,9,99,9,99999,9,99,9,99,9",,"10159,1,99999,9",,,,,"MET058METAR EDBC 041520Z 25017KT 9999 FEW019 BKN030 15/12 Q1016;",
"10616499999","2010-11-05T04:50:00","4","51.854992","11.418889","180.0","COCHSTEDT, GM","FM-15","EDBC ","V020","250,1,N,0118,1","22000,1,9,N","011265,1,N,1","+0140,1","+0090,1","99999,9","04,5,+01020,1,99,9",,,"04,99,1,99,9,99,9,99999,9,99,9,99,9",,"10139,1,99999,9",,,,"0170,1","MET053METAR EDBC 050450Z 25023G33KT9999 SCT034 14/09 Q1014;",
"10616499999","2010-11-05T05:20:00","4","51.854992","11.418889","180.0","COCHSTEDT, GM","FM-15","EDBC ","V020","240,1,N,0123,1","01020,1,C,N","011265,1,N,1","+0140,1","+0090,1","99999,9","07,5,+01020,1,99,9",,,"07,99,1,99,9,99,9,99999,9,99,9,99,9",,"10139,1,99999,9",,,,,"MET051METAR EDBC 050520Z 24024KT 9999 BKN034 14/09 Q1014;",
"10616499999","2010-11-05T05:50:00","4","51.854992","11.418889","180.0","COCHSTEDT, GM","FM-15","EDBC ","V020","250,1,N,0149,1","01140,1,C,N","011265,1,N,1","+0140,1","+0090,1","99999,9","07,5,+01140,1,99,9",,,"07,99,1,99,9,99,9,99999,9,99,9,99,9",,"10139,1,99999,9",,,,,"MET051METAR EDBC 050550Z 25029KT 9999 BKN038 14/09 Q1014;",
"10616499999","2010-11-05T06:20:00","4","51.854992","11.418889","180.0","COCHSTEDT, GM","FM-15","EDBC ","V020","250,1,N,0129,1","01320,1,C,N","011265,1,N,1","+0140,1","+0090,1","99999,9","02,5,+00480,1,99,9","07,5,+01320,1,99,9","07,5,+01560,5,99,9","07,99,1,99,9,99,9,99999,9,99,9,99,9",,"10149,1,99999,9",,,,,"MET065METAR EDBC 050620Z 25025KT 9999 FEW016 BKN044 BKN052 14/09 Q1015;",
"10616499999","2010-11-05T06:50:00","4","51.854992","11.418889","180.0","COCHSTEDT, GM","FM-15","EDBC ","V020","240,1,N,0129,1","01410,1,C,N","011265,1,N,1","+0140,1","+0090,1","99999,9","02,5,+00600,1,99,9","04,5,+01410,1,99,9","07,5,+01620,5,99,9","07,99,1,99,9,99,9,99999,9,99,9,99,9",,"10149,1,99999,9",,,,,"MET065METAR EDBC 050650Z 24025KT 9999 FEW020 SCT047 BKN054 14/09 Q1015;",
"10616499999","2010-11-05T07:20:00","4","51.854992","11.418889","180.0","COCHSTEDT, GM","FM-15","EDBC ","V020","250,1,N,0123,1","01410,1,C,N","011265,1,N,1","+0140,1","+0090,1","99999,9","07,5,+01410,1,99,9",,,"07,99,1,99,9,99,9,99999,9,99,9,99,9",,"10149,1,99999,9",,,,"0175,1","MET054METAR EDBC 050720Z 25024G34KT 9999 BKN047 14/09 Q1015;",
"10616499999","2010-11-05T07:50:00","4","51.854992","11.418889","180.0","COCHSTEDT, GM","FM-15","EDBC ","V020","250,1,N,0118,1","01200,1,C,N","011265,1,N,1","+0140,1","+0090,1","99999,9","07,5,+01200,1,99,9",,,"07,99,1,99,9,99,9,99999,9,99,9,99,9",,"10149,1,99999,9",,,,"0170,1","MET054METAR EDBC 050750Z 25023G33KT 9999 BKN040 14/09 Q1015;",
"10616499999","2010-11-05T08:20:00","4","51.854992","11.418889","180.0","COCHSTEDT, GM","FM-15","EDBC ","V020","240,1,N,0129,1","01230,1,C,N","011265,1,N,1","+0140,1","+0100,1","99999,9","02,5,+00930,1,99,9","04,5,+01230,1,99,9","07,5,+01950,5,99,9","07,99,1,99,9,99,9,99999,9,99,9,99,9",,"10159,1,99999,9",,,,"0180,1","MET068METAR EDBC 050820Z 24025G35KT 9999 FEW031 SCT041 BKN065 14/10 Q1016;",
"10616499999","2010-11-05T08:50:00","4","51.854992","11.418889","180.0","COCHSTEDT, GM","FM-15","EDBC ","V020","250,1,N,0123,1","00900,1,C,N","011265,1,N,1","+0140,1","+0100,1","99999,9","07,5,+00900,1,99,9",,,"07,99,1,99,9,99,9,99999,9,99,9,99,9",,"10159,1,99999,9",,,,,"MET050METAR EDBC 050850Z 25024KT9999 BKN030 14/10 Q1016;",
"10616499999","2010-11-05T09:20:00","4","51.854992","11.418889","180.0","COCHSTEDT, GM","FM-15","EDBC ","V020","240,1,N,0123,1","01320,1,C,N","011265,1,N,1","+0140,1","+0100,1","99999,9","02,5,+00780,1,99,9","07,5,+01320,1,99,9",,"07,99,1,99,9,99,9,99999,9,99,9,99,9",,"10159,1,99999,9",,,,,"MET058METAR EDBC 050920Z 24024KT 9999 FEW026 BKN044 14/10 Q1016;",
"10616499999","2010-11-05T09:50:00","4","51.854992","11.418889","180.0","COCHSTEDT, GM","FM-15","EDBC ","V020","250,1,N,0118,1","00780,1,C,N","011265,1,N,1","+0140,1","+0100,1","99999,9","02,5,+00600,1,99,9","07,5,+00780,1,99,9",,"07,99,1,99,9,99,9,99999,9,99,9,99,9",,"10169,1,99999,9",,,,,"MET058METAR EDBC 050950Z 25023KT 9999 FEW020 BKN026 14/10 Q1017;",
"10616499999","2010-11-05T10:20:00","4","51.854992","11.418889","180.0","COCHSTEDT, GM","FM-15","EDBC ","V020","240,1,N,0103,1","01140,1,C,N","011265,1,N,1","+0140,1","+0100,1","99999,9","02,5,+00600,1,99,9","07,5,+01140,1,99,9",,"07,99,1,99,9,99,9,99999,9,99,9,99,9",,"10169,1,99999,9",,,,,"MET058METAR EDBC 051020Z 24020KT 9999 FEW020 BKN038 14/10 Q1017;",
"10616499999","2010-11-05T10:50:00","4","51.854992","11.418889","180.0","COCHSTEDT, GM","FM-15","EDBC ","V020","240,1,N,0108,1","01080,1,C,N","011265,1,N,1","+0140,1","+0100,1","99999,9","07,5,+01080,1,99,9",,,"07,99,1,99,9,99,9,99999,9,99,9,99,9",,"10169,1,99999,9",,,,,"MET051METAR EDBC 051050Z 24021KT 9999 BKN036 14/10 Q1017;",
"10616499999","2010-11-05T11:20:00","4","51.854992","11.418889","180.0","COCHSTEDT, GM","FM-15","EDBC ","V020","240,1,N,0103,1","01080,1,C,N","011265,1,N,1","+0140,1","+0100,1","99999,9","02,5,+00780,1,99,9","04,5,+01080,1,99,9","07,5,+01290,1,99,9","07,99,1,99,9,99,9,99999,9,99,9,99,9",,"10169,1,99999,9",,,,,"MET065METAR EDBC 051120Z 24020KT 9999 FEW026 SCT036 BKN043 14/10 Q1017;",
"10616499999","2010-11-05T11:50:00","4","51.854992","11.418889","180.0","COCHSTEDT, GM","FM-15","EDBC ","V020","240,1,N,0103,1","00750,1,C,N","011265,1,N,1","+0140,1","+0100,1","99999,9","07,5,+00750,1,99,9",,,"07,99,1,99,9,99,9,99999,9,99,9,99,9",,"10169,1,99999,9",,,,,"MET050METAR EDBC 051150Z 24020KT9999 BKN025 14/10 Q1017;",
"10616499999","2010-11-05T12:20:00","4","51.854992","11.418889","180.0","COCHSTEDT, GM","FM-15","EDBC ","V020","240,1,N,0098,1","00690,1,C,N","009000,1,N,1","+0140,1","+0110,1","99999,9","07,5,+00690,1,99,9",,,"07,99,1,99,9,99,9,99999,9,99,9,99,9",,"10169,1,99999,9","80,1",,,,"MET058METAR EDBC 051220Z 24019KT 9000 - SHRA BKN023 14/11 Q1017;",
"10616499999","2010-11-05T12:50:00","4","51.854992","11.418889","180.0","COCHSTEDT, GM","FM-15","EDBC ","V020","230,1,N,0082,1","00660,1,C,N","011265,1,N,1","+0130,1","+0110,1","99999,9","07,5,+00660,1,99,9",,,"07,99,1,99,9,99,9,99999,9,99,9,99,9",,"10169,1,99999,9",,,,,"MET051METAR EDBC 051250Z 23016KT 9999 BKN022 13/11 Q1017;",
"10616499999","2010-11-05T13:20:00","4","51.854992","11.418889","180.0","COCHSTEDT, GM","FM-15","EDBC ","V020","240,1,N,0077,1","00780,1,C,N","011265,1,N,1","+0130,1","+0110,1","99999,9","07,5,+00780,1,99,9",,,"07,99,1,99,9,99,9,99999,9,99,9,99,9",,"10169,1,99999,9",,,,,"MET051METAR EDBC 051320Z 24015KT 9999 BKN026 13/11 Q1017;",
"10616499999","2010-11-05T13:50:00","4","51.854992","11.418889","180.0","COCHSTEDT, GM","FM-15","EDBC ","V020","240,1,N,0077,1","00750,1,C,N","011265,1,N,1","+0130,1","+0110,1","99999,9","07,5,+00750,1,99,9",,,"07,99,1,99,9,99,9,99999,9,99,9,99,9",,"10169,1,99999,9","61,1",,,,"MET055METAR EDBC 051350Z 24015KT 9999 -RA BKN025 13/11 Q1017;",
"10616499999","2010-11-05T14:20:00","4","51.854992","11.418889","180.0","COCHSTEDT, GM","FM-15","EDBC ","V020","240,1,N,0072,1","00750,1,C,N","011265,1,N,1","+0130,1","+0110,1","99999,9","07,5,+00750,1,99,9",,,"07,99,1,99,9,99,9,99999,9,99,9,99,9",,"10169,1,99999,9","61,1",,,,"MET055METAR EDBC 051420Z 24014KT 9999 -RA BKN025 13/11 Q1017;",
"10616499999","2010-11-05T14:50:00","4","51.854992","11.418889","180.0","COCHSTEDT, GM","FM-15","EDBC ","V020","250,1,N,0062,1","00720,1,C,N","011265,1,N,1","+0130,1","+0110,1","99999,9","02,5,+00600,1,99,9","07,5,+00720,1,99,9",,"07,99,1,99,9,99,9,99999,9,99,9,99,9",,"10180,1,99999,9","61,1",,,,"MET078METAR EDBC 051450Z 25012KT 9999 R26/0325VP2000D -RA FEW020 BKN024 13/11 Q1018;",
"10616499999","2010-11-08T05:20:00","4","51.854992","11.418889","180.0","COCHSTEDT, GM","FM-15","EDBC ","V020","090,1,N,0015,1","00120,1,C,N","011265,1,N,1","+0020,1","+0010,1","99999,9","07,5,+00120,1,99,9",,,"07,99,1,99,9,99,9,99999,9,99,9,99,9",,"09929,1,99999,9",,,,,"MET051METAR EDBC 080520Z 09003KT 9999 BKN004 02/01 Q0993;",
"10616499999","2010-11-08T05:50:00","4","51.854992","11.418889","180.0","COCHSTEDT, GM","FM-15","EDBC ","V020","100,1,N,0021,1","22000,1,9,N","008000,1,N,1","+0020,1","+0010,1","99999,9","04,5,+00060,1,99,9",,,"04,99,1,99,9,99,9,99999,9,99,9,99,9",,"09919,1,99999,9",,,,,"MET051METAR EDBC 080550Z 10004KT 8000 SCT002 02/01 Q0992;",
"10616499999","2010-11-08T06:20:00","4","51.854992","11.418889","180.0","COCHSTEDT, GM","FM-15","EDBC ","V020","120,1,N,0026,1","22000,1,9,N","005000,1,N,1","+0020,1","+0010,1","99999,9","02,5,+00060,1,99,9",,,"02,99,1,99,9,99,9,99999,9,99,9,99,9",,"09919,1,99999,9","10,1",,,,"MET054METAR EDBC 080620Z 12005KT 5000 BR FEW002 02/01 Q0992;",
"10616499999","2010-11-08T06:50:00","4","51.854992","11.418889","180.0","COCHSTEDT, GM","FM-15","EDBC ","V020","130,1,N,0031,1","22000,1,9,N","004000,1,N,1","+0020,1","+0020,1","99999,9","04,5,+00060,1,99,9",,,"04,99,1,99,9,99,9,99999,9,99,9,99,9",,"09919,1,99999,9","10,1",,,,"MET054METAR EDBC 080650Z 13006KT 4000 BR SCT002 02/02 Q0992;",
"10616499999","2010-11-08T07:20:00","4","51.854992","11.418889","180.0","COCHSTEDT, GM","FM-15","EDBC ","V020","130,1,N,0031,1","00090,1,C,N","004000,1,N,1","+0020,1","+0020,1","99999,9","07,5,+00090,1,99,9",,,"07,99,1,99,9,99,9,99999,9,99,9,99,9",,"09909,1,99999,9","10,1",,,,"MET054METAR EDBC 080720Z 13006KT 4000 BR BKN003 02/02 Q0991;",
"10616499999","2010-11-08T07:50:00","4","51.854992","11.418889","180.0","COCHSTEDT, GM","FM-15","EDBC ","V020","120,1,N,0026,1","00090,1,C,N","004000,1,N,1","+0020,1","+0020,1","99999,9","07,5,+00090,1,99,9",,,"07,99,1,99,9,99,9,99999,9,99,9,99,9",,"09909,1,99999,9","10,1",,,,"MET062METAR EDBC 080750Z 12005KT 090V150 4000 BR BKN003 02/02 Q0991;",
"10616499999","2010-11-08T08:20:00","4","51.854992","11.418889","180.0","COCHSTEDT, GM","FM-15","EDBC ","V020","110,1,N,0026,1","00090,1,C,N","004000,1,N,1","+0020,1","+0020,1","99999,9","07,5,+00090,1,99,9",,,"07,99,1,99,9,99,9,99999,9,99,9,99,9",,"09909,1,99999,9","10,1",,,,"MET054METAR EDBC 080820Z 11005KT 4000 BR BKN003 02/02 Q0991;",
"10616499999","2010-11-08T08:50:00","4","51.854992","11.418889","180.0","COCHSTEDT, GM","FM-15","EDBC ","V020","110,1,N,0041,1","00060,1,C,N","004000,1,N,1","+0030,1","+0020,1","99999,9","08,5,+00060,1,99,9",,,"08,99,1,99,9,99,9,99999,9,99,9,99,9",,"09909,1,99999,9","10,1",,,,"MET054METAR EDBC 080850Z 11008KT 4000 BR OVC002 03/02 Q0991;",
"10616499999","2010-11-08T09:20:00","4","51.854992","11.418889","180.0","COCHSTEDT, GM","FM-15","EDBC ","V020","120,1,N,0051,1","00060,1,C,N","004000,1,N,1","+0030,1","+0020,1","99999,9","07,5,+00060,1,99,9",,,"07,99,1,99,9,99,9,99999,9,99,9,99,9",,"09898,1,99999,9","10,1",,,,"MET054METAR EDBC 080920Z 12010KT 4000 BR BKN002 03/02 Q0990;",
"10616499999","2010-11-08T09:50:00","4","51.854992","11.418889","180.0","COCHSTEDT, GM","FM-15","EDBC ","V020","110,1,N,0041,1","00060,1,C,N","004000,1,N,1","+0030,1","+0020,1","99999,9","08,5,+00060,1,99,9",,,"08,99,1,99,9,99,9,99999,9,99,9,99,9",,"09892,1,99999,9","10,1",,,,"MET054METAR EDBC 080950Z 11008KT 4000 BR OVC002 03/02 Q0989;",
"10616499999","2010-11-08T10:20:00","4","51.854992","11.418889","180.0","COCHSTEDT, GM","FM-15","EDBC ","V020","110,1,N,0046,1","00120,1,C,N","006000,1,N,1","+0030,1","+0020,1","99999,9","07,5,+00120,1,99,9",,,"07,99,1,99,9,99,9,99999,9,99,9,99,9",,"09892,1,99999,9",,,,,"MET051METAR EDBC 081020Z 11009KT 6000 BKN004 03/02 Q0989;",
"10616499999","2010-11-08T10:50:00","4","51.854992","11.418889","180.0","COCHSTEDT, GM","FM-15","EDBC ","V020","110,1,N,0046,1","00090,1,C,N","007000,1,N,1","+0030,1","+0020,1","99999,9","07,5,+00090,1,99,9",,,"07,99,1,99,9,99,9,99999,9,99,9,99,9",,"09882,1,99999,9",,,,,"MET051METAR EDBC 081050Z 11009KT 7000 BKN003 03/02 Q0988;",
"10616499999","2010-11-08T11:20:00","4","51.854992","11.418889","180.0","COCHSTEDT, GM","FM-15","EDBC ","V020","130,1,N,0036,1","00150,1,C,N","007000,1,N,1","+0030,1","+0020,1","99999,9","08,5,+00150,1,99,9",,,"08,99,1,99,9,99,9,99999,9,99,9,99,9",,"09882,1,99999,9",,,,,"MET051METAR EDBC 081120Z 13007KT 7000 OVC005 03/02 Q0988;",
"10616499999","2010-11-08T11:50:00","4","51.854992","11.418889","180.0","COCHSTEDT, GM","FM-15","EDBC ","V020","120,1,N,0036,1","00120,1,C,N","008000,1,N,1","+0030,1","+0020,1","99999,9","08,5,+00120,1,99,9",,,"08,99,1,99,9,99,9,99999,9,99,9,99,9",,"09882,1,99999,9",,,,,"MET051METAR EDBC 081150Z 12007KT 8000 OVC004 03/02 Q0988;",
"10616499999","2010-11-08T12:20:00","4","51.854992","11.418889","180.0","COCHSTEDT, GM","FM-15","EDBC ","V020","100,1,N,0031,1","00210,1,C,N","008000,1,N,1","+0030,1","+0020,1","99999,9","04,5,+00150,1,99,9","07,5,+00210,1,99,9","08,5,+00300,1,99,9","08,99,1,99,9,99,9,99999,9,99,9,99,9",,"09871,1,99999,9",,,,,"MET065METAR EDBC 081220Z 10006KT 8000 SCT005 BKN007 OVC010 03/02 Q0987;",
"10616499999","2010-11-08T12:50:00","4","51.854992","11.418889","180.0","COCHSTEDT, GM","FM-15","EDBC ","V020","100,1,N,0026,1","00300,1,C,N","008000,1,N,1","+0030,1","+0020,1","99999,9","04,5,+00150,1,99,9","07,5,+00300,1,99,9",,"07,99,1,99,9,99,9,99999,9,99,9,99,9",,"09861,1,99999,9",,,,,"MET058METAR EDBC 081250Z 10005KT 8000 SCT005 BKN010 03/02 Q0986;",
"10616499999","2010-11-08T13:20:00","4","51.854992","11.418889","180.0","COCHSTEDT, GM","FM-15","EDBC ","V020","090,1,N,0031,1","00240,1,C,N","011265,1,N,1","+0030,1","+0020,1","99999,9","07,5,+00240,1,99,9",,,"07,99,1,99,9,99,9,99999,9,99,9,99,9",,"09861,1,99999,9",,,,,"MET051METAR EDBC 081320Z 09006KT 9999 BKN008 03/02 Q0986;",
"10616499999","2010-11-08T13:50:00","4","51.854992","11.418889","180.0","COCHSTEDT, GM","FM-15","EDBC ","V020","110,1,N,0036,1","00330,1,C,N","011265,1,N,1","+0030,1","+0020,1","99999,9","07,5,+00330,1,99,9",,,"07,99,1,99,9,99,9,99999,9,99,9,99,9",,"09851,1,99999,9",,,,,"MET051METAR EDBC 081350Z 11007KT 9999 BKN011 03/02 Q0985;",
"10616499999","2010-11-08T14:20:00","4","51.854992","11.418889","180.0","COCHSTEDT, GM","FM-15","EDBC ","V020","100,1,N,0031,1","00240,1,C,N","011265,1,N,1","+0030,1","+0020,1","99999,9","07,5,+00240,1,99,9",,,"07,99,1,99,9,99,9,99999,9,99,9,99,9",,"09851,1,99999,9",,,,,"MET059METAR EDBC 081420Z 10006KT 070V130 9999 BKN008 03/02 Q0985;",
"10616499999","2010-11-08T14:50:00","4","51.854992","11.418889","180.0","COCHSTEDT, GM","FM-15","EDBC ","V020","080,1,N,0041,1","00240,1,C,N","011265,1,N,1","+0030,1","+0020,1","99999,9","07,5,+00240,1,99,9",,,"07,99,1,99,9,99,9,99999,9,99,9,99,9",,"09851,1,99999,9",,,,,"MET051METAR EDBC 081450Z 08008KT 9999 BKN008 03/02 Q0985;",
"10616499999","2010-11-09T05:20:00","4","51.854992","11.418889","180.0","COCHSTEDT, GM","FM-15","EDBC ","V020","120,1,N,0036,1","00120,1,C,N","011265,1,N,1","+0020,1","+0010,1","99999,9","08,5,+00120,1,99,9",,,"08,99,1,99,9,99,9,99999,9,99,9,99,9",,"09800,1,99999,9",,,,,"MET051METAR EDBC 090520Z 12007KT 9999 OVC004 02/01 Q0980;",
"10616499999","2010-11-09T05:50:00","4","51.854992","11.418889","180.0","COCHSTEDT, GM","FM-15","EDBC ","V020","110,1,N,0036,1","00120,1,C,N","011265,1,N,1","+0020,1","+0010,1","99999,9","08,5,+00120,1,99,9",,,"08,99,1,99,9,99,9,99999,9,99,9,99,9",,"09800,1,99999,9",,,,,"MET051METAR EDBC 090550Z 11007KT 9999 OVC004 02/01 Q0980;",
"10616499999","2010-11-09T06:20:00","4","51.854992","11.418889","180.0","COCHSTEDT, GM","FM-15","EDBC ","V020","110,1,N,0031,1","00090,1,C,N","007000,1,N,1","+0020,1","+0010,1","99999,9","08,5,+00090,1,99,9",,,"08,99,1,99,9,99,9,99999,9,99,9,99,9",,"09800,1,99999,9",,,,,"MET051METAR EDBC 090620Z 11006KT 7000 OVC003 02/01 Q0980;",
"10616499999","2010-11-09T06:50:00","4","51.854992","11.418889","180.0","COCHSTEDT, GM","FM-15","EDBC ","V020","110,1,N,0036,1","00060,1,C,N","003000,1,N,1","+0020,1","+0010,1","99999,9","07,5,+00060,1,99,9",,,"07,99,1,99,9,99,9,99999,9,99,9,99,9",,"09810,1,99999,9","10,1",,,,"MET054METAR EDBC 090650Z 11007KT 3000 BR BKN002 02/01 Q0981;",
"10616499999","2010-11-09T07:20:00","4","51.854992","11.418889","180.0","COCHSTEDT, GM","FM-15","EDBC ","V020","130,1,N,0036,1","00060,1,C,N","003000,1,N,1","+0020,1","+0020,1","99999,9","07,5,+00060,1,99,9",,,"07,99,1,99,9,99,9,99999,9,99,9,99,9",,"09810,1,99999,9","10,1",,,,"MET054METAR EDBC 090720Z 13007KT 3000 BR BKN002 02/02 Q0981;",
"10616499999","2010-11-09T07:50:00","4","51.854992","11.418889","180.0","COCHSTEDT, GM","FM-15","EDBC ","V020","140,1,N,0041,1","00120,1,C,N","003000,1,N,1","+0020,1","+0020,1","99999,9","08,5,+00120,1,99,9",,,"08,99,1,99,9,99,9,99999,9,99,9,99,9",,"09810,1,99999,9","10,1",,,,"MET054METAR EDBC 090750Z 14008KT 3000 BR OVC004 02/02 Q0981;",
"10616499999","2010-11-09T08:20:00","4","51.854992","11.418889","180.0","COCHSTEDT, GM","FM-15","EDBC ","V020","140,1,N,0046,1","00120,1,C,N","002500,1,N,1","+0030,1","+0020,1","99999,9","07,5,+00120,1,99,9","08,5,+00150,1,99,9",,"08,99,1,99,9,99,9,99999,9,99,9,99,9",,"09810,1,99999,9","10,1",,,,"MET061METAR EDBC 090820Z 14009KT 2500 BR BKN004 OVC005 03/02 Q0981;",
"10616499999","2010-11-09T08:50:00","4","51.854992","11.418889","180.0","COCHSTEDT, GM","FM-15","EDBC ","V020","140,1,N,0046,1","00090,1,C,N","002500,1,N,1","+0030,1","+0020,1","99999,9","07,5,+00090,1,99,9","08,5,+00120,1,99,9",,"08,99,1,99,9,99,9,99999,9,99,9,99,9",,"09810,1,99999,9","10,1",,,,"MET061METAR EDBC 090850Z 14009KT 2500 BR BKN003 OVC004 03/02 Q0981;",
"10616499999","2010-11-09T09:20:00","4","51.854992","11.418889","180.0","COCHSTEDT, GM","FM-15","EDBC ","V020","160,1,N,0046,1","00120,1,C,N","002500,1,N,1","+0030,1","+0020,1","99999,9","08,5,+00120,1,99,9",,,"08,99,1,99,9,99,9,99999,9,99,9,99,9",,"09810,1,99999,9","10,1",,,,"MET054METAR EDBC 090920Z 16009KT 2500 BR OVC004 03/02 Q0981;",
"10616499999","2010-11-09T09:50:00","4","51.854992","11.418889","180.0","COCHSTEDT, GM","FM-15","EDBC ","V020","150,1,N,0041,1","22000,1,9,N","002500,1,N,1","+0040,1","+0030,1","99999,9",,,,,,"09810,1,99999,9","10,1",,,,"MET055METAR EDBC 090950Z 15008KT 2500 BR OVCC004 04/03 Q0981;",
"10616499999","2010-11-09T10:20:00","4","51.854992","11.418889","180.0","COCHSTEDT, GM","FM-15","EDBC ","V020","160,1,N,0036,1","00120,1,C,N","003000,1,N,1","+0040,1","+0020,1","99999,9","08,5,+00120,1,99,9",,,"08,99,1,99,9,99,9,99999,9,99,9,99,9",,"09821,1,99999,9","10,1",,,,"MET054METAR EDBC 091020Z 16007KT 3000 BR OVC004 04/02 Q0982;",
"10616499999","2010-11-09T10:50:00","4","51.854992","11.418889","180.0","COCHSTEDT, GM","FM-15","EDBC ","V020","160,1,N,0036,1","00150,1,C,N","002500,1,N,1","+0040,1","+0030,1","99999,9","08,5,+00150,1,99,9",,,"08,99,1,99,9,99,9,99999,9,99,9,99,9",,"09821,1,99999,9","10,1",,,,"MET054METAR EDBC 091050Z 16007KT 2500 BR OVC005 04/03 Q0982;",
"10616499999","2010-11-09T11:20:00","4","51.854992","11.418889","180.0","COCHSTEDT, GM","FM-15","EDBC ","V020","140,1,N,0031,1","00180,1,C,N","005000,1,N,1","+0050,1","+0030,1","99999,9","07,5,+00180,1,99,9",,,"07,99,1,99,9,99,9,99999,9,99,9,99,9",,"09821,1,99999,9","10,1",,,,"MET054METAR EDBC 091120Z 14006KT 5000 BR BKN006 05/03 Q0982;",
"10616499999","2010-11-09T11:50:00","4","51.854992","11.418889","180.0","COCHSTEDT, GM","FM-15","EDBC ","V020","140,1,N,0036,1","00360,1,C,N","005000,1,N,1","+0050,1","+0040,1","99999,9","07,5,+00360,1,99,9",,,"07,99,1,99,9,99,9,99999,9,99,9,99,9",,"09821,1,99999,9","10,1",,,,"MET064METAR EDBC 091150Z 14007KT 5000 R26/1400N BR BKN012 05/04 Q0982;",
"10616499999","2010-11-09T12:20:00","4","51.854992","11.418889","180.0","COCHSTEDT, GM","FM-15","EDBC ","V020","130,1,N,0026,1","00450,1,C,N","005000,1,N,1","+0060,1","+0040,1","99999,9","07,5,+00450,1,99,9",,,"07,99,1,99,9,99,9,99999,9,99,9,99,9",,"09810,1,99999,9","10,1",,,,"MET054METAR EDBC 091220Z 13005KT 5000 BR BKN015 06/04 Q0981;",
"10616499999","2010-11-09T12:50:00","4","51.854992","11.418889","180.0","COCHSTEDT, GM","FM-15","EDBC ","V020","110,1,N,0036,1","99999,9,C,N","005000,1,N,1","+0060,1","+0040,1","99999,9","02,5,+00240,1,99,9","04,5,+02310,5,99,9",,"04,99,1,99,9,99,9,99999,9,99,9,99,9",,"09810,1,99999,9","10,1",,,,"MET071METAR EDBC 091250Z 11007KT 5000 R26/1400N BR FEW008 SCT077 06/04 Q0981;","P01 023103SCOCIG"
"10616499999","2010-11-09T13:20:00","4","51.854992","11.418889","180.0","COCHSTEDT, GM","FM-15","EDBC ","V020","130,1,N,0036,1","22000,1,9,N","005000,1,N,1","+0060,1","+0040,1","99999,9",,,,"00,99,1,99,9,99,9,99999,9,99,9,99,9",,"09810,1,99999,9","10,1",,,,"MET051METAR EDBC 091320Z 13007KT 5000 BR NSC 06/04 Q0981;","Q01    003SCCGA1"
"10616499999","2010-11-09T13:50:00","4","51.854992","11.418889","180.0","COCHSTEDT, GM","FM-15","EDBC ","V020","120,1,N,0041,1","22000,1,9,N","006000,1,N,1","+0070,1","+0050,1","99999,9","04,5,+01260,1,99,9",,,"04,99,1,99,9,99,9,99999,9,99,9,99,9",,"09810,1,99999,9",,,,,"MET051METAR EDBC 091350Z 12008KT 6000 SCT042 07/05 Q0981;",
"10616499999","2010-11-09T14:20:00","4","51.854992","11.418889","180.0","COCHSTEDT, GM","FM-15","EDBC ","V020","110,1,N,0036,1","00660,1,C,N","006000,1,N,1","+0060,1","+0040,1","99999,9","02,5,+00480,1,99,9","07,5,+00660,1,99,9",,"07,99,1,99,9,99,9,99999,9,99,9,99,9",,"09821,1,99999,9",,,,,"MET058METAR EDBC 091420Z 11007KT 6000 FEW016 BKN022 06/04 Q0982;",
"10616499999","2010-11-09T14:50:00","4","51.854992","11.418889","180.0","COCHSTEDT, GM","FM-15","EDBC ","V020","110,1,N,0041,1","00660,1,C,N","005000,1,N,1","+0060,1","+0040,1","99999,9","02,5,+00540,1,99,9","07,5,+00660,1,99,9",,"07,99,1,99,9,99,9,99999,9,99,9,99,9",,"09821,1,99999,9","10,1",,,,"MET061METAR EDBC 091450Z 11008KT 5000 BR FEW018 BKN022 06/04 Q0982;",
"10616499999","2010-11-09T16:20:00","4","51.854992","11.418889","180.0","COCHSTEDT, GM","FM-15","EDBC ","V020","120,1,N,0031,1","01110,1,C,N","011265,1,N,1","+0060,1","+0050,1","99999,9","02,5,+00600,1,99,9","07,5,+01110,1,99,9",,"07,99,1,99,9,99,9,99999,9,99,9,99,9",,"09821,1,99999,9",,,,,"MET058METAR EDBC 091620Z 12006KT 9999 FEW020 BKN037 06/05 Q0982;",
"10616499999","2010-11-09T16:50:00","4","51.854992","11.418889","180.0","COCHSTEDT, GM","FM-15","EDBC ","V020","110,1,N,0036,1","01200,1,C,N","009000,1,N,1","+0050,1","+0040,1","99999,9","02,5,+00900,1,99,9","07,5,+01200,1,99,9",,"07,99,1,99,9,99,9,99999,9,99,9,99,9",,"09821,1,99999,9",,,,,"MET058METAR EDBC 091650Z 11007KT 9000 FEW030 BKN040 05/04 Q0982;",
"10616499999","2010-11-10T05:20:00","4","51.854992","11.418889","180.0","COCHSTEDT, GM","FM-15","EDBC ","V020","190,1,N,0036,1","02130,5,C,N","011265,1,N,1","+0040,1","+0040,1","99999,9","04,5,+01470,1,99,9","07,5,+02130,5,99,9",,"07,99,1,99,9,99,9,99999,9,99,9,99,9",,"09851,1,99999,9",,,,,"MET058METAR EDBC 100520Z 19007KT 9999 SCT049 BKN071 04/04 Q0985;",
"10616499999","2010-11-10T05:50:00","4","51.854992","11.418889","180.0","COCHSTEDT, GM","FM-15","EDBC ","V020","190,1,N,0026,1","01350,1,C,N","011265,1,N,1","+0040,1","+0040,1","99999,9","02,5,+01020,1,99,9","07,5,+01350,1,99,9",,"07,99,1,99,9,99,9,99999,9,99,9,99,9",,"09851,1,99999,9",,,,,"MET058METAR EDBC 100550Z 19005KT 9999 FEW034 BKN045 04/04 Q0985;",
"10616499999","2010-11-10T06:20:00","4","51.854992","11.418889","180.0","COCHSTEDT, GM","FM-15","EDBC ","V020","170,1,N,0031,1","02160,5,C,N","011265,1,N,1","+0050,1","+0030,1","99999,9","02,5,+00630,1,99,9","07,5,+02160,5,99,9",,"07,99,1,99,9,99,9,99999,9,99,9,99,9",,"09851,1,99999,9",,,,,"MET058METAR EDBC 100620Z 17006KT 9999 FEW021 BKN072 05/03 Q0985;",
"10616499999","2010-11-10T06:50:00","4","51.854992","11.418889","180.0","COCHSTEDT, GM","FM-15","EDBC ","V020","190,1,N,0041,1","02610,5,C,N","011265,1,N,1","+0040,1","+0030,1","99999,9","02,5,+01230,1,99,9","07,5,+02610,5,99,9",,"07,99,1,99,9,99,9,99999,9,99,9,99,9",,"09861,1,99999,9",,,,,"MET058METAR EDBC 100650Z 19008KT 9999 FEW041 BKN087 04/03 Q0986;",
"10616499999","2010-11-10T07:20:00","4","51.854992","11.418889","180.0","COCHSTEDT, GM","FM-15","EDBC ","V020","210,1,N,0036,1","99999,9,9,Y","009900,1,N,1","+0050,1","+0030,1","99999,9",,,,,,"09861,1,99999,9",,,,,"MET045METAR EDBC 100720Z 21007KT CAVOK 05/03 Q0986;",
"10616499999","2010-11-10T07:50:00","4","51.854992","11.418889","180.0","COCHSTEDT, GM","FM-15","EDBC ","V020","220,1,N,0031,1","01320,1,C,N","011265,1,N,1","+0050,1","+0040,1","99999,9","07,5,+01320,1,99,9",,,"07,99,1,99,9,99,9,99999,9,99,9,99,9",,"09861,1,99999,9",,,,,"MET051METAR EDBC 100750Z 22006KT 9999 BKN044 05/04 Q0986;",
"10616499999","2010-11-10T08:20:00","4","51.854992","11.418889","180.0","COCHSTEDT, GM","FM-15","EDBC ","V020","220,1,N,0041,1","01740,5,C,N","011265,1,N,1","+0060,1","+0040,1","99999,9","04,5,+01320,1,99,9","07,5,+01740,5,99,9",,"07,99,1,99,9,99,9,99999,9,99,9,99,9",,"09871,1,99999,9",,,,,"MET058METAR EDBC 100820Z 22008KT 9999 SCT044 BKN058 06/04 Q0987;",
"10616499999","2010-11-10T08:50:00","4","51.854992","11.418889","180.0","COCHSTEDT, GM","FM-15","EDBC ","V020","210,1,N,0051,1","01380,1,C,N","011265,1,N,1","+0070,1","+0050,1","99999,9","02,5,+01170,1,99,9","07,5,+01380,1,99,9",,"07,99,1,99,9,99,9,99999,9,99,9,99,9",,"09871,1,99999,9",,,,,"MET058METAR EDBC 100850Z 21010KT 9999 FEW039 BKN046 07/05 Q0987;",
"10616499999","2010-11-10T09:20:00","4","51.854992","11.418889","180.0","COCHSTEDT, GM","FM-15","EDBC ","V020","200,1,N,0046,1","01380,1,C,N","011265,1,N,1","+0070,1","+0050,1","99999,9","07,5,+01380,1,99,9",,,"07,99,1,99,9,99,9,99999,9,99,9,99,9",,"09871,1,99999,9",,,,,"MET051METAR EDBC 100920Z 20009KT 9999 BKN046 07/05 Q0987;",
"10616499999","2010-11-10T09:50:00","4","51.854992","11.418889","180.0","COCHSTEDT, GM","FM-15","EDBC ","V020","200,1,N,0051,1","01380,1,C,N","011265,1,N,1","+0080,1","+0050,1","99999,9","07,5,+01380,1,99,9",,,"07,99,1,99,9,99,9,99999,9,99,9,99,9",,"09882,1,99999,9",,,,,"MET051METAR EDBC 100950Z 20010KT 9999 BKN046 08/05 Q0988;",
"10616499999","2010-11-10T10:20:00","4","51.854992","11.418889","180.0","COCHSTEDT, GM","FM-15","EDBC ","V020","190,1,N,0046,1","01410,1,C,N","011265,1,N,1","+0090,1","+0060,1","99999,9","02,5,+00690,1,99,9","07,5,+01410,1,99,9",,"07,99,1,99,9,99,9,99999,9,99,9,99,9",,"09882,1,99999,9",,,,,"MET058METAR EDBC 101020Z 19009KT 9999 FEW023 BKN047 09/06 Q0988;",
"10616499999","2010-11-10T10:50:00","4","51.854992","11.418889","180.0","COCHSTEDT, GM","FM-15","EDBC ","V020","180,1,N,0041,1","01320,1,C,N","011265,1,N,1","+0100,1","+0060,1","99999,9","02,5,+00660,1,99,9","07,5,+01320,1,99,9",,"07,99,1,99,9,99,9,99999,9,99,9,99,9",,"09882,1,99999,9",,,,,"MET066METAR EDBC 101050Z 18008KT 150V210 9999 FEW022 BKN044 10/06 Q0988;",
"10616499999","2010-11-10T11:20:00","4","51.854992","11.418889","180.0","COCHSTEDT, GM","FM-15","EDBC ","V020","190,1,N,0036,1","01350,1,C,N","011265,1,N,1","+0100,1","+0060,1","99999,9","02,5,+00720,1,99,9","07,5,+01350,1,99,9",,"07,99,1,99,9,99,9,99999,9,99,9,99,9",,"09882,1,99999,9",,,,,"MET058METAR EDBC 101120Z 19007KT 9999 FEW024 BKN045 10/06 Q0988;",
"10616499999","2010-11-10T11:50:00","4","51.854992","11.418889","180.0","COCHSTEDT, GM","FM-15","EDBC ","V020","210,1,N,0036,1","00780,1,C,N","011265,1,N,1","+0100,1","+0060,1","99999,9","02,5,+00060,1,99,9","07,5,+00780,1,99,9",,"07,99,1,99,9,99,9,99999,9,99,9,99,9",,"09882,1,99999,9",,,,,"MET058METAR EDBC 101150Z 21007KT 9999 FEW002 BKN026 10/06 Q0988;",
"10616499999","2010-11-10T12:20:00","4","51.854992","11.418889","180.0","COCHSTEDT, GM","FM-15","EDBC ","V020","230,1,N,0057,1","01410,1,C,N","011265,1,N,1","+0100,1","+0060,1","99999,9","02,5,+00690,1,99,9","07,5,+01410,1,99,9",,"07,99,1,99,9,99,9,99999,9,99,9,99,9",,"09892,1,99999,9",,,,,"MET058METAR EDBC 101220Z 23011KT 9999 FEW023 BKN047 10/06 Q0989;",
"10616499999","2010-11-10T12:50:00","4","51.854992","11.418889","180.0","COCHSTEDT, GM","FM-15","EDBC ","V020","230,1,N,0046,1","00630,1,C,N","011265,1,N,1","+0100,1","+0060,1","99999,9","07,5,+00630,1,99,9","07,5,+01440,1,99,9",,"07,99,1,99,9,99,9,99999,9,99,9,99,9",,"09892,1,99999,9",,,,,"MET058METAR EDBC 101250Z 23009KT 9999 BKN021 BKN048 10/06 Q0989;",
"10616499999","2010-11-10T13:20:00","4","51.854992","11.418889","180.0","COCHSTEDT, GM","FM-15","EDBC ","V020","230,1,N,0046,1","00690,1,C,N","011265,1,N,1","+0100,1","+0060,1","99999,9","07,5,+00690,1,99,9","07,5,+00990,1,99,9",,"07,99,1,99,9,99,9,99999,9,99,9,99,9",,"09892,1,99999,9",,,,,"MET058METAR EDBC 101320Z 23009KT 9999 BKN023 BKN033 10/06 Q0989;",
"10616499999","2010-11-10T13:50:00","4","51.854992","11.418889","180.0","COCHSTEDT, GM","FM-15","EDBC ","V020","230,1,N,0051,1","00720,1,C,N","011265,1,N,1","+0090,1","+0060,1","99999,9","07,5,+00720,1,99,9","07,5,+01290,1,99,9",,"07,99,1,99,9,99,9,99999,9,99,9,99,9",,"09892,1,99999,9",,,,,"MET058METAR EDBC 101350Z 23010KT 9999 BKN024 BKN043 09/06 Q0989;",
"10616499999","2010-11-10T14:20:00","4","51.854992","11.418889","180.0","COCHSTEDT, GM","FM-15","EDBC ","V020","220,1,N,0046,1","01320,1,C,N","011265,1,N,1","+0090,1","+0060,1","99999,9","02,5,+00870,1,99,9","07,5,+01320,1,99,9",,"07,99,1,99,9,99,9,99999,9,99,9,99,9",,"09898,1,99999,9",,,,,"MET058METAR EDBC 101420Z 22009KT 9999 FEW029 BKN044 09/06 Q0990;",
"10616499999","2010-11-10T14:50:00","4","51.854992","11.418889","180.0","COCHSTEDT, GM","FM-15","EDBC ","V020","210,1,N,0036,1","01290,1,C,N","011265,1,N,1","+0090,1","+0060,1","99999,9","02,5,+00780,1,99,9","07,5,+01290,1,99,9",,"07,99,1,99,9,99,9,99999,9,99,9,99,9",,"09898,1,99999,9",,,,,"MET058METAR EDBC 101450Z 21007KT 9999 FEW026 BKN043 09/06 Q0990;",
"10616499999","2010-11-11T05:20:00","4","51.854992","11.418889","180.0","COCHSTEDT, GM","FM-15","EDBC ","V020","220,1,N,0036,1","22000,1,9,N","011265,1,N,1","+0040,1","+0020,1","99999,9",,,,"00,99,1,99,9,99,9,99999,9,99,9,99,9",,"10051,1,99999,9",,,,,"MET048METAR EDBC 110520Z 22007KT 9999 NSC 04/02 Q1005;","Q01    003SCCGA1"
"10616499999","2010-11-11T05:50:00","4","51.854992","11.418889","180.0","COCHSTEDT, GM","FM-15","EDBC ","V020","220,1,N,0036,1","22000,1,9,N","999999,9,N,1","+0030,1","+0020,1","99999,9",,,,,,"10050,1,99999,9",,,,,"MET043METAR EDBC 110550Z 22007KT NSC 03/02 Q1005;",
"10616499999","2010-11-11T06:20:00","4","51.854992","11.418889","180.0","COCHSTEDT, GM","FM-15","EDBC ","V020","210,1,N,0041,1","22000,1,9,N","999999,9,N,1","+0030,1","+0010,1","99999,9",,,,,,"10050,1,99999,9",,,,,"MET043METAR EDBC 110620Z 21008KT NSC 03/01 Q1005;",
"10616499999","2010-11-11T06:50:00","4","51.854992","11.418889","180.0","COCHSTEDT, GM","FM-15","EDBC ","V020","220,1,N,0051,1","22000,1,9,N","999999,9,N,1","+0030,1","+0020,1","99999,9",,,,,,"10060,1,99999,9",,,,,"MET043METAR EDBC 110650Z 22010KT NSC 03/02 Q1006;",
"10616499999","2010-11-11T07:20:00","4","51.854992","11.418889","180.0","COCHSTEDT, GM","FM-15","EDBC ","V020","240,1,N,0046,1","22000,1,9,N","011265,1,N,1","+0040,1","+0020,1","99999,9","02,5,+01440,1,99,9",,,"02,99,1,99,9,99,9,99999,9,99,9,99,9",,"10061,1,99999,9",,,,,"MET051METAR EDBC 110720Z 24009KT 9999 FEW048 04/02 Q1006;",
"10616499999","2010-11-11T07:50:00","4","51.854992","11.418889","180.0","COCHSTEDT, GM","FM-15","EDBC ","V020","230,1,N,0041,1","99999,9,9,Y","009900,1,N,1","+0040,1","+0020,1","99999,9",,,,,,"10061,1,99999,9",,,,,"MET045METAR EDBC 110750Z 23008KT CAVOK 04/02 Q1006;",
"10616499999","2010-11-11T08:20:00","4","51.854992","11.418889","180.0","COCHSTEDT, GM","FM-15","EDBC ","V020","230,1,N,0046,1","99999,9,9,Y","009900,1,N,1","+0050,1","+0020,1","99999,9",,,,,,"10061,1,99999,9",,,,,"MET045METAR EDBC 110820Z 23009KT CAVOK 05/02 Q1006;",
"10616499999","2010-11-11T08:50:00","4","51.854992","11.418889","180.0","COCHSTEDT, GM","FM-15","EDBC ","V020","210,1,N,0051,1","99999,9,C,N","011265,1,N,1","+0050,1","+0020,1","99999,9","02,5,+00900,1,99,9","04,5,+01170,1,99,9",,"04,99,1,99,9,99,9,99999,9,99,9,99,9",,"10061,1,99999,9",,,,,"MET058METAR EDBC 110850Z 21010KT 9999 FEW030 SCT039 05/02 Q1006;","P01 011703SCOCIG"
"10616499999","2010-11-11T09:20:00","4","51.854992","11.418889","180.0","COCHSTEDT, GM","FM-15","EDBC ","V020","220,1,N,0067,1","22000,1,9,N","011265,1,N,1","+0060,1","+0020,1","99999,9","02,5,+00660,1,99,9",,,"02,99,1,99,9,99,9,99999,9,99,9,99,9",,"10061,1,99999,9",,,,,"MET051METAR EDBC 110920Z 22013KT 9999 FEW022 06/02 Q1006;",
"10616499999","2010-11-11T09:50:00","4","51.854992","11.418889","180.0","COCHSTEDT, GM","FM-15","EDBC ","V020","230,1,N,0072,1","22000,1,9,N","011265,1,N,1","+0060,1","+0030,1","99999,9","02,5,+00750,1,99,9",,,"02,99,1,99,9,99,9,99999,9,99,9,99,9",,"10061,1,99999,9",,,,,"MET051METAR EDBC 110950Z 23014KT 9999 FEW025 06/03 Q1006;",
"10616499999","2010-11-11T10:20:00","4","51.854992","11.418889","180.0","COCHSTEDT, GM","FM-15","EDBC ","V020","240,1,N,0093,1","22000,1,9,N","011265,1,N,1","+0070,1","+0020,1","99999,9","02,5,+00630,1,99,9",,,"02,99,1,99,9,99,9,99999,9,99,9,99,9",,"10061,1,99999,9",,,,,"MET051METAR EDBC 111020Z 24018KT 9999 FEW021 07/02 Q1006;",
"10616499999","2010-11-11T10:50:00","4","51.854992","11.418889","180.0","COCHSTEDT, GM","FM-15","EDBC ","V020","220,1,N,0077,1","22000,1,9,N","011265,1,N,1","+0070,1","+0020,1","99999,9","04,5,+00660,1,99,9",,,"04,99,1,99,9,99,9,99999,9,99,9,99,9",,"10061,1,99999,9",,,,,"MET051METAR EDBC 111050Z 22015KT 9999 SCT022 07/02 Q1006;",
"10616499999","2010-11-11T11:20:00","4","51.854992","11.418889","180.0","COCHSTEDT, GM","FM-15","EDBC ","V020","220,1,N,0077,1","99999,9,C,N","011265,1,N,1","+0060,1","+0020,1","99999,9","02,5,+00930,1,99,9","04,5,+01110,1,99,9",,"04,99,1,99,9,99,9,99999,9,99,9,99,9",,"10061,1,99999,9",,,,,"MET058METAR EDBC 111120Z 22015KT 9999 FEW031 SCT037 06/02 Q1006;","P01 011103SCOCIG"
"10616499999","2010-11-11T11:50:00","4","51.854992","11.418889","180.0","COCHSTEDT, GM","FM-15","EDBC ","V020","220,1,N,0087,1","22000,1,9,N","011265,1,N,1","+0070,1","+0010,1","99999,9","02,5,+00840,1,99,9",,,"02,99,1,99,9,99,9,99999,9,99,9,99,9",,"10051,1,99999,9",,,,,"MET051METAR EDBC 111150Z 22017KT 9999 FEW028 07/01 Q1005;",
"10616499999","2010-11-11T12:20:00","4","51.854992","11.418889","180.0","COCHSTEDT, GM","FM-15","EDBC ","V020","210,1,N,0067,1","99999,9,C,N","011265,1,N,1","+0060,1","+0010,1","99999,9","02,5,+00840,1,99,9","04,5,+01110,1,99,9",,"04,99,1,99,9,99,9,99999,9,99,9,99,9",,"10041,1,99999,9",,,,,"MET058METAR EDBC 111220Z 21013KT 9999 FEW028 SCT037 06/01 Q1004;","P01 011103SCOCIG"
"10616499999","2010-11-11T12:50:00","4","51.854992","11.418889","180.0","COCHSTEDT, GM","FM-15","EDBC ","V020","210,1,N,0087,1","00960,1,C,N","011265,1,N,1","+0070,1","+0000,1","99999,9","07,5,+00960,1,99,9",,,"07,99,1,99,9,99,9,99999,9,99,9,99,9",,"10041,1,99999,9",,,,,"MET051METAR EDBC 111250Z 21017KT 9999 BKN032 07/00 Q1004;",
"10616499999","2010-11-11T13:20:00","4","51.854992","11.418889","180.0","COCHSTEDT, GM","FM-15","EDBC ","V020","200,1,N,0082,1","00960,1,C,N","011265,1,N,1","+0060,1","+0010,1","99999,9","04,5,+00720,1,99,9","07,5,+00960,1,99,9",,"07,99,1,99,9,99,9,99999,9,99,9,99,9",,"10031,1,99999,9",,,,,"MET058METAR EDBC 111320Z 20016KT 9999 SCT024 BKN032 06/01 Q1003;",
"10616499999","2010-11-11T14:20:00","4","51.854992","11.418889","180.0","COCHSTEDT, GM","FM-15","EDBC ","V020","200,1,N,0103,1","01200,1,C,N","011265,1,N,1","+0060,1","-0010,1","99999,9","02,5,+01080,1,99,9","07,5,+01200,1,99,9",,"07,99,1,99,9,99,9,99999,9,99,9,99,9",,"10020,1,99999,9",,,,"0154,1","MET062METAR EDBC 111420Z 20020G30KT 9999 FEW036 BKN040 06/M01 Q1002;",
"10616499999","2010-11-12T05:20:00","4","51.854992","11.418889","180.0","COCHSTEDT, GM","FM-15","EDBC ","V020","240,1,N,0082,1","01410,1,C,N","009000,1,N,1","+0080,1","+0050,1","99999,9","02,5,+01050,1,99,9","04,5,+01410,1,99,9","07,5,+01770,5,99,9","07,99,1,99,9,99,9,99999,9,99,9,99,9",,"09871,1,99999,9",,,,,"MET065METAR EDBC 120520Z 24016KT 9000 FEW035 SCT047 BKN059 08/05 Q0987;",
"10616499999","2010-11-12T06:20:00","4","51.854992","11.418889","180.0","COCHSTEDT, GM","FM-15","EDBC ","V020","270,1,N,0072,1","00780,1,C,N","011265,1,N,1","+0080,1","+0050,1","99999,9","02,5,+00630,1,99,9","07,5,+00780,1,99,9",,"07,99,1,99,9,99,9,99999,9,99,9,99,9",,"09882,1,99999,9",,,,,"MET069METAR EDBC 120620Z 27014KT 250V320 9999 // FEW021 BKN026 08/05 Q0988;",
"10616499999","2010-11-12T06:50:00","4","51.854992","11.418889","180.0","COCHSTEDT, GM","FM-15","EDBC ","V020","240,1,N,0057,1","99999,9,C,N","011265,1,N,1","+0070,1","+0050,1","99999,9","02,5,+01410,1,99,9","04,5,+01980,5,99,9",,"04,99,1,99,9,99,9,99999,9,99,9,99,9",,"09882,1,99999,9",,,,,"MET058METAR EDBC 120650Z 24011KT 9999 FEW047 SCT066 07/05 Q0988;","P01 019803SCOCIG"
"10616499999","2010-11-12T07:20:00","4","51.854992","11.418889","180.0","COCHSTEDT, GM","FM-15","EDBC ","V020","250,1,N,0098,1","01170,1,C,N","011265,1,N,1","+0080,1","+0040,1","99999,9","07,5,+01170,1,99,9",,,"07,99,1,99,9,99,9,99999,9,99,9,99,9",,"09882,1,99999,9",,,,,"MET051METAR EDBC 120720Z 25019KT 9999 BKN039 08/04 Q0988;",
"10616499999","2010-11-12T07:50:00","4","51.854992","11.418889","180.0","COCHSTEDT, GM","FM-15","EDBC ","V020","240,1,N,0118,1","02100,1,C,N","011265,1,N,1","+0090,1","+0040,1","99999,9","02,5,+01200,1,99,9","07,5,+02100,1,99,9",,"07,99,1,99,9,99,9,99999,9,99,9,99,9",,"09882,1,99999,9",,,,,"MET058METAR EDBC 120750Z 24023KT 9999 FEW040 BKN070 09/04 Q0988;",
"10616499999","2010-11-12T08:20:00","4","51.854992","11.418889","180.0","COCHSTEDT, GM","FM-15","EDBC ","V020","250,1,N,0134,1","02250,5,C,N","011265,1,N,1","+0090,1","+0050,1","99999,9","07,5,+02250,5,99,9",,,,,"09890,1,99999,9",,,,,"MET059METAR EDBC 120820Z 25026KT 9999 FEWW040 BKN075 09/05 Q0989;",
"10616499999","2010-11-12T08:50:00","4","51.854992","11.418889","180.0","COCHSTEDT, GM","FM-15","EDBC ","V020","240,1,N,0118,1","99999,9,C,N","011265,1,N,1","+0090,1","+0050,1","99999,9","02,5,+01200,1,99,9","04,5,+02250,5,99,9",,"04,99,1,99,9,99,9,99999,9,99,9,99,9",,"09892,1,99999,9",,,,,"MET058METAR EDBC 120850Z 24023KT 9999 FEW040 SCT075 09/05 Q0989;","P01 022503SCOCIG"
"10616499999","2010-11-12T09:20:00","4","51.854992","11.418889","180.0","COCHSTEDT, GM","FM-15","EDBC ","V020","240,1,N,0134,1","22000,1,9,N","011265,1,N,1","+0100,1","+0050,1","99999,9","02,5,+01200,1,99,9",,,"02,99,1,99,9,99,9,99999,9,99,9,99,9",,"09892,1,99999,9",,,,,"MET051METAR EDBC 120920Z 24026KT 9999 FEW040 10/05 Q0989;",
"10616499999","2010-11-12T09:50:00","4","51.854992","11.418889","180.0","COCHSTEDT, GM","FM-15","EDBC ","V020","240,1,N,0149,1","22000,1,9,N","011265,1,N,1","+0100,1","+0050,1","99999,9","02,5,+01200,1,99,9",,,"02,99,1,99,9,99,9,99999,9,99,9,99,9",,"09898,1,99999,9",,,,,"MET051METAR EDBC 120950Z 24029KT 9999 FEW040 10/05 Q0990;",
"10616499999","2010-11-12T10:20:00","4","51.854992","11.418889","180.0","COCHSTEDT, GM","FM-15","EDBC ","V020","250,1,N,0139,1","99999,9,9,Y","009900,1,N,1","+0100,1","+0050,1","99999,9",,,,,,"09898,1,99999,9",,,,,"MET045METAR EDBC 121020Z 25027KT CAVOK 10/05 Q0990;",
"10616499999","2010-11-12T10:50:00","4","51.854992","11.418889","180.0","COCHSTEDT, GM","FM-15","EDBC ","V020","240,1,N,0113,1","99999,9,9,Y","009900,1,N,1","+0110,1","+0050,1","99999,9",,,,,,"09898,1,99999,9",,,,,"MET045METAR EDBC 121050Z 24022KT CAVOK 11/05 Q0990;",
"10616499999","2010-11-12T11:20:00","4","51.854992","11.418889","180.0","COCHSTEDT, GM","FM-15","EDBC ","V020","240,1,N,0108,1","99999,9,9,Y","009900,1,N,1","+0110,1","+0050,1","99999,9",,,,,,"09898,1,99999,9",,,,,"MET045METAR EDBC 121120Z 24021KT CAVOK 11/05 Q0990;",
"10616499999","2010-11-12T11:50:00","4","51.854992","11.418889","180.0","COCHSTEDT, GM","FM-15","EDBC ","V020","250,1,N,0129,1","99999,9,9,Y","009900,1,N,1","+0120,1","+0040,1","99999,9",,,,,,"09909,1,99999,9",,,,,"MET045METAR EDBC 121150Z 25025KT CAVOK 12/04 Q0991;",
"10616499999","2010-11-12T12:20:00","4","51.854992","11.418889","180.0","COCHSTEDT, GM","FM-15","EDBC ","V020","250,1,N,0139,1","99999,9,9,Y","009900,1,N,1","+0120,1","+0030,1","99999,9",,,,,,"09909,1,99999,9",,,,"0201,1","MET048METAR EDBC 121220Z 25027G39KT CAVOK 12/03 Q0991;",
"10616499999","2010-11-12T12:50:00","4","51.854992","11.418889","180.0","COCHSTEDT, GM","FM-15","EDBC ","V020","250,1,N,0154,1","22000,1,9,N","011265,1,N,1","+0110,1","+0030,1","99999,9","02,5,+00960,1,99,9",,,"02,99,1,99,9,99,9,99999,9,99,9,99,9",,"09909,1,99999,9",,,,,"MET051METAR EDBC 121250Z 25030KT 9999 FEW032 11/03 Q0991;",
"10616499999","2010-11-12T13:20:00","4","51.854992","11.418889","180.0","COCHSTEDT, GM","FM-15","EDBC ","V020","250,1,N,0134,1","22000,1,9,N","011265,1,N,1","+0110,1","+0040,1","99999,9","02,5,+00840,1,99,9",,,"02,99,1,99,9,99,9,99999,9,99,9,99,9",,"09919,1,99999,9",,,,,"MET051METAR EDBC 121320Z 25026KT 9999 FEW028 11/04 Q0992;",
"10616499999","2010-11-12T13:50:00","4","51.854992","11.418889","180.0","COCHSTEDT, GM","FM-15","EDBC ","V020","240,1,N,0098,1","99999,9,C,N","011265,1,N,1","+0100,1","+0040,1","99999,9","04,5,+00600,1,99,9","04,5,+01050,1,99,9",,"04,99,1,99,9,99,9,99999,9,99,9,99,9",,"09919,1,99999,9","81,1",,,,"MET069METAR EDBC 121350Z 24019KT 9999 5000W SHRA SCT020 SCT035 10/04 Q0992;","P01 010503SCOCIG"
"10616499999","2010-11-12T14:20:00","4","51.854992","11.418889","180.0","COCHSTEDT, GM","FM-15","EDBC ","V020","250,1,N,0113,1","22000,1,9,N","011265,1,N,1","+0110,1","+0040,1","99999,9","04,5,+01050,1,99,9",,,"04,99,1,99,9,99,9,99999,9,99,9,99,9",,"09919,1,99999,9","16,1",,,,"MET056METAR EDBC 121420Z 25022KT 9999 VCSH SCT035 11/04 Q0992;",
"10616499999","2010-11-12T14:50:00","4","51.854992","11.418889","180.0","COCHSTEDT, GM","FM-15","EDBC ","V020","240,1,N,0082,1","99999,9,C,N","011265,1,N,1","+0100,1","+0040,1","99999,9","04,5,+00720,1,99,9","04,5,+01350,1,99,9",,"04,99,1,99,9,99,9,99999,9,99,9,99,9",,"09929,1,99999,9","16,1",,,,"MET063METAR EDBC 121450Z 24016KT 9999 VCSH SCT024 SCT045 10/04 Q0993;","P01 013503SCOCIG"
"10616499999","2010-11-13T06:50:00","4","51.854992","11.418889","180.0","COCHSTEDT, GM","FM-15","EDBC ","V020","270,1,N,0031,1","99999,9,C,N","011265,1,N,1","+0100,1","+0100,1","99999,9","02,5,+00270,1,99,9","04,5,+00360,1,99,9",,"04,99,1,99,9,99,9,99999,9,99,9,99,9",,"09929,1,99999,9",,,,,"MET058METAR EDBC 130650Z 27006KT 9999 FEW009 SCT012 10/10 Q0993;","P01 003603SCOCIG"
"10616499999","2010-11-13T07:20:00","4","51.854992","11.418889","180.0","COCHSTEDT, GM","FM-15","EDBC ","V020","270,1,N,0046,1","00690,1,C,N","005000,1,N,1","+0110,1","+0110,1","99999,9","04,5,+00390,1,99,9","07,5,+00690,1,99,9",,"07,99,1,99,9,99,9,99999,9,99,9,99,9",,"09929,1,99999,9","80,1",,,,"MET064METAR EDBC 130720Z 27009KT 5000 -SHRA SCT013 BKN023 11/11 Q0993;",
"10616499999","2010-11-13T07:50:00","4","51.854992","11.418889","180.0","COCHSTEDT, GM","FM-15","EDBC ","V020","270,1,N,0057,1","99999,9,C,N","005000,1,N,1","+0110,1","+0110,1","99999,9","04,5,+00540,1,99,9","04,5,+00750,1,99,9",,"04,99,1,99,9,99,9,99999,9,99,9,99,9",,"09929,1,99999,9","80,1",,,,"MET064METAR EDBC 130750Z 27011KT 5000 -SHRA SCT018 SCT025 11/11 Q0993;","P01 007503SCOCIG"
"10616499999","2010-11-13T08:20:00","4","51.854992","11.418889","180.0","COCHSTEDT, GM","FM-15","EDBC ","V020","250,1,N,0051,1","99999,9,C,N","008000,1,N,1","+0110,1","+0100,1","99999,9","02,5,+00480,1,99,9","04,5,+00660,1,99,9",,"04,99,1,99,9,99,9,99999,9,99,9,99,9",,"09929,1,99999,9","80,1",,,,"MET064METAR EDBC 130820Z 25010KT 8000 -SHRA FEW016 SCT022 11/10 Q0993;","P01 006603SCOCIG"
"10616499999","2010-11-13T08:50:00","4","51.854992","11.418889","180.0","COCHSTEDT, GM","FM-15","EDBC ","V020","240,1,N,0046,1","00720,1,C,N","005000,1,N,1","+0110,1","+0110,1","99999,9","07,5,+00720,1,99,9",,,"07,99,1,99,9,99,9,99999,9,99,9,99,9",,"09939,1,99999,9","81,1",,,,"MET056METAR EDBC 130850Z 24009KT 5000 SHRA BKN024 11/11 Q0994;",
"10616499999","2010-11-13T09:20:00","4","51.854992","11.418889","180.0","COCHSTEDT, GM","FM-15","EDBC ","V020","220,1,N,0036,1","01110,1,C,N","005000,1,N,1","+0110,1","+0110,1","99999,9","02,5,+00510,1,99,9","07,5,+01110,1,99,9",,"07,99,1,99,9,99,9,99999,9,99,9,99,9",,"09939,1,99999,9",,,,,"MET058METAR EDBC 130920Z 22007KT 5000 FEW017 BKN037 11/11 Q0994;",
"10616499999","2010-11-13T09:50:00","4","51.854992","11.418889","180.0","COCHSTEDT, GM","FM-15","EDBC ","V020","200,1,N,0026,1","01020,1,C,N","006000,1,N,1","+0110,1","+0110,1","99999,9","02,5,+00390,1,99,9","04,5,+01020,1,99,9","07,5,+01260,1,99,9","07,99,1,99,9,99,9,99999,9,99,9,99,9",,"09939,1,99999,9",,,,,"MET078METAR EDBC 130950Z 20005KT 170V230 6000 FEW013 SCT034 BKN042 11/11 Q0994 RERA;",
"10616499999","2010-11-13T10:20:00","4","51.854992","11.418889","180.0","COCHSTEDT, GM","FM-15","EDBC ","V020","999,9,V,0015,1","00870,1,C,N","005000,1,N,1","+0110,1","+0110,1","99999,9","08,5,+00870,1,99,9",,,"08,99,1,99,9,99,9,99999,9,99,9,99,9",,"09949,1,99999,9","10,1","80,1",,,"MET060METAR EDBC 131020Z VRB03KT 5000 BR -SHRA OVC029 11/11 Q0995;",
"10616499999","2010-11-13T10:50:00","4","51.854992","11.418889","180.0","COCHSTEDT, GM","FM-15","EDBC ","V020","230,1,N,0021,1","01020,1,C,N","011265,1,N,1","+0110,1","+0110,1","99999,9","02,5,+00240,1,99,9","07,5,+01020,1,99,9",,"07,99,1,99,9,99,9,99999,9,99,9,99,9",,"09949,1,99999,9",,,,,"MET071METAR EDBC 131050Z 23004KT 190V290 9999 FEW008 BKN034 11/11 Q0995 RERA;",
"10616499999","2010-11-13T11:20:00","4","51.854992","11.418889","180.0","COCHSTEDT, GM","FM-15","EDBC ","V020","999,9,V,0021,1","00390,1,C,N","011265,1,N,1","+0120,1","+0110,1","99999,9","07,5,+00390,1,99,9",,,"07,99,1,99,9,99,9,99999,9,99,9,99,9",,"09939,1,99999,9",,,,,"MET051METAR EDBC 131120Z VRB04KT 9999 BKN013 12/11 Q0994;",
"10616499999","2010-11-13T11:50:00","4","51.854992","11.418889","180.0","COCHSTEDT, GM","FM-15","EDBC ","V020","999,9,V,0015,1","00780,1,C,N","011265,1,N,1","+0120,1","+0110,1","99999,9","04,5,+00390,1,99,9","07,5,+00780,1,99,9",,"07,99,1,99,9,99,9,99999,9,99,9,99,9",,"09949,1,99999,9",,,,,"MET058METAR EDBC 131150Z VRB03KT 9999 SCT013 BKN026 12/11 Q0995;",
"10616499999","2010-11-13T12:20:00","4","51.854992","11.418889","180.0","COCHSTEDT, GM","FM-15","EDBC ","V020","290,1,N,0051,1","00720,1,C,N","005000,1,N,1","+0120,1","+0100,1","99999,9","07,5,+00720,1,99,9",,,"07,99,1,99,9,99,9,99999,9,99,9,99,9",,"09959,1,99999,9","80,1",,,,"MET065METAR EDBC 131220Z 29010KT 260V320 5000 -SHRA BKN024 12/10 Q0996;",
"10616499999","2010-11-13T12:50:00","4","51.854992","11.418889","180.0","COCHSTEDT, GM","FM-15","EDBC ","V020","290,1,N,0062,1","00600,1,C,N","005000,1,N,1","+0110,1","+0090,1","99999,9","07,5,+00600,1,99,9",,,"07,99,1,99,9,99,9,99999,9,99,9,99,9",,"09959,1,99999,9","80,1",,,,"MET057METAR EDBC 131250Z 29012KT 5000 -SHRA BKN020 11/09 Q0996;",
"10616499999","2010-11-13T13:20:00","4","51.854992","11.418889","180.0","COCHSTEDT, GM","FM-15","EDBC ","V020","290,1,N,0046,1","00660,1,C,N","006000,1,N,1","+0110,1","+0090,1","99999,9","07,5,+00660,1,99,9",,,"07,99,1,99,9,99,9,99999,9,99,9,99,9",,"09959,1,99999,9","80,1",,,,"MET065METAR EDBC 131320Z 29009KT 260V320 6000 -SHRA BKN022 11/09 Q0996;",
"10616499999","2010-11-13T13:50:00","4","51.854992","11.418889","180.0","COCHSTEDT, GM","FM-15","EDBC ","V020","280,1,N,0046,1","99999,9,C,N","008000,1,N,1","+0110,1","+0090,1","99999,9","02,5,+00600,1,99,9","04,5,+00960,1,99,9",,"04,99,1,99,9,99,9,99999,9,99,9,99,9",,"09970,1,99999,9","80,1",,,,"MET064METAR EDBC 131350Z 28009KT 8000 -SHRA FEW020 SCT032 11/09 Q0997;","P01 009603SCOCIG"
"10616499999","2010-11-13T14:20:00","4","51.854992","11.418889","180.0","COCHSTEDT, GM","FM-15","EDBC ","V020","230,1,N,0046,1","22000,1,9,N","011265,1,N,1","+0110,1","+0090,1","99999,9","04,5,+01380,1,99,9",,,"04,99,1,99,9,99,9,99999,9,99,9,99,9",,"09959,1,99999,9",,,,,"MET056METAR EDBC 131420Z 23009KT 9999 SCT046 11/09 Q0996 RERA;",
"10616499999","2010-11-13T14:50:00","4","51.854992","11.418889","180.0","COCHSTEDT, GM","FM-15","EDBC ","V020","230,1,N,0051,1","22000,1,9,N","011265,1,N,1","+0110,1","+0090,1","99999,9","04,5,+01080,1,99,9",,,"04,99,1,99,9,99,9,99999,9,99,9,99,9",,"09970,1,99999,9","80,1",,,,"MET057METAR EDBC 131450Z 23010KT 9999 -SHRA SCT036 11/09 Q0997;",
"10616499999","2010-11-13T15:20:00","4","51.854992","11.418889","180.0","COCHSTEDT, GM","FM-15","EDBC ","V020","210,1,N,0041,1","01230,1,C,N","011265,1,N,1","+0110,1","+0100,1","99999,9","02,5,+01020,1,99,9","04,5,+01230,1,99,9","07,5,+01680,5,99,9","07,99,1,99,9,99,9,99999,9,99,9,99,9",,"09970,1,99999,9",,,,,"MET070METAR EDBC 131520Z 21008KT 9999 FEW034 SCT041 BKN056 11/10 Q0997 RERA;",
"10616499999","2010-11-15T05:20:00","4","51.854992","11.418889","180.0","COCHSTEDT, GM","FM-15","EDBC ","V020","290,1,N,0051,1","99999,9,9,Y","009900,1,N,1","+0100,1","+0040,1","99999,9",,,,,,"10091,1,99999,9",,,,,"MET045METAR EDBC 150520Z 29010KT CAVOK 10/04 Q1009;",
"10616499999","2010-11-15T05:50:00","4","51.854992","11.418889","180.0","COCHSTEDT, GM","FM-15","EDBC ","V020","310,1,N,0036,1","99999,9,9,Y","009900,1,N,1","+0100,1","+0040,1","99999,9",,,,,,"10091,1,99999,9",,,,,"MET045METAR EDBC 150550Z 31007KT CAVOK 10/04 Q1009;",
"10616499999","2010-11-15T06:20:00","4","51.854992","11.418889","180.0","COCHSTEDT, GM","FM-15","EDBC ","V020","300,1,N,0041,1","99999,9,9,Y","009900,1,N,1","+0100,1","+0050,1","99999,9",,,,,,"10091,1,99999,9",,,,,"MET045METAR EDBC 150620Z 30008KT CAVOK 10/05 Q1009;",
"10616499999","2010-11-15T06:50:00","4","51.854992","11.418889","180.0","COCHSTEDT, GM","FM-15","EDBC ","V020","310,1,N,0051,1","99999,9,9,Y","009900,1,N,1","+0100,1","+0050,1","99999,9",,,,,,"10102,1,99999,9",,,,,"MET045METAR EDBC 150650Z 31010KT CAVOK 10/05 Q1010;",
"10616499999","2010-11-15T07:20:00","4","51.854992","11.418889","180.0","COCHSTEDT, GM","FM-15","EDBC ","V020","300,1,N,0031,1","99999,9,9,Y","009900,1,N,1","+0090,1","+0050,1","99999,9",,,,,,"10108,1,99999,9",,,,,"MET045METAR EDBC 150720Z 30006KT CAVOK 09/05 Q1011;",
"10616499999","2010-11-15T07:50:00","4","51.854992","11.418889","180.0","COCHSTEDT, GM","FM-15","EDBC ","V020","999,9,V,0015,1","99999,9,9,Y","009900,1,N,1","+0100,1","+0050,1","99999,9",,,,,,"10108,1,99999,9",,,,,"MET045METAR EDBC 150750Z VRB03KT CAVOK 10/05 Q1011;",
"10616499999","2010-11-15T08:20:00","4","51.854992","11.418889","180.0","COCHSTEDT, GM","FM-15","EDBC ","V020","300,1,N,0015,1","99999,9,9,Y","009900,1,N,1","+0100,1","+0050,1","99999,9",,,,,,"10119,1,99999,9",,,,,"MET045METAR EDBC 150820Z 30003KT CAVOK 10/05 Q1012;",
"10616499999","2010-11-15T08:50:00","4","51.854992","11.418889","180.0","COCHSTEDT, GM","FM-15","EDBC ","V020","290,1,N,0015,1","99999,9,9,Y","009900,1,N,1","+0090,1","+0060,1","99999,9",,,,,,"10119,1,99999,9",,,,,"MET045METAR EDBC 150850Z 29003KT CAVOK 09/06 Q1012;",
"10616499999","2010-11-15T09:20:00","4","51.854992","11.418889","180.0","COCHSTEDT, GM","FM-15","EDBC ","V020","320,1,N,0036,1","99999,9,C,N","011265,1,N,1","+0100,1","+0050,1","99999,9","02,5,+01020,1,99,9","04,5,+02940,5,99,9",,"04,99,1,99,9,99,9,99999,9,99,9,99,9",,"10119,1,99999,9",,,,,"MET058METAR EDBC 150920Z 32007KT 9999 FEW034 SCT098 10/05 Q1012;","P01 029403SCOCIG"
"10616499999","2010-11-15T09:50:00","4","51.854992","11.418889","180.0","COCHSTEDT, GM","FM-15","EDBC ","V020","320,1,N,0041,1","01020,1,C,N","011265,1,N,1","+0090,1","+0050,1","99999,9","07,5,+01020,1,99,9",,,"07,99,1,99,9,99,9,99999,9,99,9,99,9",,"10119,1,99999,9",,,,,"MET051METAR EDBC 150950Z 32008KT 9999 BKN034 09/05 Q1012;",
"10616499999","2010-11-15T10:20:00","4","51.854992","11.418889","180.0","COCHSTEDT, GM","FM-15","EDBC ","V020","330,1,N,0031,1","00990,1,C,N","011265,1,N,1","+0100,1","+0060,1","99999,9","07,5,+00990,1,99,9",,,"07,99,1,99,9,99,9,99999,9,99,9,99,9",,"10129,1,99999,9",,,,,"MET051METAR EDBC 151020Z 33006KT 9999 BKN033 10/06 Q1013;",
"10616499999","2010-11-15T10:50:00","4","51.854992","11.418889","180.0","COCHSTEDT, GM","FM-15","EDBC ","V020","340,1,N,0036,1","22000,1,9,N","011265,1,N,1","+0100,1","+0060,1","99999,9","02,5,+01020,1,99,9",,,"02,99,1,99,9,99,9,99999,9,99,9,99,9",,"10129,1,99999,9",,,,,"MET051METAR EDBC 151050Z 34007KT 9999 FEW034 10/06 Q1013;",
"10616499999","2010-11-15T11:20:00","4","51.854992","11.418889","180.0","COCHSTEDT, GM","FM-15","EDBC ","V020","340,1,N,0036,1","00990,1,C,N","011265,1,N,1","+0100,1","+0060,1","99999,9","07,5,+00990,1,99,9",,,"07,99,1,99,9,99,9,99999,9,99,9,99,9",,"10129,1,99999,9",,,,,"MET051METAR EDBC 151120Z 34007KT 9999 BKN033 10/06 Q1013;",
"10616499999","2010-11-15T11:50:00","4","51.854992","11.418889","180.0","COCHSTEDT, GM","FM-15","EDBC ","V020","330,1,N,0041,1","22000,1,9,N","011265,1,N,1","+0100,1","+0050,1","99999,9","04,5,+00990,1,99,9",,,"04,99,1,99,9,99,9,99999,9,99,9,99,9",,"10129,1,99999,9",,,,,"MET051METAR EDBC 151150Z 33008KT 9999 SCT033 10/05 Q1013;",
"10616499999","2010-11-15T12:20:00","4","51.854992","11.418889","180.0","COCHSTEDT, GM","FM-15","EDBC ","V020","330,1,N,0036,1","01050,1,C,N","011265,1,N,1","+0100,1","+0060,1","99999,9","07,5,+01050,1,99,9",,,"07,99,1,99,9,99,9,99999,9,99,9,99,9",,"10129,1,99999,9",,,,,"MET051METAR EDBC 151220Z 33007KT 9999 BKN035 10/06 Q1013;",
"10616499999","2010-11-15T12:50:00","4","51.854992","11.418889","180.0","COCHSTEDT, GM","FM-15","EDBC ","V020","340,1,N,0041,1","99999,9,9,Y","009900,1,N,1","+0100,1","+0060,1","99999,9",,,,,,"10129,1,99999,9",,,,,"MET045METAR EDBC 151250Z 34008KT CAVOK 10/06 Q1013;",
"10616499999","2010-11-15T13:20:00","4","51.854992","11.418889","180.0","COCHSTEDT, GM","FM-15","EDBC ","V020","340,1,N,0041,1","99999,9,9,Y","009900,1,N,1","+0090,1","+0060,1","99999,9",,,,,,"10129,1,99999,9",,,,,"MET045METAR EDBC 151320Z 34008KT CAVOK 09/06 Q1013;",
"10616499999","2010-11-15T13:50:00","4","51.854992","11.418889","180.0","COCHSTEDT, GM","FM-15","EDBC ","V020","340,1,N,0031,1","99999,9,9,Y","009900,1,N,1","+0090,1","+0070,1","99999,9",,,,,,"10129,1,99999,9",,,,,"MET045METAR EDBC 151350Z 34006KT CAVOK 09/07 Q1013;",
"10616499999","2010-11-15T14:20:00","4","51.854992","11.418889","180.0","COCHSTEDT, GM","FM-15","EDBC ","V020","340,1,N,0031,1","22000,1,9,N","011265,1,N,1","+0090,1","+0060,1","99999,9","04,5,+00900,1,99,9",,,"04,99,1,99,9,99,9,99999,9,99,9,99,9",,"10129,1,99999,9",,,,,"MET051METAR EDBC 151420Z 34006KT 9999 SCT030 09/06 Q1013;",
"10616499999","2010-11-15T14:50:00","4","51.854992","11.418889","180.0","COCHSTEDT, GM","FM-15","EDBC ","V020","320,1,N,0026,1","00930,1,C,N","011265,1,N,1","+0090,1","+0060,1","99999,9","04,5,+00630,1,99,9","07,5,+00930,1,99,9",,"07,99,1,99,9,99,9,99999,9,99,9,99,9",,"10139,1,99999,9",,,,,"MET058METAR EDBC 151450Z 32005KT 9999 SCT021 BKN031 09/06 Q1014;",
"10616499999","2010-11-15T15:20:00","4","51.854992","11.418889","180.0","COCHSTEDT, GM","FM-15","EDBC ","V020","360,1,N,0026,1","22000,1,9,N","011265,1,N,1","+0090,1","+0070,1","99999,9","04,5,+00690,1,99,9",,,"04,99,1,99,9,99,9,99999,9,99,9,99,9",,"10139,1,99999,9",,,,,"MET051METAR EDBC 151520Z 36005KT 9999 SCT023 09/07 Q1014;",
"10616499999","2010-11-15T15:50:00","4","51.854992","11.418889","180.0","COCHSTEDT, GM","FM-15","EDBC ","V020","360,1,N,0026,1","00930,1,C,N","011265,1,N,1","+0080,1","+0060,1","99999,9","02,5,+00630,1,99,9","07,5,+00930,1,99,9","07,5,+02610,5,99,9","07,99,1,99,9,99,9,99999,9,99,9,99,9",,"10139,1,99999,9",,,,,"MET065METAR EDBC 151550Z 36005KT 9999 FEW021 BKN031 BKN087 08/06 Q1014;",
"10616499999","2010-11-16T05:20:00","4","51.854992","11.418889","180.0","COCHSTEDT, GM","FM-15","EDBC ","V020","010,1,N,0041,1","00660,1,C,N","008000,1,N,1","+0050,1","+0040,1","99999,9","07,5,+00660,1,99,9",,,"07,99,1,99,9,99,9,99999,9,99,9,99,9",,"10190,1,99999,9","61,1",,,,"MET055METAR EDBC 160520Z 01008KT 8000 -RA BKN022 05/04 Q1019;",
"10616499999","2010-11-16T05:50:00","4","51.854992","11.418889","180.0","COCHSTEDT, GM","FM-15","EDBC ","V020","010,1,N,0041,1","00600,1,C,N","008000,1,N,1","+0050,1","+0040,1","99999,9","07,5,+00600,1,99,9",,,"07,99,1,99,9,99,9,99999,9,99,9,99,9",,"10190,1,99999,9","61,1",,,,"MET055METAR EDBC 160550Z 01008KT 8000 -RA BKN020 05/04 Q1019;",
"10616499999","2010-11-16T06:20:00","4","51.854992","11.418889","180.0","COCHSTEDT, GM","FM-15","EDBC ","V020","010,1,N,0046,1","00570,1,C,N","006000,1,N,1","+0050,1","+0040,1","99999,9","07,5,+00570,1,99,9",,,"07,99,1,99,9,99,9,99999,9,99,9,99,9",,"10190,1,99999,9","61,1",,,,"MET055METAR EDBC 160620Z 01009KT 6000 -RA BKN019 05/04 Q1019;",
"10616499999","2010-11-16T06:50:00","4","51.854992","11.418889","180.0","COCHSTEDT, GM","FM-15","EDBC ","V020","010,1,N,0046,1","00540,1,C,N","006000,1,N,1","+0050,1","+0040,1","99999,9","07,5,+00540,1,99,9",,,"07,99,1,99,9,99,9,99999,9,99,9,99,9",,"10200,1,99999,9","61,1",,,,"MET055METAR EDBC 160650Z 01009KT 6000 -RA BKN018 05/04 Q1020;",
"10616499999","2010-11-16T07:20:00","4","51.854992","11.418889","180.0","COCHSTEDT, GM","FM-15","EDBC ","V020","020,1,N,0046,1","00150,1,C,N","005000,1,N,1","+0050,1","+0040,1","99999,9","07,5,+00150,1,99,9","08,5,+00510,1,99,9",,"08,99,1,99,9,99,9,99999,9,99,9,99,9",,"10200,1,99999,9","61,1",,,,"MET062METAR EDBC 160720Z 02009KT 5000 -RA BKN005 OVC017 05/04 Q1020;",
"10616499999","2010-11-16T07:50:00","4","51.854992","11.418889","180.0","COCHSTEDT, GM","FM-15","EDBC ","V020","010,1,N,0041,1","00630,1,C,N","006000,1,N,1","+0050,1","+0050,1","99999,9","04,5,+00210,1,99,9","07,5,+00630,1,99,9",,"07,99,1,99,9,99,9,99999,9,99,9,99,9",,"10200,1,99999,9","61,1",,,,"MET062METAR EDBC 160750Z 01008KT 6000 -RA SCT007 BKN021 05/05 Q1020;",
"10616499999","2010-11-16T08:20:00","4","51.854992","11.418889","180.0","COCHSTEDT, GM","FM-15","EDBC ","V020","020,1,N,0051,1","00450,1,C,N","005000,1,N,1","+0050,1","+0040,1","99999,9","02,5,+00120,1,99,9","04,5,+00450,1,99,9","07,5,+00570,1,99,9","07,99,1,99,9,99,9,99999,9,99,9,99,9",,"10200,1,99999,9","61,1",,,,"MET069METAR EDBC 160820Z 02010KT 5000 -RA FEW004 SCT015 BKN019 05/04 Q1020;",
"10616499999","2010-11-16T08:50:00","4","51.854992","11.418889","180.0","COCHSTEDT, GM","FM-15","EDBC ","V020","020,1,N,0046,1","00600,1,C,N","005000,1,N,1","+0050,1","+0040,1","99999,9","02,5,+00150,1,99,9","07,5,+00600,1,99,9",,"07,99,1,99,9,99,9,99999,9,99,9,99,9",,"10200,1,99999,9","10,1","51,1","61,1",,"MET067METAR EDBC 160850Z 02009KT 5000 -RADZ BR FEW005 BKN020 05/04 Q1020;",
"10616499999","2010-11-16T09:20:00","4","51.854992","11.418889","180.0","COCHSTEDT, GM","FM-15","EDBC ","V020","010,1,N,0036,1","00690,1,C,N","005000,1,N,1","+0050,1","+0050,1","99999,9","02,5,+00300,1,99,9","07,5,+00690,1,99,9",,"07,99,1,99,9,99,9,99999,9,99,9,99,9",,"10210,1,99999,9","10,1","53,1","63,1",,"MET066METAR EDBC 160920Z 01007KT 5000 RADZ BR FEW010 BKN023 05/05 Q1021;",
"10616499999","2010-11-16T09:50:00","4","51.854992","11.418889","180.0","COCHSTEDT, GM","FM-15","EDBC ","V020","010,1,N,0046,1","00240,1,C,N","003000,1,N,1","+0050,1","+0050,1","99999,9","07,5,+00240,1,99,9",,,"07,99,1,99,9,99,9,99999,9,99,9,99,9",,"10210,1,99999,9","10,1","53,1","63,1",,"MET059METAR EDBC 160950Z 01009KT 3000 RADZ BR BKN008 05/05 Q1021;",
"10616499999","2010-11-16T10:20:00","4","51.854992","11.418889","180.0","COCHSTEDT, GM","FM-15","EDBC ","V020","020,1,N,0051,1","00420,1,C,N","003000,1,N,1","+0050,1","+0050,1","99999,9","04,5,+00090,1,99,9","07,5,+00420,1,99,9",,"07,99,1,99,9,99,9,99999,9,99,9,99,9",,"10210,1,99999,9","10,1","53,1","63,1",,"MET066METAR EDBC 161020Z 02010KT 3000 RADZ BR SCT003 BKN014 05/05 Q1021;",
"10616499999","2010-11-16T10:50:00","4","51.854992","11.418889","180.0","COCHSTEDT, GM","FM-15","EDBC ","V020","030,1,N,0067,1","00690,1,C,N","006000,1,N,1","+0050,1","+0050,1","99999,9","04,5,+00150,1,99,9","07,5,+00690,1,99,9",,"07,99,1,99,9,99,9,99999,9,99,9,99,9",,"10200,1,99999,9","51,1","61,1",,,"MET064METAR EDBC 161050Z 03013KT 6000 -RADZ SCT005 BKN023 05/05 Q1020;",
"10616499999","2010-11-16T11:20:00","4","51.854992","11.418889","180.0","COCHSTEDT, GM","FM-15","EDBC ","V020","040,1,N,0057,1","00570,1,C,N","008000,1,N,1","+0050,1","+0040,1","99999,9","02,5,+00150,1,99,9","04,5,+00570,1,99,9","07,5,+00750,1,99,9","07,99,1,99,9,99,9,99999,9,99,9,99,9",,"10210,1,99999,9","51,1",,,,"MET069METAR EDBC 161120Z 04011KT 8000 -DZ FEW005 SCT019 BKN025 05/04 Q1021;",
"10616499999","2010-11-16T11:50:00","4","51.854992","11.418889","180.0","COCHSTEDT, GM","FM-15","EDBC ","V020","040,1,N,0062,1","00660,1,C,N","008000,1,N,1","+0050,1","+0040,1","99999,9","02,5,+00300,1,99,9","07,5,+00660,1,99,9",,"07,99,1,99,9,99,9,99999,9,99,9,99,9",,"10200,1,99999,9","63,1",,,,"MET061METAR EDBC 161150Z 04012KT 8000 RA FEW010 BKN022 05/04 Q1020;",
"10616499999","2010-11-16T12:20:00","4","51.854992","11.418889","180.0","COCHSTEDT, GM","FM-15","EDBC ","V020","040,1,N,0057,1","00570,1,C,N","011265,1,N,1","+0050,1","+0040,1","99999,9","02,5,+00210,1,99,9","07,5,+00570,1,99,9",,"07,99,1,99,9,99,9,99999,9,99,9,99,9",,"10210,1,99999,9",,,,,"MET058METAR EDBC 161220Z 04011KT 9999 FEW007 BKN019 05/04 Q1021;",
"10616499999","2010-11-16T12:50:00","4","51.854992","11.418889","180.0","COCHSTEDT, GM","FM-15","EDBC ","V020","040,1,N,0057,1","00600,1,C,N","011265,1,N,1","+0050,1","+0040,1","99999,9","02,5,+00300,1,99,9","07,5,+00600,1,99,9",,"07,99,1,99,9,99,9,99999,9,99,9,99,9",,"10200,1,99999,9",,,,,"MET058METAR EDBC 161250Z 04011KT 9999 FEW010 BKN020 05/04 Q1020;",
"10616499999","2010-11-16T13:20:00","4","51.854992","11.418889","180.0","COCHSTEDT, GM","FM-15","EDBC ","V020","030,1,N,0057,1","00660,1,C,N","011265,1,N,1","+0050,1","+0040,1","99999,9","02,5,+00210,1,99,9","07,5,+00660,1,99,9",,"07,99,1,99,9,99,9,99999,9,99,9,99,9",,"10200,1,99999,9",,,,,"MET058METAR EDBC 161320Z 03011KT 9999 FEW007 BKN022 05/04 Q1020;",
"10616499999","2010-11-16T13:50:00","4","51.854992","11.418889","180.0","COCHSTEDT, GM","FM-15","EDBC ","V020","020,1,N,0057,1","00630,1,C,N","011265,1,N,1","+0050,1","+0040,1","99999,9","04,5,+00180,1,99,9","07,5,+00630,1,99,9",,"07,99,1,99,9,99,9,99999,9,99,9,99,9",,"10200,1,99999,9",,,,,"MET058METAR EDBC 161350Z 02011KT 9999 SCT006 BKN021 05/04 Q1020;",
"10616499999","2010-11-16T14:20:00","4","51.854992","11.418889","180.0","COCHSTEDT, GM","FM-15","EDBC ","V020","030,1,N,0051,1","00180,1,C,N","008000,1,N,1","+0050,1","+0040,1","99999,9","07,5,+00180,1,99,9",,,"07,99,1,99,9,99,9,99999,9,99,9,99,9",,"10200,1,99999,9",,,,,"MET051METAR EDBC 161420Z 03010KT 8000 BKN006 05/04 Q1020;",
"10616499999","2010-11-16T14:50:00","4","51.854992","11.418889","180.0","COCHSTEDT, GM","FM-15","EDBC ","V020","020,1,N,0046,1","00120,1,C,N","007000,1,N,1","+0050,1","+0040,1","99999,9","07,5,+00120,1,99,9",,,"07,99,1,99,9,99,9,99999,9,99,9,99,9",,"10200,1,99999,9",,,,,"MET051METAR EDBC 161450Z 02009KT 7000 BKN004 05/04 Q1020;",
"10616499999","2010-11-17T05:20:00","4","51.854992","11.418889","180.0","COCHSTEDT, GM","FM-15","EDBC ","V020","040,1,N,0036,1","00150,1,C,N","005000,1,N,1","+0030,1","+0030,1","99999,9","07,5,+00150,1,99,9",,,"07,99,1,99,9,99,9,99999,9,99,9,99,9",,"10149,1,99999,9","10,1","51,1",,,"MET058METAR EDBC 170520Z 04007KT 5000 -DZ BR BKN005 03/03 Q1015;",
"10616499999","2010-11-17T05:50:00","4","51.854992","11.418889","180.0","COCHSTEDT, GM","FM-15","EDBC ","V020","030,1,N,0031,1","00180,1,C,N","005000,1,N,1","+0030,1","+0030,1","99999,9","04,5,+00090,1,99,9","07,5,+00180,1,99,9",,"07,99,1,99,9,99,9,99999,9,99,9,99,9",,"10149,1,99999,9","10,1","51,1",,,"MET065METAR EDBC 170550Z 03006KT 5000 BR -DZ SCT003 BKN006 03/03 Q1015;",
"10616499999","2010-11-17T06:20:00","4","51.854992","11.418889","180.0","COCHSTEDT, GM","FM-15","EDBC ","V020","040,1,N,0036,1","00150,1,C,N","005000,1,N,1","+0030,1","+0030,1","99999,9","07,5,+00150,1,99,9",,,"07,99,1,99,9,99,9,99999,9,99,9,99,9",,"10149,1,99999,9","10,1","51,1",,,"MET058METAR EDBC 170620Z 04007KT 5000 BR -DZ BKN005 03/03 Q1015;",
"10616499999","2010-11-17T06:50:00","4","51.854992","11.418889","180.0","COCHSTEDT, GM","FM-15","EDBC ","V020","040,1,N,0036,1","00180,1,C,N","003000,1,N,1","+0030,1","+0030,1","99999,9","04,5,+00060,1,99,9","07,5,+00180,1,99,9",,"07,99,1,99,9,99,9,99999,9,99,9,99,9",,"10149,1,99999,9","10,1","51,1",,,"MET065METAR EDBC 170650Z 04007KT 3000 BR -DZ SCT002 BKN006 03/03 Q1015;",
"10616499999","2010-11-17T07:20:00","4","51.854992","11.418889","180.0","COCHSTEDT, GM","FM-15","EDBC ","V020","050,1,N,0031,1","00090,1,C,N","003000,1,N,1","+0030,1","+0030,1","99999,9","08,5,+00090,1,99,9",,,"08,99,1,99,9,99,9,99999,9,99,9,99,9",,"10149,1,99999,9","10,1","51,1",,,"MET058METAR EDBC 170720Z 05006KT 3000 -DZ BR OVC003 03/03 Q1015;",
"10616499999","2010-11-17T07:50:00","4","51.854992","11.418889","180.0","COCHSTEDT, GM","FM-15","EDBC ","V020","040,1,N,0031,1","00090,1,C,N","002500,1,N,1","+0030,1","+0030,1","99999,9","08,5,+00090,1,99,9",,,"08,99,1,99,9,99,9,99999,9,99,9,99,9",,"10149,1,99999,9","10,1","51,1",,,"MET058METAR EDBC 170750Z 04006KT 2500 -DZ BR OVC003 03/03 Q1015;",
"10616499999","2010-11-17T08:20:00","4","51.854992","11.418889","180.0","COCHSTEDT, GM","FM-15","EDBC ","V020","040,1,N,0036,1","00090,1,C,N","002500,1,N,1","+0030,1","+0030,1","99999,9","08,5,+00090,1,99,9",,,"08,99,1,99,9,99,9,99999,9,99,9,99,9",,"10139,1,99999,9","10,1",,,,"MET062METAR EDBC 170820Z 04007KT 020V080 2500 BR OVC003 03/03 Q1014;",
"10616499999","2010-11-17T08:50:00","4","51.854992","11.418889","180.0","COCHSTEDT, GM","FM-15","EDBC ","V020","050,1,N,0031,1","00120,1,C,N","003000,1,N,1","+0030,1","+0030,1","99999,9","08,5,+00120,1,99,9",,,"08,99,1,99,9,99,9,99999,9,99,9,99,9",,"10139,1,99999,9","10,1",,,,"MET054METAR EDBC 170850Z 05006KT 3000 BR OVC004 03/03 Q1014;",
"10616499999","2010-11-17T09:20:00","4","51.854992","11.418889","180.0","COCHSTEDT, GM","FM-15","EDBC ","V020","060,1,N,0036,1","00150,1,C,N","004000,1,N,1","+0030,1","+0030,1","99999,9","04,5,+00090,1,99,9","07,5,+00150,1,99,9",,"07,99,1,99,9,99,9,99999,9,99,9,99,9",,"10139,1,99999,9","10,1",,,,"MET061METAR EDBC 170920Z 06007KT 4000 BR SCT003 BKN005 03/03 Q1014;",
"10616499999","2010-11-17T09:50:00","4","51.854992","11.418889","180.0","COCHSTEDT, GM","FM-15","EDBC ","V020","050,1,N,0031,1","00150,1,C,N","002500,1,N,1","+0030,1","+0030,1","99999,9","04,5,+00090,1,99,9","08,5,+00150,1,99,9",,"08,99,1,99,9,99,9,99999,9,99,9,99,9",,"10139,1,99999,9","10,1",,,,"MET061METAR EDBC 170950Z 05006KT 2500 BR SCT003 OVC005 03/03 Q1014;",
"10616499999","2010-11-17T10:20:00","4","51.854992","11.418889","180.0","COCHSTEDT, GM","FM-15","EDBC ","V020","050,1,N,0036,1","00120,1,C,N","004000,1,N,1","+0030,1","+0030,1","99999,9","07,5,+00120,1,99,9",,,"07,99,1,99,9,99,9,99999,9,99,9,99,9",,"10129,1,99999,9","10,1",,,,"MET062METAR EDBC 171020Z 05007KT 020V080 4000 BR BKN004 03/03 Q1013;",
"10616499999","2010-11-17T10:50:00","4","51.854992","11.418889","180.0","COCHSTEDT, GM","FM-15","EDBC ","V020","040,1,N,0036,1","00090,1,C,N","003000,1,N,1","+0030,1","+0030,1","99999,9","08,5,+00090,1,99,9",,,"08,99,1,99,9,99,9,99999,9,99,9,99,9",,"10129,1,99999,9","10,1","51,1",,,"MET058METAR EDBC 171050Z 04007KT 3000 BR -DZ OVC003 03/03 Q1013;",
"10616499999","2010-11-17T11:20:00","4","51.854992","11.418889","180.0","COCHSTEDT, GM","FM-15","EDBC ","V020","050,1,N,0036,1","22000,1,9,N","003000,1,N,1","+0030,1","+0030,1","99999,9",,,,,,"10130,1,99999,9","10,1","51,1",,,"MET059METAR EDBC 171120Z 05007KT 3000 BR -DZ OVC 003 03/03 Q1013;",
"10616499999","2010-11-17T11:50:00","4","51.854992","11.418889","180.0","COCHSTEDT, GM","FM-15","EDBC ","V020","040,1,N,0036,1","00120,1,C,N","005000,1,N,1","+0030,1","+0030,1","99999,9","07,5,+00120,1,99,9",,,"07,99,1,99,9,99,9,99999,9,99,9,99,9",,"10129,1,99999,9","10,1",,,,"MET054METAR EDBC 171150Z 04007KT 5000 BR BKN004 03/03 Q1013;",
"10616499999","2010-11-17T12:20:00","4","51.854992","11.418889","180.0","COCHSTEDT, GM","FM-15","EDBC ","V020","030,1,N,0036,1","00180,1,C,N","005000,1,N,1","+0030,1","+0030,1","99999,9","07,5,+00180,1,99,9",,,"07,99,1,99,9,99,9,99999,9,99,9,99,9",,"10129,1,99999,9","10,1",,,,"MET054METAR EDBC 171220Z 03007KT 5000 BR BKN006 03/03 Q1013;",
"10616499999","2010-11-17T12:50:00","4","51.854992","11.418889","180.0","COCHSTEDT, GM","FM-15","EDBC ","V020","050,1,N,0026,1","00120,1,C,N","005000,1,N,1","+0030,1","+0030,1","99999,9","07,5,+00120,1,99,9",,,"07,99,1,99,9,99,9,99999,9,99,9,99,9",,"10119,1,99999,9",,,,,"MET051METAR EDBC 171250Z 05005KT 5000 BKN004 03/03 Q1012;",
"10616499999","2010-11-17T13:20:00","4","51.854992","11.418889","180.0","COCHSTEDT, GM","FM-15","EDBC ","V020","040,1,N,0031,1","00060,1,C,N","005000,1,N,1","+0030,1","+0030,1","99999,9","07,5,+00060,1,99,9",,,"07,99,1,99,9,99,9,99999,9,99,9,99,9",,"10119,1,99999,9",,,,,"MET051METAR EDBC 171320Z 04006KT 5000 BKN002 03/03 Q1012;",
"10616499999","2010-11-17T13:50:00","4","51.854992","11.418889","180.0","COCHSTEDT, GM","FM-15","EDBC ","V020","020,1,N,0031,1","00090,1,C,N","005000,1,N,1","+0030,1","+0030,1","99999,9","07,5,+00090,1,99,9",,,"07,99,1,99,9,99,9,99999,9,99,9,99,9",,"10119,1,99999,9",,,,,"MET051METAR EDBC 171350Z 02006KT 5000 BKN003 03/03 Q1012;",
"10616499999","2010-11-17T14:20:00","4","51.854992","11.418889","180.0","COCHSTEDT, GM","FM-15","EDBC ","V020","040,1,N,0031,1","00090,1,C,N","003000,1,N,1","+0030,1","+0030,1","99999,9","07,5,+00090,1,99,9",,,"07,99,1,99,9,99,9,99999,9,99,9,99,9",,"10108,1,99999,9",,,,,"MET051METAR EDBC 171420Z 04006KT 3000 BKN003 03/03 Q1011;",
"10616499999","2010-11-17T14:50:00","4","51.854992","11.418889","180.0","COCHSTEDT, GM","FM-15","EDBC ","V020","040,1,N,0031,1","00090,1,C,N","003000,1,N,1","+0030,1","+0030,1","99999,9","07,5,+00090,1,99,9",,,"07,99,1,99,9,99,9,99999,9,99,9,99,9",,"10108,1,99999,9",,,,,"MET051METAR EDBC 171450Z 04006KT 3000 BKN003 03/03 Q1011;",
"10616499999","2010-11-17T15:20:00","4","51.854992","11.418889","180.0","COCHSTEDT, GM","FM-15","EDBC ","V020","040,1,N,0031,1","00090,1,C,N","002500,1,N,1","+0030,1","+0030,1","99999,9","07,5,+00090,1,99,9","08,5,+00120,1,99,9",,"08,99,1,99,9,99,9,99999,9,99,9,99,9",,"10108,1,99999,9","10,1",,,,"MET061METAR EDBC 171520Z 04006KT 2500 BR BKN003 OVC004 03/03 Q1011;",
"10616499999","2010-11-17T15:50:00","4","51.854992","11.418889","180.0","COCHSTEDT, GM","FM-15","EDBC ","V020","040,1,N,0031,1","00150,1,C,N","002500,1,N,1","+0030,1","+0030,1","99999,9","04,5,+00090,1,99,9","07,5,+00150,1,99,9",,"07,99,1,99,9,99,9,99999,9,99,9,99,9",,"10108,1,99999,9","10,1",,,,"MET061METAR EDBC 171550Z 04006KT 2500 BR SCT003 BKN005 03/03 Q1011;",
"10616499999","2010-11-17T16:20:00","4","51.854992","11.418889","180.0","COCHSTEDT, GM","FM-15","EDBC ","V020","040,1,N,0026,1","00150,1,C,N","003000,1,N,1","+0030,1","+0030,1","99999,9","02,5,+00090,1,99,9","07,5,+00150,1,99,9",,"07,99,1,99,9,99,9,99999,9,99,9,99,9",,"10108,1,99999,9","10,1",,,,"MET061METAR EDBC 171620Z 04005KT 3000 BR FEW003 BKN005 03/03 Q1011;",
"10616499999","2010-11-17T16:50:00","4","51.854992","11.418889","180.0","COCHSTEDT, GM","FM-15","EDBC ","V020","040,1,N,0026,1","00120,1,C,N","002000,1,N,1","+0030,1","+0030,1","99999,9","07,5,+00120,1,99,9",,,"07,99,1,99,9,99,9,99999,9,99,9,99,9",,"10108,1,99999,9","10,1",,,,"MET054METAR EDBC 171650Z 04005KT 2000 BR BKN004 03/03 Q1011;",
"10616499999","2010-11-17T18:20:00","4","51.854992","11.418889","180.0","COCHSTEDT, GM","FM-15","EDBC ","V020","060,1,N,0031,1","00060,1,C,N","001500,1,N,1","+0030,1","+0030,1","99999,9","08,5,+00060,1,99,9",,,"08,99,1,99,9,99,9,99999,9,99,9,99,9",,"10102,1,99999,9","10,1",,,,"MET069METAR EDBC 171820Z 06006KT 1500 R26/0800V1400U BR OVC002 03/03 Q1010;",
"10616499999","2010-11-17T18:50:00","4","51.854992","11.418889","180.0","COCHSTEDT, GM","FM-15","EDBC ","V020","060,1,N,0031,1","00060,1,C,N","001500,1,N,1","+0030,1","+0030,1","99999,9","08,5,+00060,1,99,9",,,"08,99,1,99,9,99,9,99999,9,99,9,99,9",,"10102,1,99999,9","10,1",,,,"MET069METAR EDBC 171850Z 06006KT 1500 R26/0550V0750D BR OVC002 03/03 Q1010;",
"10616499999","2010-11-18T05:20:00","4","51.854992","11.418889","180.0","COCHSTEDT, GM","FM-15","EDBC ","V020","060,1,N,0021,1","00015,1,C,N","000800,1,N,1","+0030,1","+0030,1","99999,9","09,1,+00015,1,99,9",,,"09,99,1,99,9,99,9,00025,1,99,9,99,9",,"10091,1,99999,9","45,1",,,,"MET053METAR EDBC 180520Z 06004KT 0800 FG VV/// 03/03 Q1009;",
"10616499999","2010-11-18T05:50:00","4","51.854992","11.418889","180.0","COCHSTEDT, GM","FM-15","EDBC ","V020","070,1,N,0021,1","00015,1,C,N","000400,1,N,1","+0030,1","+0030,1","99999,9","09,1,+00015,1,99,9",,,"09,99,1,99,9,99,9,00025,1,99,9,99,9",,"10091,1,99999,9","45,1",,,,"MET053METAR EDBC 180550Z 07004KT 0400 FG VV/// 03/03 Q1009;",
"10616499999","2010-11-18T06:20:00","4","51.854992","11.418889","180.0","COCHSTEDT, GM","FM-15","EDBC ","V020","070,1,N,0021,1","00015,1,C,N","000400,1,N,1","+0030,1","+0030,1","99999,9","09,1,+00015,1,99,9",,,"09,99,1,99,9,99,9,00025,1,99,9,99,9",,"10091,1,99999,9","45,1",,,,"MET052METAR EDBC 180620Z 07004KT 0400 FG VV///03/03 Q1009;",
"10616499999","2010-11-18T06:50:00","4","51.854992","11.418889","180.0","COCHSTEDT, GM","FM-15","EDBC ","V020","060,1,N,0015,1","00015,1,C,N","000600,1,N,1","+0040,1","+0040,1","99999,9","09,1,+00015,1,99,9",,,"09,99,1,99,9,99,9,00025,1,99,9,99,9",,"10091,1,99999,9","45,1",,,,"MET053METAR EDBC 180650Z 06003KT 0600 FG VV/// 04/04 Q1009;",
"10616499999","2010-11-18T07:20:00","4","51.854992","11.418889","180.0","COCHSTEDT, GM","FM-15","EDBC ","V020","050,1,N,0015,1","00015,1,C,N","000400,1,N,1","+0040,1","+0040,1","99999,9","09,1,+00015,1,99,9",,,"09,99,1,99,9,99,9,00025,1,99,9,99,9",,"10091,1,99999,9","45,1",,,,"MET053METAR EDBC 180720Z 05003KT 0400 FG VV/// 04/04 Q1009;",
"10616499999","2010-11-18T07:50:00","4","51.854992","11.418889","180.0","COCHSTEDT, GM","FM-15","EDBC ","V020","050,1,N,0015,1","00015,1,C,N","000300,1,N,1","+0040,1","+0040,1","99999,9","09,1,+00015,1,99,9",,,"09,99,1,99,9,99,9,00025,1,99,9,99,9",,"10091,1,99999,9","45,1",,,,"MET063METAR EDBC 180750Z 05003KT 0300 R26/0275N FG VV/// 04/04 Q1009;",
"10616499999","2010-11-18T08:20:00","4","51.854992","11.418889","180.0","COCHSTEDT, GM","FM-15","EDBC ","V020","020,1,N,0021,1","00015,1,C,N","000200,1,N,1","+0040,1","+0040,1","99999,9","09,1,+00015,1,99,9",,,"09,99,1,99,9,99,9,00025,1,99,9,99,9",,"10091,1,99999,9","45,1",,,,"MET063METAR EDBC 180820Z 02004KT 0200 R26/0200N FG VV/// 04/04 Q1009;",
"10616499999","2010-11-18T08:50:00","4","51.854992","11.418889","180.0","COCHSTEDT, GM","FM-15","EDBC ","V020","040,1,N,0015,1","00015,1,C,N","000300,1,N,1","+0040,1","+0040,1","99999,9","09,1,+00015,1,99,9",,,"09,99,1,99,9,99,9,00025,1,99,9,99,9",,"10091,1,99999,9","45,1",,,,"MET063METAR EDBC 180850Z 04003KT 0300 R26/0225N FG VV/// 04/04 Q1009;",
"10616499999","2010-11-18T09:20:00","4","51.854992","11.418889","180.0","COCHSTEDT, GM","FM-15","EDBC ","V020","070,1,N,0021,1","00015,1,C,N","000500,1,N,1","+0040,1","+0040,1","99999,9","09,1,+00015,1,99,9",,,"09,99,1,99,9,99,9,00025,1,99,9,99,9",,"10091,1,99999,9","10,1",,,,"MET076METAR EDBC 180920Z 07004KT 030V090 0500 R26/0325V0500N BR VV/// 04/04 Q1009;",
"10616499999","2010-11-18T09:50:00","4","51.854992","11.418889","180.0","COCHSTEDT, GM","FM-15","EDBC ","V020","999,9,V,0015,1","00015,1,C,N","000300,1,N,1","+0040,1","+0040,1","99999,9","09,1,+00015,1,99,9",,,"09,99,1,99,9,99,9,00025,1,99,9,99,9",,"10091,1,99999,9","45,1",,,,"MET062METAR EDBC 180950Z VRB03KT 0300R26/0300N FG VV/// 04/04 Q1009;",
"10616499999","2010-11-18T10:20:00","4","51.854992","11.418889","180.0","COCHSTEDT, GM","FM-15","EDBC ","V020","999,9,V,0015,1","00015,1,C,N","000400,1,N,1","+0040,1","+0040,1","99999,9","09,1,+00015,1,99,9",,,"09,99,1,99,9,99,9,00025,1,99,9,99,9",,"10091,1,99999,9","45,1",,,,"MET068METAR EDBC 181020Z VRB03KT 0400 R26/0325V0450N FG VV/// 04/04 Q1009;",
"10616499999","2010-11-18T10:50:00","4","51.854992","11.418889","180.0","COCHSTEDT, GM","FM-15","EDBC ","V020","999,9,V,0015,1","00030,1,C,N","000800,1,N,1","+0040,1","+0040,1","99999,9","08,5,+00030,1,99,9",,,"08,99,1,99,9,99,9,99999,9,99,9,99,9",,"10091,1,99999,9","44,1",,,,"MET063METAR EDBC 181050Z VRB03KT 0800R26/0450D FG OVC001 04/04 Q1009;",
"10616499999","2010-11-18T11:20:00","4","51.854992","11.418889","180.0","COCHSTEDT, GM","FM-15","EDBC ","V020","010,1,N,0015,1","00090,1,C,N","001000,1,N,1","+0040,1","+0040,1","99999,9","07,5,+00090,1,99,9",,,"07,99,1,99,9,99,9,99999,9,99,9,99,9",,"10091,1,99999,9","44,1",,,,"MET064METAR EDBC 181120Z 01003KT 1000 R26/0550N FG BKN003 04/04 Q1009;",
"10616499999","2010-11-18T11:50:00","4","51.854992","11.418889","180.0","COCHSTEDT, GM","FM-15","EDBC ","V020","999,9,V,0010,1","00120,1,C,N","003000,1,N,1","+0040,1","+0040,1","99999,9","07,5,+00120,1,99,9",,,"07,99,1,99,9,99,9,99999,9,99,9,99,9",,"10091,1,99999,9","10,1",,,,"MET053METAR EDBC 181150Z VRB02KT3000 BR BKN004 04/04 Q1009;",
"10616499999","2010-11-18T12:20:00","4","51.854992","11.418889","180.0","COCHSTEDT, GM","FM-15","EDBC ","V020","320,1,N,0021,1","00120,1,C,N","004000,1,N,1","+0040,1","+0040,1","99999,9","07,5,+00120,1,99,9",,,"07,99,1,99,9,99,9,99999,9,99,9,99,9",,"10091,1,99999,9","81,1",,,,"MET056METAR EDBC 181220Z 32004KT 4000 SHRA BKN004 04/04 Q1009;",
"10616499999","2010-11-18T12:50:00","4","51.854992","11.418889","180.0","COCHSTEDT, GM","FM-15","EDBC ","V020","340,1,N,0021,1","00090,1,C,N","004000,1,N,1","+0040,1","+0040,1","99999,9","07,5,+00090,1,99,9",,,"07,99,1,99,9,99,9,99999,9,99,9,99,9",,"10091,1,99999,9","81,1",,,,"MET056METAR EDBC 181250Z 34004KT 4000 SHRA BKN003 04/04 Q1009;",
"10616499999","2010-11-18T13:20:00","4","51.854992","11.418889","180.0","COCHSTEDT, GM","FM-15","EDBC ","V020","340,1,N,0021,1","00090,1,C,N","004000,1,N,1","+0040,1","+0040,1","99999,9","07,5,+00090,1,99,9",,,"07,99,1,99,9,99,9,99999,9,99,9,99,9",,"10091,1,99999,9",,,,,"MET051METAR EDBC 181320Z 34004KT 4000 BKN003 04/04 Q1009;",
"10616499999","2010-11-18T13:50:00","4","51.854992","11.418889","180.0","COCHSTEDT, GM","FM-15","EDBC ","V020","340,1,N,0021,1","00120,1,C,N","004000,1,N,1","+0040,1","+0040,1","99999,9","07,5,+00120,1,99,9",,,"07,99,1,99,9,99,9,99999,9,99,9,99,9",,"10091,1,99999,9",,,,,"MET051METAR EDBC 181350Z 34004KT 4000 BKN004 04/04 Q1009;",
"10616499999","2010-11-18T14:20:00","4","51.854992","11.418889","180.0","COCHSTEDT, GM","FM-15","EDBC ","V020","330,1,N,0021,1","00090,1,C,N","004000,1,N,1","+0040,1","+0040,1","99999,9","07,5,+00090,1,99,9",,,"07,99,1,99,9,99,9,99999,9,99,9,99,9",,"10091,1,99999,9",,,,,"MET051METAR EDBC 181420Z 33004KT 4000 BKN003 04/04 Q1009;",
"10616499999","2010-11-18T14:50:00","4","51.854992","11.418889","180.0","COCHSTEDT, GM","FM-15","EDBC ","V020","320,1,N,0015,1","00090,1,C,N","004000,1,N,1","+0040,1","+0040,1","99999,9","07,5,+00090,1,99,9",,,"07,99,1,99,9,99,9,99999,9,99,9,99,9",,"10091,1,99999,9",,,,,"MET051METAR EDBC 181450Z 32003KT 4000 BKN003 04/04 Q1009;",
"10616499999","2010-11-19T05:20:00","4","51.854992","11.418889","180.0","COCHSTEDT, GM","FM-15","EDBC ","V020","190,1,N,0021,1","01680,5,C,N","011265,1,N,1","+0030,1","+0020,1","99999,9","04,5,+00600,1,99,9","07,5,+01680,5,99,9",,"07,99,1,99,9,99,9,99999,9,99,9,99,9",,"10119,1,99999,9",,,,,"MET058METAR EDBC 190520Z 19004KT 9999 SCT020 BKN056 03/02 Q1012;",
"10616499999","2010-11-19T05:50:00","4","51.854992","11.418889","180.0","COCHSTEDT, GM","FM-15","EDBC ","V020","200,1,N,0026,1","99999,9,C,N","011265,1,N,1","+0030,1","+0030,1","99999,9","02,5,+00540,1,99,9","04,5,+00900,1,99,9",,"04,99,1,99,9,99,9,99999,9,99,9,99,9",,"10129,1,99999,9",,,,,"MET058METAR EDBC 190550Z 20005KT 9999 FEW018 SCT030 03/03 Q1013;","P01 009003SCOCIG"
"10616499999","2010-11-19T06:20:00","4","51.854992","11.418889","180.0","COCHSTEDT, GM","FM-15","EDBC ","V020","210,1,N,0026,1","00660,1,C,N","009000,1,N,1","+0040,1","+0030,1","99999,9","02,5,+00450,1,99,9","07,5,+00660,1,99,9",,"07,99,1,99,9,99,9,99999,9,99,9,99,9",,"10129,1,99999,9",,,,,"MET058METAR EDBC 190620Z 21005KT 9000 FEW015 BKN022 04/03 Q1013;",
"10616499999","2010-11-19T06:50:00","4","51.854992","11.418889","180.0","COCHSTEDT, GM","FM-15","EDBC ","V020","200,1,N,0031,1","00600,1,C,N","011265,1,N,1","+0040,1","+0030,1","99999,9","07,5,+00600,1,99,9",,,"07,99,1,99,9,99,9,99999,9,99,9,99,9",,"10129,1,99999,9",,,,,"MET051METAR EDBC 190650Z 20006KT 9999 BKN020 04/03 Q1013;",
"10616499999","2010-11-19T07:20:00","4","51.854992","11.418889","180.0","COCHSTEDT, GM","FM-15","EDBC ","V020","210,1,N,0026,1","00660,1,C,N","011265,1,N,1","+0050,1","+0030,1","99999,9","02,5,+00450,1,99,9","07,5,+00660,1,99,9",,"07,99,1,99,9,99,9,99999,9,99,9,99,9",,"10129,1,99999,9",,,,,"MET058METAR EDBC 190720Z 21005KT 9999 FEW015 BKN022 05/03 Q1013;",
"10616499999","2010-11-19T07:50:00","4","51.854992","11.418889","180.0","COCHSTEDT, GM","FM-15","EDBC ","V020","200,1,N,0031,1","00480,1,C,N","011265,1,N,1","+0050,1","+0040,1","99999,9","07,5,+00480,1,99,9",,,"07,99,1,99,9,99,9,99999,9,99,9,99,9",,"10139,1,99999,9",,,,,"MET051METAR EDBC 190750Z 20006KT 9999 BKN016 05/04 Q1014;",
"10616499999","2010-11-19T08:20:00","4","51.854992","11.418889","180.0","COCHSTEDT, GM","FM-15","EDBC ","V020","190,1,N,0031,1","01500,1,C,N","006000,1,N,1","+0050,1","+0040,1","99999,9","04,5,+00540,1,99,9","08,5,+01500,1,99,9",,"08,99,1,99,9,99,9,99999,9,99,9,99,9",,"10139,1,99999,9",,,,,"MET058METAR EDBC 190820Z 19006KT 6000 SCT018 OVC050 05/04 Q1014;",
"10616499999","2010-11-19T08:50:00","4","51.854992","11.418889","180.0","COCHSTEDT, GM","FM-15","EDBC ","V020","190,1,N,0026,1","00840,1,C,N","008000,1,N,1","+0050,1","+0040,1","99999,9","02,5,+00540,1,99,9","04,5,+00840,1,99,9","07,5,+01440,1,99,9","07,99,1,99,9,99,9,99999,9,99,9,99,9",,"10139,1,99999,9",,,,,"MET065METAR EDBC 190850Z 19005KT 8000 FEW018 SCT028 BKN048 05/04 Q1014;",
"10616499999","2010-11-19T09:20:00","4","51.854992","11.418889","180.0","COCHSTEDT, GM","FM-15","EDBC ","V020","200,1,N,0031,1","01440,1,C,N","008000,1,N,1","+0050,1","+0050,1","99999,9","07,5,+01440,1,99,9",,,"07,99,1,99,9,99,9,99999,9,99,9,99,9",,"10149,1,99999,9",,,,,"MET051METAR EDBC 190920Z 20006KT 8000 BKN048 05/05 Q1015;",
"10616499999","2010-11-19T09:50:00","4","51.854992","11.418889","180.0","COCHSTEDT, GM","FM-15","EDBC ","V020","220,1,N,0041,1","01350,1,C,N","011265,1,N,1","+0060,1","+0040,1","99999,9","02,5,+01110,1,99,9","07,5,+01350,1,99,9",,"07,99,1,99,9,99,9,99999,9,99,9,99,9",,"10149,1,99999,9",,,,,"MET058METAR EDBC 190950Z 22008KT 9999 FEW037 BKN045 06/04 Q1015;",
"10616499999","2010-11-19T10:20:00","4","51.854992","11.418889","180.0","COCHSTEDT, GM","FM-15","EDBC ","V020","210,1,N,0036,1","01380,1,C,N","011265,1,N,1","+0060,1","+0040,1","99999,9","02,5,+00960,1,99,9","07,5,+01380,1,99,9",,"07,99,1,99,9,99,9,99999,9,99,9,99,9",,"10149,1,99999,9",,,,,"MET058METAR EDBC 191020Z 21007KT 9999 FEW032 BKN046 06/04 Q1015;",
"10616499999","2010-11-19T10:50:00","4","51.854992","11.418889","180.0","COCHSTEDT, GM","FM-15","EDBC ","V020","220,1,N,0036,1","01260,1,C,N","011265,1,N,1","+0060,1","+0050,1","99999,9","07,5,+01260,1,99,9",,,"07,99,1,99,9,99,9,99999,9,99,9,99,9",,"10149,1,99999,9",,,,,"MET051METAR EDBC 191050Z 22007KT 9999 BKN042 06/05 Q1015;",
"10616499999","2010-11-19T11:20:00","4","51.854992","11.418889","180.0","COCHSTEDT, GM","FM-15","EDBC ","V020","220,1,N,0036,1","01320,1,C,N","011265,1,N,1","+0060,1","+0040,1","99999,9","07,5,+01320,1,99,9",,,"07,99,1,99,9,99,9,99999,9,99,9,99,9",,"10149,1,99999,9",,,,,"MET051METAR EDBC 191120Z 22007KT 9999 BKN044 06/04 Q1015;",
"10616499999","2010-11-19T11:50:00","4","51.854992","11.418889","180.0","COCHSTEDT, GM","FM-15","EDBC ","V020","230,1,N,0031,1","01260,1,C,N","011265,1,N,1","+0070,1","+0050,1","99999,9","07,5,+01260,1,99,9",,,"07,99,1,99,9,99,9,99999,9,99,9,99,9",,"10149,1,99999,9",,,,,"MET051METAR EDBC 191150Z 23006KT 9999 BKN042 07/05 Q1015;",
"10616499999","2010-11-19T12:20:00","4","51.854992","11.418889","180.0","COCHSTEDT, GM","FM-15","EDBC ","V020","220,1,N,0036,1","01140,1,C,N","011265,1,N,1","+0070,1","+0040,1","99999,9","07,5,+01140,1,99,9",,,"07,99,1,99,9,99,9,99999,9,99,9,99,9",,"10149,1,99999,9",,,,,"MET051METAR EDBC 191220Z 22007KT 9999 BKN038 07/04 Q1015;",
"10616499999","2010-11-19T12:50:00","4","51.854992","11.418889","180.0","COCHSTEDT, GM","FM-15","EDBC ","V020","220,1,N,0041,1","01080,1,C,N","011265,1,N,1","+0070,1","+0040,1","99999,9","07,5,+01080,1,99,9",,,"07,99,1,99,9,99,9,99999,9,99,9,99,9",,"10149,1,99999,9",,,,,"MET051METAR EDBC 191250Z 22008KT 9999 BKN036 07/04 Q1015;",
"10616499999","2010-11-19T13:20:00","4","51.854992","11.418889","180.0","COCHSTEDT, GM","FM-15","EDBC ","V020","220,1,N,0036,1","01200,1,C,N","011265,1,N,1","+0070,1","+0040,1","99999,9","08,5,+01200,1,99,9",,,"08,99,1,99,9,99,9,99999,9,99,9,99,9",,"10139,1,99999,9",,,,,"MET051METAR EDBC 191320Z 22007KT 9999 OVC040 07/04 Q1014;",
"10616499999","2010-11-19T13:50:00","4","51.854992","11.418889","180.0","COCHSTEDT, GM","FM-15","EDBC ","V020","220,1,N,0026,1","01200,1,C,N","011265,1,N,1","+0070,1","+0040,1","99999,9","07,5,+01200,1,99,9",,,"07,99,1,99,9,99,9,99999,9,99,9,99,9",,"10139,1,99999,9",,,,,"MET051METAR EDBC 191350Z 22005KT 9999 BKN040 07/04 Q1014;",
"10616499999","2010-11-19T14:20:00","4","51.854992","11.418889","180.0","COCHSTEDT, GM","FM-15","EDBC ","V020","210,1,N,0026,1","01200,1,C,N","011265,1,N,1","+0070,1","+0050,1","99999,9","07,5,+01200,1,99,9",,,"07,99,1,99,9,99,9,99999,9,99,9,99,9",,"10149,1,99999,9",,,,,"MET051METAR EDBC 191420Z 21005KT 9999 BKN040 07/05 Q1015;",
"10616499999","2010-11-19T14:50:00","4","51.854992","11.418889","180.0","COCHSTEDT, GM","FM-15","EDBC ","V020","200,1,N,0031,1","01200,1,C,N","011265,1,N,1","+0060,1","+0040,1","99999,9","08,5,+01200,1,99,9",,,"08,99,1,99,9,99,9,99999,9,99,9,99,9",,"10149,1,99999,9",,,,,"MET051METAR EDBC 191450Z 20006KT 9999 OVC040 06/04 Q1015;",
"10616499999","2010-11-22T05:20:00","4","51.854992","11.418889","180.0","COCHSTEDT, GM","FM-15","EDBC ","V020","020,1,N,0062,1","00015,1,C,N","001500,1,N,1","+0020,1","+0020,1","99999,9","07,5,+00000,5,99,9",,,"07,99,1,99,9,99,9,99999,9,99,9,99,9",,"10031,1,99999,9","44,1","53,1",,,"MET066METAR EDBC 220520Z 02012KT 1500 R26/0450N FGDZ BKN000 02/02 Q1003;",
"10616499999","2010-11-22T05:50:00","4","51.854992","11.418889","180.0","COCHSTEDT, GM","FM-15","EDBC ","V020","010,1,N,0067,1","00015,1,C,N","001000,1,N,1","+0020,1","+0020,1","99999,9","07,5,+00000,5,99,9",,,"07,99,1,99,9,99,9,99999,9,99,9,99,9",,"10020,1,99999,9","44,1","53,1",,,"MET066METAR EDBC 220550Z 01013KT 1000 R26/0500N FGDZ BKN000 02/02 Q1002;",
"10616499999","2010-11-22T06:20:00","4","51.854992","11.418889","180.0","COCHSTEDT, GM","FM-15","EDBC ","V020","010,1,N,0067,1","00015,1,C,N","000500,1,N,1","+0020,1","+0020,1","99999,9","07,5,+00000,5,99,9",,,"07,99,1,99,9,99,9,99999,9,99,9,99,9",,"10020,1,99999,9","44,1","53,1",,,"MET071METAR EDBC 220620Z 01013KT 0500 R26/0550V0800U FGDZ BKN000 02/02 Q1002;",
"10616499999","2010-11-22T06:50:00","4","51.854992","11.418889","180.0","COCHSTEDT, GM","FM-15","EDBC ","V020","010,1,N,0062,1","00015,1,C,N","000300,1,N,1","+0020,1","+0020,1","99999,9","07,5,+00000,5,99,9",,,"07,99,1,99,9,99,9,99999,9,99,9,99,9",,"10020,1,99999,9","44,1","53,1",,,"MET071METAR EDBC 220650Z 01012KT 0300 R26/0550V0800U FGDZ BKN000 02/02 Q1002;",
"10616499999","2010-11-22T07:20:00","4","51.854992","11.418889","180.0","COCHSTEDT, GM","FM-15","EDBC ","V020","360,1,N,0072,1","00015,1,C,N","000300,1,N,1","+0020,1","+0020,1","99999,9","09,1,+00015,1,99,9",,,"09,99,1,99,9,99,9,00025,1,99,9,99,9",,"10020,1,99999,9","45,1","53,1",,,"MET065METAR EDBC 220720Z 36014KT 0300 R26/0500N FGDZ VV/// 02/02 Q1002;",
"10616499999","2010-11-22T07:50:00","4","51.854992","11.418889","180.0","COCHSTEDT, GM","FM-15","EDBC ","V020","360,1,N,0067,1","00015,1,C,N","000500,1,N,1","+0020,1","+0020,1","99999,9","09,1,+00015,1,99,9",,,"09,99,1,99,9,99,9,00025,1,99,9,99,9",,"10010,1,99999,9","45,1","53,1",,,"MET070METAR EDBC 220750Z 36013KT 0500 R26/1000V2000U FGDZ VV/// 02/02 Q1001;",
"10616499999","2010-11-22T08:20:00","4","51.854992","11.418889","180.0","COCHSTEDT, GM","FM-15","EDBC ","V020","360,1,N,0062,1","00015,1,C,N","000500,1,N,1","+0020,1","+0020,1","99999,9","07,5,+00000,5,99,9",,,"09,99,1,99,9,99,9,00025,1,99,9,99,9",,"10010,1,99999,9","45,1","53,1",,,"MET077METAR EDBC 220820Z 36012KT 0500 R26/0800V1200U FGDZ VV/// BKN000 02/02 Q1001;",
"10616499999","2010-11-22T08:50:00","4","51.854992","11.418889","180.0","COCHSTEDT, GM","FM-15","EDBC ","V020","360,1,N,0057,1","00015,1,C,N","000500,1,N,1","+0020,1","+0020,1","99999,9","09,1,+00015,1,99,9",,,"09,99,1,99,9,99,9,00025,1,99,9,99,9",,"10010,1,99999,9","45,1","53,1",,,"MET065METAR EDBC 220850Z 36011KT 0500 R26/2000U FGDZ VV/// 02/02 Q1001;",
"10616499999","2010-11-22T09:20:00","4","51.854992","11.418889","180.0","COCHSTEDT, GM","FM-15","EDBC ","V020","360,1,N,0062,1","00060,1,C,N","000800,1,N,1","+0020,1","+0020,1","99999,9","08,5,+00060,1,99,9",,,"08,99,1,99,9,99,9,99999,9,99,9,99,9",,"10000,1,99999,9","44,1","53,1",,,"MET067METAR EDBC 220920Z 36012KT 0800 R26/P2000N FGDZ OVC002 02/02 Q1000;",
"10616499999","2010-11-22T09:50:00","4","51.854992","11.418889","180.0","COCHSTEDT, GM","FM-15","EDBC ","V020","350,1,N,0062,1","00060,1,C,N","001500,1,N,1","+0020,1","+0020,1","99999,9","07,5,+00060,1,99,9",,,"07,99,1,99,9,99,9,99999,9,99,9,99,9",,"10000,1,99999,9","44,1","53,1",,,"MET056METAR EDBC 220950Z 35012KT 1500 FGDZ BKN002 02/02 Q1000;",
"10616499999","2010-11-22T10:20:00","4","51.854992","11.418889","180.0","COCHSTEDT, GM","FM-15","EDBC ","V020","350,1,N,0057,1","00120,1,C,N","002000,1,N,1","+0020,1","+0020,1","99999,9","08,5,+00120,1,99,9",,,"08,99,1,99,9,99,9,99999,9,99,9,99,9",,"10000,1,99999,9","10,1",,,,"MET054METAR EDBC 221020Z 35011KT 2000 BR OVC004 02/02 Q1000;",
"10616499999","2010-11-22T10:50:00","4","51.854992","11.418889","180.0","COCHSTEDT, GM","FM-15","EDBC ","V020","340,1,N,0057,1","00150,1,C,N","002500,1,N,1","+0020,1","+0020,1","99999,9","08,5,+00150,1,99,9",,,"08,99,1,99,9,99,9,99999,9,99,9,99,9",,"09990,1,99999,9","10,1","53,1",,,"MET056METAR EDBC 221050Z 34011KT 2500 BRDZ OVC005 02/02 Q0999;",
"10616499999","2010-11-22T11:20:00","4","51.854992","11.418889","180.0","COCHSTEDT, GM","FM-15","EDBC ","V020","340,1,N,0057,1","00120,1,C,N","003000,1,N,1","+0020,1","+0020,1","99999,9","08,5,+00120,1,99,9",,,"08,99,1,99,9,99,9,99999,9,99,9,99,9",,"09990,1,99999,9","63,1",,,,"MET054METAR EDBC 221120Z 34011KT 3000 RA OVC004 02/02 Q0999;",
"10616499999","2010-11-22T11:50:00","4","51.854992","11.418889","180.0","COCHSTEDT, GM","FM-15","EDBC ","V020","340,1,N,0057,1","00120,1,C,N","003000,1,N,1","+0020,1","+0020,1","99999,9","08,5,+00120,1,99,9",,,"08,99,1,99,9,99,9,99999,9,99,9,99,9",,"09980,1,99999,9","51,1","61,1",,,"MET057METAR EDBC 221150Z 34011KT 3000 -RADZ OVC004 02/02 Q0998;",
"10616499999","2010-11-22T12:20:00","4","51.854992","11.418889","180.0","COCHSTEDT, GM","FM-15","EDBC ","V020","340,1,N,0057,1","00150,1,C,N","003000,1,N,1","+0020,1","+0020,1","99999,9","08,5,+00150,1,99,9",,,"08,99,1,99,9,99,9,99999,9,99,9,99,9",,"09980,1,99999,9","53,1","63,1",,,"MET056METAR EDBC 221220Z 34011KT 3000 RADZ OVC005 02/02 Q0998;",
"10616499999","2010-11-22T12:50:00","4","51.854992","11.418889","180.0","COCHSTEDT, GM","FM-15","EDBC ","V020","330,1,N,0051,1","00150,1,C,N","005000,1,N,1","+0020,1","+0020,1","99999,9","08,5,+00150,1,99,9",,,"08,99,1,99,9,99,9,99999,9,99,9,99,9",,"09980,1,99999,9","10,1","63,1",,,"MET056METAR EDBC 221250Z 33010KT 5000 RA BR OVC005 2/02 Q0998;",
"10616499999","2010-11-22T13:20:00","4","51.854992","11.418889","180.0","COCHSTEDT, GM","FM-15","EDBC ","V020","330,1,N,0057,1","00150,1,C,N","005000,1,N,1","+0020,1","+0020,1","99999,9","07,5,+00150,1,99,9","08,5,+00210,1,99,9",,"08,99,1,99,9,99,9,99999,9,99,9,99,9",,"09970,1,99999,9","63,1",,,,"MET061METAR EDBC 221320Z 33011KT 5000 RA BKN005 OVC007 02/02 Q0997;",
"10616499999","2010-11-22T13:50:00","4","51.854992","11.418889","180.0","COCHSTEDT, GM","FM-15","EDBC ","V020","330,1,N,0057,1","00150,1,C,N","008000,1,N,1","+0030,1","+0020,1","99999,9","02,5,+00090,1,99,9","07,5,+00150,1,99,9",,"07,99,1,99,9,99,9,99999,9,99,9,99,9",,"09970,1,99999,9","61,1",,,,"MET062METAR EDBC 221350Z 33011KT 8000 -RA FEW003 BKN005 03/02 Q0997;",
"10616499999","2010-11-22T14:20:00","4","51.854992","11.418889","180.0","COCHSTEDT, GM","FM-15","EDBC ","V020","330,1,N,0046,1","00150,1,C,N","008000,1,N,1","+0030,1","+0020,1","99999,9","02,5,+00090,1,99,9","07,5,+00150,1,99,9",,"07,99,1,99,9,99,9,99999,9,99,9,99,9",,"09970,1,99999,9","51,1","61,1",,,"MET063METAR EDBC 221420Z 33009KT8000 -DZRA FEW003 BKN005 03/02 Q0997;",
"10616499999","2010-11-22T14:50:00","4","51.854992","11.418889","180.0","COCHSTEDT, GM","FM-15","EDBC ","V020","330,1,N,0046,1","00150,1,C,N","003000,1,N,1","+0030,1","+0030,1","99999,9","04,5,+00060,1,99,9","07,5,+00150,1,99,9",,"07,99,1,99,9,99,9,99999,9,99,9,99,9",,"09970,1,99999,9","10,1","53,1","63,1",,"MET066METAR EDBC 221450Z 33009KT 3000 RADZ BR SCT002 BKN005 03/03 Q0997;",
"10616499999","2010-11-23T05:20:00","4","51.854992","11.418889","180.0","COCHSTEDT, GM","FM-15","EDBC ","V020","310,1,N,0093,1","00150,1,C,N","011265,1,N,1","+0020,1","+0010,1","99999,9","07,5,+00150,1,99,9",,,"07,99,1,99,9,99,9,99999,9,99,9,99,9",,"09959,1,99999,9",,,,,"MET051METAR EDBC 230520Z 31018KT 9999 BKN005 02/01 Q0996;",
"10616499999","2010-11-23T05:50:00","4","51.854992","11.418889","180.0","COCHSTEDT, GM","FM-15","EDBC ","V020","300,1,N,0093,1","00150,1,C,N","011265,1,N,1","+0020,1","+0010,1","99999,9","07,5,+00150,1,99,9",,,"07,99,1,99,9,99,9,99999,9,99,9,99,9",,"09959,1,99999,9",,,,,"MET051METAR EDBC 230550Z 30018KT 9999 BKN005 02/01 Q0996;",
"10616499999","2010-11-23T06:20:00","4","51.854992","11.418889","180.0","COCHSTEDT, GM","FM-15","EDBC ","V020","300,1,N,0072,1","00150,1,C,N","011265,1,N,1","+0020,1","+0010,1","99999,9","07,5,+00150,1,99,9",,,"07,99,1,99,9,99,9,99999,9,99,9,99,9",,"09970,1,99999,9",,,,,"MET051METAR EDBC 230620Z 30014KT 9999 BKN005 02/01 Q0997;",
"10616499999","2010-11-23T06:50:00","4","51.854992","11.418889","180.0","COCHSTEDT, GM","FM-15","EDBC ","V020","300,1,N,0077,1","00150,1,C,N","007000,1,N,1","+0020,1","+0010,1","99999,9","07,5,+00150,1,99,9",,,"07,99,1,99,9,99,9,99999,9,99,9,99,9",,"09970,1,99999,9",,,,,"MET051METAR EDBC 230650Z 30015KT 7000 BKN005 02/01 Q0997;",
"10616499999","2010-11-23T07:20:00","4","51.854992","11.418889","180.0","COCHSTEDT, GM","FM-15","EDBC ","V020","300,1,N,0082,1","00150,1,C,N","007000,1,N,1","+0020,1","+0010,1","99999,9","07,5,+00150,1,99,9",,,"07,99,1,99,9,99,9,99999,9,99,9,99,9",,"09970,1,99999,9",,,,,"MET051METAR EDBC 230720Z 30016KT 7000 BKN005 02/01 Q0997;",
"10616499999","2010-11-23T07:50:00","4","51.854992","11.418889","180.0","COCHSTEDT, GM","FM-15","EDBC ","V020","310,1,N,0082,1","00150,1,C,N","008000,1,N,1","+0020,1","+0010,1","99999,9","07,5,+00150,1,99,9",,,"07,99,1,99,9,99,9,99999,9,99,9,99,9",,"09970,1,99999,9",,,,,"MET051METAR EDBC 230750Z 31016KT 8000 BKN005 02/01 Q0997;",
"10616499999","2010-11-23T08:20:00","4","51.854992","11.418889","180.0","COCHSTEDT, GM","FM-15","EDBC ","V020","300,1,N,0072,1","00180,1,C,N","011265,1,N,1","+0020,1","+0010,1","99999,9","07,5,+00180,1,99,9",,,"07,99,1,99,9,99,9,99999,9,99,9,99,9",,"09970,1,99999,9",,,,,"MET059METAR EDBC 230820Z 30014KT 270V330 9999 BKN006 02/01 Q0997;",
"10616499999","2010-11-23T08:50:00","4","51.854992","11.418889","180.0","COCHSTEDT, GM","FM-15","EDBC ","V020","290,1,N,0057,1","00180,1,C,N","008000,1,N,1","+0020,1","+0010,1","99999,9","07,5,+00180,1,99,9",,,"07,99,1,99,9,99,9,99999,9,99,9,99,9",,"09970,1,99999,9",,,,,"MET059METAR EDBC 230850Z 29011KT 260V320 8000 BKN006 02/01 Q0997;",
"10616499999","2010-11-23T09:20:00","4","51.854992","11.418889","180.0","COCHSTEDT, GM","FM-15","EDBC ","V020","290,1,N,0062,1","00210,1,C,N","008000,1,N,1","+0030,1","+0010,1","99999,9","07,5,+00210,1,99,9",,,"07,99,1,99,9,99,9,99999,9,99,9,99,9",,"09970,1,99999,9",,,,,"MET059METAR EDBC 230920Z 29012KT 250V310 8000 BKN007 03/01 Q0997;",
"10616499999","2010-11-23T09:50:00","4","51.854992","11.418889","180.0","COCHSTEDT, GM","FM-15","EDBC ","V020","290,1,N,0057,1","00180,1,C,N","008000,1,N,1","+0020,1","+0010,1","99999,9","07,5,+00180,1,99,9",,,"07,99,1,99,9,99,9,99999,9,99,9,99,9",,"09970,1,99999,9","63,1",,,,"MET054METAR EDBC 230950Z 29011KT 8000 RA BKN006 02/01 Q0997;",
"10616499999","2010-11-23T10:20:00","4","51.854992","11.418889","180.0","COCHSTEDT, GM","FM-15","EDBC ","V020","290,1,N,0072,1","00300,1,C,N","008000,1,N,1","+0030,1","+0020,1","99999,9","07,5,+00300,1,99,9",,,"07,99,1,99,9,99,9,99999,9,99,9,99,9",,"09970,1,99999,9","63,1",,,,"MET054METAR EDBC 231020Z 29014KT 8000 RA BKN010 03/02 Q0997;",
"10616499999","2010-11-23T10:50:00","4","51.854992","11.418889","180.0","COCHSTEDT, GM","FM-15","EDBC ","V020","290,1,N,0077,1","00300,1,C,N","011265,1,N,1","+0030,1","+0020,1","99999,9","07,5,+00300,1,99,9",,,"07,99,1,99,9,99,9,99999,9,99,9,99,9",,"09970,1,99999,9","63,1",,,,"MET054METAR EDBC 231050Z 29015KT 9999 RA BKN010 03/02 Q0997;",
"10616499999","2010-11-23T11:20:00","4","51.854992","11.418889","180.0","COCHSTEDT, GM","FM-15","EDBC ","V020","270,1,N,0062,1","00300,1,C,N","011265,1,N,1","+0030,1","+0020,1","99999,9","07,5,+00300,1,99,9",,,"07,99,1,99,9,99,9,99999,9,99,9,99,9",,"09970,1,99999,9","61,1",,,,"MET055METAR EDBC 231120Z 27012KT 9999 -RA BKN010 03/02 Q0997;",
"10616499999","2010-11-23T11:50:00","4","51.854992","11.418889","180.0","COCHSTEDT, GM","FM-15","EDBC ","V020","270,1,N,0067,1","00300,1,C,N","011265,1,N,1","+0030,1","+0020,1","99999,9","02,5,+00090,1,99,9","07,5,+00300,1,99,9",,"07,99,1,99,9,99,9,99999,9,99,9,99,9",,"09970,1,99999,9","63,1",,,,"MET061METAR EDBC 231150Z 27013KT 9999 RA FEW003 BKN010 03/02 Q0997;",
"10616499999","2010-11-23T12:20:00","4","51.854992","11.418889","180.0","COCHSTEDT, GM","FM-15","EDBC ","V020","270,1,N,0067,1","00360,1,C,N","011265,1,N,1","+0030,1","+0020,1","99999,9","02,5,+00240,1,99,9","04,5,+00360,1,99,9","07,5,+00420,1,99,9","07,99,1,99,9,99,9,99999,9,99,9,99,9",,"09959,1,99999,9","63,1",,,,"MET068METAR EDBC 231220Z 27013KT 9999 RA FEW008 SCT012 BKN014 03/02 Q0996;",
"10616499999","2010-11-23T12:50:00","4","51.854992","11.418889","180.0","COCHSTEDT, GM","FM-15","EDBC ","V020","270,1,N,0072,1","01080,1,C,N","011265,1,N,1","+0030,1","+0020,1","99999,9","04,5,+00360,1,99,9","07,5,+01080,1,99,9",,"07,99,1,99,9,99,9,99999,9,99,9,99,9",,"09959,1,99999,9",,,,,"MET063METAR EDBC 231250Z 27014KT 9999 SCT012 BKN036 03/02 Q0996 RERA;",
"10616499999","2010-11-23T13:20:00","4","51.854992","11.418889","180.0","COCHSTEDT, GM","FM-15","EDBC ","V020","270,1,N,0077,1","00600,1,C,N","011265,1,N,1","+0040,1","+0020,1","99999,9","02,5,+00360,1,99,9","04,5,+00600,1,99,9","07,5,+00900,1,99,9","07,99,1,99,9,99,9,99999,9,99,9,99,9",,"09959,1,99999,9",,,,,"MET065METAR EDBC 231320Z 27015KT 9999 FEW012 SCT020 BKN030 04/02 Q0996;",
"10616499999","2010-11-23T13:50:00","4","51.854992","11.418889","180.0","COCHSTEDT, GM","FM-15","EDBC ","V020","270,1,N,0067,1","00960,1,C,N","011265,1,N,1","+0040,1","+0020,1","99999,9","04,5,+00720,1,99,9","07,5,+00960,1,99,9",,"07,99,1,99,9,99,9,99999,9,99,9,99,9",,"09959,1,99999,9","51,1","61,1",,"0123,1","MET067METAR EDBC 231350Z 27013G24KT 9999 -DZRA SCT024 BKN032 04/02 Q0996;",
"10616499999","2010-11-23T14:20:00","4","51.854992","11.418889","180.0","COCHSTEDT, GM","FM-15","EDBC ","V020","280,1,N,0051,1","00600,1,C,N","008000,1,N,1","+0030,1","+0020,1","99999,9","07,5,+00600,1,99,9",,,"07,99,1,99,9,99,9,99999,9,99,9,99,9",,"09959,1,99999,9","80,1",,,"0123,1","MET068METAR EDBC 231420Z 28010G24KT 260V320 8000 -SHRA BKN020 03/02 Q0996;",
"10616499999","2010-11-23T14:50:00","4","51.854992","11.418889","180.0","COCHSTEDT, GM","FM-15","EDBC ","V020","270,1,N,0067,1","00600,1,C,N","011265,1,N,1","+0040,1","+0020,1","99999,9","07,5,+00600,1,99,9",,,"07,99,1,99,9,99,9,99999,9,99,9,99,9",,"09959,1,99999,9",,,,"0123,1","MET054METAR EDBC 231450Z 27013G24KT 9999 BKN020 04/02 Q0996;",
"10616499999","2010-11-24T05:20:00","4","51.854992","11.418889","180.0","COCHSTEDT, GM","FM-15","EDBC ","V020","300,1,N,0077,1","00600,1,C,N","008000,1,N,1","+0000,1","-0010,1","99999,9","04,5,+00300,1,99,9","07,5,+00600,1,99,9",,"07,99,1,99,9,99,9,99999,9,99,9,99,9",,"09990,1,99999,9","61,1",,,,"MET063METAR EDBC 240520Z 30015KT 8000 -RA SCT010 BKN020 00/M01 Q0999;",
"10616499999","2010-11-24T05:50:00","4","51.854992","11.418889","180.0","COCHSTEDT, GM","FM-15","EDBC ","V020","290,1,N,0082,1","00300,1,C,N","008000,1,N,1","+0000,1","-0010,1","99999,9","07,5,+00300,1,99,9",,,"07,99,1,99,9,99,9,99999,9,99,9,99,9",,"10000,1,99999,9","61,1",,,"0134,1","MET059METAR EDBC 240550Z 29016G26KT 8000 -RA BKN010 00/M01 Q1000;",
"10616499999","2010-11-24T06:20:00","4","51.854992","11.418889","180.0","COCHSTEDT, GM","FM-15","EDBC ","V020","300,1,N,0082,1","00600,1,C,N","008000,1,N,1","+0000,1","-0010,1","99999,9","04,5,+00180,1,99,9","07,5,+00600,1,99,9",,"07,99,1,99,9,99,9,99999,9,99,9,99,9",,"10000,1,99999,9","61,1",,,,"MET064METAR EDBC 240620Z 30016KT 8000 -RA SCT006 BKN020 M00/M01 Q1000;",
"10616499999","2010-11-24T06:50:00","4","51.854992","11.418889","180.0","COCHSTEDT, GM","FM-15","EDBC ","V020","310,1,N,0082,1","00750,1,C,N","011265,1,N,1","+0000,1","-0020,1","99999,9","07,5,+00750,1,99,9",,,"07,99,1,99,9,99,9,99999,9,99,9,99,9",,"10000,1,99999,9",,,,,"MET052METAR EDBC 240650Z 31016KT 9999 BKN025 00/M02 Q1000;",
"10616499999","2010-11-24T07:20:00","4","51.854992","11.418889","180.0","COCHSTEDT, GM","FM-15","EDBC ","V020","310,1,N,0077,1","00330,1,C,N","011265,1,N,1","+0000,1","-0020,1","99999,9","07,5,+00330,1,99,9",,,"07,99,1,99,9,99,9,99999,9,99,9,99,9",,"10000,1,99999,9",,,,,"MET052METAR EDBC 240720Z 31015KT 9999 BKN011 00/M02 Q1000;",
"10616499999","2010-11-24T07:50:00","4","51.854992","11.418889","180.0","COCHSTEDT, GM","FM-15","EDBC ","V020","300,1,N,0062,1","00300,1,C,N","011265,1,N,1","+0000,1","-0010,1","99999,9","07,5,+00300,1,99,9",,,"07,99,1,99,9,99,9,99999,9,99,9,99,9",,"10010,1,99999,9",,,,,"MET052METAR EDBC 240750Z 30012KT 9999 BKN010 00/M01 Q1001;",
"10616499999","2010-11-24T08:20:00","4","51.854992","11.418889","180.0","COCHSTEDT, GM","FM-15","EDBC ","V020","300,1,N,0067,1","00300,1,C,N","011265,1,N,1","+0000,1","-0010,1","99999,9","07,5,+00300,1,99,9",,,"07,99,1,99,9,99,9,99999,9,99,9,99,9",,"10010,1,99999,9",,,,,"MET052METAR EDBC 240820Z 30013KT 9999 BKN010 00/M01 Q1001;",
"10616499999","2010-11-24T08:50:00","4","51.854992","11.418889","180.0","COCHSTEDT, GM","FM-15","EDBC ","V020","310,1,N,0072,1","00300,1,C,N","011265,1,N,1","+0000,1","-0010,1","99999,9","07,5,+00300,1,99,9",,,"07,99,1,99,9,99,9,99999,9,99,9,99,9",,"10010,1,99999,9",,,,,"MET052METAR EDBC 240850Z 31014KT 9999 BKN010 00/M01 Q1001;",
"10616499999","2010-11-24T09:20:00","4","51.854992","11.418889","180.0","COCHSTEDT, GM","FM-15","EDBC ","V020","310,1,N,0077,1","00450,1,C,N","011265,1,N,1","+0000,1","-0020,1","99999,9","07,5,+00450,1,99,9",,,"07,99,1,99,9,99,9,99999,9,99,9,99,9",,"10020,1,99999,9",,,,,"MET052METAR EDBC 240920Z 31015KT 9999 BKN015 00/M02 Q1002;",
"10616499999","2010-11-24T09:50:00","4","51.854992","11.418889","180.0","COCHSTEDT, GM","FM-15","EDBC ","V020","310,1,N,0082,1","00330,1,C,N","011265,1,N,1","+0000,1","-0020,1","99999,9","07,5,+00330,1,99,9","07,5,+00750,1,99,9",,"07,99,1,99,9,99,9,99999,9,99,9,99,9",,"10020,1,99999,9",,,,,"MET059METAR EDBC 240950Z 31016KT 9999 BKN011 BKN025 00/M02 Q1002;",
"10616499999","2010-11-24T10:20:00","4","51.854992","11.418889","180.0","COCHSTEDT, GM","FM-15","EDBC ","V020","310,1,N,0067,1","00600,1,C,N","011265,1,N,1","+0000,1","-0010,1","99999,9","04,5,+00300,1,99,9","07,5,+00600,1,99,9",,"07,99,1,99,9,99,9,99999,9,99,9,99,9",,"10020,1,99999,9",,,,,"MET059METAR EDBC 241020Z 31013KT 9999 SCT010 BKN020 00/M01 Q1002;",
"10616499999","2010-11-24T10:50:00","4","51.854992","11.418889","180.0","COCHSTEDT, GM","FM-15","EDBC ","V020","300,1,N,0077,1","00360,1,C,N","011265,1,N,1","+0010,1","-0020,1","99999,9","07,5,+00360,1,99,9",,,"07,99,1,99,9,99,9,99999,9,99,9,99,9",,"10020,1,99999,9",,,,,"MET052METAR EDBC 241050Z 30015KT 9999 BKN012 01/M02 Q1002;",
"10616499999","2010-11-24T11:20:00","4","51.854992","11.418889","180.0","COCHSTEDT, GM","FM-15","EDBC ","V020","310,1,N,0046,1","00360,1,C,N","011265,1,N,1","+0000,1","-0010,1","99999,9","07,5,+00360,1,99,9",,,"07,99,1,99,9,99,9,99999,9,99,9,99,9",,"10020,1,99999,9",,,,,"MET052METAR EDBC 241120Z 31009KT 9999 BKN012 00/M01 Q1002;",
"10616499999","2010-11-24T11:50:00","4","51.854992","11.418889","180.0","COCHSTEDT, GM","FM-15","EDBC ","V020","300,1,N,0057,1","00360,1,C,N","011265,1,N,1","+0000,1","-0010,1","99999,9","07,5,+00360,1,99,9",,,"07,99,1,99,9,99,9,99999,9,99,9,99,9",,"10020,1,99999,9",,,,,"MET060METAR EDBC 241150Z 30011KT 270V330 9999 BKN012 00/M01 Q1002;",
"10616499999","2010-11-24T12:20:00","4","51.854992","11.418889","180.0","COCHSTEDT, GM","FM-15","EDBC ","V020","310,1,N,0077,1","00600,1,C,N","011265,1,N,1","+0010,1","-0010,1","99999,9","07,5,+00600,1,99,9",,,"07,99,1,99,9,99,9,99999,9,99,9,99,9",,"10020,1,99999,9",,,,,"MET052METAR EDBC 241220Z 31015KT 9999 BKN020 01/M01 Q1002;",
"10616499999","2010-11-24T12:50:00","4","51.854992","11.418889","180.0","COCHSTEDT, GM","FM-15","EDBC ","V020","300,1,N,0062,1","00600,1,C,N","011265,1,N,1","+0010,1","-0010,1","99999,9","04,5,+00300,1,99,9","07,5,+00600,1,99,9",,"07,99,1,99,9,99,9,99999,9,99,9,99,9",,"10020,1,99999,9",,,,,"MET059METAR EDBC 241250Z 30012KT 9999 SCT010 BKN020 01/M01 Q1002;",
"10616499999","2010-11-24T13:20:00","4","51.854992","11.418889","180.0","COCHSTEDT, GM","FM-15","EDBC ","V020","300,1,N,0057,1","00480,1,C,N","011265,1,N,1","+0010,1","-0020,1","99999,9","02,5,+00300,1,99,9","04,5,+00480,1,99,9","07,5,+00660,1,99,9","07,99,1,99,9,99,9,99999,9,99,9,99,9",,"10020,1,99999,9",,,,"0118,1","MET069METAR EDBC 241320Z 30011G23KT 9999 FEW010 SCT016 BKN022 01/M02 Q1002;",
"10616499999","2010-11-24T13:50:00","4","51.854992","11.418889","180.0","COCHSTEDT, GM","FM-15","EDBC ","V020","290,1,N,0051,1","00690,1,C,N","011265,1,N,1","+0010,1","-0020,1","99999,9","04,5,+00420,1,99,9","07,5,+00690,1,99,9",,"07,99,1,99,9,99,9,99999,9,99,9,99,9",,"10020,1,99999,9",,,,,"MET059METAR EDBC 241350Z 29010KT 9999 SCT014 BKN023 01/M02 Q1002;",
"10616499999","2010-11-24T14:20:00","4","51.854992","11.418889","180.0","COCHSTEDT, GM","FM-15","EDBC ","V020","290,1,N,0041,1","00660,1,C,N","011265,1,N,1","+0010,1","-0020,1","99999,9","07,5,+00660,1,99,9",,,"07,99,1,99,9,99,9,99999,9,99,9,99,9",,"10020,1,99999,9",,,,,"MET052METAR EDBC 241420Z 29008KT 9999 BKN022 01/M02 Q1002;",
"10616499999","2010-11-24T14:50:00","4","51.854992","11.418889","180.0","COCHSTEDT, GM","FM-15","EDBC ","V020","280,1,N,0036,1","99999,9,C,N","011265,1,N,1","+0010,1","-0020,1","99999,9","02,5,+00660,1,99,9","04,5,+02040,5,99,9",,"04,99,1,99,9,99,9,99999,9,99,9,99,9",,"10020,1,99999,9",,,,,"MET067METAR EDBC 241450Z 28007KT 250V310 9999 FEW022 SCT068 01/M02 Q1002;","P01 020403SCOCIG"
"10616499999","2010-11-25T05:20:00","4","51.854992","11.418889","180.0","COCHSTEDT, GM","FM-15","EDBC ","V020","180,1,N,0026,1","00750,1,C,N","011265,1,N,1","-0020,1","-0030,1","99999,9","02,5,+00600,1,99,9","07,5,+00750,1,99,9",,"07,99,1,99,9,99,9,99999,9,99,9,99,9",,"10031,1,99999,9",,,,,"MET060METAR EDBC 250520Z 18005KT 9999 FEW020 BKN025 M02/M03 Q1003;",
"10616499999","2010-11-25T05:50:00","4","51.854992","11.418889","180.0","COCHSTEDT, GM","FM-15","EDBC ","V020","170,1,N,0031,1","01200,1,C,N","011265,1,N,1","-0010,1","-0030,1","99999,9","02,5,+00510,1,99,9","07,5,+01200,1,99,9",,"07,99,1,99,9,99,9,99999,9,99,9,99,9",,"10031,1,99999,9",,,,,"MET060METAR EDBC 250550Z 17006KT 9999 FEW017 BKN040 M01/M03 Q1003;",
"10616499999","2010-11-25T06:20:00","4","51.854992","11.418889","180.0","COCHSTEDT, GM","FM-15","EDBC ","V020","190,1,N,0021,1","01200,1,C,N","011265,1,N,1","-0020,1","-0030,1","99999,9","02,5,+01050,1,99,9","07,5,+01200,1,99,9",,"07,99,1,99,9,99,9,99999,9,99,9,99,9",,"10031,1,99999,9",,,,,"MET060METAR EDBC 250620Z 19004KT 9999 FEW035 BKN040 M02/M03 Q1003;",
"10616499999","2010-11-25T06:50:00","4","51.854992","11.418889","180.0","COCHSTEDT, GM","FM-15","EDBC ","V020","200,1,N,0031,1","01110,1,C,N","011265,1,N,1","-0010,1","-0020,1","99999,9","02,5,+00120,1,99,9","04,5,+01110,1,99,9","07,5,+01740,5,99,9","07,99,1,99,9,99,9,99999,9,99,9,99,9",,"10031,1,99999,9",,,,,"MET067METAR EDBC 250650Z 20006KT 9999 FEW004 SCT037 BKN058 M01/M02 Q1003;",
"10616499999","2010-11-25T07:20:00","4","51.854992","11.418889","180.0","COCHSTEDT, GM","FM-15","EDBC ","V020","190,1,N,0031,1","22000,1,9,N","011265,1,N,1","-0010,1","-0020,1","99999,9","04,5,+00750,1,99,9",,,"04,99,1,99,9,99,9,99999,9,99,9,99,9",,"10031,1,99999,9",,,,,"MET053METAR EDBC 250720Z 19006KT 9999 SCT025 M01/M02 Q1003;",
"10616499999","2010-11-25T07:50:00","4","51.854992","11.418889","180.0","COCHSTEDT, GM","FM-15","EDBC ","V020","200,1,N,0031,1","22000,1,9,N","011265,1,N,1","-0010,1","-0030,1","99999,9","04,5,+00750,1,99,9",,,"04,99,1,99,9,99,9,99999,9,99,9,99,9",,"10031,1,99999,9",,,,,"MET053METAR EDBC 250750Z 20006KT 9999 SCT025 M01/M03 Q1003;",
"10616499999","2010-11-25T08:20:00","4","51.854992","11.418889","180.0","COCHSTEDT, GM","FM-15","EDBC ","V020","190,1,N,0036,1","22000,1,9,N","011265,1,N,1","-0010,1","-0020,1","99999,9","02,5,+01470,1,99,9",,,"02,99,1,99,9,99,9,99999,9,99,9,99,9",,"10031,1,99999,9",,,,,"MET053METAR EDBC 250820Z 19007KT 9999 FEW049 M01/M02 Q1003;",
"10616499999","2010-11-25T08:50:00","4","51.854992","11.418889","180.0","COCHSTEDT, GM","FM-15","EDBC ","V020","190,1,N,0036,1","99999,9,9,Y","009900,1,N,1","+0000,1","-0010,1","99999,9",,,,,,"10031,1,99999,9",,,,,"MET047METAR EDBC 250850Z 19007KT CAVOK M00/M01 Q1003;",
"10616499999","2010-11-25T09:20:00","4","51.854992","11.418889","180.0","COCHSTEDT, GM","FM-15","EDBC ","V020","190,1,N,0031,1","01770,5,C,N","008000,1,N,1","+0000,1","-0010,1","99999,9","02,5,+01440,1,99,9","07,5,+01770,5,99,9",,"07,99,1,99,9,99,9,99999,9,99,9,99,9",,"10031,1,99999,9",,,,,"MET059METAR EDBC 250920Z 19006KT 8000 FEW048 BKN059 00/M01 Q1003;",
"10616499999","2010-11-25T09:50:00","4","51.854992","11.418889","180.0","COCHSTEDT, GM","FM-15","EDBC ","V020","200,1,N,0031,1","22000,1,9,N","007000,1,N,1","+0010,1","-0010,1","99999,9",,,,"00,99,1,99,9,99,9,99999,9,99,9,99,9",,"10031,1,99999,9",,,,,"MET049METAR EDBC 250950Z 20006KT 7000 NSC 01/M01 Q1003;","Q01    003SCCGA1"
"10616499999","2010-11-25T10:20:00","4","51.854992","11.418889","180.0","COCHSTEDT, GM","FM-15","EDBC ","V020","200,1,N,0031,1","22000,1,9,N","008000,1,N,1","+0010,1","+0000,1","99999,9",,,,"00,99,1,99,9,99,9,99999,9,99,9,99,9",,"10031,1,99999,9",,,,,"MET049METAR EDBC 251020Z 20006KT 8000 NSC 01/M00 Q1003;","Q01    003SCCGA1"
"10616499999","2010-11-25T10:50:00","4","51.854992","11.418889","180.0","COCHSTEDT, GM","FM-15","EDBC ","V020","210,1,N,0026,1","01050,1,C,N","011265,1,N,1","+0020,1","+0000,1","99999,9","07,5,+01050,1,99,9",,,"07,99,1,99,9,99,9,99999,9,99,9,99,9",,"10020,1,99999,9",,,,,"MET052METAR EDBC 251050Z 21005KT 9999 BKN035 02/M00 Q1002;",
"10616499999","2010-11-25T11:20:00","4","51.854992","11.418889","180.0","COCHSTEDT, GM","FM-15","EDBC ","V020","200,1,N,0021,1","00750,1,C,N","008000,1,N,1","+0020,1","+0000,1","99999,9","07,5,+00750,1,99,9",,,"07,99,1,99,9,99,9,99999,9,99,9,99,9",,"10020,1,99999,9",,,,,"MET051METAR EDBC 251120Z 20004KT 8000 BKN025 02/00 Q1002;",
"10616499999","2010-11-25T11:50:00","4","51.854992","11.418889","180.0","COCHSTEDT, GM","FM-15","EDBC ","V020","190,1,N,0031,1","00750,1,C,N","007000,1,N,1","+0010,1","+0000,1","99999,9","07,5,+00750,1,99,9",,,"07,99,1,99,9,99,9,99999,9,99,9,99,9",,"10020,1,99999,9",,,,,"MET051METAR EDBC 251150Z 19006KT 7000 BKN025 01/00 Q1002;",
"10616499999","2010-11-25T12:20:00","4","51.854992","11.418889","180.0","COCHSTEDT, GM","FM-15","EDBC ","V020","190,1,N,0026,1","00780,1,C,N","006000,1,N,1","+0010,1","+0000,1","99999,9","07,5,+00780,1,99,9",,,"07,99,1,99,9,99,9,99999,9,99,9,99,9",,"10020,1,99999,9",,,,,"MET051METAR EDBC 251220Z 19005KT 6000 BKN026 01/00 Q1002;",
"10616499999","2010-11-25T12:50:00","4","51.854992","11.418889","180.0","COCHSTEDT, GM","FM-15","EDBC ","V020","180,1,N,0026,1","00690,1,C,N","006000,1,N,1","+0010,1","+0000,1","99999,9","07,5,+00690,1,99,9",,,"07,99,1,99,9,99,9,99999,9,99,9,99,9",,"10020,1,99999,9",,,,,"MET051METAR EDBC 251250Z 18005KT 6000 BKN023 01/00 Q1002;",
"10616499999","2010-11-25T13:20:00","4","51.854992","11.418889","180.0","COCHSTEDT, GM","FM-15","EDBC ","V020","180,1,N,0026,1","07200,1,C,N","003000,1,N,1","+0010,1","+0000,1","99999,9","02,5,+00660,1,99,9","07,5,+07200,1,99,9",,"07,99,1,99,9,99,9,99999,9,99,9,99,9",,"10020,1,99999,9","10,1",,,,"MET061METAR EDBC 251320Z 18005KT 3000 BR FEW022 BKN240 01/00 Q1002;",
"10616499999","2010-11-25T13:50:00","4","51.854992","11.418889","180.0","COCHSTEDT, GM","FM-15","EDBC ","V020","180,1,N,0021,1","00780,1,C,N","003000,1,N,1","+0010,1","+0000,1","99999,9","02,5,+00540,1,99,9","07,5,+00780,1,99,9",,"07,99,1,99,9,99,9,99999,9,99,9,99,9",,"10020,1,99999,9","10,1",,,,"MET061METAR EDBC 251350Z 18004KT 3000 BR FEW018 BKN026 01/00 Q1002;",
"10616499999","2010-11-25T14:20:00","4","51.854992","11.418889","180.0","COCHSTEDT, GM","FM-15","EDBC ","V020","190,1,N,0010,1","00600,1,C,N","003000,1,N,1","+0010,1","+0000,1","99999,9","02,5,+00360,1,99,9","04,5,+00600,1,99,9","07,5,+00720,1,99,9","07,99,1,99,9,99,9,99999,9,99,9,99,9",,"10020,1,99999,9","10,1",,,,"MET068METAR EDBC 251420Z 19002KT 3000 BR FEW012 SCT020 BKN024 01/00 Q1002;",
"10616499999","2010-11-25T14:50:00","4","51.854992","11.418889","180.0","COCHSTEDT, GM","FM-15","EDBC ","V020","180,1,N,0010,1","00720,1,C,N","005000,1,N,1","+0010,1","+0000,1","99999,9","02,5,+00360,1,99,9","07,5,+00720,1,99,9",,"07,99,1,99,9,99,9,99999,9,99,9,99,9",,"10010,1,99999,9",,,,,"MET058METAR EDBC 251450Z 18002KT 5000 FEW012 BKN024 01/00 Q1001;",
"10616499999","2010-11-26T05:20:00","4","51.854992","11.418889","180.0","COCHSTEDT, GM","FM-15","EDBC ","V020","350,1,N,0036,1","00120,1,C,N","008000,1,N,1","-0010,1","-0010,1","99999,9","07,5,+00120,1,99,9",,,"07,99,1,99,9,99,9,99999,9,99,9,99,9",,"10010,1,99999,9","71,1",,,,"MET057METAR EDBC 260520Z 35007KT 8000 -SN BKN004 M01/M01 Q1001;",
"10616499999","2010-11-26T05:50:00","4","51.854992","11.418889","180.0","COCHSTEDT, GM","FM-15","EDBC ","V020","330,1,N,0041,1","00120,1,C,N","008000,1,N,1","-0010,1","-0020,1","99999,9","08,5,+00120,1,99,9",,,"08,99,1,99,9,99,9,99999,9,99,9,99,9",,"10010,1,99999,9","71,1",,,,"MET057METAR EDBC 260550Z 33008KT 8000 -SN OVC004 M01/M02 Q1001;",
"10616499999","2010-11-26T06:20:00","4","51.854992","11.418889","180.0","COCHSTEDT, GM","FM-15","EDBC ","V020","330,1,N,0046,1","00210,1,C,N","008000,1,N,1","-0010,1","-0020,1","99999,9","07,5,+00210,1,99,9",,,"07,99,1,99,9,99,9,99999,9,99,9,99,9",,"10010,1,99999,9","71,1",,,,"MET057METAR EDBC 260620Z 33009KT 8000 -SN BKN007 M01/M02 Q1001;",
"10616499999","2010-11-26T06:50:00","4","51.854992","11.418889","180.0","COCHSTEDT, GM","FM-15","EDBC ","V020","340,1,N,0046,1","00150,1,C,N","006000,1,N,1","-0010,1","-0020,1","99999,9","07,5,+00150,1,99,9",,,"07,99,1,99,9,99,9,99999,9,99,9,99,9",,"10020,1,99999,9",,,,,"MET053METAR EDBC 260650Z 34009KT 6000 BKN005 M01/M02 Q1002;",
"10616499999","2010-11-26T07:20:00","4","51.854992","11.418889","180.0","COCHSTEDT, GM","FM-15","EDBC ","V020","330,1,N,0036,1","00150,1,C,N","005000,1,N,1","-0010,1","-0020,1","99999,9","07,5,+00150,1,99,9",,,"07,99,1,99,9,99,9,99999,9,99,9,99,9",,"10020,1,99999,9",,,,,"MET053METAR EDBC 260720Z 33007KT 5000 BKN005 M01/M02 Q1002;",
"10616499999","2010-11-26T07:50:00","4","51.854992","11.418889","180.0","COCHSTEDT, GM","FM-15","EDBC ","V020","330,1,N,0041,1","00150,1,C,N","005000,1,N,1","-0010,1","-0020,1","99999,9","07,5,+00150,1,99,9",,,"07,99,1,99,9,99,9,99999,9,99,9,99,9",,"10020,1,99999,9",,,,,"MET053METAR EDBC 260750Z 33008KT 5000 BKN005 M01/M02 Q1002;",
"10616499999","2010-11-26T08:20:00","4","51.854992","11.418889","180.0","COCHSTEDT, GM","FM-15","EDBC ","V020","350,1,N,0041,1","00180,1,C,N","005000,1,N,1","-0020,1","-0020,1","99999,9","07,5,+00180,1,99,9",,,"07,99,1,99,9,99,9,99999,9,99,9,99,9",,"10020,1,99999,9",,,,,"MET053METAR EDBC 260820Z 35008KT 5000 BKN006 M02/M02 Q1002;",
"10616499999","2010-11-26T08:50:00","4","51.854992","11.418889","180.0","COCHSTEDT, GM","FM-15","EDBC ","V020","340,1,N,0041,1","00840,1,C,N","006000,1,N,1","-0020,1","-0030,1","99999,9","02,5,+00090,1,99,9","04,5,+00840,1,99,9","08,5,+00990,1,99,9","08,99,1,99,9,99,9,99999,9,99,9,99,9",,"10020,1,99999,9",,,,,"MET067METAR EDBC 260850Z 34008KT 6000 FEW003 SCT028 OVC033 M02/M03 Q1002;",
"10616499999","2010-11-26T09:20:00","4","51.854992","11.418889","180.0","COCHSTEDT, GM","FM-15","EDBC ","V020","330,1,N,0036,1","00900,1,C,N","008000,1,N,1","-0010,1","-0030,1","99999,9","04,5,+00180,1,99,9","07,5,+00900,1,99,9",,"07,99,1,99,9,99,9,99999,9,99,9,99,9",,"10031,1,99999,9",,,,,"MET060METAR EDBC 260920Z 33007KT 8000 SCT006 BKN030 M01/M03 Q1003;",
"10616499999","2010-11-26T09:50:00","4","51.854992","11.418889","180.0","COCHSTEDT, GM","FM-15","EDBC ","V020","310,1,N,0031,1","00240,1,C,N","008000,1,N,1","-0010,1","-0030,1","99999,9","07,5,+00240,1,99,9",,,"07,99,1,99,9,99,9,99999,9,99,9,99,9",,"10031,1,99999,9",,,,,"MET061METAR EDBC 260950Z 31006KT 290V350 8000 BKN008 M01/M03 Q1003;",
"10616499999","2010-11-26T10:20:00","4","51.854992","11.418889","180.0","COCHSTEDT, GM","FM-15","EDBC ","V020","310,1,N,0026,1","00600,1,C,N","008000,1,N,1","-0010,1","-0030,1","99999,9","04,5,+00300,1,99,9","07,5,+00600,1,99,9",,"07,99,1,99,9,99,9,99999,9,99,9,99,9",,"10031,1,99999,9",,,,,"MET060METAR EDBC 261020Z 31005KT 8000 SCT010 BKN020 M01/M03 Q1003;",
"10616499999","2010-11-26T10:50:00","4","51.854992","11.418889","180.0","COCHSTEDT, GM","FM-15","EDBC ","V020","310,1,N,0026,1","00300,1,C,N","011265,1,N,1","-0010,1","-0030,1","99999,9","02,5,+00150,1,99,9","07,5,+00300,1,99,9",,"07,99,1,99,9,99,9,99999,9,99,9,99,9",,"10031,1,99999,9",,,,,"MET068METAR EDBC 261050Z 31005KT 290V360 9999 FEW005 BKN010 M01/M03 Q1003;",
"10616499999","2010-11-26T11:20:00","4","51.854992","11.418889","180.0","COCHSTEDT, GM","FM-15","EDBC ","V020","310,1,N,0031,1","00360,1,C,N","011265,1,N,1","-0010,1","-0040,1","99999,9","07,5,+00360,1,99,9",,,"07,99,1,99,9,99,9,99999,9,99,9,99,9",,"10031,1,99999,9",,,,,"MET053METAR EDBC 261120Z 31006KT 9999 BKN012 M01/M04 Q1003;",
"10616499999","2010-11-26T11:50:00","4","51.854992","11.418889","180.0","COCHSTEDT, GM","FM-15","EDBC ","V020","310,1,N,0031,1","00750,1,C,N","011265,1,N,1","-0010,1","-0030,1","99999,9","02,5,+00450,1,99,9","07,5,+00750,1,99,9",,"07,99,1,99,9,99,9,99999,9,99,9,99,9",,"10031,1,99999,9",,,,,"MET060METAR EDBC 261150Z 31006KT 9999 FEW015 BKN025 M01/M03 Q1003;",
"10616499999","2010-11-26T12:20:00","4","51.854992","11.418889","180.0","COCHSTEDT, GM","FM-15","EDBC ","V020","330,1,N,0031,1","00900,1,C,N","011265,1,N,1","-0010,1","-0040,1","99999,9","07,5,+00900,1,99,9",,,"07,99,1,99,9,99,9,99999,9,99,9,99,9",,"10031,1,99999,9",,,,,"MET053METAR EDBC 261220Z 33006KT 9999 BKN030 M01/M04 Q1003;",
"10616499999","2010-11-26T12:50:00","4","51.854992","11.418889","180.0","COCHSTEDT, GM","FM-15","EDBC ","V020","350,1,N,0026,1","00960,1,C,N","011265,1,N,1","-0010,1","-0040,1","99999,9","07,5,+00960,1,99,9",,,"07,99,1,99,9,99,9,99999,9,99,9,99,9",,"10020,1,99999,9",,,,,"MET052METAR EDBC 261250Z 35005KT9999 BKN032 M01/M04 Q1002;",
"10616499999","2010-11-26T13:20:00","4","51.854992","11.418889","180.0","COCHSTEDT, GM","FM-15","EDBC ","V020","320,1,N,0026,1","00780,1,C,N","011265,1,N,1","-0010,1","-0040,1","99999,9","02,5,+00390,1,99,9","04,5,+00780,1,99,9","07,5,+01050,1,99,9","07,99,1,99,9,99,9,99999,9,99,9,99,9",,"10020,1,99999,9",,,,,"MET075METAR EDBC 261320Z 32005KT 290V350 9999 FEW013 SCT026 BKN035 M01/M04 Q1002;",
"10616499999","2010-11-26T13:50:00","4","51.854992","11.418889","180.0","COCHSTEDT, GM","FM-15","EDBC ","V020","310,1,N,0036,1","00600,1,C,N","011265,1,N,1","-0010,1","-0040,1","99999,9","02,5,+00360,1,99,9","04,5,+00600,1,99,9","07,5,+00960,1,99,9","07,99,1,99,9,99,9,99999,9,99,9,99,9",,"10020,1,99999,9",,,,,"MET067METAR EDBC 261350Z 31007KT 9999 FEW012 SCT020 BKN032 M01/M04 Q1002;",
"10616499999","2010-11-26T14:20:00","4","51.854992","11.418889","180.0","COCHSTEDT, GM","FM-15","EDBC ","V020","310,1,N,0036,1","00840,1,C,N","011265,1,N,1","-0010,1","-0040,1","99999,9","04,5,+00540,1,99,9","07,5,+00840,1,99,9",,"07,99,1,99,9,99,9,99999,9,99,9,99,9",,"10031,1,99999,9",,,,,"MET060METAR EDBC 261420Z 31007KT 9999 SCT018 BKN028 M01/M04 Q1003;",
"10616499999","2010-11-26T14:50:00","4","51.854992","11.418889","180.0","COCHSTEDT, GM","FM-15","EDBC ","V020","310,1,N,0031,1","01050,1,C,N","011265,1,N,1","-0010,1","-0040,1","99999,9","07,5,+01050,1,99,9",,,"07,99,1,99,9,99,9,99999,9,99,9,99,9",,"10031,1,99999,9",,,,,"MET053METAR EDBC 261450Z 31006KT 9999 BKN035 M01/M04 Q1003;",
"10616499999","2010-11-29T05:20:00","4","51.854992","11.418889","180.0","COCHSTEDT, GM","FM-15","EDBC ","V020","010,1,N,0046,1","00060,1,C,N","000500,1,N,1","-0030,1","-0040,1","99999,9","07,5,+00060,1,99,9",,,"07,99,1,99,9,99,9,99999,9,99,9,99,9",,"10041,1,99999,9","73,1",,,,"MET056METAR EDBC 290520Z 01009KT 0500 SN BKN002 M03/M04 Q1004;",
"10616499999","2010-11-29T05:50:00","4","51.854992","11.418889","180.0","COCHSTEDT, GM","FM-15","EDBC ","V020","020,1,N,0041,1","00060,1,C,N","000800,1,N,1","-0030,1","-0030,1","99999,9","07,5,+00060,1,99,9",,,"07,99,1,99,9,99,9,99999,9,99,9,99,9",,"10041,1,99999,9","73,1",,,,"MET055METAR EDBC 290550Z 02008KT0800 SN BKN002 M03/M03 Q1004;",
"10616499999","2010-11-29T06:20:00","4","51.854992","11.418889","180.0","COCHSTEDT, GM","FM-15","EDBC ","V020","020,1,N,0031,1","00060,1,C,N","000600,1,N,1","-0030,1","-0030,1","99999,9","08,5,+00060,1,99,9",,,"08,99,1,99,9,99,9,99999,9,99,9,99,9",,"10051,1,99999,9","73,1",,,,"MET056METAR EDBC 290620Z 02006KT 0600 SN OVC002 M03/M03 Q1005;",
"10616499999","2010-11-29T06:50:00","4","51.854992","11.418889","180.0","COCHSTEDT, GM","FM-15","EDBC ","V020","020,1,N,0036,1","00180,1,C,N","000600,1,N,1","-0030,1","-0030,1","99999,9","07,5,+00180,1,99,9",,,"07,99,1,99,9,99,9,99999,9,99,9,99,9",,"10051,1,99999,9","73,1",,,,"MET066METAR EDBC 290650Z 02007KT 0600 R26/1400N SN BKN006 M03/M03 Q1005;",
"10616499999","2010-11-29T07:20:00","4","51.854992","11.418889","180.0","COCHSTEDT, GM","FM-15","EDBC ","V020","030,1,N,0041,1","00120,1,C,N","000800,1,N,1","-0030,1","-0030,1","99999,9","07,5,+00120,1,99,9",,,"07,99,1,99,9,99,9,99999,9,99,9,99,9",,"10051,1,99999,9","73,1",,,,"MET066METAR EDBC 290720Z 03008KT 0800 R26/1500U SN BKN004 M03/M03 Q1005;",
"10616499999","2010-11-29T07:50:00","4","51.854992","11.418889","180.0","COCHSTEDT, GM","FM-15","EDBC ","V020","030,1,N,0036,1","00120,5,9,N","000600,1,N,1","-0030,1","-0030,1","99999,9","08,5,+00120,5,99,9",,,,,"10050,1,99999,9","73,1",,,,"MET066METAR EDBC 290750Z 03007KT 0600 SN R26/1000N OVC004 M03/M03 Q1005;","Q01+000603ATOT  "
"10616499999","2010-11-29T08:20:00","4","51.854992","11.418889","180.0","COCHSTEDT, GM","FM-15","EDBC ","V020","030,1,N,0041,1","00120,1,C,N","000800,1,N,1","-0020,1","-0030,1","99999,9","08,5,+00120,1,99,9",,,"08,99,1,99,9,99,9,99999,9,99,9,99,9",,"10051,1,99999,9","73,1",,,,"MET077METAR EDBC 290820Z 03008KT 0800 R26/1300U SN OVC004 M02/M03 Q1005 R88///99//;",
"10616499999","2010-11-29T08:50:00","4","51.854992","11.418889","180.0","COCHSTEDT, GM","FM-15","EDBC ","V020","030,1,N,0046,1","00150,1,C,N","000800,1,N,1","-0020,1","-0030,1","99999,9","08,5,+00150,1,99,9",,,"08,99,1,99,9,99,9,99999,9,99,9,99,9",,"10061,1,99999,9","73,1",,,,"MET066METAR EDBC 290850Z 03009KT 0800 R26/1100N SN OVC005 M02/M03 Q1006;",
"10616499999","2010-11-29T09:20:00","4","51.854992","11.418889","180.0","COCHSTEDT, GM","FM-15","EDBC ","V020","040,1,N,0046,1","00180,1,C,N","001500,1,N,1","-0020,1","-0030,1","99999,9","08,5,+00180,1,99,9",,,"08,99,1,99,9,99,9,99999,9,99,9,99,9",,"10061,1,99999,9","10,1","71,1",,,"MET067METAR EDBC 290920Z 04009KT 1500 BR -SN OVC006 M02/M03 Q1006 R88/99;",
"10616499999","2010-11-29T09:50:00","4","51.854992","11.418889","180.0","COCHSTEDT, GM","FM-15","EDBC ","V020","040,1,N,0057,1","00240,1,C,N","003000,1,N,1","-0020,1","-0030,1","99999,9","07,5,+00240,1,99,9",,,"07,99,1,99,9,99,9,99999,9,99,9,99,9",,"10061,1,99999,9","10,1",,,,"MET063METAR EDBC 290950Z 04011KT 3000 BR BKN008 M02/M03 Q1006 R88/99;",
"10616499999","2010-11-29T10:20:00","4","51.854992","11.418889","180.0","COCHSTEDT, GM","FM-15","EDBC ","V020","040,1,N,0051,1","00240,1,C,N","004000,1,N,1","-0020,1","-0030,1","99999,9","08,5,+00240,1,99,9",,,"08,99,1,99,9,99,9,99999,9,99,9,99,9",,"10061,1,99999,9","10,1",,,,"MET063METAR EDBC 291020Z 04010KT 4000 BR OVC008 M02/M03 Q1006 R88/99;",
"10616499999","2010-11-29T10:50:00","4","51.854992","11.418889","180.0","COCHSTEDT, GM","FM-15","EDBC ","V020","030,1,N,0062,1","00240,1,C,N","005000,1,N,1","-0020,1","-0030,1","99999,9","08,5,+00240,1,99,9",,,"08,99,1,99,9,99,9,99999,9,99,9,99,9",,"10061,1,99999,9",,,,,"MET060METAR EDBC 291050Z 03012KT 5000 OVC008 M02/M03 Q1006 R88/99;",
"10616499999","2010-11-29T11:20:00","4","51.854992","11.418889","180.0","COCHSTEDT, GM","FM-15","EDBC ","V020","030,1,N,0067,1","00360,1,C,N","009000,1,N,1","-0020,1","-0040,1","99999,9","08,5,+00360,1,99,9",,,"08,99,1,99,9,99,9,99999,9,99,9,99,9",,"10061,1,99999,9",,,,,"MET060METAR EDBC 291120Z 03013KT 9000 OVC012 M02/M04 Q1006 R88/99;",
"10616499999","2010-11-29T11:50:00","4","51.854992","11.418889","180.0","COCHSTEDT, GM","FM-15","EDBC ","V020","030,1,N,0062,1","00300,1,C,N","009000,1,N,1","-0020,1","-0040,1","99999,9","07,5,+00300,1,99,9",,,"07,99,1,99,9,99,9,99999,9,99,9,99,9",,"10061,1,99999,9",,,,,"MET060METAR EDBC 291150Z 03012KT 9000 BKN010 M02/M04 Q1006 R88/99;",
"10616499999","2010-11-29T12:20:00","4","51.854992","11.418889","180.0","COCHSTEDT, GM","FM-15","EDBC ","V020","030,1,N,0067,1","00360,1,C,N","009000,1,N,1","-0030,1","-0040,1","99999,9","08,5,+00360,1,99,9",,,"08,99,1,99,9,99,9,99999,9,99,9,99,9",,"10071,1,99999,9",,,,,"MET060METAR EDBC 291220Z 03013KT 9000 OVC012 M03/M04 Q1007 R88/99;",
"10616499999","2010-11-29T12:50:00","4","51.854992","11.418889","180.0","COCHSTEDT, GM","FM-15","EDBC ","V020","030,1,N,0062,1","00330,1,C,N","008000,1,N,1","-0030,1","-0040,1","99999,9","08,5,+00330,1,99,9",,,"08,99,1,99,9,99,9,99999,9,99,9,99,9",,"10071,1,99999,9",,,,,"MET060METAR EDBC 291250Z 03012KT 8000 OVC011 M03/M04 Q1007 R88/99;",
"10616499999","2010-11-29T13:20:00","4","51.854992","11.418889","180.0","COCHSTEDT, GM","FM-15","EDBC ","V020","030,1,N,0057,1","00390,1,C,N","008000,1,N,1","-0030,1","-0040,1","99999,9","08,5,+00390,1,99,9",,,"08,99,1,99,9,99,9,99999,9,99,9,99,9",,"10071,1,99999,9",,,,,"MET053METAR EDBC 291320Z 03011KT 8000 OVC013 M03/M04 Q1007;",
"10616499999","2010-11-29T13:50:00","4","51.854992","11.418889","180.0","COCHSTEDT, GM","FM-15","EDBC ","V020","030,1,N,0057,1","00300,1,C,N","009000,1,N,1","-0030,1","-0050,1","99999,9","08,5,+00300,1,99,9",,,"08,99,1,99,9,99,9,99999,9,99,9,99,9",,"10071,1,99999,9",,,,,"MET053METAR EDBC 291350Z 03011KT 9000 OVC010 M03/M05 Q1007;",
"10616499999","2010-11-29T14:20:00","4","51.854992","11.418889","180.0","COCHSTEDT, GM","FM-15","EDBC ","V020","030,1,N,0051,1","00300,1,C,N","009000,1,N,1","-0030,1","-0050,1","99999,9","08,5,+00300,1,99,9",,,"08,99,1,99,9,99,9,99999,9,99,9,99,9",,"10071,1,99999,9",,,,,"MET053METAR EDBC 291420Z 03010KT 9000 OVC010 M03/M05 Q1007;",
"10616499999","2010-11-29T14:50:00","4","51.854992","11.418889","180.0","COCHSTEDT, GM","FM-15","EDBC ","V020","020,1,N,0046,1","00300,1,C,N","009000,1,N,1","-0030,1","-0050,1","99999,9","08,5,+00300,1,99,9",,,"08,99,1,99,9,99,9,99999,9,99,9,99,9",,"10071,1,99999,9",,,,,"MET053METAR EDBC 291450Z 02009KT 9000 OVC010 M03/M05 Q1007;",
"10616499999","2010-11-29T15:20:00","4","51.854992","11.418889","180.0","COCHSTEDT, GM","FM-15","EDBC ","V020","030,1,N,0051,1","00360,1,C,N","009000,1,N,1","-0030,1","-0050,1","99999,9","08,5,+00360,1,99,9",,,"08,99,1,99,9,99,9,99999,9,99,9,99,9",,"10081,1,99999,9",,,,,"MET053METAR EDBC 291520Z 03010KT 9000 OVC012 M03/M05 Q1008;",
"10616499999","2010-11-30T04:50:00","4","51.854992","11.418889","180.0","COCHSTEDT, GM","FM-15","EDBC ","V020","040,1,N,0026,1","00390,1,C,N","006000,1,N,1","-0040,1","-0060,1","99999,9","08,5,+00390,1,99,9",,,"08,99,1,99,9,99,9,99999,9,99,9,99,9",,"10139,1,99999,9","71,1",,,,"MET057METAR EDBC 300450Z 04005KT 6000 -SN OVC013 M04/M06 Q1014;",
"10616499999","2010-11-30T05:20:00","4","51.854992","11.418889","180.0","COCHSTEDT, GM","FM-15","EDBC ","V020","030,1,N,0031,1","00390,1,C,N","008000,1,N,1","-0040,1","-0060,1","99999,9","08,5,+00390,1,99,9",,,"08,99,1,99,9,99,9,99999,9,99,9,99,9",,"10139,1,99999,9",,,,,"MET053METAR EDBC 300520Z 03006KT 8000 OVC013 M04/M06 Q1014;",
"10616499999","2010-11-30T05:50:00","4","51.854992","11.418889","180.0","COCHSTEDT, GM","FM-15","EDBC ","V020","040,1,N,0036,1","00450,1,C,N","008000,1,N,1","-0040,1","-0080,1","99999,9","07,5,+00450,1,99,9",,,"07,99,1,99,9,99,9,99999,9,99,9,99,9",,"10149,1,99999,9",,,,,"MET053METAR EDBC 300550Z 04007KT 8000 BKN015 M04/M08 Q1015;",
"10616499999","2010-11-30T06:20:00","4","51.854992","11.418889","180.0","COCHSTEDT, GM","FM-15","EDBC ","V020","040,1,N,0031,1","00450,1,C,N","011265,1,N,1","-0040,1","-0080,1","99999,9","07,5,+00450,1,99,9",,,"07,99,1,99,9,99,9,99999,9,99,9,99,9",,"10149,1,99999,9",,,,,"MET053METAR EDBC 300620Z 04006KT 9999 BKN015 M04/M08 Q1015;",
"10616499999","2010-11-30T06:50:00","4","51.854992","11.418889","180.0","COCHSTEDT, GM","FM-15","EDBC ","V020","040,1,N,0026,1","00450,1,C,N","011265,1,N,1","-0040,1","-0080,1","99999,9","07,5,+00450,1,99,9",,,"07,99,1,99,9,99,9,99999,9,99,9,99,9",,"10149,1,99999,9",,,,,"MET053METAR EDBC 300650Z 04005KT 9999 BKN015 M04/M08 Q1015;",
"10616499999","2010-11-30T07:20:00","4","51.854992","11.418889","180.0","COCHSTEDT, GM","FM-15","EDBC ","V020","050,1,N,0036,1","00450,1,C,N","011265,1,N,1","-0040,1","-0080,1","99999,9","08,5,+00450,1,99,9",,,"08,99,1,99,9,99,9,99999,9,99,9,99,9",,"10149,1,99999,9",,,,,"MET053METAR EDBC 300720Z 05007KT 9999 OVC015 M04/M08 Q1015;",
"10616499999","2010-11-30T07:50:00","4","51.854992","11.418889","180.0","COCHSTEDT, GM","FM-15","EDBC ","V020","050,1,N,0036,1","00390,1,C,N","011265,1,N,1","-0050,1","-0080,1","99999,9","08,5,+00390,1,99,9",,,"08,99,1,99,9,99,9,99999,9,99,9,99,9",,"10159,1,99999,9",,,,,"MET053METAR EDBC 300750Z 05007KT 9999 OVC013 M05/M08 Q1016;",
"10616499999","2010-11-30T08:20:00","4","51.854992","11.418889","180.0","COCHSTEDT, GM","FM-15","EDBC ","V020","050,1,N,0036,1","00450,1,C,N","011265,1,N,1","-0050,1","-0080,1","99999,9","02,5,+00330,1,99,9","07,5,+00450,1,99,9",,"07,99,1,99,9,99,9,99999,9,99,9,99,9",,"10159,1,99999,9",,,,,"MET060METAR EDBC 300820Z 05007KT 9999 FEW011 BKN015 M05/M08 Q1016;",
"10616499999","2010-11-30T08:50:00","4","51.854992","11.418889","180.0","COCHSTEDT, GM","FM-15","EDBC ","V020","050,1,N,0041,1","00450,1,C,N","011265,1,N,1","-0050,1","-0080,1","99999,9","07,5,+00450,1,99,9",,,"07,99,1,99,9,99,9,99999,9,99,9,99,9",,"10159,1,99999,9",,,,,"MET060METAR EDBC 300850Z 05008KT 9999 BKN015 M05/M08 Q1016 R88/99;",
"10616499999","2010-11-30T09:20:00","4","51.854992","11.418889","180.0","COCHSTEDT, GM","FM-15","EDBC ","V020","050,1,N,0036,1","00540,1,C,N","011265,1,N,1","-0050,1","-0080,1","99999,9","04,5,+00390,1,99,9","07,5,+00540,1,99,9",,"07,99,1,99,9,99,9,99999,9,99,9,99,9",,"10159,1,99999,9",,,,,"MET067METAR EDBC 300920Z 05007KT 9999 SCT013 BKN018 M05/M08 Q1016 R88/99;",
"10616499999","2010-11-30T09:50:00","4","51.854992","11.418889","180.0","COCHSTEDT, GM","FM-15","EDBC ","V020","050,1,N,0041,1","00660,1,C,N","011265,1,N,1","-0050,1","-0080,1","99999,9","02,5,+00420,1,99,9","07,5,+00660,1,99,9",,"07,99,1,99,9,99,9,99999,9,99,9,99,9",,"10159,1,99999,9",,,,,"MET067METAR EDBC 300950Z 05008KT 9999 FEW014 BKN022 M05/M08 Q1016 R88/99;",
"10616499999","2010-11-30T10:20:00","4","51.854992","11.418889","180.0","COCHSTEDT, GM","FM-15","EDBC ","V020","060,1,N,0041,1","00690,1,C,N","011265,1,N,1","-0050,1","-0080,1","99999,9","04,5,+00450,1,99,9","07,5,+00690,1,99,9",,"07,99,1,99,9,99,9,99999,9,99,9,99,9",,"10159,1,99999,9",,,,,"MET067METAR EDBC 301020Z 06008KT 9999 SCT015 BKN023 M05/M08 Q1016 R88/99;",
"10616499999","2010-11-30T10:50:00","4","51.854992","11.418889","180.0","COCHSTEDT, GM","FM-15","EDBC ","V020","060,1,N,0041,1","00450,1,C,N","011265,1,N,1","-0050,1","-0080,1","99999,9","02,5,+00210,1,99,9","07,5,+00450,1,99,9",,"07,99,1,99,9,99,9,99999,9,99,9,99,9",,"10159,1,99999,9",,,,,"MET067METAR EDBC 301050Z 06008KT 9999 FEW007 BKN015 M05/M08 Q1016 R88/99;",
"10616499999","2010-11-30T11:20:00","4","51.854992","11.418889","180.0","COCHSTEDT, GM","FM-15","EDBC ","V020","060,1,N,0036,1","00390,1,C,N","011265,1,N,1","-0050,1","-0080,1","99999,9","07,5,+00390,1,99,9",,,"07,99,1,99,9,99,9,99999,9,99,9,99,9",,"10159,1,99999,9",,,,,"MET060METAR EDBC 301120Z 06007KT 9999 BKN013 M05/M08 Q1016 R88/99;",
"10616499999","2010-11-30T11:50:00","4","51.854992","11.418889","180.0","COCHSTEDT, GM","FM-15","EDBC ","V020","060,1,N,0041,1","00390,1,C,N","011265,1,N,1","-0050,1","-0080,1","99999,9","07,5,+00390,1,99,9",,,"07,99,1,99,9,99,9,99999,9,99,9,99,9",,"10159,1,99999,9",,,,,"MET060METAR EDBC 301150Z 06008KT 9999 BKN013 M05/M08 Q1016 R88/99;",
"10616499999","2010-11-30T12:20:00","4","51.854992","11.418889","180.0","COCHSTEDT, GM","FM-15","EDBC ","V020","050,1,N,0036,1","00660,1,C,N","011265,1,N,1","-0050,1","-0080,1","99999,9","04,5,+00420,1,99,9","07,5,+00660,1,99,9",,"07,99,1,99,9,99,9,99999,9,99,9,99,9",,"10159,1,99999,9",,,,,"MET067METAR EDBC 301220Z 05007KT 9999 SCT014 BKN022 M05/M08 Q1016 R88/99;",
"10616499999","2010-11-30T12:50:00","4","51.854992","11.418889","180.0","COCHSTEDT, GM","FM-15","EDBC ","V020","070,1,N,0031,1","00450,1,C,N","011265,1,N,1","-0050,1","-0080,1","99999,9","07,5,+00450,1,99,9",,,"07,99,1,99,9,99,9,99999,9,99,9,99,9",,"10159,1,99999,9",,,,,"MET053METAR EDBC 301250Z 07006KT 9999 BKN015 M05/M08 Q1016;",
"10616499999","2010-11-30T13:20:00","4","51.854992","11.418889","180.0","COCHSTEDT, GM","FM-15","EDBC ","V020","060,1,N,0026,1","22000,1,9,N","011265,1,N,1","-0060,1","-0090,1","99999,9","04,5,+00420,1,99,9",,,"04,99,1,99,9,99,9,99999,9,99,9,99,9",,"10159,1,99999,9",,,,,"MET053METAR EDBC 301320Z 06005KT 9999 SCT014 M06/M09 Q1016;",
"10616499999","2010-11-30T13:50:00","4","51.854992","11.418889","180.0","COCHSTEDT, GM","FM-15","EDBC ","V020","060,1,N,0026,1","00750,1,C,N","011265,1,N,1","-0050,1","-0080,1","99999,9","07,5,+00750,1,99,9",,,"07,99,1,99,9,99,9,99999,9,99,9,99,9",,"10159,1,99999,9",,,,,"MET053METAR EDBC 301350Z 06005KT 9999 BKN025 M05/M08 Q1016;",
"10616499999","2010-11-30T14:20:00","4","51.854992","11.418889","180.0","COCHSTEDT, GM","FM-15","EDBC ","V020","060,1,N,0031,1","00840,1,C,N","011265,1,N,1","-0050,1","-0090,1","99999,9","02,5,+00420,1,99,9","07,5,+00840,1,99,9",,"07,99,1,99,9,99,9,99999,9,99,9,99,9",,"10159,1,99999,9",,,,,"MET060METAR EDBC 301420Z 06006KT 9999 FEW014 BKN028 M05/M09 Q1016;",
"10616499999","2010-11-30T14:50:00","4","51.854992","11.418889","180.0","COCHSTEDT, GM","FM-15","EDBC ","V020","060,1,N,0031,1","00600,1,C,N","011265,1,N,1","-0050,1","-0090,1","99999,9","02,5,+00510,1,99,9","04,5,+00600,1,99,9","07,5,+00720,1,99,9","07,99,1,99,9,99,9,99999,9,99,9,99,9",,"10159,1,99999,9",,,,,"MET067METAR EDBC 301450Z 06006KT 9999 FEW017 SCT020 BKN024 M05/M09 Q1016;",
"10616499999","2010-12-01T05:20:00","4","51.854992","11.418889","180.0","COCHSTEDT, GM","FM-15","EDBC ","V020","070,1,N,0077,1","22000,1,9,N","011265,1,N,1","-0100,1","-0130,1","99999,9",,,,"00,99,1,99,9,99,9,99999,9,99,9,99,9",,"10119,1,99999,9","36,1",,,"0129,1","MET058METAR EDBC 010520Z 07015G25KT 9999 DRSN NSC M10/M13 Q1012;","Q01    003SCCGA1"
"10616499999","2010-12-01T05:50:00","4","51.854992","11.418889","180.0","COCHSTEDT, GM","FM-15","EDBC ","V020","070,1,N,0082,1","99999,9,C,N","011265,1,N,1","-0100,1","-0130,1","99999,9","02,5,+00180,1,99,9","04,5,+00300,1,99,9",,"04,99,1,99,9,99,9,99999,9,99,9,99,9",,"10119,1,99999,9","36,1",,,,"MET065METAR EDBC 010550Z 07016KT 9999 DRSN FEW006 SCT010 M10/M13 Q1012;","P01 003003SCOCIG"
"10616499999","2010-12-01T06:20:00","4","51.854992","11.418889","180.0","COCHSTEDT, GM","FM-15","EDBC ","V020","080,1,N,0072,1","03600,1,C,N","011265,1,N,1","-0110,1","-0130,1","99999,9","02,5,+00300,1,99,9","07,5,+03600,1,99,9",,"07,99,1,99,9,99,9,99999,9,99,9,99,9",,"10119,1,99999,9","36,1",,,"0129,1","MET068METAR EDBC 010620Z 08014G25KT 9999 DRSN FEW010 BKN120 M11/M13 Q1012;",
"10616499999","2010-12-01T06:50:00","4","51.854992","11.418889","180.0","COCHSTEDT, GM","FM-15","EDBC ","V020","070,1,N,0098,1","00450,1,C,N","006000,1,N,1","-0110,1","-0130,1","99999,9","02,5,+00150,1,99,9","07,5,+00450,1,99,9",,"07,99,1,99,9,99,9,99999,9,99,9,99,9",,"10119,1,99999,9","36,1",,,,"MET066METAR EDBC 010650Z 07019KT 6000 -DRSN FEW005 BKN015 M11/M13 Q1012;",
"10616499999","2010-12-01T07:20:00","4","51.854992","11.418889","180.0","COCHSTEDT, GM","FM-15","EDBC ","V020","080,1,N,0103,1","00420,1,C,N","005000,1,N,1","-0110,1","-0130,1","99999,9","04,5,+00120,1,99,9","07,5,+00420,1,99,9",,"07,99,1,99,9,99,9,99999,9,99,9,99,9",,"10119,1,99999,9","36,1",,,,"MET065METAR EDBC 010720Z 08020KT 5000 DRSN SCT004 BKN014 M11/M13 Q1012;",
"10616499999","2010-12-01T07:50:00","4","51.854992","11.418889","180.0","COCHSTEDT, GM","FM-15","EDBC ","V020","070,1,N,0087,1","00360,1,C,N","003000,1,N,1","-0110,1","-0130,1","99999,9","02,5,+00120,1,99,9","07,5,+00360,1,99,9",,"07,99,1,99,9,99,9,99999,9,99,9,99,9",,"10119,1,99999,9","37,1",,,,"MET066METAR EDBC 010750Z 07017KT 3000 +DRSN FEW004 BKN012 M11/M13 Q1012;",
"10616499999","2010-12-01T08:20:00","4","51.854992","11.418889","180.0","COCHSTEDT, GM","FM-15","EDBC ","V020","080,1,N,0077,1","00300,1,C,N","003000,1,N,1","-0110,1","-0130,1","99999,9","04,5,+00120,1,99,9","07,5,+00300,1,99,9",,"07,99,1,99,9,99,9,99999,9,99,9,99,9",,"10119,1,99999,9","36,1",,,,"MET065METAR EDBC 010820Z 08015KT 3000 DRSN SCT004 BKN010 M11/M13 Q1012;",
"10616499999","2010-12-01T08:50:00","4","51.854992","11.418889","180.0","COCHSTEDT, GM","FM-15","EDBC ","V020","070,1,N,0082,1","00450,1,C,N","003000,1,N,1","-0110,1","-0130,1","99999,9","04,5,+00120,1,99,9","07,5,+00450,1,99,9",,"07,99,1,99,9,99,9,99999,9,99,9,99,9",,"10119,1,99999,9","36,1","73,1",,,"MET068METAR EDBC 010850Z 07016KT 3000 SN DRSN SCT004 BKN015 M11/M13 Q1012;",
"10616499999","2010-12-01T09:20:00","4","51.854992","11.418889","180.0","COCHSTEDT, GM","FM-15","EDBC ","V020","070,1,N,0082,1","00600,1,C,N","002500,1,N,1","-0110,1","-0130,1","99999,9","02,5,+00150,1,99,9","07,5,+00600,1,99,9",,"07,99,1,99,9,99,9,99999,9,99,9,99,9",,"10108,1,99999,9","36,1","73,1",,,"MET068METAR EDBC 010920Z 07016KT 2500 SN DRSN FEW005 BKN020 M11/M13 Q1011;",
"10616499999","2010-12-01T09:50:00","4","51.854992","11.418889","180.0","COCHSTEDT, GM","FM-15","EDBC ","V020","070,1,N,0087,1","00600,1,C,N","003000,1,N,1","-0100,1","-0130,1","99999,9","02,5,+00210,1,99,9","07,5,+00600,1,99,9",,"07,99,1,99,9,99,9,99999,9,99,9,99,9",,"10119,1,99999,9","10,1","36,1","73,1",,"MET071METAR EDBC 010950Z 07017KT 3000 SN DRSN BR FEW007 BKN020 M10/M13 Q1012;",
"10616499999","2010-12-01T10:20:00","4","51.854992","11.418889","180.0","COCHSTEDT, GM","FM-15","EDBC ","V020","060,1,N,0067,1","00540,1,C,N","003000,1,N,1","-0100,1","-0120,1","99999,9","02,5,+00120,1,99,9","07,5,+00540,1,99,9",,"07,99,1,99,9,99,9,99999,9,99,9,99,9",,"10108,1,99999,9","10,1","36,1","73,1",,"MET071METAR EDBC 011020Z 06013KT 3000 SN DRSN BR FEW004 BKN018 M10/M12 Q1011;",
"10616499999","2010-12-01T10:50:00","4","51.854992","11.418889","180.0","COCHSTEDT, GM","FM-15","EDBC ","V020","070,1,N,0077,1","00390,1,C,N","005000,1,N,1","-0100,1","-0120,1","99999,9","02,5,+00150,1,99,9","07,5,+00390,1,99,9",,"07,99,1,99,9,99,9,99999,9,99,9,99,9",,"10102,1,99999,9","10,1","36,1","71,1","0134,1","MET075METAR EDBC 011050Z 07015G26KT 5000 -SN DRSN BR FEW005 BKN013 M10/M12 Q1010;",
"10616499999","2010-12-01T11:20:00","4","51.854992","11.418889","180.0","COCHSTEDT, GM","FM-15","EDBC ","V020","060,1,N,0082,1","99999,9,C,N","005000,1,N,1","-0100,1","-0120,1","99999,9","02,5,+00150,1,99,9","04,5,+00480,1,99,9",,"04,99,1,99,9,99,9,99999,9,99,9,99,9",,"10102,1,99999,9","10,1","36,1","71,1",,"MET072METAR EDBC 011120Z 06016KT 5000 -SN DRSN BR FEW005 SCT016 M10/M12 Q1010;","P01 004803SCOCIG"
"10616499999","2010-12-01T11:50:00","4","51.854992","11.418889","180.0","COCHSTEDT, GM","FM-15","EDBC ","V020","060,1,N,0062,1","99999,9,C,N","005000,1,N,1","-0100,1","-0120,1","99999,9","02,5,+00150,1,99,9","04,5,+00330,1,99,9",,"04,99,1,99,9,99,9,99999,9,99,9,99,9",,"10102,1,99999,9","10,1","36,1","71,1",,"MET072METAR EDBC 011150Z 06012KT 5000 -SN DRSN BR FEW005 SCT011 M10/M12 Q1010;","P01 003303SCOCIG"
"10616499999","2010-12-01T12:20:00","4","51.854992","11.418889","180.0","COCHSTEDT, GM","FM-15","EDBC ","V020","060,1,N,0072,1","99999,9,C,N","005000,1,N,1","-0100,1","-0120,1","99999,9","02,5,+00150,1,99,9","04,5,+00300,1,99,9",,"04,99,1,99,9,99,9,99999,9,99,9,99,9",,"10091,1,99999,9","10,1","36,1","71,1",,"MET072METAR EDBC 011220Z 06014KT 5000 -SN DRSN BR FEW005 SCT010 M10/M12 Q1009;","P01 003003SCOCIG"
"10616499999","2010-12-01T12:50:00","4","51.854992","11.418889","180.0","COCHSTEDT, GM","FM-15","EDBC ","V020","060,1,N,0072,1","22000,1,9,N","005000,1,N,1","-0100,1","-0120,1","99999,9","02,5,+00120,1,99,9",,,"02,99,1,99,9,99,9,99999,9,99,9,99,9",,"10091,1,99999,9","10,1","71,1",,,"MET060METAR EDBC 011250Z 06014KT 5000 -SN BR FEW004 M10/M12 Q1009;",
"10616499999","2010-12-01T13:20:00","4","51.854992","11.418889","180.0","COCHSTEDT, GM","FM-15","EDBC ","V020","060,1,N,0072,1","22000,1,9,N","005000,1,N,1","-0100,1","-0120,1","99999,9","02,5,+00450,1,99,9",,,"02,99,1,99,9,99,9,99999,9,99,9,99,9",,"10091,1,99999,9","10,1",,,,"MET056METAR EDBC 011320Z 06014KT 5000 BR FEW015 M10/M12 Q1009;",
"10616499999","2010-12-01T13:50:00","4","51.854992","11.418889","180.0","COCHSTEDT, GM","FM-15","EDBC ","V020","060,1,N,0077,1","22000,1,9,N","003000,1,N,1","-0100,1","-0120,1","99999,9","02,5,+00270,1,99,9",,,"02,99,1,99,9,99,9,99999,9,99,9,99,9",,"10081,1,99999,9","73,1",,,,"MET056METAR EDBC 011350Z 06015KT 3000 SN FEW009 M10/M12 Q1008;",
"10616499999","2010-12-01T14:20:00","4","51.854992","11.418889","180.0","COCHSTEDT, GM","FM-15","EDBC ","V020","060,1,N,0077,1","22000,1,9,N","003000,1,N,1","-0100,1","-0120,1","99999,9","02,5,+00600,1,99,9",,,"02,99,1,99,9,99,9,99999,9,99,9,99,9",,"10081,1,99999,9","73,1",,,,"MET056METAR EDBC 011420Z 06015KT 3000 SN FEW020 M10/M12 Q1008;",
"10616499999","2010-12-01T14:50:00","4","51.854992","11.418889","180.0","COCHSTEDT, GM","FM-15","EDBC ","V020","060,1,N,0077,1","22000,1,9,N","003000,1,N,1","-0090,1","-0120,1","99999,9","02,5,+00420,1,99,9",,,"02,99,1,99,9,99,9,99999,9,99,9,99,9",,"10081,1,99999,9","73,1",,,,"MET056METAR EDBC 011450Z 06015KT 3000 SN FEW014 M09/M12 Q1008;",
"10616499999","2010-12-02T09:20:00","4","51.854992","11.418889","180.0","COCHSTEDT, GM","FM-15","EDBC ","V020","260,1,N,0021,1","22000,1,9,N","003000,1,N,1","-0100,1","-0120,1","99999,9",,,,"00,99,1,99,9,99,9,99999,9,99,9,99,9",,"10060,1,99999,9","85,5",,,,"MET080METAR EDBC 020920Z 26004KT 3000 NSC R26/1300N -SHSN BR M10/M12 Q1006 R88///99//;","Q01    003SCCGA1"
"10616499999","2010-12-02T09:50:00","4","51.854992","11.418889","180.0","COCHSTEDT, GM","FM-15","EDBC ","V020","310,1,N,0031,1","22000,1,9,N","004000,1,N,1","-0090,1","-0110,1","99999,9",,,,"00,99,1,99,9,99,9,99999,9,99,9,99,9",,"10060,1,99999,9",,,,,"MET060METAR EDBC 020950Z 31006KT 4000 NSC BR M09/M11 Q1006 R88/99;","Q01    003SCCGA1"
"10616499999","2010-12-02T10:20:00","4","51.854992","11.418889","180.0","COCHSTEDT, GM","FM-15","EDBC ","V020","260,1,N,0026,1","22000,1,9,N","008000,1,N,1","-0100,1","-0120,1","99999,9",,,,"00,99,1,99,9,99,9,99999,9,99,9,99,9",,"10060,1,99999,9",,,,,"MET061METAR EDBC 021020Z 26005KT 8000 NSC NIL M10/M12 Q1006 R88/99;","Q01    003SCCGA1"
"10616499999","2010-12-02T10:50:00","4","51.854992","11.418889","180.0","COCHSTEDT, GM","FM-15","EDBC ","V020","250,1,N,0031,1","22000,1,9,N","008000,1,N,1","-0110,1","-0130,1","99999,9","02,5,+00660,1,99,9",,,"02,99,1,99,9,99,9,99999,9,99,9,99,9",,"10061,1,99999,9",,,,,"MET053METAR EDBC 021050Z 25006KT 8000 FEW022 M11/M13 Q1006;",
"10616499999","2010-12-02T11:20:00","4","51.854992","11.418889","180.0","COCHSTEDT, GM","FM-15","EDBC ","V020","260,1,N,0041,1","22000,1,9,N","009000,1,N,1","-0100,1","-0120,1","99999,9","02,5,+00660,1,99,9",,,"02,99,1,99,9,99,9,99999,9,99,9,99,9",,"10061,1,99999,9",,,,,"MET064METAR EDBC 021120Z 26008KT 9000 NIL FEW022 M10/M12 Q1006 R88/99;",
"10616499999","2010-12-02T11:50:00","4","51.854992","11.418889","180.0","COCHSTEDT, GM","FM-15","EDBC ","V020","260,1,N,0036,1","22000,1,9,N","011265,1,N,1","-0090,1","-0120,1","99999,9","02,5,+00750,1,99,9",,,"02,99,1,99,9,99,9,99999,9,99,9,99,9",,"10061,1,99999,9",,,,,"MET053METAR EDBC 021150Z 26007KT 9999 FEW025 M09/M12 Q1006;",
"10616499999","2010-12-02T12:20:00","4","51.854992","11.418889","180.0","COCHSTEDT, GM","FM-15","EDBC ","V020","260,1,N,0031,1","22000,1,9,N","011265,1,N,1","-0100,1","-0120,1","99999,9","02,5,+00600,1,99,9",,,"02,99,1,99,9,99,9,99999,9,99,9,99,9",,"10061,1,99999,9",,,,,"MET053METAR EDBC 021220Z 26006KT 9999 FEW020 M10/M12 Q1006;",
"10616499999","2010-12-02T12:50:00","4","51.854992","11.418889","180.0","COCHSTEDT, GM","FM-15","EDBC ","V020","260,1,N,0031,1","22000,1,9,N","011265,1,N,1","-0100,1","-0120,1","99999,9","02,5,+00750,1,99,9",,,"02,99,1,99,9,99,9,99999,9,99,9,99,9",,"10061,1,99999,9",,,,,"MET053METAR EDBC 021250Z 26006KT 9999 FEW025 M10/M12 Q1006;",
"10616499999","2010-12-02T13:20:00","4","51.854992","11.418889","180.0","COCHSTEDT, GM","FM-15","EDBC ","V020","250,1,N,0031,1","22000,1,9,N","011265,1,N,1","-0100,1","-0120,1","99999,9","02,5,+00900,1,99,9",,,"02,99,1,99,9,99,9,99999,9,99,9,99,9",,"10061,1,99999,9",,,,,"MET053METAR EDBC 021320Z 25006KT 9999 FEW030 M10/M12 Q1006;",
"10616499999","2010-12-02T13:50:00","4","51.854992","11.418889","180.0","COCHSTEDT, GM","FM-15","EDBC ","V020","250,1,N,0031,1","22000,1,9,N","011265,1,N,1","-0100,1","-0120,1","99999,9","02,5,+00600,1,99,9",,,"02,99,1,99,9,99,9,99999,9,99,9,99,9",,"10061,1,99999,9",,,,,"MET053METAR EDBC 021350Z 25006KT 9999 FEW020 M10/M12 Q1006;",
"10616499999","2010-12-02T14:20:00","4","51.854992","11.418889","180.0","COCHSTEDT, GM","FM-15","EDBC ","V020","250,1,N,0021,1","22000,1,9,N","011265,1,N,1","-0100,1","-0120,1","99999,9","02,5,+00360,1,99,9",,,"02,99,1,99,9,99,9,99999,9,99,9,99,9",,"10061,1,99999,9",,,,,"MET053METAR EDBC 021420Z 25004KT 9999 FEW012 M10/M12 Q1006;",
"10616499999","2010-12-02T14:50:00","4","51.854992","11.418889","180.0","COCHSTEDT, GM","FM-15","EDBC ","V020","260,1,N,0031,1","22000,1,9,N","011265,1,N,1","-0110,1","-0130,1","99999,9","02,5,+00300,1,99,9",,,"02,99,1,99,9,99,9,99999,9,99,9,99,9",,"10061,1,99999,9",,,,,"MET053METAR EDBC 021450Z 26006KT 9999 FEW010 M11/M13 Q1006;",
"10616499999","2010-12-03T07:20:00","4","51.854992","11.418889","180.0","COCHSTEDT, GM","FM-15","EDBC ","V020","210,1,N,0036,1","00510,1,C,N","011265,1,N,1","-0100,1","-0120,1","99999,9","07,5,+00510,1,99,9",,,"07,99,1,99,9,99,9,99999,9,99,9,99,9",,"10081,1,99999,9",,,,,"MET064METAR EDBC 030720Z 21007KT 9999 NIL BKN017 M10/M12 Q1008 R88/99;",
"10616499999","2010-12-03T07:50:00","4","51.854992","11.418889","180.0","COCHSTEDT, GM","FM-15","EDBC ","V020","200,1,N,0031,1","00570,1,C,N","011265,1,N,1","-0100,1","-0120,1","99999,9","07,5,+00570,1,99,9",,,"07,99,1,99,9,99,9,99999,9,99,9,99,9",,"10081,1,99999,9",,,,,"MET070METAR EDBC 030750Z 20006KT 9999 ///// NIL BKN019 M10/M12 Q1008 R88/99;",
"10616499999","2010-12-03T08:20:00","4","51.854992","11.418889","180.0","COCHSTEDT, GM","FM-15","EDBC ","V020","210,1,N,0036,1","22000,1,9,N","011265,1,N,1","-0090,1","-0120,1","99999,9","04,5,+00540,1,99,9",,,"04,99,1,99,9,99,9,99999,9,99,9,99,9",,"10081,1,99999,9",,,,,"MET064METAR EDBC 030820Z 21007KT 9999 NIL SCT018 M09/M12 Q1008 R88/99;",
"10616499999","2010-12-03T08:50:00","4","51.854992","11.418889","180.0","COCHSTEDT, GM","FM-15","EDBC ","V020","210,1,N,0041,1","22000,1,9,N","011265,1,N,1","-0100,1","-0130,1","99999,9","02,5,+00600,1,99,9",,,"02,99,1,99,9,99,9,99999,9,99,9,99,9",,"10081,1,99999,9",,,,,"MET064METAR EDBC 030850Z 21008KT 9999 NIL FEW020 M10/M13 Q1008 R88/99;",
"10616499999","2010-12-03T09:20:00","4","51.854992","11.418889","180.0","COCHSTEDT, GM","FM-15","EDBC ","V020","210,1,N,0031,1","99999,9,9,Y","009900,1,N,1","-0090,1","-0120,1","99999,9",,,,,,"10091,1,99999,9",,,,,"MET054METAR EDBC 030920Z 21006KT CAVOK M09/M12 Q1009 R88/99;",
"10616499999","2010-12-03T09:50:00","4","51.854992","11.418889","180.0","COCHSTEDT, GM","FM-15","EDBC ","V020","210,1,N,0031,1","99999,9,9,Y","009900,1,N,1","-0100,1","-0130,1","99999,9",,,,,,"10091,1,99999,9",,,,,"MET054METAR EDBC 030950Z 21006KT CAVOK M10/M13 Q1009 R88/99;",
"10616499999","2010-12-03T10:20:00","4","51.854992","11.418889","180.0","COCHSTEDT, GM","FM-15","EDBC ","V020","200,1,N,0041,1","99999,9,9,Y","009900,1,N,1","-0090,1","-0120,1","99999,9",,,,,,"10081,1,99999,9",,,,,"MET054METAR EDBC 031020Z 20008KT CAVOK M09/M12 Q1008 R88/99;",
"10616499999","2010-12-03T10:50:00","4","51.854992","11.418889","180.0","COCHSTEDT, GM","FM-15","EDBC ","V020","210,1,N,0036,1","99999,9,9,Y","009900,1,N,1","-0070,1","-0110,1","99999,9",,,,,,"10081,1,99999,9",,,,,"MET054METAR EDBC 031050Z 21007KT CAVOK M07/M11 Q1008 R88/99;",
"10616499999","2010-12-03T11:20:00","4","51.854992","11.418889","180.0","COCHSTEDT, GM","FM-15","EDBC ","V020","220,1,N,0026,1","22000,1,9,N","011265,1,N,1","-0070,1","-0110,1","99999,9","02,5,+00660,1,99,9",,,"02,99,1,99,9,99,9,99999,9,99,9,99,9",,"10091,1,99999,9",,,,,"MET053METAR EDBC 031120Z 22005KT 9999 FEW022 M07/M11 Q1009;",
"10616499999","2010-12-03T11:50:00","4","51.854992","11.418889","180.0","COCHSTEDT, GM","FM-15","EDBC ","V020","240,1,N,0015,1","99999,9,9,Y","009900,1,N,1","-0060,1","-0110,1","99999,9",,,,,,"10091,1,99999,9",,,,,"MET047METAR EDBC 031150Z 24003KT CAVOK M06/M11 Q1009;",
"10616499999","2010-12-03T12:20:00","4","51.854992","11.418889","180.0","COCHSTEDT, GM","FM-15","EDBC ","V020","999,9,V,0010,1","99999,9,9,Y","009900,1,N,1","-0050,1","-0100,1","99999,9",,,,,,"10081,1,99999,9",,,,,"MET047METAR EDBC 031220Z VRB02KT CAVOK M05/M10 Q1008;",
"10616499999","2010-12-03T12:50:00","4","51.854992","11.418889","180.0","COCHSTEDT, GM","FM-15","EDBC ","V020","210,1,N,0015,1","22000,1,9,N","011265,1,N,1","-0060,1","-0110,1","99999,9","04,5,+00630,1,99,9",,,"04,99,1,99,9,99,9,99999,9,99,9,99,9",,"10081,1,99999,9",,,,,"MET053METAR EDBC 031250Z 21003KT 9999 SCT021 M06/M11 Q1008;",
"10616499999","2010-12-03T13:20:00","4","51.854992","11.418889","180.0","COCHSTEDT, GM","FM-15","EDBC ","V020","220,1,N,0015,1","22000,1,9,N","011265,1,N,1","-0060,1","-0110,1","99999,9","04,5,+00900,1,99,9",,,"04,99,1,99,9,99,9,99999,9,99,9,99,9",,"10081,1,99999,9",,,,,"MET053METAR EDBC 031320Z 22003KT 9999 SCT030 M06/M11 Q1008;",
"10616499999","2010-12-03T13:50:00","4","51.854992","11.418889","180.0","COCHSTEDT, GM","FM-15","EDBC ","V020","210,1,N,0021,1","99999,9,C,N","011265,1,N,1","-0070,1","-0100,1","99999,9","02,5,+00360,1,99,9","04,5,+00750,1,99,9",,"04,99,1,99,9,99,9,99999,9,99,9,99,9",,"10081,1,99999,9",,,,,"MET060METAR EDBC 031350Z 21004KT 9999 FEW012 SCT025 M07/M10 Q1008;","P01 007503SCOCIG"
"10616499999","2010-12-03T14:20:00","4","51.854992","11.418889","180.0","COCHSTEDT, GM","FM-15","EDBC ","V020","220,1,N,0021,1","00690,1,C,N","011265,1,N,1","-0070,1","-0100,1","99999,9","02,5,+00390,1,99,9","04,5,+00690,1,99,9","07,5,+00810,1,99,9","07,99,1,99,9,99,9,99999,9,99,9,99,9",,"10091,1,99999,9",,,,,"MET075METAR EDBC 031420Z 22004KT 180V240 9999 FEW013 SCT023 BKN027 M07/M10 Q1009;",
"10616499999","2010-12-03T14:50:00","4","51.854992","11.418889","180.0","COCHSTEDT, GM","FM-15","EDBC ","V020","210,1,N,0021,1","00750,1,C,N","011265,1,N,1","-0070,1","-0090,1","99999,9","02,5,+00570,1,99,9","08,5,+00750,1,99,9",,"08,99,1,99,9,99,9,99999,9,99,9,99,9",,"10091,1,99999,9",,,,,"MET060METAR EDBC 031450Z 21004KT 9999 FEW019 OVC025 M07/M09 Q1009;",
"10616499999","2010-12-06T07:50:00","4","51.854992","11.418889","180.0","COCHSTEDT, GM","FM-15","EDBC ","V020","200,1,N,0036,1","22000,1,9,N","011265,1,N,1","-0060,1","-0070,1","99999,9","02,5,+01050,1,99,9",,,"02,99,1,99,9,99,9,99999,9,99,9,99,9",,"10010,1,99999,9",,,,,"MET053METAR EDBC 060750Z 20007KT 9999 FEW035 M06/M07 Q1001;",
"10616499999","2010-12-06T08:20:00","4","51.854992","11.418889","180.0","COCHSTEDT, GM","FM-15","EDBC ","V020","230,1,N,0041,1","22000,1,9,N","011265,1,N,1","-0060,1","-0070,1","99999,9","02,5,+01050,1,99,9",,,"02,99,1,99,9,99,9,99999,9,99,9,99,9",,"10010,1,99999,9",,,,,"MET053METAR EDBC 060820Z 23008KT 9999 FEW035 M06/M07 Q1001;",
"10616499999","2010-12-06T08:50:00","4","51.854992","11.418889","180.0","COCHSTEDT, GM","FM-15","EDBC ","V020","220,1,N,0041,1","22000,1,9,N","011265,1,N,1","-0040,1","-0060,1","99999,9","02,5,+01080,1,99,9",,,"02,99,1,99,9,99,9,99999,9,99,9,99,9",,"10010,1,99999,9",,,,,"MET053METAR EDBC 060850Z 22008KT 9999 FEW036 M04/M06 Q1001;",
"10616499999","2010-12-06T09:20:00","4","51.854992","11.418889","180.0","COCHSTEDT, GM","FM-15","EDBC ","V020","220,1,N,0036,1","99999,9,C,N","011265,1,N,1","-0040,1","-0050,1","99999,9","02,5,+01080,1,99,9","04,5,+01260,1,99,9",,"04,99,1,99,9,99,9,99999,9,99,9,99,9",,"10010,1,99999,9",,,,,"MET060METAR EDBC 060920Z 22007KT 9999 FEW036 SCT042 M04/M05 Q1001;","P01 012603SCOCIG"
"10616499999","2010-12-06T09:50:00","4","51.854992","11.418889","180.0","COCHSTEDT, GM","FM-15","EDBC ","V020","250,1,N,0031,1","01230,1,C,N","011265,1,N,1","-0030,1","-0050,1","99999,9","02,5,+01080,1,99,9","08,5,+01230,1,99,9",,"08,99,1,99,9,99,9,99999,9,99,9,99,9",,"10010,1,99999,9",,,,,"MET060METAR EDBC 060950Z 25006KT 9999 FEW036 OVC041 M03/M05 Q1001;",
"10616499999","2010-12-06T10:20:00","4","51.854992","11.418889","180.0","COCHSTEDT, GM","FM-15","EDBC ","V020","270,1,N,0021,1","01260,1,C,N","011265,1,N,1","-0020,1","-0040,1","99999,9","07,5,+01260,1,99,9",,,"07,99,1,99,9,99,9,99999,9,99,9,99,9",,"10010,1,99999,9",,,,,"MET053METAR EDBC 061020Z 27004KT 9999 BKN042 M02/M04 Q1001;",
"10616499999","2010-12-06T10:50:00","4","51.854992","11.418889","180.0","COCHSTEDT, GM","FM-15","EDBC ","V020","020,1,N,0010,1","01260,1,C,N","011265,1,N,1","-0010,1","-0040,1","99999,9","07,5,+01260,1,99,9",,,"07,99,1,99,9,99,9,99999,9,99,9,99,9",,"10010,1,99999,9",,,,,"MET053METAR EDBC 061050Z 02002KT 9999 BKN042 M01/M04 Q1001;",
"10616499999","2010-12-06T11:20:00","4","51.854992","11.418889","180.0","COCHSTEDT, GM","FM-15","EDBC ","V020","150,1,N,0015,1","01260,1,C,N","011265,1,N,1","-0010,1","-0040,1","99999,9","07,5,+01260,1,99,9",,,"07,99,1,99,9,99,9,99999,9,99,9,99,9",,"10010,1,99999,9",,,,,"MET053METAR EDBC 061120Z 15003KT 9999 BKN042 M01/M04 Q1001;",
"10616499999","2010-12-06T11:50:00","4","51.854992","11.418889","180.0","COCHSTEDT, GM","FM-15","EDBC ","V020","120,1,N,0010,1","01260,1,C,N","011265,1,N,1","-0010,1","-0040,1","99999,9","07,5,+01260,1,99,9",,,"07,99,1,99,9,99,9,99999,9,99,9,99,9",,"10010,1,99999,9",,,,,"MET053METAR EDBC 061150Z 12002KT 9999 BKN042 M01/M04 Q1001;",
"10616499999","2010-12-06T12:20:00","4","51.854992","11.418889","180.0","COCHSTEDT, GM","FM-15","EDBC ","V020","999,9,V,0010,1","01260,1,C,N","011265,1,N,1","+0020,1","-0040,1","99999,9","07,5,+01260,1,99,9",,,"07,99,1,99,9,99,9,99999,9,99,9,99,9",,"10010,1,99999,9",,,,,"MET052METAR EDBC 061220Z VRB02KT 9999 BKN042 02/M04 Q1001;",
"10616499999","2010-12-06T12:50:00","4","51.854992","11.418889","180.0","COCHSTEDT, GM","FM-15","EDBC ","V020","140,1,N,0010,1","22000,1,9,N","011265,1,N,1","+0000,1","-0040,1","99999,9","04,5,+01260,1,99,9",,,"04,99,1,99,9,99,9,99999,9,99,9,99,9",,"10010,1,99999,9",,,,,"MET052METAR EDBC 061250Z 14002KT 9999 SCT042 00/M04 Q1001;",
"10616499999","2010-12-06T13:20:00","4","51.854992","11.418889","180.0","COCHSTEDT, GM","FM-15","EDBC ","V020","360,1,N,0021,1","22000,1,9,N","011265,1,N,1","-0020,1","-0040,1","99999,9","02,5,+01200,1,99,9",,,"02,99,1,99,9,99,9,99999,9,99,9,99,9",,"10010,1,99999,9",,,,,"MET053METAR EDBC 061320Z 36004KT 9999 FEW040 M02/M04 Q1001;",
"10616499999","2010-12-06T13:50:00","4","51.854992","11.418889","180.0","COCHSTEDT, GM","FM-15","EDBC ","V020","030,1,N,0015,1","99999,9,9,Y","009900,1,N,1","+0000,1","-0040,1","99999,9",,,,,,"10010,1,99999,9",,,,,"MET046METAR EDBC 061350Z 03003KTCAVOK M00/M04 Q1001;",
"10616499999","2010-12-06T14:20:00","4","51.854992","11.418889","180.0","COCHSTEDT, GM","FM-15","EDBC ","V020","020,1,N,0010,1","99999,9,9,Y","009900,1,N,1","-0010,1","-0040,1","99999,9",,,,,,"10010,1,99999,9",,,,,"MET047METAR EDBC 061420Z 02002KT CAVOK M01/M04 Q1001;",
"10616499999","2010-12-06T14:50:00","4","51.854992","11.418889","180.0","COCHSTEDT, GM","FM-15","EDBC ","V020","160,1,N,0015,1","99999,9,9,Y","009900,1,N,1","-0030,1","-0050,1","99999,9",,,,,,"10010,1,99999,9",,,,,"MET047METAR EDBC 061450Z 16003KT CAVOK M03/M05 Q1001;",
"10616499999","2010-12-07T07:20:00","4","51.854992","11.418889","180.0","COCHSTEDT, GM","FM-15","EDBC ","V020","340,1,N,0026,1","00660,1,C,N","001500,1,N,1","-0060,1","-0070,1","99999,9","08,5,+00660,1,99,9",,,"08,99,1,99,9,99,9,99999,9,99,9,99,9",,"10041,1,99999,9","44,1",,,,"MET066METAR EDBC 070720Z 34005KT 1500 R26/1400N FG OVC022 M06/M07 Q1004;",
"10616499999","2010-12-07T07:50:00","4","51.854992","11.418889","180.0","COCHSTEDT, GM","FM-15","EDBC ","V020","340,1,N,0026,1","00660,1,C,N","001500,1,N,1","-0060,1","-0060,1","99999,9","08,5,+00660,1,99,9",,,"08,99,1,99,9,99,9,99999,9,99,9,99,9",,"10041,1,99999,9","44,1",,,,"MET066METAR EDBC 070750Z 34005KT 1500 R26/1400N FG OVC022 M06/M06 Q1004;",
"10616499999","2010-12-07T08:20:00","4","51.854992","11.418889","180.0","COCHSTEDT, GM","FM-15","EDBC ","V020","350,1,N,0026,1","00690,1,C,N","001000,1,N,1","-0060,1","-0060,1","99999,9","02,5,+00330,1,99,9","07,5,+00690,1,99,9",,"07,99,1,99,9,99,9,99999,9,99,9,99,9",,"10041,1,99999,9","44,1",,,,"MET073METAR EDBC 070820Z 35005KT 1000 R26/1200D FG FEW011 BKN023 M06/M06 Q1004;",
"10616499999","2010-12-07T08:50:00","4","51.854992","11.418889","180.0","COCHSTEDT, GM","FM-15","EDBC ","V020","340,1,N,0026,1","22000,1,9,N","000800,1,N,1","-0060,1","-0060,1","99999,9","02,5,+00330,1,99,9",,,"02,99,1,99,9,99,9,99999,9,99,9,99,9",,"10041,1,99999,9","44,1",,,,"MET071METAR EDBC 070850Z 34005KT 0800 R26/0900V1100N FG FEW011 M06/M06 Q1004;",
"10616499999","2010-12-07T09:20:00","4","51.854992","11.418889","180.0","COCHSTEDT, GM","FM-15","EDBC ","V020","350,1,N,0031,1","22000,1,9,N","000500,1,N,1","-0050,1","-0060,1","99999,9","04,5,+00000,5,99,9",,,"04,99,1,99,9,99,9,99999,9,99,9,99,9",,"10041,1,99999,9","44,1",,,,"MET071METAR EDBC 070920Z 35006KT 0500 R26/0325V0500N FG SCT000 M05/M06 Q1004;",
"10616499999","2010-12-07T09:50:00","4","51.854992","11.418889","180.0","COCHSTEDT, GM","FM-15","EDBC ","V020","340,1,N,0026,1","00015,1,C,N","000050,1,N,1","-0050,1","-0060,1","99999,9","08,5,+00000,5,99,9",,,"08,99,1,99,9,99,9,99999,9,99,9,99,9",,"10051,1,99999,9","44,1",,,,"MET066METAR EDBC 070950Z 34005KT 0050 R26/0250N FG OVC000 M05/M06 Q1005;",
"10616499999","2010-12-07T10:20:00","4","51.854992","11.418889","180.0","COCHSTEDT, GM","FM-15","EDBC ","V020","350,1,N,0026,1","00015,1,C,N","000050,1,N,1","-0050,1","-0060,1","99999,9","08,5,+00000,5,99,9",,,"08,99,1,99,9,99,9,99999,9,99,9,99,9",,"10051,1,99999,9","44,1",,,,"MET066METAR EDBC 071020Z 35005KT 0050 R26/0200N FG OVC000 M05/M06 Q1005;",
"10616499999","2010-12-07T10:50:00","4","51.854992","11.418889","180.0","COCHSTEDT, GM","FM-15","EDBC ","V020","360,1,N,0031,1","00015,1,C,N","000050,1,N,1","-0050,1","-0050,1","99999,9","08,5,+00000,5,99,9",,,"08,99,1,99,9,99,9,99999,9,99,9,99,9",,"10051,1,99999,9","44,1",,,,"MET066METAR EDBC 071050Z 36006KT 0050 R26/0175N FG OVC000 M05/M05 Q1005;",
"10616499999","2010-12-07T11:20:00","4","51.854992","11.418889","180.0","COCHSTEDT, GM","FM-15","EDBC ","V020","350,1,N,0026,1","00015,1,C,N","000050,1,N,1","-0040,1","-0050,1","99999,9","07,5,+00000,5,99,9",,,"07,99,1,99,9,99,9,99999,9,99,9,99,9",,"10051,1,99999,9","44,1",,,,"MET066METAR EDBC 071120Z 35005KT 0050 R26/0175N FG BKN000 M04/M05 Q1005;",
"10616499999","2010-12-07T11:50:00","4","51.854992","11.418889","180.0","COCHSTEDT, GM","FM-15","EDBC ","V020","010,1,N,0031,1","00015,1,C,N","000050,1,N,1","-0040,1","-0050,1","99999,9","08,5,+00000,5,99,9",,,"08,99,1,99,9,99,9,99999,9,99,9,99,9",,"10051,1,99999,9","44,1",,,,"MET066METAR EDBC 071150Z 01006KT 0050 R26/0150N FG OVC000 M04/M05 Q1005;",
"10616499999","2010-12-07T12:20:00","4","51.854992","11.418889","180.0","COCHSTEDT, GM","FM-15","EDBC ","V020","010,1,N,0026,1","00015,1,C,N","000050,1,N,1","-0040,1","-0040,1","99999,9","08,5,+00000,5,99,9",,,"08,99,1,99,9,99,9,99999,9,99,9,99,9",,"10051,1,99999,9","44,1",,,,"MET066METAR EDBC 071220Z 01005KT 0050 R26/0150N FG OVC000 M04/M04 Q1005;",
"10616499999","2010-12-07T12:50:00","4","51.854992","11.418889","180.0","COCHSTEDT, GM","FM-15","EDBC ","V020","030,1,N,0021,1","00015,1,C,N","000050,1,N,1","-0040,1","-0040,1","99999,9","08,5,+00000,5,99,9",,,"08,99,1,99,9,99,9,99999,9,99,9,99,9",,"10051,1,99999,9","44,1",,,,"MET066METAR EDBC 071250Z 03004KT 0050 R26/0175N FG OVC000 M04/M04 Q1005;",
"10616499999","2010-12-07T13:20:00","4","51.854992","11.418889","180.0","COCHSTEDT, GM","FM-15","EDBC ","V020","030,1,N,0021,1","00015,1,C,N","000050,1,N,1","-0040,1","-0040,1","99999,9","08,5,+00000,5,99,9",,,"08,99,1,99,9,99,9,99999,9,99,9,99,9",,"10051,1,99999,9","44,1",,,,"MET066METAR EDBC 071320Z 03004KT 0050 R26/0175N FG OVC000 M04/M04 Q1005;",
"10616499999","2010-12-07T13:50:00","4","51.854992","11.418889","180.0","COCHSTEDT, GM","FM-15","EDBC ","V020","040,1,N,0026,1","00015,1,C,N","000050,1,N,1","-0040,1","-0040,1","99999,9","08,5,+00000,5,99,9",,,"08,99,1,99,9,99,9,99999,9,99,9,99,9",,"10051,1,99999,9","44,1",,,,"MET066METAR EDBC 071350Z 04005KT 0050 R26/0225N FG OVC000 M04/M04 Q1005;",
"10616499999","2010-12-07T14:20:00","4","51.854992","11.418889","180.0","COCHSTEDT, GM","FM-15","EDBC ","V020","050,1,N,0021,1","00015,1,C,N","000050,1,N,1","-0040,1","-0040,1","99999,9","08,5,+00000,5,99,9",,,"08,99,1,99,9,99,9,99999,9,99,9,99,9",,"10051,1,99999,9","44,1",,,,"MET066METAR EDBC 071420Z 05004KT 0050 R26/0225N FG OVC000 M04/M04 Q1005;",
"10616499999","2010-12-07T14:50:00","4","51.854992","11.418889","180.0","COCHSTEDT, GM","FM-15","EDBC ","V020","999,9,V,0015,1","00015,1,C,N","000050,1,N,1","-0040,1","-0040,1","99999,9","08,5,+00000,5,99,9",,,"08,99,1,99,9,99,9,99999,9,99,9,99,9",,"10051,1,99999,9","44,1",,,,"MET066METAR EDBC 071450Z VRB03KT 0050 R26/0250N FG OVC000 M04/M04 Q1005;",
"10616499999","2010-12-08T07:20:00","4","51.854992","11.418889","180.0","COCHSTEDT, GM","FM-15","EDBC ","V020","040,1,N,0015,1","00060,1,C,N","000800,1,N,1","-0030,1","-0040,1","99999,9","08,5,+00060,1,99,9",,,"08,99,1,99,9,99,9,99999,9,99,9,99,9",,"10050,1,99999,9",,,,,"MET077METAR EDBC 080720Z 04003KT 0800 SG R26/1500N OVC002 M03/M04 Q1005 R88///99//;","Q01+000772PRSWM1"
"10616499999","2010-12-08T07:50:00","4","51.854992","11.418889","180.0","COCHSTEDT, GM","FM-15","EDBC ","V020","050,1,N,0015,1","00060,1,C,N","000800,1,N,1","-0030,1","-0040,1","99999,9","08,5,+00060,1,99,9",,,"08,99,1,99,9,99,9,99999,9,99,9,99,9",,"10051,1,99999,9","73,1",,,,"MET077METAR EDBC 080750Z 05003KT 0800 R26/1200D SN OVC002 M03/M04 Q1005 R88///99//;",
"10616499999","2010-12-08T08:20:00","4","51.854992","11.418889","180.0","COCHSTEDT, GM","FM-15","EDBC ","V020","040,1,N,0015,1","00210,1,C,N","000800,1,N,1","-0030,1","-0040,1","99999,9","07,5,+00210,1,99,9","08,5,+00480,1,99,9",,"08,99,1,99,9,99,9,99999,9,99,9,99,9",,"10051,1,99999,9","73,1",,,,"MET083METAR EDBC 080820Z 04003KT 0800 R26/1200U SN BKN007 OVC016 M03/M04 Q1005 R88//99//;",
"10616499999","2010-12-08T08:50:00","4","51.854992","11.418889","180.0","COCHSTEDT, GM","FM-15","EDBC ","V020","999,9,V,0015,1","00150,1,C,N","001000,1,N,1","-0030,1","-0040,1","99999,9","08,5,+00150,1,99,9",,,"08,99,1,99,9,99,9,99999,9,99,9,99,9",,"10051,1,99999,9","71,1",,,,"MET078METAR EDBC 080850Z VRB03KT 1000 R26/1200N -SN OVC005 M03/M04 Q1005 R88///99//;",
"10616499999","2010-12-08T09:20:00","4","51.854992","11.418889","180.0","COCHSTEDT, GM","FM-15","EDBC ","V020","999,9,V,0015,1","00060,1,C,N","001000,1,N,1","-0030,1","-0040,1","99999,9","08,5,+00060,1,99,9",,,"08,99,1,99,9,99,9,99999,9,99,9,99,9",,"10051,1,99999,9","10,1","71,1",,,"MET081METAR EDBC 080920Z VRB03KT 1000 R26/0900N -SN BR OVC002 M03/M04 Q1005 R88///99//;",
"10616499999","2010-12-08T09:50:00","4","51.854992","11.418889","180.0","COCHSTEDT, GM","FM-15","EDBC ","V020","050,1,N,0015,1","00090,1,C,N","000800,1,N,1","-0030,1","-0030,1","99999,9","08,5,+00090,1,99,9",,,"08,99,1,99,9,99,9,99999,9,99,9,99,9",,"10041,1,99999,9","10,1","77,1",,,"MET080METAR EDBC 080950Z 05003KT 0800 R26/0900N SG BR OVC003 M03/M03 Q1004 R88///99//;",
"10616499999","2010-12-08T10:20:00","4","51.854992","11.418889","180.0","COCHSTEDT, GM","FM-15","EDBC ","V020","040,1,N,0015,1","00120,1,C,N","000400,1,N,1","-0030,1","-0030,1","99999,9","08,5,+00120,1,99,9",,,"08,99,1,99,9,99,9,99999,9,99,9,99,9",,"10041,1,99999,9","10,1","71,1",,,"MET081METAR EDBC 081020Z 04003KT 0400 R26/0900N -SN BR OVC004 M03/M03 Q1004 R88///99//;",
"10616499999","2010-12-08T10:50:00","4","51.854992","11.418889","180.0","COCHSTEDT, GM","FM-15","EDBC ","V020","020,1,N,0015,1","00120,1,C,N","000500,1,N,1","-0030,1","-0030,1","99999,9","08,5,+00120,1,99,9",,,"08,99,1,99,9,99,9,99999,9,99,9,99,9",,"10041,1,99999,9","10,1","73,1",,,"MET080METAR EDBC 081050Z 02003KT 0500 R26/0900N SN BR OVC004 M03/M03 Q1004 R88///99//;",
"10616499999","2010-12-08T11:50:00","4","51.854992","11.418889","180.0","COCHSTEDT, GM","FM-15","EDBC ","V020","020,1,N,0021,1","00090,1,C,N","001000,1,N,1","-0030,1","-0030,1","99999,9","08,5,+00090,1,99,9",,,"08,99,1,99,9,99,9,99999,9,99,9,99,9",,"10031,1,99999,9","10,1","73,1",,,"MET080METAR EDBC 081150Z 02004KT 1000 R26/0900N SN BR OVC003 M03/M03 Q1003 R88///99//;",
"10616499999","2010-12-08T12:20:00","4","51.854992","11.418889","180.0","COCHSTEDT, GM","FM-15","EDBC ","V020","010,1,N,0021,1","00120,1,C,N","000800,1,N,1","-0030,1","-0030,1","99999,9","08,5,+00120,1,99,9",,,"08,99,1,99,9,99,9,99999,9,99,9,99,9",,"10031,1,99999,9","10,1","73,1",,,"MET080METAR EDBC 081220Z 01004KT 0800 R26/0900N SN BR OVC004 M03/M03 Q1003 R88///99//;",
"10616499999","2010-12-08T12:50:00","4","51.854992","11.418889","180.0","COCHSTEDT, GM","FM-15","EDBC ","V020","360,1,N,0021,1","00120,1,C,N","000400,1,N,1","-0030,1","-0030,1","99999,9","08,5,+00120,1,99,9",,,"08,99,1,99,9,99,9,99999,9,99,9,99,9",,"10031,1,99999,9","10,1","73,1",,,"MET080METAR EDBC 081250Z 36004KT 0400 R26/0900N SN BR OVC004 M03/M03 Q1003 R88///99//;",
"10616499999","2010-12-08T13:20:00","4","51.854992","11.418889","180.0","COCHSTEDT, GM","FM-15","EDBC ","V020","360,1,N,0021,1","00120,1,C,N","000400,1,N,1","-0030,1","-0030,1","99999,9","08,5,+00120,1,99,9",,,"08,99,1,99,9,99,9,99999,9,99,9,99,9",,"10020,1,99999,9","44,1","73,1",,,"MET080METAR EDBC 081320Z 36004KT 0400 R26/1000N SN FG OVC004 M03/M03 Q1002 R88///99//;",
"10616499999","2010-12-08T13:50:00","4","51.854992","11.418889","180.0","COCHSTEDT, GM","FM-15","EDBC ","V020","340,1,N,0021,1","00060,1,C,N","001000,1,N,1","-0030,1","-0030,1","99999,9","07,5,+00060,1,99,9","08,5,+00120,1,99,9",,"08,99,1,99,9,99,9,99999,9,99,9,99,9",,"10020,1,99999,9","10,1","73,1",,,"MET087METAR EDBC 081350Z 34004KT 1000 R26/1100U SN BR BKN002 OVC004 M03/M03 Q1002 R88///99//;",
"10616499999","2010-12-08T14:20:00","4","51.854992","11.418889","180.0","COCHSTEDT, GM","FM-15","EDBC ","V020","350,1,N,0021,1","00060,1,C,N","001000,1,N,1","-0030,1","-0040,1","99999,9","08,5,+00060,1,99,9",,,"08,99,1,99,9,99,9,99999,9,99,9,99,9",,"10020,1,99999,9","10,1","73,1",,,"MET080METAR EDBC 081420Z 35004KT 1000 R26/1200N SN BR OVC002 M03/M04 Q1002 R88///99//;",
"10616499999","2010-12-08T14:50:00","4","51.854992","11.418889","180.0","COCHSTEDT, GM","FM-15","EDBC ","V020","340,1,N,0021,1","00060,1,C,N","001200,1,N,1","-0030,1","-0040,1","99999,9","08,5,+00060,1,99,9",,,"08,99,1,99,9,99,9,99999,9,99,9,99,9",,"10031,1,99999,9","10,1","73,1",,,"MET080METAR EDBC 081450Z 34004KT 1200 R26/1400N SN BR OVC002 M03/M04 Q1003 R88///99//;",
"10616499999","2010-12-09T07:20:00","4","51.854992","11.418889","180.0","COCHSTEDT, GM","FM-15","EDBC ","V020","270,1,N,0046,1","99999,9,C,N","011265,1,N,1","-0010,1","-0020,1","99999,9","02,5,+00360,1,99,9","04,5,+00450,1,99,9",,"04,99,1,99,9,99,9,99999,9,99,9,99,9",,"10108,1,99999,9",,,,,"MET060METAR EDBC 090720Z 27009KT 9999 FEW012 SCT015 M01/M02 Q1011;","P01 004503SCOCIG"
"10616499999","2010-12-09T07:50:00","4","51.854992","11.418889","180.0","COCHSTEDT, GM","FM-15","EDBC ","V020","250,1,N,0046,1","00450,1,C,N","011265,1,N,1","-0010,1","-0030,1","99999,9","07,5,+00450,1,99,9",,,"07,99,1,99,9,99,9,99999,9,99,9,99,9",,"10119,1,99999,9",,,,,"MET053METAR EDBC 090750Z 25009KT 9999 BKN015 M01/M03 Q1012;",
"10616499999","2010-12-09T08:20:00","4","51.854992","11.418889","180.0","COCHSTEDT, GM","FM-15","EDBC ","V020","240,1,N,0041,1","00540,1,C,N","011265,1,N,1","-0010,1","-0030,1","99999,9","07,5,+00540,1,99,9",,,"07,99,1,99,9,99,9,99999,9,99,9,99,9",,"10119,1,99999,9",,,,,"MET053METAR EDBC 090820Z 24008KT 9999 BKN018 M01/M03 Q1012;",
"10616499999","2010-12-09T08:50:00","4","51.854992","11.418889","180.0","COCHSTEDT, GM","FM-15","EDBC ","V020","230,1,N,0057,1","22000,1,9,N","011265,1,N,1","-0010,1","-0040,1","99999,9","04,5,+00600,1,99,9",,,"04,99,1,99,9,99,9,99999,9,99,9,99,9",,"10108,1,99999,9",,,,,"MET053METAR EDBC 090850Z 23011KT 9999 SCT020 M01/M04 Q1011;",
"10616499999","2010-12-09T09:20:00","4","51.854992","11.418889","180.0","COCHSTEDT, GM","FM-15","EDBC ","V020","240,1,N,0051,1","00630,1,C,N","011265,1,N,1","-0010,1","-0030,1","99999,9","07,5,+00630,1,99,9",,,"07,99,1,99,9,99,9,99999,9,99,9,99,9",,"10119,1,99999,9",,,,,"MET053METAR EDBC 090920Z 24010KT 9999 BKN021 M01/M03 Q1012;",
"10616499999","2010-12-09T09:50:00","4","51.854992","11.418889","180.0","COCHSTEDT, GM","FM-15","EDBC ","V020","270,1,N,0087,1","00600,1,C,N","011265,1,N,1","+0000,1","-0030,1","99999,9","07,5,+00600,1,99,9","08,5,+00750,1,99,9",,"08,99,1,99,9,99,9,99999,9,99,9,99,9",,"10119,1,99999,9",,,,,"MET059METAR EDBC 090950Z 27017KT 9999 BKN020 OVC025 00/M03 Q1012;",
"10616499999","2010-12-09T10:20:00","4","51.854992","11.418889","180.0","COCHSTEDT, GM","FM-15","EDBC ","V020","270,1,N,0103,1","99999,9,C,N","005000,1,N,1","+0000,1","-0020,1","99999,9","02,5,+00330,1,99,9","04,5,+00630,1,99,9",,"04,99,1,99,9,99,9,99999,9,99,9,99,9",,"10108,1,99999,9","71,1",,,,"MET079METAR EDBC 091020Z 27020KT 5000 R26/0900V1600U -SN FEW011 SCT021 M00/M02 Q1011;","P01 006303SCOCIG"
"10616499999","2010-12-09T10:50:00","4","51.854992","11.418889","180.0","COCHSTEDT, GM","FM-15","EDBC ","V020","270,1,N,0093,1","00480,1,C,N","011265,1,N,1","+0000,1","-0030,1","99999,9","02,5,+00240,1,99,9","04,5,+00480,1,99,9","07,5,+00780,1,99,9","07,99,1,99,9,99,9,99999,9,99,9,99,9",,"10108,1,99999,9",,,,,"MET066METAR EDBC 091050Z 27018KT 9999 FEW008 SCT016 BKN026 00/M03 Q1011;",
"10616499999","2010-12-09T11:20:00","4","51.854992","11.418889","180.0","COCHSTEDT, GM","FM-15","EDBC ","V020","280,1,N,0093,1","00870,1,C,N","011265,1,N,1","+0000,1","-0020,1","99999,9","02,5,+00420,1,99,9","07,5,+00870,1,99,9",,"07,99,1,99,9,99,9,99999,9,99,9,99,9",,"10108,1,99999,9",,,,,"MET059METAR EDBC 091120Z 28018KT 9999 FEW014 BKN029 00/M02 Q1011;",
"10616499999","2010-12-09T11:50:00","4","51.854992","11.418889","180.0","COCHSTEDT, GM","FM-15","EDBC ","V020","280,1,N,0093,1","00540,1,C,N","011265,1,N,1","+0000,1","-0030,1","99999,9","02,5,+00450,1,99,9","04,5,+00540,1,99,9","07,5,+00690,1,99,9","07,99,1,99,9,99,9,99999,9,99,9,99,9",,"10108,1,99999,9",,,,"0149,1","MET069METAR EDBC 091150Z 28018G29KT 9999 FEW015 SCT018 BKN023 00/M03 Q1011;",
"10616499999","2010-12-09T12:20:00","4","51.854992","11.418889","180.0","COCHSTEDT, GM","FM-15","EDBC ","V020","280,1,N,0098,1","00270,1,C,N","006000,1,N,1","+0000,1","-0020,1","99999,9","02,5,+00120,1,99,9","04,5,+00270,1,99,9","07,5,+00570,1,99,9","07,99,1,99,9,99,9,99999,9,99,9,99,9",,"10108,1,99999,9","73,1",,,,"MET080METAR EDBC 091220Z 28019KT 6000 R26/0900N SN FEW004 SCT009 BKN019 M00/M02 Q1011;",
"10616499999","2010-12-09T12:50:00","4","51.854992","11.418889","180.0","COCHSTEDT, GM","FM-15","EDBC ","V020","280,1,N,0087,1","00660,1,C,N","006000,1,N,1","+0000,1","-0020,1","99999,9","02,5,+00210,1,99,9","07,5,+00660,1,99,9",,"07,99,1,99,9,99,9,99999,9,99,9,99,9",,"10108,1,99999,9","71,1",,,,"MET063METAR EDBC 091250Z 28017KT 6000 -SN FEW007 BKN022 00/M02 Q1011;",
"10616499999","2010-12-09T13:20:00","4","51.854992","11.418889","180.0","COCHSTEDT, GM","FM-15","EDBC ","V020","280,1,N,0087,1","00180,1,C,N","001000,1,N,1","+0000,1","-0010,1","99999,9","02,5,+00060,1,99,9","04,5,+00180,1,99,9","07,5,+00570,1,99,9","07,99,1,99,9,99,9,99999,9,99,9,99,9",,"10108,1,99999,9","73,1",,,,"MET085METAR EDBC 091320Z 28017KT 1000 R26/0900V1500D SN FEW002 SCT006 BKN019 M00/M01 Q1011;",
"10616499999","2010-12-09T13:50:00","4","51.854992","11.418889","180.0","COCHSTEDT, GM","FM-15","EDBC ","V020","280,1,N,0093,1","00210,1,C,N","003000,1,N,1","+0000,1","-0010,1","99999,9","02,5,+00090,1,99,9","04,5,+00210,1,99,9","07,5,+00360,1,99,9","07,99,1,99,9,99,9,99999,9,99,9,99,9",,"10119,1,99999,9","73,1",,,"0154,1","MET083METAR EDBC 091350Z 28018G30KT 3000 R26/0900N SN FEW003 SCT007 BKN012 M00/M01 Q1012;",
"10616499999","2010-12-09T14:20:00","4","51.854992","11.418889","180.0","COCHSTEDT, GM","FM-15","EDBC ","V020","280,1,N,0082,1","00360,1,C,N","005000,1,N,1","+0000,1","-0010,1","99999,9","02,5,+00180,1,99,9","07,5,+00360,1,99,9",,"07,99,1,99,9,99,9,99999,9,99,9,99,9",,"10119,1,99999,9","73,1",,,"0134,1","MET066METAR EDBC 091420Z 28016G26KT 5000 SN FEW006 BKN012 M00/M01 Q1012;",
"10616499999","2010-12-09T14:50:00","4","51.854992","11.418889","180.0","COCHSTEDT, GM","FM-15","EDBC ","V020","300,1,N,0098,1","00270,1,C,N","007000,1,N,1","+0000,1","-0020,1","99999,9","02,5,+00210,1,99,9","04,5,+00270,1,99,9","07,5,+00600,1,99,9","07,99,1,99,9,99,9,99999,9,99,9,99,9",,"10119,1,99999,9","71,1",,,"0159,1","MET073METAR EDBC 091450Z 30019G31KT 7000 -SN FEW007 SCT009 BKN020 00/M02 Q1012;",
"10616499999","2010-12-10T07:20:00","4","51.854992","11.418889","180.0","COCHSTEDT, GM","FM-15","EDBC ","V020","300,1,N,0072,1","99999,9,9,Y","009900,1,N,1","-0040,1","-0070,1","99999,9",,,,,,"10240,1,99999,9",,,,,"MET054METAR EDBC 100720Z 30014KT CAVOK M04/M07 Q1024 R88/99;",
"10616499999","2010-12-10T07:50:00","4","51.854992","11.418889","180.0","COCHSTEDT, GM","FM-15","EDBC ","V020","300,1,N,0057,1","99999,9,9,Y","009900,1,N,1","-0030,1","-0070,1","99999,9",,,,,,"10240,1,99999,9",,,,,"MET054METAR EDBC 100750Z 30011KT CAVOK M03/M07 Q1024 R88/99;",
"10616499999","2010-12-10T08:20:00","4","51.854992","11.418889","180.0","COCHSTEDT, GM","FM-15","EDBC ","V020","290,1,N,0036,1","99999,9,9,Y","009900,1,N,1","-0030,1","-0070,1","99999,9",,,,,,"10240,1,99999,9",,,,,"MET062METAR EDBC 100820Z 29007KT 260V320 CAVOK M03/M07 Q1024 R88/99;",
"10616499999","2010-12-10T08:50:00","4","51.854992","11.418889","180.0","COCHSTEDT, GM","FM-15","EDBC ","V020","250,1,N,0046,1","99999,9,9,Y","009900,1,N,1","-0060,1","-0080,1","99999,9",,,,,,"10251,1,99999,9",,,,,"MET054METAR EDBC 100850Z 25009KT CAVOK M06/M08 Q1025 R88/99;",
"10616499999","2010-12-10T09:20:00","4","51.854992","11.418889","180.0","COCHSTEDT, GM","FM-15","EDBC ","V020","270,1,N,0041,1","99999,9,9,Y","009900,1,N,1","-0050,1","-0070,1","99999,9",,,,,,"10251,1,99999,9",,,,,"MET054METAR EDBC 100920Z 27008KT CAVOK M05/M07 Q1025 R88/99;",
"10616499999","2010-12-10T09:50:00","4","51.854992","11.418889","180.0","COCHSTEDT, GM","FM-15","EDBC ","V020","270,1,N,0036,1","99999,9,9,Y","009900,1,N,1","-0030,1","-0070,1","99999,9",,,,,,"10251,1,99999,9",,,,,"MET054METAR EDBC 100950Z 27007KT CAVOK M03/M07 Q1025 R88/99;",
"10616499999","2010-12-10T10:20:00","4","51.854992","11.418889","180.0","COCHSTEDT, GM","FM-15","EDBC ","V020","270,1,N,0046,1","99999,9,9,Y","009900,1,N,1","-0030,1","-0070,1","99999,9",,,,,,"10251,1,99999,9",,,,,"MET054METAR EDBC 101020Z 27009KT CAVOK M03/M07 Q1025 R88/99;",
"10616499999","2010-12-10T10:50:00","4","51.854992","11.418889","180.0","COCHSTEDT, GM","FM-15","EDBC ","V020","280,1,N,0041,1","99999,9,9,Y","009900,1,N,1","-0020,1","-0070,1","99999,9",,,,,,"10251,1,99999,9",,,,,"MET054METAR EDBC 101050Z 28008KT CAVOK M02/M07 Q1025 R88/99;",
"10616499999","2010-12-10T11:20:00","4","51.854992","11.418889","180.0","COCHSTEDT, GM","FM-15","EDBC ","V020","280,1,N,0046,1","99999,9,9,Y","009900,1,N,1","-0010,1","-0070,1","99999,9",,,,,,"10251,1,99999,9",,,,,"MET054METAR EDBC 101120Z 28009KT CAVOK M01/M07 Q1025 R88/99;",
"10616499999","2010-12-10T11:50:00","4","51.854992","11.418889","180.0","COCHSTEDT, GM","FM-15","EDBC ","V020","280,1,N,0051,1","22000,1,9,N","011265,1,N,1","-0010,1","-0070,1","99999,9","02,5,+00750,1,99,9",,,"02,99,1,99,9,99,9,99999,9,99,9,99,9",,"10251,1,99999,9",,,,,"MET060METAR EDBC 101150Z 28010KT 9999 FEW025 M01/M07 Q1025 R88/99;",
"10616499999","2010-12-10T12:20:00","4","51.854992","11.418889","180.0","COCHSTEDT, GM","FM-15","EDBC ","V020","280,1,N,0041,1","22000,1,9,N","011265,1,N,1","-0010,1","-0060,1","99999,9","02,5,+00780,1,99,9",,,"02,99,1,99,9,99,9,99999,9,99,9,99,9",,"10251,1,99999,9",,,,,"MET060METAR EDBC 101220Z 28008KT 9999 FEW026 M01/M06 Q1025 R88/99;",
"10616499999","2010-12-10T12:50:00","4","51.854992","11.418889","180.0","COCHSTEDT, GM","FM-15","EDBC ","V020","260,1,N,0051,1","99999,9,9,Y","009900,1,N,1","-0020,1","-0050,1","99999,9",,,,,,"10251,1,99999,9",,,,,"MET054METAR EDBC 101250Z 26010KT CAVOK M02/M05 Q1025 R88/99;",
"10616499999","2010-12-10T13:20:00","4","51.854992","11.418889","180.0","COCHSTEDT, GM","FM-15","EDBC ","V020","250,1,N,0057,1","99999,9,9,Y","009900,1,N,1","-0010,1","-0050,1","99999,9",,,,,,"10251,1,99999,9",,,,,"MET054METAR EDBC 101320Z 25011KT CAVOK M01/M05 Q1025 R88/99;",
"10616499999","2010-12-10T13:50:00","4","51.854992","11.418889","180.0","COCHSTEDT, GM","FM-15","EDBC ","V020","260,1,N,0062,1","99999,9,C,N","011265,1,N,1","-0010,1","-0040,1","99999,9","02,5,+01080,1,99,9","04,5,+01350,1,99,9",,"04,99,1,99,9,99,9,99999,9,99,9,99,9",,"10251,1,99999,9",,,,,"MET066METAR EDBC 101350Z 26012KT 9999FEW036 SCT045 M01/M04 Q1025 R88/99;","P01 013503SCOCIG"
"10616499999","2010-12-10T14:20:00","4","51.854992","11.418889","180.0","COCHSTEDT, GM","FM-15","EDBC ","V020","260,1,N,0057,1","22000,1,9,N","011265,1,N,1","-0010,1","-0040,1","99999,9","02,5,+01440,1,99,9",,,"02,99,1,99,9,99,9,99999,9,99,9,99,9",,"10240,1,99999,9",,,,,"MET060METAR EDBC 101420Z 26011KT 9999 FEW048 M01/M04 Q1024 R88/99;",
"10616499999","2010-12-10T14:50:00","4","51.854992","11.418889","180.0","COCHSTEDT, GM","FM-15","EDBC ","V020","260,1,N,0062,1","99999,9,9,Y","009900,1,N,1","+0000,1","-0040,1","99999,9",,,,,,"10240,1,99999,9",,,,,"MET047METAR EDBC 101450Z 26012KT CAVOK M00/M04 Q1024;",
"10616499999","2010-12-13T07:20:00","4","51.854992","11.418889","180.0","COCHSTEDT, GM","FM-15","EDBC ","V020","310,1,N,0057,1","01710,5,C,N","011265,1,N,1","-0050,1","-0070,1","99999,9","02,5,+01470,1,99,9","07,5,+01710,5,99,9",,"07,99,1,99,9,99,9,99999,9,99,9,99,9",,"10210,1,99999,9",,,,,"MET060METAR EDBC 130720Z 31011KT 9999 FEW049 BKN057 M05/M07 Q1021;",
"10616499999","2010-12-13T07:50:00","4","51.854992","11.418889","180.0","COCHSTEDT, GM","FM-15","EDBC ","V020","300,1,N,0057,1","01440,1,C,N","011265,1,N,1","-0050,1","-0070,1","99999,9","02,5,+00720,1,99,9","07,5,+01440,1,99,9",,"07,99,1,99,9,99,9,99999,9,99,9,99,9",,"10210,1,99999,9",,,,,"MET060METAR EDBC 130750Z 30011KT 9999 FEW024 BKN048 M05/M07 Q1021;",
"10616499999","2010-12-13T08:20:00","4","51.854992","11.418889","180.0","COCHSTEDT, GM","FM-15","EDBC ","V020","310,1,N,0072,1","01230,1,C,N","011265,1,N,1","-0050,1","-0070,1","99999,9","02,5,+00660,1,99,9","04,5,+01230,1,99,9","07,5,+01560,5,99,9","07,99,1,99,9,99,9,99999,9,99,9,99,9",,"10210,1,99999,9",,,,,"MET067METAR EDBC 130820Z 31014KT 9999 FEW022 SCT041 BKN052 M05/M07 Q1021;",
"10616499999","2010-12-13T08:50:00","4","51.854992","11.418889","180.0","COCHSTEDT, GM","FM-15","EDBC ","V020","300,1,N,0067,1","22000,1,9,N","011265,1,N,1","-0050,1","-0060,1","99999,9","02,5,+00480,1,99,9",,,"02,99,1,99,9,99,9,99999,9,99,9,99,9",,"10210,1,99999,9",,,,,"MET053METAR EDBC 130850Z 30013KT 9999 FEW016 M05/M06 Q1021;",
"10616499999","2010-12-13T09:20:00","4","51.854992","11.418889","180.0","COCHSTEDT, GM","FM-15","EDBC ","V020","300,1,N,0057,1","22000,1,9,N","011265,1,N,1","-0040,1","-0060,1","99999,9","02,5,+00240,1,99,9",,,"02,99,1,99,9,99,9,99999,9,99,9,99,9",,"10210,1,99999,9",,,,,"MET053METAR EDBC 130920Z 30011KT 9999 FEW008 M04/M06 Q1021;",
"10616499999","2010-12-13T09:50:00","4","51.854992","11.418889","180.0","COCHSTEDT, GM","FM-15","EDBC ","V020","290,1,N,0067,1","22000,1,9,N","011265,1,N,1","-0040,1","-0060,1","99999,9","02,5,+00270,1,99,9",,,"02,99,1,99,9,99,9,99999,9,99,9,99,9",,"10210,1,99999,9",,,,,"MET053METAR EDBC 130950Z 29013KT 9999 FEW009 M04/M06 Q1021;",
"10616499999","2010-12-13T10:20:00","4","51.854992","11.418889","180.0","COCHSTEDT, GM","FM-15","EDBC ","V020","300,1,N,0067,1","22000,1,9,N","011265,1,N,1","-0040,1","-0060,1","99999,9","02,5,+00720,1,99,9",,,"02,99,1,99,9,99,9,99999,9,99,9,99,9",,"10200,1,99999,9",,,,,"MET053METAR EDBC 131020Z 30013KT 9999 FEW024 M04/M06 Q1020;",
"10616499999","2010-12-13T10:50:00","4","51.854992","11.418889","180.0","COCHSTEDT, GM","FM-15","EDBC ","V020","300,1,N,0067,1","22000,1,9,N","008000,1,N,1","-0040,1","-0060,1","99999,9","02,5,+00540,1,99,9",,,"02,99,1,99,9,99,9,99999,9,99,9,99,9",,"10200,1,99999,9",,,,,"MET053METAR EDBC 131050Z 30013KT 8000 FEW018 M04/M06 Q1020;",
"10616499999","2010-12-13T11:20:00","4","51.854992","11.418889","180.0","COCHSTEDT, GM","FM-15","EDBC ","V020","290,1,N,0057,1","99999,9,C,N","007000,1,N,1","-0040,1","-0060,1","99999,9","02,5,+00270,1,99,9","04,5,+00570,1,99,9",,"04,99,1,99,9,99,9,99999,9,99,9,99,9",,"10200,1,99999,9",,,,,"MET060METAR EDBC 131120Z 29011KT 7000 FEW009 SCT019 M04/M06 Q1020;","P01 005703SCOCIG"
"10616499999","2010-12-13T11:50:00","4","51.854992","11.418889","180.0","COCHSTEDT, GM","FM-15","EDBC ","V020","300,1,N,0067,1","99999,9,C,N","006000,1,N,1","-0040,1","-0060,1","99999,9","02,5,+00300,1,99,9","04,5,+00570,1,99,9",,"04,99,1,99,9,99,9,99999,9,99,9,99,9",,"10200,1,99999,9",,,,,"MET060METAR EDBC 131150Z 30013KT 6000 FEW010 SCT019 M04/M06 Q1020;","P01 005703SCOCIG"
"10616499999","2010-12-13T12:20:00","4","51.854992","11.418889","180.0","COCHSTEDT, GM","FM-15","EDBC ","V020","300,1,N,0057,1","22000,1,9,N","005000,1,N,1","-0040,1","-0050,1","99999,9","04,5,+00120,1,99,9",,,"04,99,1,99,9,99,9,99999,9,99,9,99,9",,"10190,1,99999,9","71,1",,,,"MET057METAR EDBC 131220Z 30011KT 5000 -SN SCT004 M04/M05 Q1019;",
"10616499999","2010-12-13T12:50:00","4","51.854992","11.418889","180.0","COCHSTEDT, GM","FM-15","EDBC ","V020","300,1,N,0057,1","00150,1,C,N","002000,1,N,1","-0040,1","-0050,1","99999,9","07,5,+00150,1,99,9",,,"07,99,1,99,9,99,9,99999,9,99,9,99,9",,"10190,1,99999,9","73,1",,,,"MET066METAR EDBC 131250Z 30011KT 2000 R26/1300N SN BKN005 M04/M05 Q1019;",
"10616499999","2010-12-13T13:20:00","4","51.854992","11.418889","180.0","COCHSTEDT, GM","FM-15","EDBC ","V020","310,1,N,0062,1","00150,1,C,N","002000,1,N,1","-0040,1","-0050,1","99999,9","07,5,+00150,1,99,9",,,"07,99,1,99,9,99,9,99999,9,99,9,99,9",,"10190,1,99999,9","73,1",,,,"MET066METAR EDBC 131320Z 31012KT 2000 R26/1300N SN BKN005 M04/M05 Q1019;",
"10616499999","2010-12-13T13:50:00","4","51.854992","11.418889","180.0","COCHSTEDT, GM","FM-15","EDBC ","V020","290,1,N,0046,1","22000,1,9,N","001000,1,N,1","-0040,1","-0050,1","99999,9","02,5,+00120,1,99,9",,,"02,99,1,99,9,99,9,99999,9,99,9,99,9",,"10190,1,99999,9","73,1",,,,"MET066METAR EDBC 131350Z 29009KT 1000 R26/1300N SN FEW004 M04/M05 Q1019;",
"10616499999","2010-12-13T14:20:00","4","51.854992","11.418889","180.0","COCHSTEDT, GM","FM-15","EDBC ","V020","300,1,N,0046,1","22000,1,9,N","001000,1,N,1","-0040,1","-0050,1","99999,9","02,5,+00120,1,99,9",,,"02,99,1,99,9,99,9,99999,9,99,9,99,9",,"10190,1,99999,9","73,1",,,,"MET066METAR EDBC 131420Z 30009KT 1000 R26/1600N SN FEW004 M04/M05 Q1019;",
"10616499999","2010-12-13T14:50:00","4","51.854992","11.418889","180.0","COCHSTEDT, GM","FM-15","EDBC ","V020","300,1,N,0062,1","22000,1,9,N","001000,1,N,1","-0040,1","-0050,1","99999,9","04,5,+00090,1,99,9",,,"04,99,1,99,9,99,9,99999,9,99,9,99,9",,"10190,1,99999,9","73,1",,,,"MET072METAR EDBC 131450Z 30012KT 1000 R26/1500VP2000U SN SCT003 M04/M05 Q1019;",
"10616499999","2010-12-14T07:20:00","4","51.854992","11.418889","180.0","COCHSTEDT, GM","FM-15","EDBC ","V020","310,1,N,0062,1","00150,1,C,N","006000,1,N,1","-0040,1","-0040,1","99999,9","07,5,+00150,1,99,9","08,5,+00300,1,99,9",,"08,99,1,99,9,99,9,99999,9,99,9,99,9",,"10220,1,99999,9","71,1",,,,"MET064METAR EDBC 140720Z 31012KT 6000 -SN BKN005 OVC010 M04/M04 Q1022;",
"10616499999","2010-12-14T07:50:00","4","51.854992","11.418889","180.0","COCHSTEDT, GM","FM-15","EDBC ","V020","310,1,N,0062,1","00090,1,C,N","005000,1,N,1","-0030,1","-0040,1","99999,9","07,5,+00090,1,99,9","08,5,+00180,1,99,9",,"08,99,1,99,9,99,9,99999,9,99,9,99,9",,"10220,1,99999,9",,,,,"MET060METAR EDBC 140750Z 31012KT 5000 BKN003 OVC006 M03/M04 Q1022;",
"10616499999","2010-12-14T08:20:00","4","51.854992","11.418889","180.0","COCHSTEDT, GM","FM-15","EDBC ","V020","320,1,N,0062,1","00090,1,C,N","005000,1,N,1","-0030,1","-0040,1","99999,9","07,5,+00090,1,99,9","08,5,+00150,1,99,9",,"08,99,1,99,9,99,9,99999,9,99,9,99,9",,"10220,1,99999,9",,,,,"MET076METAR EDBC 140820Z 32012KT 5000 ///// // BKN003 OVC005 M03/M04 Q1022 R88/99;",
"10616499999","2010-12-14T08:50:00","4","51.854992","11.418889","180.0","COCHSTEDT, GM","FM-15","EDBC ","V020","320,1,N,0057,1","00090,1,C,N","004000,1,N,1","-0030,1","-0030,1","99999,9","07,5,+00090,1,99,9","08,5,+00150,1,99,9",,"08,99,1,99,9,99,9,99999,9,99,9,99,9",,"10220,1,99999,9","73,1",,,,"MET070METAR EDBC 140850Z 32011KT 4000 SN BKN003 OVC005 M03/M03 Q1022 R88/99;",
"10616499999","2010-12-14T09:20:00","4","51.854992","11.418889","180.0","COCHSTEDT, GM","FM-15","EDBC ","V020","340,1,N,0062,1","00150,1,C,N","008000,1,N,1","-0020,1","-0030,1","99999,9","07,5,+00150,1,99,9",,,"07,99,1,99,9,99,9,99999,9,99,9,99,9",,"10220,1,99999,9",,,,,"MET068METAR EDBC 140920Z 34012KT 8000 BKN005 M02/M03 Q1022 RESN R8///99//;",
"10616499999","2010-12-14T09:50:00","4","51.854992","11.418889","180.0","COCHSTEDT, GM","FM-15","EDBC ","V020","350,1,N,0072,1","00420,1,C,N","006000,1,N,1","-0020,1","-0030,1","99999,9","04,5,+00150,1,99,9","08,5,+00420,1,99,9",,"08,99,1,99,9,99,9,99999,9,99,9,99,9",,"10230,1,99999,9","71,1",,,,"MET071METAR EDBC 140950Z 35014KT 6000 -SN SCT005 OVC014 M02/M03 Q1023 R88/99;",
"10616499999","2010-12-14T10:20:00","4","51.854992","11.418889","180.0","COCHSTEDT, GM","FM-15","EDBC ","V020","330,1,N,0067,1","00120,1,C,N","006000,1,N,1","-0020,1","-0030,1","99999,9","07,5,+00120,1,99,9",,,"07,99,1,99,9,99,9,99999,9,99,9,99,9",,"10230,1,99999,9","71,1",,,,"MET064METAR EDBC 141020Z 33013KT 6000 -SN BKN004 M02/M03 Q1023 R88/99;",
"10616499999","2010-12-14T10:50:00","4","51.854992","11.418889","180.0","COCHSTEDT, GM","FM-15","EDBC ","V020","340,1,N,0072,1","01440,1,C,N","011265,1,N,1","-0020,1","-0040,1","99999,9","02,5,+00180,1,99,9","07,5,+01440,1,99,9",,"07,99,1,99,9,99,9,99999,9,99,9,99,9",,"10230,1,99999,9",,,,,"MET067METAR EDBC 141050Z 34014KT 9999 FEW006 BKN048 M02/M04 Q1023 R88/99;",
"10616499999","2010-12-14T11:20:00","4","51.854992","11.418889","180.0","COCHSTEDT, GM","FM-15","EDBC ","V020","340,1,N,0072,1","01440,1,C,N","011265,1,N,1","-0020,1","-0040,1","99999,9","04,5,+00270,1,99,9","07,5,+01440,1,99,9",,"07,99,1,99,9,99,9,99999,9,99,9,99,9",,"10230,1,99999,9","36,1",,,,"MET073METAR EDBC 141120Z 34014KT 9999 -DRSN SCT009 BKN048 M02/M04 Q1023 R88/99;",
"10616499999","2010-12-14T11:50:00","4","51.854992","11.418889","180.0","COCHSTEDT, GM","FM-15","EDBC ","V020","330,1,N,0072,1","99999,9,C,N","011265,1,N,1","-0020,1","-0040,1","99999,9","02,5,+00360,1,99,9","04,5,+01500,1,99,9",,"04,99,1,99,9,99,9,99999,9,99,9,99,9",,"10230,1,99999,9",,,,,"MET067METAR EDBC 141150Z 33014KT 9999 FEW012 SCT050 M02/M04 Q1023 R88/99;","P01 015003SCOCIG"
"10616499999","2010-12-14T12:20:00","4","51.854992","11.418889","180.0","COCHSTEDT, GM","FM-15","EDBC ","V020","330,1,N,0077,1","00360,1,C,N","011265,1,N,1","-0020,1","-0040,1","99999,9","07,5,+00360,1,99,9",,,"07,99,1,99,9,99,9,99999,9,99,9,99,9",,"10230,1,99999,9",,,,,"MET060METAR EDBC 141220Z 33015KT 9999 BKN012 M02/M04 Q1023 R88/99;",
"10616499999","2010-12-14T12:50:00","4","51.854992","11.418889","180.0","COCHSTEDT, GM","FM-15","EDBC ","V020","320,1,N,0077,1","01500,1,C,N","011265,1,N,1","-0020,1","-0040,1","99999,9","04,5,+00360,1,99,9","07,5,+01500,1,99,9",,"07,99,1,99,9,99,9,99999,9,99,9,99,9",,"10230,1,99999,9",,,,,"MET067METAR EDBC 141250Z 32015KT 9999 SCT012 BKN050 M02/M04 Q1023 R88/99;",
"10616499999","2010-12-14T13:20:00","4","51.854992","11.418889","180.0","COCHSTEDT, GM","FM-15","EDBC ","V020","310,1,N,0077,1","01440,1,C,N","011265,1,N,1","-0030,1","-0050,1","99999,9","02,5,+00300,1,99,9","07,5,+01440,1,99,9",,"07,99,1,99,9,99,9,99999,9,99,9,99,9",,"10230,1,99999,9",,,,,"MET067METAR EDBC 141320Z 31015KT 9999 FEW010 BKN048 M03/M05 Q1023 R88/99;",
"10616499999","2010-12-14T13:50:00","4","51.854992","11.418889","180.0","COCHSTEDT, GM","FM-15","EDBC ","V020","310,1,N,0082,1","00300,1,C,N","011265,1,N,1","-0030,1","-0050,1","99999,9","04,5,+00240,1,99,9","07,5,+00300,1,99,9","08,5,+01500,1,99,9","08,99,1,99,9,99,9,99999,9,99,9,99,9",,"10230,1,99999,9",,,,,"MET074METAR EDBC 141350Z 31016KT 9999 SCT008 BKN010 OVC050 M03/M05 Q1023 R88/99;",
"10616499999","2010-12-14T14:20:00","4","51.854992","11.418889","180.0","COCHSTEDT, GM","FM-15","EDBC ","V020","310,1,N,0082,1","00420,1,C,N","011265,1,N,1","-0030,1","-0050,1","99999,9","07,5,+00420,1,99,9",,,"07,99,1,99,9,99,9,99999,9,99,9,99,9",,"10230,1,99999,9",,,,,"MET060METAR EDBC 141420Z 31016KT 9999 BKN014 M03/M05 Q1023 R88/99;",
"10616499999","2010-12-14T14:50:00","4","51.854992","11.418889","180.0","COCHSTEDT, GM","FM-15","EDBC ","V020","320,1,N,0082,1","00450,1,C,N","011265,1,N,1","-0030,1","-0050,1","99999,9","07,5,+00450,1,99,9",,,"07,99,1,99,9,99,9,99999,9,99,9,99,9",,"10230,1,99999,9",,,,,"MET060METAR EDBC 141450Z 32016KT 9999 BKN015 M03/M05 Q1023 R88/99;",
"10616499999","2010-12-15T07:20:00","4","51.854992","11.418889","180.0","COCHSTEDT, GM","FM-15","EDBC ","V020","310,1,N,0098,1","22000,1,9,N","002500,1,N,1","-0060,1","-0070,1","99999,9","02,5,+00570,1,99,9",,,"02,99,1,99,9,99,9,99999,9,99,9,99,9",,"10210,1,99999,9","71,1",,,,"MET057METAR EDBC 150720Z 31019KT 2500 -SN FEW019 M06/M07 Q1021;",
"10616499999","2010-12-15T07:50:00","4","51.854992","11.418889","180.0","COCHSTEDT, GM","FM-15","EDBC ","V020","310,1,N,0087,1","22000,1,9,N","002000,1,N,1","-0060,1","-0070,1","99999,9","02,5,+01320,1,99,9",,,"02,99,1,99,9,99,9,99999,9,99,9,99,9",,"10210,1,99999,9","71,1",,,,"MET057METAR EDBC 150750Z 31017KT 2000 -SN FEW044 M06/M07 Q1021;",
"10616499999","2010-12-15T08:20:00","4","51.854992","11.418889","180.0","COCHSTEDT, GM","FM-15","EDBC ","V020","310,1,N,0082,1","22000,1,9,N","001000,1,N,1","-0060,1","-0070,1","99999,9","02,5,+00120,1,99,9",,,"02,99,1,99,9,99,9,99999,9,99,9,99,9",,"10210,1,99999,9","73,1",,,,"MET071METAR EDBC 150820Z 31016KT 1000 R26/1300V1800D SN FEW004 M06/M07 Q1021;",
"10616499999","2010-12-15T08:50:00","4","51.854992","11.418889","180.0","COCHSTEDT, GM","FM-15","EDBC ","V020","310,1,N,0082,1","22000,1,9,N","001000,1,N,1","-0060,1","-0070,1","99999,9","02,5,+00120,1,99,9",,,"02,99,1,99,9,99,9,99999,9,99,9,99,9",,"10210,1,99999,9","73,1",,,,"MET066METAR EDBC 150850Z 31016KT 1000 R26/1400N SN FEW004 M06/M07 Q1021;",
"10616499999","2010-12-15T09:20:00","4","51.854992","11.418889","180.0","COCHSTEDT, GM","FM-15","EDBC ","V020","310,1,N,0082,1","22000,1,9,N","001000,1,N,1","-0060,1","-0070,1","99999,9","04,5,+00000,5,99,9",,,"04,99,1,99,9,99,9,99999,9,99,9,99,9",,"10210,1,99999,9","73,1",,,,"MET066METAR EDBC 150920Z 31016KT 1000 R26/1300N SN SCT000 M06/M07 Q1021;",
"10616499999","2010-12-15T10:20:00","4","51.854992","11.418889","180.0","COCHSTEDT, GM","FM-15","EDBC ","V020","310,1,N,0082,1","22000,1,9,N","001000,1,N,1","-0060,1","-0070,1","99999,9","02,5,+00150,1,99,9",,,"02,99,1,99,9,99,9,99999,9,99,9,99,9",,"10220,1,99999,9","73,1",,,,"MET066METAR EDBC 151020Z 31016KT 1000 R26/1500N SN FEW005 M06/M07 Q1022;",
"10616499999","2010-12-15T10:50:00","4","51.854992","11.418889","180.0","COCHSTEDT, GM","FM-15","EDBC ","V020","310,1,N,0087,1","22000,1,9,N","001000,1,N,1","-0060,1","-0070,1","99999,9","02,5,+00090,1,99,9",,,"02,99,1,99,9,99,9,99999,9,99,9,99,9",,"10210,1,99999,9","73,1",,,,"MET066METAR EDBC 151050Z 31017KT 1000 R26/1300N SN FEW003 M06/M07 Q1021;",
"10616499999","2010-12-15T11:20:00","4","51.854992","11.418889","180.0","COCHSTEDT, GM","FM-15","EDBC ","V020","310,1,N,0082,1","22000,1,9,N","001000,1,N,1","-0060,1","-0070,1","99999,9","02,5,+00090,1,99,9",,,"02,99,1,99,9,99,9,99999,9,99,9,99,9",,"10210,1,99999,9","73,1",,,,"MET066METAR EDBC 151120Z 31016KT 1000 R26/1200N SN FEW003 M06/M07 Q1021;",
"10616499999","2010-12-15T11:50:00","4","51.854992","11.418889","180.0","COCHSTEDT, GM","FM-15","EDBC ","V020","310,1,N,0072,1","22000,1,9,N","001000,1,N,1","-0060,1","-0070,1","99999,9","02,5,+00120,1,99,9",,,"02,99,1,99,9,99,9,99999,9,99,9,99,9",,"10210,1,99999,9","73,1",,,,"MET066METAR EDBC 151150Z 31014KT 1000 R26/1200N SN FEW004 M06/M07 Q1021;",
"10616499999","2010-12-15T12:20:00","4","51.854992","11.418889","180.0","COCHSTEDT, GM","FM-15","EDBC ","V020","310,1,N,0082,1","22000,1,9,N","001000,1,N,1","-0060,1","-0070,1","99999,9","02,5,+00090,1,99,9",,,"02,99,1,99,9,99,9,99999,9,99,9,99,9",,"10210,1,99999,9","73,1",,,,"MET066METAR EDBC 151220Z 31016KT 1000 R26/1500U SN FEW003 M06/M07 Q1021;",
"10616499999","2010-12-15T12:50:00","4","51.854992","11.418889","180.0","COCHSTEDT, GM","FM-15","EDBC ","V020","310,1,N,0082,1","22000,1,9,N","001000,1,N,1","-0060,1","-0070,1","99999,9","02,5,+00150,1,99,9",,,"02,99,1,99,9,99,9,99999,9,99,9,99,9",,"10210,1,99999,9","73,1",,,,"MET066METAR EDBC 151250Z 31016KT 1000 R26/1800D SN FEW005 M06/M07 Q1021;",
"10616499999","2010-12-15T13:20:00","4","51.854992","11.418889","180.0","COCHSTEDT, GM","FM-15","EDBC ","V020","310,1,N,0082,1","22000,1,9,N","001000,1,N,1","-0060,1","-0080,1","99999,9","02,5,+01110,1,99,9",,,"02,99,1,99,9,99,9,99999,9,99,9,99,9",,"10210,1,99999,9","73,1",,,,"MET066METAR EDBC 151320Z 31016KT 1000 R26/2000N SN FEW037 M06/M08 Q1021;",
"10616499999","2010-12-15T13:50:00","4","51.854992","11.418889","180.0","COCHSTEDT, GM","FM-15","EDBC ","V020","310,1,N,0082,1","22000,1,9,N","001000,1,N,1","-0060,1","-0080,1","99999,9","02,5,+00630,1,99,9",,,"02,99,1,99,9,99,9,99999,9,99,9,99,9",,"10210,1,99999,9","71,1",,,,"MET068METAR EDBC 151350Z 31016KT 1000 R26/P2000N -SN FEW021 M06/M08 Q1021;",
"10616499999","2010-12-15T14:20:00","4","51.854992","11.418889","180.0","COCHSTEDT, GM","FM-15","EDBC ","V020","310,1,N,0072,1","99999,9,C,N","001000,1,N,1","-0060,1","-0080,1","99999,9","02,5,+00510,1,99,9","04,5,+00600,1,99,9",,"04,99,1,99,9,99,9,99999,9,99,9,99,9",,"10210,1,99999,9","71,1",,,,"MET075METAR EDBC 151420Z 31014KT 1000 R26/P2000U -SN FEW017 SCT020 M06/M08 Q1021;","P01 006003SCOCIG"
"10616499999","2010-12-15T14:50:00","4","51.854992","11.418889","180.0","COCHSTEDT, GM","FM-15","EDBC ","V020","310,1,N,0077,1","99999,9,C,N","002000,1,N,1","-0060,1","-0080,1","99999,9","02,5,+00360,1,99,9","04,5,+00480,1,99,9",,"04,99,1,99,9,99,9,99999,9,99,9,99,9",,"10220,1,99999,9","71,1",,,,"MET064METAR EDBC 151450Z 31015KT 2000 -SN FEW012 SCT016 M06/M08 Q1022;","P01 004803SCOCIG"
"10616499999","2010-12-16T07:20:00","4","51.854992","11.418889","180.0","COCHSTEDT, GM","FM-15","EDBC ","V020","200,1,N,0067,1","99999,9,9,Y","009900,1,N,1","-0080,1","-0090,1","99999,9",,,,,,"10119,1,99999,9",,,,,"MET047METAR EDBC 160720Z 20013KT CAVOK M08/M09 Q1012;",
"10616499999","2010-12-16T07:50:00","4","51.854992","11.418889","180.0","COCHSTEDT, GM","FM-15","EDBC ","V020","200,1,N,0072,1","99999,9,9,Y","009900,1,N,1","-0070,1","-0090,1","99999,9",,,,,,"10108,1,99999,9",,,,,"MET047METAR EDBC 160750Z 20014KT CAVOK M07/M09 Q1011;",
"10616499999","2010-12-16T08:20:00","4","51.854992","11.418889","180.0","COCHSTEDT, GM","FM-15","EDBC ","V020","200,1,N,0077,1","99999,9,9,Y","009900,1,N,1","-0060,1","-0080,1","99999,9",,,,,,"10102,1,99999,9",,,,,"MET047METAR EDBC 160820Z 20015KT CAVOK M06/M08 Q1010;",
"10616499999","2010-12-16T08:50:00","4","51.854992","11.418889","180.0","COCHSTEDT, GM","FM-15","EDBC ","V020","210,1,N,0077,1","99999,9,9,Y","009900,1,N,1","-0060,1","-0080,1","99999,9",,,,,,"10102,1,99999,9",,,,,"MET047METAR EDBC 160850Z 21015KT CAVOK M06/M08 Q1010;",
"10616499999","2010-12-16T09:20:00","4","51.854992","11.418889","180.0","COCHSTEDT, GM","FM-15","EDBC ","V020","210,1,N,0062,1","99999,9,9,Y","009900,1,N,1","-0060,1","-0080,1","99999,9",,,,,,"10102,1,99999,9",,,,,"MET047METAR EDBC 160920Z 21012KT CAVOK M06/M08 Q1010;",
"10616499999","2010-12-16T09:50:00","4","51.854992","11.418889","180.0","COCHSTEDT, GM","FM-15","EDBC ","V020","210,1,N,0072,1","99999,9,9,Y","009900,1,N,1","-0050,1","-0080,1","99999,9",,,,,,"10091,1,99999,9",,,,,"MET047METAR EDBC 160950Z 21014KT CAVOK M05/M08 Q1009;",
"10616499999","2010-12-16T10:20:00","4","51.854992","11.418889","180.0","COCHSTEDT, GM","FM-15","EDBC ","V020","210,1,N,0072,1","99999,9,9,Y","009900,1,N,1","-0050,1","-0080,1","99999,9",,,,,,"10081,1,99999,9",,,,,"MET047METAR EDBC 161020Z 21014KT CAVOK M05/M08 Q1008;",
"10616499999","2010-12-16T10:50:00","4","51.854992","11.418889","180.0","COCHSTEDT, GM","FM-15","EDBC ","V020","200,1,N,0072,1","99999,9,9,Y","009900,1,N,1","-0040,1","-0090,1","99999,9",,,,,,"10071,1,99999,9",,,,,"MET047METAR EDBC 161050Z 20014KT CAVOK M04/M09 Q1007;",
"10616499999","2010-12-16T11:20:00","4","51.854992","11.418889","180.0","COCHSTEDT, GM","FM-15","EDBC ","V020","200,1,N,0093,1","22000,1,9,N","011265,1,N,1","-0050,1","-0080,1","99999,9",,,,"00,99,1,99,9,99,9,99999,9,99,9,99,9",,"10060,1,99999,9",,,,,"MET055METAR EDBC 161120Z 20018KT 9999 NSC DRSN M05/M08 Q1006;","Q01    003SCCGA1"
"10616499999","2010-12-16T11:50:00","4","51.854992","11.418889","180.0","COCHSTEDT, GM","FM-15","EDBC ","V020","200,1,N,0093,1","22000,1,9,N","011265,1,N,1","-0050,1","-0080,1","99999,9",,,,"00,99,1,99,9,99,9,99999,9,99,9,99,9",,"10050,1,99999,9",,,,,"MET055METAR EDBC 161150Z 20018KT 9999 NSC DRSN M05/M08 Q1005;","Q01    003SCCGA1"
"10616499999","2010-12-16T12:20:00","4","51.854992","11.418889","180.0","COCHSTEDT, GM","FM-15","EDBC ","V020","200,1,N,0113,1","22000,1,9,N","011265,1,N,1","-0050,1","-0080,1","99999,9",,,,"00,99,1,99,9,99,9,99999,9,99,9,99,9",,"10040,1,99999,9",,,,,"MET055METAR EDBC 161220Z 20022KT 9999 NSC DRSN M05/M08 Q1004;","Q01    003SCCGA1"
"10616499999","2010-12-16T12:50:00","4","51.854992","11.418889","180.0","COCHSTEDT, GM","FM-15","EDBC ","V020","200,1,N,0108,1","22000,1,9,N","011265,1,N,1","-0040,1","-0080,1","99999,9",,,,,,"10030,1,99999,9",,,,,"MET055METAR EDBC 161250Z 20021KT 9999 BSC DRSN M04/M08 Q1003;",
"10616499999","2010-12-16T13:20:00","4","51.854992","11.418889","180.0","COCHSTEDT, GM","FM-15","EDBC ","V020","210,1,N,0108,1","22000,1,9,N","011265,1,N,1","-0040,1","-0080,1","99999,9",,,,"00,99,1,99,9,99,9,99999,9,99,9,99,9",,"10020,1,99999,9",,,,,"MET055METAR EDBC 161320Z 21021KT 9999 NSC DRSN M04/M08 Q1002;","Q01    003SCCGA1"
"10616499999","2010-12-16T13:50:00","4","51.854992","11.418889","180.0","COCHSTEDT, GM","FM-15","EDBC ","V020","200,1,N,0098,1","99999,9,C,N","011265,1,N,1","-0040,1","-0070,1","99999,9","02,5,+01200,1,99,9","04,5,+01500,1,99,9",,"04,99,1,99,9,99,9,99999,9,99,9,99,9",,"10020,1,99999,9",,,,,"MET060METAR EDBC 161350Z 20019KT 9999 FEW040 SCT050 M04/M07 Q1002;","P01 015003SCOCIG"
"10616499999","2010-12-16T14:20:00","4","51.854992","11.418889","180.0","COCHSTEDT, GM","FM-15","EDBC ","V020","210,1,N,0118,1","01230,1,C,N","011265,1,N,1","-0040,1","-0070,1","99999,9","02,5,+01020,1,99,9","07,5,+01230,1,99,9",,"07,99,1,99,9,99,9,99999,9,99,9,99,9",,"10010,1,99999,9","36,1",,,,"MET065METAR EDBC 161420Z 21023KT 9999 DRSN FEW034 BKN041 M04/M07 Q1001;",
"10616499999","2010-12-16T14:50:00","4","51.854992","11.418889","180.0","COCHSTEDT, GM","FM-15","EDBC ","V020","190,1,N,0098,1","00840,1,C,N","011265,1,N,1","-0040,1","-0080,1","99999,9","02,5,+00600,1,99,9","04,5,+00840,1,99,9","07,5,+01080,1,99,9","07,99,1,99,9,99,9,99999,9,99,9,99,9",,"10010,1,99999,9","36,1",,,,"MET072METAR EDBC 161450Z 19019KT 9999 DRSN FEW020 SCT028 BKN036 M04/M08 Q1001;",
"10616499999","2010-12-17T07:20:00","4","51.854992","11.418889","180.0","COCHSTEDT, GM","FM-15","EDBC ","V020","320,1,N,0041,1","00060,1,C,N","002000,1,N,1","-0030,1","-0040,1","99999,9","07,5,+00060,1,99,9",,,"07,99,1,99,9,99,9,99999,9,99,9,99,9",,"09909,1,99999,9","73,1",,,,"MET056METAR EDBC 170720Z 32008KT 2000 SN BKN002 M03/M04 Q0991;",
"10616499999","2010-12-17T07:50:00","4","51.854992","11.418889","180.0","COCHSTEDT, GM","FM-15","EDBC ","V020","320,1,N,0041,1","00060,1,C,N","002000,1,N,1","-0040,1","-0040,1","99999,9","07,5,+00060,1,99,9",,,"07,99,1,99,9,99,9,99999,9,99,9,99,9",,"09919,1,99999,9","73,1",,,,"MET056METAR EDBC 170750Z 32008KT 2000 SN BKN002 M04/M04 Q0992;",
"10616499999","2010-12-17T08:20:00","4","51.854992","11.418889","180.0","COCHSTEDT, GM","FM-15","EDBC ","V020","330,1,N,0046,1","00060,1,C,N","002000,1,N,1","-0030,1","-0040,1","99999,9","07,5,+00060,1,99,9",,,"07,99,1,99,9,99,9,99999,9,99,9,99,9",,"09919,1,99999,9","71,1",,,,"MET057METAR EDBC 170820Z 33009KT 2000 -SN BKN002 M03/M04 Q0992;",
"10616499999","2010-12-17T08:50:00","4","51.854992","11.418889","180.0","COCHSTEDT, GM","FM-15","EDBC ","V020","330,1,N,0057,1","00060,1,C,N","002000,1,N,1","-0040,1","-0040,1","99999,9","07,5,+00060,1,99,9",,,"07,99,1,99,9,99,9,99999,9,99,9,99,9",,"09919,1,99999,9",,,,,"MET053METAR EDBC 170850Z 33011KT 2000 BKN002 M04/M04 Q0992;",
"10616499999","2010-12-17T09:20:00","4","51.854992","11.418889","180.0","COCHSTEDT, GM","FM-15","EDBC ","V020","330,1,N,0057,1","00090,1,C,N","002000,1,N,1","-0040,1","-0040,1","99999,9","08,5,+00090,1,99,9",,,"08,99,1,99,9,99,9,99999,9,99,9,99,9",,"09919,1,99999,9",,,,,"MET053METAR EDBC 170920Z 33011KT 2000 OVC003 M04/M04 Q0992;",
"10616499999","2010-12-17T09:50:00","4","51.854992","11.418889","180.0","COCHSTEDT, GM","FM-15","EDBC ","V020","320,1,N,0051,1","00090,1,C,N","002000,1,N,1","-0040,1","-0050,1","99999,9","08,5,+00090,1,99,9",,,"08,99,1,99,9,99,9,99999,9,99,9,99,9",,"09919,1,99999,9",,,,,"MET053METAR EDBC 170950Z 32010KT 2000 OVC003 M04/M05 Q0992;",
"10616499999","2010-12-17T10:20:00","4","51.854992","11.418889","180.0","COCHSTEDT, GM","FM-15","EDBC ","V020","310,1,N,0046,1","00120,1,C,N","005000,1,N,1","-0040,1","-0050,1","99999,9","07,5,+00120,1,99,9",,,"07,99,1,99,9,99,9,99999,9,99,9,99,9",,"09919,1,99999,9",,,,,"MET053METAR EDBC 171020Z 31009KT 5000 BKN004 M04/M05 Q0992;",
"10616499999","2010-12-17T10:50:00","4","51.854992","11.418889","180.0","COCHSTEDT, GM","FM-15","EDBC ","V020","310,1,N,0057,1","00150,1,C,N","005000,1,N,1","-0040,1","-0050,1","99999,9","07,5,+00150,1,99,9",,,"07,99,1,99,9,99,9,99999,9,99,9,99,9",,"09919,1,99999,9",,,,,"MET053METAR EDBC 171050Z 31011KT 5000 BKN005 M04/M05 Q0992;",
"10616499999","2010-12-17T11:20:00","4","51.854992","11.418889","180.0","COCHSTEDT, GM","FM-15","EDBC ","V020","310,1,N,0057,1","00240,1,C,N","005000,1,N,1","-0040,1","-0050,1","99999,9","07,5,+00240,1,99,9",,,"07,99,1,99,9,99,9,99999,9,99,9,99,9",,"09929,1,99999,9",,,,,"MET053METAR EDBC 171120Z 31011KT 5000 BKN008 M04/M05 Q0993;",
"10616499999","2010-12-17T11:50:00","4","51.854992","11.418889","180.0","COCHSTEDT, GM","FM-15","EDBC ","V020","310,1,N,0051,1","00120,1,C,N","005000,1,N,1","-0040,1","-0050,1","99999,9","07,5,+00120,1,99,9",,,"07,99,1,99,9,99,9,99999,9,99,9,99,9",,"09929,1,99999,9",,,,,"MET053METAR EDBC 171150Z 31010KT 5000 BKN004 M04/M05 Q0993;",
"10616499999","2010-12-17T12:20:00","4","51.854992","11.418889","180.0","COCHSTEDT, GM","FM-15","EDBC ","V020","310,1,N,0062,1","00240,1,C,N","007000,1,N,1","-0040,1","-0060,1","99999,9","07,5,+00240,1,99,9",,,"07,99,1,99,9,99,9,99999,9,99,9,99,9",,"09929,1,99999,9",,,,,"MET053METAR EDBC 171220Z 31012KT 7000 BKN008 M04/M06 Q0993;",
"10616499999","2010-12-17T12:50:00","4","51.854992","11.418889","180.0","COCHSTEDT, GM","FM-15","EDBC ","V020","310,1,N,0062,1","00240,1,C,N","011265,1,N,1","-0040,1","-0060,1","99999,9","07,5,+00240,1,99,9",,,"07,99,1,99,9,99,9,99999,9,99,9,99,9",,"09929,1,99999,9",,,,,"MET053METAR EDBC 171250Z 31012KT 9999 BKN008 M04/M06 Q0993;",
"10616499999","2010-12-20T07:50:00","4","51.854992","11.418889","180.0","COCHSTEDT, GM","FM-15","EDBC ","V020","260,1,N,0057,1","00630,1,C,N","008000,1,N,1","-0050,1","-0070,1","99999,9","04,5,+00510,1,99,9","07,5,+00630,1,99,9",,"07,99,1,99,9,99,9,99999,9,99,9,99,9",,"10000,1,99999,9","36,1",,,,"MET065METAR EDBC 200750Z 26011KT 8000 DRSN SCT017 BKN021 M05/M07 Q1000;",
"10616499999","2010-12-20T08:20:00","4","51.854992","11.418889","180.0","COCHSTEDT, GM","FM-15","EDBC ","V020","270,1,N,0036,1","00480,1,C,N","009000,1,N,1","-0050,1","-0070,1","99999,9","02,5,+00240,1,99,9","07,5,+00480,1,99,9",,"07,99,1,99,9,99,9,99999,9,99,9,99,9",,"10010,1,99999,9","36,1",,,,"MET065METAR EDBC 200820Z 27007KT 9000 DRSN FEW008 BKN016 M05/M07 Q1001;",
"10616499999","2010-12-20T08:50:00","4","51.854992","11.418889","180.0","COCHSTEDT, GM","FM-15","EDBC ","V020","250,1,N,0026,1","00480,1,C,N","009000,1,N,1","-0060,1","-0070,1","99999,9","02,5,+00360,1,99,9","04,5,+00480,1,99,9","07,5,+01080,1,99,9","07,99,1,99,9,99,9,99999,9,99,9,99,9",,"10010,1,99999,9","36,1",,,,"MET072METAR EDBC 200850Z 25005KT 9000 DRSN FEW012 SCT016 BKN036 M06/M07 Q1001;",
"10616499999","2010-12-20T09:20:00","4","51.854992","11.418889","180.0","COCHSTEDT, GM","FM-15","EDBC ","V020","999,9,V,0015,1","01080,1,C,N","011265,1,N,1","-0050,1","-0070,1","99999,9","07,5,+01080,1,99,9",,,"07,99,1,99,9,99,9,99999,9,99,9,99,9",,"10020,1,99999,9",,,,,"MET053METAR EDBC 200920Z VRB03KT 9999 BKN036 M05/M07 Q1002;",
"10616499999","2010-12-20T09:50:00","4","51.854992","11.418889","180.0","COCHSTEDT, GM","FM-15","EDBC ","V020","999,9,V,0015,1","01080,1,C,N","011265,1,N,1","-0050,1","-0070,1","99999,9","07,5,+01080,1,99,9",,,"07,99,1,99,9,99,9,99999,9,99,9,99,9",,"10020,1,99999,9",,,,,"MET053METAR EDBC 200950Z VRB03KT 9999 BKN036 M05/M07 Q1002;",
"10616499999","2010-12-20T10:20:00","4","51.854992","11.418889","180.0","COCHSTEDT, GM","FM-15","EDBC ","V020","290,1,N,0041,1","01050,1,C,N","011265,1,N,1","-0040,1","-0080,1","99999,9","02,5,+00450,1,99,9","07,5,+01050,1,99,9",,"07,99,1,99,9,99,9,99999,9,99,9,99,9",,"10020,1,99999,9",,,,,"MET060METAR EDBC 201020Z 29008KT 9999 FEW015 BKN035 M04/M08 Q1002;",
"10616499999","2010-12-20T10:50:00","4","51.854992","11.418889","180.0","COCHSTEDT, GM","FM-15","EDBC ","V020","240,1,N,0026,1","00990,1,C,N","011265,1,N,1","-0050,1","-0080,1","99999,9","07,5,+00990,1,99,9",,,"07,99,1,99,9,99,9,99999,9,99,9,99,9",,"10020,1,99999,9",,,,,"MET061METAR EDBC 201050Z 24005KT 220V290 9999 BKN033 M05/M08 Q1002;",
"10616499999","2010-12-20T11:20:00","4","51.854992","11.418889","180.0","COCHSTEDT, GM","FM-15","EDBC ","V020","260,1,N,0051,1","00960,1,C,N","011265,1,N,1","-0040,1","-0080,1","99999,9","07,5,+00960,1,99,9",,,"07,99,1,99,9,99,9,99999,9,99,9,99,9",,"10020,1,99999,9",,,,,"MET053METAR EDBC 201120Z 26010KT 9999 BKN032 M04/M08 Q1002;",
"10616499999","2010-12-20T11:50:00","4","51.854992","11.418889","180.0","COCHSTEDT, GM","FM-15","EDBC ","V020","270,1,N,0062,1","22000,1,9,N","008000,1,N,1","-0040,1","-0080,1","99999,9",,,,"00,99,1,99,9,99,9,99999,9,99,9,99,9",,"10020,1,99999,9",,,,,"MET050METAR EDBC 201150Z 27012KT 8000 NSC M04/M08 Q1002;","Q01    003SCCGA1"
"10616499999","2010-12-20T12:20:00","4","51.854992","11.418889","180.0","COCHSTEDT, GM","FM-15","EDBC ","V020","280,1,N,0051,1","22000,1,9,N","011265,1,N,1","-0040,1","-0090,1","99999,9",,,,"00,99,1,99,9,99,9,99999,9,99,9,99,9",,"10031,1,99999,9",,,,,"MET050METAR EDBC 201220Z 28010KT 9999 NSC M04/M09 Q1003;","Q01    003SCCGA1"
"10616499999","2010-12-20T12:50:00","4","51.854992","11.418889","180.0","COCHSTEDT, GM","FM-15","EDBC ","V020","300,1,N,0046,1","22000,1,9,N","011265,1,N,1","-0040,1","-0080,1","99999,9",,,,"00,99,1,99,9,99,9,99999,9,99,9,99,9",,"10031,1,99999,9",,,,,"MET050METAR EDBC 201250Z 30009KT 9999 NSC M04/M08 Q1003;","Q01    003SCCGA1"
"10616499999","2010-12-20T13:20:00","4","51.854992","11.418889","180.0","COCHSTEDT, GM","FM-15","EDBC ","V020","310,1,N,0026,1","22000,1,9,N","011265,1,N,1","-0050,1","-0080,1","99999,9",,,,"00,99,1,99,9,99,9,99999,9,99,9,99,9",,"10041,1,99999,9",,,,,"MET049METAR EDBC 201320Z 31005KT 9999 NSCM05/M08 Q1004;","Q01    003SCCGA1"
"10616499999","2010-12-20T13:50:00","4","51.854992","11.418889","180.0","COCHSTEDT, GM","FM-15","EDBC ","V020","310,1,N,0036,1","22000,1,9,N","011265,1,N,1","-0050,1","-0080,1","99999,9","02,5,+00600,1,99,9",,,"02,99,1,99,9,99,9,99999,9,99,9,99,9",,"10041,1,99999,9",,,,,"MET053METAR EDBC 201350Z 31007KT 9999 FEW020 M05/M08 Q1004;",
"10616499999","2010-12-20T14:20:00","4","51.854992","11.418889","180.0","COCHSTEDT, GM","FM-15","EDBC ","V020","320,1,N,0031,1","22000,1,9,N","008000,1,N,1","-0050,1","-0070,1","99999,9",,,,"00,99,1,99,9,99,9,99999,9,99,9,99,9",,"10051,1,99999,9",,,,,"MET049METAR EDBC 201420Z 32006KT8000 NSC M05/M07 Q1005;","Q01    003SCCGA1"
"10616499999","2010-12-20T14:50:00","4","51.854992","11.418889","180.0","COCHSTEDT, GM","FM-15","EDBC ","V020","310,1,N,0015,1","22000,1,9,N","008000,1,N,1","-0060,1","-0070,1","99999,9",,,,"00,99,1,99,9,99,9,99999,9,99,9,99,9",,"10051,1,99999,9",,,,,"MET050METAR EDBC 201450Z 31003KT 8000 NSC M06/M07 Q1005;","Q01    003SCCGA1"
"10616499999","2010-12-21T07:20:00","4","51.854992","11.418889","180.0","COCHSTEDT, GM","FM-15","EDBC ","V020","160,1,N,0031,1","01440,1,C,N","008000,1,N,1","-0060,1","-0080,1","99999,9","07,5,+01440,1,99,9",,,"07,99,1,99,9,99,9,99999,9,99,9,99,9",,"10051,1,99999,9",,,,,"MET053METAR EDBC 210720Z 16006KT 8000 BKN048 M06/M08 Q1005;",
"10616499999","2010-12-21T07:50:00","4","51.854992","11.418889","180.0","COCHSTEDT, GM","FM-15","EDBC ","V020","140,1,N,0031,1","22000,1,9,N","009000,1,N,1","-0060,1","-0080,1","99999,9","04,5,+01320,1,99,9",,,"04,99,1,99,9,99,9,99999,9,99,9,99,9",,"10051,1,99999,9",,,,,"MET053METAR EDBC 210750Z 14006KT 9000 SCT044 M06/M08 Q1005;",
"10616499999","2010-12-21T08:20:00","4","51.854992","11.418889","180.0","COCHSTEDT, GM","FM-15","EDBC ","V020","150,1,N,0026,1","22000,1,9,N","009000,1,N,1","-0060,1","-0070,1","99999,9","02,5,+01260,1,99,9",,,"02,99,1,99,9,99,9,99999,9,99,9,99,9",,"10051,1,99999,9",,,,,"MET053METAR EDBC 210820Z 15005KT 9000 FEW042 M06/M07 Q1005;",
"10616499999","2010-12-21T08:50:00","4","51.854992","11.418889","180.0","COCHSTEDT, GM","FM-15","EDBC ","V020","130,1,N,0031,1","22000,1,9,N","008000,1,N,1","-0060,1","-0070,1","99999,9",,,,"00,99,1,99,9,99,9,99999,9,99,9,99,9",,"10051,1,99999,9",,,,,"MET050METAR EDBC 210850Z 13006KT 8000 NSC M06/M07 Q1005;","Q01    003SCCGA1"
"10616499999","2010-12-21T09:20:00","4","51.854992","11.418889","180.0","COCHSTEDT, GM","FM-15","EDBC ","V020","150,1,N,0031,1","22000,1,9,N","007000,1,N,1","-0060,1","-0070,1","99999,9","02,5,+00600,1,99,9",,,"02,99,1,99,9,99,9,99999,9,99,9,99,9",,"10061,1,99999,9",,,,,"MET053METAR EDBC 210920Z 15006KT 7000 FEW020 M06/M07 Q1006;",
"10616499999","2010-12-21T09:50:00","4","51.854992","11.418889","180.0","COCHSTEDT, GM","FM-15","EDBC ","V020","150,1,N,0036,1","22000,1,9,N","008000,1,N,1","-0060,1","-0070,1","99999,9","02,5,+00480,1,99,9",,,"02,99,1,99,9,99,9,99999,9,99,9,99,9",,"10061,1,99999,9",,,,,"MET053METAR EDBC 210950Z 15007KT 8000 FEW016 M06/M07 Q1006;",
"10616499999","2010-12-21T10:20:00","4","51.854992","11.418889","180.0","COCHSTEDT, GM","FM-15","EDBC ","V020","150,1,N,0021,1","22000,1,9,N","006000,1,N,1","-0050,1","-0060,1","99999,9","02,5,+00480,1,99,9",,,"02,99,1,99,9,99,9,99999,9,99,9,99,9",,"10051,1,99999,9",,,,,"MET053METAR EDBC 211020Z 15004KT 6000 FEW016 M05/M06 Q1005;",
"10616499999","2010-12-21T10:50:00","4","51.854992","11.418889","180.0","COCHSTEDT, GM","FM-15","EDBC ","V020","120,1,N,0015,1","22000,1,9,N","002000,1,N,1","-0050,1","-0060,1","99999,9","02,5,+00600,1,99,9",,,"02,99,1,99,9,99,9,99999,9,99,9,99,9",,"10051,1,99999,9","71,1",,,,"MET067METAR EDBC 211050Z 12003KT 2000 R26/1400N -SN FEW020 M05/M06 Q1005;",
"10616499999","2010-12-21T11:20:00","4","51.854992","11.418889","180.0","COCHSTEDT, GM","FM-15","EDBC ","V020","130,1,N,0015,1","22000,1,9,N","002000,1,N,1","-0050,1","-0060,1","99999,9",,,,"00,99,1,99,9,99,9,99999,9,99,9,99,9",,"10051,1,99999,9","71,1",,,,"MET054METAR EDBC 211120Z 13003KT 2000 -SN NSC M05/M06 Q1005;","Q01    003SCCGA1"
"10616499999","2010-12-21T11:50:00","4","51.854992","11.418889","180.0","COCHSTEDT, GM","FM-15","EDBC ","V020","130,1,N,0015,1","22000,1,9,N","002000,1,N,1","-0040,1","-0050,1","99999,9","02,5,+01110,1,99,9",,,"02,99,1,99,9,99,9,99999,9,99,9,99,9",,"10051,1,99999,9","71,1",,,,"MET057METAR EDBC 211150Z 13003KT 2000 -SN FEW037 M04/M05 Q1005;",
"10616499999","2010-12-21T12:20:00","4","51.854992","11.418889","180.0","COCHSTEDT, GM","FM-15","EDBC ","V020","999,9,V,0015,1","99999,9,C,N","003000,1,N,1","-0040,1","-0050,1","99999,9","02,5,+00180,1,99,9","04,5,+00900,1,99,9",,"04,99,1,99,9,99,9,99999,9,99,9,99,9",,"10051,1,99999,9","71,1",,,,"MET064METAR EDBC 211220Z VRB03KT 3000 -SN FEW006 SCT030 M04/M05 Q1005;","P01 009003SCOCIG"
"10616499999","2010-12-21T12:50:00","4","51.854992","11.418889","180.0","COCHSTEDT, GM","FM-15","EDBC ","V020","999,9,V,0015,1","00600,1,C,N","002000,1,N,1","-0040,1","-0050,1","99999,9","02,5,+00270,1,99,9","04,5,+00600,1,99,9","07,5,+01770,5,99,9","07,99,1,99,9,99,9,99999,9,99,9,99,9",,"10051,1,99999,9","71,1",,,,"MET071METAR EDBC 211250Z VRB03KT 2000 -SN FEW009 SCT020 BKN059 M04/M05 Q1005;",
"10616499999","2010-12-21T13:20:00","4","51.854992","11.418889","180.0","COCHSTEDT, GM","FM-15","EDBC ","V020","999,9,V,0005,1","01230,1,C,N","003000,1,N,1","-0040,1","-0050,1","99999,9","02,5,+00090,1,99,9","04,5,+01230,1,99,9","07,5,+01710,5,99,9","07,99,1,99,9,99,9,99999,9,99,9,99,9",,"10061,1,99999,9","71,1",,,,"MET071METAR EDBC 211320Z VRB01KT 3000 -SN FEW003 SCT041 BKN057 M04/M05 Q1006;",
"10616499999","2010-12-21T13:50:00","4","51.854992","11.418889","180.0","COCHSTEDT, GM","FM-15","EDBC ","V020","999,9,V,0010,1","01560,5,C,N","003000,1,N,1","-0040,1","-0050,1","99999,9","02,5,+01200,1,99,9","07,5,+01560,5,99,9",,"07,99,1,99,9,99,9,99999,9,99,9,99,9",,"10061,1,99999,9","71,1",,,,"MET064METAR EDBC 211350Z VRB02KT 3000 -SN FEW040 BKN052 M04/M05 Q1006;",
"10616499999","2010-12-21T14:20:00","4","51.854992","11.418889","180.0","COCHSTEDT, GM","FM-15","EDBC ","V020","010,1,N,0021,1","00390,1,C,N","003000,1,N,1","-0050,1","-0050,1","99999,9","02,5,+00300,1,99,9","07,5,+00390,1,99,9","07,5,+01560,5,99,9","07,99,1,99,9,99,9,99999,9,99,9,99,9",,"10061,1,99999,9","71,1",,,,"MET071METAR EDBC 211420Z 01004KT 3000 -SN FEW010 BKN013 BKN052 M05/M05 Q1006;",
"10616499999","2010-12-22T07:20:00","4","51.854992","11.418889","180.0","COCHSTEDT, GM","FM-15","EDBC ","V020","020,1,N,0031,1","00120,1,C,N","000600,1,N,1","-0040,1","-0050,1","99999,9","08,5,+00120,1,99,9",,,"08,99,1,99,9,99,9,99999,9,99,9,99,9",,"10061,1,99999,9","44,1","77,1",,,"MET060METAR EDBC 220720Z 02006KT 0600 -SG FG OVC004 M04/M05 Q1006;",
"10616499999","2010-12-22T07:50:00","4","51.854992","11.418889","180.0","COCHSTEDT, GM","FM-15","EDBC ","V020","020,1,N,0031,1","99999,9,9,N","000500,1,N,1","-0040,1","-0050,1","99999,9",,,,,,"10061,1,99999,9","48,1",,,,"MET061METAR EDBC 220750Z 02006KT 0500 R26/1400N FZFG M04/M05 Q1006;",
"10616499999","2010-12-22T08:20:00","4","51.854992","11.418889","180.0","COCHSTEDT, GM","FM-15","EDBC ","V020","030,1,N,0031,1","00015,1,C,N","000500,1,N,1","-0040,1","-0050,1","99999,9","09,1,+00015,1,99,9",,,"09,99,1,99,9,99,9,00025,1,99,9,99,9",,"10060,1,99999,9",,,,,"MET067METAR EDBC 220820Z 03006KT 0500 VV/// R26/1100N FZFG M04/M05 Q1006;",
"10616499999","2010-12-22T08:50:00","4","51.854992","11.418889","180.0","COCHSTEDT, GM","FM-15","EDBC ","V020","020,1,N,0021,1","00015,1,C,N","000500,1,N,1","-0050,1","-0050,1","99999,9","09,1,+00015,1,99,9",,,"09,99,1,99,9,99,9,00025,1,99,9,99,9",,"10060,1,99999,9",,,,,"MET067METAR EDBC 220850Z 02004KT 0500 VV/// R26/0800N FZFG M05/M05 Q1006;",
"10616499999","2010-12-22T09:20:00","4","51.854992","11.418889","180.0","COCHSTEDT, GM","FM-15","EDBC ","V020","360,1,N,0026,1","00015,1,C,N","000400,1,N,1","-0050,1","-0050,1","99999,9","09,1,+00015,1,99,9",,,"09,99,1,99,9,99,9,00025,1,99,9,99,9",,"10061,1,99999,9","49,1",,,,"MET067METAR EDBC 220920Z 36005KT 0400 R26/0750N FZFG VV/// M05/M05 Q1006;",
"10616499999","2010-12-22T09:50:00","4","51.854992","11.418889","180.0","COCHSTEDT, GM","FM-15","EDBC ","V020","010,1,N,0031,1","00015,1,C,N","000400,1,N,1","-0050,1","-0050,1","99999,9","09,1,+00015,1,99,9",,,"09,99,1,99,9,99,9,00025,1,99,9,99,9",,"10061,1,99999,9","49,1",,,,"MET067METAR EDBC 220950Z 01006KT 0400 R26/0750N FZFG VV/// M05/M05 Q1006;",
"10616499999","2010-12-22T10:20:00","4","51.854992","11.418889","180.0","COCHSTEDT, GM","FM-15","EDBC ","V020","020,1,N,0026,1","00015,1,C,N","000400,1,N,1","-0050,1","-0050,1","99999,9","09,1,+00015,1,99,9",,,"09,99,1,99,9,99,9,00025,1,99,9,99,9",,"10051,1,99999,9","49,1",,,,"MET067METAR EDBC 221020Z 02005KT 0400 R26/0750N FZFG VV/// M05/M05 Q1005;",
"10616499999","2010-12-22T10:50:00","4","51.854992","11.418889","180.0","COCHSTEDT, GM","FM-15","EDBC ","V020","360,1,N,0031,1","00015,1,C,N","000400,1,N,1","-0040,1","-0050,1","99999,9","09,1,+00015,1,99,9",,,"09,99,1,99,9,99,9,00025,1,99,9,99,9",,"10061,1,99999,9","49,1",,,,"MET067METAR EDBC 221050Z 36006KT 0400 R26/0800N FZFG VV/// M04/M05 Q1006;",
"10616499999","2010-12-22T11:20:00","4","51.854992","11.418889","180.0","COCHSTEDT, GM","FM-15","EDBC ","V020","010,1,N,0026,1","00015,1,C,N","000500,1,N,1","-0040,1","-0050,1","99999,9","09,1,+00015,1,99,9",,,"09,99,1,99,9,99,9,00025,1,99,9,99,9",,"10051,1,99999,9","49,1",,,,"MET067METAR EDBC 221120Z 01005KT 0500 R26/0800N FZFG VV/// M04/M05 Q1005;",
"10616499999","2010-12-22T11:50:00","4","51.854992","11.418889","180.0","COCHSTEDT, GM","FM-15","EDBC ","V020","040,1,N,0015,1","00015,1,C,N","000500,1,N,1","-0040,1","-0050,1","99999,9","09,1,+00015,1,99,9",,,"09,99,1,99,9,99,9,00025,1,99,9,99,9",,"10051,1,99999,9","49,1",,,,"MET067METAR EDBC 221150Z 04003KT 0500 R26/0750N FZFG VV/// M04/M05 Q1005;",
"10616499999","2010-12-22T12:20:00","4","51.854992","11.418889","180.0","COCHSTEDT, GM","FM-15","EDBC ","V020","999,9,V,0015,1","00015,1,C,N","000500,1,N,1","-0040,1","-0040,1","99999,9","09,1,+00015,1,99,9",,,"09,99,1,99,9,99,9,00025,1,99,9,99,9",,"10041,1,99999,9","49,1","56,1",,,"MET073METAR EDBC 221220Z VRB03KT 0500 R26/0700N -FZDZ FZFG VV/// M04/M04 Q1004;",
"10616499999","2010-12-22T12:50:00","4","51.854992","11.418889","180.0","COCHSTEDT, GM","FM-15","EDBC ","V020","030,1,N,0015,1","00015,1,C,N","000300,1,N,1","-0040,1","-0040,1","99999,9","09,1,+00015,1,99,9",,,"09,99,1,99,9,99,9,00025,1,99,9,99,9",,"10041,1,99999,9","49,1",,,,"MET067METAR EDBC 221250Z 03003KT 0300 R26/0600N FZFG VV/// M04/M04 Q1004;",
"10616499999","2010-12-22T13:20:00","4","51.854992","11.418889","180.0","COCHSTEDT, GM","FM-15","EDBC ","V020","010,1,N,0021,1","00015,1,C,N","000300,1,N,1","-0030,1","-0040,1","99999,9","09,1,+00015,1,99,9",,,"09,99,1,99,9,99,9,00025,1,99,9,99,9",,"10041,1,99999,9","49,1",,,,"MET067METAR EDBC 221320Z 01004KT 0300 R26/0500N FZFG VV/// M03/M04 Q1004;",
"10616499999","2010-12-22T13:50:00","4","51.854992","11.418889","180.0","COCHSTEDT, GM","FM-15","EDBC ","V020","360,1,N,0015,1","00030,1,C,N","000400,1,N,1","-0030,1","-0040,1","99999,9","08,5,+00030,1,99,9",,,"08,99,1,99,9,99,9,99999,9,99,9,99,9",,"10041,1,99999,9","48,1",,,,"MET068METAR EDBC 221350Z 36003KT 0400 R26/0700N FZFG OVC001 M03/M04 Q1004;",
"10616499999","2010-12-22T14:20:00","4","51.854992","11.418889","180.0","COCHSTEDT, GM","FM-15","EDBC ","V020","020,1,N,0021,1","00030,1,C,N","000100,1,N,1","-0030,1","-0030,1","99999,9","08,5,+00030,1,99,9",,,"08,99,1,99,9,99,9,99999,9,99,9,99,9",,"10041,1,99999,9","48,1",,,,"MET068METAR EDBC 221420Z 02004KT 0100 R26/0225N FZFG OVC001 M03/M03 Q1004;",
"10616499999","2010-12-22T14:50:00","4","51.854992","11.418889","180.0","COCHSTEDT, GM","FM-15","EDBC ","V020","030,1,N,0021,1","00150,1,C,N","000050,1,N,1","-0030,1","-0030,1","99999,9","08,5,+00150,1,99,9",,,"08,99,1,99,9,99,9,99999,9,99,9,99,9",,"10041,1,99999,9","48,1",,,,"MET068METAR EDBC 221450Z 03004KT 0050 R26/0225N FZFG OVC005 M03/M03 Q1004;",
