"STATION","DATE","SOURCE","LATITUDE","LONGITUDE","ELEVATION","NAME","REPORT_TYPE","CALL_SIGN","QUALITY_CONTROL","WND","CIG","VIS","TMP","DEW","SLP","GA1","GA2","GA3","GF1","MA1","MW1","MW2","MW3","OC1","REM","EQD"
"10869099999","2010-01-12T06:40:00","4","48.322333","11.948667","461.77","ERDING, GM","FM-16","ETSE ","V020","140,1,N,0015,1","00300,1,C,N","005000,1,N,1","-0050,1","-0050,1","99999,9","07,5,+00300,1,99,9","07,5,+01260,1,99,9",,"07,99,1,99,9,99,9,99999,9,99,9,99,9","10159,1,99999,9","10,1","71,1",,,"MET076SPECI ETSE 120640Z 14003KT 5000 -SN BR BKN010 BKN042 M05/M05 Q1016 BLACKGRN;",
"10869099999","2010-01-12T07:20:00","4","48.322333","11.948667","461.77","ERDING, GM","FM-15","ETSE ","V020","130,1,N,0015,1","00300,1,C,N","004000,1,N,1","-0050,1","-0050,1","99999,9","07,5,+00300,1,99,9","07,5,+01350,1,99,9",,"07,99,1,99,9,99,9,99999,9,99,9,99,9","10159,1,99999,9","10,1","71,1",,,"MET076METAR ETSE 120720Z 13003KT 4000 -SN BR BKN010 BKN045 M05/M05 Q1016 BLACKGRN;",
"10869099999","2010-01-12T08:20:00","4","48.322333","11.948667","461.77","ERDING, GM","FM-15","ETSE ","V020","120,1,N,0015,1","01230,1,C,N","003800,1,N,1","-0040,1","-0050,1","99999,9","04,5,+00300,1,99,9","07,5,+01230,1,99,9",,"07,99,1,99,9,99,9,99999,9,99,9,99,9","10159,1,99999,9","10,1","71,1",,,"MET076METAR ETSE 120820Z 12003KT 3800 -SN BR SCT010 BKN041 M04/M05 Q1016 BLACKGRN;",
"10869099999","2010-01-12T09:20:00","4","48.322333","11.948667","461.77","ERDING, GM","FM-15","ETSE ","V020","110,1,N,0021,1","01500,1,C,N","004000,1,N,1","-0040,1","-0050,1","99999,9","04,5,+00300,1,99,9","07,5,+01500,1,99,9",,"07,99,1,99,9,99,9,99999,9,99,9,99,9","10159,1,99999,9","10,1","71,1",,,"MET076METAR ETSE 120920Z 11004KT 4000 -SN BR SCT010 BKN050 M04/M05 Q1016 BLACKGRN;",
"10869099999","2010-01-12T09:48:00","4","48.322333","11.948667","461.77","ERDING, GM","FM-16","ETSE ","V020","110,1,N,0021,1","01500,1,C,N","005000,1,N,1","-0040,1","-0050,1","99999,9","02,5,+00330,1,99,9","04,5,+01500,1,99,9","07,5,+02100,1,99,9","07,99,1,99,9,99,9,99999,9,99,9,99,9","10149,1,99999,9","10,1","71,1",,,"MET083SPECI ETSE 120948Z 11004KT 5000 -SN BR FEW011 SCT050 BKN070 M04/M05 Q1015 BLACKWHT;",
"10869099999","2010-01-12T10:20:00","4","48.322333","11.948667","461.77","ERDING, GM","FM-15","ETSE ","V020","110,1,N,0031,1","01350,1,C,N","005000,1,N,1","-0030,1","-0040,1","99999,9","02,5,+00390,1,99,9","04,5,+01350,1,99,9","07,5,+02100,1,99,9","07,99,1,99,9,99,9,99999,9,99,9,99,9","10149,1,99999,9","10,1","71,1",,,"MET083METAR ETSE 121020Z 11006KT 5000 -SN BR FEW013 SCT045 BKN070 M03/M04 Q1015 BLACKWHT;",
"10869099999","2010-01-12T11:20:00","4","48.322333","11.948667","461.77","ERDING, GM","FM-15","ETSE ","V020","120,1,N,0026,1","99999,9,C,N","006000,1,N,1","-0040,1","-0060,1","99999,9","02,5,+00420,1,99,9","04,5,+01500,1,99,9",,"04,99,1,99,9,99,9,99999,9,99,9,99,9","10139,1,99999,9",,,,,"MET084METAR ETSE 121120Z 12005KT 6000 FEW014 SCT050 M04/M06 Q1014 BLACKWHT WHT TEMPO BLU/;","P01 015003SCOCIG"
"10869099999","2010-01-12T12:20:00","4","48.322333","11.948667","461.77","ERDING, GM","FM-15","ETSE ","V020","120,1,N,0031,1","99999,9,C,N","007000,1,N,1","-0040,1","-0050,1","99999,9","02,5,+00300,1,99,9","04,5,+01500,1,99,9",,"04,99,1,99,9,99,9,99999,9,99,9,99,9","10129,1,99999,9",,,,,"MET084METAR ETSE 121220Z 12006KT 7000 FEW010 SCT050 M04/M05 Q1013 BLACKWHT WHT TEMPO BLU/;","P01 015003SCOCIG"
"10869099999","2010-01-12T13:20:00","4","48.322333","11.948667","461.77","ERDING, GM","FM-15","ETSE ","V020","100,1,N,0031,1","22000,1,9,N","007000,1,N,1","-0040,1","-0050,1","99999,9","02,5,+00300,1,99,9",,,"02,99,1,99,9,99,9,99999,9,99,9,99,9","10119,1,99999,9",,,,,"MET077METAR ETSE 121320Z 10006KT 7000 FEW010 M04/M05 Q1012 BLACKWHT WHT TEMPO BLU/;",
"10869099999","2010-01-12T14:20:00","4","48.322333","11.948667","461.77","ERDING, GM","FM-15","ETSE ","V020","080,1,N,0041,1","22000,1,9,N","007000,1,N,1","-0040,1","-0050,1","99999,9","04,5,+00300,1,99,9",,,"04,99,1,99,9,99,9,99999,9,99,9,99,9","10119,1,99999,9",,,,,"MET077METAR ETSE 121420Z 08008KT 7000 SCT010 M04/M05 Q1012 BLACKWHT WHT TEMPO BLU/;",
"10869099999","2010-01-12T15:20:00","4","48.322333","11.948667","461.77","ERDING, GM","FM-15","ETSE ","V020","070,1,N,0036,1","22000,1,9,N","006000,1,N,1","-0050,1","-0070,1","99999,9","04,5,+00300,1,99,9",,,"04,99,1,99,9,99,9,99999,9,99,9,99,9","10108,1,99999,9",,,,,"MET074METAR ETSE 121520Z 07007KT 6000 SCT010 M05/M07 Q1011 BLACKWHT FCST CANCEL;",
"10869099999","2010-01-13T06:20:00","4","48.322333","11.948667","461.77","ERDING, GM","FM-15","ETSE ","V020","130,1,N,0026,1","00060,1,C,N","003000,1,N,1","-0070,1","-0070,1","99999,9","08,5,+00060,1,99,9",,,"08,99,1,99,9,99,9,99999,9,99,9,99,9","10061,1,99999,9","10,1",,,,"MET065METAR ETSE 130620Z 13005KT 3000 BR OVC002 M07/M07 Q1006 BLACKAMB;",
"10869099999","2010-01-13T07:20:00","4","48.322333","11.948667","461.77","ERDING, GM","FM-15","ETSE ","V020","120,1,N,0021,1","00090,1,C,N","003700,1,N,1","-0060,1","-0060,1","99999,9","08,5,+00090,1,99,9",,,"08,99,1,99,9,99,9,99999,9,99,9,99,9","10061,1,99999,9","10,1",,,,"MET065METAR ETSE 130720Z 12004KT 3700 BR OVC003 M06/M06 Q1006 BLACKYLO;",
"10869099999","2010-01-13T08:20:00","4","48.322333","11.948667","461.77","ERDING, GM","FM-15","ETSE ","V020","140,1,N,0021,1","00090,1,C,N","003200,1,N,1","-0060,1","-0060,1","99999,9","08,5,+00090,1,99,9",,,"08,99,1,99,9,99,9,99999,9,99,9,99,9","10071,1,99999,9","10,1",,,,"MET069METAR ETSE 130820Z 14004KT 3200 BR OVC003 M06/M06 Q1007 BLACKYLO YLO;",
"10869099999","2010-01-13T09:20:00","4","48.322333","11.948667","461.77","ERDING, GM","FM-15","ETSE ","V020","120,1,N,0021,1","00090,1,C,N","003200,1,N,1","-0060,1","-0060,1","99999,9","08,5,+00090,1,99,9",,,"08,99,1,99,9,99,9,99999,9,99,9,99,9","10071,1,99999,9","10,1",,,,"MET069METAR ETSE 130920Z 12004KT 3200 BR OVC003 M06/M06 Q1007 BLACKYLO YLO;",
"10869099999","2010-01-13T10:20:00","4","48.322333","11.948667","461.77","ERDING, GM","FM-15","ETSE ","V020","130,1,N,0026,1","00120,1,C,N","004000,1,N,1","-0060,1","-0060,1","99999,9","08,5,+00120,1,99,9",,,"08,99,1,99,9,99,9,99999,9,99,9,99,9","10071,1,99999,9","10,1","71,1",,,"MET073METAR ETSE 131020Z 13005KT 4000 -SN BR OVC004 M06/M06 Q1007 BLACKYLO YLO;",
"10869099999","2010-01-13T11:20:00","4","48.322333","11.948667","461.77","ERDING, GM","FM-15","ETSE ","V020","100,1,N,0031,1","00120,1,C,N","004500,1,N,1","-0060,1","-0060,1","99999,9","08,5,+00120,1,99,9",,,"08,99,1,99,9,99,9,99999,9,99,9,99,9","10071,1,99999,9","10,1",,,,"MET069METAR ETSE 131120Z 10006KT 4500 BR OVC004 M06/M06 Q1007 BLACKYLO YLO;",
"10869099999","2010-01-13T12:20:00","4","48.322333","11.948667","461.77","ERDING, GM","FM-15","ETSE ","V020","130,1,N,0031,1","00120,1,C,N","004500,1,N,1","-0060,1","-0060,1","99999,9","08,5,+00120,1,99,9",,,"08,99,1,99,9,99,9,99999,9,99,9,99,9","10071,1,99999,9","10,1",,,,"MET069METAR ETSE 131220Z 13006KT 4500 BR OVC004 M06/M06 Q1007 BLACKYLO YLO;",
"10869099999","2010-01-13T13:20:00","4","48.322333","11.948667","461.77","ERDING, GM","FM-15","ETSE ","V020","120,1,N,0031,1","00120,1,C,N","004500,1,N,1","-0060,1","-0060,1","99999,9","08,5,+00120,1,99,9",,,"08,99,1,99,9,99,9,99999,9,99,9,99,9","10081,1,99999,9","10,1",,,,"MET069METAR ETSE 131320Z 12006KT 4500 BR OVC004 M06/M06 Q1008 BLACKYLO YLO;",
"10869099999","2010-01-13T14:20:00","4","48.322333","11.948667","461.77","ERDING, GM","FM-15","ETSE ","V020","120,1,N,0026,1","00120,1,C,N","004500,1,N,1","-0060,1","-0060,1","99999,9","08,5,+00120,1,99,9",,,"08,99,1,99,9,99,9,99999,9,99,9,99,9","10081,1,99999,9","10,1",,,,"MET069METAR ETSE 131420Z 12005KT 4500 BR OVC004 M06/M06 Q1008 BLACKYLO YLO;",
"10869099999","2010-01-13T15:20:00","4","48.322333","11.948667","461.77","ERDING, GM","FM-15","ETSE ","V020","140,1,N,0026,1","00120,1,C,N","004500,1,N,1","-0060,1","-0060,1","99999,9","08,5,+00120,1,99,9",,,"08,99,1,99,9,99,9,99999,9,99,9,99,9","10081,1,99999,9","10,1",,,,"MET077METAR ETSE 131520Z 14005KT 4500 BR OVC004 M06/M06 Q1008 BLACKYLO FCST CANCEL;",
"10869099999","2010-01-14T06:20:00","4","48.322333","11.948667","461.77","ERDING, GM","FM-15","ETSE ","V020","110,1,N,0031,1","00150,1,C,N","004500,1,N,1","-0030,1","-0040,1","99999,9","08,5,+00150,1,99,9",,,"08,99,1,99,9,99,9,99999,9,99,9,99,9","10081,1,99999,9","10,1",,,,"MET079METAR ETSE 140620Z 11006KT 4500 BR OVC005 M03/M04 Q1008 BLACKYLO GRN TEMPO YLO;",
"10869099999","2010-01-14T06:48:00","4","48.322333","11.948667","461.77","ERDING, GM","FM-16","ETSE ","V020","120,1,N,0031,1","00210,1,C,N","004500,1,N,1","-0030,1","-0040,1","99999,9","08,5,+00210,1,99,9",,,"08,99,1,99,9,99,9,99999,9,99,9,99,9","10081,1,99999,9","10,1",,,,"MET079SPECI ETSE 140648Z 12006KT 4500 BR OVC007 M03/M04 Q1008 BLACKGRN GRN TEMPO YLO;",
"10869099999","2010-01-14T07:20:00","4","48.322333","11.948667","461.77","ERDING, GM","FM-15","ETSE ","V020","110,1,N,0031,1","00240,1,C,N","005000,1,N,1","-0030,1","-0040,1","99999,9","08,5,+00240,1,99,9",,,"08,99,1,99,9,99,9,99999,9,99,9,99,9","10081,1,99999,9","10,1",,,,"MET079METAR ETSE 140720Z 11006KT 5000 BR OVC008 M03/M04 Q1008 BLACKGRN GRN TEMPO YLO;",
"10869099999","2010-01-14T08:20:00","4","48.322333","11.948667","461.77","ERDING, GM","FM-15","ETSE ","V020","100,1,N,0021,1","00240,1,C,N","005000,1,N,1","-0030,1","-0040,1","99999,9","04,5,+00180,1,99,9","08,5,+00240,1,99,9",,"08,99,1,99,9,99,9,99999,9,99,9,99,9","10081,1,99999,9","10,1",,,,"MET076METAR ETSE 140820Z 10004KT 5000 BR SCT006 OVC008 M03/M04 Q1008 BLACKGRN GRN;",
"10869099999","2010-01-14T09:20:00","4","48.322333","11.948667","461.77","ERDING, GM","FM-15","ETSE ","V020","110,1,N,0036,1","00360,1,C,N","005000,1,N,1","-0020,1","-0040,1","99999,9","02,5,+00210,1,99,9","08,5,+00360,1,99,9",,"08,99,1,99,9,99,9,99999,9,99,9,99,9","10081,1,99999,9","10,1",,,,"MET076METAR ETSE 140920Z 11007KT 5000 BR FEW007 OVC012 M02/M04 Q1008 BLACKGRN GRN;",
"10869099999","2010-01-14T10:20:00","4","48.322333","11.948667","461.77","ERDING, GM","FM-15","ETSE ","V020","110,1,N,0036,1","00510,1,C,N","007000,1,N,1","-0020,1","-0030,1","99999,9","04,5,+00240,1,99,9","08,5,+00510,1,99,9",,"08,99,1,99,9,99,9,99999,9,99,9,99,9","10081,1,99999,9",,,,,"MET083METAR ETSE 141020Z 11007KT 7000 SCT008 OVC017 M02/M03 Q1008 BLACKWHT WHT TEMPO GRN;",
"10869099999","2010-01-14T11:20:00","4","48.322333","11.948667","461.77","ERDING, GM","FM-15","ETSE ","V020","110,1,N,0036,1","00660,1,C,N","007000,1,N,1","-0020,1","-0040,1","99999,9","04,5,+00270,1,99,9","07,5,+00660,1,99,9",,"07,99,1,99,9,99,9,99999,9,99,9,99,9","10081,1,99999,9",,,,,"MET083METAR ETSE 141120Z 11007KT 7000 SCT009 BKN022 M02/M04 Q1008 BLACKWHT WHT TEMPO GRN;",
"10869099999","2010-01-14T12:07:00","4","48.322333","11.948667","461.77","ERDING, GM","FM-16","ETSE ","V020","090,1,N,0046,1","00360,1,C,N","011265,1,N,1","-0020,1","-0040,1","99999,9","04,5,+00270,1,99,9","04,5,+00360,1,99,9","07,5,+07800,1,99,9","07,99,1,99,9,99,9,99999,9,99,9,99,9","10071,1,99999,9",,,,,"MET075SPECI ETSE 141207Z 09009KT 9999 SCT009 SCT012 BKN260 M02/M04 Q1007 BLU/WHT;",
"10869099999","2010-01-14T12:20:00","4","48.322333","11.948667","461.77","ERDING, GM","FM-15","ETSE ","V020","090,1,N,0046,1","00360,1,C,N","011265,1,N,1","-0020,1","-0040,1","99999,9","04,5,+00270,1,99,9","04,5,+00360,1,99,9","07,5,+07500,1,99,9","07,99,1,99,9,99,9,99999,9,99,9,99,9","10071,1,99999,9",,,,,"MET075METAR ETSE 141220Z 09009KT 9999 SCT009 SCT012 BKN250 M02/M04 Q1007 BLU/WHT;",
"10869099999","2010-01-14T13:20:00","4","48.322333","11.948667","461.77","ERDING, GM","FM-15","ETSE ","V020","100,1,N,0041,1","07500,1,C,N","011265,1,N,1","-0020,1","-0040,1","99999,9","02,5,+00270,1,99,9","07,5,+07500,1,99,9",,"07,99,1,99,9,99,9,99999,9,99,9,99,9","10071,1,99999,9",,,,,"MET079METAR ETSE 141320Z 10008KT 9999 FEW009 BKN250 M02/M04 Q1007 BLU/WHT TEMPO BLU/;",
"10869099999","2010-01-14T14:10:00","4","48.322333","11.948667","461.77","ERDING, GM","FM-16","ETSE ","V020","080,1,N,0041,1","00270,1,C,N","009000,1,N,1","-0020,1","-0040,1","99999,9","07,5,+00270,1,99,9","07,5,+07500,1,99,9",,"07,99,1,99,9,99,9,99999,9,99,9,99,9","10071,1,99999,9",,,,,"MET079SPECI ETSE 141410Z 08008KT 9000 BKN009 BKN250 M02/M04 Q1007 GRN WHT TEMPO BLU/;",
"10869099999","2010-01-14T14:20:00","4","48.322333","11.948667","461.77","ERDING, GM","FM-15","ETSE ","V020","080,1,N,0041,1","00240,1,C,N","008000,1,N,1","-0020,1","-0040,1","99999,9","07,5,+00240,1,99,9",,,"07,99,1,99,9,99,9,99999,9,99,9,99,9","10071,1,99999,9",,,,,"MET061METAR ETSE 141420Z 08008KT 8000 BKN008 M02/M04 Q1007 GRN GRN;",
"10869099999","2010-01-14T15:20:00","4","48.322333","11.948667","461.77","ERDING, GM","FM-15","ETSE ","V020","110,1,N,0041,1","00210,1,C,N","008000,1,N,1","-0030,1","-0040,1","99999,9","07,5,+00210,1,99,9",,,"07,99,1,99,9,99,9,99999,9,99,9,99,9","10071,1,99999,9",,,,,"MET069METAR ETSE 141520Z 11008KT 8000 BKN007 M03/M04 Q1007 GRN FCST CANCEL;",
"10869099999","2010-01-15T06:20:00","4","48.322333","11.948667","461.77","ERDING, GM","FM-15","ETSE ","V020","170,1,N,0015,1","00240,1,C,N","009000,1,N,1","-0030,1","-0040,1","99999,9","07,5,+00240,1,99,9",,,"07,99,1,99,9,99,9,99999,9,99,9,99,9","10169,1,99999,9",,,,,"MET061METAR ETSE 150620Z 17003KT 9000 BKN008 M03/M04 Q1017 GRN GRN;",
"10869099999","2010-01-15T07:20:00","4","48.322333","11.948667","461.77","ERDING, GM","FM-15","ETSE ","V020","170,1,N,0010,1","00270,1,C,N","009000,1,N,1","-0030,1","-0040,1","99999,9","07,5,+00270,1,99,9",,,"07,99,1,99,9,99,9,99999,9,99,9,99,9","10190,1,99999,9",,,,,"MET061METAR ETSE 150720Z 17002KT 9000 BKN009 M03/M04 Q1019 GRN GRN;",
"10869099999","2010-01-15T08:20:00","4","48.322333","11.948667","461.77","ERDING, GM","FM-15","ETSE ","V020","180,1,N,0010,1","00240,1,C,N","009000,1,N,1","-0030,1","-0040,1","99999,9","07,5,+00240,1,99,9",,,"07,99,1,99,9,99,9,99999,9,99,9,99,9","10200,1,99999,9",,,,,"MET061METAR ETSE 150820Z 18002KT 9000 BKN008 M03/M04 Q1020 GRN GRN;",
"10869099999","2010-01-15T10:20:00","4","48.322333","11.948667","461.77","ERDING, GM","FM-15","ETSE ","V020","999,9,V,0010,1","00210,1,C,N","008000,1,N,1","-0020,1","-0040,1","99999,9","07,5,+00210,1,99,9",,,"07,99,1,99,9,99,9,99999,9,99,9,99,9","10210,1,99999,9",,,,,"MET069METAR ETSE 151020Z VRB02KT 8000 BKN007 M02/M04 Q1021 GRN FCST CANCEL;",
"10869099999","2010-01-18T06:20:00","4","48.322333","11.948667","461.77","ERDING, GM","FM-15","ETSE ","V020","250,1,N,0026,1","00810,1,C,N","011265,1,N,1","+0020,1","+0010,1","99999,9","04,5,+00510,1,99,9","07,5,+00810,1,99,9",,"07,99,1,99,9,99,9,99999,9,99,9,99,9","10240,1,99999,9",,,,,"MET076METAR ETSE 180620Z 25005KT 9999 SCT017 BKN027 02/01 Q1024 BLU BLU TEMPO WHT;",
"10869099999","2010-01-18T07:14:00","4","48.322333","11.948667","461.77","ERDING, GM","FM-16","ETSE ","V020","250,1,N,0036,1","00810,1,C,N","011265,1,N,1","+0020,1","+0000,1","99999,9","02,5,+00480,1,99,9","04,5,+00810,1,99,9","07,5,+01080,1,99,9","07,99,1,99,9,99,9,99999,9,99,9,99,9","10240,1,99999,9",,,,,"MET088SPECI ETSE 180714Z 25007KT 9999 FEW016 SCT027 BKN036 02/00 Q1024 BLACKBLU BLU TEMPO WHT;",
"10869099999","2010-01-18T07:20:00","4","48.322333","11.948667","461.77","ERDING, GM","FM-15","ETSE ","V020","240,1,N,0031,1","00810,1,C,N","011265,1,N,1","+0020,1","+0000,1","99999,9","02,5,+00480,1,99,9","04,5,+00810,1,99,9","07,5,+01140,1,99,9","07,99,1,99,9,99,9,99999,9,99,9,99,9","10240,1,99999,9",,,,,"MET088METAR ETSE 180720Z 24006KT 9999 FEW016 SCT027 BKN038 02/00 Q1024 BLACKBLU BLU TEMPO WHT;",
"10869099999","2010-01-18T08:20:00","4","48.322333","11.948667","461.77","ERDING, GM","FM-15","ETSE ","V020","280,1,N,0036,1","01260,1,C,N","011265,1,N,1","+0030,1","+0010,1","99999,9","02,5,+00540,1,99,9","07,5,+01260,1,99,9",,"07,99,1,99,9,99,9,99999,9,99,9,99,9","10251,1,99999,9",,,,,"MET081METAR ETSE 180820Z 28007KT 9999 FEW018 BKN042 03/01 Q1025 BLACKBLU BLU TEMPO WHT;",
"10869099999","2010-01-18T09:20:00","4","48.322333","11.948667","461.77","ERDING, GM","FM-15","ETSE ","V020","260,1,N,0031,1","01050,1,C,N","011265,1,N,1","+0030,1","+0010,1","99999,9","02,5,+00570,1,99,9","07,5,+01050,1,99,9",,"07,99,1,99,9,99,9,99999,9,99,9,99,9","10251,1,99999,9",,,,,"MET081METAR ETSE 180920Z 26006KT 9999 FEW019 BKN035 03/01 Q1025 BLACKBLU BLU TEMPO WHT;",
"10869099999","2010-01-18T10:20:00","4","48.322333","11.948667","461.77","ERDING, GM","FM-15","ETSE ","V020","260,1,N,0026,1","01350,1,C,N","011265,1,N,1","+0030,1","+0000,1","99999,9","02,5,+00660,1,99,9","07,5,+01350,1,99,9",,"07,99,1,99,9,99,9,99999,9,99,9,99,9","10251,1,99999,9",,,,,"MET071METAR ETSE 181020Z 26005KT 9999 FEW022 BKN045 03/00 Q1025 BLACKBLU BLU;",
"10869099999","2010-01-18T11:20:00","4","48.322333","11.948667","461.77","ERDING, GM","FM-15","ETSE ","V020","280,1,N,0041,1","01050,1,C,N","011265,1,N,1","+0030,1","+0010,1","99999,9","02,5,+00600,1,99,9","04,5,+01050,1,99,9","07,5,+01500,1,99,9","07,99,1,99,9,99,9,99999,9,99,9,99,9","10251,1,99999,9",,,,,"MET078METAR ETSE 181120Z 28008KT 9999 FEW020 SCT035 BKN050 03/01 Q1025 BLACKBLU BLU;",
"10869099999","2010-01-18T11:32:00","4","48.322333","11.948667","461.77","ERDING, GM","FM-16","ETSE ","V020","280,1,N,0041,1","01050,1,C,N","011265,1,N,1","+0030,1","+0010,1","99999,9","02,5,+00600,1,99,9","04,5,+01050,1,99,9","07,5,+01500,1,99,9","07,99,1,99,9,99,9,99999,9,99,9,99,9","10251,1,99999,9",,,,,"MET073SPECI ETSE 181132Z 28008KT 9999 FEW020 SCT035 BKN050 03/01 Q1025 BLU BLU;",
"10869099999","2010-01-18T12:20:00","4","48.322333","11.948667","461.77","ERDING, GM","FM-15","ETSE ","V020","290,1,N,0036,1","01410,1,C,N","011265,1,N,1","+0030,1","+0010,1","99999,9","04,5,+00420,1,99,9","07,5,+01410,1,99,9",,"07,99,1,99,9,99,9,99999,9,99,9,99,9","10251,1,99999,9",,,,,"MET076METAR ETSE 181220Z 29007KT 9999 SCT014 BKN047 03/01 Q1025 BLU BLU TEMPO WHT;",
"10869099999","2010-01-18T12:35:00","4","48.322333","11.948667","461.77","ERDING, GM","FM-16","ETSE ","V020","290,1,N,0036,1","00420,1,C,N","011265,1,N,1","+0030,1","+0010,1","99999,9","07,5,+00420,1,99,9","07,5,+01410,1,99,9",,"07,99,1,99,9,99,9,99999,9,99,9,99,9","10251,1,99999,9",,,,,"MET076SPECI ETSE 181235Z 29007KT 9999 BKN014 BKN047 03/01 Q1025 GRN BLU TEMPO GRN;",
"10869099999","2010-01-18T13:20:00","4","48.322333","11.948667","461.77","ERDING, GM","FM-15","ETSE ","V020","280,1,N,0036,1","00420,1,C,N","011265,1,N,1","+0030,1","+0010,1","99999,9","07,5,+00420,1,99,9","07,5,+01800,1,99,9",,"07,99,1,99,9,99,9,99999,9,99,9,99,9","10240,1,99999,9",,,,,"MET076METAR ETSE 181320Z 28007KT 9999 BKN014 BKN060 03/01 Q1024 GRN BLU TEMPO GRN;",
"10869099999","2010-01-18T13:38:00","4","48.322333","11.948667","461.77","ERDING, GM","FM-16","ETSE ","V020","280,1,N,0031,1","00480,1,C,N","011265,1,N,1","+0030,1","+0010,1","99999,9","07,5,+00480,1,99,9","07,5,+01800,1,99,9",,"07,99,1,99,9,99,9,99999,9,99,9,99,9","10251,1,99999,9",,,,,"MET076SPECI ETSE 181338Z 28006KT 9999 BKN016 BKN060 03/01 Q1025 WHT BLU TEMPO GRN;",
"10869099999","2010-01-18T14:20:00","4","48.322333","11.948667","461.77","ERDING, GM","FM-15","ETSE ","V020","300,1,N,0036,1","00420,1,C,N","011265,1,N,1","+0030,1","+0010,1","99999,9","07,5,+00420,1,99,9",,,"07,99,1,99,9,99,9,99999,9,99,9,99,9","10251,1,99999,9",,,,,"MET069METAR ETSE 181420Z 30007KT 9999 BKN014 03/01 Q1025 GRN BLU TEMPO GRN;",
"10869099999","2010-01-18T15:20:00","4","48.322333","11.948667","461.77","ERDING, GM","FM-15","ETSE ","V020","300,1,N,0015,1","00420,1,C,N","011265,1,N,1","+0020,1","+0010,1","99999,9","07,5,+00420,1,99,9",,,"07,99,1,99,9,99,9,99999,9,99,9,99,9","10251,1,99999,9",,,,,"MET067METAR ETSE 181520Z 30003KT 9999 BKN014 02/01 Q1025 GRN FCST CANCEL;",
"10869099999","2010-01-19T06:20:00","4","48.322333","11.948667","461.77","ERDING, GM","FM-15","ETSE ","V020","170,1,N,0010,1","99999,9,C,N","000100,1,N,1","-0020,1","-0020,1","99999,9","04,5,+01380,1,99,9","04,5,+02400,1,99,9",,"04,99,1,99,9,99,9,99999,9,99,9,99,9","10230,1,99999,9","48,1",,,,"MET083METAR ETSE 190620Z 17002KT 0100 FZFG SCT046 SCT080 M02/M02 Q1023 RED GRN TEMPO RED;","P01 024003SCOCIG"
"10869099999","2010-01-19T07:20:00","4","48.322333","11.948667","461.77","ERDING, GM","FM-15","ETSE ","V020","130,1,N,0010,1","99999,9,C,N","000250,1,N,1","-0030,1","-0030,1","99999,9","04,5,+01290,1,99,9","04,5,+02700,1,99,9",,"04,99,1,99,9,99,9,99999,9,99,9,99,9","10220,1,99999,9","48,1",,,,"MET083METAR ETSE 190720Z 13002KT 0250 FZFG SCT043 SCT090 M03/M03 Q1022 RED GRN TEMPO RED;","P01 027003SCOCIG"
"10869099999","2010-01-19T08:20:00","4","48.322333","11.948667","461.77","ERDING, GM","FM-15","ETSE ","V020","090,1,N,0010,1","01500,1,C,N","000100,1,N,1","-0030,1","-0030,1","99999,9","02,5,+01260,1,99,9","04,5,+01500,1,99,9","07,5,+04200,1,99,9","07,99,1,99,9,99,9,99999,9,99,9,99,9","10220,1,99999,9","48,1",,,,"MET100METAR ETSE 190820Z 09002KT 0100 R26/0800N FZFG FEW042 SCT050 BKN140 M03/M03 Q1022 RED GRN TEMPO RED;",
"10869099999","2010-01-19T09:20:00","4","48.322333","11.948667","461.77","ERDING, GM","FM-15","ETSE ","V020","050,1,N,0010,1","04200,1,C,N","000100,1,N,1","-0020,1","-0020,1","99999,9","02,5,+00000,5,99,9","07,5,+04200,1,99,9",,"07,99,1,99,9,99,9,99999,9,99,9,99,9","10220,1,99999,9","48,1",,,,"MET093METAR ETSE 190920Z 05002KT 0100 R26/0200N FZFG FEW000 BKN140 M02/M02 Q1022 RED GRN TEMPO RED;",
"10869099999","2010-01-19T10:20:00","4","48.322333","11.948667","461.77","ERDING, GM","FM-15","ETSE ","V020","120,1,N,0010,1","03900,1,C,N","000800,1,N,1","-0010,1","-0010,1","99999,9","02,5,+00060,1,99,9","07,5,+03900,1,99,9",,"07,99,1,99,9,99,9,99999,9,99,9,99,9","10220,1,99999,9","48,1",,,,"MET093METAR ETSE 191020Z 12002KT 0800 R26/2200U FZFG FEW002 BKN130 M01/M01 Q1022 AMB GRN BECMG WHT;",
"10869099999","2010-01-19T10:33:00","4","48.322333","11.948667","461.77","ERDING, GM","FM-16","ETSE ","V020","120,1,N,0015,1","03900,1,C,N","003000,1,N,1","+0000,1","+0000,1","99999,9","02,5,+00090,1,99,9","07,5,+03900,1,99,9",,"07,99,1,99,9,99,9,99999,9,99,9,99,9","10220,1,99999,9","10,1",,,,"MET081SPECI ETSE 191033Z 12003KT 3000 BR FEW003 BKN130 M00/M00 Q1022 YLO GRN BECMG WHT;",
"10869099999","2010-01-19T10:45:00","4","48.322333","11.948667","461.77","ERDING, GM","FM-16","ETSE ","V020","120,1,N,0015,1","03900,1,C,N","004000,1,N,1","+0010,1","+0010,1","99999,9","02,5,+00150,1,99,9","07,5,+03900,1,99,9",,"07,99,1,99,9,99,9,99999,9,99,9,99,9","10220,1,99999,9","10,1",,,,"MET079SPECI ETSE 191045Z 12003KT 4000 BR FEW005 BKN130 01/01 Q1022 GRN GRN BECMG WHT;",
"10869099999","2010-01-19T10:53:00","4","48.322333","11.948667","461.77","ERDING, GM","FM-16","ETSE ","V020","120,1,N,0015,1","99999,9,C,N","005000,1,N,1","+0010,1","+0010,1","99999,9","02,5,+00150,1,99,9","04,5,+03900,1,99,9",,"04,99,1,99,9,99,9,99999,9,99,9,99,9","10220,1,99999,9","10,1",,,,"MET080SPECI ETSE 191053Z 12003KT 5000 BR FEW005 SCT130 01/01 Q1022 WHT WHT BECMG BLU/;","P01 039003SCOCIG"
"10869099999","2010-01-19T11:20:00","4","48.322333","11.948667","461.77","ERDING, GM","FM-15","ETSE ","V020","130,1,N,0015,1","03900,1,C,N","011265,1,N,1","+0010,1","+0000,1","99999,9","02,5,+00150,1,99,9","07,5,+03900,1,99,9",,"07,99,1,99,9,99,9,99999,9,99,9,99,9","10210,1,99999,9",,,,,"MET078METAR ETSE 191120Z 13003KT 9999 FEW005 BKN130 01/M00 Q1021 BLU BLU/ TEMPO BLU;",
"10869099999","2010-01-19T12:20:00","4","48.322333","11.948667","461.77","ERDING, GM","FM-15","ETSE ","V020","999,9,V,0005,1","03300,1,C,N","008000,1,N,1","+0030,1","+0010,1","99999,9","02,5,+00150,1,99,9","07,5,+03300,1,99,9",,"07,99,1,99,9,99,9,99999,9,99,9,99,9","10210,1,99999,9",,,,,"MET077METAR ETSE 191220Z VRB01KT 8000 FEW005 BKN110 03/01 Q1021 BLU BLU/ TEMPO BLU;",
"10869099999","2010-01-19T12:31:00","4","48.322333","11.948667","461.77","ERDING, GM","FM-16","ETSE ","V020","010,1,N,0021,1","03300,1,C,N","006000,1,N,1","+0030,1","+0010,1","99999,9","02,5,+00090,1,99,9","07,5,+03300,1,99,9",,"07,99,1,99,9,99,9,99999,9,99,9,99,9","10210,1,99999,9",,,,,"MET077SPECI ETSE 191231Z 01004KT 6000 FEW003 BKN110 03/01 Q1021 WHT BLU/ TEMPO WHT;",
"10869099999","2010-01-19T12:38:00","4","48.322333","11.948667","461.77","ERDING, GM","FM-16","ETSE ","V020","360,1,N,0026,1","03300,1,C,N","004500,1,N,1","+0020,1","+0000,1","99999,9","02,5,+00090,1,99,9","07,5,+03300,1,99,9",,"07,99,1,99,9,99,9,99999,9,99,9,99,9","10200,1,99999,9","10,1",,,,"MET079SPECI ETSE 191238Z 36005KT 4500 BR FEW003 BKN110 02/00 Q1020 GRN WHT TEMPO GRN;",
"10869099999","2010-01-19T13:10:00","4","48.322333","11.948667","461.77","ERDING, GM","FM-16","ETSE ","V020","040,1,N,0026,1","01500,1,C,N","005000,1,N,1","+0010,1","+0000,1","99999,9","02,5,+00090,1,99,9","04,5,+01650,5,99,9","07,5,+03300,1,99,9","07,99,1,99,9,99,9,99999,9,99,9,99,9","10200,1,99999,9","10,1",,,,"MET086SPECI ETSE 191310Z 04005KT 5000 BR FEW003 SCT055 BKN110 01/00 Q1020 WHT WHT TEMPO GRN;",
"10869099999","2010-01-19T13:20:00","4","48.322333","11.948667","461.77","ERDING, GM","FM-15","ETSE ","V020","030,1,N,0021,1","01050,1,C,N","006000,1,N,1","+0010,1","+0000,1","99999,9","02,5,+00090,1,99,9","04,5,+01050,1,99,9","07,5,+02400,1,99,9","07,99,1,99,9,99,9,99999,9,99,9,99,9","10200,1,99999,9",,,,,"MET083METAR ETSE 191320Z 03004KT 6000 FEW003 SCT035 BKN080 01/00 Q1020 WHT WHT TEMPO GRN;",
"10869099999","2010-01-19T14:20:00","4","48.322333","11.948667","461.77","ERDING, GM","FM-15","ETSE ","V020","360,1,N,0015,1","02100,1,C,N","007000,1,N,1","+0020,1","+0010,1","99999,9","02,5,+00900,1,99,9","07,5,+02100,1,99,9",,"07,99,1,99,9,99,9,99999,9,99,9,99,9","10200,1,99999,9",,,,,"MET076METAR ETSE 191420Z 36003KT 7000 FEW030 BKN070 02/01 Q1020 WHT WHT TEMPO GRN;",
"10869099999","2010-01-19T15:20:00","4","48.322333","11.948667","461.77","ERDING, GM","FM-15","ETSE ","V020","010,1,N,0015,1","02100,1,C,N","006000,1,N,1","+0010,1","+0000,1","99999,9","02,5,+00900,1,99,9","07,5,+02100,1,99,9",,"07,99,1,99,9,99,9,99999,9,99,9,99,9","10200,1,99999,9",,,,,"MET074METAR ETSE 191520Z 01003KT 6000 FEW030 BKN070 01/00 Q1020 WHT FCST CANCEL;",
"10869099999","2010-01-20T06:20:00","4","48.322333","11.948667","461.77","ERDING, GM","FM-15","ETSE ","V020","090,1,N,0026,1","00015,1,C,N","001900,1,N,1","-0010,1","-0010,1","99999,9","08,5,+00000,5,99,9",,,"08,99,1,99,9,99,9,99999,9,99,9,99,9","10159,1,99999,9","10,1",,,,"MET060METAR ETSE 200620Z 09005KT 1900 BR OVC000 M01/M01 Q1016 RED;",
"10869099999","2010-01-20T06:47:00","4","48.322333","11.948667","461.77","ERDING, GM","FM-16","ETSE ","V020","160,1,N,0026,1","00150,1,C,N","003700,1,N,1","-0010,1","-0010,1","99999,9","04,5,+00030,1,99,9","08,5,+00150,1,99,9",,"08,99,1,99,9,99,9,99999,9,99,9,99,9","10159,1,99999,9","10,1",,,,"MET067SPECI ETSE 200647Z 16005KT 3700 BR SCT001 OVC005 M01/M01 Q1016 YLO;",
"10869099999","2010-01-20T07:20:00","4","48.322333","11.948667","461.77","ERDING, GM","FM-15","ETSE ","V020","160,1,N,0015,1","00120,1,C,N","004000,1,N,1","-0010,1","-0010,1","99999,9","02,5,+00060,1,99,9","08,5,+00120,1,99,9",,"08,99,1,99,9,99,9,99999,9,99,9,99,9","10159,1,99999,9","10,1",,,,"MET067METAR ETSE 200720Z 16003KT 4000 BR FEW002 OVC004 M01/M01 Q1016 YLO;",
"10869099999","2010-01-20T08:20:00","4","48.322333","11.948667","461.77","ERDING, GM","FM-15","ETSE ","V020","100,1,N,0021,1","00210,1,C,N","007000,1,N,1","-0010,1","-0010,1","99999,9","04,5,+00120,1,99,9","08,5,+00210,1,99,9",,"08,99,1,99,9,99,9,99999,9,99,9,99,9","10159,1,99999,9",,,,,"MET078METAR ETSE 200820Z 10004KT 7000 SCT004 OVC007 M01/M01 Q1016 GRN GRN TEMPO YLO;",
"10869099999","2010-01-20T09:20:00","4","48.322333","11.948667","461.77","ERDING, GM","FM-15","ETSE ","V020","130,1,N,0036,1","00210,1,C,N","009000,1,N,1","+0000,1","-0010,1","99999,9","02,5,+00150,1,99,9","08,5,+00210,1,99,9",,"08,99,1,99,9,99,9,99999,9,99,9,99,9","10159,1,99999,9",,,,,"MET078METAR ETSE 200920Z 13007KT 9000 FEW005 OVC007 M00/M01 Q1016 GRN GRN TEMPO YLO;",
"10869099999","2010-01-20T09:53:00","4","48.322333","11.948667","461.77","ERDING, GM","FM-16","ETSE ","V020","100,1,N,0036,1","00180,1,C,N","009000,1,N,1","-0010,1","-0010,1","99999,9","08,5,+00180,1,99,9",,,"08,99,1,99,9,99,9,99999,9,99,9,99,9","10149,1,99999,9",,,,,"MET071SPECI ETSE 200953Z 10007KT 9000 OVC006 M01/M01 Q1015 YLO GRN TEMPO YLO;",
"10869099999","2010-01-20T10:20:00","4","48.322333","11.948667","461.77","ERDING, GM","FM-15","ETSE ","V020","110,1,N,0036,1","00180,1,C,N","011265,1,N,1","-0010,1","-0010,1","99999,9","08,5,+00180,1,99,9",,,"08,99,1,99,9,99,9,99999,9,99,9,99,9","10149,1,99999,9",,,,,"MET071METAR ETSE 201020Z 11007KT 9999 OVC006 M01/M01 Q1015 YLO GRN TEMPO YLO;",
"10869099999","2010-01-20T11:20:00","4","48.322333","11.948667","461.77","ERDING, GM","FM-15","ETSE ","V020","110,1,N,0026,1","00180,1,C,N","011265,1,N,1","+0000,1","-0010,1","99999,9","08,5,+00180,1,99,9",,,"08,99,1,99,9,99,9,99999,9,99,9,99,9","10139,1,99999,9",,,,,"MET071METAR ETSE 201120Z 11005KT 9999 OVC006 M00/M01 Q1014 YLO GRN TEMPO YLO;",
"10869099999","2010-01-20T12:20:00","4","48.322333","11.948667","461.77","ERDING, GM","FM-15","ETSE ","V020","120,1,N,0031,1","00210,1,C,N","011265,1,N,1","+0000,1","-0010,1","99999,9","08,5,+00210,1,99,9",,,"08,99,1,99,9,99,9,99999,9,99,9,99,9","10139,1,99999,9",,,,,"MET071METAR ETSE 201220Z 12006KT 9999 OVC007 M00/M01 Q1014 GRN GRN TEMPO YLO;",
"10869099999","2010-01-20T13:20:00","4","48.322333","11.948667","461.77","ERDING, GM","FM-15","ETSE ","V020","120,1,N,0031,1","00270,1,C,N","011265,1,N,1","+0000,1","-0010,1","99999,9","07,5,+00270,1,99,9",,,"07,99,1,99,9,99,9,99999,9,99,9,99,9","10129,1,99999,9",,,,,"MET060METAR ETSE 201320Z 12006KT 9999 BKN009 00/M01 Q1013 GRN GRN;",
"10869099999","2010-01-20T14:20:00","4","48.322333","11.948667","461.77","ERDING, GM","FM-15","ETSE ","V020","100,1,N,0026,1","00330,1,C,N","011265,1,N,1","+0000,1","-0020,1","99999,9","07,5,+00330,1,99,9",,,"07,99,1,99,9,99,9,99999,9,99,9,99,9","10129,1,99999,9",,,,,"MET060METAR ETSE 201420Z 10005KT 9999 BKN011 00/M02 Q1013 GRN GRN;",
"10869099999","2010-01-20T15:20:00","4","48.322333","11.948667","461.77","ERDING, GM","FM-15","ETSE ","V020","100,1,N,0021,1","00330,1,C,N","011265,1,N,1","-0010,1","-0020,1","99999,9","07,5,+00330,1,99,9",,,"07,99,1,99,9,99,9,99999,9,99,9,99,9","10129,1,99999,9",,,,,"MET069METAR ETSE 201520Z 10004KT 9999 BKN011 M01/M02 Q1013 GRN FCST CANCEL;",
"10869099999","2010-01-21T06:20:00","4","48.322333","11.948667","461.77","ERDING, GM","FM-15","ETSE ","V020","040,1,N,0015,1","00330,1,C,N","004000,1,N,1","-0020,1","-0030,1","99999,9","02,5,+00210,1,99,9","07,5,+00330,1,99,9",,"07,99,1,99,9,99,9,99999,9,99,9,99,9","10190,1,99999,9","10,1",,,,"MET081METAR ETSE 210620Z 04003KT 4000 BR FEW007 BKN011 M02/M03 Q1019 GRN GRN TEMPO YLO;",
"10869099999","2010-01-21T07:20:00","4","48.322333","11.948667","461.77","ERDING, GM","FM-15","ETSE ","V020","040,1,N,0010,1","00300,1,C,N","005000,1,N,1","-0020,1","-0020,1","99999,9","02,5,+00150,1,99,9","07,5,+00300,1,99,9",,"07,99,1,99,9,99,9,99999,9,99,9,99,9","10190,1,99999,9","10,1",,,,"MET081METAR ETSE 210720Z 04002KT 5000 BR FEW005 BKN010 M02/M02 Q1019 GRN GRN TEMPO YLO;",
"10869099999","2010-01-21T08:20:00","4","48.322333","11.948667","461.77","ERDING, GM","FM-15","ETSE ","V020","360,1,N,0015,1","00330,1,C,N","006000,1,N,1","-0010,1","-0030,1","99999,9","02,5,+00180,1,99,9","07,5,+00330,1,99,9",,"07,99,1,99,9,99,9,99999,9,99,9,99,9","10200,1,99999,9",,,,,"MET068METAR ETSE 210820Z 36003KT 6000 FEW006 BKN011 M01/M03 Q1020 GRN GRN;",
"10869099999","2010-01-21T09:20:00","4","48.322333","11.948667","461.77","ERDING, GM","FM-15","ETSE ","V020","030,1,N,0021,1","00330,1,C,N","007000,1,N,1","-0010,1","-0030,1","99999,9","02,5,+00210,1,99,9","07,5,+00330,1,99,9",,"07,99,1,99,9,99,9,99999,9,99,9,99,9","10200,1,99999,9",,,,,"MET068METAR ETSE 210920Z 03004KT 7000 FEW007 BKN011 M01/M03 Q1020 GRN GRN;",
"10869099999","2010-01-21T10:20:00","4","48.322333","11.948667","461.77","ERDING, GM","FM-15","ETSE ","V020","020,1,N,0021,1","00360,1,C,N","008000,1,N,1","-0010,1","-0030,1","99999,9","02,5,+00240,1,99,9","07,5,+00360,1,99,9",,"07,99,1,99,9,99,9,99999,9,99,9,99,9","10210,1,99999,9",,,,,"MET068METAR ETSE 211020Z 02004KT 8000 FEW008 BKN012 M01/M03 Q1021 GRN GRN;",
"10869099999","2010-01-21T11:20:00","4","48.322333","11.948667","461.77","ERDING, GM","FM-15","ETSE ","V020","360,1,N,0015,1","00360,1,C,N","008000,1,N,1","-0010,1","-0030,1","99999,9","02,5,+00270,1,99,9","07,5,+00360,1,99,9",,"07,99,1,99,9,99,9,99999,9,99,9,99,9","10210,1,99999,9",,,,,"MET068METAR ETSE 211120Z 36003KT 8000 FEW009 BKN012 M01/M03 Q1021 GRN GRN;",
"10869099999","2010-01-21T12:20:00","4","48.322333","11.948667","461.77","ERDING, GM","FM-15","ETSE ","V020","020,1,N,0015,1","00300,1,C,N","008000,1,N,1","-0010,1","-0030,1","99999,9","04,5,+00210,1,99,9","07,5,+00300,1,99,9",,"07,99,1,99,9,99,9,99999,9,99,9,99,9","10210,1,99999,9",,,,,"MET068METAR ETSE 211220Z 02003KT 8000 SCT007 BKN010 M01/M03 Q1021 GRN GRN;",
"10869099999","2010-01-21T13:20:00","4","48.322333","11.948667","461.77","ERDING, GM","FM-15","ETSE ","V020","350,1,N,0021,1","00330,1,C,N","008000,1,N,1","-0010,1","-0030,1","99999,9","04,5,+00210,1,99,9","07,5,+00330,1,99,9",,"07,99,1,99,9,99,9,99999,9,99,9,99,9","10210,1,99999,9",,,,,"MET068METAR ETSE 211320Z 35004KT 8000 SCT007 BKN011 M01/M03 Q1021 GRN GRN;",
"10869099999","2010-01-21T14:20:00","4","48.322333","11.948667","461.77","ERDING, GM","FM-15","ETSE ","V020","360,1,N,0021,1","00360,1,C,N","008000,1,N,1","-0010,1","-0030,1","99999,9","02,5,+00240,1,99,9","07,5,+00360,1,99,9",,"07,99,1,99,9,99,9,99999,9,99,9,99,9","10210,1,99999,9",,,,,"MET068METAR ETSE 211420Z 36004KT 8000 FEW008 BKN012 M01/M03 Q1021 GRN GRN;",
"10869099999","2010-01-21T15:20:00","4","48.322333","11.948667","461.77","ERDING, GM","FM-15","ETSE ","V020","020,1,N,0015,1","00360,1,C,N","008000,1,N,1","-0010,1","-0030,1","99999,9","02,5,+00240,1,99,9","07,5,+00360,1,99,9",,"07,99,1,99,9,99,9,99999,9,99,9,99,9","10220,1,99999,9",,,,,"MET076METAR ETSE 211520Z 02003KT 8000 FEW008 BKN012 M01/M03 Q1022 GRN FCST CANCEL;",
"10869099999","2010-01-22T06:20:00","4","48.322333","11.948667","461.77","ERDING, GM","FM-15","ETSE ","V020","060,1,N,0010,1","00240,1,C,N","007000,1,N,1","-0020,1","-0030,1","99999,9","07,5,+00240,1,99,9","08,5,+00480,1,99,9",,"08,99,1,99,9,99,9,99999,9,99,9,99,9","10240,1,99999,9",,,,,"MET068METAR ETSE 220620Z 06002KT 7000 BKN008 OVC016 M02/M03 Q1024 GRN GRN;",
"10869099999","2010-01-22T07:20:00","4","48.322333","11.948667","461.77","ERDING, GM","FM-15","ETSE ","V020","040,1,N,0015,1","00240,1,C,N","007000,1,N,1","-0020,1","-0030,1","99999,9","07,5,+00240,1,99,9","07,5,+00450,1,99,9",,"07,99,1,99,9,99,9,99999,9,99,9,99,9","10240,1,99999,9",,,,,"MET078METAR ETSE 220720Z 04003KT 7000 BKN008 BKN015 M02/M03 Q1024 GRN GRN TEMPO WHT;",
"10869099999","2010-01-22T08:20:00","4","48.322333","11.948667","461.77","ERDING, GM","FM-15","ETSE ","V020","080,1,N,0021,1","00270,1,C,N","008000,1,N,1","-0020,1","-0030,1","99999,9","07,5,+00270,1,99,9","07,5,+00390,1,99,9",,"07,99,1,99,9,99,9,99999,9,99,9,99,9","10240,1,99999,9",,,,,"MET078METAR ETSE 220820Z 08004KT 8000 BKN009 BKN013 M02/M03 Q1024 GRN GRN TEMPO WHT;",
"10869099999","2010-01-22T09:20:00","4","48.322333","11.948667","461.77","ERDING, GM","FM-15","ETSE ","V020","050,1,N,0021,1","00270,1,C,N","011265,1,N,1","-0010,1","-0030,1","99999,9","07,5,+00270,1,99,9",,,"07,99,1,99,9,99,9,99999,9,99,9,99,9","10240,1,99999,9",,,,,"MET071METAR ETSE 220920Z 05004KT 9999 BKN009 M01/M03 Q1024 GRN GRN TEMPO WHT;",
"10869099999","2010-01-22T10:20:00","4","48.322333","11.948667","461.77","ERDING, GM","FM-15","ETSE ","V020","030,1,N,0021,1","00270,1,C,N","011265,1,N,1","-0010,1","-0030,1","99999,9","07,5,+00270,1,99,9",,,"07,99,1,99,9,99,9,99999,9,99,9,99,9","10240,1,99999,9",,,,,"MET069METAR ETSE 221020Z 03004KT 9999 BKN009 M01/M03 Q1024 GRN FCST CANCEL;",
"10869099999","2010-01-25T06:20:00","4","48.322333","11.948667","461.77","ERDING, GM","FM-15","ETSE ","V020","120,1,N,0031,1","00210,1,C,N","003000,1,N,1","-0040,1","-0050,1","99999,9","07,5,+00210,1,99,9","07,5,+00660,1,99,9",,"07,99,1,99,9,99,9,99999,9,99,9,99,9","10240,1,99999,9","10,1",,,,"MET081METAR ETSE 250620Z 12006KT 3000 BR BKN007 BKN022 M04/M05 Q1024 YLO GRN TEMPO YLO;",
"10869099999","2010-01-25T07:20:00","4","48.322333","11.948667","461.77","ERDING, GM","FM-15","ETSE ","V020","110,1,N,0031,1","00210,1,C,N","003700,1,N,1","-0040,1","-0050,1","99999,9","07,5,+00210,1,99,9","07,5,+00630,1,99,9",,"07,99,1,99,9,99,9,99999,9,99,9,99,9","10240,1,99999,9","10,1",,,,"MET081METAR ETSE 250720Z 11006KT 3700 BR BKN007 BKN021 M04/M05 Q1024 GRN GRN TEMPO YLO;",
"10869099999","2010-01-25T08:20:00","4","48.322333","11.948667","461.77","ERDING, GM","FM-15","ETSE ","V020","120,1,N,0031,1","00240,1,C,N","004000,1,N,1","-0040,1","-0050,1","99999,9","07,5,+00240,1,99,9","08,5,+00510,1,99,9",,"08,99,1,99,9,99,9,99999,9,99,9,99,9","10251,1,99999,9","10,1",,,,"MET081METAR ETSE 250820Z 12006KT 4000 BR BKN008 OVC017 M04/M05 Q1025 GRN GRN TEMPO YLO;",
"10869099999","2010-01-25T09:20:00","4","48.322333","11.948667","461.77","ERDING, GM","FM-15","ETSE ","V020","120,1,N,0026,1","00240,1,C,N","004500,1,N,1","-0040,1","-0050,1","99999,9","07,5,+00240,1,99,9","08,5,+00390,1,99,9",,"08,99,1,99,9,99,9,99999,9,99,9,99,9","10251,1,99999,9","10,1","71,1",,,"MET085METAR ETSE 250920Z 12005KT 4500 -SN BR BKN008 OVC013 M04/M05 Q1025 GRN GRN TEMPO YLO;",
"10869099999","2010-01-25T09:45:00","4","48.322333","11.948667","461.77","ERDING, GM","FM-16","ETSE ","V020","120,1,N,0031,1","00240,1,C,N","003300,1,N,1","-0040,1","-0050,1","99999,9","07,5,+00240,1,99,9","08,5,+00360,1,99,9",,"08,99,1,99,9,99,9,99999,9,99,9,99,9","10251,1,99999,9","10,1","71,1",,,"MET085SPECI ETSE 250945Z 12006KT 3300 -SN BR BKN008 OVC012 M04/M05 Q1025 YLO GRN TEMPO YLO;",
"10869099999","2010-01-25T10:20:00","4","48.322333","11.948667","461.77","ERDING, GM","FM-15","ETSE ","V020","110,1,N,0026,1","00210,1,C,N","003300,1,N,1","-0030,1","-0050,1","99999,9","07,5,+00210,1,99,9","08,5,+00390,1,99,9",,"08,99,1,99,9,99,9,99999,9,99,9,99,9","10251,1,99999,9","10,1","71,1",,,"MET085METAR ETSE 251020Z 11005KT 3300 -SN BR BKN007 OVC013 M03/M05 Q1025 YLO GRN TEMPO YLO;",
"10869099999","2010-01-25T11:07:00","4","48.322333","11.948667","461.77","ERDING, GM","FM-16","ETSE ","V020","100,1,N,0026,1","00210,1,C,N","004000,1,N,1","-0030,1","-0040,1","99999,9","07,5,+00210,1,99,9","08,5,+00450,1,99,9",,"08,99,1,99,9,99,9,99999,9,99,9,99,9","10251,1,99999,9","10,1","71,1",,,"MET085SPECI ETSE 251107Z 10005KT 4000 -SN BR BKN007 OVC015 M03/M04 Q1025 GRN GRN TEMPO YLO;",
"10869099999","2010-01-25T11:20:00","4","48.322333","11.948667","461.77","ERDING, GM","FM-15","ETSE ","V020","100,1,N,0021,1","00240,1,C,N","004500,1,N,1","-0030,1","-0050,1","99999,9","07,5,+00240,1,99,9","07,5,+00540,1,99,9",,"07,99,1,99,9,99,9,99999,9,99,9,99,9","10251,1,99999,9","10,1","71,1",,,"MET085METAR ETSE 251120Z 10004KT 4500 -SN BR BKN008 BKN018 M03/M05 Q1025 GRN GRN TEMPO YLO;",
"10869099999","2010-01-25T12:20:00","4","48.322333","11.948667","461.77","ERDING, GM","FM-15","ETSE ","V020","080,1,N,0026,1","00360,1,C,N","005000,1,N,1","-0030,1","-0040,1","99999,9","04,5,+00240,1,99,9","07,5,+00360,1,99,9","07,5,+00480,1,99,9","07,99,1,99,9,99,9,99999,9,99,9,99,9","10251,1,99999,9","10,1",,,,"MET088METAR ETSE 251220Z 08005KT 5000 BR SCT008 BKN012 BKN016 M03/M04 Q1025 GRN GRN TEMPO YLO;",
"10869099999","2010-01-25T13:20:00","4","48.322333","11.948667","461.77","ERDING, GM","FM-15","ETSE ","V020","160,1,N,0026,1","00330,1,C,N","006000,1,N,1","-0020,1","-0040,1","99999,9","02,5,+00270,1,99,9","07,5,+00330,1,99,9",,"07,99,1,99,9,99,9,99999,9,99,9,99,9","10251,1,99999,9",,,,,"MET078METAR ETSE 251320Z 16005KT 6000 FEW009 BKN011 M02/M04 Q1025 GRN GRN TEMPO YLO;",
"10869099999","2010-01-25T14:00:00","4","48.322333","11.948667","461.77","ERDING, GM","FM-16","ETSE ","V020","110,1,N,0021,1","00360,1,C,N","006000,1,N,1","-0020,1","-0040,1","99999,9","02,5,+00270,1,99,9","07,5,+00360,1,99,9",,"07,99,1,99,9,99,9,99999,9,99,9,99,9","10251,1,99999,9",,,,,"MET076SPECI ETSE 251400Z 11004KT 6000 FEW009 BKN012 M02/M04 Q1025 GRN FCST CANCEL;",
"10869099999","2010-01-26T06:20:00","4","48.322333","11.948667","461.77","ERDING, GM","FM-15","ETSE ","V020","010,1,N,0026,1","00120,1,C,N","001700,1,N,1","-0050,1","-0050,1","99999,9","08,5,+00120,1,99,9",,,"08,99,1,99,9,99,9,99999,9,99,9,99,9","10281,1,99999,9","10,1","73,1",,,"MET082METAR ETSE 260620Z 01005KT 1700 SN BR OVC004 M05/M05 Q1028 BLACKYLO YLO TEMPO AMB;",
"10869099999","2010-01-26T06:45:00","4","48.322333","11.948667","461.77","ERDING, GM","FM-16","ETSE ","V020","020,1,N,0026,1","00120,1,C,N","001400,1,N,1","-0050,1","-0050,1","99999,9","07,5,+00120,1,99,9","08,5,+00360,1,99,9",,"08,99,1,99,9,99,9,99999,9,99,9,99,9","10281,1,99999,9","10,1","73,1",,,"MET089SPECI ETSE 260645Z 02005KT 1400 SN BR BKN004 OVC012 M05/M05 Q1028 BLACKAMB YLO TEMPO AMB;",
"10869099999","2010-01-26T07:20:00","4","48.322333","11.948667","461.77","ERDING, GM","FM-15","ETSE ","V020","010,1,N,0026,1","00270,1,C,N","001500,1,N,1","-0050,1","-0050,1","99999,9","04,5,+00120,1,99,9","04,5,+00270,1,99,9","07,5,+00360,1,99,9","07,99,1,99,9,99,9,99999,9,99,9,99,9","10281,1,99999,9","10,1","73,1",,,"MET096METAR ETSE 260720Z 01005KT 1500 SN BR SCT004 SCT009 BKN012 M05/M05 Q1028 BLACKAMB YLO TEMPO AMB;",
"10869099999","2010-01-26T07:47:00","4","48.322333","11.948667","461.77","ERDING, GM","FM-16","ETSE ","V020","020,1,N,0021,1","00330,1,C,N","001600,1,N,1","-0050,1","-0050,1","99999,9","04,5,+00120,1,99,9","07,5,+00330,1,99,9","07,5,+00480,1,99,9","07,99,1,99,9,99,9,99999,9,99,9,99,9","10291,1,99999,9","10,1","73,1",,,"MET096SPECI ETSE 260747Z 02004KT 1600 SN BR SCT004 BKN011 BKN016 M05/M05 Q1029 BLACKYLO YLO TEMPO AMB;",
"10869099999","2010-01-26T08:20:00","4","48.322333","11.948667","461.77","ERDING, GM","FM-15","ETSE ","V020","010,1,N,0026,1","00330,1,C,N","001300,1,N,1","-0060,1","-0060,1","99999,9","04,5,+00150,1,99,9","07,5,+00330,1,99,9","07,5,+00480,1,99,9","07,99,1,99,9,99,9,99999,9,99,9,99,9","10291,1,99999,9","10,1","73,1",,,"MET096METAR ETSE 260820Z 01005KT 1300 SN BR SCT005 BKN011 BKN016 M06/M06 Q1029 BLACKAMB YLO TEMPO AMB;",
"10869099999","2010-01-26T08:54:00","4","48.322333","11.948667","461.77","ERDING, GM","FM-16","ETSE ","V020","010,1,N,0021,1","00360,1,C,N","001900,1,N,1","-0050,1","-0060,1","99999,9","04,5,+00150,1,99,9","04,5,+00360,1,99,9","07,5,+00480,1,99,9","07,99,1,99,9,99,9,99999,9,99,9,99,9","10291,1,99999,9","10,1","73,1",,,"MET096SPECI ETSE 260854Z 01004KT 1900 SN BR SCT005 SCT012 BKN016 M05/M06 Q1029 BLACKYLO YLO TEMPO AMB;",
"10869099999","2010-01-26T09:20:00","4","48.322333","11.948667","461.77","ERDING, GM","FM-15","ETSE ","V020","010,1,N,0026,1","00270,1,C,N","002200,1,N,1","-0050,1","-0060,1","99999,9","04,5,+00150,1,99,9","04,5,+00270,1,99,9","07,5,+00480,1,99,9","07,99,1,99,9,99,9,99999,9,99,9,99,9","10291,1,99999,9","10,1","71,1",,,"MET092METAR ETSE 260920Z 01005KT 2200 -SN BR SCT005 SCT009 BKN016 M05/M06 Q1029 RESN BLACKYLO YLO;",
"10869099999","2010-01-26T10:20:00","4","48.322333","11.948667","461.77","ERDING, GM","FM-15","ETSE ","V020","020,1,N,0026,1","00300,1,C,N","003000,1,N,1","-0050,1","-0060,1","99999,9","04,5,+00180,1,99,9","04,5,+00300,1,99,9","07,5,+00420,1,99,9","07,99,1,99,9,99,9,99999,9,99,9,99,9","10291,1,99999,9","10,1","71,1",,,"MET097METAR ETSE 261020Z 02005KT 3000 -SN BR SCT006 SCT010 BKN014 M05/M06 Q1029 BLACKYLO YLO BECMG GRN;",
"10869099999","2010-01-26T10:42:00","4","48.322333","11.948667","461.77","ERDING, GM","FM-16","ETSE ","V020","020,1,N,0021,1","00420,1,C,N","004000,1,N,1","-0060,1","-0070,1","99999,9","02,5,+00180,1,99,9","07,5,+00420,1,99,9","07,5,+02100,1,99,9","07,99,1,99,9,99,9,99999,9,99,9,99,9","10291,1,99999,9","10,1","71,1",,,"MET087SPECI ETSE 261042Z 02004KT 4000 -SN BR FEW006 BKN014 BKN070 M06/M07 Q1029 BLACKGRN GRN;",
"10869099999","2010-01-26T11:07:00","4","48.322333","11.948667","461.77","ERDING, GM","FM-16","ETSE ","V020","010,1,N,0021,1","00390,1,C,N","005000,1,N,1","-0050,1","-0070,1","99999,9","02,5,+00180,1,99,9","07,5,+00390,1,99,9","07,5,+01350,1,99,9","07,99,1,99,9,99,9,99999,9,99,9,99,9","10291,1,99999,9","10,1","71,1",,,"MET097SPECI ETSE 261107Z 01004KT 5000 -SN BR FEW006 BKN013 BKN045 M05/M07 Q1029 BLACKGRN WHT TEMPO GRN;",
"10869099999","2010-01-26T11:20:00","4","48.322333","11.948667","461.77","ERDING, GM","FM-15","ETSE ","V020","010,1,N,0026,1","00390,1,C,N","006000,1,N,1","-0050,1","-0070,1","99999,9","02,5,+00210,1,99,9","07,5,+00390,1,99,9","07,5,+01350,1,99,9","07,99,1,99,9,99,9,99999,9,99,9,99,9","10291,1,99999,9","71,1",,,,"MET094METAR ETSE 261120Z 01005KT 6000 -SN FEW007 BKN013 BKN045 M05/M07 Q1029 BLACKGRN WHT TEMPO GRN;",
"10869099999","2010-01-26T12:14:00","4","48.322333","11.948667","461.77","ERDING, GM","FM-16","ETSE ","V020","360,1,N,0026,1","00300,1,C,N","001200,1,N,1","-0050,1","-0070,1","99999,9","02,5,+00210,1,99,9","07,5,+00300,1,99,9",,"07,99,1,99,9,99,9,99999,9,99,9,99,9","10291,1,99999,9","10,1","73,1",,,"MET089SPECI ETSE 261214Z 36005KT 1200 SN BR FEW007 BKN010 M05/M07 Q1029 BLACKAMB GRN TEMPO YLO;",
"10869099999","2010-01-26T12:20:00","4","48.322333","11.948667","461.77","ERDING, GM","FM-15","ETSE ","V020","360,1,N,0026,1","00300,1,C,N","002500,1,N,1","-0060,1","-0070,1","99999,9","02,5,+00180,1,99,9","07,5,+00300,1,99,9",,"07,99,1,99,9,99,9,99999,9,99,9,99,9","10291,1,99999,9","10,1","73,1",,,"MET089METAR ETSE 261220Z 36005KT 2500 SN BR FEW006 BKN010 M06/M07 Q1029 BLACKYLO GRN TEMPO YLO;",
"10869099999","2010-01-26T12:27:00","4","48.322333","11.948667","461.77","ERDING, GM","FM-16","ETSE ","V020","360,1,N,0026,1","00270,1,C,N","005000,1,N,1","-0050,1","-0070,1","99999,9","02,5,+00150,1,99,9","07,5,+00270,1,99,9",,"07,99,1,99,9,99,9,99999,9,99,9,99,9","10291,1,99999,9","10,1","71,1",,,"MET095SPECI ETSE 261227Z 36005KT 5000 -SN BR FEW005 BKN009 M05/M07 Q1029 RESN BLACKGRN GRN TEMPO YLO;",
"10869099999","2010-01-26T12:42:00","4","48.322333","11.948667","461.77","ERDING, GM","FM-16","ETSE ","V020","360,1,N,0026,1","00270,1,C,N","002500,1,N,1","-0060,1","-0070,1","99999,9","02,5,+00150,1,99,9","07,5,+00270,1,99,9",,"07,99,1,99,9,99,9,99999,9,99,9,99,9","10291,1,99999,9","10,1","71,1",,,"MET095SPECI ETSE 261242Z 36005KT 2500 -SN BR FEW005 BKN009 M06/M07 Q1029 RESN BLACKYLO GRN TEMPO YLO;",
"10869099999","2010-01-26T12:47:00","4","48.322333","11.948667","461.77","ERDING, GM","FM-16","ETSE ","V020","360,1,N,0026,1","00270,1,C,N","000600,1,N,1","-0060,1","-0070,1","99999,9","02,5,+00150,1,99,9","07,5,+00270,1,99,9",,"07,99,1,99,9,99,9,99999,9,99,9,99,9","10291,1,99999,9","75,1",,,,"MET087SPECI ETSE 261247Z 36005KT 0600 +SN FEW005 BKN009 M06/M07 Q1029 BLACKRED GRN TEMPO YLO;",
"10869099999","2010-01-26T13:00:00","4","48.322333","11.948667","461.77","ERDING, GM","FM-15","ETSE ","V020","360,1,N,0026,1","00270,1,C,N","000900,1,N,1","-0060,1","-0070,1","99999,9","02,5,+00150,1,99,9","07,5,+00270,1,99,9",,"07,99,1,99,9,99,9,99999,9,99,9,99,9","10291,1,99999,9","75,1",,,,"MET087SPECI ETSE 261256Z 36005KT 0900 +SN FEW005 BKN009 M06/M07 Q1029 BLACKAMB GRN TEMPO YLO;",
"10869099999","2010-01-26T13:02:00","4","48.322333","11.948667","461.77","ERDING, GM","FM-16","ETSE ","V020","360,1,N,0026,1","00300,1,C,N","002100,1,N,1","-0060,1","-0070,1","99999,9","02,5,+00150,1,99,9","07,5,+00300,1,99,9",,"07,99,1,99,9,99,9,99999,9,99,9,99,9","10291,1,99999,9","10,1","73,1",,,"MET094SPECI ETSE 261302Z 36005KT 2100 SN BR FEW005 BKN010 M06/M07 Q1029 RESN BLACKYLO GRN TEMPO YLO;",
"10869099999","2010-01-26T13:09:00","4","48.322333","11.948667","461.77","ERDING, GM","FM-16","ETSE ","V020","360,1,N,0026,1","00360,1,C,N","004000,1,N,1","-0050,1","-0070,1","99999,9","02,5,+00150,1,99,9","07,5,+00360,1,99,9","07,5,+00840,1,99,9","07,99,1,99,9,99,9,99999,9,99,9,99,9","10291,1,99999,9","10,1","71,1",,,"MET102SPECI ETSE 261309Z 36005KT 4000 -SN BR FEW005 BKN012 BKN028 M05/M07 Q1029 RESN BLACKGRN GRN TEMPO YLO;",
"10869099999","2010-01-26T13:20:00","4","48.322333","11.948667","461.77","ERDING, GM","FM-15","ETSE ","V020","010,1,N,0021,1","00360,1,C,N","003500,1,N,1","-0050,1","-0060,1","99999,9","02,5,+00180,1,99,9","07,5,+00360,1,99,9","07,5,+00840,1,99,9","07,99,1,99,9,99,9,99999,9,99,9,99,9","10291,1,99999,9","10,1","71,1",,,"MET102METAR ETSE 261320Z 01004KT 3500 -SN BR FEW006 BKN012 BKN028 M05/M06 Q1029 RESN BLACKYLO GRN TEMPO YLO;",
"10869099999","2010-01-26T14:20:00","4","48.322333","11.948667","461.77","ERDING, GM","FM-15","ETSE ","V020","010,1,N,0021,1","00390,1,C,N","003500,1,N,1","-0050,1","-0070,1","99999,9","02,5,+00180,1,99,9","07,5,+00390,1,99,9",,"07,99,1,99,9,99,9,99999,9,99,9,99,9","10301,1,99999,9","10,1","71,1",,,"MET090METAR ETSE 261420Z 01004KT 3500 -SN BR FEW006 BKN013 M05/M07 Q1030 BLACKYLO GRN TEMPO YLO;",
"10869099999","2010-01-26T15:20:00","4","48.322333","11.948667","461.77","ERDING, GM","FM-15","ETSE ","V020","060,1,N,0036,1","00270,1,C,N","003500,1,N,1","-0050,1","-0060,1","99999,9","02,5,+00180,1,99,9","07,5,+00270,1,99,9",,"07,99,1,99,9,99,9,99999,9,99,9,99,9","10301,1,99999,9","10,1","71,1",,,"MET088METAR ETSE 261520Z 06007KT 3500 -SN BR FEW006 BKN009 M05/M06 Q1030 BLACKYLO FCST CANCEL;",
"10869099999","2010-01-27T06:20:00","4","48.322333","11.948667","461.77","ERDING, GM","FM-15","ETSE ","V020","040,1,N,0010,1","00210,1,C,N","000100,1,N,1","-0150,1","-0160,1","99999,9","07,5,+00210,1,99,9",,,"07,99,1,99,9,99,9,99999,9,99,9,99,9","10301,1,99999,9","48,1",,,,"MET081METAR ETSE 270620Z 04002KT 0100 FZFG BKN007 M15/M16 Q1030 BLACKRED GRN TEMPO RED;",
"10869099999","2010-01-27T06:33:00","4","48.322333","11.948667","461.77","ERDING, GM","FM-16","ETSE ","V020","010,1,N,0015,1","00270,1,C,N","004500,1,N,1","-0150,1","-0160,1","99999,9","07,5,+00270,1,99,9",,,"07,99,1,99,9,99,9,99999,9,99,9,99,9","10301,1,99999,9","10,1","40,1",,,"MET084SPECI ETSE 270633Z 01003KT 4500 VCFG BR BKN009 M15/M16 Q1030 BLACKGRN GRN TEMPO RED;",
"10869099999","2010-01-27T07:00:00","4","48.322333","11.948667","461.77","ERDING, GM","FM-15","ETSE ","V020","010,1,N,0010,1","00270,1,C,N","005000,1,N,1","-0150,1","-0160,1","99999,9","07,5,+00270,1,99,9",,,"07,99,1,99,9,99,9,99999,9,99,9,99,9","10301,1,99999,9","10,1",,,,"MET069SPECI ETSE 270659Z 01002KT 5000 BR BKN009 M15/M16 Q1030 BLACKGRN GRN;",
"10869099999","2010-01-27T07:20:00","4","48.322333","11.948667","461.77","ERDING, GM","FM-15","ETSE ","V020","320,1,N,0010,1","00240,1,C,N","008000,1,N,1","-0140,1","-0150,1","99999,9","07,5,+00240,1,99,9",,,"07,99,1,99,9,99,9,99999,9,99,9,99,9","10291,1,99999,9",,,,,"MET066METAR ETSE 270720Z 32002KT 8000 BKN008 M14/M15 Q1029 BLACKGRN GRN;",
"10869099999","2010-01-27T08:20:00","4","48.322333","11.948667","461.77","ERDING, GM","FM-15","ETSE ","V020","010,1,N,0015,1","00240,1,C,N","008000,1,N,1","-0130,1","-0140,1","99999,9","07,5,+00240,1,99,9",,,"07,99,1,99,9,99,9,99999,9,99,9,99,9","10291,1,99999,9","77,1",,,,"MET070METAR ETSE 270820Z 01003KT 8000 -SG BKN008 M13/M14 Q1029 BLACKGRN GRN;",
"10869099999","2010-01-27T09:20:00","4","48.322333","11.948667","461.77","ERDING, GM","FM-15","ETSE ","V020","020,1,N,0010,1","00210,1,C,N","008000,1,N,1","-0130,1","-0140,1","99999,9","07,5,+00210,1,99,9",,,"07,99,1,99,9,99,9,99999,9,99,9,99,9","10291,1,99999,9","77,1",,,,"MET070METAR ETSE 270920Z 02002KT 8000 -SG BKN007 M13/M14 Q1029 BLACKGRN GRN;",
"10869099999","2010-01-27T10:20:00","4","48.322333","11.948667","461.77","ERDING, GM","FM-15","ETSE ","V020","020,1,N,0010,1","00240,1,C,N","008000,1,N,1","-0100,1","-0120,1","99999,9","07,5,+00240,1,99,9","07,5,+05400,1,99,9",,"07,99,1,99,9,99,9,99999,9,99,9,99,9","10281,1,99999,9",,,,,"MET073METAR ETSE 271020Z 02002KT 8000 BKN008 BKN180 M10/M12 Q1028 BLACKGRN GRN;",
"10869099999","2010-01-27T11:20:00","4","48.322333","11.948667","461.77","ERDING, GM","FM-15","ETSE ","V020","010,1,N,0010,1","00240,1,C,N","011265,1,N,1","-0090,1","-0110,1","99999,9","07,5,+00240,1,99,9","07,5,+05400,1,99,9",,"07,99,1,99,9,99,9,99999,9,99,9,99,9","10271,1,99999,9",,,,,"MET083METAR ETSE 271120Z 01002KT 9999 BKN008 BKN180 M09/M11 Q1027 BLACKGRN BLU TEMPO GRN;",
"10869099999","2010-01-27T12:20:00","4","48.322333","11.948667","461.77","ERDING, GM","FM-15","ETSE ","V020","999,9,V,0010,1","00240,1,C,N","009000,1,N,1","-0080,1","-0110,1","99999,9","07,5,+00240,1,99,9",,,"07,99,1,99,9,99,9,99999,9,99,9,99,9","10251,1,99999,9",,,,,"MET076METAR ETSE 271220Z VRB02KT 9000 BKN008 M08/M11 Q1025 BLACKGRN BLU TEMPO GRN;",
"10869099999","2010-01-27T13:20:00","4","48.322333","11.948667","461.77","ERDING, GM","FM-15","ETSE ","V020","060,1,N,0015,1","00270,1,C,N","011265,1,N,1","-0090,1","-0110,1","99999,9","07,5,+00270,1,99,9",,,"07,99,1,99,9,99,9,99999,9,99,9,99,9","10240,1,99999,9",,,,,"MET066METAR ETSE 271320Z 06003KT 9999 BKN009 M09/M11 Q1024 BLACKGRN GRN;",
"10869099999","2010-01-27T14:20:00","4","48.322333","11.948667","461.77","ERDING, GM","FM-15","ETSE ","V020","290,1,N,0015,1","04200,1,C,N","011265,1,N,1","-0090,1","-0110,1","99999,9","04,5,+00270,1,99,9","04,5,+04200,1,99,9","07,5,+05400,1,99,9","07,99,1,99,9,99,9,99999,9,99,9,99,9","10240,1,99999,9",,,,,"MET080METAR ETSE 271420Z 29003KT 9999 SCT009 SCT140 BKN180 M09/M11 Q1024 BLACKBLU BLU;",
"10869099999","2010-01-27T15:20:00","4","48.322333","11.948667","461.77","ERDING, GM","FM-15","ETSE ","V020","270,1,N,0010,1","00270,1,C,N","009000,1,N,1","-0090,1","-0100,1","99999,9","07,5,+00270,1,99,9","04,5,+03600,1,99,9","07,5,+05400,1,99,9","07,99,1,99,9,99,9,99999,9,99,9,99,9","10230,1,99999,9",,,,,"MET088METAR ETSE 271520Z 27002KT 9000 BKN009 SCT120 BKN180 M09/M10 Q1023 BLACKGRN FCST CANCEL;",
"10869099999","2010-01-28T06:20:00","4","48.322333","11.948667","461.77","ERDING, GM","FM-15","ETSE ","V020","270,1,N,0072,1","00270,1,C,N","004500,1,N,1","-0030,1","-0040,1","99999,9","02,5,+00150,1,99,9","07,5,+00270,1,99,9","08,5,+00900,1,99,9","08,99,1,99,9,99,9,99999,9,99,9,99,9","10061,1,99999,9","36,1","73,1",,"0129,1","MET101METAR ETSE 280620Z 27014G25KT 4500 SN DRSN FEW005 BKN009 OVC030 M03/M04 Q1006 BLACKGRN GRN TEMPO RED;",
"10869099999","2010-01-28T07:04:00","4","48.322333","11.948667","461.77","ERDING, GM","FM-16","ETSE ","V020","260,1,N,0067,1","00360,1,C,N","011265,1,N,1","-0030,1","-0040,1","99999,9","02,5,+00150,1,99,9","07,5,+00360,1,99,9","08,5,+00690,1,99,9","08,99,1,99,9,99,9,99999,9,99,9,99,9","10061,1,99999,9","36,1",,,,"MET095SPECI ETSE 280704Z 26013KT 9999 DRSN FEW005 BKN012 OVC023 M03/M04 Q1006 BLACKGRN GRN TEMPO RED;",
"10869099999","2010-01-28T07:20:00","4","48.322333","11.948667","461.77","ERDING, GM","FM-15","ETSE ","V020","260,1,N,0072,1","00420,1,C,N","011265,1,N,1","-0020,1","-0040,1","99999,9","02,5,+00180,1,99,9","07,5,+00420,1,99,9","08,5,+00600,1,99,9","08,99,1,99,9,99,9,99999,9,99,9,99,9","10061,1,99999,9","36,1","71,1",,"0123,1","MET102METAR ETSE 280720Z 26014G24KT 9999 -SN DRSN FEW006 BKN014 OVC020 M02/M04 Q1006 BLACKGRN GRN TEMPO RED;",
"10869099999","2010-01-28T08:00:00","4","48.322333","11.948667","461.77","ERDING, GM","FM-15","ETSE ","V020","260,1,N,0067,1","00390,1,C,N","003000,1,N,1","-0020,1","-0040,1","99999,9","02,5,+00300,1,99,9","04,5,+00390,1,99,9","08,5,+00510,1,99,9","08,99,1,99,9,99,9,99999,9,99,9,99,9","10061,1,99999,9","36,1","86,5",,,"MET100SPECI ETSE 280759Z 26013KT 3000 SHSN DRSN FEW010 SCT013 OVC017 M02/M04 Q1006 BLACKYLO GRN TEMPO RED;",
"10869099999","2010-01-28T08:03:00","4","48.322333","11.948667","461.77","ERDING, GM","FM-16","ETSE ","V020","260,1,N,0067,1","00390,1,C,N","005000,1,N,1","-0020,1","-0040,1","99999,9","02,5,+00300,1,99,9","04,5,+00390,1,99,9","08,5,+00510,1,99,9","08,99,1,99,9,99,9,99999,9,99,9,99,9","10061,1,99999,9","36,1","85,5",,"0118,1","MET104SPECI ETSE 280803Z 26013G23KT 5000 -SHSN DRSN FEW010 SCT013 OVC017 M02/M04 Q1006 BLACKWHT GRN TEMPO RED;",
"10869099999","2010-01-28T08:20:00","4","48.322333","11.948667","461.77","ERDING, GM","FM-15","ETSE ","V020","260,1,N,0072,1","00390,1,C,N","011265,1,N,1","-0020,1","-0040,1","99999,9","02,5,+00300,1,99,9","04,5,+00390,1,99,9","07,5,+00510,1,99,9","07,99,1,99,9,99,9,99999,9,99,9,99,9","10061,1,99999,9","36,1",,,,"MET100METAR ETSE 280820Z 26014KT 9999 DRSN FEW010 SCT013 BKN017 M02/M04 Q1006 RESN BLACKWHT WHT TEMPO YLO;",
"10869099999","2010-01-28T08:56:00","4","48.322333","11.948667","461.77","ERDING, GM","FM-16","ETSE ","V020","260,1,N,0067,1","00510,1,C,N","001500,1,N,1","-0020,1","-0040,1","99999,9","02,5,+00300,1,99,9","07,5,+00510,1,99,9",,"07,99,1,99,9,99,9,99999,9,99,9,99,9","10061,1,99999,9","36,1","86,5",,,"MET093SPECI ETSE 280856Z 26013KT 1500 SHSN DRSN FEW010 BKN017 M02/M04 Q1006 BLACKAMB WHT TEMPO RED;",
"10869099999","2010-01-28T09:00:00","4","48.322333","11.948667","461.77","ERDING, GM","FM-15","ETSE ","V020","260,1,N,0067,1","00510,1,C,N","000500,1,N,1","-0020,1","-0040,1","99999,9","02,5,+00300,1,99,9","07,5,+00510,1,99,9",,"07,99,1,99,9,99,9,99999,9,99,9,99,9","10061,1,99999,9","36,1","86,5",,,"MET094SPECI ETSE 280858Z 26013KT 0500 +SHSN DRSN FEW010 BKN017 M02/M04 Q1006 BLACKRED WHT TEMPO RED;",
"10869099999","2010-01-28T09:05:00","4","48.322333","11.948667","461.77","ERDING, GM","FM-16","ETSE ","V020","260,1,N,0067,1","00510,1,C,N","001600,1,N,1","-0020,1","-0030,1","99999,9","02,5,+00300,1,99,9","07,5,+00510,1,99,9",,"07,99,1,99,9,99,9,99999,9,99,9,99,9","10061,1,99999,9","36,1","86,5",,"0118,1","MET101SPECI ETSE 280905Z 26013G23KT 1600 SHSN DRSN FEW010 BKN017 M02/M03 Q1006 RESN BLACKYLO WHT TEMPO YLO;",
"10869099999","2010-01-28T09:10:00","4","48.322333","11.948667","461.77","ERDING, GM","FM-16","ETSE ","V020","260,1,N,0072,1","00510,1,C,N","003800,1,N,1","-0020,1","-0030,1","99999,9","02,5,+00300,1,99,9","07,5,+00510,1,99,9",,"07,99,1,99,9,99,9,99999,9,99,9,99,9","10061,1,99999,9","36,1","86,5",,,"MET098SPECI ETSE 280910Z 26014KT 3800 SHSN DRSN FEW010 BKN017 M02/M03 Q1006 RESN BLACKGRN WHT TEMPO YLO;",
"10869099999","2010-01-28T09:15:00","4","48.322333","11.948667","461.77","ERDING, GM","FM-16","ETSE ","V020","260,1,N,0072,1","00510,1,C,N","006000,1,N,1","-0020,1","-0030,1","99999,9","02,5,+00300,1,99,9","07,5,+00510,1,99,9",,"07,99,1,99,9,99,9,99999,9,99,9,99,9","10061,1,99999,9","36,1","85,5",,"0123,1","MET102SPECI ETSE 280915Z 26014G24KT 6000 -SHSN DRSN FEW010 BKN017 M02/M03 Q1006 RESN BLACKWHT WHT TEMPO YLO;",
"10869099999","2010-01-28T09:20:00","4","48.322333","11.948667","461.77","ERDING, GM","FM-15","ETSE ","V020","260,1,N,0067,1","00510,1,C,N","011265,1,N,1","-0020,1","-0030,1","99999,9","02,5,+00300,1,99,9","07,5,+00510,1,99,9",,"07,99,1,99,9,99,9,99999,9,99,9,99,9","10061,1,99999,9","36,1","85,5",,"0123,1","MET102METAR ETSE 280920Z 26013G24KT 9999 -SHSN DRSN FEW010 BKN017 M02/M03 Q1006 RESN BLACKWHT WHT TEMPO YLO;",
"10869099999","2010-01-28T09:50:00","4","48.322333","11.948667","461.77","ERDING, GM","FM-16","ETSE ","V020","260,1,N,0062,1","00510,1,C,N","001200,1,N,1","-0020,1","-0030,1","99999,9","02,5,+00300,1,99,9","07,5,+00510,1,99,9","07,5,+00660,1,99,9","07,99,1,99,9,99,9,99999,9,99,9,99,9","10061,1,99999,9","36,1","86,5",,,"MET100SPECI ETSE 280950Z 26012KT 1200 SHSN DRSN FEW010 BKN017 BKN022 M02/M03 Q1006 BLACKAMB WHT TEMPO YLO;",
"10869099999","2010-01-28T09:56:00","4","48.322333","11.948667","461.77","ERDING, GM","FM-16","ETSE ","V020","260,1,N,0062,1","00510,1,C,N","001800,1,N,1","-0020,1","-0030,1","99999,9","02,5,+00300,1,99,9","07,5,+00510,1,99,9","07,5,+00660,1,99,9","07,99,1,99,9,99,9,99999,9,99,9,99,9","10061,1,99999,9","36,1","86,5",,,"MET100SPECI ETSE 280956Z 26012KT 1800 SHSN DRSN FEW010 BKN017 BKN022 M02/M03 Q1006 BLACKYLO WHT TEMPO YLO;",
"10869099999","2010-01-28T10:00:00","4","48.322333","11.948667","461.77","ERDING, GM","FM-16","ETSE ","V020","260,1,N,0062,1","00390,1,C,N","004000,1,N,1","-0020,1","-0030,1","99999,9","02,5,+00240,1,99,9","07,5,+00390,1,99,9","07,5,+00660,1,99,9","07,99,1,99,9,99,9,99999,9,99,9,99,9","10061,1,99999,9","36,1","85,5",,,"MET106SPECI ETSE 281000Z 26012KT 4000 -SHSN DRSN FEW008 BKN013 BKN022 M02/M03 Q1006 RESN BLACKGRN WHT TEMPO YLO;",
"10869099999","2010-01-28T10:09:00","4","48.322333","11.948667","461.77","ERDING, GM","FM-16","ETSE ","V020","260,1,N,0062,1","00390,1,C,N","007000,1,N,1","-0020,1","-0030,1","99999,9","02,5,+00240,1,99,9","07,5,+00390,1,99,9","07,5,+00660,1,99,9","07,99,1,99,9,99,9,99999,9,99,9,99,9","10061,1,99999,9","36,1","85,5",,,"MET106SPECI ETSE 281009Z 26012KT 7000 -SHSN DRSN FEW008 BKN013 BKN022 M02/M03 Q1006 RESN BLACKGRN WHT TEMPO YLO;",
"10869099999","2010-01-28T10:20:00","4","48.322333","11.948667","461.77","ERDING, GM","FM-15","ETSE ","V020","270,1,N,0062,1","00390,1,C,N","007000,1,N,1","-0020,1","-0030,1","99999,9","02,5,+00240,1,99,9","07,5,+00390,1,99,9","07,5,+00720,1,99,9","07,99,1,99,9,99,9,99999,9,99,9,99,9","10061,1,99999,9","36,1","85,5",,,"MET106METAR ETSE 281020Z 27012KT 7000 -SHSN DRSN FEW008 BKN013 BKN024 M02/M03 Q1006 RESN BLACKGRN WHT TEMPO YLO;",
"10869099999","2010-01-28T10:52:00","4","48.322333","11.948667","461.77","ERDING, GM","FM-16","ETSE ","V020","260,1,N,0062,1","00390,1,C,N","011265,1,N,1","-0010,1","-0030,1","99999,9","02,5,+00240,1,99,9","04,5,+00390,1,99,9","07,5,+00720,1,99,9","07,99,1,99,9,99,9,99999,9,99,9,99,9","10051,1,99999,9","36,1","85,5",,,"MET101SPECI ETSE 281052Z 26012KT 9999 -SHSN DRSN FEW008 SCT013 BKN024 M01/M03 Q1005 BLACKWHT WHT TEMPO YLO;",
"10869099999","2010-01-28T11:20:00","4","48.322333","11.948667","461.77","ERDING, GM","FM-15","ETSE ","V020","270,1,N,0072,1","00390,1,C,N","011265,1,N,1","-0010,1","-0040,1","99999,9","07,5,+00390,1,99,9","07,5,+00660,1,99,9",,"07,99,1,99,9,99,9,99999,9,99,9,99,9","10051,1,99999,9","36,1","85,5",,,"MET094METAR ETSE 281120Z 27014KT 9999 -SHSN DRSN BKN013 BKN022 M01/M04 Q1005 BLACKGRN WHT TEMPO YLO;",
"10869099999","2010-01-28T12:20:00","4","48.322333","11.948667","461.77","ERDING, GM","FM-15","ETSE ","V020","280,1,N,0082,1","00510,1,C,N","011265,1,N,1","-0010,1","-0030,1","99999,9","07,5,+00510,1,99,9",,,"07,99,1,99,9,99,9,99999,9,99,9,99,9","10051,1,99999,9","36,1",,,,"MET081METAR ETSE 281220Z 28016KT 9999 DRSN BKN017 M01/M03 Q1005 BLACKWHT WHT TEMPO YLO;",
"10869099999","2010-01-28T13:20:00","4","48.322333","11.948667","461.77","ERDING, GM","FM-15","ETSE ","V020","270,1,N,0067,1","00450,1,C,N","011265,1,N,1","-0010,1","-0040,1","99999,9","07,5,+00450,1,99,9",,,"07,99,1,99,9,99,9,99999,9,99,9,99,9","10041,1,99999,9","36,1",,,,"MET081METAR ETSE 281320Z 27013KT 9999 DRSN BKN015 M01/M04 Q1004 BLACKWHT WHT TEMPO YLO;",
"10869099999","2010-01-28T14:20:00","4","48.322333","11.948667","461.77","ERDING, GM","FM-15","ETSE ","V020","270,1,N,0067,1","00450,1,C,N","011265,1,N,1","-0010,1","-0030,1","99999,9","07,5,+00450,1,99,9","07,5,+01800,1,99,9",,"07,99,1,99,9,99,9,99999,9,99,9,99,9","10041,1,99999,9","36,1","71,1",,,"MET092METAR ETSE 281420Z 27013KT 9999 -SN DRSN BKN015 BKN060 M01/M03 Q1004 BLACKWHT WHT TEMPO YLO;",
"10869099999","2010-01-28T15:20:00","4","48.322333","11.948667","461.77","ERDING, GM","FM-15","ETSE ","V020","260,1,N,0062,1","00450,1,C,N","011265,1,N,1","-0010,1","-0040,1","99999,9","02,5,+00300,1,99,9","04,5,+00450,1,99,9","07,5,+01650,5,99,9","07,99,1,99,9,99,9,99999,9,99,9,99,9","10031,1,99999,9","36,1",,,,"MET093METAR ETSE 281520Z 26012KT 9999 DRSN FEW010 SCT015 BKN055 M01/M04 Q1003 BLACKBLU FCST CANCEL;",
"10869099999","2010-01-29T06:20:00","4","48.322333","11.948667","461.77","ERDING, GM","FM-15","ETSE ","V020","250,1,N,0062,1","00600,1,C,N","011265,1,N,1","+0000,1","-0030,1","99999,9","02,5,+00360,1,99,9","04,5,+00600,1,99,9","07,5,+01650,5,99,9","07,99,1,99,9,99,9,99999,9,99,9,99,9","09970,1,99999,9","36,1","71,1",,,"MET099METAR ETSE 290620Z 25012KT 9999 -SN DRSN FEW012 SCT020 BKN055 M00/M03 Q0997 BLACKBLU BLU TEMPO GRN;",
"10869099999","2010-01-29T07:20:00","4","48.322333","11.948667","461.77","ERDING, GM","FM-15","ETSE ","V020","250,1,N,0051,1","01050,1,C,N","011265,1,N,1","-0010,1","-0030,1","99999,9","02,5,+00600,1,99,9","07,5,+01050,1,99,9","07,5,+01650,5,99,9","07,99,1,99,9,99,9,99999,9,99,9,99,9","09970,1,99999,9","36,1","71,1",,,"MET099METAR ETSE 290720Z 25010KT 9999 -SN DRSN FEW020 BKN035 BKN055 M01/M03 Q0997 BLACKBLU BLU TEMPO GRN;",
"10869099999","2010-01-29T08:20:00","4","48.322333","11.948667","461.77","ERDING, GM","FM-15","ETSE ","V020","240,1,N,0057,1","01050,1,C,N","011265,1,N,1","-0010,1","-0030,1","99999,9","02,5,+00450,1,99,9","07,5,+01050,1,99,9",,"07,99,1,99,9,99,9,99999,9,99,9,99,9","09959,1,99999,9","71,1",,,,"MET085METAR ETSE 290820Z 24011KT 9999 -SN FEW015 BKN035 M01/M03 Q0996 BLACKBLU FCST CANCEL;",
"10869099999","2010-02-01T06:20:00","4","48.322333","11.948667","461.77","ERDING, GM","FM-15","ETSE ","V020","250,1,N,0036,1","01950,5,C,N","011265,1,N,1","-0030,1","-0070,1","99999,9","04,5,+01290,1,99,9","07,5,+01950,5,99,9",,"07,99,1,99,9,99,9,99999,9,99,9,99,9","10102,1,99999,9",,,,,"MET069METAR ETSE 010620Z 25007KT 9999 SCT043 BKN065 M03/M07 Q1010 BLACKBLU;",
"10869099999","2010-02-01T07:20:00","4","48.322333","11.948667","461.77","ERDING, GM","FM-15","ETSE ","V020","250,1,N,0036,1","01650,5,C,N","011265,1,N,1","-0030,1","-0070,1","99999,9","02,5,+01290,1,99,9","07,5,+01650,5,99,9",,"07,99,1,99,9,99,9,99999,9,99,9,99,9","10108,1,99999,9",,,,,"MET069METAR ETSE 010720Z 25007KT 9999 FEW043 BKN055 M03/M07 Q1011 BLACKBLU;",
"10869099999","2010-02-01T08:20:00","4","48.322333","11.948667","461.77","ERDING, GM","FM-15","ETSE ","V020","250,1,N,0041,1","01830,5,C,N","011265,1,N,1","-0030,1","-0070,1","99999,9","04,5,+01380,1,99,9","07,5,+01830,5,99,9",,"07,99,1,99,9,99,9,99999,9,99,9,99,9","10108,1,99999,9",,,,,"MET069METAR ETSE 010820Z 25008KT 9999 SCT046 BKN061 M03/M07 Q1011 BLACKBLU;",
"10869099999","2010-02-01T09:20:00","4","48.322333","11.948667","461.77","ERDING, GM","FM-15","ETSE ","V020","240,1,N,0046,1","01770,5,C,N","011265,1,N,1","-0030,1","-0070,1","99999,9","04,5,+01260,1,99,9","07,5,+01770,5,99,9",,"07,99,1,99,9,99,9,99999,9,99,9,99,9","10108,1,99999,9",,,,,"MET069METAR ETSE 010920Z 24009KT 9999 SCT042 BKN059 M03/M07 Q1011 BLACKBLU;",
"10869099999","2010-02-01T10:20:00","4","48.322333","11.948667","461.77","ERDING, GM","FM-15","ETSE ","V020","250,1,N,0051,1","99999,9,C,N","011265,1,N,1","-0020,1","-0080,1","99999,9","02,5,+00750,1,99,9","04,5,+01680,5,99,9",,"04,99,1,99,9,99,9,99999,9,99,9,99,9","10108,1,99999,9",,,,,"MET070METAR ETSE 011020Z 25010KT 9999 FEW025 SCT056 M02/M08 Q1011 BLACKBLU/;","P01 016803SCOCIG"
"10869099999","2010-02-01T11:20:00","4","48.322333","11.948667","461.77","ERDING, GM","FM-15","ETSE ","V020","250,1,N,0041,1","99999,9,C,N","011265,1,N,1","-0020,1","-0080,1","99999,9","02,5,+00750,1,99,9","04,5,+05100,1,99,9",,"04,99,1,99,9,99,9,99999,9,99,9,99,9","10108,1,99999,9",,,,,"MET070METAR ETSE 011120Z 25008KT 9999 FEW025 SCT170 M02/M08 Q1011 BLACKBLU/;","P01 051003SCOCIG"
"10869099999","2010-02-01T12:20:00","4","48.322333","11.948667","461.77","ERDING, GM","FM-15","ETSE ","V020","260,1,N,0057,1","99999,9,C,N","011265,1,N,1","-0030,1","-0090,1","99999,9","02,5,+00900,1,99,9","04,5,+05100,1,99,9",,"04,99,1,99,9,99,9,99999,9,99,9,99,9","10102,1,99999,9",,,,,"MET070METAR ETSE 011220Z 26011KT 9999 FEW030 SCT170 M03/M09 Q1010 BLACKBLU/;","P01 051003SCOCIG"
"10869099999","2010-02-01T13:20:00","4","48.322333","11.948667","461.77","ERDING, GM","FM-15","ETSE ","V020","260,1,N,0046,1","99999,9,C,N","011265,1,N,1","-0020,1","-0090,1","99999,9","02,5,+01050,1,99,9","04,5,+06900,1,99,9",,"04,99,1,99,9,99,9,99999,9,99,9,99,9","10102,1,99999,9",,,,,"MET070METAR ETSE 011320Z 26009KT 9999 FEW035 SCT230 M02/M09 Q1010 BLACKBLU/;","P01 069003SCOCIG"
"10869099999","2010-02-01T14:20:00","4","48.322333","11.948667","461.77","ERDING, GM","FM-15","ETSE ","V020","260,1,N,0046,1","02700,1,C,N","011265,1,N,1","-0020,1","-0090,1","99999,9","02,5,+01200,1,99,9","04,5,+02700,1,99,9","07,5,+06900,1,99,9","07,99,1,99,9,99,9,99999,9,99,9,99,9","10102,1,99999,9",,,,,"MET077METAR ETSE 011420Z 26009KT 9999 FEW040 SCT090 BKN230 M02/M09 Q1010 BLACKBLU/;",
"10869099999","2010-02-01T15:20:00","4","48.322333","11.948667","461.77","ERDING, GM","FM-15","ETSE ","V020","260,1,N,0067,1","01500,1,C,N","011265,1,N,1","-0030,1","-0070,1","99999,9","02,5,+01080,1,99,9","07,5,+01500,1,99,9",,"07,99,1,99,9,99,9,99999,9,99,9,99,9","10108,1,99999,9","36,1","71,1",,,"MET078METAR ETSE 011520Z 26013KT 9999 -SN DRSN FEW036 BKN050 M03/M07 Q1011 BLACKBLU;",
"10869099999","2010-02-02T06:20:00","4","48.322333","11.948667","461.77","ERDING, GM","FM-15","ETSE ","V020","260,1,N,0051,1","00390,1,C,N","009000,1,N,1","-0020,1","-0040,1","99999,9","02,5,+00120,1,99,9","04,5,+00390,1,99,9","07,5,+00720,1,99,9","07,99,1,99,9,99,9,99999,9,99,9,99,9","10169,1,99999,9","36,1","71,1",,,"MET099METAR ETSE 020620Z 26010KT 9000 -SN DRSN FEW004 SCT013 BKN024 M02/M04 Q1017 BLACKWHT WHT TEMPO AMB;",
"10869099999","2010-02-02T06:53:00","4","48.322333","11.948667","461.77","ERDING, GM","FM-16","ETSE ","V020","270,1,N,0041,1","00390,1,C,N","003200,1,N,1","-0030,1","-0040,1","99999,9","02,5,+00120,1,99,9","04,5,+00390,1,99,9","07,5,+00780,1,99,9","07,99,1,99,9,99,9,99999,9,99,9,99,9","10169,1,99999,9","36,1","73,1",,,"MET098SPECI ETSE 020653Z 27008KT 3200 SN DRSN FEW004 SCT013 BKN026 M03/M04 Q1017 BLACKYLO WHT TEMPO AMB;",
"10869099999","2010-02-02T07:00:00","4","48.322333","11.948667","461.77","ERDING, GM","FM-15","ETSE ","V020","270,1,N,0041,1","00390,1,C,N","007000,1,N,1","-0030,1","-0040,1","99999,9","02,5,+00120,1,99,9","04,5,+00390,1,99,9","07,5,+00780,1,99,9","07,99,1,99,9,99,9,99999,9,99,9,99,9","10169,1,99999,9","36,1","71,1",,,"MET104SPECI ETSE 020657Z 27008KT 7000 -SN DRSN FEW004 SCT013 BKN026 M03/M04 Q1017 RESN BLACKWHT WHT TEMPO AMB;",
"10869099999","2010-02-02T07:20:00","4","48.322333","11.948667","461.77","ERDING, GM","FM-15","ETSE ","V020","270,1,N,0051,1","00540,1,C,N","011265,1,N,1","-0020,1","-0050,1","99999,9","02,5,+00180,1,99,9","04,5,+00540,1,99,9","07,5,+01500,1,99,9","07,99,1,99,9,99,9,99999,9,99,9,99,9","10169,1,99999,9","36,1",,,,"MET100METAR ETSE 020720Z 27010KT 9999 DRSN FEW006 SCT018 BKN050 M02/M05 Q1017 RESN BLACKBLU WHT TEMPO AMB;",
"10869099999","2010-02-02T08:20:00","4","48.322333","11.948667","461.77","ERDING, GM","FM-15","ETSE ","V020","270,1,N,0046,1","01500,1,C,N","011265,1,N,1","-0020,1","-0050,1","99999,9","02,5,+00600,1,99,9","07,5,+01500,1,99,9",,"07,99,1,99,9,99,9,99999,9,99,9,99,9","10180,1,99999,9","36,1",,,,"MET088METAR ETSE 020820Z 27009KT 9999 R26/0200N DRSN FEW020 BKN050 M02/M05 Q1018 BLACKBLU BLU;",
"10869099999","2010-02-02T09:20:00","4","48.322333","11.948667","461.77","ERDING, GM","FM-15","ETSE ","V020","260,1,N,0057,1","01650,5,C,N","011265,1,N,1","-0010,1","-0050,1","99999,9","02,5,+00450,1,99,9","07,5,+01650,5,99,9",,"07,99,1,99,9,99,9,99999,9,99,9,99,9","10180,1,99999,9","36,1",,,,"MET078METAR ETSE 020920Z 26011KT 9999 DRSN FEW015 BKN055 M01/M05 Q1018 BLACKBLU BLU;",
"10869099999","2010-02-02T10:20:00","4","48.322333","11.948667","461.77","ERDING, GM","FM-15","ETSE ","V020","260,1,N,0057,1","22000,1,9,N","011265,1,N,1","-0010,1","-0060,1","99999,9","02,5,+00450,1,99,9",,,"02,99,1,99,9,99,9,99999,9,99,9,99,9","10169,1,99999,9","36,1",,,,"MET082METAR ETSE 021020Z 26011KT 9999 DRSN FEW015 M01/M06 Q1017 BLACKBLU/BLU TEMPO BLU/;",
"10869099999","2010-02-02T11:20:00","4","48.322333","11.948667","461.77","ERDING, GM","FM-15","ETSE ","V020","270,1,N,0062,1","01050,1,C,N","011265,1,N,1","+0000,1","-0060,1","99999,9","02,5,+00600,1,99,9","04,5,+01050,1,99,9","07,5,+06900,1,99,9","07,99,1,99,9,99,9,99999,9,99,9,99,9","10169,1,99999,9","36,1",,,,"MET086METAR ETSE 021120Z 27012KT 9999 DRSN FEW020 SCT035 BKN230 M00/M06 Q1017 BLACKBLU/BLU/;",
"10869099999","2010-02-02T12:20:00","4","48.322333","11.948667","461.77","ERDING, GM","FM-15","ETSE ","V020","260,1,N,0051,1","06900,1,C,N","011265,1,N,1","+0010,1","-0070,1","99999,9","02,5,+00900,1,99,9","07,5,+06900,1,99,9",,"07,99,1,99,9,99,9,99999,9,99,9,99,9","10149,1,99999,9","36,1",,,,"MET073METAR ETSE 021220Z 26010KT 9999 DRSN FEW030 BKN230 01/M07 Q1015 BLU/BLU/;",
"10869099999","2010-02-02T13:20:00","4","48.322333","11.948667","461.77","ERDING, GM","FM-15","ETSE ","V020","260,1,N,0051,1","06900,1,C,N","011265,1,N,1","+0020,1","-0070,1","99999,9","02,5,+00900,1,99,9","07,5,+06900,1,99,9",,"07,99,1,99,9,99,9,99999,9,99,9,99,9","10149,1,99999,9","36,1",,,,"MET073METAR ETSE 021320Z 26010KT 9999 DRSN FEW030 BKN230 02/M07 Q1015 BLU/BLU/;",
"10869099999","2010-02-02T14:20:00","4","48.322333","11.948667","461.77","ERDING, GM","FM-15","ETSE ","V020","260,1,N,0051,1","03300,1,C,N","011265,1,N,1","+0020,1","-0060,1","99999,9","02,5,+00900,1,99,9","04,5,+03300,1,99,9","07,5,+06900,1,99,9","07,99,1,99,9,99,9,99999,9,99,9,99,9","10149,1,99999,9","36,1",,,"0103,1","MET093METAR ETSE 021420Z 26010G20KT 9999 DRSN FEW030 SCT110 BKN230 02/M06 Q1015 BLU/BLU/ BECMG BLU;",
"10869099999","2010-02-02T15:20:00","4","48.322333","11.948667","461.77","ERDING, GM","FM-15","ETSE ","V020","240,1,N,0057,1","03000,1,C,N","011265,1,N,1","+0010,1","-0070,1","99999,9","02,5,+01050,1,99,9","04,5,+03000,1,99,9","07,5,+06000,1,99,9","07,99,1,99,9,99,9,99999,9,99,9,99,9","10139,1,99999,9","36,1",,,,"MET087METAR ETSE 021520Z 24011KT 9999 DRSN FEW035 SCT100 BKN200 01/M07 Q1014 BLU/FCST CANCEL;",
"10869099999","2010-02-03T06:20:00","4","48.322333","11.948667","461.77","ERDING, GM","FM-15","ETSE ","V020","250,1,N,0093,1","00390,1,C,N","011265,1,N,1","+0030,1","+0000,1","99999,9","02,5,+00300,1,99,9","07,5,+00390,1,99,9",,"07,99,1,99,9,99,9,99999,9,99,9,99,9","10061,1,99999,9","61,1","71,1",,"0170,1","MET071METAR ETSE 030620Z 25018G33KT 9999 -RASN FEW010 BKN013 03/00 Q1006 GRN;",
"10869099999","2010-02-03T07:20:00","4","48.322333","11.948667","461.77","ERDING, GM","FM-15","ETSE ","V020","260,1,N,0093,1","00450,1,C,N","011265,1,N,1","+0030,1","+0000,1","99999,9","02,5,+00300,1,99,9","07,5,+00450,1,99,9",,"07,99,1,99,9,99,9,99999,9,99,9,99,9","10061,1,99999,9","61,1",,,"0149,1","MET069METAR ETSE 030720Z 26018G29KT 9999 -RA FEW010 BKN015 03/00 Q1006 WHT;",
"10869099999","2010-02-03T08:20:00","4","48.322333","11.948667","461.77","ERDING, GM","FM-15","ETSE ","V020","260,1,N,0072,1","00540,1,C,N","011265,1,N,1","+0030,1","+0000,1","99999,9","07,5,+00540,1,99,9","07,5,+00990,1,99,9",,"07,99,1,99,9,99,9,99999,9,99,9,99,9","10071,1,99999,9","61,1",,,"0144,1","MET083METAR ETSE 030820Z 26014G28KT 9999 -RA BKN018 BKN033 03/00 Q1007 WHT WHT TEMPO GRN;",
"10869099999","2010-02-03T09:20:00","4","48.322333","11.948667","461.77","ERDING, GM","FM-15","ETSE ","V020","260,1,N,0077,1","00480,1,C,N","011265,1,N,1","+0030,1","+0000,1","99999,9","07,5,+00480,1,99,9",,,"07,99,1,99,9,99,9,99999,9,99,9,99,9","10081,1,99999,9","61,1",,,,"MET073METAR ETSE 030920Z 26015KT 9999 -RA BKN016 03/00 Q1008 WHT WHT TEMPO GRN;",
"10869099999","2010-02-03T10:20:00","4","48.322333","11.948667","461.77","ERDING, GM","FM-15","ETSE ","V020","260,1,N,0072,1","00540,1,C,N","011265,1,N,1","+0040,1","+0000,1","99999,9","07,5,+00540,1,99,9","07,5,+01500,1,99,9",,"07,99,1,99,9,99,9,99999,9,99,9,99,9","10091,1,99999,9",,,,"0134,1","MET079METAR ETSE 031020Z 26014G26KT 9999 BKN018 BKN050 04/00 Q1009 WHT WHT TEMPO GRN;",
"10869099999","2010-02-03T11:20:00","4","48.322333","11.948667","461.77","ERDING, GM","FM-15","ETSE ","V020","270,1,N,0087,1","00540,1,C,N","011265,1,N,1","+0040,1","+0000,1","99999,9","07,5,+00540,1,99,9","07,5,+01500,1,99,9",,"07,99,1,99,9,99,9,99999,9,99,9,99,9","10091,1,99999,9","61,1",,,"0144,1","MET083METAR ETSE 031120Z 27017G28KT 9999 -RA BKN018 BKN050 04/00 Q1009 WHT WHT TEMPO GRN;",
"10869099999","2010-02-03T12:20:00","4","48.322333","11.948667","461.77","ERDING, GM","FM-15","ETSE ","V020","270,1,N,0067,1","00540,1,C,N","011265,1,N,1","+0030,1","+0010,1","99999,9","07,5,+00540,1,99,9",,,"07,99,1,99,9,99,9,99999,9,99,9,99,9","10102,1,99999,9","61,1",,,"0118,1","MET076METAR ETSE 031220Z 27013G23KT 9999 -RA BKN018 03/01 Q1010 WHT WHT TEMPO GRN;",
"10869099999","2010-02-03T13:20:00","4","48.322333","11.948667","461.77","ERDING, GM","FM-15","ETSE ","V020","280,1,N,0067,1","00450,1,C,N","011265,1,N,1","+0030,1","+0010,1","99999,9","07,5,+00450,1,99,9",,,"07,99,1,99,9,99,9,99999,9,99,9,99,9","10102,1,99999,9","61,1",,,,"MET073METAR ETSE 031320Z 28013KT 9999 -RA BKN015 03/01 Q1010 WHT WHT TEMPO GRN;",
"10869099999","2010-02-03T13:47:00","4","48.322333","11.948667","461.77","ERDING, GM","FM-16","ETSE ","V020","290,1,N,0067,1","00390,1,C,N","009000,1,N,1","+0030,1","+0010,1","99999,9","07,5,+00390,1,99,9",,,"07,99,1,99,9,99,9,99999,9,99,9,99,9","10108,1,99999,9","61,1",,,,"MET073SPECI ETSE 031347Z 29013KT 9000 -RA BKN013 03/01 Q1011 GRN WHT TEMPO GRN;",
"10869099999","2010-02-03T14:20:00","4","48.322333","11.948667","461.77","ERDING, GM","FM-15","ETSE ","V020","350,1,N,0026,1","00330,1,C,N","007000,1,N,1","+0010,1","+0000,1","99999,9","02,5,+00180,1,99,9","07,5,+00330,1,99,9",,"07,99,1,99,9,99,9,99999,9,99,9,99,9","10119,1,99999,9","61,1",,,,"MET080METAR ETSE 031420Z 35005KT 7000 -RA FEW006 BKN011 01/00 Q1012 GRN WHT TEMPO GRN;",
"10869099999","2010-02-03T15:20:00","4","48.322333","11.948667","461.77","ERDING, GM","FM-15","ETSE ","V020","280,1,N,0031,1","00330,1,C,N","011265,1,N,1","+0020,1","+0020,1","99999,9","02,5,+00180,1,99,9","07,5,+00330,1,99,9",,"07,99,1,99,9,99,9,99999,9,99,9,99,9","10119,1,99999,9","61,1",,,,"MET078METAR ETSE 031520Z 28006KT 9999 -RA FEW006 BKN011 02/02 Q1012 GRN FCST CANCEL;",
"10869099999","2010-02-04T06:19:00","4","48.322333","11.948667","461.77","ERDING, GM","FM-16","ETSE ","V020","160,1,N,0021,1","00720,1,C,N","011265,1,N,1","+0000,1","+0000,1","99999,9","07,5,+00720,1,99,9",,,"07,99,1,99,9,99,9,99999,9,99,9,99,9","10169,1,99999,9",,,,,"MET071SPECI ETSE 040619Z 16004KT 9999 BKN024 00/M00 Q1017 WHT BLU/ TEMPO WHT;",
"10869099999","2010-02-04T06:20:00","4","48.322333","11.948667","461.77","ERDING, GM","FM-15","ETSE ","V020","160,1,N,0021,1","00720,1,C,N","011265,1,N,1","+0000,1","+0000,1","99999,9","07,5,+00720,1,99,9",,,"07,99,1,99,9,99,9,99999,9,99,9,99,9","10169,1,99999,9",,,,,"MET071METAR ETSE 040620Z 16004KT 9999 BKN024 00/M00 Q1017 WHT BLU/ TEMPO WHT;",
"10869099999","2010-02-04T07:20:00","4","48.322333","11.948667","461.77","ERDING, GM","FM-15","ETSE ","V020","160,1,N,0021,1","00750,1,C,N","011265,1,N,1","+0010,1","+0000,1","99999,9","07,5,+00750,1,99,9","04,5,+04500,1,99,9",,,"10169,1,99999,9",,,,,"MET078METAR ETSE 040720Z 16004KT 9999 BKN025 SCT150 01/M00 Q1017 BLU BLU/ TEMPO WHT;","Q01+000042SCOTCV"
"10869099999","2010-02-04T08:20:00","4","48.322333","11.948667","461.77","ERDING, GM","FM-15","ETSE ","V020","130,1,N,0026,1","00690,1,C,N","011265,1,N,1","+0010,1","+0000,1","99999,9","07,5,+00690,1,99,9","04,5,+07200,1,99,9",,,"10159,1,99999,9",,,,,"MET078METAR ETSE 040820Z 13005KT 9999 BKN023 SCT240 01/M00 Q1016 WHT BLU/ TEMPO WHT;","Q01+000042SCOTCV"
"10869099999","2010-02-04T09:20:00","4","48.322333","11.948667","461.77","ERDING, GM","FM-15","ETSE ","V020","120,1,N,0021,1","07200,1,C,N","011265,1,N,1","+0020,1","+0000,1","99999,9","02,5,+00660,1,99,9","07,5,+07200,1,99,9",,"07,99,1,99,9,99,9,99999,9,99,9,99,9","10159,1,99999,9",,,,,"MET067METAR ETSE 040920Z 12004KT 9999 FEW022 BKN240 02/00 Q1016 BLU/BLU/;",
"10869099999","2010-02-04T10:20:00","4","48.322333","11.948667","461.77","ERDING, GM","FM-15","ETSE ","V020","110,1,N,0021,1","07200,1,C,N","011265,1,N,1","+0030,1","+0010,1","99999,9","02,5,+00630,1,99,9","07,5,+07200,1,99,9",,"07,99,1,99,9,99,9,99999,9,99,9,99,9","10159,1,99999,9",,,,,"MET067METAR ETSE 041020Z 11004KT 9999 FEW021 BKN240 03/01 Q1016 BLU/BLU/;",
"10869099999","2010-02-04T11:20:00","4","48.322333","11.948667","461.77","ERDING, GM","FM-15","ETSE ","V020","120,1,N,0021,1","07200,1,C,N","011265,1,N,1","+0040,1","+0010,1","99999,9","02,5,+03900,1,99,9","07,5,+07200,1,99,9",,"07,99,1,99,9,99,9,99999,9,99,9,99,9","10149,1,99999,9",,,,,"MET067METAR ETSE 041120Z 12004KT 9999 FEW130 BKN240 04/01 Q1015 BLU/BLU/;",
"10869099999","2010-02-04T12:20:00","4","48.322333","11.948667","461.77","ERDING, GM","FM-15","ETSE ","V020","110,1,N,0031,1","07200,1,C,N","011265,1,N,1","+0040,1","+0010,1","99999,9","02,5,+04500,1,99,9","07,5,+07200,1,99,9",,"07,99,1,99,9,99,9,99999,9,99,9,99,9","10149,1,99999,9",,,,,"MET067METAR ETSE 041220Z 11006KT 9999 FEW150 BKN240 04/01 Q1015 BLU/BLU/;",
"10869099999","2010-02-04T13:20:00","4","48.322333","11.948667","461.77","ERDING, GM","FM-15","ETSE ","V020","120,1,N,0031,1","07200,1,C,N","011265,1,N,1","+0040,1","+0020,1","99999,9","02,5,+04500,1,99,9","07,5,+07200,1,99,9",,"07,99,1,99,9,99,9,99999,9,99,9,99,9","10149,1,99999,9",,,,,"MET067METAR ETSE 041320Z 12006KT 9999 FEW150 BKN240 04/02 Q1015 BLU/BLU/;",
"10869099999","2010-02-04T14:20:00","4","48.322333","11.948667","461.77","ERDING, GM","FM-15","ETSE ","V020","120,1,N,0046,1","06900,1,C,N","011265,1,N,1","+0030,1","+0010,1","99999,9","02,5,+03900,1,99,9","07,5,+06900,1,99,9",,"07,99,1,99,9,99,9,99999,9,99,9,99,9","10139,1,99999,9","40,1",,,,"MET072METAR ETSE 041420Z 12009KT 9999 VCFG FEW130 BKN230 03/01 Q1014 BLU/BLU/;",
"10869099999","2010-02-04T14:24:00","4","48.322333","11.948667","461.77","ERDING, GM","FM-16","ETSE ","V020","120,1,N,0051,1","06900,1,C,N","003600,1,N,1","+0020,1","+0010,1","99999,9","02,5,+03900,1,99,9","07,5,+06900,1,99,9",,"07,99,1,99,9,99,9,99999,9,99,9,99,9","10139,1,99999,9","40,1",,,,"MET082SPECI ETSE 041424Z 12010KT 3600 VCFG FEW130 BKN230 02/01 Q1014 YLO BLU/ TEMPO RED;",
"10869099999","2010-02-04T14:31:00","4","48.322333","11.948667","461.77","ERDING, GM","FM-16","ETSE ","V020","120,1,N,0051,1","06900,1,C,N","001400,1,N,1","+0020,1","+0010,1","99999,9","02,5,+03900,1,99,9","07,5,+06900,1,99,9",,"07,99,1,99,9,99,9,99999,9,99,9,99,9","10139,1,99999,9","40,1",,,,"MET092SPECI ETSE 041431Z 12010KT 1400 R08/3000D VCFG FEW130 BKN230 02/01 Q1014 AMB BLU/ TEMPO RED;",
"10869099999","2010-02-04T14:34:00","4","48.322333","11.948667","461.77","ERDING, GM","FM-16","ETSE ","V020","120,1,N,0051,1","00030,1,9,N","000700,1,N,1","+0010,1","+0010,1","99999,9","09,1,+00030,1,99,9",,,"09,99,1,99,9,99,9,00025,1,99,9,99,9","10139,1,99999,9","45,1",,,,"MET082SPECI ETSE 041434Z 12010KT 0700 R08/0900D FG VV001 01/01 Q1014 RED BLU/ TEMPO RED;",
"10869099999","2010-02-04T15:20:00","4","48.322333","11.948667","461.77","ERDING, GM","FM-15","ETSE ","V020","110,1,N,0041,1","00030,1,9,N","000600,1,N,1","+0010,1","+0010,1","99999,9","09,1,+00030,1,99,9",,,"09,99,1,99,9,99,9,00025,1,99,9,99,9","10139,1,99999,9","45,1",,,,"MET069METAR ETSE 041520Z 11008KT 0600 FG VV001 01/01 Q1014 RED FCST CANCEL;",
"10869099999","2010-02-05T06:20:00","4","48.322333","11.948667","461.77","ERDING, GM","FM-15","ETSE ","V020","120,1,N,0031,1","00030,1,9,N","000500,1,N,1","-0020,1","-0020,1","99999,9","09,1,+00030,1,99,9",,,"09,99,1,99,9,99,9,00025,1,99,9,99,9","10102,1,99999,9","49,1",,,,"MET065METAR ETSE 050620Z 12006KT 0500 FZFG VV001 M02/M02 Q1010 RED RED;",
"10869099999","2010-02-05T06:43:00","4","48.322333","11.948667","461.77","ERDING, GM","FM-16","ETSE ","V020","110,1,N,0031,1","00030,1,9,N","000800,1,N,1","-0020,1","-0020,1","99999,9","09,1,+00030,1,99,9",,,"09,99,1,99,9,99,9,00025,1,99,9,99,9","10102,1,99999,9","49,1",,,,"MET075SPECI ETSE 050643Z 11006KT 0800 FZFG VV001 M02/M02 Q1010 RED RED BECMG AMB;",
"10869099999","2010-02-05T07:06:00","4","48.322333","11.948667","461.77","ERDING, GM","FM-16","ETSE ","V020","120,1,N,0036,1","00060,1,C,N","001400,1,N,1","-0020,1","-0020,1","99999,9","02,5,+00000,5,99,9","08,5,+00060,1,99,9",,"08,99,1,99,9,99,9,99999,9,99,9,99,9","10102,1,99999,9","10,1",,,,"MET071SPECI ETSE 050706Z 12007KT 1400 BR FEW000 OVC002 M02/M02 Q1010 AMB AMB;",
"10869099999","2010-02-05T07:20:00","4","48.322333","11.948667","461.77","ERDING, GM","FM-15","ETSE ","V020","110,1,N,0036,1","00030,1,C,N","001200,1,N,1","-0020,1","-0020,1","99999,9","02,5,+00000,5,99,9","08,5,+00030,1,99,9",,"08,99,1,99,9,99,9,99999,9,99,9,99,9","10102,1,99999,9","10,1",,,,"MET081METAR ETSE 050720Z 11007KT 1200 BR FEW000 OVC001 M02/M02 Q1010 RED AMB TEMPO RED;",
"10869099999","2010-02-05T07:49:00","4","48.322333","11.948667","461.77","ERDING, GM","FM-16","ETSE ","V020","100,1,N,0036,1","00015,1,9,N","000400,1,N,1","-0020,1","-0020,1","99999,9","09,1,+00015,1,99,9",,,"09,99,1,99,9,99,9,00025,1,99,9,99,9","10102,1,99999,9","49,1",,,,"MET075SPECI ETSE 050749Z 10007KT 0400 FZFG VV000 M02/M02 Q1010 RED AMB TEMPO RED;",
"10869099999","2010-02-05T08:20:00","4","48.322333","11.948667","461.77","ERDING, GM","FM-15","ETSE ","V020","110,1,N,0036,1","00030,1,C,N","000600,1,N,1","-0020,1","-0020,1","99999,9","08,5,+00030,1,99,9",,,"08,99,1,99,9,99,9,99999,9,99,9,99,9","10102,1,99999,9","48,1",,,,"MET076METAR ETSE 050820Z 11007KT 0600 FZFG OVC001 M02/M02 Q1010 RED RED BECMG AMB;",
"10869099999","2010-02-05T08:39:00","4","48.322333","11.948667","461.77","ERDING, GM","FM-16","ETSE ","V020","110,1,N,0041,1","00030,1,C,N","000900,1,N,1","-0020,1","-0020,1","99999,9","08,5,+00030,1,99,9",,,"08,99,1,99,9,99,9,99999,9,99,9,99,9","10102,1,99999,9","48,1",,,,"MET076SPECI ETSE 050839Z 11008KT 0900 FZFG OVC001 M02/M02 Q1010 RED RED BECMG AMB;",
"10869099999","2010-02-05T09:49:00","4","48.322333","11.948667","461.77","ERDING, GM","FM-16","ETSE ","V020","100,1,N,0041,1","00060,1,C,N","001500,1,N,1","-0010,1","-0010,1","99999,9","08,5,+00060,1,99,9",,,"08,99,1,99,9,99,9,99999,9,99,9,99,9","10102,1,99999,9","10,1",,,,"MET064SPECI ETSE 050949Z 10008KT 1500 BR OVC002 M01/M01 Q1010 AMB AMB;",
"10869099999","2010-02-05T10:20:00","4","48.322333","11.948667","461.77","ERDING, GM","FM-15","ETSE ","V020","090,1,N,0031,1","00090,1,C,N","001800,1,N,1","-0010,1","-0010,1","99999,9","08,5,+00090,1,99,9",,,"08,99,1,99,9,99,9,99999,9,99,9,99,9","10091,1,99999,9","10,1",,,,"MET072METAR ETSE 051020Z 09006KT 1800 BR OVC003 M01/M01 Q1009 YLO FCST CANCEL;",
"10869099999","2010-02-08T06:20:00","4","48.322333","11.948667","461.77","ERDING, GM","FM-15","ETSE ","V020","090,1,N,0026,1","00180,1,C,N","004000,1,N,1","-0040,1","-0050,1","99999,9","08,5,+00180,1,99,9",,,"08,99,1,99,9,99,9,99999,9,99,9,99,9","10119,1,99999,9","10,1",,,,"MET060METAR ETSE 080620Z 09005KT 4000 BR OVC006 M04/M05 Q1012 YLO;",
"10869099999","2010-02-08T07:20:00","4","48.322333","11.948667","461.77","ERDING, GM","FM-15","ETSE ","V020","080,1,N,0026,1","00300,1,C,N","004500,1,N,1","-0040,1","-0050,1","99999,9","04,5,+00180,1,99,9","07,5,+00300,1,99,9",,"07,99,1,99,9,99,9,99999,9,99,9,99,9","10108,1,99999,9","10,1",,,,"MET067METAR ETSE 080720Z 08005KT 4500 BR SCT006 BKN010 M04/M05 Q1011 GRN;",
"10869099999","2010-02-08T08:20:00","4","48.322333","11.948667","461.77","ERDING, GM","FM-15","ETSE ","V020","090,1,N,0036,1","00300,1,C,N","006000,1,N,1","-0040,1","-0050,1","99999,9","02,5,+00180,1,99,9","07,5,+00300,1,99,9",,"07,99,1,99,9,99,9,99999,9,99,9,99,9","10108,1,99999,9",,,,,"MET064METAR ETSE 080820Z 09007KT 6000 FEW006 BKN010 M04/M05 Q1011 GRN;",
"10869099999","2010-02-08T09:20:00","4","48.322333","11.948667","461.77","ERDING, GM","FM-15","ETSE ","V020","070,1,N,0041,1","00270,1,C,N","007000,1,N,1","-0040,1","-0050,1","99999,9","07,5,+00270,1,99,9",,,"07,99,1,99,9,99,9,99999,9,99,9,99,9","10102,1,99999,9",,,,,"MET057METAR ETSE 080920Z 07008KT 7000 BKN009 M04/M05 Q1010 GRN;",
"10869099999","2010-02-08T10:20:00","4","48.322333","11.948667","461.77","ERDING, GM","FM-15","ETSE ","V020","090,1,N,0041,1","00270,1,C,N","007000,1,N,1","-0040,1","-0050,1","99999,9","07,5,+00270,1,99,9",,,"07,99,1,99,9,99,9,99999,9,99,9,99,9","10091,1,99999,9",,,,,"MET057METAR ETSE 081020Z 09008KT 7000 BKN009 M04/M05 Q1009 GRN;",
"10869099999","2010-02-08T11:20:00","4","48.322333","11.948667","461.77","ERDING, GM","FM-15","ETSE ","V020","110,1,N,0041,1","00240,1,C,N","007000,1,N,1","-0040,1","-0050,1","99999,9","07,5,+00240,1,99,9",,,"07,99,1,99,9,99,9,99999,9,99,9,99,9","10081,1,99999,9",,,,,"MET061METAR ETSE 081120Z 11008KT 7000 BKN008 M04/M05 Q1008 GRN GRN;",
"10869099999","2010-02-08T12:20:00","4","48.322333","11.948667","461.77","ERDING, GM","FM-15","ETSE ","V020","060,1,N,0046,1","00240,1,C,N","007000,1,N,1","-0030,1","-0050,1","99999,9","07,5,+00240,1,99,9",,,"07,99,1,99,9,99,9,99999,9,99,9,99,9","10081,1,99999,9",,,,,"MET061METAR ETSE 081220Z 06009KT 7000 BKN008 M03/M05 Q1008 GRN GRN;",
"10869099999","2010-02-08T13:20:00","4","48.322333","11.948667","461.77","ERDING, GM","FM-15","ETSE ","V020","060,1,N,0046,1","00240,1,C,N","008000,1,N,1","-0040,1","-0050,1","99999,9","07,5,+00240,1,99,9",,,"07,99,1,99,9,99,9,99999,9,99,9,99,9","10071,1,99999,9",,,,,"MET061METAR ETSE 081320Z 06009KT 8000 BKN008 M04/M05 Q1007 GRN GRN;",
"10869099999","2010-02-08T14:20:00","4","48.322333","11.948667","461.77","ERDING, GM","FM-15","ETSE ","V020","070,1,N,0041,1","00240,1,C,N","008000,1,N,1","-0040,1","-0050,1","99999,9","07,5,+00240,1,99,9",,,"07,99,1,99,9,99,9,99999,9,99,9,99,9","10061,1,99999,9",,,,,"MET061METAR ETSE 081420Z 07008KT 8000 BKN008 M04/M05 Q1006 GRN GRN;",
"10869099999","2010-02-08T15:20:00","4","48.322333","11.948667","461.77","ERDING, GM","FM-15","ETSE ","V020","070,1,N,0046,1","00240,1,C,N","008000,1,N,1","-0040,1","-0050,1","99999,9","07,5,+00240,1,99,9",,,"07,99,1,99,9,99,9,99999,9,99,9,99,9","10061,1,99999,9",,,,,"MET069METAR ETSE 081520Z 07009KT 8000 BKN008 M04/M05 Q1006 GRN FCST CANCEL;",
"10869099999","2010-02-09T05:20:00","4","48.322333","11.948667","461.77","ERDING, GM","FM-15","ETSE ","V020","080,1,N,0031,1","00120,1,C,N","003800,1,N,1","-0060,1","-0060,1","99999,9","08,5,+00120,1,99,9",,,"08,99,1,99,9,99,9,99999,9,99,9,99,9","10031,1,99999,9","10,1","56,1",,,"MET070METAR ETSE 090520Z 08006KT 3800 -FZDZ BR OVC004 M06/M06 Q1003 YLO YLO;",
"10869099999","2010-02-09T06:20:00","4","48.322333","11.948667","461.77","ERDING, GM","FM-15","ETSE ","V020","090,1,N,0036,1","00120,1,C,N","002500,1,N,1","-0060,1","-0060,1","99999,9","02,5,+00090,1,99,9","08,5,+00120,1,99,9",,"08,99,1,99,9,99,9,99999,9,99,9,99,9","10031,1,99999,9","10,1","56,1",,,"MET077METAR ETSE 090620Z 09007KT 2500 -FZDZ BR FEW003 OVC004 M06/M06 Q1003 YLO YLO;",
"10869099999","2010-02-09T07:20:00","4","48.322333","11.948667","461.77","ERDING, GM","FM-15","ETSE ","V020","090,1,N,0036,1","00120,1,C,N","002500,1,N,1","-0060,1","-0060,1","99999,9","04,5,+00090,1,99,9","08,5,+00120,1,99,9",,"08,99,1,99,9,99,9,99999,9,99,9,99,9","10031,1,99999,9","10,1","56,1",,,"MET077METAR ETSE 090720Z 09007KT 2500 -FZDZ BR SCT003 OVC004 M06/M06 Q1003 YLO YLO;",
"10869099999","2010-02-09T08:20:00","4","48.322333","11.948667","461.77","ERDING, GM","FM-15","ETSE ","V020","100,1,N,0031,1","00090,1,C,N","002800,1,N,1","-0060,1","-0060,1","99999,9","07,5,+00090,1,99,9",,,"07,99,1,99,9,99,9,99999,9,99,9,99,9","10031,1,99999,9","10,1","56,1",,,"MET075METAR ETSE 090820Z 10006KT 2800 -FZDZ BR BKN003 M06/M06 Q1003 BLACKYLO YLO;",
"10869099999","2010-02-09T09:20:00","4","48.322333","11.948667","461.77","ERDING, GM","FM-15","ETSE ","V020","090,1,N,0036,1","00120,1,C,N","002500,1,N,1","-0060,1","-0060,1","99999,9","07,5,+00120,1,99,9",,,"07,99,1,99,9,99,9,99999,9,99,9,99,9","10031,1,99999,9","10,1","56,1",,,"MET075METAR ETSE 090920Z 09007KT 2500 -FZDZ BR BKN004 M06/M06 Q1003 BLACKYLO YLO;",
"10869099999","2010-02-09T10:02:00","4","48.322333","11.948667","461.77","ERDING, GM","FM-16","ETSE ","V020","090,1,N,0036,1","00120,1,C,N","003000,1,N,1","-0060,1","-0060,1","99999,9","07,5,+00120,1,99,9",,,"07,99,1,99,9,99,9,99999,9,99,9,99,9","10031,1,99999,9","10,1","56,1",,,"MET070SPECI ETSE 091002Z 09007KT 3000 -FZDZ BR BKN004 M06/M06 Q1003 YLO YLO;",
"10869099999","2010-02-09T10:20:00","4","48.322333","11.948667","461.77","ERDING, GM","FM-15","ETSE ","V020","090,1,N,0031,1","00120,1,C,N","004000,1,N,1","-0060,1","-0060,1","99999,9","07,5,+00120,1,99,9",,,"07,99,1,99,9,99,9,99999,9,99,9,99,9","10031,1,99999,9","10,1","56,1",,,"MET070METAR ETSE 091020Z 09006KT 4000 -FZDZ BR BKN004 M06/M06 Q1003 YLO YLO;",
"10869099999","2010-02-09T11:20:00","4","48.322333","11.948667","461.77","ERDING, GM","FM-15","ETSE ","V020","100,1,N,0031,1","00120,1,C,N","004200,1,N,1","-0060,1","-0060,1","99999,9","07,5,+00120,1,99,9",,,"07,99,1,99,9,99,9,99999,9,99,9,99,9","10020,1,99999,9","10,1","56,1",,,"MET070METAR ETSE 091120Z 10006KT 4200 -FZDZ BR BKN004 M06/M06 Q1002 YLO YLO;",
"10869099999","2010-02-09T12:20:00","4","48.322333","11.948667","461.77","ERDING, GM","FM-15","ETSE ","V020","110,1,N,0031,1","00120,1,C,N","004500,1,N,1","-0060,1","-0060,1","99999,9","07,5,+00120,1,99,9",,,"07,99,1,99,9,99,9,99999,9,99,9,99,9","10020,1,99999,9","10,1","77,1",,,"MET068METAR ETSE 091220Z 11006KT 4500 -SG BR BKN004 M06/M06 Q1002 YLO YLO;",
"10869099999","2010-02-09T13:20:00","4","48.322333","11.948667","461.77","ERDING, GM","FM-15","ETSE ","V020","100,1,N,0031,1","00120,1,C,N","005000,1,N,1","-0050,1","-0050,1","99999,9","07,5,+00120,1,99,9",,,"07,99,1,99,9,99,9,99999,9,99,9,99,9","10020,1,99999,9","10,1","77,1",,,"MET075METAR ETSE 091320Z 10006KT 5000 -SG BR BKN004 M05/M05 Q1002 REFZDZ YLO YLO;",
"10869099999","2010-02-09T14:20:00","4","48.322333","11.948667","461.77","ERDING, GM","FM-15","ETSE ","V020","070,1,N,0031,1","00150,1,C,N","005000,1,N,1","-0050,1","-0050,1","99999,9","07,5,+00150,1,99,9",,,"07,99,1,99,9,99,9,99999,9,99,9,99,9","10010,1,99999,9","10,1","77,1",,,"MET068METAR ETSE 091420Z 07006KT 5000 -SG BR BKN005 M05/M05 Q1001 YLO YLO;",
"10869099999","2010-02-09T15:20:00","4","48.322333","11.948667","461.77","ERDING, GM","FM-15","ETSE ","V020","170,1,N,0031,1","00150,1,C,N","005000,1,N,1","-0050,1","-0060,1","99999,9","07,5,+00150,1,99,9",,,"07,99,1,99,9,99,9,99999,9,99,9,99,9","10010,1,99999,9","10,1","56,1",,,"MET078METAR ETSE 091520Z 17006KT 5000 -FZDZ BR BKN005 M05/M06 Q1001 YLO FCST CANCEL;",
"10869099999","2010-02-10T06:20:00","4","48.322333","11.948667","461.77","ERDING, GM","FM-15","ETSE ","V020","110,1,N,0010,1","00150,1,C,N","003800,1,N,1","-0060,1","-0070,1","99999,9","07,5,+00150,1,99,9",,,"07,99,1,99,9,99,9,99999,9,99,9,99,9","10020,1,99999,9","10,1",,,,"MET074METAR ETSE 100620Z 11002KT 3800 BR BKN005 M06/M07 Q1002 YLO GRN TEMPO YLO;",
"10869099999","2010-02-10T07:02:00","4","48.322333","11.948667","461.77","ERDING, GM","FM-16","ETSE ","V020","140,1,N,0015,1","00150,1,C,N","002700,1,N,1","-0060,1","-0070,1","99999,9","08,5,+00150,1,99,9",,,"08,99,1,99,9,99,9,99999,9,99,9,99,9","10031,1,99999,9","10,1","71,1",,,"MET078SPECI ETSE 100702Z 14003KT 2700 -SN BR OVC005 M06/M07 Q1003 YLO GRN TEMPO YLO;",
"10869099999","2010-02-10T07:20:00","4","48.322333","11.948667","461.77","ERDING, GM","FM-15","ETSE ","V020","120,1,N,0010,1","00150,1,C,N","002200,1,N,1","-0060,1","-0070,1","99999,9","07,5,+00150,1,99,9",,,"07,99,1,99,9,99,9,99999,9,99,9,99,9","10031,1,99999,9","10,1","71,1",,,"MET078METAR ETSE 100720Z 12002KT 2200 -SN BR BKN005 M06/M07 Q1003 YLO GRN TEMPO YLO;",
"10869099999","2010-02-10T07:40:00","4","48.322333","11.948667","461.77","ERDING, GM","FM-16","ETSE ","V020","110,1,N,0010,1","00240,1,C,N","003000,1,N,1","-0060,1","-0070,1","99999,9","04,5,+00150,1,99,9","04,5,+00240,1,99,9","07,5,+01020,1,99,9","07,99,1,99,9,99,9,99999,9,99,9,99,9","10031,1,99999,9","10,1","71,1",,,"MET092SPECI ETSE 100740Z 11002KT 3000 -SN BR SCT005 SCT008 BKN034 M06/M07 Q1003 YLO GRN TEMPO YLO;",
"10869099999","2010-02-10T08:03:00","4","48.322333","11.948667","461.77","ERDING, GM","FM-16","ETSE ","V020","120,1,N,0005,1","00180,1,C,N","002400,1,N,1","-0060,1","-0070,1","99999,9","07,5,+00180,1,99,9","04,5,+00240,1,99,9","07,5,+01020,1,99,9","07,99,1,99,9,99,9,99999,9,99,9,99,9","10031,1,99999,9","10,1","71,1",,,"MET097SPECI ETSE 100803Z 12001KT 2400 -SN BR BKN006 SCT008 BKN034 M06/M07 Q1003 BLACKYLO GRN TEMPO YLO;",
"10869099999","2010-02-10T08:20:00","4","48.322333","11.948667","461.77","ERDING, GM","FM-15","ETSE ","V020","999,9,V,0005,1","00180,1,C,N","001300,1,N,1","-0060,1","-0070,1","99999,9","07,5,+00180,1,99,9","07,5,+01020,1,99,9",,"07,99,1,99,9,99,9,99999,9,99,9,99,9","10031,1,99999,9","10,1","71,1",,,"MET090METAR ETSE 100820Z VRB01KT 1300 -SN BR BKN006 BKN034 M06/M07 Q1003 BLACKAMB GRN TEMPO AMB;",
"10869099999","2010-02-10T08:28:00","4","48.322333","11.948667","461.77","ERDING, GM","FM-16","ETSE ","V020","360,1,N,0005,1","00180,1,C,N","001700,1,N,1","-0060,1","-0070,1","99999,9","07,5,+00180,1,99,9","07,5,+00960,1,99,9",,"07,99,1,99,9,99,9,99999,9,99,9,99,9","10031,1,99999,9","10,1","71,1",,,"MET090SPECI ETSE 100828Z 36001KT 1700 -SN BR BKN006 BKN032 M06/M07 Q1003 BLACKYLO GRN TEMPO AMB;",
"10869099999","2010-02-10T09:07:00","4","48.322333","11.948667","461.77","ERDING, GM","FM-16","ETSE ","V020","999,9,V,0005,1","00180,1,C,N","001400,1,N,1","-0050,1","-0070,1","99999,9","07,5,+00180,1,99,9","04,5,+00360,1,99,9","07,5,+00780,1,99,9","07,99,1,99,9,99,9,99999,9,99,9,99,9","10031,1,99999,9","10,1","71,1",,,"MET097SPECI ETSE 100907Z VRB01KT 1400 -SN BR BKN006 SCT012 BKN026 M05/M07 Q1003 BLACKAMB GRN TEMPO AMB;",
"10869099999","2010-02-10T09:20:00","4","48.322333","11.948667","461.77","ERDING, GM","FM-15","ETSE ","V020","320,1,N,0010,1","00360,1,C,N","001600,1,N,1","-0050,1","-0070,1","99999,9","04,5,+00180,1,99,9","04,5,+00360,1,99,9","07,5,+00660,1,99,9","07,99,1,99,9,99,9,99999,9,99,9,99,9","10041,1,99999,9","10,1","71,1",,,"MET097METAR ETSE 100920Z 32002KT 1600 -SN BR SCT006 SCT012 BKN022 M05/M07 Q1004 BLACKYLO GRN TEMPO AMB;",
"10869099999","2010-02-10T10:20:00","4","48.322333","11.948667","461.77","ERDING, GM","FM-15","ETSE ","V020","030,1,N,0015,1","00420,1,C,N","001600,1,N,1","-0050,1","-0060,1","99999,9","02,5,+00180,1,99,9","04,5,+00420,1,99,9","07,5,+00660,1,99,9","07,99,1,99,9,99,9,99999,9,99,9,99,9","10041,1,99999,9","10,1","71,1",,,"MET097METAR ETSE 101020Z 03003KT 1600 -SN BR FEW006 SCT014 BKN022 M05/M06 Q1004 BLACKYLO GRN TEMPO AMB;",
"10869099999","2010-02-10T11:20:00","4","48.322333","11.948667","461.77","ERDING, GM","FM-15","ETSE ","V020","300,1,N,0021,1","00360,1,C,N","002100,1,N,1","-0050,1","-0060,1","99999,9","02,5,+00210,1,99,9","04,5,+00360,1,99,9","07,5,+00570,1,99,9","07,99,1,99,9,99,9,99999,9,99,9,99,9","10041,1,99999,9","10,1","71,1",,,"MET097METAR ETSE 101120Z 30004KT 2100 -SN BR FEW007 SCT012 BKN019 M05/M06 Q1004 BLACKYLO GRN TEMPO AMB;",
"10869099999","2010-02-10T12:20:00","4","48.322333","11.948667","461.77","ERDING, GM","FM-15","ETSE ","V020","330,1,N,0021,1","00420,1,C,N","004000,1,N,1","-0040,1","-0060,1","99999,9","02,5,+00240,1,99,9","04,5,+00420,1,99,9","07,5,+00960,1,99,9","07,99,1,99,9,99,9,99999,9,99,9,99,9","10041,1,99999,9","10,1","71,1",,,"MET097METAR ETSE 101220Z 33004KT 4000 -SN BR FEW008 SCT014 BKN032 M04/M06 Q1004 BLACKGRN GRN TEMPO AMB;",
"10869099999","2010-02-10T13:00:00","4","48.322333","11.948667","461.77","ERDING, GM","FM-15","ETSE ","V020","330,1,N,0026,1","00420,1,C,N","003200,1,N,1","-0050,1","-0070,1","99999,9","02,5,+00240,1,99,9","07,5,+00420,1,99,9",,"07,99,1,99,9,99,9,99999,9,99,9,99,9","10031,1,99999,9","10,1","71,1",,,"MET090SPECI ETSE 101257Z 33005KT 3200 -SN BR FEW008 BKN014 M05/M07 Q1003 BLACKYLO GRN TEMPO AMB;",
"10869099999","2010-02-10T13:20:00","4","48.322333","11.948667","461.77","ERDING, GM","FM-15","ETSE ","V020","330,1,N,0031,1","00420,1,C,N","002900,1,N,1","-0050,1","-0060,1","99999,9","02,5,+00270,1,99,9","07,5,+00420,1,99,9","07,5,+00990,1,99,9","07,99,1,99,9,99,9,99999,9,99,9,99,9","10031,1,99999,9","10,1","71,1",,,"MET097METAR ETSE 101320Z 33006KT 2900 -SN BR FEW009 BKN014 BKN033 M05/M06 Q1003 BLACKYLO GRN TEMPO AMB;",
"10869099999","2010-02-10T14:20:00","4","48.322333","11.948667","461.77","ERDING, GM","FM-15","ETSE ","V020","340,1,N,0026,1","00450,1,C,N","002500,1,N,1","-0050,1","-0060,1","99999,9","04,5,+00270,1,99,9","07,5,+00450,1,99,9",,"07,99,1,99,9,99,9,99999,9,99,9,99,9","10031,1,99999,9","10,1","71,1",,,"MET090METAR ETSE 101420Z 34005KT 2500 -SN BR SCT009 BKN015 M05/M06 Q1003 BLACKYLO GRN TEMPO AMB;",
"10869099999","2010-02-10T15:20:00","4","48.322333","11.948667","461.77","ERDING, GM","FM-15","ETSE ","V020","350,1,N,0021,1","00600,1,C,N","002300,1,N,1","-0050,1","-0060,1","99999,9","04,5,+00210,1,99,9","07,5,+00600,1,99,9",,"07,99,1,99,9,99,9,99999,9,99,9,99,9","10041,1,99999,9","10,1","71,1",,,"MET088METAR ETSE 101520Z 35004KT 2300 -SN BR SCT007 BKN020 M05/M06 Q1004 BLACKYLO FCST CANCEL;",
"10869099999","2010-02-11T06:20:00","4","48.322333","11.948667","461.77","ERDING, GM","FM-15","ETSE ","V020","270,1,N,0021,1","00510,1,C,N","001200,1,N,1","-0080,1","-0090,1","99999,9","04,5,+00270,1,99,9","07,5,+00510,1,99,9","08,5,+01080,1,99,9","08,99,1,99,9,99,9,99999,9,99,9,99,9","10010,1,99999,9","10,1","71,1",,,"MET097METAR ETSE 110620Z 27004KT 1200 -SN BR SCT009 BKN017 OVC036 M08/M09 Q1001 BLACKAMB YLO TEMPO RED;",
"10869099999","2010-02-11T07:09:00","4","48.322333","11.948667","461.77","ERDING, GM","FM-16","ETSE ","V020","270,1,N,0015,1","00390,1,C,N","000900,1,N,1","-0080,1","-0080,1","99999,9","04,5,+00210,1,99,9","07,5,+00390,1,99,9",,"07,99,1,99,9,99,9,99999,9,99,9,99,9","10020,1,99999,9","75,1",,,,"MET087SPECI ETSE 110709Z 27003KT 0900 +SN SCT007 BKN013 M08/M08 Q1002 BLACKAMB YLO TEMPO RED;",
"10869099999","2010-02-11T07:20:00","4","48.322333","11.948667","461.77","ERDING, GM","FM-15","ETSE ","V020","260,1,N,0015,1","00420,1,C,N","001100,1,N,1","-0080,1","-0080,1","99999,9","04,5,+00240,1,99,9","07,5,+00420,1,99,9",,"07,99,1,99,9,99,9,99999,9,99,9,99,9","10010,1,99999,9","10,1","73,1",,,"MET094METAR ETSE 110720Z 26003KT 1100 SN BR SCT008 BKN014 M08/M08 Q1001 RESN BLACKAMB YLO TEMPO RED;",
"10869099999","2010-02-11T07:47:00","4","48.322333","11.948667","461.77","ERDING, GM","FM-16","ETSE ","V020","270,1,N,0021,1","00360,1,C,N","000800,1,N,1","-0080,1","-0080,1","99999,9","02,5,+00270,1,99,9","07,5,+00360,1,99,9",,"07,99,1,99,9,99,9,99999,9,99,9,99,9","10010,1,99999,9","75,1",,,,"MET087SPECI ETSE 110747Z 27004KT 0800 +SN FEW009 BKN012 M08/M08 Q1001 BLACKAMB YLO TEMPO RED;",
"10869099999","2010-02-11T08:20:00","4","48.322333","11.948667","461.77","ERDING, GM","FM-15","ETSE ","V020","260,1,N,0015,1","00450,1,C,N","001400,1,N,1","-0070,1","-0080,1","99999,9","02,5,+00330,1,99,9","07,5,+00450,1,99,9",,"07,99,1,99,9,99,9,99999,9,99,9,99,9","10010,1,99999,9","10,1","73,1",,,"MET094METAR ETSE 110820Z 26003KT 1400 SN BR FEW011 BKN015 M07/M08 Q1001 RESN BLACKAMB YLO TEMPO RED;",
"10869099999","2010-02-11T08:35:00","4","48.322333","11.948667","461.77","ERDING, GM","FM-16","ETSE ","V020","260,1,N,0021,1","00450,1,C,N","002000,1,N,1","-0070,1","-0080,1","99999,9","02,5,+00330,1,99,9","07,5,+00450,1,99,9","07,5,+00990,1,99,9","07,99,1,99,9,99,9,99999,9,99,9,99,9","10010,1,99999,9","10,1","73,1",,,"MET096SPECI ETSE 110835Z 26004KT 2000 SN BR FEW011 BKN015 BKN033 M07/M08 Q1001 BLACKYLO YLO TEMPO RED;",
"10869099999","2010-02-11T09:01:00","4","48.322333","11.948667","461.77","ERDING, GM","FM-16","ETSE ","V020","280,1,N,0021,1","00450,1,C,N","001200,1,N,1","-0070,1","-0080,1","99999,9","02,5,+00300,1,99,9","07,5,+00450,1,99,9","07,5,+00900,1,99,9","07,99,1,99,9,99,9,99999,9,99,9,99,9","10010,1,99999,9","10,1","73,1",,,"MET096SPECI ETSE 110901Z 28004KT 1200 SN BR FEW010 BKN015 BKN030 M07/M08 Q1001 BLACKAMB YLO TEMPO RED;",
"10869099999","2010-02-11T09:20:00","4","48.322333","11.948667","461.77","ERDING, GM","FM-15","ETSE ","V020","270,1,N,0021,1","00420,1,C,N","001200,1,N,1","-0070,1","-0080,1","99999,9","02,5,+00300,1,99,9","04,5,+00420,1,99,9","07,5,+00840,1,99,9","07,99,1,99,9,99,9,99999,9,99,9,99,9","10010,1,99999,9","10,1","73,1",,,"MET096METAR ETSE 110920Z 27004KT 1200 SN BR FEW010 SCT014 BKN028 M07/M08 Q1001 BLACKAMB YLO TEMPO RED;",
"10869099999","2010-02-11T10:20:00","4","48.322333","11.948667","461.77","ERDING, GM","FM-15","ETSE ","V020","270,1,N,0015,1","00300,1,C,N","002500,1,N,1","-0060,1","-0070,1","99999,9","02,5,+00180,1,99,9","04,5,+00300,1,99,9","07,5,+00660,1,99,9","07,99,1,99,9,99,9,99999,9,99,9,99,9","10020,1,99999,9","10,1","71,1",,,"MET102METAR ETSE 111020Z 27003KT 2500 -SN BR FEW006 SCT010 BKN022 M06/M07 Q1002 RESN BLACKYLO YLO TEMPO RED;",
"10869099999","2010-02-11T10:37:00","4","48.322333","11.948667","461.77","ERDING, GM","FM-16","ETSE ","V020","270,1,N,0015,1","00300,1,C,N","001300,1,N,1","-0060,1","-0070,1","99999,9","02,5,+00180,1,99,9","04,5,+00300,1,99,9","07,5,+00660,1,99,9","07,99,1,99,9,99,9,99999,9,99,9,99,9","10020,1,99999,9","10,1","73,1",,,"MET101SPECI ETSE 111037Z 27003KT 1300 SN BR FEW006 SCT010 BKN022 M06/M07 Q1002 RESN BLACKAMB YLO TEMPO RED;",
"10869099999","2010-02-11T11:20:00","4","48.322333","11.948667","461.77","ERDING, GM","FM-15","ETSE ","V020","260,1,N,0015,1","00300,1,C,N","000700,1,N,1","-0060,1","-0070,1","99999,9","02,5,+00180,1,99,9","04,5,+00300,1,99,9","07,5,+00450,1,99,9","07,99,1,99,9,99,9,99999,9,99,9,99,9","10010,1,99999,9","75,1",,,,"MET094METAR ETSE 111120Z 26003KT 0700 +SN FEW006 SCT010 BKN015 M06/M07 Q1001 BLACKRED YLO TEMPO RED;",
"10869099999","2010-02-11T12:20:00","4","48.322333","11.948667","461.77","ERDING, GM","FM-15","ETSE ","V020","260,1,N,0015,1","00300,1,C,N","000600,1,N,1","-0060,1","-0070,1","99999,9","04,5,+00180,1,99,9","04,5,+00300,1,99,9","07,5,+00540,1,99,9","07,99,1,99,9,99,9,99999,9,99,9,99,9","10010,1,99999,9","75,1",,,,"MET094METAR ETSE 111220Z 26003KT 0600 +SN SCT006 SCT010 BKN018 M06/M07 Q1001 BLACKRED YLO TEMPO RED;",
"10869099999","2010-02-11T12:27:00","4","48.322333","11.948667","461.77","ERDING, GM","FM-16","ETSE ","V020","260,1,N,0015,1","00300,1,C,N","000800,1,N,1","-0060,1","-0070,1","99999,9","04,5,+00180,1,99,9","04,5,+00300,1,99,9","07,5,+00540,1,99,9","07,99,1,99,9,99,9,99999,9,99,9,99,9","10010,1,99999,9","75,1",,,,"MET094SPECI ETSE 111227Z 26003KT 0800 +SN SCT006 SCT010 BKN018 M06/M07 Q1001 BLACKAMB YLO TEMPO RED;",
"10869099999","2010-02-11T13:20:00","4","48.322333","11.948667","461.77","ERDING, GM","FM-15","ETSE ","V020","280,1,N,0015,1","00300,1,C,N","001500,1,N,1","-0050,1","-0060,1","99999,9","02,5,+00210,1,99,9","04,5,+00300,1,99,9","07,5,+00450,1,99,9","07,99,1,99,9,99,9,99999,9,99,9,99,9","10010,1,99999,9","10,1","73,1",,,"MET101METAR ETSE 111320Z 28003KT 1500 SN BR FEW007 SCT010 BKN015 M05/M06 Q1001 RESN BLACKAMB YLO TEMPO RED;",
"10869099999","2010-02-11T14:20:00","4","48.322333","11.948667","461.77","ERDING, GM","FM-15","ETSE ","V020","260,1,N,0015,1","00300,1,C,N","001000,1,N,1","-0050,1","-0060,1","99999,9","02,5,+00210,1,99,9","04,5,+00300,1,99,9","07,5,+00450,1,99,9","07,99,1,99,9,99,9,99999,9,99,9,99,9","10010,1,99999,9","10,1","73,1",,,"MET094METAR ETSE 111420Z 26003KT 1000 SN BR FEW007 SCT010 BKN015 M05/M06 Q1001 BLACKAMB FCST CANCEL;",
"10869099999","2010-02-12T06:20:00","4","48.322333","11.948667","461.77","ERDING, GM","FM-15","ETSE ","V020","300,1,N,0015,1","00360,1,C,N","006000,1,N,1","-0070,1","-0080,1","99999,9","02,5,+00240,1,99,9","08,5,+00360,1,99,9",,"08,99,1,99,9,99,9,99999,9,99,9,99,9","10071,1,99999,9",,,,,"MET083METAR ETSE 120620Z 30003KT 6000 FEW008 OVC012 M07/M08 Q1007 BLACKGRN GRN TEMPO YLO;",
"10869099999","2010-02-12T07:20:00","4","48.322333","11.948667","461.77","ERDING, GM","FM-15","ETSE ","V020","310,1,N,0026,1","00330,1,C,N","003000,1,N,1","-0070,1","-0080,1","99999,9","02,5,+00150,1,99,9","08,5,+00330,1,99,9",,"08,99,1,99,9,99,9,99999,9,99,9,99,9","10081,1,99999,9","10,1","71,1",,,"MET090METAR ETSE 120720Z 31005KT 3000 -SN BR FEW005 OVC011 M07/M08 Q1008 BLACKYLO GRN TEMPO YLO;",
"10869099999","2010-02-12T08:00:00","4","48.322333","11.948667","461.77","ERDING, GM","FM-16","ETSE ","V020","320,1,N,0021,1","00360,1,C,N","003000,1,N,1","-0070,1","-0080,1","99999,9","02,5,+00180,1,99,9","08,5,+00360,1,99,9",,"08,99,1,99,9,99,9,99999,9,99,9,99,9","10081,1,99999,9","10,1","71,1",,,"MET088SPECI ETSE 120800Z 32004KT 3000 -SN BR FEW006 OVC012 M07/M08 Q1008 BLACKYLO FCST CANCEL;",
"10869099999","2010-02-15T06:20:00","4","48.322333","11.948667","461.77","ERDING, GM","FM-15","ETSE ","V020","100,1,N,0021,1","00540,1,C,N","009000,1,N,1","-0060,1","-0080,1","99999,9","08,5,+00540,1,99,9",,,"08,99,1,99,9,99,9,99999,9,99,9,99,9","10091,1,99999,9",,,,,"MET062METAR ETSE 150620Z 10004KT 9000 OVC018 M06/M08 Q1009 BLACKWHT;",
"10869099999","2010-02-15T07:20:00","4","48.322333","11.948667","461.77","ERDING, GM","FM-15","ETSE ","V020","120,1,N,0015,1","00540,1,C,N","008000,1,N,1","-0060,1","-0080,1","99999,9","02,5,+00390,1,99,9","08,5,+00540,1,99,9",,"08,99,1,99,9,99,9,99999,9,99,9,99,9","10091,1,99999,9","71,1",,,,"MET073METAR ETSE 150720Z 12003KT 8000 -SN FEW013 OVC018 M06/M08 Q1009 BLACKWHT;",
"10869099999","2010-02-15T08:20:00","4","48.322333","11.948667","461.77","ERDING, GM","FM-15","ETSE ","V020","120,1,N,0021,1","00570,1,C,N","007000,1,N,1","-0060,1","-0080,1","99999,9","02,5,+00330,1,99,9","08,5,+00570,1,99,9",,"08,99,1,99,9,99,9,99999,9,99,9,99,9","10091,1,99999,9","71,1",,,,"MET073METAR ETSE 150820Z 12004KT 7000 -SN FEW011 OVC019 M06/M08 Q1009 BLACKWHT;",
"10869099999","2010-02-15T09:20:00","4","48.322333","11.948667","461.77","ERDING, GM","FM-15","ETSE ","V020","120,1,N,0031,1","00450,1,C,N","006000,1,N,1","-0060,1","-0080,1","99999,9","02,5,+00300,1,99,9","04,5,+00450,1,99,9","08,5,+00600,1,99,9","08,99,1,99,9,99,9,99999,9,99,9,99,9","10091,1,99999,9","71,1",,,,"MET080METAR ETSE 150920Z 12006KT 6000 -SN FEW010 SCT015 OVC020 M06/M08 Q1009 BLACKWHT;",
"10869099999","2010-02-15T10:20:00","4","48.322333","11.948667","461.77","ERDING, GM","FM-15","ETSE ","V020","120,1,N,0031,1","00450,1,C,N","007000,1,N,1","-0060,1","-0080,1","99999,9","02,5,+00300,1,99,9","04,5,+00450,1,99,9","08,5,+00630,1,99,9","08,99,1,99,9,99,9,99999,9,99,9,99,9","10091,1,99999,9","71,1",,,,"MET080METAR ETSE 151020Z 12006KT 7000 -SN FEW010 SCT015 OVC021 M06/M08 Q1009 BLACKWHT;",
"10869099999","2010-02-15T11:20:00","4","48.322333","11.948667","461.77","ERDING, GM","FM-15","ETSE ","V020","110,1,N,0026,1","00480,1,C,N","008000,1,N,1","-0050,1","-0080,1","99999,9","02,5,+00300,1,99,9","04,5,+00480,1,99,9","08,5,+00660,1,99,9","08,99,1,99,9,99,9,99999,9,99,9,99,9","10081,1,99999,9","71,1",,,,"MET080METAR ETSE 151120Z 11005KT 8000 -SN FEW010 SCT016 OVC022 M05/M08 Q1008 BLACKWHT;",
"10869099999","2010-02-15T12:20:00","4","48.322333","11.948667","461.77","ERDING, GM","FM-15","ETSE ","V020","100,1,N,0015,1","00660,1,C,N","009000,1,N,1","-0050,1","-0090,1","99999,9","02,5,+00300,1,99,9","08,5,+00660,1,99,9",,"08,99,1,99,9,99,9,99999,9,99,9,99,9","10081,1,99999,9",,,,,"MET069METAR ETSE 151220Z 10003KT 9000 FEW010 OVC022 M05/M09 Q1008 BLACKWHT;",
"10869099999","2010-02-15T13:20:00","4","48.322333","11.948667","461.77","ERDING, GM","FM-15","ETSE ","V020","090,1,N,0010,1","00630,1,C,N","009000,1,N,1","-0040,1","-0090,1","99999,9","02,5,+00360,1,99,9","08,5,+00630,1,99,9",,"08,99,1,99,9,99,9,99999,9,99,9,99,9","10071,1,99999,9",,,,,"MET069METAR ETSE 151320Z 09002KT 9000 FEW012 OVC021 M04/M09 Q1007 BLACKWHT;",
"10869099999","2010-02-15T14:20:00","4","48.322333","11.948667","461.77","ERDING, GM","FM-15","ETSE ","V020","090,1,N,0026,1","00540,1,C,N","009000,1,N,1","-0050,1","-0090,1","99999,9","02,5,+00360,1,99,9","08,5,+00540,1,99,9",,"08,99,1,99,9,99,9,99999,9,99,9,99,9","10071,1,99999,9",,,,,"MET069METAR ETSE 151420Z 09005KT 9000 FEW012 OVC018 M05/M09 Q1007 BLACKWHT;",
"10869099999","2010-02-16T06:20:00","4","48.322333","11.948667","461.77","ERDING, GM","FM-15","ETSE ","V020","150,1,N,0015,1","00015,1,9,N","000050,1,N,1","-0130,1","-0140,1","99999,9","09,1,+00015,1,99,9",,,"09,99,1,99,9,99,9,00025,1,99,9,99,9","10041,1,99999,9","49,1",,,,"MET066METAR ETSE 160620Z 15003KT 0050 FZFG VV000 M13/M14 Q1004 BLACKRED;",
"10869099999","2010-02-16T07:20:00","4","48.322333","11.948667","461.77","ERDING, GM","FM-15","ETSE ","V020","170,1,N,0010,1","22000,1,9,N","000400,1,N,1","-0140,1","-0150,1","99999,9",,,,,"10051,1,99999,9","48,1",,,,"MET060METAR ETSE 160720Z 17002KT 0400 FZFG M14/M15 Q1005 BLACKRED;",
"10869099999","2010-02-16T08:06:00","4","48.322333","11.948667","461.77","ERDING, GM","FM-16","ETSE ","V020","140,1,N,0015,1","22000,1,9,N","001600,1,N,1","-0110,1","-0120,1","99999,9",,,,,"10051,1,99999,9","10,1",,,,"MET058SPECI ETSE 160806Z 14003KT 1600 BR M11/M12 Q1005 BLACKYLO;",
"10869099999","2010-02-16T08:20:00","4","48.322333","11.948667","461.77","ERDING, GM","FM-15","ETSE ","V020","130,1,N,0015,1","22000,1,9,N","001600,1,N,1","-0100,1","-0110,1","99999,9","02,5,+06000,1,99,9",,,"02,99,1,99,9,99,9,99999,9,99,9,99,9","10051,1,99999,9","10,1",,,,"MET065METAR ETSE 160820Z 13003KT 1600 BR FEW200 M10/M11 Q1005 BLACKYLO;",
"10869099999","2010-02-16T08:40:00","4","48.322333","11.948667","461.77","ERDING, GM","FM-16","ETSE ","V020","140,1,N,0015,1","22000,1,9,N","003300,1,N,1","-0090,1","-0100,1","99999,9","04,5,+00120,1,99,9",,,"04,99,1,99,9,99,9,99999,9,99,9,99,9","10041,1,99999,9","10,1",,,,"MET065SPECI ETSE 160840Z 14003KT 3300 BR SCT004 M09/M10 Q1004 BLACKYLO;",
"10869099999","2010-02-16T09:20:00","4","48.322333","11.948667","461.77","ERDING, GM","FM-15","ETSE ","V020","120,1,N,0036,1","22000,1,9,N","004500,1,N,1","-0080,1","-0090,1","99999,9","02,5,+00090,1,99,9",,,"02,99,1,99,9,99,9,99999,9,99,9,99,9","10041,1,99999,9","10,1",,,,"MET065METAR ETSE 160920Z 12007KT 4500 BR FEW003 M08/M09 Q1004 BLACKGRN;",
"10869099999","2010-02-16T10:20:00","4","48.322333","11.948667","461.77","ERDING, GM","FM-15","ETSE ","V020","120,1,N,0036,1","22000,1,9,N","006000,1,N,1","-0060,1","-0080,1","99999,9","02,5,+06000,1,99,9",,,"02,99,1,99,9,99,9,99999,9,99,9,99,9","10041,1,99999,9",,,,,"MET062METAR ETSE 161020Z 12007KT 6000 FEW200 M06/M08 Q1004 BLACKWHT;",
"10869099999","2010-02-17T06:20:00","4","48.322333","11.948667","461.77","ERDING, GM","FM-15","ETSE ","V020","110,1,N,0041,1","00120,1,C,N","004000,1,N,1","-0050,1","-0060,1","99999,9","08,5,+00120,1,99,9",,,"08,99,1,99,9,99,9,99999,9,99,9,99,9","09959,1,99999,9","10,1",,,,"MET065METAR ETSE 170620Z 11008KT 4000 BR OVC004 M05/M06 Q0996 BLACKYLO;",
"10869099999","2010-02-17T07:20:00","4","48.322333","11.948667","461.77","ERDING, GM","FM-15","ETSE ","V020","110,1,N,0036,1","00120,1,C,N","003200,1,N,1","-0050,1","-0050,1","99999,9","07,5,+00120,1,99,9",,,"07,99,1,99,9,99,9,99999,9,99,9,99,9","09970,1,99999,9","10,1",,,,"MET065METAR ETSE 170720Z 11007KT 3200 BR BKN004 M05/M05 Q0997 BLACKYLO;",
"10869099999","2010-02-17T08:20:00","4","48.322333","11.948667","461.77","ERDING, GM","FM-15","ETSE ","V020","110,1,N,0026,1","00150,1,C,N","003300,1,N,1","-0050,1","-0060,1","99999,9","07,5,+00150,1,99,9",,,"07,99,1,99,9,99,9,99999,9,99,9,99,9","09959,1,99999,9","10,1",,,,"MET065METAR ETSE 170820Z 11005KT 3300 BR BKN005 M05/M06 Q0996 BLACKYLO;",
"10869099999","2010-02-17T09:20:00","4","48.322333","11.948667","461.77","ERDING, GM","FM-15","ETSE ","V020","100,1,N,0031,1","00180,1,C,N","003900,1,N,1","-0040,1","-0050,1","99999,9","07,5,+00180,1,99,9",,,"07,99,1,99,9,99,9,99999,9,99,9,99,9","09959,1,99999,9","10,1",,,,"MET065METAR ETSE 170920Z 10006KT 3900 BR BKN006 M04/M05 Q0996 BLACKYLO;",
"10869099999","2010-02-17T10:20:00","4","48.322333","11.948667","461.77","ERDING, GM","FM-15","ETSE ","V020","130,1,N,0031,1","22000,1,9,N","004000,1,N,1","-0030,1","-0050,1","99999,9","04,5,+00180,1,99,9",,,"04,99,1,99,9,99,9,99999,9,99,9,99,9","09959,1,99999,9","10,1",,,,"MET065METAR ETSE 171020Z 13006KT 4000 BR SCT006 M03/M05 Q0996 BLACKGRN;",
"10869099999","2010-02-17T11:20:00","4","48.322333","11.948667","461.77","ERDING, GM","FM-15","ETSE ","V020","090,1,N,0021,1","06900,1,C,N","006000,1,N,1","-0010,1","-0040,1","99999,9","02,5,+00210,1,99,9","07,5,+06900,1,99,9",,"07,99,1,99,9,99,9,99999,9,99,9,99,9","09949,1,99999,9",,,,,"MET069METAR ETSE 171120Z 09004KT 6000 FEW007 BKN230 M01/M04 Q0995 BLACKWHT;",
"10869099999","2010-02-17T12:20:00","4","48.322333","11.948667","461.77","ERDING, GM","FM-15","ETSE ","V020","070,1,N,0026,1","07200,1,C,N","011265,1,N,1","+0000,1","-0040,1","99999,9","07,5,+07200,1,99,9",,,"07,99,1,99,9,99,9,99999,9,99,9,99,9","09939,1,99999,9",,,,,"MET057METAR ETSE 171220Z 07005KT 9999 BKN240 00/M04 Q0994 BLU/;",
"10869099999","2010-02-17T13:20:00","4","48.322333","11.948667","461.77","ERDING, GM","FM-15","ETSE ","V020","110,1,N,0015,1","07200,1,C,N","009000,1,N,1","+0010,1","-0040,1","99999,9","02,5,+04200,1,99,9","07,5,+07200,1,99,9",,"07,99,1,99,9,99,9,99999,9,99,9,99,9","09939,1,99999,9",,,,,"MET064METAR ETSE 171320Z 11003KT 9000 FEW140 BKN240 01/M04 Q0994 BLU/;",
"10869099999","2010-02-18T06:20:00","4","48.322333","11.948667","461.77","ERDING, GM","FM-15","ETSE ","V020","170,1,N,0015,1","02400,1,C,N","001800,1,N,1","-0060,1","-0060,1","99999,9","07,5,+02400,1,99,9",,,"07,99,1,99,9,99,9,99999,9,99,9,99,9","09980,1,99999,9","10,1",,,,"MET074METAR ETSE 180620Z 17003KT 1800 BR BKN080 M06/M06 Q0998 YLO YLO TEMPO RED;",
"10869099999","2010-02-18T07:05:00","4","48.322333","11.948667","461.77","ERDING, GM","FM-16","ETSE ","V020","170,1,N,0010,1","01950,5,C,N","002400,1,N,1","-0050,1","-0050,1","99999,9","04,5,+01560,5,99,9","07,5,+01950,5,99,9",,"07,99,1,99,9,99,9,99999,9,99,9,99,9","09980,1,99999,9","10,1","66,1",,,"MET087SPECI ETSE 180705Z 17002KT 2400 -FZRA BR SCT052 BKN065 M05/M05 Q0998 YLO YLO TEMPO RED;",
"10869099999","2010-02-18T07:20:00","4","48.322333","11.948667","461.77","ERDING, GM","FM-15","ETSE ","V020","190,1,N,0010,1","01800,1,C,N","003000,1,N,1","-0050,1","-0050,1","99999,9","04,5,+01440,1,99,9","07,5,+01800,1,99,9",,"07,99,1,99,9,99,9,99999,9,99,9,99,9","09990,1,99999,9","10,1","66,1",,,"MET077METAR ETSE 180720Z 19002KT 3000 -FZRA BR SCT048 BKN060 M05/M05 Q0999 YLO YLO;",
"10869099999","2010-02-18T08:20:00","4","48.322333","11.948667","461.77","ERDING, GM","FM-15","ETSE ","V020","999,9,V,0010,1","01110,1,C,N","002400,1,N,1","-0030,1","-0030,1","99999,9","02,5,+00600,1,99,9","04,5,+01110,1,99,9","07,5,+01650,5,99,9","07,99,1,99,9,99,9,99999,9,99,9,99,9","09990,1,99999,9","10,1","66,1",,,"MET084METAR ETSE 180820Z VRB02KT 2400 -FZRA BR FEW020 SCT037 BKN055 M03/M03 Q0999 YLO YLO;",
"10869099999","2010-02-18T08:30:00","4","48.322333","11.948667","461.77","ERDING, GM","FM-16","ETSE ","V020","999,9,V,0005,1","01110,1,C,N","002500,1,N,1","-0030,1","-0030,1","99999,9","02,5,+00600,1,99,9","04,5,+01110,1,99,9","07,5,+01650,5,99,9","07,99,1,99,9,99,9,99999,9,99,9,99,9","09990,1,99999,9","10,1","66,1",,,"MET089SPECI ETSE 180830Z VRB01KT 2500 -FZRA BR FEW020 SCT037 BKN055 M03/M03 Q0999 BLACKYLO YLO;",
"10869099999","2010-02-18T09:20:00","4","48.322333","11.948667","461.77","ERDING, GM","FM-15","ETSE ","V020","120,1,N,0015,1","01080,1,C,N","002100,1,N,1","-0020,1","-0020,1","99999,9","02,5,+00690,1,99,9","04,5,+01080,1,99,9","07,5,+01650,5,99,9","07,99,1,99,9,99,9,99999,9,99,9,99,9","09990,1,99999,9","10,1","66,1",,,"MET089METAR ETSE 180920Z 12003KT 2100 -FZRA BR FEW023 SCT036 BKN055 M02/M02 Q0999 BLACKYLO YLO;",
"10869099999","2010-02-18T10:20:00","4","48.322333","11.948667","461.77","ERDING, GM","FM-15","ETSE ","V020","100,1,N,0015,1","01170,1,C,N","002000,1,N,1","-0010,1","-0010,1","99999,9","02,5,+00450,1,99,9","04,5,+01170,1,99,9","07,5,+01650,5,99,9","07,99,1,99,9,99,9,99999,9,99,9,99,9","10000,1,99999,9","10,1","66,1",,,"MET089METAR ETSE 181020Z 10003KT 2000 -FZRA BR FEW015 SCT039 BKN055 M01/M01 Q1000 BLACKYLO YLO;",
"10869099999","2010-02-18T11:20:00","4","48.322333","11.948667","461.77","ERDING, GM","FM-15","ETSE ","V020","120,1,N,0021,1","01290,1,C,N","002000,1,N,1","+0010,1","+0000,1","99999,9","02,5,+00450,1,99,9","04,5,+01290,1,99,9","07,5,+03000,1,99,9","07,99,1,99,9,99,9,99999,9,99,9,99,9","10000,1,99999,9","10,1",,,,"MET094METAR ETSE 181120Z 12004KT 2000 BR FEW015 SCT043 BKN100 01/M00 Q1000 REFZRA YLO YLO BECMG GRN;",
"10869099999","2010-02-18T12:20:00","4","48.322333","11.948667","461.77","ERDING, GM","FM-15","ETSE ","V020","120,1,N,0021,1","02400,1,C,N","003200,1,N,1","+0020,1","+0000,1","99999,9","02,5,+00570,1,99,9","07,5,+02400,1,99,9",,"07,99,1,99,9,99,9,99999,9,99,9,99,9","10000,1,99999,9","10,1",,,,"MET079METAR ETSE 181220Z 12004KT 3200 BR FEW019 BKN080 02/00 Q1000 YLO YLO BECMG GRN;",
"10869099999","2010-02-18T12:41:00","4","48.322333","11.948667","461.77","ERDING, GM","FM-16","ETSE ","V020","120,1,N,0021,1","01950,5,C,N","003700,1,N,1","+0020,1","+0000,1","99999,9","02,5,+00600,1,99,9","07,5,+01950,5,99,9",,"07,99,1,99,9,99,9,99999,9,99,9,99,9","10000,1,99999,9","10,1",,,,"MET079SPECI ETSE 181241Z 12004KT 3700 BR FEW020 BKN065 02/00 Q1000 GRN YLO BECMG GRN;",
"10869099999","2010-02-18T13:20:00","4","48.322333","11.948667","461.77","ERDING, GM","FM-15","ETSE ","V020","130,1,N,0021,1","00960,1,C,N","003800,1,N,1","+0020,1","+0000,1","99999,9","02,5,+00600,1,99,9","04,5,+00960,1,99,9","07,5,+01950,5,99,9","07,99,1,99,9,99,9,99999,9,99,9,99,9","10010,1,99999,9","10,1",,,,"MET086METAR ETSE 181320Z 13004KT 3800 BR FEW020 SCT032 BKN065 02/00 Q1001 GRN YLO BECMG GRN;",
"10869099999","2010-02-18T14:20:00","4","48.322333","11.948667","461.77","ERDING, GM","FM-15","ETSE ","V020","120,1,N,0026,1","01500,1,C,N","003800,1,N,1","+0020,1","+0010,1","99999,9","04,5,+00960,1,99,9","07,5,+01500,1,99,9",,"07,99,1,99,9,99,9,99999,9,99,9,99,9","10000,1,99999,9","10,1",,,,"MET079METAR ETSE 181420Z 12005KT 3800 BR SCT032 BKN050 02/01 Q1000 GRN GRN BECMG YLO;",
"10869099999","2010-02-18T15:20:00","4","48.322333","11.948667","461.77","ERDING, GM","FM-15","ETSE ","V020","130,1,N,0026,1","01650,5,C,N","003700,1,N,1","+0020,1","+0010,1","99999,9","02,5,+01050,1,99,9","07,5,+01650,5,99,9",,"07,99,1,99,9,99,9,99999,9,99,9,99,9","10000,1,99999,9","10,1",,,,"MET077METAR ETSE 181520Z 13005KT 3700 BR FEW035 BKN055 02/01 Q1000 GRN FCST CANCEL;",
"10869099999","2010-02-19T06:20:00","4","48.322333","11.948667","461.77","ERDING, GM","FM-15","ETSE ","V020","999,9,V,0005,1","00015,1,9,N","000150,1,N,1","-0020,1","-0020,1","99999,9","09,1,+00015,1,99,9",,,"09,99,1,99,9,99,9,00025,1,99,9,99,9","09939,1,99999,9","49,1",,,,"MET065METAR ETSE 190620Z VRB01KT 0150 FZFG VV000 M02/M02 Q0994 RED RED;",
"10869099999","2010-02-19T07:20:00","4","48.322333","11.948667","461.77","ERDING, GM","FM-15","ETSE ","V020","120,1,N,0031,1","00015,1,9,N","000400,1,N,1","-0020,1","-0020,1","99999,9","09,1,+00015,1,99,9",,,"09,99,1,99,9,99,9,00025,1,99,9,99,9","09939,1,99999,9","49,1",,,,"MET065METAR ETSE 190720Z 12006KT 0400 FZFG VV000 M02/M02 Q0994 RED RED;",
"10869099999","2010-02-19T07:46:00","4","48.322333","11.948667","461.77","ERDING, GM","FM-16","ETSE ","V020","110,1,N,0026,1","00030,1,C,N","000800,1,N,1","-0020,1","-0020,1","99999,9","08,5,+00030,1,99,9",,,"08,99,1,99,9,99,9,99999,9,99,9,99,9","09929,1,99999,9","48,1",,,,"MET076SPECI ETSE 190746Z 11005KT 0800 FZFG OVC001 M02/M02 Q0993 RED RED BECMG AMB;",
"10869099999","2010-02-19T08:03:00","4","48.322333","11.948667","461.77","ERDING, GM","FM-16","ETSE ","V020","080,1,N,0021,1","00060,1,C,N","001600,1,N,1","-0020,1","-0020,1","99999,9","08,5,+00060,1,99,9",,,"08,99,1,99,9,99,9,99999,9,99,9,99,9","09929,1,99999,9","10,1",,,,"MET074SPECI ETSE 190803Z 08004KT 1600 BR OVC002 M02/M02 Q0993 AMB AMB TEMPO RED;",
"10869099999","2010-02-19T08:20:00","4","48.322333","11.948667","461.77","ERDING, GM","FM-15","ETSE ","V020","100,1,N,0026,1","00060,1,C,N","002000,1,N,1","-0010,1","-0010,1","99999,9","08,5,+00060,1,99,9",,,"08,99,1,99,9,99,9,99999,9,99,9,99,9","09929,1,99999,9","10,1",,,,"MET074METAR ETSE 190820Z 10005KT 2000 BR OVC002 M01/M01 Q0993 AMB AMB BECMG YLO;",
"10869099999","2010-02-19T08:33:00","4","48.322333","11.948667","461.77","ERDING, GM","FM-16","ETSE ","V020","120,1,N,0026,1","00090,1,C,N","002500,1,N,1","-0010,1","-0010,1","99999,9","08,5,+00090,1,99,9",,,"08,99,1,99,9,99,9,99999,9,99,9,99,9","09929,1,99999,9","10,1",,,,"MET064SPECI ETSE 190833Z 12005KT 2500 BR OVC003 M01/M01 Q0993 YLO YLO;",
"10869099999","2010-02-19T09:20:00","4","48.322333","11.948667","461.77","ERDING, GM","FM-15","ETSE ","V020","110,1,N,0015,1","00090,1,C,N","002500,1,N,1","-0010,1","-0010,1","99999,9","04,5,+00060,1,99,9","08,5,+00090,1,99,9",,"08,99,1,99,9,99,9,99999,9,99,9,99,9","09919,1,99999,9","10,1",,,,"MET079METAR ETSE 190920Z 11003KT 2500 BR SCT002 OVC003 M01/M01 Q0992 YLO FCST CANCEL;",
"10869099999","2010-02-22T06:20:00","4","48.322333","11.948667","461.77","ERDING, GM","FM-15","ETSE ","V020","130,1,N,0021,1","02250,5,C,N","011265,1,N,1","-0030,1","-0050,1","99999,9","04,5,+01350,1,99,9","07,5,+02250,5,99,9",,"07,99,1,99,9,99,9,99999,9,99,9,99,9","09980,1,99999,9",,,,,"MET068METAR ETSE 220620Z 13004KT 9999 SCT045 BKN075 M03/M05 Q0998 BLU BLU;",
"10869099999","2010-02-22T07:20:00","4","48.322333","11.948667","461.77","ERDING, GM","FM-15","ETSE ","V020","120,1,N,0026,1","02400,1,C,N","011265,1,N,1","-0020,1","-0050,1","99999,9","02,5,+00990,1,99,9","07,5,+02400,1,99,9",,"07,99,1,99,9,99,9,99999,9,99,9,99,9","09980,1,99999,9",,,,,"MET068METAR ETSE 220720Z 12005KT 9999 FEW033 BKN080 M02/M05 Q0998 BLU BLU;",
"10869099999","2010-02-22T08:20:00","4","48.322333","11.948667","461.77","ERDING, GM","FM-15","ETSE ","V020","190,1,N,0015,1","01500,1,C,N","011265,1,N,1","+0000,1","-0040,1","99999,9","02,5,+01200,1,99,9","04,5,+01560,5,99,9","07,5,+02400,1,99,9","07,99,1,99,9,99,9,99999,9,99,9,99,9","09990,1,99999,9",,,,,"MET074METAR ETSE 220820Z 19003KT 9999 FEW040 SCT052 BKN080 00/M04 Q0999 BLU BLU;",
"10869099999","2010-02-22T09:20:00","4","48.322333","11.948667","461.77","ERDING, GM","FM-15","ETSE ","V020","999,9,V,0010,1","01050,1,C,N","011265,1,N,1","+0010,1","-0040,1","99999,9","02,5,+00600,1,99,9","07,5,+01050,1,99,9","07,5,+02400,1,99,9","07,99,1,99,9,99,9,99999,9,99,9,99,9","09980,1,99999,9",,,,,"MET074METAR ETSE 220920Z VRB02KT 9999 FEW020 BKN035 BKN080 01/M04 Q0998 BLU BLU;",
"10869099999","2010-02-22T10:20:00","4","48.322333","11.948667","461.77","ERDING, GM","FM-15","ETSE ","V020","310,1,N,0005,1","01200,1,C,N","011265,1,N,1","+0030,1","-0040,1","99999,9","07,5,+01200,1,99,9","07,5,+02100,1,99,9",,"07,99,1,99,9,99,9,99999,9,99,9,99,9","09990,1,99999,9",,,,,"MET067METAR ETSE 221020Z 31001KT 9999 BKN040 BKN070 03/M04 Q0999 BLU BLU;",
"10869099999","2010-02-22T11:20:00","4","48.322333","11.948667","461.77","ERDING, GM","FM-15","ETSE ","V020","300,1,N,0021,1","00870,1,C,N","011265,1,N,1","+0030,1","-0020,1","99999,9","04,5,+00600,1,99,9","07,5,+00870,1,99,9",,"07,99,1,99,9,99,9,99999,9,99,9,99,9","09990,1,99999,9","61,1",,,,"MET071METAR ETSE 221120Z 30004KT 9999 -RA SCT020 BKN029 03/M02 Q0999 BLU BLU;",
"10869099999","2010-02-22T12:20:00","4","48.322333","11.948667","461.77","ERDING, GM","FM-15","ETSE ","V020","060,1,N,0021,1","01140,1,C,N","011265,1,N,1","+0030,1","-0010,1","99999,9","02,5,+00480,1,99,9","07,5,+01140,1,99,9",,"07,99,1,99,9,99,9,99999,9,99,9,99,9","09980,1,99999,9","61,1",,,,"MET071METAR ETSE 221220Z 06004KT 9999 -RA FEW016 BKN038 03/M01 Q0998 BLU BLU;",
"10869099999","2010-02-22T13:20:00","4","48.322333","11.948667","461.77","ERDING, GM","FM-15","ETSE ","V020","160,1,N,0026,1","01200,1,C,N","011265,1,N,1","+0050,1","-0010,1","99999,9","02,5,+00600,1,99,9","07,5,+01200,1,99,9","07,5,+03900,1,99,9","07,99,1,99,9,99,9,99999,9,99,9,99,9","09970,1,99999,9","61,1",,,,"MET078METAR ETSE 221320Z 16005KT 9999 -RA FEW020 BKN040 BKN130 05/M01 Q0997 BLU BLU;",
"10869099999","2010-02-22T14:20:00","4","48.322333","11.948667","461.77","ERDING, GM","FM-15","ETSE ","V020","150,1,N,0036,1","01800,1,C,N","011265,1,N,1","+0050,1","-0010,1","99999,9","07,5,+01800,1,99,9","07,5,+03900,1,99,9",,"07,99,1,99,9,99,9,99999,9,99,9,99,9","09970,1,99999,9",,,,,"MET078METAR ETSE 221420Z 15007KT 9999 BKN060 BKN130 05/M01 Q0997 BLU BLU BECMG BLU/;",
"10869099999","2010-02-22T15:20:00","4","48.322333","11.948667","461.77","ERDING, GM","FM-15","ETSE ","V020","140,1,N,0031,1","02700,1,C,N","011265,1,N,1","+0060,1","-0010,1","99999,9","04,5,+01800,1,99,9","04,5,+02700,1,99,9","07,5,+03900,1,99,9","07,99,1,99,9,99,9,99999,9,99,9,99,9","09970,1,99999,9",,,,,"MET082METAR ETSE 221520Z 14006KT 9999 SCT060 SCT090 BKN130 06/M01 Q0997 BLU FCST CANCEL;",
"10869099999","2010-02-23T06:20:00","4","48.322333","11.948667","461.77","ERDING, GM","FM-15","ETSE ","V020","200,1,N,0021,1","03000,1,C,N","011265,1,N,1","+0010,1","-0030,1","99999,9","02,5,+01950,5,99,9","07,5,+03000,1,99,9",,"07,99,1,99,9,99,9,99999,9,99,9,99,9","09959,1,99999,9",,,,,"MET067METAR ETSE 230620Z 20004KT 9999 FEW065 BKN100 01/M03 Q0996 BLU BLU;",
"10869099999","2010-02-23T07:20:00","4","48.322333","11.948667","461.77","ERDING, GM","FM-15","ETSE ","V020","200,1,N,0015,1","02550,5,C,N","011265,1,N,1","+0020,1","-0020,1","99999,9","02,5,+01950,5,99,9","07,5,+02550,5,99,9",,"07,99,1,99,9,99,9,99999,9,99,9,99,9","09970,1,99999,9",,,,,"MET067METAR ETSE 230720Z 20003KT 9999 FEW065 BKN085 02/M02 Q0997 BLU BLU;",
"10869099999","2010-02-23T08:20:00","4","48.322333","11.948667","461.77","ERDING, GM","FM-15","ETSE ","V020","260,1,N,0021,1","01500,1,C,N","011265,1,N,1","+0050,1","-0010,1","99999,9","02,5,+01050,1,99,9","07,5,+01500,1,99,9","07,5,+02400,1,99,9","07,99,1,99,9,99,9,99999,9,99,9,99,9","09970,1,99999,9",,,,,"MET074METAR ETSE 230820Z 26004KT 9999 FEW035 BKN050 BKN080 05/M01 Q0997 BLU BLU;",
"10869099999","2010-02-23T09:20:00","4","48.322333","11.948667","461.77","ERDING, GM","FM-15","ETSE ","V020","150,1,N,0021,1","01650,5,C,N","011265,1,N,1","+0050,1","-0010,1","99999,9","02,5,+01140,1,99,9","07,5,+01650,5,99,9","07,5,+02700,1,99,9","07,99,1,99,9,99,9,99999,9,99,9,99,9","09970,1,99999,9",,,,,"MET074METAR ETSE 230920Z 15004KT 9999 FEW038 BKN055 BKN090 05/M01 Q0997 BLU BLU;",
"10869099999","2010-02-23T10:20:00","4","48.322333","11.948667","461.77","ERDING, GM","FM-15","ETSE ","V020","150,1,N,0010,1","01800,1,C,N","011265,1,N,1","+0070,1","+0000,1","99999,9","02,5,+01200,1,99,9","07,5,+01800,1,99,9","07,5,+03000,1,99,9","07,99,1,99,9,99,9,99999,9,99,9,99,9","09970,1,99999,9",,,,,"MET073METAR ETSE 231020Z 15002KT 9999 FEW040 BKN060 BKN100 07/00 Q0997 BLU BLU;",
"10869099999","2010-02-23T11:20:00","4","48.322333","11.948667","461.77","ERDING, GM","FM-15","ETSE ","V020","180,1,N,0021,1","01800,1,C,N","011265,1,N,1","+0100,1","+0000,1","99999,9","02,5,+01350,1,99,9","04,5,+01800,1,99,9","07,5,+02700,1,99,9","07,99,1,99,9,99,9,99999,9,99,9,99,9","09970,1,99999,9",,,,,"MET073METAR ETSE 231120Z 18004KT 9999 FEW045 SCT060 BKN090 10/00 Q0997 BLU BLU;",
"10869099999","2010-02-23T12:20:00","4","48.322333","11.948667","461.77","ERDING, GM","FM-15","ETSE ","V020","280,1,N,0026,1","02700,1,C,N","011265,1,N,1","+0110,1","+0020,1","99999,9","02,5,+01500,1,99,9","07,5,+02700,1,99,9",,"07,99,1,99,9,99,9,99999,9,99,9,99,9","09970,1,99999,9",,,,,"MET066METAR ETSE 231220Z 28005KT 9999 FEW050 BKN090 11/02 Q0997 BLU BLU;",
"10869099999","2010-02-23T13:20:00","4","48.322333","11.948667","461.77","ERDING, GM","FM-15","ETSE ","V020","280,1,N,0036,1","02400,1,C,N","011265,1,N,1","+0100,1","+0020,1","99999,9","02,5,+01500,1,99,9","07,5,+02400,1,99,9",,"07,99,1,99,9,99,9,99999,9,99,9,99,9","09980,1,99999,9",,,,,"MET066METAR ETSE 231320Z 28007KT 9999 FEW050 BKN080 10/02 Q0998 BLU BLU;",
"10869099999","2010-02-23T14:20:00","4","48.322333","11.948667","461.77","ERDING, GM","FM-15","ETSE ","V020","270,1,N,0026,1","01050,1,C,N","011265,1,N,1","+0080,1","+0040,1","99999,9","02,5,+00720,1,99,9","07,5,+01050,1,99,9","07,5,+02400,1,99,9","07,99,1,99,9,99,9,99999,9,99,9,99,9","09980,1,99999,9","61,1",,,,"MET077METAR ETSE 231420Z 27005KT 9999 -RA FEW024 BKN035 BKN080 08/04 Q0998 BLU BLU;",
"10869099999","2010-02-23T15:20:00","4","48.322333","11.948667","461.77","ERDING, GM","FM-15","ETSE ","V020","240,1,N,0041,1","00990,1,C,N","011265,1,N,1","+0070,1","+0040,1","99999,9","02,5,+00750,1,99,9","07,5,+00990,1,99,9",,"07,99,1,99,9,99,9,99999,9,99,9,99,9","09990,1,99999,9","61,1",,,,"MET078METAR ETSE 231520Z 24008KT 9999 -RA FEW025 BKN033 07/04 Q0999 BLU FCST CANCEL;",
"10869099999","2010-02-24T06:20:00","4","48.322333","11.948667","461.77","ERDING, GM","FM-15","ETSE ","V020","220,1,N,0021,1","02400,1,C,N","011265,1,N,1","+0050,1","+0010,1","99999,9","02,5,+01500,1,99,9","07,5,+02400,1,99,9",,"07,99,1,99,9,99,9,99999,9,99,9,99,9","10020,1,99999,9",,,,,"MET062METAR ETSE 240620Z 22004KT 9999 FEW050 BKN080 05/01 Q1002 BLU;",
"10869099999","2010-02-24T07:20:00","4","48.322333","11.948667","461.77","ERDING, GM","FM-15","ETSE ","V020","200,1,N,0031,1","02100,1,C,N","011265,1,N,1","+0040,1","+0010,1","99999,9","02,5,+01500,1,99,9","07,5,+02100,1,99,9",,"07,99,1,99,9,99,9,99999,9,99,9,99,9","10020,1,99999,9",,,,,"MET062METAR ETSE 240720Z 20006KT 9999 FEW050 BKN070 04/01 Q1002 BLU;",
"10869099999","2010-02-24T08:20:00","4","48.322333","11.948667","461.77","ERDING, GM","FM-15","ETSE ","V020","240,1,N,0021,1","01950,5,C,N","011265,1,N,1","+0060,1","+0020,1","99999,9","02,5,+01200,1,99,9","07,5,+01950,5,99,9",,"07,99,1,99,9,99,9,99999,9,99,9,99,9","10031,1,99999,9",,,,,"MET077METAR ETSE 240820Z 24004KT 9999 FEW040 BKN065 06/02 Q1003 BLU BLU/ TEMPO BLU;",
"10869099999","2010-02-24T09:20:00","4","48.322333","11.948667","461.77","ERDING, GM","FM-15","ETSE ","V020","330,1,N,0015,1","02100,1,C,N","011265,1,N,1","+0070,1","+0020,1","99999,9","02,5,+01200,1,99,9","07,5,+02100,1,99,9","07,5,+05700,1,99,9","07,99,1,99,9,99,9,99999,9,99,9,99,9","10031,1,99999,9",,,,,"MET084METAR ETSE 240920Z 33003KT 9999 FEW040 BKN070 BKN190 07/02 Q1003 BLU BLU/ TEMPO BLU;",
"10869099999","2010-02-24T10:20:00","4","48.322333","11.948667","461.77","ERDING, GM","FM-15","ETSE ","V020","280,1,N,0015,1","05700,1,C,N","011265,1,N,1","+0080,1","+0030,1","99999,9","04,5,+02400,1,99,9","07,5,+05700,1,99,9",,"07,99,1,99,9,99,9,99999,9,99,9,99,9","10031,1,99999,9",,,,,"MET077METAR ETSE 241020Z 28003KT 9999 SCT080 BKN190 08/03 Q1003 BLU BLU/ TEMPO BLU;",
"10869099999","2010-02-24T11:20:00","4","48.322333","11.948667","461.77","ERDING, GM","FM-15","ETSE ","V020","230,1,N,0015,1","06300,1,C,N","011265,1,N,1","+0100,1","+0030,1","99999,9","04,5,+02400,1,99,9","07,5,+06300,1,99,9",,"07,99,1,99,9,99,9,99999,9,99,9,99,9","10031,1,99999,9",,,,,"MET077METAR ETSE 241120Z 23003KT 9999 SCT080 BKN210 10/03 Q1003 BLU/BLU/ TEMPO BLU;",
"10869099999","2010-02-24T12:20:00","4","48.322333","11.948667","461.77","ERDING, GM","FM-15","ETSE ","V020","130,1,N,0015,1","06900,1,C,N","011265,1,N,1","+0100,1","+0030,1","99999,9","02,5,+02400,1,99,9","07,5,+06900,1,99,9",,"07,99,1,99,9,99,9,99999,9,99,9,99,9","10031,1,99999,9",,,,,"MET077METAR ETSE 241220Z 13003KT 9999 FEW080 BKN230 10/03 Q1003 BLU/BLU/ TEMPO BLU;",
"10869099999","2010-02-24T13:20:00","4","48.322333","11.948667","461.77","ERDING, GM","FM-15","ETSE ","V020","030,1,N,0015,1","07200,1,C,N","011265,1,N,1","+0100,1","+0040,1","99999,9","02,5,+00690,1,99,9","07,5,+07200,1,99,9",,"07,99,1,99,9,99,9,99999,9,99,9,99,9","10020,1,99999,9",,,,,"MET077METAR ETSE 241320Z 03003KT 9999 FEW023 BKN240 10/04 Q1002 BLU/BLU/ TEMPO BLU;",
"10869099999","2010-02-24T14:20:00","4","48.322333","11.948667","461.77","ERDING, GM","FM-15","ETSE ","V020","010,1,N,0021,1","99999,9,C,N","011265,1,N,1","+0110,1","+0030,1","99999,9","02,5,+00900,1,99,9","04,5,+07200,1,99,9",,"04,99,1,99,9,99,9,99999,9,99,9,99,9","10020,1,99999,9",,,,,"MET074METAR ETSE 241420Z 01004KT 9999 FEW030 SCT240 11/03 Q1002 BLU/FCST CANCEL;","P01 072003SCOCIG"
"10869099999","2010-02-25T06:20:00","4","48.322333","11.948667","461.77","ERDING, GM","FM-15","ETSE ","V020","180,1,N,0031,1","02400,1,C,N","011265,1,N,1","+0050,1","+0010,1","99999,9","02,5,+01050,1,99,9","04,5,+02400,1,99,9","07,5,+03000,1,99,9","07,99,1,99,9,99,9,99999,9,99,9,99,9","10051,1,99999,9",,,,,"MET084METAR ETSE 250620Z 18006KT 9999 FEW035 SCT080 BKN100 05/01 Q1005 BLU BLU TEMPO BLU/;",
"10869099999","2010-02-25T07:20:00","4","48.322333","11.948667","461.77","ERDING, GM","FM-15","ETSE ","V020","190,1,N,0036,1","01800,1,C,N","011265,1,N,1","+0050,1","+0010,1","99999,9","02,5,+01200,1,99,9","04,5,+01800,1,99,9","07,5,+03600,1,99,9","07,99,1,99,9,99,9,99999,9,99,9,99,9","10051,1,99999,9",,,,,"MET084METAR ETSE 250720Z 19007KT 9999 FEW040 SCT060 BKN120 05/01 Q1005 BLU BLU TEMPO BLU/;",
"10869099999","2010-02-25T08:20:00","4","48.322333","11.948667","461.77","ERDING, GM","FM-15","ETSE ","V020","180,1,N,0036,1","99999,9,C,N","011265,1,N,1","+0060,1","+0020,1","99999,9","02,5,+01200,1,99,9","04,5,+03600,1,99,9",,"04,99,1,99,9,99,9,99999,9,99,9,99,9","10051,1,99999,9",,,,,"MET077METAR ETSE 250820Z 18007KT 9999 FEW040 SCT120 06/02 Q1005 BLU/BLU TEMPO BLU/;","P01 036003SCOCIG"
"10869099999","2010-02-25T09:20:00","4","48.322333","11.948667","461.77","ERDING, GM","FM-15","ETSE ","V020","170,1,N,0031,1","99999,9,C,N","011265,1,N,1","+0080,1","+0020,1","99999,9","02,5,+01200,1,99,9","04,5,+03300,1,99,9",,"04,99,1,99,9,99,9,99999,9,99,9,99,9","10051,1,99999,9",,,,,"MET077METAR ETSE 250920Z 17006KT 9999 FEW040 SCT110 08/02 Q1005 BLU/BLU TEMPO BLU/;","P01 033003SCOCIG"
"10869099999","2010-02-25T10:20:00","4","48.322333","11.948667","461.77","ERDING, GM","FM-15","ETSE ","V020","180,1,N,0046,1","22000,1,9,N","011265,1,N,1","+0100,1","+0020,1","99999,9","02,5,+03300,1,99,9",,,"02,99,1,99,9,99,9,99999,9,99,9,99,9","10041,1,99999,9",,,,,"MET060METAR ETSE 251020Z 18009KT 9999 FEW110 10/02 Q1004 BLU/BLU/;",
"10869099999","2010-02-25T11:20:00","4","48.322333","11.948667","461.77","ERDING, GM","FM-15","ETSE ","V020","150,1,N,0036,1","22000,1,9,N","011265,1,N,1","+0110,1","+0020,1","99999,9","02,5,+01050,1,99,9",,,"02,99,1,99,9,99,9,99999,9,99,9,99,9","10031,1,99999,9",,,,,"MET060METAR ETSE 251120Z 15007KT 9999 FEW035 11/02 Q1003 BLU/BLU/;",
"10869099999","2010-02-25T12:20:00","4","48.322333","11.948667","461.77","ERDING, GM","FM-15","ETSE ","V020","140,1,N,0051,1","22000,1,9,N","011265,1,N,1","+0110,1","+0020,1","99999,9","02,5,+01050,1,99,9",,,"02,99,1,99,9,99,9,99999,9,99,9,99,9","10020,1,99999,9",,,,,"MET060METAR ETSE 251220Z 14010KT 9999 FEW035 11/02 Q1002 BLU/BLU/;",
"10869099999","2010-02-25T13:20:00","4","48.322333","11.948667","461.77","ERDING, GM","FM-15","ETSE ","V020","130,1,N,0036,1","22000,1,9,N","011265,1,N,1","+0120,1","+0020,1","99999,9","02,5,+01050,1,99,9",,,"02,99,1,99,9,99,9,99999,9,99,9,99,9","10020,1,99999,9",,,,,"MET060METAR ETSE 251320Z 13007KT 9999 FEW035 12/02 Q1002 BLU/BLU/;",
"10869099999","2010-02-25T14:20:00","4","48.322333","11.948667","461.77","ERDING, GM","FM-15","ETSE ","V020","120,1,N,0046,1","22000,1,9,N","011265,1,N,1","+0110,1","+0010,1","99999,9","02,5,+01200,1,99,9",,,"02,99,1,99,9,99,9,99999,9,99,9,99,9","10010,1,99999,9",,,,,"MET067METAR ETSE 251420Z 12009KT 9999 FEW040 11/01 Q1001 BLU/FCST CANCEL;",
"10869099999","2010-02-26T06:20:00","4","48.322333","11.948667","461.77","ERDING, GM","FM-15","ETSE ","V020","260,1,N,0036,1","01500,1,C,N","011265,1,N,1","+0040,1","+0030,1","99999,9","02,5,+00660,1,99,9","07,5,+01500,1,99,9","07,5,+02550,5,99,9","07,99,1,99,9,99,9,99999,9,99,9,99,9","09959,1,99999,9","61,1",,,,"MET087METAR ETSE 260620Z 26007KT 9999 -RA FEW022 BKN050 BKN085 04/03 Q0996 BLU BLU TEMPO WHT;",
"10869099999","2010-02-26T07:20:00","4","48.322333","11.948667","461.77","ERDING, GM","FM-15","ETSE ","V020","190,1,N,0026,1","01800,1,C,N","011265,1,N,1","+0050,1","+0030,1","99999,9","02,5,+00750,1,99,9","07,5,+01800,1,99,9","07,5,+02400,1,99,9","07,99,1,99,9,99,9,99999,9,99,9,99,9","09959,1,99999,9",,,,,"MET083METAR ETSE 260720Z 19005KT 9999 FEW025 BKN060 BKN080 05/03 Q0996 BLU BLU TEMPO WHT;",
"10869099999","2010-02-26T09:20:00","4","48.322333","11.948667","461.77","ERDING, GM","FM-15","ETSE ","V020","220,1,N,0026,1","01050,1,C,N","011265,1,N,1","+0080,1","+0030,1","99999,9","02,5,+00840,1,99,9","04,5,+01050,1,99,9","07,5,+01800,1,99,9","07,99,1,99,9,99,9,99999,9,99,9,99,9","09970,1,99999,9",,,,,"MET081METAR ETSE 260920Z 22005KT 9999 FEW028 SCT035 BKN060 08/03 Q0997 BLU FCST CANCEL;",
"10869099999","2010-03-01T06:20:00","4","48.322333","11.948667","461.77","ERDING, GM","FM-15","ETSE ","V020","250,1,N,0051,1","22000,1,9,N","011265,1,N,1","+0050,1","-0020,1","99999,9","02,5,+01500,1,99,9",,,"02,99,1,99,9,99,9,99999,9,99,9,99,9","10081,1,99999,9",,,,,"MET057METAR ETSE 010620Z 25010KT 9999 FEW050 05/M02 Q1008 BLU/;",
"10869099999","2010-03-01T07:20:00","4","48.322333","11.948667","461.77","ERDING, GM","FM-15","ETSE ","V020","260,1,N,0057,1","22000,1,9,N","011265,1,N,1","+0060,1","-0020,1","99999,9","02,5,+01500,1,99,9",,,"02,99,1,99,9,99,9,99999,9,99,9,99,9","10091,1,99999,9",,,,,"MET057METAR ETSE 010720Z 26011KT 9999 FEW050 06/M02 Q1009 BLU/;",
"10869099999","2010-03-01T08:20:00","4","48.322333","11.948667","461.77","ERDING, GM","FM-15","ETSE ","V020","270,1,N,0067,1","22000,1,9,N","011265,1,N,1","+0070,1","-0020,1","99999,9","02,5,+01500,1,99,9",,,"02,99,1,99,9,99,9,99999,9,99,9,99,9","10091,1,99999,9",,,,,"MET057METAR ETSE 010820Z 27013KT 9999 FEW050 07/M02 Q1009 BLU/;",
"10869099999","2010-03-01T09:20:00","4","48.322333","11.948667","461.77","ERDING, GM","FM-15","ETSE ","V020","280,1,N,0082,1","22000,1,9,N","011265,1,N,1","+0080,1","-0020,1","99999,9","02,5,+01200,1,99,9",,,"02,99,1,99,9,99,9,99999,9,99,9,99,9","10102,1,99999,9",,,,,"MET057METAR ETSE 010920Z 28016KT 9999 FEW040 08/M02 Q1010 BLU/;",
"10869099999","2010-03-01T10:20:00","4","48.322333","11.948667","461.77","ERDING, GM","FM-15","ETSE ","V020","270,1,N,0062,1","22000,1,9,N","011265,1,N,1","+0090,1","-0030,1","99999,9","02,5,+01410,1,99,9",,,"02,99,1,99,9,99,9,99999,9,99,9,99,9","10102,1,99999,9",,,,,"MET057METAR ETSE 011020Z 27012KT 9999 FEW047 09/M03 Q1010 BLU/;",
"10869099999","2010-03-01T11:20:00","4","48.322333","11.948667","461.77","ERDING, GM","FM-15","ETSE ","V020","270,1,N,0067,1","22000,1,9,N","011265,1,N,1","+0100,1","-0030,1","99999,9","02,5,+01410,1,99,9",,,"02,99,1,99,9,99,9,99999,9,99,9,99,9","10102,1,99999,9",,,,,"MET061METAR ETSE 011120Z 27013KT 9999 FEW047 10/M03 Q1010 BLU/BLU/;",
"10869099999","2010-03-01T12:20:00","4","48.322333","11.948667","461.77","ERDING, GM","FM-15","ETSE ","V020","270,1,N,0067,1","22000,1,9,N","011265,1,N,1","+0100,1","-0050,1","99999,9","02,5,+01500,1,99,9",,,"02,99,1,99,9,99,9,99999,9,99,9,99,9","10102,1,99999,9",,,,,"MET061METAR ETSE 011220Z 27013KT 9999 FEW050 10/M05 Q1010 BLU/BLU/;",
"10869099999","2010-03-01T13:20:00","4","48.322333","11.948667","461.77","ERDING, GM","FM-15","ETSE ","V020","270,1,N,0057,1","22000,1,9,N","011265,1,N,1","+0100,1","-0040,1","99999,9","02,5,+01500,1,99,9",,,"02,99,1,99,9,99,9,99999,9,99,9,99,9","10102,1,99999,9",,,,,"MET061METAR ETSE 011320Z 27011KT 9999 FEW050 10/M04 Q1010 BLU/BLU/;",
"10869099999","2010-03-01T14:20:00","4","48.322333","11.948667","461.77","ERDING, GM","FM-15","ETSE ","V020","280,1,N,0041,1","22000,1,9,N","011265,1,N,1","+0100,1","-0030,1","99999,9","02,5,+01500,1,99,9",,,"02,99,1,99,9,99,9,99999,9,99,9,99,9","10102,1,99999,9",,,,,"MET061METAR ETSE 011420Z 28008KT 9999 FEW050 10/M03 Q1010 BLU/BLU/;",
"10869099999","2010-03-01T15:20:00","4","48.322333","11.948667","461.77","ERDING, GM","FM-15","ETSE ","V020","290,1,N,0051,1","22000,1,9,N","011265,1,N,1","+0100,1","-0040,1","99999,9","02,5,+01500,1,99,9",,,"02,99,1,99,9,99,9,99999,9,99,9,99,9","10102,1,99999,9",,,,,"MET068METAR ETSE 011520Z 29010KT 9999 FEW050 10/M04 Q1010 BLU/FCST CANCEL;",
"10869099999","2010-03-02T06:20:00","4","48.322333","11.948667","461.77","ERDING, GM","FM-15","ETSE ","V020","160,1,N,0010,1","01500,1,C,N","011265,1,N,1","+0000,1","-0020,1","99999,9","02,5,+01320,1,99,9","04,5,+01530,5,99,9","07,5,+02400,1,99,9","07,99,1,99,9,99,9,99999,9,99,9,99,9","10180,1,99999,9",,,,,"MET075METAR ETSE 020620Z 16002KT 9999 FEW044 SCT051 BKN080 M00/M02 Q1018 BLU BLU;",
"10869099999","2010-03-02T07:20:00","4","48.322333","11.948667","461.77","ERDING, GM","FM-15","ETSE ","V020","230,1,N,0015,1","01500,1,C,N","011265,1,N,1","+0010,1","-0010,1","99999,9","02,5,+01200,1,99,9","04,5,+01650,5,99,9","07,5,+02550,5,99,9","07,99,1,99,9,99,9,99999,9,99,9,99,9","10190,1,99999,9",,,,,"MET074METAR ETSE 020720Z 23003KT 9999 FEW040 SCT055 BKN085 01/M01 Q1019 BLU BLU;",
"10869099999","2010-03-02T08:20:00","4","48.322333","11.948667","461.77","ERDING, GM","FM-15","ETSE ","V020","190,1,N,0010,1","01500,1,C,N","011265,1,N,1","+0030,1","-0010,1","99999,9","02,5,+01050,1,99,9","04,5,+01650,5,99,9","07,5,+02400,1,99,9","07,99,1,99,9,99,9,99999,9,99,9,99,9","10190,1,99999,9",,,,,"MET074METAR ETSE 020820Z 19002KT 9999 FEW035 SCT055 BKN080 03/M01 Q1019 BLU BLU;",
"10869099999","2010-03-02T09:20:00","4","48.322333","11.948667","461.77","ERDING, GM","FM-15","ETSE ","V020","220,1,N,0021,1","01650,5,C,N","011265,1,N,1","+0050,1","+0000,1","99999,9","02,5,+00990,1,99,9","07,5,+01650,5,99,9","07,5,+03000,1,99,9","07,99,1,99,9,99,9,99999,9,99,9,99,9","10190,1,99999,9",,,,,"MET074METAR ETSE 020920Z 22004KT 9999 FEW033 BKN055 BKN100 05/M00 Q1019 BLU BLU;",
"10869099999","2010-03-02T10:20:00","4","48.322333","11.948667","461.77","ERDING, GM","FM-15","ETSE ","V020","240,1,N,0041,1","01290,1,C,N","011265,1,N,1","+0060,1","+0000,1","99999,9","02,5,+00930,1,99,9","04,5,+01290,1,99,9","07,5,+01800,1,99,9","07,99,1,99,9,99,9,99999,9,99,9,99,9","10190,1,99999,9",,,,,"MET074METAR ETSE 021020Z 24008KT 9999 FEW031 SCT043 BKN060 06/M00 Q1019 BLU BLU;",
"10869099999","2010-03-02T11:20:00","4","48.322333","11.948667","461.77","ERDING, GM","FM-15","ETSE ","V020","290,1,N,0031,1","00570,1,C,N","011265,1,N,1","+0050,1","+0010,1","99999,9","07,5,+00570,1,99,9","07,5,+00990,1,99,9",,"07,99,1,99,9,99,9,99999,9,99,9,99,9","10190,1,99999,9","61,1",,,,"MET080METAR ETSE 021120Z 29006KT 9999 -RA BKN019 BKN033 05/01 Q1019 WHT BLU TEMPO WHT;",
"10869099999","2010-03-02T12:20:00","4","48.322333","11.948667","461.77","ERDING, GM","FM-15","ETSE ","V020","310,1,N,0031,1","00330,1,C,N","011265,1,N,1","+0040,1","+0020,1","99999,9","07,5,+00330,1,99,9","07,5,+00900,1,99,9",,"07,99,1,99,9,99,9,99999,9,99,9,99,9","10190,1,99999,9","61,1",,,,"MET080METAR ETSE 021220Z 31006KT 9999 -RA BKN011 BKN030 04/02 Q1019 GRN BLU TEMPO GRN;",
"10869099999","2010-03-02T13:20:00","4","48.322333","11.948667","461.77","ERDING, GM","FM-15","ETSE ","V020","290,1,N,0026,1","00270,1,C,N","009000,1,N,1","+0030,1","+0020,1","99999,9","02,5,+00180,1,99,9","07,5,+00270,1,99,9","07,5,+00780,1,99,9","07,99,1,99,9,99,9,99999,9,99,9,99,9","10190,1,99999,9","61,1",,,,"MET087METAR ETSE 021320Z 29005KT 9000 -RA FEW006 BKN009 BKN026 03/02 Q1019 GRN BLU TEMPO GRN;",
"10869099999","2010-03-02T14:20:00","4","48.322333","11.948667","461.77","ERDING, GM","FM-15","ETSE ","V020","290,1,N,0026,1","00330,1,C,N","009000,1,N,1","+0030,1","+0020,1","99999,9","02,5,+00180,1,99,9","07,5,+00330,1,99,9","07,5,+00780,1,99,9","07,99,1,99,9,99,9,99999,9,99,9,99,9","10190,1,99999,9","61,1",,,,"MET087METAR ETSE 021420Z 29005KT 9000 -RA FEW006 BKN011 BKN026 03/02 Q1019 GRN BLU TEMPO GRN;",
"10869099999","2010-03-02T15:20:00","4","48.322333","11.948667","461.77","ERDING, GM","FM-15","ETSE ","V020","280,1,N,0021,1","00390,1,C,N","011265,1,N,1","+0030,1","+0020,1","99999,9","02,5,+00210,1,99,9","07,5,+00390,1,99,9","07,5,+00660,1,99,9","07,99,1,99,9,99,9,99999,9,99,9,99,9","10190,1,99999,9","61,1",,,,"MET087METAR ETSE 021520Z 28004KT 9999 -RA FEW007 BKN013 BKN022 03/02 Q1019 GRN BLU TEMPO GRN;",
"10869099999","2010-03-02T16:00:00","4","48.322333","11.948667","461.77","ERDING, GM","FM-16","ETSE ","V020","290,1,N,0021,1","00420,1,C,N","011265,1,N,1","+0040,1","+0020,1","99999,9","02,5,+00210,1,99,9","07,5,+00420,1,99,9","07,5,+00750,1,99,9","07,99,1,99,9,99,9,99999,9,99,9,99,9","10190,1,99999,9","61,1",,,,"MET085SPECI ETSE 021600Z 29004KT 9999 -RA FEW007 BKN014 BKN025 04/02 Q1019 GRN FCST CANCEL;",
"10869099999","2010-03-03T06:20:00","4","48.322333","11.948667","461.77","ERDING, GM","FM-15","ETSE ","V020","180,1,N,0015,1","00015,1,9,N","000050,1,N,1","-0030,1","-0030,1","99999,9","09,1,+00015,1,99,9",,,"09,99,1,99,9,99,9,00025,1,99,9,99,9","10220,1,99999,9","49,1",,,,"MET065METAR ETSE 030620Z 18003KT 0050 FZFG VV000 M03/M03 Q1022 RED RED;",
"10869099999","2010-03-03T07:07:00","4","48.322333","11.948667","461.77","ERDING, GM","FM-16","ETSE ","V020","190,1,N,0021,1","00015,1,9,N","000050,1,N,1","-0020,1","-0020,1","99999,9","09,1,+00015,1,99,9",,,"09,99,1,99,9,99,9,00025,1,99,9,99,9","10220,1,99999,9","49,1",,,,"MET070SPECI ETSE 030707Z 19004KT 0050 FZFG VV000 M02/M02 Q1022 BLACKRED RED;",
"10869099999","2010-03-03T07:20:00","4","48.322333","11.948667","461.77","ERDING, GM","FM-15","ETSE ","V020","200,1,N,0010,1","22000,1,9,N","000100,1,N,1","-0020,1","-0020,1","99999,9",,,,,"10220,1,99999,9","48,1",,,,"MET074METAR ETSE 030720Z 20002KT 0100 FZFG M02/M02 Q1022 BLACKRED RED BECMG AMB;",
"10869099999","2010-03-03T08:20:00","4","48.322333","11.948667","461.77","ERDING, GM","FM-15","ETSE ","V020","360,1,N,0015,1","00015,1,9,N","000100,1,N,1","-0020,1","-0020,1","99999,9","09,1,+00015,1,99,9",,,"09,99,1,99,9,99,9,00025,1,99,9,99,9","10220,1,99999,9","49,1",,,,"MET080METAR ETSE 030820Z 36003KT 0100 FZFG VV000 M02/M02 Q1022 BLACKRED RED BECMG AMB;",
"10869099999","2010-03-03T09:20:00","4","48.322333","11.948667","461.77","ERDING, GM","FM-15","ETSE ","V020","360,1,N,0021,1","00015,1,9,N","000100,1,N,1","-0010,1","-0010,1","99999,9","09,1,+00015,1,99,9",,,"09,99,1,99,9,99,9,00025,1,99,9,99,9","10220,1,99999,9","49,1",,,,"MET070METAR ETSE 030920Z 36004KT 0100 FZFG VV000 M01/M01 Q1022 BLACKRED RED;",
"10869099999","2010-03-03T10:20:00","4","48.322333","11.948667","461.77","ERDING, GM","FM-15","ETSE ","V020","030,1,N,0021,1","00120,1,C,N","000500,1,N,1","+0000,1","+0000,1","99999,9","07,5,+00120,1,99,9",,,"07,99,1,99,9,99,9,99999,9,99,9,99,9","10220,1,99999,9","44,1",,,,"MET077METAR ETSE 031020Z 03004KT 0500 FG BKN004 00/00 Q1022 BLACKRED RED BECMG YLO;",
"10869099999","2010-03-03T11:09:00","4","48.322333","11.948667","461.77","ERDING, GM","FM-16","ETSE ","V020","040,1,N,0031,1","22000,1,9,N","004000,1,N,1","+0020,1","+0020,1","99999,9","04,5,+00180,1,99,9",,,"04,99,1,99,9,99,9,99999,9,99,9,99,9","10210,1,99999,9","10,1",,,,"MET078SPECI ETSE 031109Z 04006KT 4000 BR SCT006 02/02 Q1021 BLACKGRN GRN BECMG BLU/;",
"10869099999","2010-03-03T11:13:00","4","48.322333","11.948667","461.77","ERDING, GM","FM-16","ETSE ","V020","040,1,N,0036,1","22000,1,9,N","005000,1,N,1","+0020,1","+0020,1","99999,9","04,5,+00180,1,99,9",,,"04,99,1,99,9,99,9,99999,9,99,9,99,9","10210,1,99999,9","10,1",,,,"MET073SPECI ETSE 031113Z 04007KT 5000 BR SCT006 02/02 Q1021 WHT WHT BECMG BLU/;",
"10869099999","2010-03-03T11:20:00","4","48.322333","11.948667","461.77","ERDING, GM","FM-15","ETSE ","V020","040,1,N,0036,1","22000,1,9,N","005000,1,N,1","+0020,1","+0020,1","99999,9","04,5,+00180,1,99,9",,,"04,99,1,99,9,99,9,99999,9,99,9,99,9","10210,1,99999,9","10,1",,,,"MET073METAR ETSE 031120Z 04007KT 5000 BR SCT006 02/02 Q1021 WHT WHT BECMG BLU/;",
"10869099999","2010-03-03T12:20:00","4","48.322333","11.948667","461.77","ERDING, GM","FM-15","ETSE ","V020","040,1,N,0036,1","07500,1,C,N","008000,1,N,1","+0020,1","+0010,1","99999,9","02,5,+00270,1,99,9","07,5,+07500,1,99,9",,"07,99,1,99,9,99,9,99999,9,99,9,99,9","10200,1,99999,9",,,,,"MET067METAR ETSE 031220Z 04007KT 8000 FEW009 BKN250 02/01 Q1020 BLU/BLU/;",
"10869099999","2010-03-03T13:20:00","4","48.322333","11.948667","461.77","ERDING, GM","FM-15","ETSE ","V020","080,1,N,0041,1","08100,1,C,N","011265,1,N,1","+0040,1","+0000,1","99999,9","02,5,+00270,1,99,9","07,5,+08100,1,99,9",,"07,99,1,99,9,99,9,99999,9,99,9,99,9","10190,1,99999,9",,,,,"MET068METAR ETSE 031320Z 08008KT 9999 FEW009 BKN270 04/M00 Q1019 BLU/BLU/;",
"10869099999","2010-03-03T14:20:00","4","48.322333","11.948667","461.77","ERDING, GM","FM-15","ETSE ","V020","090,1,N,0046,1","08100,1,C,N","011265,1,N,1","+0040,1","-0010,1","99999,9","02,5,+00510,1,99,9","07,5,+08100,1,99,9",,"07,99,1,99,9,99,9,99999,9,99,9,99,9","10180,1,99999,9",,,,,"MET075METAR ETSE 031420Z 09009KT 9999 FEW017 BKN270 04/M01 Q1018 BLU/FCST CANCEL;",
"10869099999","2010-03-04T06:20:00","4","48.322333","11.948667","461.77","ERDING, GM","FM-15","ETSE ","V020","050,1,N,0036,1","04800,1,C,N","011265,1,N,1","-0020,1","-0060,1","99999,9","02,5,+03600,1,99,9","07,5,+04800,1,99,9",,"07,99,1,99,9,99,9,99999,9,99,9,99,9","10091,1,99999,9",,,,,"MET068METAR ETSE 040620Z 05007KT 9999 FEW120 BKN160 M02/M06 Q1009 BLU BLU;",
"10869099999","2010-03-04T07:20:00","4","48.322333","11.948667","461.77","ERDING, GM","FM-15","ETSE ","V020","040,1,N,0036,1","05100,1,C,N","011265,1,N,1","-0010,1","-0060,1","99999,9","02,5,+03600,1,99,9","07,5,+05100,1,99,9",,"07,99,1,99,9,99,9,99999,9,99,9,99,9","10102,1,99999,9",,,,,"MET068METAR ETSE 040720Z 04007KT 9999 FEW120 BKN170 M01/M06 Q1010 BLU BLU;",
"10869099999","2010-03-04T08:20:00","4","48.322333","11.948667","461.77","ERDING, GM","FM-15","ETSE ","V020","050,1,N,0036,1","05400,1,C,N","011265,1,N,1","+0010,1","-0060,1","99999,9","02,5,+04200,1,99,9","07,5,+05400,1,99,9",,"07,99,1,99,9,99,9,99999,9,99,9,99,9","10102,1,99999,9",,,,,"MET067METAR ETSE 040820Z 05007KT 9999 FEW140 BKN180 01/M06 Q1010 BLU BLU;",
"10869099999","2010-03-04T09:20:00","4","48.322333","11.948667","461.77","ERDING, GM","FM-15","ETSE ","V020","070,1,N,0046,1","05100,1,C,N","011265,1,N,1","+0010,1","-0060,1","99999,9","04,5,+03600,1,99,9","07,5,+05100,1,99,9",,"07,99,1,99,9,99,9,99999,9,99,9,99,9","10102,1,99999,9",,,,,"MET067METAR ETSE 040920Z 07009KT 9999 SCT120 BKN170 01/M06 Q1010 BLU BLU;",
"10869099999","2010-03-04T10:20:00","4","48.322333","11.948667","461.77","ERDING, GM","FM-15","ETSE ","V020","040,1,N,0046,1","04500,1,C,N","011265,1,N,1","+0020,1","-0060,1","99999,9","02,5,+03900,1,99,9","07,5,+04500,1,99,9","07,5,+07200,1,99,9","07,99,1,99,9,99,9,99999,9,99,9,99,9","10108,1,99999,9",,,,,"MET074METAR ETSE 041020Z 04009KT 9999 FEW130 BKN150 BKN240 02/M06 Q1011 BLU BLU;",
"10869099999","2010-03-04T11:20:00","4","48.322333","11.948667","461.77","ERDING, GM","FM-15","ETSE ","V020","060,1,N,0036,1","04200,1,C,N","011265,1,N,1","+0030,1","-0060,1","99999,9","02,5,+01050,1,99,9","04,5,+04200,1,99,9","07,5,+07200,1,99,9","07,99,1,99,9,99,9,99999,9,99,9,99,9","10108,1,99999,9",,,,,"MET085METAR ETSE 041120Z 06007KT 9999 FEW035 SCT140 BKN240 03/M06 Q1011 BLU/BLU/ TEMPO BLU;",
"10869099999","2010-03-04T12:20:00","4","48.322333","11.948667","461.77","ERDING, GM","FM-15","ETSE ","V020","040,1,N,0041,1","06900,1,C,N","011265,1,N,1","+0040,1","-0050,1","99999,9","02,5,+01080,1,99,9","07,5,+06900,1,99,9",,"07,99,1,99,9,99,9,99999,9,99,9,99,9","10108,1,99999,9",,,,,"MET078METAR ETSE 041220Z 04008KT 9999 FEW036 BKN230 04/M05 Q1011 BLU/BLU/ TEMPO BLU;",
"10869099999","2010-03-04T13:20:00","4","48.322333","11.948667","461.77","ERDING, GM","FM-15","ETSE ","V020","010,1,N,0026,1","01110,1,C,N","011265,1,N,1","+0040,1","-0050,1","99999,9","07,5,+01110,1,99,9","07,5,+06600,1,99,9",,"07,99,1,99,9,99,9,99999,9,99,9,99,9","10108,1,99999,9",,,,,"MET078METAR ETSE 041320Z 01005KT 9999 BKN037 BKN220 04/M05 Q1011 BLU BLU/ TEMPO BLU;",
"10869099999","2010-03-04T14:20:00","4","48.322333","11.948667","461.77","ERDING, GM","FM-15","ETSE ","V020","010,1,N,0036,1","01200,1,C,N","011265,1,N,1","+0040,1","-0060,1","99999,9","07,5,+01200,1,99,9","04,5,+03600,1,99,9","07,5,+06600,1,99,9","07,99,1,99,9,99,9,99999,9,99,9,99,9","10108,1,99999,9",,,,,"MET085METAR ETSE 041420Z 01007KT 9999 BKN040 SCT120 BKN220 04/M06 Q1011 BLU BLU/ TEMPO BLU;",
"10869099999","2010-03-04T15:20:00","4","48.322333","11.948667","461.77","ERDING, GM","FM-15","ETSE ","V020","360,1,N,0031,1","01350,1,C,N","011265,1,N,1","+0030,1","-0060,1","99999,9","07,5,+01350,1,99,9","04,5,+03600,1,99,9",,,"10119,1,99999,9",,,,,"MET075METAR ETSE 041520Z 36006KT 9999 BKN045 SCT120 03/M06 Q1012 BLU FCST CANCEL;","Q01+000042SCOTCV"
"10869099999","2010-03-05T06:20:00","4","48.322333","11.948667","461.77","ERDING, GM","FM-15","ETSE ","V020","310,1,N,0021,1","99999,9,C,N","011265,1,N,1","-0040,1","-0060,1","99999,9","02,5,+00570,1,99,9","04,5,+02100,1,99,9",,"04,99,1,99,9,99,9,99999,9,99,9,99,9","10190,1,99999,9",,,,,"MET069METAR ETSE 050620Z 31004KT 9999 FEW019 SCT070 M04/M06 Q1019 BLU/BLU/;","P01 021003SCOCIG"
"10869099999","2010-03-05T07:20:00","4","48.322333","11.948667","461.77","ERDING, GM","FM-15","ETSE ","V020","320,1,N,0026,1","22000,1,9,N","011265,1,N,1","-0030,1","-0060,1","99999,9","02,5,+00750,1,99,9",,,"02,99,1,99,9,99,9,99999,9,99,9,99,9","10200,1,99999,9",,,,,"MET062METAR ETSE 050720Z 32005KT 9999 FEW025 M03/M06 Q1020 BLU/BLU/;",
"10869099999","2010-03-05T08:20:00","4","48.322333","11.948667","461.77","ERDING, GM","FM-15","ETSE ","V020","310,1,N,0036,1","22000,1,9,N","011265,1,N,1","-0020,1","-0080,1","99999,9","02,5,+00750,1,99,9",,,"02,99,1,99,9,99,9,99999,9,99,9,99,9","10200,1,99999,9",,,,,"MET062METAR ETSE 050820Z 31007KT 9999 FEW025 M02/M08 Q1020 BLU/BLU/;",
"10869099999","2010-03-05T10:20:00","4","48.322333","11.948667","461.77","ERDING, GM","FM-15","ETSE ","V020","320,1,N,0051,1","00900,1,C,N","006000,1,N,1","-0030,1","-0070,1","99999,9","02,5,+00270,1,99,9","07,5,+00900,1,09,5",,"07,99,1,99,9,99,9,99999,9,99,9,99,9","10200,1,99999,9","85,5",,,,"MET089METAR ETSE 051020Z 32010KT 6000 -SHSN FEW009 BKN030CB M03/M07 Q1020 RESN WHT FCST CANCEL;",
"10869099999","2010-03-08T06:20:00","4","48.322333","11.948667","461.77","ERDING, GM","FM-15","ETSE ","V020","100,1,N,0010,1","22000,1,9,N","011265,1,N,1","-0120,1","-0130,1","99999,9",,,,,"10230,1,99999,9",,,,,"MET065METAR ETSE 080620Z 10002KT 9999 M12/M13 Q1023 BLU/BLU/ TEMPO WHT;",
"10869099999","2010-03-08T07:20:00","4","48.322333","11.948667","461.77","ERDING, GM","FM-15","ETSE ","V020","070,1,N,0010,1","22000,1,9,N","011265,1,N,1","-0110,1","-0120,1","99999,9",,,,,"10230,1,99999,9",,,,,"MET055METAR ETSE 080720Z 07002KT 9999 M11/M12 Q1023 BLU/BLU/;",
"10869099999","2010-03-08T08:00:00","4","48.322333","11.948667","461.77","ERDING, GM","FM-15","ETSE ","V020","110,1,N,0010,1","22000,1,9,N","011265,1,N,1","-0100,1","-0120,1","99999,9",,,,,"10230,1,99999,9",,,,,"MET060SPECI ETSE 080755Z 11002KT 9999 M10/M12 Q1023 BLACKBLU/BLU/;",
"10869099999","2010-03-08T08:20:00","4","48.322333","11.948667","461.77","ERDING, GM","FM-15","ETSE ","V020","160,1,N,0010,1","22000,1,9,N","011265,1,N,1","-0080,1","-0100,1","99999,9",,,,,"10230,1,99999,9",,,,,"MET060METAR ETSE 080820Z 16002KT 9999 M08/M10 Q1023 BLACKBLU/BLU/;",
"10869099999","2010-03-08T09:20:00","4","48.322333","11.948667","461.77","ERDING, GM","FM-15","ETSE ","V020","130,1,N,0026,1","22000,1,9,N","011265,1,N,1","-0060,1","-0110,1","99999,9",,,,,"10220,1,99999,9",,,,,"MET060METAR ETSE 080920Z 13005KT 9999 M06/M11 Q1022 BLACKBLU/BLU/;",
"10869099999","2010-03-08T10:20:00","4","48.322333","11.948667","461.77","ERDING, GM","FM-15","ETSE ","V020","999,9,V,0010,1","22000,1,9,N","011265,1,N,1","-0040,1","-0110,1","99999,9","02,5,+00750,1,99,9",,,"02,99,1,99,9,99,9,99999,9,99,9,99,9","10220,1,99999,9",,,,,"MET067METAR ETSE 081020Z VRB02KT 9999 FEW025 M04/M11 Q1022 BLACKBLU/BLU/;",
"10869099999","2010-03-08T11:20:00","4","48.322333","11.948667","461.77","ERDING, GM","FM-15","ETSE ","V020","060,1,N,0046,1","22000,1,9,N","011265,1,N,1","-0020,1","-0100,1","99999,9","02,5,+01050,1,99,9",,,"02,99,1,99,9,99,9,99999,9,99,9,99,9","10210,1,99999,9",,,,,"MET067METAR ETSE 081120Z 06009KT 9999 FEW035 M02/M10 Q1021 BLACKBLU/BLU/;",
"10869099999","2010-03-08T12:20:00","4","48.322333","11.948667","461.77","ERDING, GM","FM-15","ETSE ","V020","090,1,N,0062,1","22000,1,9,N","011265,1,N,1","-0030,1","-0120,1","99999,9","02,5,+01140,1,99,9",,,"02,99,1,99,9,99,9,99999,9,99,9,99,9","10200,1,99999,9",,,,,"MET067METAR ETSE 081220Z 09012KT 9999 FEW038 M03/M12 Q1020 BLACKBLU/BLU/;",
"10869099999","2010-03-08T13:20:00","4","48.322333","11.948667","461.77","ERDING, GM","FM-15","ETSE ","V020","060,1,N,0051,1","00870,1,C,N","011265,1,N,1","-0020,1","-0100,1","99999,9","07,5,+00870,1,99,9","04,5,+06000,1,99,9",,,"10200,1,99999,9",,,,,"MET084METAR ETSE 081320Z 06010KT 9999 BKN029 SCT200 M02/M10 Q1020 BLACKBLU BLU/ TEMPO WHT;","Q01+000042SCOTCV"
"10869099999","2010-03-08T14:20:00","4","48.322333","11.948667","461.77","ERDING, GM","FM-15","ETSE ","V020","070,1,N,0031,1","01050,1,C,N","011265,1,N,1","-0030,1","-0100,1","99999,9","02,5,+00660,1,99,9","07,5,+01050,1,99,9",,"07,99,1,99,9,99,9,99999,9,99,9,99,9","10200,1,99999,9",,,,,"MET084METAR ETSE 081420Z 07006KT 9999 FEW022 BKN035 M03/M10 Q1020 BLACKBLU BLU/ TEMPO WHT;",
"10869099999","2010-03-08T15:00:00","4","48.322333","11.948667","461.77","ERDING, GM","FM-16","ETSE ","V020","080,1,N,0046,1","99999,9,C,N","011265,1,N,1","-0030,1","-0100,1","99999,9","02,5,+00690,1,99,9","04,5,+01200,1,99,9",,"04,99,1,99,9,99,9,99999,9,99,9,99,9","10200,1,99999,9",,,,,"MET081SPECI ETSE 081500Z 08009KT 9999 FEW023 SCT040 M03/M10 Q1020 BLACKBLU/FCST CANCEL;","P01 012003SCOCIG"
"10869099999","2010-03-09T06:20:00","4","48.322333","11.948667","461.77","ERDING, GM","FM-15","ETSE ","V020","070,1,N,0051,1","00540,1,C,N","011265,1,N,1","-0080,1","-0110,1","99999,9","07,5,+00540,1,99,9",,,"07,99,1,99,9,99,9,99999,9,99,9,99,9","10180,1,99999,9",,,,,"MET072METAR ETSE 090620Z 07010KT 9999 BKN018 M08/M11 Q1018 WHT BLU/ TEMPO WHT;",
"10869099999","2010-03-09T07:20:00","4","48.322333","11.948667","461.77","ERDING, GM","FM-15","ETSE ","V020","080,1,N,0051,1","00540,1,C,N","011265,1,N,1","-0080,1","-0110,1","99999,9","07,5,+00540,1,99,9","04,5,+07200,1,99,9",,,"10180,1,99999,9",,,,,"MET079METAR ETSE 090720Z 08010KT 9999 BKN018 SCT240 M08/M11 Q1018 WHT BLU/ TEMPO WHT;","Q01+000042SCOTCV"
"10869099999","2010-03-09T08:20:00","4","48.322333","11.948667","461.77","ERDING, GM","FM-15","ETSE ","V020","100,1,N,0062,1","22000,1,9,N","011265,1,N,1","-0070,1","-0100,1","99999,9","02,5,+00570,1,99,9",,,"02,99,1,99,9,99,9,99999,9,99,9,99,9","10180,1,99999,9",,,,,"MET062METAR ETSE 090820Z 10012KT 9999 FEW019 M07/M10 Q1018 BLU/BLU/;",
"10869099999","2010-03-09T09:20:00","4","48.322333","11.948667","461.77","ERDING, GM","FM-15","ETSE ","V020","090,1,N,0062,1","22000,1,9,N","011265,1,N,1","-0050,1","-0100,1","99999,9","02,5,+00600,1,99,9",,,"02,99,1,99,9,99,9,99999,9,99,9,99,9","10180,1,99999,9",,,,,"MET062METAR ETSE 090920Z 09012KT 9999 FEW020 M05/M10 Q1018 BLU/BLU/;",
"10869099999","2010-03-09T10:20:00","4","48.322333","11.948667","461.77","ERDING, GM","FM-15","ETSE ","V020","090,1,N,0077,1","06600,1,C,N","011265,1,N,1","-0040,1","-0090,1","99999,9","02,5,+00600,1,99,9","07,5,+06600,1,99,9",,"07,99,1,99,9,99,9,99999,9,99,9,99,9","10180,1,99999,9",,,,,"MET079METAR ETSE 091020Z 09015KT 9999 FEW020 BKN220 M04/M09 Q1018 BLU/BLU/ TEMPO BLU;",
"10869099999","2010-03-09T11:20:00","4","48.322333","11.948667","461.77","ERDING, GM","FM-15","ETSE ","V020","080,1,N,0093,1","06600,1,C,N","011265,1,N,1","-0030,1","-0090,1","99999,9","02,5,+00900,1,99,9","07,5,+06600,1,99,9",,"07,99,1,99,9,99,9,99999,9,99,9,99,9","10180,1,99999,9",,,,,"MET079METAR ETSE 091120Z 08018KT 9999 FEW030 BKN220 M03/M09 Q1018 BLU/BLU/ TEMPO BLU;",
"10869099999","2010-03-09T12:20:00","4","48.322333","11.948667","461.77","ERDING, GM","FM-15","ETSE ","V020","090,1,N,0103,1","06300,1,C,N","011265,1,N,1","-0030,1","-0100,1","99999,9","02,5,+01200,1,99,9","07,5,+06300,1,99,9",,"07,99,1,99,9,99,9,99999,9,99,9,99,9","10169,1,99999,9","36,1",,,,"MET084METAR ETSE 091220Z 09020KT 9999 DRSN FEW040 BKN210 M03/M10 Q1017 BLU/BLU/ TEMPO BLU;",
"10869099999","2010-03-09T13:20:00","4","48.322333","11.948667","461.77","ERDING, GM","FM-15","ETSE ","V020","080,1,N,0103,1","06300,1,C,N","011265,1,N,1","-0020,1","-0100,1","99999,9","02,5,+03000,1,99,9","07,5,+06300,1,99,9",,"07,99,1,99,9,99,9,99999,9,99,9,99,9","10169,1,99999,9","36,1",,,,"MET084METAR ETSE 091320Z 08020KT 9999 DRSN FEW100 BKN210 M02/M10 Q1017 BLU/BLU/ TEMPO BLU;",
"10869099999","2010-03-09T14:20:00","4","48.322333","11.948667","461.77","ERDING, GM","FM-15","ETSE ","V020","090,1,N,0093,1","06000,1,C,N","011265,1,N,1","-0020,1","-0110,1","99999,9","07,5,+06000,1,99,9",,,"07,99,1,99,9,99,9,99999,9,99,9,99,9","10169,1,99999,9","36,1",,,,"MET077METAR ETSE 091420Z 09018KT 9999 DRSN BKN200 M02/M11 Q1017 BLU/BLU/ TEMPO BLU;",
"10869099999","2010-03-09T15:20:00","4","48.322333","11.948667","461.77","ERDING, GM","FM-15","ETSE ","V020","090,1,N,0098,1","06000,1,C,N","011265,1,N,1","-0010,1","-0100,1","99999,9","07,5,+06000,1,99,9",,,"07,99,1,99,9,99,9,99999,9,99,9,99,9","10180,1,99999,9","36,1",,,,"MET077METAR ETSE 091520Z 09019KT 9999 DRSN BKN200 M01/M10 Q1018 BLU/BLU/ TEMPO BLU;",
"10869099999","2010-03-09T16:20:00","4","48.322333","11.948667","461.77","ERDING, GM","FM-15","ETSE ","V020","080,1,N,0072,1","06300,1,C,N","011265,1,N,1","-0020,1","-0100,1","99999,9","07,5,+06300,1,99,9",,,"07,99,1,99,9,99,9,99999,9,99,9,99,9","10180,1,99999,9","36,1",,,,"MET074METAR ETSE 091620Z 08014KT 9999 DRSN BKN210 M02/M10 Q1018 BLU/FCST CANCEL;",
"10869099999","2010-03-10T06:20:00","4","48.322333","11.948667","461.77","ERDING, GM","FM-15","ETSE ","V020","080,1,N,0077,1","03600,1,C,N","011265,1,N,1","-0050,1","-0110,1","99999,9","07,5,+03600,1,99,9","07,5,+06000,1,99,9",,"07,99,1,99,9,99,9,99999,9,99,9,99,9","10149,1,99999,9",,,,,"MET064METAR ETSE 100620Z 08015KT 9999 BKN120 BKN200 M05/M11 Q1015 BLU;",
"10869099999","2010-03-10T07:20:00","4","48.322333","11.948667","461.77","ERDING, GM","FM-15","ETSE ","V020","080,1,N,0072,1","03600,1,C,N","011265,1,N,1","-0040,1","-0110,1","99999,9","07,5,+03600,1,99,9","07,5,+06000,1,99,9",,"07,99,1,99,9,99,9,99999,9,99,9,99,9","10149,1,99999,9",,,,,"MET064METAR ETSE 100720Z 08014KT 9999 BKN120 BKN200 M04/M11 Q1015 BLU;",
"10869099999","2010-03-10T08:20:00","4","48.322333","11.948667","461.77","ERDING, GM","FM-15","ETSE ","V020","090,1,N,0087,1","03300,1,C,N","011265,1,N,1","-0040,1","-0100,1","99999,9","02,5,+02400,1,99,9","07,5,+03300,1,99,9","07,5,+06000,1,99,9","07,99,1,99,9,99,9,99999,9,99,9,99,9","10149,1,99999,9",,,,,"MET075METAR ETSE 100820Z 09017KT 9999 FEW080 BKN110 BKN200 M04/M10 Q1015 BLU BLU;",
"10869099999","2010-03-10T09:20:00","4","48.322333","11.948667","461.77","ERDING, GM","FM-15","ETSE ","V020","080,1,N,0108,1","03300,1,C,N","011265,1,N,1","-0020,1","-0100,1","99999,9","04,5,+02400,1,99,9","07,5,+03300,1,99,9",,"07,99,1,99,9,99,9,99999,9,99,9,99,9","10139,1,99999,9",,,,,"MET068METAR ETSE 100920Z 08021KT 9999 SCT080 BKN110 M02/M10 Q1014 BLU BLU;",
"10869099999","2010-03-10T10:20:00","4","48.322333","11.948667","461.77","ERDING, GM","FM-15","ETSE ","V020","090,1,N,0108,1","02100,1,C,N","011265,1,N,1","-0010,1","-0090,1","99999,9","02,5,+01500,1,99,9","04,5,+02100,1,99,9","07,5,+03600,1,99,9","07,99,1,99,9,99,9,99999,9,99,9,99,9","10129,1,99999,9",,,,,"MET075METAR ETSE 101020Z 09021KT 9999 FEW050 SCT070 BKN120 M01/M09 Q1013 BLU BLU;",
"10869099999","2010-03-10T11:20:00","4","48.322333","11.948667","461.77","ERDING, GM","FM-15","ETSE ","V020","090,1,N,0103,1","03600,1,C,N","011265,1,N,1","-0010,1","-0090,1","99999,9","02,5,+01500,1,99,9","04,5,+03600,1,99,9","07,5,+05100,1,99,9","07,99,1,99,9,99,9,99999,9,99,9,99,9","10129,1,99999,9",,,,,"MET086METAR ETSE 101120Z 09020KT 9999 FEW050 SCT120 BKN170 M01/M09 Q1013 BLU BLU TEMPO BLU/;",
"10869099999","2010-03-10T12:20:00","4","48.322333","11.948667","461.77","ERDING, GM","FM-15","ETSE ","V020","080,1,N,0098,1","99999,9,C,N","011265,1,N,1","+0000,1","-0080,1","99999,9","02,5,+02100,1,99,9","04,5,+05100,1,99,9",,"04,99,1,99,9,99,9,99999,9,99,9,99,9","10119,1,99999,9",,,,,"MET078METAR ETSE 101220Z 08019KT 9999 FEW070 SCT170 00/M08 Q1012 BLU/BLU TEMPO BLU/;","P01 051003SCOCIG"
"10869099999","2010-03-10T13:20:00","4","48.322333","11.948667","461.77","ERDING, GM","FM-15","ETSE ","V020","080,1,N,0103,1","22000,1,9,N","011265,1,N,1","+0010,1","-0080,1","99999,9","02,5,+05100,1,99,9",,,"02,99,1,99,9,99,9,99999,9,99,9,99,9","10119,1,99999,9",,,,,"MET071METAR ETSE 101320Z 08020KT 9999 FEW170 01/M08 Q1012 BLU/BLU TEMPO BLU/;",
"10869099999","2010-03-10T14:20:00","4","48.322333","11.948667","461.77","ERDING, GM","FM-15","ETSE ","V020","080,1,N,0077,1","22000,1,9,N","011265,1,N,1","+0010,1","-0070,1","99999,9","02,5,+03000,1,99,9",,,"02,99,1,99,9,99,9,99999,9,99,9,99,9","10119,1,99999,9",,,,,"MET071METAR ETSE 101420Z 08015KT 9999 FEW100 01/M07 Q1012 BLU/BLU TEMPO BLU/;",
"10869099999","2010-03-10T15:20:00","4","48.322333","11.948667","461.77","ERDING, GM","FM-15","ETSE ","V020","080,1,N,0082,1","03600,1,C,N","011265,1,N,1","+0010,1","-0060,1","99999,9","02,5,+03000,1,99,9","07,5,+03600,1,99,9",,"07,99,1,99,9,99,9,99999,9,99,9,99,9","10119,1,99999,9",,,,,"MET075METAR ETSE 101520Z 08016KT 9999 FEW100 BKN120 01/M06 Q1012 BLU FCST CANCEL;",
"10869099999","2010-03-11T06:20:00","4","48.322333","11.948667","461.77","ERDING, GM","FM-15","ETSE ","V020","020,1,N,0021,1","00300,1,C,N","000450,1,N,1","-0030,1","-0030,1","99999,9","07,5,+00300,1,99,9","07,5,+00810,1,99,9",,"07,99,1,99,9,99,9,99999,9,99,9,99,9","10102,1,99999,9","75,1",,,,"MET087METAR ETSE 110620Z 02004KT 0450 +SN BKN010 BKN027 M03/M03 Q1010 BLACKRED YLO TEMPO RED;",
"10869099999","2010-03-11T07:03:00","4","48.322333","11.948667","461.77","ERDING, GM","FM-16","ETSE ","V020","020,1,N,0021,1","00150,1,C,N","000800,1,N,1","-0030,1","-0030,1","99999,9","07,5,+00150,1,99,9","08,5,+00270,1,99,9",,"08,99,1,99,9,99,9,99999,9,99,9,99,9","10102,1,99999,9","75,1",,,,"MET087SPECI ETSE 110703Z 02004KT 0800 +SN BKN005 OVC009 M03/M03 Q1010 BLACKAMB YLO TEMPO RED;",
"10869099999","2010-03-11T07:20:00","4","48.322333","11.948667","461.77","ERDING, GM","FM-15","ETSE ","V020","010,1,N,0015,1","00300,1,C,N","000800,1,N,1","-0020,1","-0020,1","99999,9","04,5,+00150,1,99,9","07,5,+00300,1,99,9",,"07,99,1,99,9,99,9,99999,9,99,9,99,9","10108,1,99999,9","75,1",,,,"MET087METAR ETSE 110720Z 01003KT 0800 +SN SCT005 BKN010 M02/M02 Q1011 BLACKAMB YLO TEMPO RED;",
"10869099999","2010-03-11T07:43:00","4","48.322333","11.948667","461.77","ERDING, GM","FM-16","ETSE ","V020","010,1,N,0015,1","00300,1,C,N","000600,1,N,1","-0020,1","-0030,1","99999,9","04,5,+00150,1,99,9","07,5,+00300,1,99,9",,"07,99,1,99,9,99,9,99999,9,99,9,99,9","10108,1,99999,9","75,1",,,,"MET087SPECI ETSE 110743Z 01003KT 0600 +SN SCT005 BKN010 M02/M03 Q1011 BLACKRED YLO TEMPO RED;",
"10869099999","2010-03-11T08:07:00","4","48.322333","11.948667","461.77","ERDING, GM","FM-16","ETSE ","V020","360,1,N,0015,1","00240,1,C,N","000800,1,N,1","-0020,1","-0030,1","99999,9","02,5,+00150,1,99,9","07,5,+00240,1,99,9",,"07,99,1,99,9,99,9,99999,9,99,9,99,9","10108,1,99999,9","75,1",,,,"MET087SPECI ETSE 110807Z 36003KT 0800 +SN FEW005 BKN008 M02/M03 Q1011 BLACKAMB YLO TEMPO AMB;",
"10869099999","2010-03-11T08:20:00","4","48.322333","11.948667","461.77","ERDING, GM","FM-15","ETSE ","V020","360,1,N,0015,1","00240,1,C,N","001600,1,N,1","-0020,1","-0020,1","99999,9","02,5,+00180,1,99,9","07,5,+00240,1,99,9","07,5,+00420,1,99,9","07,99,1,99,9,99,9,99999,9,99,9,99,9","10108,1,99999,9","73,1",,,,"MET098METAR ETSE 110820Z 36003KT 1600 SN FEW006 BKN008 BKN014 M02/M02 Q1011 RESN BLACKYLO YLO TEMPO AMB;",
"10869099999","2010-03-11T09:20:00","4","48.322333","11.948667","461.77","ERDING, GM","FM-15","ETSE ","V020","030,1,N,0026,1","00300,1,C,N","001800,1,N,1","-0010,1","-0030,1","99999,9","02,5,+00210,1,99,9","04,5,+00300,1,99,9","07,5,+00480,1,99,9","07,99,1,99,9,99,9,99999,9,99,9,99,9","10108,1,99999,9","73,1",,,,"MET093METAR ETSE 110920Z 03005KT 1800 SN FEW007 SCT010 BKN016 M01/M03 Q1011 BLACKYLO YLO TEMPO AMB;",
"10869099999","2010-03-11T10:20:00","4","48.322333","11.948667","461.77","ERDING, GM","FM-15","ETSE ","V020","020,1,N,0021,1","00300,1,C,N","009000,1,N,1","+0000,1","-0030,1","99999,9","02,5,+00240,1,99,9","04,5,+00300,1,99,9","07,5,+00480,1,99,9","07,99,1,99,9,99,9,99999,9,99,9,99,9","10108,1,99999,9","71,1",,,,"MET099METAR ETSE 111020Z 02004KT 9000 -SN FEW008 SCT010 BKN016 M00/M03 Q1011 RESN BLACKWHT YLO TEMPO AMB;",
"10869099999","2010-03-11T10:25:00","4","48.322333","11.948667","461.77","ERDING, GM","FM-16","ETSE ","V020","030,1,N,0021,1","00300,1,C,N","009000,1,N,1","-0010,1","-0030,1","99999,9","02,5,+00240,1,99,9","04,5,+00300,1,99,9","07,5,+00480,1,99,9","07,99,1,99,9,99,9,99999,9,99,9,99,9","10108,1,99999,9","71,1",,,,"MET099SPECI ETSE 111025Z 03004KT 9000 -SN FEW008 SCT010 BKN016 M01/M03 Q1011 RESN BLACKWHT YLO TEMPO GRN;",
"10869099999","2010-03-11T11:02:00","4","48.322333","11.948667","461.77","ERDING, GM","FM-16","ETSE ","V020","030,1,N,0026,1","00330,1,C,N","004300,1,N,1","+0000,1","-0030,1","99999,9","02,5,+00240,1,99,9","04,5,+00330,1,99,9","07,5,+00450,1,99,9","07,99,1,99,9,99,9,99999,9,99,9,99,9","10108,1,99999,9","71,1",,,,"MET094SPECI ETSE 111102Z 03005KT 4300 -SN FEW008 SCT011 BKN015 M00/M03 Q1011 BLACKGRN YLO TEMPO GRN;",
"10869099999","2010-03-11T11:08:00","4","48.322333","11.948667","461.77","ERDING, GM","FM-16","ETSE ","V020","020,1,N,0021,1","00480,1,C,N","003500,1,N,1","+0000,1","-0030,1","99999,9","02,5,+00270,1,99,9","07,5,+00480,1,99,9",,"07,99,1,99,9,99,9,99999,9,99,9,99,9","10108,1,99999,9","73,1",,,,"MET086SPECI ETSE 111108Z 02004KT 3500 SN FEW009 BKN016 M00/M03 Q1011 BLACKYLO YLO TEMPO GRN;",
"10869099999","2010-03-11T11:20:00","4","48.322333","11.948667","461.77","ERDING, GM","FM-15","ETSE ","V020","020,1,N,0021,1","00420,1,C,N","002700,1,N,1","+0000,1","-0030,1","99999,9","04,5,+00240,1,99,9","07,5,+00420,1,99,9",,"07,99,1,99,9,99,9,99999,9,99,9,99,9","10108,1,99999,9","73,1",,,,"MET086METAR ETSE 111120Z 02004KT 2700 SN SCT008 BKN014 M00/M03 Q1011 BLACKYLO YLO TEMPO GRN;",
"10869099999","2010-03-11T12:20:00","4","48.322333","11.948667","461.77","ERDING, GM","FM-15","ETSE ","V020","020,1,N,0021,1","00240,1,C,N","001800,1,N,1","-0010,1","-0030,1","99999,9","07,5,+00240,1,99,9","07,5,+00450,1,99,9",,"07,99,1,99,9,99,9,99999,9,99,9,99,9","10108,1,99999,9","73,1",,,,"MET086METAR ETSE 111220Z 02004KT 1800 SN BKN008 BKN015 M01/M03 Q1011 BLACKYLO YLO TEMPO GRN;",
"10869099999","2010-03-11T12:34:00","4","48.322333","11.948667","461.77","ERDING, GM","FM-16","ETSE ","V020","360,1,N,0015,1","00240,1,C,N","001400,1,N,1","-0010,1","-0020,1","99999,9","07,5,+00240,1,99,9","07,5,+00450,1,99,9",,"07,99,1,99,9,99,9,99999,9,99,9,99,9","10108,1,99999,9","73,1",,,,"MET081SPECI ETSE 111234Z 36003KT 1400 SN BKN008 BKN015 M01/M02 Q1011 AMB YLO TEMPO GRN;",
"10869099999","2010-03-11T13:20:00","4","48.322333","11.948667","461.77","ERDING, GM","FM-15","ETSE ","V020","020,1,N,0015,1","00150,1,C,N","001400,1,N,1","-0010,1","-0020,1","99999,9","07,5,+00150,1,99,9","07,5,+00390,1,99,9",,"07,99,1,99,9,99,9,99999,9,99,9,99,9","10108,1,99999,9","73,1",,,,"MET091METAR ETSE 111320Z 02003KT 1400 R08/0800N SN BKN005 BKN013 M01/M02 Q1011 AMB YLO TEMPO GRN;",
"10869099999","2010-03-11T14:10:00","4","48.322333","11.948667","461.77","ERDING, GM","FM-16","ETSE ","V020","360,1,N,0021,1","00120,1,C,N","001200,1,N,1","-0010,1","-0020,1","99999,9","07,5,+00120,1,99,9","07,5,+00270,1,99,9",,"07,99,1,99,9,99,9,99999,9,99,9,99,9","10108,1,99999,9","73,1",,,,"MET091SPECI ETSE 111410Z 36004KT 1200 R08/1000N SN BKN004 BKN009 M01/M02 Q1011 AMB YLO TEMPO AMB;",
"10869099999","2010-03-11T14:20:00","4","48.322333","11.948667","461.77","ERDING, GM","FM-15","ETSE ","V020","360,1,N,0021,1","00150,1,C,N","001200,1,N,1","-0010,1","-0020,1","99999,9","07,5,+00150,1,99,9","07,5,+00300,1,99,9",,"07,99,1,99,9,99,9,99999,9,99,9,99,9","10108,1,99999,9","73,1",,,,"MET091METAR ETSE 111420Z 36004KT 1200 R08/1100N SN BKN005 BKN010 M01/M02 Q1011 AMB YLO TEMPO AMB;",
"10869099999","2010-03-11T14:41:00","4","48.322333","11.948667","461.77","ERDING, GM","FM-16","ETSE ","V020","360,1,N,0021,1","00510,1,C,N","001600,1,N,1","-0010,1","-0020,1","99999,9","04,5,+00210,1,99,9","07,5,+00510,1,99,9",,"07,99,1,99,9,99,9,99999,9,99,9,99,9","10108,1,99999,9","73,1",,,,"MET091SPECI ETSE 111441Z 36004KT 1600 R08/1400N SN SCT007 BKN017 M01/M02 Q1011 YLO YLO TEMPO AMB;",
"10869099999","2010-03-11T15:20:00","4","48.322333","11.948667","461.77","ERDING, GM","FM-15","ETSE ","V020","360,1,N,0015,1","00450,1,C,N","001600,1,N,1","-0010,1","-0020,1","99999,9","04,5,+00150,1,99,9","07,5,+00450,1,99,9",,"07,99,1,99,9,99,9,99999,9,99,9,99,9","10119,1,99999,9","73,1",,,,"MET079METAR ETSE 111520Z 36003KT 1600 SN SCT005 BKN015 M01/M02 Q1012 YLO FCST CANCEL;",
"10869099999","2010-03-12T06:20:00","4","48.322333","11.948667","461.77","ERDING, GM","FM-15","ETSE ","V020","270,1,N,0021,1","22000,1,9,N","001300,1,N,1","-0050,1","-0060,1","99999,9","02,5,+00270,1,99,9",,,"02,99,1,99,9,99,9,99999,9,99,9,99,9","10159,1,99999,9","10,1",,,,"MET065METAR ETSE 120620Z 27004KT 1300 BR FEW009 M05/M06 Q1016 BLACKAMB;",
"10869099999","2010-03-12T07:20:00","4","48.322333","11.948667","461.77","ERDING, GM","FM-15","ETSE ","V020","260,1,N,0026,1","22000,1,9,N","001800,1,N,1","-0040,1","-0050,1","99999,9","02,5,+00270,1,99,9",,,"02,99,1,99,9,99,9,99999,9,99,9,99,9","10169,1,99999,9","10,1",,,,"MET075METAR ETSE 120720Z 26005KT 1800 R26/2400U BR FEW009 M04/M05 Q1017 BLACKYLO;",
"10869099999","2010-03-12T08:20:00","4","48.322333","11.948667","461.77","ERDING, GM","FM-15","ETSE ","V020","260,1,N,0031,1","22000,1,9,N","005000,1,N,1","-0030,1","-0050,1","99999,9","02,5,+06000,1,99,9",,,"02,99,1,99,9,99,9,99999,9,99,9,99,9","10169,1,99999,9","10,1",,,,"MET065METAR ETSE 120820Z 26006KT 5000 BR FEW200 M03/M05 Q1017 BLACKWHT;",
"10869099999","2010-03-15T06:20:00","4","48.322333","11.948667","461.77","ERDING, GM","FM-15","ETSE ","V020","270,1,N,0062,1","00270,1,C,N","001500,1,N,1","+0010,1","+0000,1","99999,9","02,5,+00120,1,99,9","04,5,+00270,1,99,9","07,5,+00600,1,99,9","07,99,1,99,9,99,9,99999,9,99,9,99,9","10210,1,99999,9","86,5",,,,"MET074METAR ETSE 150620Z 27012KT 1500 SHSN FEW004 SCT009 BKN020 01/00 Q1021 AMB;",
"10869099999","2010-03-15T06:25:00","4","48.322333","11.948667","461.77","ERDING, GM","FM-16","ETSE ","V020","310,1,N,0067,1","00270,1,C,N","000300,1,N,1","+0010,1","+0000,1","99999,9","02,5,+00120,1,99,9","04,5,+00270,1,99,9","07,5,+00600,1,99,9","07,99,1,99,9,99,9,99999,9,99,9,99,9","10210,1,99999,9","88,1",,,,"MET078SPECI ETSE 150625Z 31013KT 0300 +SHSNGS FEW004 SCT009 BKN020 01/M00 Q1021 RED;",
"10869099999","2010-03-15T06:37:00","4","48.322333","11.948667","461.77","ERDING, GM","FM-16","ETSE ","V020","330,1,N,0057,1","00240,1,C,N","001400,1,N,1","+0000,1","+0000,1","99999,9","02,5,+00120,1,99,9","04,5,+00240,1,99,9","07,5,+00450,1,99,9","07,99,1,99,9,99,9,99999,9,99,9,99,9","10210,1,99999,9","73,1",,,,"MET079SPECI ETSE 150637Z 33011KT 1400 SN FEW004 SCT008 BKN015 M00/M00 Q1021 RESN AMB;",
"10869099999","2010-03-15T06:54:00","4","48.322333","11.948667","461.77","ERDING, GM","FM-16","ETSE ","V020","340,1,N,0036,1","00240,1,C,N","000500,1,N,1","+0000,1","+0000,1","99999,9","04,5,+00090,1,99,9","04,5,+00240,1,99,9","07,5,+00450,1,99,9","07,99,1,99,9,99,9,99999,9,99,9,99,9","10220,1,99999,9","75,1",,,,"MET075SPECI ETSE 150654Z 34007KT 0500 +SN SCT003 SCT008 BKN015 M00/M00 Q1022 RED;",
"10869099999","2010-03-15T07:09:00","4","48.322333","11.948667","461.77","ERDING, GM","FM-16","ETSE ","V020","330,1,N,0031,1","00240,1,C,N","001300,1,N,1","+0000,1","+0000,1","99999,9","04,5,+00090,1,99,9","04,5,+00240,1,99,9","07,5,+00450,1,99,9","07,99,1,99,9,99,9,99999,9,99,9,99,9","10220,1,99999,9","73,1",,,,"MET079SPECI ETSE 150709Z 33006KT 1300 SN SCT003 SCT008 BKN015 M00/M00 Q1022 RESN AMB;",
"10869099999","2010-03-15T07:12:00","4","48.322333","11.948667","461.77","ERDING, GM","FM-16","ETSE ","V020","320,1,N,0031,1","00240,1,C,N","003800,1,N,1","+0000,1","+0000,1","99999,9","04,5,+00090,1,99,9","04,5,+00240,1,99,9","07,5,+00600,1,99,9","07,99,1,99,9,99,9,99999,9,99,9,99,9","10220,1,99999,9","73,1",,,,"MET079SPECI ETSE 150712Z 32006KT 3800 SN SCT003 SCT008 BKN020 M00/M00 Q1022 RESN GRN;",
"10869099999","2010-03-15T07:20:00","4","48.322333","11.948667","461.77","ERDING, GM","FM-15","ETSE ","V020","320,1,N,0031,1","00210,1,C,N","001200,1,N,1","+0000,1","+0000,1","99999,9","04,5,+00090,1,99,9","04,5,+00210,1,99,9","07,5,+00600,1,99,9","07,99,1,99,9,99,9,99999,9,99,9,99,9","10220,1,99999,9","73,1",,,,"MET084METAR ETSE 150720Z 32006KT 1200 SN SCT003 SCT007 BKN020 M00/M00 Q1022 RESN BLACKAMB;",
"10869099999","2010-03-15T07:34:00","4","48.322333","11.948667","461.77","ERDING, GM","FM-16","ETSE ","V020","330,1,N,0026,1","00240,1,C,N","004000,1,N,1","+0000,1","+0000,1","99999,9","02,5,+00120,1,99,9","04,5,+00240,1,99,9","07,5,+00900,1,99,9","07,99,1,99,9,99,9,99999,9,99,9,99,9","10220,1,99999,9","71,1",,,,"MET085SPECI ETSE 150734Z 33005KT 4000 -SN FEW004 SCT008 BKN030 M00/M00 Q1022 RESN BLACKGRN;",
"10869099999","2010-03-15T08:01:00","4","48.322333","11.948667","461.77","ERDING, GM","FM-16","ETSE ","V020","310,1,N,0041,1","00450,1,C,N","008000,1,N,1","+0000,1","+0000,1","99999,9","02,5,+00120,1,99,9","04,5,+00450,1,99,9","07,5,+00900,1,99,9","07,99,1,99,9,99,9,99999,9,99,9,99,9","10220,1,99999,9","71,1",,,,"MET085SPECI ETSE 150801Z 31008KT 8000 -SN FEW004 SCT015 BKN030 M00/M00 Q1022 RESN BLACKBLU;",
"10869099999","2010-03-15T08:20:00","4","48.322333","11.948667","461.77","ERDING, GM","FM-15","ETSE ","V020","310,1,N,0046,1","00450,1,C,N","008000,1,N,1","+0000,1","-0010,1","99999,9","02,5,+00270,1,99,9","04,5,+00450,1,99,9","07,5,+01050,1,99,9","07,99,1,99,9,99,9,99999,9,99,9,99,9","10230,1,99999,9","71,1",,,,"MET085METAR ETSE 150820Z 31009KT 8000 -SN FEW009 SCT015 BKN035 M00/M01 Q1023 RESN BLACKBLU;",
"10869099999","2010-03-15T08:37:00","4","48.322333","11.948667","461.77","ERDING, GM","FM-16","ETSE ","V020","320,1,N,0051,1","00450,1,C,N","000900,1,N,1","+0000,1","-0010,1","99999,9","02,5,+00270,1,99,9","04,5,+00450,1,99,9","07,5,+01050,1,99,9","07,99,1,99,9,99,9,99999,9,99,9,99,9","10230,1,99999,9","75,1",,,,"MET080SPECI ETSE 150837Z 32010KT 0900 +SN FEW009 SCT015 BKN035 M00/M01 Q1023 BLACKAMB;",
"10869099999","2010-03-15T08:45:00","4","48.322333","11.948667","461.77","ERDING, GM","FM-16","ETSE ","V020","310,1,N,0057,1","00450,1,C,N","011265,1,N,1","-0010,1","-0020,1","99999,9","02,5,+00270,1,99,9","04,5,+00450,1,99,9","07,5,+01050,1,99,9","07,99,1,99,9,99,9,99999,9,99,9,99,9","10230,1,99999,9","71,1",,,,"MET085SPECI ETSE 150845Z 31011KT 9999 -SN FEW009 SCT015 BKN035 M01/M02 Q1023 RESN BLACKBLU;",
"10869099999","2010-03-15T09:20:00","4","48.322333","11.948667","461.77","ERDING, GM","FM-15","ETSE ","V020","270,1,N,0036,1","01050,1,C,N","011265,1,N,1","+0000,1","-0010,1","99999,9","04,5,+00600,1,99,9","07,5,+01050,1,99,9",,"07,99,1,99,9,99,9,99999,9,99,9,99,9","10230,1,99999,9","71,1",,,,"MET077METAR ETSE 150920Z 27007KT 9999 -SN SCT020 BKN035 00/M01 Q1023 RESN BLACKBLU;",
"10869099999","2010-03-15T10:01:00","4","48.322333","11.948667","461.77","ERDING, GM","FM-16","ETSE ","V020","270,1,N,0041,1","00600,1,C,N","003000,1,N,1","+0000,1","-0010,1","99999,9","02,5,+00210,1,99,9","04,5,+00600,1,99,9","07,5,+01050,1,99,9","07,99,1,99,9,99,9,99999,9,99,9,99,9","10230,1,99999,9","86,5",,,,"MET080SPECI ETSE 151001Z 27008KT 3000 SHSN FEW007 SCT020 BKN035 00/M01 Q1023 BLACKYLO;",
"10869099999","2010-03-15T10:06:00","4","48.322333","11.948667","461.77","ERDING, GM","FM-16","ETSE ","V020","260,1,N,0041,1","00600,1,C,N","011265,1,N,1","+0000,1","-0010,1","99999,9","02,5,+00210,1,99,9","04,5,+00600,1,99,9","07,5,+01050,1,99,9","07,99,1,99,9,99,9,99999,9,99,9,99,9","10230,1,99999,9","71,1",,,,"MET085SPECI ETSE 151006Z 26008KT 9999 -SN FEW007 SCT020 BKN035 M00/M01 Q1023 RESN BLACKBLU;",
"10869099999","2010-03-15T10:20:00","4","48.322333","11.948667","461.77","ERDING, GM","FM-15","ETSE ","V020","270,1,N,0041,1","00600,1,C,N","006000,1,N,1","+0000,1","-0010,1","99999,9","02,5,+00240,1,99,9","04,5,+00600,1,99,9","07,5,+01200,1,99,9","07,99,1,99,9,99,9,99999,9,99,9,99,9","10230,1,99999,9","71,1",,,,"MET084METAR ETSE 151020Z 27008KT 6000 -SN FEW008 SCT020 BKN040 00/M01 Q1023 RESN BLACKWHT;",
"10869099999","2010-03-15T10:39:00","4","48.322333","11.948667","461.77","ERDING, GM","FM-16","ETSE ","V020","280,1,N,0046,1","00600,1,C,N","001000,1,N,1","+0000,1","-0010,1","99999,9","02,5,+00240,1,99,9","04,5,+00600,1,99,9","07,5,+01200,1,99,9","07,99,1,99,9,99,9,99999,9,99,9,99,9","10230,1,99999,9","86,5",,,,"MET081SPECI ETSE 151039Z 28009KT 1000 SHSN FEW008 SCT020 BKN040 M00/M01 Q1023 BLACKAMB;",
"10869099999","2010-03-15T10:44:00","4","48.322333","11.948667","461.77","ERDING, GM","FM-16","ETSE ","V020","270,1,N,0046,1","00600,1,C,N","003700,1,N,1","+0000,1","-0010,1","99999,9","02,5,+00240,1,99,9","04,5,+00600,1,99,9","07,5,+01200,1,99,9","07,99,1,99,9,99,9,99999,9,99,9,99,9","10230,1,99999,9","86,5",,,,"MET081SPECI ETSE 151044Z 27009KT 3700 SHSN FEW008 SCT020 BKN040 M00/M01 Q1023 BLACKGRN;",
"10869099999","2010-03-15T11:20:00","4","48.322333","11.948667","461.77","ERDING, GM","FM-15","ETSE ","V020","260,1,N,0041,1","00600,1,C,N","002000,1,N,1","+0000,1","-0010,1","99999,9","02,5,+00330,1,99,9","04,5,+00600,1,99,9","07,5,+01140,1,99,9","07,99,1,99,9,99,9,99999,9,99,9,99,9","10230,1,99999,9","86,5",,,,"MET080METAR ETSE 151120Z 26008KT 2000 SHSN FEW011 SCT020 BKN038 00/M01 Q1023 BLACKYLO;",
"10869099999","2010-03-15T11:28:00","4","48.322333","11.948667","461.77","ERDING, GM","FM-16","ETSE ","V020","260,1,N,0036,1","00570,1,C,N","011265,1,N,1","+0000,1","-0010,1","99999,9","02,5,+00330,1,99,9","04,5,+00570,1,99,9","07,5,+01050,1,99,9","07,99,1,99,9,99,9,99999,9,99,9,99,9","10230,1,99999,9","85,5",,,,"MET086SPECI ETSE 151128Z 26007KT 9999 -SHSN FEW011 SCT019 BKN035 00/M01 Q1023 RESN BLACKBLU;",
"10869099999","2010-03-15T12:20:00","4","48.322333","11.948667","461.77","ERDING, GM","FM-15","ETSE ","V020","270,1,N,0031,1","00330,1,C,N","011265,1,N,1","+0000,1","+0000,1","99999,9","02,5,+00180,1,99,9","04,5,+00330,1,99,9","07,5,+00600,1,99,9","07,99,1,99,9,99,9,99999,9,99,9,99,9","10230,1,99999,9","85,5",,,,"MET085METAR ETSE 151220Z 27006KT 9999 -SHSN FEW006 SCT011 BKN020 00/00 Q1023 RESN BLACKWHT;",
"10869099999","2010-03-15T12:49:00","4","48.322333","11.948667","461.77","ERDING, GM","FM-16","ETSE ","V020","270,1,N,0041,1","00300,1,C,N","011265,1,N,1","+0010,1","+0000,1","99999,9","02,5,+00180,1,99,9","04,5,+00300,1,99,9","07,5,+00600,1,99,9","07,99,1,99,9,99,9,99999,9,99,9,99,9","10230,1,99999,9",,,,,"MET069SPECI ETSE 151249Z 27008KT 9999 FEW006 SCT010 BKN020 01/00 Q1023 WHT;",
"10869099999","2010-03-15T13:20:00","4","48.322333","11.948667","461.77","ERDING, GM","FM-15","ETSE ","V020","260,1,N,0036,1","00330,1,C,N","011265,1,N,1","+0020,1","+0010,1","99999,9","02,5,+00240,1,99,9","07,5,+00330,1,99,9",,"07,99,1,99,9,99,9,99999,9,99,9,99,9","10230,1,99999,9",,,,,"MET062METAR ETSE 151320Z 26007KT 9999 FEW008 BKN011 02/01 Q1023 GRN;",
"10869099999","2010-03-15T14:05:00","4","48.322333","11.948667","461.77","ERDING, GM","FM-16","ETSE ","V020","260,1,N,0036,1","01380,1,C,N","011265,1,N,1","+0030,1","+0010,1","99999,9","04,5,+00300,1,99,9","07,5,+01380,1,99,9",,"07,99,1,99,9,99,9,99999,9,99,9,99,9","10230,1,99999,9",,,,,"MET062SPECI ETSE 151405Z 26007KT 9999 SCT010 BKN046 03/01 Q1023 BLU;",
"10869099999","2010-03-15T14:20:00","4","48.322333","11.948667","461.77","ERDING, GM","FM-15","ETSE ","V020","260,1,N,0031,1","01500,1,C,N","011265,1,N,1","+0030,1","+0010,1","99999,9","02,5,+00300,1,99,9","07,5,+01500,1,99,9",,"07,99,1,99,9,99,9,99999,9,99,9,99,9","10230,1,99999,9",,,,,"MET062METAR ETSE 151420Z 26006KT 9999 FEW010 BKN050 03/01 Q1023 BLU;",
"10869099999","2010-03-16T06:20:00","4","48.322333","11.948667","461.77","ERDING, GM","FM-15","ETSE ","V020","270,1,N,0046,1","00210,1,C,N","011265,1,N,1","+0020,1","+0010,1","99999,9","07,5,+00210,1,99,9",,,"07,99,1,99,9,99,9,99999,9,99,9,99,9","10200,1,99999,9","61,1",,,,"MET059METAR ETSE 160620Z 27009KT 9999 -RA BKN007 02/01 Q1020 GRN;",
"10869099999","2010-03-16T07:20:00","4","48.322333","11.948667","461.77","ERDING, GM","FM-15","ETSE ","V020","270,1,N,0046,1","00210,1,C,N","011265,1,N,1","+0020,1","+0010,1","99999,9","07,5,+00210,1,99,9","07,5,+00390,1,99,9",,"07,99,1,99,9,99,9,99999,9,99,9,99,9","10210,1,99999,9","61,1",,,,"MET066METAR ETSE 160720Z 27009KT 9999 -RA BKN007 BKN013 02/01 Q1021 GRN;",
"10869099999","2010-03-16T08:20:00","4","48.322333","11.948667","461.77","ERDING, GM","FM-15","ETSE ","V020","270,1,N,0046,1","00240,1,C,N","011265,1,N,1","+0020,1","+0010,1","99999,9","07,5,+00240,1,99,9","07,5,+00390,1,99,9",,"07,99,1,99,9,99,9,99999,9,99,9,99,9","10220,1,99999,9","61,1",,,,"MET066METAR ETSE 160820Z 27009KT 9999 -RA BKN008 BKN013 02/01 Q1022 GRN;",
"10869099999","2010-03-16T09:20:00","4","48.322333","11.948667","461.77","ERDING, GM","FM-15","ETSE ","V020","280,1,N,0051,1","00240,1,C,N","011265,1,N,1","+0030,1","+0010,1","99999,9","07,5,+00240,1,99,9","07,5,+00420,1,99,9",,"07,99,1,99,9,99,9,99999,9,99,9,99,9","10230,1,99999,9",,,,,"MET062METAR ETSE 160920Z 28010KT 9999 BKN008 BKN014 03/01 Q1023 GRN;",
"10869099999","2010-03-16T10:20:00","4","48.322333","11.948667","461.77","ERDING, GM","FM-15","ETSE ","V020","270,1,N,0046,1","00270,1,C,N","011265,1,N,1","+0030,1","+0020,1","99999,9","07,5,+00270,1,99,9","07,5,+00480,1,99,9",,"07,99,1,99,9,99,9,99999,9,99,9,99,9","10230,1,99999,9",,,,,"MET062METAR ETSE 161020Z 27009KT 9999 BKN009 BKN016 03/02 Q1023 GRN;",
"10869099999","2010-03-16T11:20:00","4","48.322333","11.948667","461.77","ERDING, GM","FM-15","ETSE ","V020","280,1,N,0062,1","00690,1,C,N","011265,1,N,1","+0050,1","+0020,1","99999,9","04,5,+00360,1,99,9","07,5,+00690,1,99,9",,"07,99,1,99,9,99,9,99999,9,99,9,99,9","10240,1,99999,9",,,,,"MET062METAR ETSE 161120Z 28012KT 9999 SCT012 BKN023 05/02 Q1024 WHT;",
"10869099999","2010-03-16T12:20:00","4","48.322333","11.948667","461.77","ERDING, GM","FM-15","ETSE ","V020","280,1,N,0051,1","00390,1,C,N","011265,1,N,1","+0050,1","+0030,1","99999,9","07,5,+00390,1,99,9","07,5,+00720,1,99,9",,"07,99,1,99,9,99,9,99999,9,99,9,99,9","10240,1,99999,9",,,,,"MET062METAR ETSE 161220Z 28010KT 9999 BKN013 BKN024 05/03 Q1024 GRN;",
"10869099999","2010-03-16T13:20:00","4","48.322333","11.948667","461.77","ERDING, GM","FM-15","ETSE ","V020","280,1,N,0067,1","00750,1,C,N","011265,1,N,1","+0060,1","+0020,1","99999,9","04,5,+00480,1,99,9","04,5,+00750,1,99,9","07,5,+01650,5,99,9","07,99,1,99,9,99,9,99999,9,99,9,99,9","10240,1,99999,9",,,,,"MET069METAR ETSE 161320Z 28013KT 9999 SCT016 SCT025 BKN055 06/02 Q1024 BLU;",
"10869099999","2010-03-16T14:20:00","4","48.322333","11.948667","461.77","ERDING, GM","FM-15","ETSE ","V020","280,1,N,0072,1","00450,1,C,N","011265,1,N,1","+0050,1","+0020,1","99999,9","07,5,+00450,1,99,9","07,5,+01650,5,99,9",,"07,99,1,99,9,99,9,99999,9,99,9,99,9","10240,1,99999,9",,,,,"MET062METAR ETSE 161420Z 28014KT 9999 BKN015 BKN055 05/02 Q1024 WHT;",
"10869099999","2010-03-16T15:20:00","4","48.322333","11.948667","461.77","ERDING, GM","FM-15","ETSE ","V020","280,1,N,0057,1","00450,1,C,N","011265,1,N,1","+0050,1","+0020,1","99999,9","07,5,+00450,1,02,1","07,5,+01440,1,99,9",,"07,99,1,99,9,99,9,99999,9,99,9,99,9","10251,1,99999,9","80,1",,,,"MET071METAR ETSE 161520Z 28011KT 9999 -SHRA BKN015TCU BKN048 05/02 Q1025 WHT;",
"10869099999","2010-03-16T16:20:00","4","48.322333","11.948667","461.77","ERDING, GM","FM-15","ETSE ","V020","270,1,N,0046,1","00510,1,C,N","011265,1,N,1","+0050,1","+0020,1","99999,9","07,5,+00510,1,99,9","07,5,+01500,1,99,9",,"07,99,1,99,9,99,9,99999,9,99,9,99,9","10261,1,99999,9",,,,,"MET062METAR ETSE 161620Z 27009KT 9999 BKN017 BKN050 05/02 Q1026 WHT;",
"10869099999","2010-03-17T06:20:00","4","48.322333","11.948667","461.77","ERDING, GM","FM-15","ETSE ","V020","270,1,N,0010,1","99999,9,C,N","011265,1,N,1","+0000,1","-0010,1","99999,9","02,5,+04500,1,99,9","04,5,+07800,1,99,9",,"04,99,1,99,9,99,9,99999,9,99,9,99,9","10281,1,99999,9",,,,,"MET065METAR ETSE 170620Z 27002KT 9999 FEW150 SCT260 M00/M01 Q1028 BLU/;","P01 078003SCOCIG"
"10869099999","2010-03-17T07:20:00","4","48.322333","11.948667","461.77","ERDING, GM","FM-15","ETSE ","V020","180,1,N,0021,1","99999,9,C,N","011265,1,N,1","+0020,1","+0000,1","99999,9","02,5,+04500,1,99,9","04,5,+07800,1,99,9",,"04,99,1,99,9,99,9,99999,9,99,9,99,9","10281,1,99999,9",,,,,"MET064METAR ETSE 170720Z 18004KT 9999 FEW150 SCT260 02/M00 Q1028 BLU/;","P01 078003SCOCIG"
"10869099999","2010-03-17T08:20:00","4","48.322333","11.948667","461.77","ERDING, GM","FM-15","ETSE ","V020","270,1,N,0021,1","06900,1,C,N","011265,1,N,1","+0050,1","-0010,1","99999,9","07,5,+06900,1,99,9",,,"07,99,1,99,9,99,9,99999,9,99,9,99,9","10281,1,99999,9",,,,,"MET057METAR ETSE 170820Z 27004KT 9999 BKN230 05/M01 Q1028 BLU/;",
"10869099999","2010-03-17T09:20:00","4","48.322333","11.948667","461.77","ERDING, GM","FM-15","ETSE ","V020","260,1,N,0021,1","06900,1,C,N","011265,1,N,1","+0060,1","+0000,1","99999,9","07,5,+06900,1,99,9",,,"07,99,1,99,9,99,9,99999,9,99,9,99,9","10281,1,99999,9",,,,,"MET056METAR ETSE 170920Z 26004KT 9999 BKN230 06/00 Q1028 BLU/;",
"10869099999","2010-03-17T10:20:00","4","48.322333","11.948667","461.77","ERDING, GM","FM-15","ETSE ","V020","250,1,N,0021,1","06900,1,C,N","011265,1,N,1","+0080,1","+0000,1","99999,9","02,5,+00900,1,99,9","07,5,+06900,1,99,9",,"07,99,1,99,9,99,9,99999,9,99,9,99,9","10281,1,99999,9",,,,,"MET064METAR ETSE 171020Z 25004KT 9999 FEW030 BKN230 08/M00 Q1028 BLU/;",
"10869099999","2010-03-17T11:20:00","4","48.322333","11.948667","461.77","ERDING, GM","FM-15","ETSE ","V020","240,1,N,0026,1","06900,1,C,N","011265,1,N,1","+0080,1","-0010,1","99999,9","02,5,+01200,1,99,9","07,5,+06900,1,99,9",,"07,99,1,99,9,99,9,99999,9,99,9,99,9","10281,1,99999,9",,,,,"MET064METAR ETSE 171120Z 24005KT 9999 FEW040 BKN230 08/M01 Q1028 BLU/;",
"10869099999","2010-03-17T12:20:00","4","48.322333","11.948667","461.77","ERDING, GM","FM-15","ETSE ","V020","240,1,N,0031,1","06000,1,C,N","011265,1,N,1","+0090,1","-0020,1","99999,9","02,5,+01260,1,99,9","07,5,+06000,1,99,9",,"07,99,1,99,9,99,9,99999,9,99,9,99,9","10271,1,99999,9",,,,,"MET064METAR ETSE 171220Z 24006KT 9999 FEW042 BKN200 09/M02 Q1027 BLU/;",
"10869099999","2010-03-17T13:20:00","4","48.322333","11.948667","461.77","ERDING, GM","FM-15","ETSE ","V020","280,1,N,0036,1","05400,1,C,N","011265,1,N,1","+0100,1","-0010,1","99999,9","02,5,+01350,1,99,9","04,5,+05400,1,99,9","07,5,+09000,1,99,9","07,99,1,99,9,99,9,99999,9,99,9,99,9","10261,1,99999,9",,,,,"MET071METAR ETSE 171320Z 28007KT 9999 FEW045 SCT180 BKN300 10/M01 Q1026 BLU/;",
"10869099999","2010-03-17T14:20:00","4","48.322333","11.948667","461.77","ERDING, GM","FM-15","ETSE ","V020","290,1,N,0031,1","05100,1,C,N","011265,1,N,1","+0100,1","-0010,1","99999,9","02,5,+03600,1,99,9","04,5,+05100,1,99,9","07,5,+09000,1,99,9","07,99,1,99,9,99,9,99999,9,99,9,99,9","10261,1,99999,9",,,,,"MET071METAR ETSE 171420Z 29006KT 9999 FEW120 SCT170 BKN300 10/M01 Q1026 BLU/;",
"10869099999","2010-03-18T06:20:00","4","48.322333","11.948667","461.77","ERDING, GM","FM-15","ETSE ","V020","200,1,N,0015,1","05100,1,C,N","011265,1,N,1","+0020,1","-0030,1","99999,9","02,5,+03000,1,99,9","04,5,+05100,1,99,9","07,5,+08400,1,99,9","07,99,1,99,9,99,9,99999,9,99,9,99,9","10261,1,99999,9",,,,,"MET071METAR ETSE 180620Z 20003KT 9999 FEW100 SCT170 BKN280 02/M03 Q1026 BLU/;",
"10869099999","2010-03-18T07:20:00","4","48.322333","11.948667","461.77","ERDING, GM","FM-15","ETSE ","V020","190,1,N,0015,1","08400,1,C,N","011265,1,N,1","+0050,1","-0020,1","99999,9","02,5,+03000,1,99,9","07,5,+08400,1,99,9",,"07,99,1,99,9,99,9,99999,9,99,9,99,9","10271,1,99999,9",,,,,"MET064METAR ETSE 180720Z 19003KT 9999 FEW100 BKN280 05/M02 Q1027 BLU/;",
"10869099999","2010-03-18T08:20:00","4","48.322333","11.948667","461.77","ERDING, GM","FM-15","ETSE ","V020","190,1,N,0026,1","99999,9,C,N","011265,1,N,1","+0080,1","-0020,1","99999,9","02,5,+03000,1,99,9","04,5,+07500,1,99,9",,"04,99,1,99,9,99,9,99999,9,99,9,99,9","10271,1,99999,9",,,,,"MET064METAR ETSE 180820Z 19005KT 9999 FEW100 SCT250 08/M02 Q1027 BLU/;","P01 075003SCOCIG"
"10869099999","2010-03-18T09:20:00","4","48.322333","11.948667","461.77","ERDING, GM","FM-15","ETSE ","V020","200,1,N,0021,1","99999,9,C,N","011265,1,N,1","+0110,1","-0020,1","99999,9","02,5,+03000,1,99,9","04,5,+07500,1,99,9",,"04,99,1,99,9,99,9,99999,9,99,9,99,9","10261,1,99999,9",,,,,"MET064METAR ETSE 180920Z 20004KT 9999 FEW100 SCT250 11/M02 Q1026 BLU/;","P01 075003SCOCIG"
"10869099999","2010-03-18T10:20:00","4","48.322333","11.948667","461.77","ERDING, GM","FM-15","ETSE ","V020","350,1,N,0015,1","99999,9,C,N","011265,1,N,1","+0130,1","-0020,1","99999,9","02,5,+03000,1,99,9","04,5,+07500,1,99,9",,"04,99,1,99,9,99,9,99999,9,99,9,99,9","10261,1,99999,9",,,,,"MET064METAR ETSE 181020Z 35003KT 9999 FEW100 SCT250 13/M02 Q1026 BLU/;","P01 075003SCOCIG"
"10869099999","2010-03-18T11:20:00","4","48.322333","11.948667","461.77","ERDING, GM","FM-15","ETSE ","V020","310,1,N,0015,1","99999,9,C,N","011265,1,N,1","+0140,1","-0030,1","99999,9","02,5,+03000,1,99,9","04,5,+07500,1,99,9",,"04,99,1,99,9,99,9,99999,9,99,9,99,9","10261,1,99999,9",,,,,"MET064METAR ETSE 181120Z 31003KT 9999 FEW100 SCT250 14/M03 Q1026 BLU/;","P01 075003SCOCIG"
"10869099999","2010-03-18T12:20:00","4","48.322333","11.948667","461.77","ERDING, GM","FM-15","ETSE ","V020","280,1,N,0021,1","07200,1,C,N","011265,1,N,1","+0150,1","-0010,1","99999,9","07,5,+07200,1,99,9",,,"07,99,1,99,9,99,9,99999,9,99,9,99,9","10251,1,99999,9",,,,,"MET057METAR ETSE 181220Z 28004KT 9999 BKN240 15/M01 Q1025 BLU/;",
"10869099999","2010-03-18T13:20:00","4","48.322333","11.948667","461.77","ERDING, GM","FM-15","ETSE ","V020","300,1,N,0021,1","07200,1,C,N","011265,1,N,1","+0150,1","-0020,1","99999,9","07,5,+07200,1,99,9",,,"07,99,1,99,9,99,9,99999,9,99,9,99,9","10240,1,99999,9",,,,,"MET057METAR ETSE 181320Z 30004KT 9999 BKN240 15/M02 Q1024 BLU/;",
"10869099999","2010-03-18T14:20:00","4","48.322333","11.948667","461.77","ERDING, GM","FM-15","ETSE ","V020","999,9,V,0010,1","07200,1,C,N","011265,1,N,1","+0150,1","-0010,1","99999,9","07,5,+07200,1,99,9",,,"07,99,1,99,9,99,9,99999,9,99,9,99,9","10240,1,99999,9",,,,,"MET057METAR ETSE 181420Z VRB02KT 9999 BKN240 15/M01 Q1024 BLU/;",
"10869099999","2010-03-18T15:20:00","4","48.322333","11.948667","461.77","ERDING, GM","FM-15","ETSE ","V020","050,1,N,0015,1","07500,1,C,N","011265,1,N,1","+0160,1","-0010,1","99999,9","07,5,+07500,1,99,9",,,"07,99,1,99,9,99,9,99999,9,99,9,99,9","10230,1,99999,9",,,,,"MET057METAR ETSE 181520Z 05003KT 9999 BKN250 16/M01 Q1023 BLU/;",
"10869099999","2010-03-19T06:20:00","4","48.322333","11.948667","461.77","ERDING, GM","FM-15","ETSE ","V020","200,1,N,0015,1","07200,1,C,N","011265,1,N,1","+0020,1","-0010,1","99999,9","02,5,+04800,1,99,9","07,5,+07200,1,99,9",,"07,99,1,99,9,99,9,99999,9,99,9,99,9","10230,1,99999,9",,,,,"MET064METAR ETSE 190620Z 20003KT 9999 FEW160 BKN240 02/M01 Q1023 BLU/;",
"10869099999","2010-03-19T07:20:00","4","48.322333","11.948667","461.77","ERDING, GM","FM-15","ETSE ","V020","999,9,V,0005,1","07200,1,C,N","011265,1,N,1","+0060,1","+0010,1","99999,9","02,5,+04800,1,99,9","07,5,+07200,1,99,9",,"07,99,1,99,9,99,9,99999,9,99,9,99,9","10240,1,99999,9",,,,,"MET063METAR ETSE 190720Z VRB01KT 9999 FEW160 BKN240 06/01 Q1024 BLU/;",
"10869099999","2010-03-19T08:20:00","4","48.322333","11.948667","461.77","ERDING, GM","FM-15","ETSE ","V020","260,1,N,0021,1","07200,1,C,N","011265,1,N,1","+0100,1","-0010,1","99999,9","04,5,+05400,1,99,9","07,5,+07200,1,99,9",,"07,99,1,99,9,99,9,99999,9,99,9,99,9","10240,1,99999,9",,,,,"MET064METAR ETSE 190820Z 26004KT 9999 SCT180 BKN240 10/M01 Q1024 BLU/;",
"10869099999","2010-03-22T06:20:00","4","48.322333","11.948667","461.77","ERDING, GM","FM-15","ETSE ","V020","220,1,N,0015,1","06600,1,C,N","011265,1,N,1","+0050,1","+0050,1","99999,9","04,5,+00660,1,99,9","07,5,+06600,1,99,9",,"07,99,1,99,9,99,9,99999,9,99,9,99,9","10230,1,99999,9",,,,,"MET063METAR ETSE 220620Z 22003KT 9999 SCT022 BKN220 05/05 Q1023 BLU/;",
"10869099999","2010-03-22T07:20:00","4","48.322333","11.948667","461.77","ERDING, GM","FM-15","ETSE ","V020","190,1,N,0015,1","01170,1,C,N","011265,1,N,1","+0070,1","+0050,1","99999,9","02,5,+00600,1,99,9","04,5,+01170,1,99,9","07,5,+06600,1,99,9","07,99,1,99,9,99,9,99999,9,99,9,99,9","10230,1,99999,9",,,,,"MET070METAR ETSE 220720Z 19003KT 9999 FEW020 SCT039 BKN220 07/05 Q1023 BLU/;",
"10869099999","2010-03-22T08:20:00","4","48.322333","11.948667","461.77","ERDING, GM","FM-15","ETSE ","V020","999,9,V,0010,1","01140,1,C,N","011265,1,N,1","+0090,1","+0050,1","99999,9","02,5,+00450,1,99,9","04,5,+01140,1,99,9","07,5,+06600,1,99,9","07,99,1,99,9,99,9,99999,9,99,9,99,9","10230,1,99999,9",,,,,"MET070METAR ETSE 220820Z VRB02KT 9999 FEW015 SCT038 BKN220 09/05 Q1023 BLU/;",
"10869099999","2010-03-22T09:20:00","4","48.322333","11.948667","461.77","ERDING, GM","FM-15","ETSE ","V020","060,1,N,0015,1","06600,1,C,N","011265,1,N,1","+0110,1","+0060,1","99999,9","02,5,+00570,1,99,9","07,5,+06600,1,99,9",,"07,99,1,99,9,99,9,99999,9,99,9,99,9","10230,1,99999,9",,,,,"MET063METAR ETSE 220920Z 06003KT 9999 FEW019 BKN220 11/06 Q1023 BLU/;",
"10869099999","2010-03-22T10:20:00","4","48.322333","11.948667","461.77","ERDING, GM","FM-15","ETSE ","V020","999,9,V,0010,1","06600,1,C,N","011265,1,N,1","+0120,1","+0050,1","99999,9","04,5,+00660,1,99,9","07,5,+06600,1,99,9",,"07,99,1,99,9,99,9,99999,9,99,9,99,9","10230,1,99999,9",,,,,"MET063METAR ETSE 221020Z VRB02KT 9999 SCT022 BKN220 12/05 Q1023 BLU/;",
"10869099999","2010-03-22T11:20:00","4","48.322333","11.948667","461.77","ERDING, GM","FM-15","ETSE ","V020","320,1,N,0010,1","01080,1,C,N","011265,1,N,1","+0120,1","+0050,1","99999,9","02,5,+00660,1,99,9","04,5,+01080,1,99,9","07,5,+06600,1,99,9","07,99,1,99,9,99,9,99999,9,99,9,99,9","10220,1,99999,9",,,,,"MET070METAR ETSE 221120Z 32002KT 9999 FEW022 SCT036 BKN220 12/05 Q1022 BLU/;",
"10869099999","2010-03-22T12:20:00","4","48.322333","11.948667","461.77","ERDING, GM","FM-15","ETSE ","V020","999,9,V,0010,1","01110,1,C,N","011265,1,N,1","+0130,1","+0050,1","99999,9","02,5,+00660,1,99,9","07,5,+01110,1,99,9",,"07,99,1,99,9,99,9,99999,9,99,9,99,9","10220,1,99999,9",,,,,"MET062METAR ETSE 221220Z VRB02KT 9999 FEW022 BKN037 13/05 Q1022 BLU;",
"10869099999","2010-03-22T13:20:00","4","48.322333","11.948667","461.77","ERDING, GM","FM-15","ETSE ","V020","140,1,N,0010,1","01200,1,C,N","011265,1,N,1","+0130,1","+0050,1","99999,9","02,5,+00660,1,99,9","07,5,+01200,1,99,9",,"07,99,1,99,9,99,9,99999,9,99,9,99,9","10210,1,99999,9",,,,,"MET062METAR ETSE 221320Z 14002KT 9999 FEW022 BKN040 13/05 Q1021 BLU;",
"10869099999","2010-03-22T14:20:00","4","48.322333","11.948667","461.77","ERDING, GM","FM-15","ETSE ","V020","140,1,N,0021,1","06600,1,C,N","011265,1,N,1","+0130,1","+0050,1","99999,9","04,5,+01260,1,99,9","07,5,+06600,1,99,9",,"07,99,1,99,9,99,9,99999,9,99,9,99,9","10210,1,99999,9",,,,,"MET063METAR ETSE 221420Z 14004KT 9999 SCT042 BKN220 13/05 Q1021 BLU/;",
"10869099999","2010-03-23T06:20:00","4","48.322333","11.948667","461.77","ERDING, GM","FM-15","ETSE ","V020","190,1,N,0015,1","07200,1,C,N","007000,1,N,1","+0030,1","+0030,1","99999,9","02,5,+01080,1,99,9","07,5,+07200,1,99,9",,"07,99,1,99,9,99,9,99999,9,99,9,99,9","10210,1,99999,9",,,,,"MET062METAR ETSE 230620Z 19003KT 7000 FEW036 BKN240 03/03 Q1021 WHT;",
"10869099999","2010-03-23T07:20:00","4","48.322333","11.948667","461.77","ERDING, GM","FM-15","ETSE ","V020","210,1,N,0015,1","07200,1,C,N","009000,1,N,1","+0060,1","+0050,1","99999,9","07,5,+07200,1,99,9",,,"07,99,1,99,9,99,9,99999,9,99,9,99,9","10210,1,99999,9",,,,,"MET056METAR ETSE 230720Z 21003KT 9000 BKN240 06/05 Q1021 BLU/;",
"10869099999","2010-03-23T08:20:00","4","48.322333","11.948667","461.77","ERDING, GM","FM-15","ETSE ","V020","280,1,N,0026,1","07200,1,C,N","011265,1,N,1","+0080,1","+0060,1","99999,9","02,5,+00810,1,99,9","07,5,+07200,1,99,9",,"07,99,1,99,9,99,9,99999,9,99,9,99,9","10220,1,99999,9",,,,,"MET063METAR ETSE 230820Z 28005KT 9999 FEW027 BKN240 08/06 Q1022 BLU/;",
"10869099999","2010-03-23T09:20:00","4","48.322333","11.948667","461.77","ERDING, GM","FM-15","ETSE ","V020","280,1,N,0021,1","07200,1,C,N","011265,1,N,1","+0100,1","+0060,1","99999,9","02,5,+00840,1,99,9","07,5,+07200,1,99,9",,"07,99,1,99,9,99,9,99999,9,99,9,99,9","10220,1,99999,9",,,,,"MET063METAR ETSE 230920Z 28004KT 9999 FEW028 BKN240 10/06 Q1022 BLU/;",
"10869099999","2010-03-23T10:20:00","4","48.322333","11.948667","461.77","ERDING, GM","FM-15","ETSE ","V020","320,1,N,0015,1","07200,1,C,N","011265,1,N,1","+0120,1","+0060,1","99999,9","02,5,+00660,1,99,9","07,5,+07200,1,99,9",,"07,99,1,99,9,99,9,99999,9,99,9,99,9","10210,1,99999,9",,,,,"MET063METAR ETSE 231020Z 32003KT 9999 FEW022 BKN240 12/06 Q1021 BLU/;",
"10869099999","2010-03-23T11:20:00","4","48.322333","11.948667","461.77","ERDING, GM","FM-15","ETSE ","V020","310,1,N,0021,1","07200,1,C,N","011265,1,N,1","+0130,1","+0060,1","99999,9","02,5,+00900,1,99,9","07,5,+07200,1,99,9",,"07,99,1,99,9,99,9,99999,9,99,9,99,9","10210,1,99999,9",,,,,"MET063METAR ETSE 231120Z 31004KT 9999 FEW030 BKN240 13/06 Q1021 BLU/;",
"10869099999","2010-03-23T12:20:00","4","48.322333","11.948667","461.77","ERDING, GM","FM-15","ETSE ","V020","320,1,N,0021,1","07200,1,C,N","011265,1,N,1","+0140,1","+0050,1","99999,9","02,5,+01050,1,99,9","07,5,+07200,1,99,9",,"07,99,1,99,9,99,9,99999,9,99,9,99,9","10200,1,99999,9",,,,,"MET063METAR ETSE 231220Z 32004KT 9999 FEW035 BKN240 14/05 Q1020 BLU/;",
"10869099999","2010-03-23T13:20:00","4","48.322333","11.948667","461.77","ERDING, GM","FM-15","ETSE ","V020","999,9,V,0010,1","99999,9,C,N","011265,1,N,1","+0150,1","+0050,1","99999,9","02,5,+01050,1,99,9","04,5,+07200,1,99,9",,"04,99,1,99,9,99,9,99999,9,99,9,99,9","10190,1,99999,9",,,,,"MET063METAR ETSE 231320Z VRB02KT 9999 FEW035 SCT240 15/05 Q1019 BLU/;","P01 072003SCOCIG"
"10869099999","2010-03-23T14:20:00","4","48.322333","11.948667","461.77","ERDING, GM","FM-15","ETSE ","V020","340,1,N,0021,1","22000,1,9,N","011265,1,N,1","+0150,1","+0030,1","99999,9","02,5,+01200,1,99,9",,,"02,99,1,99,9,99,9,99999,9,99,9,99,9","10190,1,99999,9",,,,,"MET056METAR ETSE 231420Z 34004KT 9999 FEW040 15/03 Q1019 BLU/;",
"10869099999","2010-03-23T15:20:00","4","48.322333","11.948667","461.77","ERDING, GM","FM-15","ETSE ","V020","030,1,N,0021,1","22000,1,9,N","011265,1,N,1","+0150,1","+0030,1","99999,9","02,5,+01350,1,99,9",,,"02,99,1,99,9,99,9,99999,9,99,9,99,9","10190,1,99999,9",,,,,"MET056METAR ETSE 231520Z 03004KT 9999 FEW045 15/03 Q1019 BLU/;",
"10869099999","2010-03-24T06:20:00","4","48.322333","11.948667","461.77","ERDING, GM","FM-15","ETSE ","V020","120,1,N,0015,1","22000,1,9,N","007000,1,N,1","+0040,1","+0030,1","99999,9","04,5,+07200,1,99,9",,,"04,99,1,99,9,99,9,99999,9,99,9,99,9","10159,1,99999,9",,,,,"MET055METAR ETSE 240620Z 12003KT 7000 SCT240 04/03 Q1016 WHT;",
"10869099999","2010-03-24T07:20:00","4","48.322333","11.948667","461.77","ERDING, GM","FM-15","ETSE ","V020","120,1,N,0026,1","22000,1,9,N","008000,1,N,1","+0070,1","+0040,1","99999,9","04,5,+07200,1,99,9",,,"04,99,1,99,9,99,9,99999,9,99,9,99,9","10159,1,99999,9",,,,,"MET056METAR ETSE 240720Z 12005KT 8000 SCT240 07/04 Q1016 BLU/;",
"10869099999","2010-03-24T08:20:00","4","48.322333","11.948667","461.77","ERDING, GM","FM-15","ETSE ","V020","110,1,N,0036,1","22000,1,9,N","011265,1,N,1","+0090,1","+0050,1","99999,9","04,5,+07200,1,99,9",,,"04,99,1,99,9,99,9,99999,9,99,9,99,9","10159,1,99999,9",,,,,"MET056METAR ETSE 240820Z 11007KT 9999 SCT240 09/05 Q1016 BLU/;",
"10869099999","2010-03-24T09:20:00","4","48.322333","11.948667","461.77","ERDING, GM","FM-15","ETSE ","V020","120,1,N,0036,1","22000,1,9,N","011265,1,N,1","+0110,1","+0050,1","99999,9","04,5,+07200,1,99,9",,,"04,99,1,99,9,99,9,99999,9,99,9,99,9","10149,1,99999,9",,,,,"MET056METAR ETSE 240920Z 12007KT 9999 SCT240 11/05 Q1015 BLU/;",
"10869099999","2010-03-24T10:20:00","4","48.322333","11.948667","461.77","ERDING, GM","FM-15","ETSE ","V020","120,1,N,0031,1","22000,1,9,N","011265,1,N,1","+0130,1","+0060,1","99999,9","04,5,+06600,1,99,9",,,"04,99,1,99,9,99,9,99999,9,99,9,99,9","10149,1,99999,9",,,,,"MET056METAR ETSE 241020Z 12006KT 9999 SCT220 13/06 Q1015 BLU/;",
"10869099999","2010-03-24T11:20:00","4","48.322333","11.948667","461.77","ERDING, GM","FM-15","ETSE ","V020","120,1,N,0031,1","22000,1,9,N","011265,1,N,1","+0150,1","+0060,1","99999,9","04,5,+06600,1,99,9",,,"04,99,1,99,9,99,9,99999,9,99,9,99,9","10149,1,99999,9",,,,,"MET056METAR ETSE 241120Z 12006KT 9999 SCT220 15/06 Q1015 BLU/;",
"10869099999","2010-03-24T12:20:00","4","48.322333","11.948667","461.77","ERDING, GM","FM-15","ETSE ","V020","110,1,N,0026,1","22000,1,9,N","011265,1,N,1","+0170,1","+0050,1","99999,9","04,5,+06600,1,99,9",,,"04,99,1,99,9,99,9,99999,9,99,9,99,9","10139,1,99999,9",,,,,"MET056METAR ETSE 241220Z 11005KT 9999 SCT220 17/05 Q1014 BLU/;",
"10869099999","2010-03-24T13:20:00","4","48.322333","11.948667","461.77","ERDING, GM","FM-15","ETSE ","V020","090,1,N,0031,1","22000,1,9,N","011265,1,N,1","+0180,1","+0040,1","99999,9","04,5,+07500,1,99,9",,,"04,99,1,99,9,99,9,99999,9,99,9,99,9","10129,1,99999,9",,,,,"MET056METAR ETSE 241320Z 09006KT 9999 SCT250 18/04 Q1013 BLU/;",
"10869099999","2010-03-24T14:20:00","4","48.322333","11.948667","461.77","ERDING, GM","FM-15","ETSE ","V020","110,1,N,0036,1","22000,1,9,N","011265,1,N,1","+0180,1","+0030,1","99999,9","04,5,+07800,1,99,9",,,"04,99,1,99,9,99,9,99999,9,99,9,99,9","10119,1,99999,9",,,,,"MET056METAR ETSE 241420Z 11007KT 9999 SCT260 18/03 Q1012 BLU/;",
"10869099999","2010-03-25T06:20:00","4","48.322333","11.948667","461.77","ERDING, GM","FM-15","ETSE ","V020","999,9,V,0005,1","08400,1,C,N","011265,1,N,1","+0050,1","+0020,1","99999,9","07,5,+08400,1,99,9",,,"07,99,1,99,9,99,9,99999,9,99,9,99,9","10119,1,99999,9",,,,,"MET056METAR ETSE 250620Z VRB01KT 9999 BKN280 05/02 Q1012 BLU/;",
"10869099999","2010-03-25T07:20:00","4","48.322333","11.948667","461.77","ERDING, GM","FM-15","ETSE ","V020","130,1,N,0015,1","07800,1,C,N","011265,1,N,1","+0060,1","+0040,1","99999,9","02,5,+05400,1,99,9","07,5,+07800,1,99,9",,"07,99,1,99,9,99,9,99999,9,99,9,99,9","10119,1,99999,9",,,,,"MET063METAR ETSE 250720Z 13003KT 9999 FEW180 BKN260 06/04 Q1012 BLU/;",
"10869099999","2010-03-25T08:20:00","4","48.322333","11.948667","461.77","ERDING, GM","FM-15","ETSE ","V020","090,1,N,0010,1","99999,9,C,N","011265,1,N,1","+0100,1","+0050,1","99999,9","02,5,+03900,1,99,9","04,5,+07500,1,99,9",,"04,99,1,99,9,99,9,99999,9,99,9,99,9","10119,1,99999,9",,,,,"MET063METAR ETSE 250820Z 09002KT 9999 FEW130 SCT250 10/05 Q1012 BLU/;","P01 075003SCOCIG"
"10869099999","2010-03-25T09:20:00","4","48.322333","11.948667","461.77","ERDING, GM","FM-15","ETSE ","V020","999,9,V,0010,1","22000,1,9,N","011265,1,N,1","+0140,1","+0050,1","99999,9","04,5,+07500,1,99,9",,,"04,99,1,99,9,99,9,99999,9,99,9,99,9","10108,1,99999,9",,,,,"MET056METAR ETSE 250920Z VRB02KT 9999 SCT250 14/05 Q1011 BLU/;",
"10869099999","2010-03-25T10:20:00","4","48.322333","11.948667","461.77","ERDING, GM","FM-15","ETSE ","V020","110,1,N,0015,1","22000,1,9,N","011265,1,N,1","+0170,1","+0060,1","99999,9","04,5,+07500,1,99,9",,,"04,99,1,99,9,99,9,99999,9,99,9,99,9","10108,1,99999,9",,,,,"MET056METAR ETSE 251020Z 11003KT 9999 SCT250 17/06 Q1011 BLU/;",
"10869099999","2010-03-25T11:20:00","4","48.322333","11.948667","461.77","ERDING, GM","FM-15","ETSE ","V020","140,1,N,0021,1","07500,1,C,N","011265,1,N,1","+0190,1","+0030,1","99999,9","02,5,+03900,1,99,9","07,5,+07500,1,99,9",,"07,99,1,99,9,99,9,99999,9,99,9,99,9","10102,1,99999,9",,,,,"MET063METAR ETSE 251120Z 14004KT 9999 FEW130 BKN250 19/03 Q1010 BLU/;",
"10869099999","2010-03-25T12:20:00","4","48.322333","11.948667","461.77","ERDING, GM","FM-15","ETSE ","V020","160,1,N,0026,1","05700,1,C,N","011265,1,N,1","+0200,1","+0010,1","99999,9","02,5,+01500,1,99,9","07,5,+05700,1,99,9",,"07,99,1,99,9,99,9,99999,9,99,9,99,9","10102,1,99999,9",,,,,"MET072METAR ETSE 251220Z 16005KT 9999 R08/0050U FEW050 BKN190 20/01 Q1010 BLU;",
"10869099999","2010-03-25T13:20:00","4","48.322333","11.948667","461.77","ERDING, GM","FM-15","ETSE ","V020","150,1,N,0031,1","99999,9,C,N","011265,1,N,1","+0210,1","+0010,1","99999,9","02,5,+01500,1,99,9","04,5,+05700,1,99,9",,"04,99,1,99,9,99,9,99999,9,99,9,99,9","10091,1,99999,9",,,,,"MET063METAR ETSE 251320Z 15006KT 9999 FEW050 SCT190 21/01 Q1009 BLU/;","P01 057003SCOCIG"
"10869099999","2010-03-25T14:20:00","4","48.322333","11.948667","461.77","ERDING, GM","FM-15","ETSE ","V020","250,1,N,0015,1","99999,9,C,N","011265,1,N,1","+0210,1","-0010,1","99999,9","02,5,+01500,1,99,9","04,5,+05700,1,99,9",,"04,99,1,99,9,99,9,99999,9,99,9,99,9","10091,1,99999,9",,,,,"MET064METAR ETSE 251420Z 25003KT 9999 FEW050 SCT190 21/M01 Q1009 BLU/;","P01 057003SCOCIG"
"10869099999","2010-03-26T06:20:00","4","48.322333","11.948667","461.77","ERDING, GM","FM-15","ETSE ","V020","110,1,N,0026,1","99999,9,C,N","011265,1,N,1","+0080,1","+0040,1","99999,9","02,5,+05100,1,99,9","04,5,+08400,1,99,9",,"04,99,1,99,9,99,9,99999,9,99,9,99,9","10091,1,99999,9",,,,,"MET063METAR ETSE 260620Z 11005KT 9999 FEW170 SCT280 08/04 Q1009 BLU/;","P01 084003SCOCIG"
"10869099999","2010-03-26T07:20:00","4","48.322333","11.948667","461.77","ERDING, GM","FM-15","ETSE ","V020","120,1,N,0031,1","99999,9,C,N","011265,1,N,1","+0100,1","+0050,1","99999,9","02,5,+03600,1,99,9","04,5,+08100,1,99,9",,"04,99,1,99,9,99,9,99999,9,99,9,99,9","10081,1,99999,9",,,,,"MET063METAR ETSE 260720Z 12006KT 9999 FEW120 SCT270 10/05 Q1008 BLU/;","P01 081003SCOCIG"
"10869099999","2010-03-26T08:20:00","4","48.322333","11.948667","461.77","ERDING, GM","FM-15","ETSE ","V020","130,1,N,0036,1","99999,9,C,N","011265,1,N,1","+0140,1","+0060,1","99999,9","02,5,+03600,1,99,9","04,5,+06900,1,99,9",,"04,99,1,99,9,99,9,99999,9,99,9,99,9","10081,1,99999,9",,,,,"MET063METAR ETSE 260820Z 13007KT 9999 FEW120 SCT230 14/06 Q1008 BLU/;","P01 069003SCOCIG"
"10869099999","2010-03-26T09:20:00","4","48.322333","11.948667","461.77","ERDING, GM","FM-15","ETSE ","V020","110,1,N,0046,1","22000,1,9,N","011265,1,N,1","+0170,1","+0070,1","99999,9","02,5,+03600,1,99,9",,,"02,99,1,99,9,99,9,99999,9,99,9,99,9","10061,1,99999,9",,,,,"MET056METAR ETSE 260920Z 11009KT 9999 FEW120 17/07 Q1006 BLU/;",
"10869099999","2010-03-26T10:20:00","4","48.322333","11.948667","461.77","ERDING, GM","FM-15","ETSE ","V020","160,1,N,0046,1","22000,1,9,N","011265,1,N,1","+0210,1","+0040,1","99999,9","02,5,+01500,1,99,9",,,"02,99,1,99,9,99,9,99999,9,99,9,99,9","10051,1,99999,9",,,,,"MET056METAR ETSE 261020Z 16009KT 9999 FEW050 21/04 Q1005 BLU/;",
"10869099999","2010-03-29T05:20:00","4","48.322333","11.948667","461.77","ERDING, GM","FM-15","ETSE ","V020","220,1,N,0026,1","01200,1,C,N","011265,1,N,1","+0090,1","+0060,1","99999,9","02,5,+00570,1,99,9","07,5,+01200,1,99,9","07,5,+02400,1,99,9","07,99,1,99,9,99,9,99999,9,99,9,99,9","10108,1,99999,9",,,,,"MET069METAR ETSE 290520Z 22005KT 9999 FEW019 BKN040 BKN080 09/06 Q1011 BLU;",
"10869099999","2010-03-29T06:20:00","4","48.322333","11.948667","461.77","ERDING, GM","FM-15","ETSE ","V020","200,1,N,0026,1","02250,5,C,N","011265,1,N,1","+0090,1","+0070,1","99999,9","04,5,+01050,1,99,9","07,5,+02250,5,99,9","07,5,+03300,1,99,9","07,99,1,99,9,99,9,99999,9,99,9,99,9","10108,1,99999,9",,,,,"MET069METAR ETSE 290620Z 20005KT 9999 SCT035 BKN075 BKN110 09/07 Q1011 BLU;",
"10869099999","2010-03-29T07:20:00","4","48.322333","11.948667","461.77","ERDING, GM","FM-15","ETSE ","V020","220,1,N,0026,1","02400,1,C,N","011265,1,N,1","+0100,1","+0070,1","99999,9","02,5,+01050,1,99,9","04,5,+02400,1,99,9","07,5,+03300,1,99,9","07,99,1,99,9,99,9,99999,9,99,9,99,9","10102,1,99999,9",,,,,"MET069METAR ETSE 290720Z 22005KT 9999 FEW035 SCT080 BKN110 10/07 Q1010 BLU;",
"10869099999","2010-03-29T08:20:00","4","48.322333","11.948667","461.77","ERDING, GM","FM-15","ETSE ","V020","240,1,N,0031,1","02400,1,C,N","011265,1,N,1","+0120,1","+0070,1","99999,9","02,5,+01050,1,99,9","04,5,+02400,1,99,9","07,5,+03300,1,99,9","07,99,1,99,9,99,9,99999,9,99,9,99,9","10108,1,99999,9",,,,,"MET069METAR ETSE 290820Z 24006KT 9999 FEW035 SCT080 BKN110 12/07 Q1011 BLU;",
"10869099999","2010-03-29T09:20:00","4","48.322333","11.948667","461.77","ERDING, GM","FM-15","ETSE ","V020","260,1,N,0041,1","01800,1,C,N","011265,1,N,1","+0130,1","+0060,1","99999,9","02,5,+00960,1,99,9","04,5,+02040,5,99,9","07,5,+03300,1,99,9","07,99,1,99,9,99,9,99999,9,99,9,99,9","10108,1,99999,9",,,,,"MET069METAR ETSE 290920Z 26008KT 9999 FEW032 SCT068 BKN110 13/06 Q1011 BLU;",
"10869099999","2010-03-29T10:20:00","4","48.322333","11.948667","461.77","ERDING, GM","FM-15","ETSE ","V020","260,1,N,0046,1","01800,1,C,N","011265,1,N,1","+0140,1","+0050,1","99999,9","02,5,+01050,1,99,9","04,5,+01950,5,99,9","07,5,+03300,1,99,9","07,99,1,99,9,99,9,99999,9,99,9,99,9","10108,1,99999,9",,,,,"MET069METAR ETSE 291020Z 26009KT 9999 FEW035 SCT065 BKN110 14/05 Q1011 BLU;",
"10869099999","2010-03-29T11:20:00","4","48.322333","11.948667","461.77","ERDING, GM","FM-15","ETSE ","V020","270,1,N,0036,1","01350,1,C,N","011265,1,N,1","+0140,1","+0060,1","99999,9","02,5,+00600,1,99,9","04,5,+01350,1,99,9","08,5,+03300,1,99,9","08,99,1,99,9,99,9,99999,9,99,9,99,9","10102,1,99999,9",,,,,"MET069METAR ETSE 291120Z 27007KT 9999 FEW020 SCT045 OVC110 14/06 Q1010 BLU;",
"10869099999","2010-03-29T12:20:00","4","48.322333","11.948667","461.77","ERDING, GM","FM-15","ETSE ","V020","270,1,N,0036,1","02100,1,C,N","011265,1,N,1","+0150,1","+0050,1","99999,9","02,5,+00900,1,99,9","04,5,+02100,1,99,9","07,5,+07800,1,99,9","07,99,1,99,9,99,9,99999,9,99,9,99,9","10091,1,99999,9",,,,,"MET070METAR ETSE 291220Z 27007KT 9999 FEW030 SCT070 BKN260 15/05 Q1009 BLU/;",
"10869099999","2010-03-29T13:20:00","4","48.322333","11.948667","461.77","ERDING, GM","FM-15","ETSE ","V020","210,1,N,0031,1","99999,9,C,N","011265,1,N,1","+0160,1","+0060,1","99999,9","02,5,+01140,1,99,9","04,5,+02400,1,99,9",,"04,99,1,99,9,99,9,99999,9,99,9,99,9","10091,1,99999,9",,,,,"MET063METAR ETSE 291320Z 21006KT 9999 FEW038 SCT080 16/06 Q1009 BLU/;","P01 024003SCOCIG"
"10869099999","2010-03-30T05:20:00","4","48.322333","11.948667","461.77","ERDING, GM","FM-15","ETSE ","V020","120,1,N,0026,1","03300,1,C,N","011265,1,N,1","+0060,1","+0050,1","99999,9","02,5,+02400,1,99,9","04,5,+03300,1,99,9","07,5,+04200,1,99,9","07,99,1,99,9,99,9,99999,9,99,9,99,9","10000,1,99999,9",,,,,"MET069METAR ETSE 300520Z 12005KT 9999 FEW080 SCT110 BKN140 06/05 Q1000 BLU;",
"10869099999","2010-03-30T06:20:00","4","48.322333","11.948667","461.77","ERDING, GM","FM-15","ETSE ","V020","120,1,N,0026,1","03300,1,C,N","011265,1,N,1","+0080,1","+0060,1","99999,9","02,5,+01800,1,99,9","04,5,+03300,1,99,9","07,5,+07200,1,99,9","07,99,1,99,9,99,9,99999,9,99,9,99,9","10000,1,99999,9",,,,,"MET070METAR ETSE 300620Z 12005KT 9999 FEW060 SCT110 BKN240 08/06 Q1000 BLU/;",
"10869099999","2010-03-30T07:20:00","4","48.322333","11.948667","461.77","ERDING, GM","FM-15","ETSE ","V020","110,1,N,0036,1","05100,1,C,N","011265,1,N,1","+0100,1","+0070,1","99999,9","02,5,+01800,1,99,9","04,5,+05100,1,99,9","07,5,+07200,1,99,9","07,99,1,99,9,99,9,99999,9,99,9,99,9","09990,1,99999,9",,,,,"MET070METAR ETSE 300720Z 11007KT 9999 FEW060 SCT170 BKN240 10/07 Q0999 BLU/;",
"10869099999","2010-03-30T08:20:00","4","48.322333","11.948667","461.77","ERDING, GM","FM-15","ETSE ","V020","110,1,N,0036,1","22000,1,9,N","011265,1,N,1","+0130,1","+0070,1","99999,9","02,5,+01800,1,99,9",,,"02,99,1,99,9,99,9,99999,9,99,9,99,9","09990,1,99999,9",,,,,"MET056METAR ETSE 300820Z 11007KT 9999 FEW060 13/07 Q0999 BLU/;",
"10869099999","2010-03-30T09:20:00","4","48.322333","11.948667","461.77","ERDING, GM","FM-15","ETSE ","V020","120,1,N,0036,1","22000,1,9,N","011265,1,N,1","+0150,1","+0070,1","99999,9","02,5,+01500,1,99,9",,,"02,99,1,99,9,99,9,99999,9,99,9,99,9","09980,1,99999,9",,,,,"MET056METAR ETSE 300920Z 12007KT 9999 FEW050 15/07 Q0998 BLU/;",
"10869099999","2010-03-30T10:20:00","4","48.322333","11.948667","461.77","ERDING, GM","FM-15","ETSE ","V020","100,1,N,0041,1","22000,1,9,N","011265,1,N,1","+0170,1","+0070,1","99999,9","02,5,+01200,1,99,9",,,"02,99,1,99,9,99,9,99999,9,99,9,99,9","09970,1,99999,9",,,,,"MET056METAR ETSE 301020Z 10008KT 9999 FEW040 17/07 Q0997 BLU/;",
"10869099999","2010-03-30T11:20:00","4","48.322333","11.948667","461.77","ERDING, GM","FM-15","ETSE ","V020","110,1,N,0026,1","03000,1,C,N","011265,1,N,1","+0190,1","+0050,1","99999,9","02,5,+01500,1,99,9","04,5,+03000,1,99,9","07,5,+06300,1,99,9","07,99,1,99,9,99,9,99999,9,99,9,99,9","09959,1,99999,9",,,,,"MET070METAR ETSE 301120Z 11005KT 9999 FEW050 SCT100 BKN210 19/05 Q0996 BLU/;",
"10869099999","2010-03-30T12:20:00","4","48.322333","11.948667","461.77","ERDING, GM","FM-15","ETSE ","V020","100,1,N,0031,1","02700,1,C,N","011265,1,N,1","+0190,1","+0030,1","99999,9","02,5,+01500,1,99,9","04,5,+02700,1,99,9","07,5,+05700,1,99,9","07,99,1,99,9,99,9,99999,9,99,9,99,9","09949,1,99999,9",,,,,"MET069METAR ETSE 301220Z 10006KT 9999 FEW050 SCT090 BKN190 19/03 Q0995 BLU;",
"10869099999","2010-03-30T13:01:00","4","48.322333","11.948667","461.77","ERDING, GM","FM-16","ETSE ","V020","210,1,N,0026,1","02700,1,C,N","011265,1,N,1","+0200,1","+0000,1","99999,9","02,5,+01500,1,99,9","04,5,+02700,1,99,9","07,5,+05700,1,99,9","07,99,1,99,9,99,9,99999,9,99,9,99,9","09949,1,99999,9",,,,,"MET069SPECI ETSE 301301Z 21005KT 9999 FEW050 SCT090 BKN190 20/00 Q0995 BLU;",
"10869099999","2010-03-30T13:02:00","4","48.322333","11.948667","461.77","ERDING, GM","FM-16","ETSE ","V020","210,1,N,0026,1","02700,1,C,N","011265,1,N,1","+0200,1","+0000,1","99999,9","02,5,+01500,1,99,9","04,5,+02700,1,99,9","07,5,+05700,1,99,9","07,99,1,99,9,99,9,99999,9,99,9,99,9","09949,1,99999,9",,,,,"MET075SPECI ETSE 301302Z 21005KT 9999 FEW050 SCT090 BKN190 20/M00 Q0995 BLACKBLU;",
"10869099999","2010-03-30T13:20:00","4","48.322333","11.948667","461.77","ERDING, GM","FM-15","ETSE ","V020","190,1,N,0036,1","02700,1,C,N","011265,1,N,1","+0190,1","+0010,1","99999,9","02,5,+01500,1,99,9","04,5,+02700,1,99,9","07,5,+05700,1,99,9","07,99,1,99,9,99,9,99999,9,99,9,99,9","09939,1,99999,9",,,,,"MET074METAR ETSE 301320Z 19007KT 9999 FEW050 SCT090 BKN190 19/01 Q0994 BLACKBLU;",
"10869099999","2010-03-30T13:33:00","4","48.322333","11.948667","461.77","ERDING, GM","FM-16","ETSE ","V020","170,1,N,0036,1","02700,1,C,N","011265,1,N,1","+0190,1","+0010,1","99999,9","02,5,+01500,1,99,9","04,5,+02700,1,99,9","07,5,+05700,1,99,9","07,99,1,99,9,99,9,99999,9,99,9,99,9","09939,1,99999,9",,,,,"MET069SPECI ETSE 301333Z 17007KT 9999 FEW050 SCT090 BKN190 19/01 Q0994 BLU;",
"10869099999","2010-03-30T14:20:00","4","48.322333","11.948667","461.77","ERDING, GM","FM-15","ETSE ","V020","190,1,N,0041,1","02700,1,C,N","011265,1,N,1","+0180,1","+0000,1","99999,9","02,5,+01500,1,99,9","04,5,+02700,1,99,9","07,5,+04500,1,99,9","07,99,1,99,9,99,9,99999,9,99,9,99,9","09939,1,99999,9",,,,,"MET069METAR ETSE 301420Z 19008KT 9999 FEW050 SCT090 BKN150 18/00 Q0994 BLU;",
"10869099999","2010-03-31T05:20:00","4","48.322333","11.948667","461.77","ERDING, GM","FM-15","ETSE ","V020","260,1,N,0031,1","03300,1,C,N","011265,1,N,1","+0050,1","-0010,1","99999,9","02,5,+00990,1,99,9","07,5,+03300,1,99,9","07,5,+05100,1,99,9","07,99,1,99,9,99,9,99999,9,99,9,99,9","10061,1,99999,9",,,,,"MET070METAR ETSE 310520Z 26006KT 9999 FEW033 BKN110 BKN170 05/M01 Q1006 BLU;",
"10869099999","2010-03-31T06:20:00","4","48.322333","11.948667","461.77","ERDING, GM","FM-15","ETSE ","V020","260,1,N,0041,1","03300,1,C,N","011265,1,N,1","+0060,1","+0010,1","99999,9","02,5,+01800,1,99,9","07,5,+03300,1,99,9","07,5,+05100,1,99,9","07,99,1,99,9,99,9,99999,9,99,9,99,9","10061,1,99999,9",,,,,"MET069METAR ETSE 310620Z 26008KT 9999 FEW060 BKN110 BKN170 06/01 Q1006 BLU;",
"10869099999","2010-03-31T07:20:00","4","48.322333","11.948667","461.77","ERDING, GM","FM-15","ETSE ","V020","270,1,N,0041,1","03600,1,C,N","011265,1,N,1","+0070,1","+0000,1","99999,9","02,5,+01800,1,99,9","07,5,+03600,1,99,9","07,5,+05400,1,99,9","07,99,1,99,9,99,9,99999,9,99,9,99,9","10061,1,99999,9",,,,,"MET069METAR ETSE 310720Z 27008KT 9999 FEW060 BKN120 BKN180 07/00 Q1006 BLU;",
"10869099999","2010-03-31T08:20:00","4","48.322333","11.948667","461.77","ERDING, GM","FM-15","ETSE ","V020","260,1,N,0051,1","03300,1,C,N","011265,1,N,1","+0080,1","-0010,1","99999,9","02,5,+01200,1,99,9","07,5,+03300,1,99,9","07,5,+05700,1,99,9","07,99,1,99,9,99,9,99999,9,99,9,99,9","10061,1,99999,9",,,,,"MET070METAR ETSE 310820Z 26010KT 9999 FEW040 BKN110 BKN190 08/M01 Q1006 BLU;",
"10869099999","2010-03-31T09:20:00","4","48.322333","11.948667","461.77","ERDING, GM","FM-15","ETSE ","V020","260,1,N,0041,1","02100,1,C,N","011265,1,N,1","+0090,1","-0010,1","99999,9","02,5,+01290,1,99,9","07,5,+02100,1,99,9","07,5,+04800,1,99,9","07,99,1,99,9,99,9,99999,9,99,9,99,9","10061,1,99999,9",,,,,"MET070METAR ETSE 310920Z 26008KT 9999 FEW043 BKN070 BKN160 09/M01 Q1006 BLU;",
"10869099999","2010-03-31T10:20:00","4","48.322333","11.948667","461.77","ERDING, GM","FM-15","ETSE ","V020","280,1,N,0057,1","04800,1,C,N","011265,1,N,1","+0100,1","-0010,1","99999,9","04,5,+01350,1,99,9","07,5,+04800,1,99,9",,"07,99,1,99,9,99,9,99999,9,99,9,99,9","10051,1,99999,9",,,,,"MET063METAR ETSE 311020Z 28011KT 9999 SCT045 BKN160 10/M01 Q1005 BLU;",
"10869099999","2010-03-31T11:20:00","4","48.322333","11.948667","461.77","ERDING, GM","FM-15","ETSE ","V020","260,1,N,0057,1","02400,1,C,N","011265,1,N,1","+0110,1","-0030,1","99999,9","04,5,+01440,1,99,9","04,5,+02400,1,99,9","07,5,+05700,1,99,9","07,99,1,99,9,99,9,99999,9,99,9,99,9","10051,1,99999,9",,,,,"MET070METAR ETSE 311120Z 26011KT 9999 SCT048 SCT080 BKN190 11/M03 Q1005 BLU;",
"10869099999","2010-03-31T12:20:00","4","48.322333","11.948667","461.77","ERDING, GM","FM-15","ETSE ","V020","270,1,N,0057,1","02400,1,C,N","011265,1,N,1","+0110,1","-0020,1","99999,9","02,5,+01500,1,99,9","07,5,+02400,1,99,9",,"07,99,1,99,9,99,9,99999,9,99,9,99,9","10041,1,99999,9",,,,,"MET063METAR ETSE 311220Z 27011KT 9999 FEW050 BKN080 11/M02 Q1004 BLU;",
"10869099999","2010-03-31T13:20:00","4","48.322333","11.948667","461.77","ERDING, GM","FM-15","ETSE ","V020","280,1,N,0046,1","01500,1,C,N","011265,1,N,1","+0100,1","-0010,1","99999,9","02,5,+00540,1,99,9","04,5,+01500,1,99,9","07,5,+02550,5,99,9","07,99,1,99,9,99,9,99999,9,99,9,99,9","10041,1,99999,9","80,1",,,,"MET076METAR ETSE 311320Z 28009KT 9999 -SHRA FEW018 SCT050 BKN085 10/M01 Q1004 BLU;",
"10869099999","2010-04-01T05:20:00","4","48.322333","11.948667","461.77","ERDING, GM","FM-15","ETSE ","V020","290,1,N,0026,1","01500,1,C,N","011265,1,N,1","+0000,1","-0010,1","99999,9","07,5,+01500,1,99,9","07,5,+03900,1,99,9",,"07,99,1,99,9,99,9,99999,9,99,9,99,9","10091,1,99999,9",,,,,"MET063METAR ETSE 010520Z 29005KT 9999 BKN050 BKN130 00/M01 Q1009 BLU;",
"10869099999","2010-04-01T06:20:00","4","48.322333","11.948667","461.77","ERDING, GM","FM-15","ETSE ","V020","300,1,N,0031,1","01500,1,C,N","011265,1,N,1","+0030,1","+0010,1","99999,9","02,5,+00450,1,99,9","07,5,+01500,1,99,9",,"07,99,1,99,9,99,9,99999,9,99,9,99,9","10102,1,99999,9",,,,,"MET062METAR ETSE 010620Z 30006KT 9999 FEW015 BKN050 03/01 Q1010 BLU;",
"10869099999","2010-04-01T07:20:00","4","48.322333","11.948667","461.77","ERDING, GM","FM-15","ETSE ","V020","310,1,N,0051,1","00990,1,C,N","011265,1,N,1","+0040,1","+0000,1","99999,9","02,5,+00540,1,99,9","07,5,+00990,1,99,9",,"07,99,1,99,9,99,9,99999,9,99,9,99,9","10108,1,99999,9",,,,,"MET062METAR ETSE 010720Z 31010KT 9999 FEW018 BKN033 04/00 Q1011 BLU;",
"10869099999","2010-04-01T08:20:00","4","48.322333","11.948667","461.77","ERDING, GM","FM-15","ETSE ","V020","310,1,N,0041,1","01140,1,C,N","011265,1,N,1","+0040,1","+0000,1","99999,9","04,5,+00540,1,99,9","07,5,+01140,1,99,9",,"07,99,1,99,9,99,9,99999,9,99,9,99,9","10119,1,99999,9",,,,,"MET062METAR ETSE 010820Z 31008KT 9999 SCT018 BKN038 04/00 Q1012 BLU;",
"10869099999","2010-04-01T09:20:00","4","48.322333","11.948667","461.77","ERDING, GM","FM-15","ETSE ","V020","310,1,N,0036,1","00570,1,C,N","011265,1,N,1","+0030,1","+0010,1","99999,9","02,5,+00330,1,99,9","04,5,+00570,1,99,9","07,5,+01230,1,99,9","07,99,1,99,9,99,9,99999,9,99,9,99,9","10129,1,99999,9","61,1",,,,"MET073METAR ETSE 010920Z 31007KT 9999 -RA FEW011 SCT019 BKN041 03/01 Q1013 BLU;",
"10869099999","2010-04-01T10:20:00","4","48.322333","11.948667","461.77","ERDING, GM","FM-15","ETSE ","V020","270,1,N,0021,1","01440,1,C,N","011265,1,N,1","+0030,1","+0010,1","99999,9","02,5,+00330,1,99,9","07,5,+01440,1,99,9",,"07,99,1,99,9,99,9,99999,9,99,9,99,9","10139,1,99999,9","61,1",,,,"MET066METAR ETSE 011020Z 27004KT 9999 -RA FEW011 BKN048 03/01 Q1014 BLU;",
"10869099999","2010-04-06T05:20:00","4","48.322333","11.948667","461.77","ERDING, GM","FM-15","ETSE ","V020","170,1,N,0015,1","22000,1,9,N","008000,1,N,1","-0010,1","-0010,1","99999,9","02,5,+07500,1,99,9",,,"02,99,1,99,9,99,9,99999,9,99,9,99,9","10281,1,99999,9",,,,,"MET058METAR ETSE 060520Z 17003KT 8000 FEW250 M01/M01 Q1028 BLU/;",
"10869099999","2010-04-06T06:20:00","4","48.322333","11.948667","461.77","ERDING, GM","FM-15","ETSE ","V020","180,1,N,0010,1","22000,1,9,N","011265,1,N,1","+0020,1","+0010,1","99999,9","02,5,+07500,1,99,9",,,"02,99,1,99,9,99,9,99999,9,99,9,99,9","10281,1,99999,9",,,,,"MET056METAR ETSE 060620Z 18002KT 9999 FEW250 02/01 Q1028 BLU/;",
"10869099999","2010-04-06T07:20:00","4","48.322333","11.948667","461.77","ERDING, GM","FM-15","ETSE ","V020","150,1,N,0010,1","22000,1,9,N","011265,1,N,1","+0060,1","+0020,1","99999,9","02,5,+07500,1,99,9",,,"02,99,1,99,9,99,9,99999,9,99,9,99,9","10281,1,99999,9",,,,,"MET056METAR ETSE 060720Z 15002KT 9999 FEW250 06/02 Q1028 BLU/;",
"10869099999","2010-04-06T08:20:00","4","48.322333","11.948667","461.77","ERDING, GM","FM-15","ETSE ","V020","120,1,N,0021,1","22000,1,9,N","011265,1,N,1","+0080,1","+0020,1","99999,9","02,5,+07500,1,99,9",,,"02,99,1,99,9,99,9,99999,9,99,9,99,9","10281,1,99999,9",,,,,"MET056METAR ETSE 060820Z 12004KT 9999 FEW250 08/02 Q1028 BLU/;",
"10869099999","2010-04-06T09:20:00","4","48.322333","11.948667","461.77","ERDING, GM","FM-15","ETSE ","V020","100,1,N,0031,1","22000,1,9,N","011265,1,N,1","+0100,1","+0010,1","99999,9","02,5,+00900,1,99,9",,,"02,99,1,99,9,99,9,99999,9,99,9,99,9","10271,1,99999,9",,,,,"MET056METAR ETSE 060920Z 10006KT 9999 FEW030 10/01 Q1027 BLU/;",
"10869099999","2010-04-06T10:20:00","4","48.322333","11.948667","461.77","ERDING, GM","FM-15","ETSE ","V020","120,1,N,0031,1","22000,1,9,N","011265,1,N,1","+0100,1","-0010,1","99999,9","02,5,+01200,1,99,9",,,"02,99,1,99,9,99,9,99999,9,99,9,99,9","10261,1,99999,9",,,,,"MET057METAR ETSE 061020Z 12006KT 9999 FEW040 10/M01 Q1026 BLU/;",
"10869099999","2010-04-06T11:20:00","4","48.322333","11.948667","461.77","ERDING, GM","FM-15","ETSE ","V020","110,1,N,0036,1","22000,1,9,N","011265,1,N,1","+0110,1","-0010,1","99999,9","02,5,+01350,1,99,9",,,"02,99,1,99,9,99,9,99999,9,99,9,99,9","10251,1,99999,9",,,,,"MET057METAR ETSE 061120Z 11007KT 9999 FEW045 11/M01 Q1025 BLU/;",
"10869099999","2010-04-06T12:20:00","4","48.322333","11.948667","461.77","ERDING, GM","FM-15","ETSE ","V020","070,1,N,0031,1","22000,1,9,N","011265,1,N,1","+0120,1","-0010,1","99999,9","02,5,+01500,1,99,9",,,"02,99,1,99,9,99,9,99999,9,99,9,99,9","10251,1,99999,9",,,,,"MET057METAR ETSE 061220Z 07006KT 9999 FEW050 12/M01 Q1025 BLU/;",
"10869099999","2010-04-06T13:20:00","4","48.322333","11.948667","461.77","ERDING, GM","FM-15","ETSE ","V020","120,1,N,0026,1","22000,1,9,N","011265,1,N,1","+0120,1","-0010,1","99999,9","02,5,+01500,1,99,9",,,"02,99,1,99,9,99,9,99999,9,99,9,99,9","10240,1,99999,9",,,,,"MET057METAR ETSE 061320Z 12005KT 9999 FEW050 12/M01 Q1024 BLU/;",
"10869099999","2010-04-07T06:20:00","4","48.322333","11.948667","461.77","ERDING, GM","FM-15","ETSE ","V020","120,1,N,0036,1","22000,1,9,N","011265,1,N,1","+0030,1","+0000,1","99999,9",,,,,"10210,1,99999,9",,,,,"MET049METAR ETSE 070620Z 12007KT 9999 03/00 Q1021 BLU/;",
"10869099999","2010-04-07T07:20:00","4","48.322333","11.948667","461.77","ERDING, GM","FM-15","ETSE ","V020","120,1,N,0051,1","22000,1,9,N","011265,1,N,1","+0060,1","+0010,1","99999,9",,,,,"10210,1,99999,9",,,,,"MET049METAR ETSE 070720Z 12010KT 9999 06/01 Q1021 BLU/;",
"10869099999","2010-04-07T08:20:00","4","48.322333","11.948667","461.77","ERDING, GM","FM-15","ETSE ","V020","120,1,N,0036,1","22000,1,9,N","011265,1,N,1","+0080,1","+0010,1","99999,9",,,,,"10210,1,99999,9",,,,,"MET049METAR ETSE 070820Z 12007KT 9999 08/01 Q1021 BLU/;",
"10869099999","2010-04-07T09:20:00","4","48.322333","11.948667","461.77","ERDING, GM","FM-15","ETSE ","V020","120,1,N,0046,1","22000,1,9,N","011265,1,N,1","+0100,1","+0020,1","99999,9",,,,,"10210,1,99999,9",,,,,"MET049METAR ETSE 070920Z 12009KT 9999 10/02 Q1021 BLU/;",
"10869099999","2010-04-07T10:20:00","4","48.322333","11.948667","461.77","ERDING, GM","FM-15","ETSE ","V020","090,1,N,0036,1","22000,1,9,N","011265,1,N,1","+0120,1","+0020,1","99999,9",,,,,"10200,1,99999,9",,,,,"MET049METAR ETSE 071020Z 09007KT 9999 12/02 Q1020 BLU/;",
"10869099999","2010-04-07T11:20:00","4","48.322333","11.948667","461.77","ERDING, GM","FM-15","ETSE ","V020","110,1,N,0041,1","22000,1,9,N","011265,1,N,1","+0140,1","+0030,1","99999,9","02,5,+07500,1,99,9",,,"02,99,1,99,9,99,9,99999,9,99,9,99,9","10200,1,99999,9",,,,,"MET056METAR ETSE 071120Z 11008KT 9999 FEW250 14/03 Q1020 BLU/;",
"10869099999","2010-04-07T12:20:00","4","48.322333","11.948667","461.77","ERDING, GM","FM-15","ETSE ","V020","090,1,N,0041,1","22000,1,9,N","011265,1,N,1","+0150,1","+0020,1","99999,9","02,5,+07200,1,99,9",,,"02,99,1,99,9,99,9,99999,9,99,9,99,9","10190,1,99999,9",,,,,"MET056METAR ETSE 071220Z 09008KT 9999 FEW240 15/02 Q1019 BLU/;",
"10869099999","2010-04-07T13:20:00","4","48.322333","11.948667","461.77","ERDING, GM","FM-15","ETSE ","V020","100,1,N,0046,1","22000,1,9,N","011265,1,N,1","+0160,1","+0020,1","99999,9","02,5,+07500,1,99,9",,,"02,99,1,99,9,99,9,99999,9,99,9,99,9","10190,1,99999,9",,,,,"MET056METAR ETSE 071320Z 10009KT 9999 FEW250 16/02 Q1019 BLU/;",
"10869099999","2010-04-08T05:20:00","4","48.322333","11.948667","461.77","ERDING, GM","FM-15","ETSE ","V020","210,1,N,0010,1","22000,1,9,N","011265,1,N,1","+0000,1","-0020,1","99999,9","02,5,+06600,1,99,9",,,"02,99,1,99,9,99,9,99999,9,99,9,99,9","10200,1,99999,9",,,,,"MET057METAR ETSE 080520Z 21002KT 9999 FEW220 00/M02 Q1020 BLU/;",
"10869099999","2010-04-08T06:20:00","4","48.322333","11.948667","461.77","ERDING, GM","FM-15","ETSE ","V020","999,9,V,0010,1","22000,1,9,N","011265,1,N,1","+0040,1","+0000,1","99999,9","02,5,+06600,1,99,9",,,"02,99,1,99,9,99,9,99999,9,99,9,99,9","10210,1,99999,9",,,,,"MET056METAR ETSE 080620Z VRB02KT 9999 FEW220 04/00 Q1021 BLU/;",
"10869099999","2010-04-08T07:20:00","4","48.322333","11.948667","461.77","ERDING, GM","FM-15","ETSE ","V020","070,1,N,0010,1","22000,1,9,N","011265,1,N,1","+0070,1","+0010,1","99999,9","02,5,+06600,1,99,9",,,"02,99,1,99,9,99,9,99999,9,99,9,99,9","10210,1,99999,9",,,,,"MET056METAR ETSE 080720Z 07002KT 9999 FEW220 07/01 Q1021 BLU/;",
"10869099999","2010-04-08T08:20:00","4","48.322333","11.948667","461.77","ERDING, GM","FM-15","ETSE ","V020","999,9,V,0010,1","22000,1,9,N","011265,1,N,1","+0090,1","+0020,1","99999,9","02,5,+06600,1,99,9",,,"02,99,1,99,9,99,9,99999,9,99,9,99,9","10210,1,99999,9",,,,,"MET056METAR ETSE 080820Z VRB02KT 9999 FEW220 09/02 Q1021 BLU/;",
"10869099999","2010-04-08T09:20:00","4","48.322333","11.948667","461.77","ERDING, GM","FM-15","ETSE ","V020","999,9,V,0010,1","22000,1,9,N","011265,1,N,1","+0110,1","+0030,1","99999,9","02,5,+06900,1,99,9",,,"02,99,1,99,9,99,9,99999,9,99,9,99,9","10220,1,99999,9",,,,,"MET056METAR ETSE 080920Z VRB02KT 9999 FEW230 11/03 Q1022 BLU/;",
"10869099999","2010-04-08T10:20:00","4","48.322333","11.948667","461.77","ERDING, GM","FM-15","ETSE ","V020","040,1,N,0015,1","22000,1,9,N","011265,1,N,1","+0120,1","+0030,1","99999,9","02,5,+06900,1,99,9",,,"02,99,1,99,9,99,9,99999,9,99,9,99,9","10220,1,99999,9",,,,,"MET056METAR ETSE 081020Z 04003KT 9999 FEW230 12/03 Q1022 BLU/;",
"10869099999","2010-04-08T11:20:00","4","48.322333","11.948667","461.77","ERDING, GM","FM-15","ETSE ","V020","340,1,N,0015,1","22000,1,9,N","011265,1,N,1","+0140,1","+0040,1","99999,9","02,5,+06900,1,99,9",,,"02,99,1,99,9,99,9,99999,9,99,9,99,9","10220,1,99999,9",,,,,"MET056METAR ETSE 081120Z 34003KT 9999 FEW230 14/04 Q1022 BLU/;",
"10869099999","2010-04-08T12:20:00","4","48.322333","11.948667","461.77","ERDING, GM","FM-15","ETSE ","V020","330,1,N,0021,1","22000,1,9,N","011265,1,N,1","+0160,1","+0040,1","99999,9","02,5,+06900,1,99,9",,,"02,99,1,99,9,99,9,99999,9,99,9,99,9","10220,1,99999,9",,,,,"MET056METAR ETSE 081220Z 33004KT 9999 FEW230 16/04 Q1022 BLU/;",
"10869099999","2010-04-08T13:20:00","4","48.322333","11.948667","461.77","ERDING, GM","FM-15","ETSE ","V020","030,1,N,0021,1","22000,1,9,N","011265,1,N,1","+0170,1","+0010,1","99999,9","02,5,+06900,1,99,9",,,"02,99,1,99,9,99,9,99999,9,99,9,99,9","10210,1,99999,9",,,,,"MET056METAR ETSE 081320Z 03004KT 9999 FEW230 17/01 Q1021 BLU/;",
"10869099999","2010-04-09T06:20:00","4","48.322333","11.948667","461.77","ERDING, GM","FM-15","ETSE ","V020","300,1,N,0026,1","06900,1,C,N","011265,1,N,1","+0060,1","+0040,1","99999,9","07,5,+06900,1,99,9",,,"07,99,1,99,9,99,9,99999,9,99,9,99,9","10271,1,99999,9",,,,,"MET056METAR ETSE 090620Z 30005KT 9999 BKN230 06/04 Q1027 BLU/;",
"10869099999","2010-04-09T07:20:00","4","48.322333","11.948667","461.77","ERDING, GM","FM-15","ETSE ","V020","310,1,N,0026,1","06600,1,C,N","011265,1,N,1","+0090,1","+0050,1","99999,9","07,5,+06600,1,99,9",,,"07,99,1,99,9,99,9,99999,9,99,9,99,9","10281,1,99999,9",,,,,"MET056METAR ETSE 090720Z 31005KT 9999 BKN220 09/05 Q1028 BLU/;",
"10869099999","2010-04-12T05:20:00","4","48.322333","11.948667","461.77","ERDING, GM","FM-15","ETSE ","V020","999,9,V,0010,1","00570,1,C,N","011265,1,N,1","+0020,1","+0010,1","99999,9","02,5,+00180,1,99,9","07,5,+00570,1,99,9",,"07,99,1,99,9,99,9,99999,9,99,9,99,9","10159,1,99999,9",,,,,"MET062METAR ETSE 120520Z VRB02KT 9999 FEW006 BKN019 02/01 Q1016 WHT;",
"10869099999","2010-04-12T06:20:00","4","48.322333","11.948667","461.77","ERDING, GM","FM-15","ETSE ","V020","040,1,N,0015,1","00810,1,C,N","011265,1,N,1","+0030,1","+0010,1","99999,9","02,5,+00390,1,99,9","07,5,+00810,1,99,9",,"07,99,1,99,9,99,9,99999,9,99,9,99,9","10159,1,99999,9",,,,,"MET066METAR ETSE 120620Z 04003KT 9999 FEW013 BKN027 03/01 Q1016 BLU WHT;",
"10869099999","2010-04-12T07:20:00","4","48.322333","11.948667","461.77","ERDING, GM","FM-15","ETSE ","V020","090,1,N,0021,1","00960,1,C,N","011265,1,N,1","+0040,1","+0020,1","99999,9","02,5,+00300,1,99,9","07,5,+00960,1,99,9",,"07,99,1,99,9,99,9,99999,9,99,9,99,9","10149,1,99999,9",,,,,"MET077METAR ETSE 120720Z 09004KT 9999 FEW010 BKN032 04/02 Q1015 BLU BLU/ TEMPO BLU;",
"10869099999","2010-04-12T08:20:00","4","48.322333","11.948667","461.77","ERDING, GM","FM-15","ETSE ","V020","070,1,N,0026,1","00900,1,C,N","011265,1,N,1","+0050,1","+0000,1","99999,9","02,5,+00450,1,99,9","07,5,+00900,1,99,9",,"07,99,1,99,9,99,9,99999,9,99,9,99,9","10149,1,99999,9",,,,,"MET077METAR ETSE 120820Z 07005KT 9999 FEW015 BKN030 05/00 Q1015 BLU BLU/ TEMPO BLU;",
"10869099999","2010-04-12T09:20:00","4","48.322333","11.948667","461.77","ERDING, GM","FM-15","ETSE ","V020","110,1,N,0031,1","01080,1,C,N","011265,1,N,1","+0060,1","+0010,1","99999,9","02,5,+00600,1,99,9","07,5,+01080,1,99,9",,"07,99,1,99,9,99,9,99999,9,99,9,99,9","10149,1,99999,9",,,,,"MET066METAR ETSE 120920Z 11006KT 9999 FEW020 BKN036 06/01 Q1015 BLU BLU;",
"10869099999","2010-04-12T10:20:00","4","48.322333","11.948667","461.77","ERDING, GM","FM-15","ETSE ","V020","080,1,N,0036,1","01110,1,C,N","011265,1,N,1","+0060,1","+0000,1","99999,9","02,5,+00750,1,99,9","07,5,+01110,1,99,9",,"07,99,1,99,9,99,9,99999,9,99,9,99,9","10149,1,99999,9",,,,,"MET066METAR ETSE 121020Z 08007KT 9999 FEW025 BKN037 06/00 Q1015 BLU BLU;",
"10869099999","2010-04-12T11:20:00","4","48.322333","11.948667","461.77","ERDING, GM","FM-15","ETSE ","V020","090,1,N,0036,1","01140,1,C,N","011265,1,N,1","+0060,1","+0000,1","99999,9","02,5,+00780,1,99,9","07,5,+01140,1,99,9",,"07,99,1,99,9,99,9,99999,9,99,9,99,9","10149,1,99999,9",,,,,"MET066METAR ETSE 121120Z 09007KT 9999 FEW026 BKN038 06/00 Q1015 BLU BLU;",
"10869099999","2010-04-12T12:20:00","4","48.322333","11.948667","461.77","ERDING, GM","FM-15","ETSE ","V020","070,1,N,0036,1","01260,1,C,N","011265,1,N,1","+0080,1","+0010,1","99999,9","02,5,+00840,1,99,9","07,5,+01260,1,99,9",,"07,99,1,99,9,99,9,99999,9,99,9,99,9","10139,1,99999,9",,,,,"MET066METAR ETSE 121220Z 07007KT 9999 FEW028 BKN042 08/01 Q1014 BLU BLU;",
"10869099999","2010-04-12T13:20:00","4","48.322333","11.948667","461.77","ERDING, GM","FM-15","ETSE ","V020","060,1,N,0057,1","01230,1,C,N","011265,1,N,1","+0080,1","+0000,1","99999,9","02,5,+00900,1,99,9","07,5,+01230,1,99,9",,"07,99,1,99,9,99,9,99999,9,99,9,99,9","10139,1,99999,9",,,,,"MET066METAR ETSE 121320Z 06011KT 9999 FEW030 BKN041 08/00 Q1014 BLU BLU;",
"10869099999","2010-04-12T14:15:00","4","48.322333","11.948667","461.77","ERDING, GM","FM-16","ETSE ","V020","070,1,N,0041,1","01200,1,C,N","011265,1,N,1","+0090,1","-0010,1","99999,9","02,5,+00900,1,99,9","07,5,+01200,1,99,9",,"07,99,1,99,9,99,9,99999,9,99,9,99,9","10129,1,99999,9",,,,,"MET075SPECI ETSE 121415Z 07008KT 9999 FEW030 BKN040 09/M01 Q1013 BLU FCST CANCEL;",
"10869099999","2010-04-13T05:20:00","4","48.322333","11.948667","461.77","ERDING, GM","FM-15","ETSE ","V020","999,9,C,0000,1","00840,1,C,N","011265,1,N,1","+0030,1","+0020,1","99999,9","02,5,+00450,1,99,9","07,5,+00840,1,99,9",,"07,99,1,99,9,99,9,99999,9,99,9,99,9","10129,1,99999,9",,,,,"MET066METAR ETSE 130520Z 00000KT 9999 FEW015 BKN028 03/02 Q1013 BLU BLU;",
"10869099999","2010-04-13T06:20:00","4","48.322333","11.948667","461.77","ERDING, GM","FM-15","ETSE ","V020","100,1,N,0010,1","00750,1,C,N","011265,1,N,1","+0040,1","+0020,1","99999,9","02,5,+00540,1,99,9","07,5,+00750,1,99,9",,"07,99,1,99,9,99,9,99999,9,99,9,99,9","10129,1,99999,9",,,,,"MET066METAR ETSE 130620Z 10002KT 9999 FEW018 BKN025 04/02 Q1013 BLU BLU;",
"10869099999","2010-04-13T06:46:00","4","48.322333","11.948667","461.77","ERDING, GM","FM-16","ETSE ","V020","120,1,N,0031,1","00300,1,C,N","011265,1,N,1","+0050,1","+0020,1","99999,9","07,5,+00300,1,99,9","07,5,+00690,1,99,9",,"07,99,1,99,9,99,9,99999,9,99,9,99,9","10129,1,99999,9",,,,,"MET076SPECI ETSE 130646Z 12006KT 9999 BKN010 BKN023 05/02 Q1013 GRN BLU TEMPO GRN;",
"10869099999","2010-04-13T07:20:00","4","48.322333","11.948667","461.77","ERDING, GM","FM-15","ETSE ","V020","100,1,N,0026,1","00300,1,C,N","011265,1,N,1","+0050,1","+0020,1","99999,9","07,5,+00300,1,99,9","07,5,+00660,1,99,9",,"07,99,1,99,9,99,9,99999,9,99,9,99,9","10129,1,99999,9",,,,,"MET076METAR ETSE 130720Z 10005KT 9999 BKN010 BKN022 05/02 Q1013 GRN WHT TEMPO GRN;",
"10869099999","2010-04-13T08:20:00","4","48.322333","11.948667","461.77","ERDING, GM","FM-15","ETSE ","V020","080,1,N,0026,1","00450,1,C,N","011265,1,N,1","+0050,1","+0020,1","99999,9","07,5,+00450,1,99,9",,,"07,99,1,99,9,99,9,99999,9,99,9,99,9","10129,1,99999,9",,,,,"MET069METAR ETSE 130820Z 08005KT 9999 BKN015 05/02 Q1013 WHT WHT TEMPO GRN;",
"10869099999","2010-04-13T09:20:00","4","48.322333","11.948667","461.77","ERDING, GM","FM-15","ETSE ","V020","080,1,N,0026,1","00570,1,C,N","011265,1,N,1","+0060,1","+0020,1","99999,9","07,5,+00570,1,99,9",,,"07,99,1,99,9,99,9,99999,9,99,9,99,9","10129,1,99999,9",,,,,"MET059METAR ETSE 130920Z 08005KT 9999 BKN019 06/02 Q1013 WHT WHT;",
"10869099999","2010-04-13T10:20:00","4","48.322333","11.948667","461.77","ERDING, GM","FM-15","ETSE ","V020","020,1,N,0021,1","22000,1,9,N","011265,1,N,1","+0080,1","+0020,1","99999,9","04,5,+00630,1,99,9",,,"04,99,1,99,9,99,9,99999,9,99,9,99,9","10129,1,99999,9",,,,,"MET070METAR ETSE 131020Z 02004KT 9999 SCT021 08/02 Q1013 BLU/BLU TEMPO BLU/;",
"10869099999","2010-04-13T11:20:00","4","48.322333","11.948667","461.77","ERDING, GM","FM-15","ETSE ","V020","070,1,N,0026,1","22000,1,9,N","011265,1,N,1","+0100,1","+0020,1","99999,9","04,5,+00930,1,99,9",,,"04,99,1,99,9,99,9,99999,9,99,9,99,9","10129,1,99999,9",,,,,"MET070METAR ETSE 131120Z 07005KT 9999 SCT031 10/02 Q1013 BLU/BLU TEMPO BLU/;",
"10869099999","2010-04-13T12:20:00","4","48.322333","11.948667","461.77","ERDING, GM","FM-15","ETSE ","V020","040,1,N,0026,1","22000,1,9,N","011265,1,N,1","+0110,1","+0020,1","99999,9","04,5,+00960,1,99,9",,,"04,99,1,99,9,99,9,99999,9,99,9,99,9","10129,1,99999,9",,,,,"MET070METAR ETSE 131220Z 04005KT 9999 SCT032 11/02 Q1013 BLU/BLU TEMPO BLU/;",
"10869099999","2010-04-13T13:20:00","4","48.322333","11.948667","461.77","ERDING, GM","FM-15","ETSE ","V020","070,1,N,0031,1","01170,1,C,N","011265,1,N,1","+0110,1","+0020,1","99999,9","07,5,+01170,1,99,9",,,"07,99,1,99,9,99,9,99999,9,99,9,99,9","10119,1,99999,9",,,,,"MET070METAR ETSE 131320Z 07006KT 9999 BKN039 11/02 Q1012 BLU BLU TEMPO BLU/;",
"10869099999","2010-04-13T14:20:00","4","48.322333","11.948667","461.77","ERDING, GM","FM-15","ETSE ","V020","060,1,N,0031,1","01350,1,C,N","011265,1,N,1","+0110,1","+0020,1","99999,9","07,5,+01350,1,99,9",,,"07,99,1,99,9,99,9,99999,9,99,9,99,9","10119,1,99999,9",,,,,"MET067METAR ETSE 131420Z 06006KT 9999 BKN045 11/02 Q1012 BLU FCST CANCEL;",
"10869099999","2010-04-14T05:20:00","4","48.322333","11.948667","461.77","ERDING, GM","FM-15","ETSE ","V020","270,1,N,0026,1","00120,1,C,N","004000,1,N,1","+0050,1","+0050,1","99999,9","07,5,+00120,1,99,9","08,5,+00240,1,99,9",,"08,99,1,99,9,99,9,99999,9,99,9,99,9","10102,1,99999,9","10,1","61,1",,,"MET069METAR ETSE 140520Z 27005KT 4000 -RA BR BKN004 OVC008 05/05 Q1010 YLO;",
"10869099999","2010-04-14T06:20:00","4","48.322333","11.948667","461.77","ERDING, GM","FM-15","ETSE ","V020","270,1,N,0036,1","00120,1,C,N","004000,1,N,1","+0060,1","+0050,1","99999,9","07,5,+00120,1,99,9","07,5,+00270,1,99,9",,"07,99,1,99,9,99,9,99999,9,99,9,99,9","10108,1,99999,9","10,1","63,1",,,"MET068METAR ETSE 140620Z 27007KT 4000 RA BR BKN004 BKN009 06/05 Q1011 YLO;",
"10869099999","2010-04-14T07:20:00","4","48.322333","11.948667","461.77","ERDING, GM","FM-15","ETSE ","V020","280,1,N,0031,1","00210,1,C,N","005000,1,N,1","+0060,1","+0050,1","99999,9","04,5,+00120,1,99,9","07,5,+00210,1,99,9","08,5,+00390,1,99,9","08,99,1,99,9,99,9,99999,9,99,9,99,9","10108,1,99999,9","10,1","63,1",,,"MET075METAR ETSE 140720Z 28006KT 5000 RA BR SCT004 BKN007 OVC013 06/05 Q1011 GRN;",
"10869099999","2010-04-14T08:11:00","4","48.322333","11.948667","461.77","ERDING, GM","FM-16","ETSE ","V020","280,1,N,0015,1","00150,1,C,N","006000,1,N,1","+0070,1","+0060,1","99999,9","07,5,+00150,1,99,9","07,5,+00240,1,99,9",,"07,99,1,99,9,99,9,99999,9,99,9,99,9","10108,1,99999,9","61,1",,,,"MET075SPECI ETSE 140811Z 28003KT 6000 -RA BKN005 BKN008 07/06 Q1011 RERA YLO GRN;",
"10869099999","2010-04-14T08:20:00","4","48.322333","11.948667","461.77","ERDING, GM","FM-15","ETSE ","V020","300,1,N,0015,1","00150,1,C,N","007000,1,N,1","+0070,1","+0060,1","99999,9","07,5,+00150,1,99,9","07,5,+00240,1,99,9",,"07,99,1,99,9,99,9,99999,9,99,9,99,9","10108,1,99999,9","61,1",,,,"MET075METAR ETSE 140820Z 30003KT 7000 -RA BKN005 BKN008 07/06 Q1011 RERA YLO GRN;",
"10869099999","2010-04-14T08:45:00","4","48.322333","11.948667","461.77","ERDING, GM","FM-16","ETSE ","V020","350,1,N,0010,1","00300,1,C,N","007000,1,N,1","+0070,1","+0060,1","99999,9","04,5,+00150,1,99,9","07,5,+00300,1,99,9","07,5,+00630,1,99,9","07,99,1,99,9,99,9,99999,9,99,9,99,9","10108,1,99999,9","61,1",,,,"MET087SPECI ETSE 140845Z 35002KT 7000 -RA SCT005 BKN010 BKN021 07/06 Q1011 GRN GRN BECMG WHT;",
"10869099999","2010-04-14T09:20:00","4","48.322333","11.948667","461.77","ERDING, GM","FM-15","ETSE ","V020","170,1,N,0021,1","00300,1,C,N","007000,1,N,1","+0080,1","+0060,1","99999,9","02,5,+00210,1,99,9","04,5,+00300,1,99,9","07,5,+00660,1,99,9","07,99,1,99,9,99,9,99999,9,99,9,99,9","10108,1,99999,9","61,1",,,,"MET077METAR ETSE 140920Z 17004KT 7000 -RA FEW007 SCT010 BKN022 08/06 Q1011 WHT WHT;",
"10869099999","2010-04-14T10:20:00","4","48.322333","11.948667","461.77","ERDING, GM","FM-15","ETSE ","V020","030,1,N,0015,1","00300,1,C,N","006000,1,N,1","+0070,1","+0050,1","99999,9","02,5,+00150,1,99,9","04,5,+00300,1,99,9","07,5,+00600,1,99,9","07,99,1,99,9,99,9,99999,9,99,9,99,9","10119,1,99999,9","81,1",,,,"MET088METAR ETSE 141020Z 03003KT 6000 SHRA FEW005 SCT010 BKN020 07/05 Q1012 WHT BLU TEMPO GRN;",
"10869099999","2010-04-14T11:20:00","4","48.322333","11.948667","461.77","ERDING, GM","FM-15","ETSE ","V020","110,1,N,0021,1","00390,1,C,N","006000,1,N,1","+0070,1","+0050,1","99999,9","02,5,+00150,1,99,9","04,5,+00390,1,99,9","07,5,+00630,1,02,5","07,99,1,99,9,99,9,99999,9,99,9,99,9","10119,1,99999,9","80,1",,,,"MET097METAR ETSE 141120Z 11004KT 6000 -SHRA FEW005 SCT013 BKN021TCU 07/05 Q1012 RERA WHT BLU TEMPO GRN;",
"10869099999","2010-04-14T12:20:00","4","48.322333","11.948667","461.77","ERDING, GM","FM-15","ETSE ","V020","190,1,N,0015,1","00660,1,C,N","011265,1,N,1","+0080,1","+0050,1","99999,9","02,5,+00180,1,99,9","04,5,+00660,1,99,9","07,5,+01500,1,99,9","07,99,1,99,9,99,9,99999,9,99,9,99,9","10119,1,99999,9",,,,,"MET083METAR ETSE 141220Z 19003KT 9999 FEW006 SCT022 BKN050 08/05 Q1012 BLU BLU TEMPO GRN;",
"10869099999","2010-04-14T13:20:00","4","48.322333","11.948667","461.77","ERDING, GM","FM-15","ETSE ","V020","160,1,N,0031,1","00990,1,C,N","008000,1,N,1","+0080,1","+0050,1","99999,9","04,5,+00330,1,99,9","07,5,+00990,1,02,5",,"07,99,1,99,9,99,9,99999,9,99,9,99,9","10119,1,99999,9","80,1",,,,"MET085METAR ETSE 141320Z 16006KT 8000 -SHRA SCT011 BKN033TCU 08/05 Q1012 BLU BLU TEMPO GRN;",
"10869099999","2010-04-14T14:00:00","4","48.322333","11.948667","461.77","ERDING, GM","FM-16","ETSE ","V020","240,1,N,0036,1","00660,1,C,N","009000,1,N,1","+0060,1","+0040,1","99999,9","02,5,+00330,1,99,9","07,5,+00660,1,02,5",,"07,99,1,99,9,99,9,99999,9,99,9,99,9","10119,1,99999,9","80,1",,,,"MET088SPECI ETSE 141400Z 24007KT 9000 -SHRA FEW011 BKN022TCU 06/04 Q1012 RERA WHT FCST CANCEL;",
"10869099999","2010-04-15T05:20:00","4","48.322333","11.948667","461.77","ERDING, GM","FM-15","ETSE ","V020","350,1,N,0021,1","00090,1,C,N","001800,1,N,1","+0040,1","+0040,1","99999,9","07,5,+00090,1,99,9","08,5,+00180,1,99,9",,"08,99,1,99,9,99,9,99999,9,99,9,99,9","10139,1,99999,9","10,1",,,,"MET079METAR ETSE 150520Z 35004KT 1800 BR BKN003 OVC006 04/04 Q1014 YLO GRN TEMPO YLO;",
"10869099999","2010-04-15T05:53:00","4","48.322333","11.948667","461.77","ERDING, GM","FM-16","ETSE ","V020","010,1,N,0026,1","00060,1,C,N","001800,1,N,1","+0040,1","+0040,1","99999,9","08,5,+00060,1,99,9",,,"08,99,1,99,9,99,9,99999,9,99,9,99,9","10149,1,99999,9","10,1",,,,"MET072SPECI ETSE 150553Z 01005KT 1800 BR OVC002 04/04 Q1015 AMB GRN TEMPO YLO;",
"10869099999","2010-04-15T06:20:00","4","48.322333","11.948667","461.77","ERDING, GM","FM-15","ETSE ","V020","010,1,N,0015,1","00060,1,C,N","001700,1,N,1","+0040,1","+0040,1","99999,9","07,5,+00060,1,99,9",,,"07,99,1,99,9,99,9,99999,9,99,9,99,9","10149,1,99999,9","10,1",,,,"MET072METAR ETSE 150620Z 01003KT 1700 BR BKN002 04/04 Q1015 AMB GRN TEMPO YLO;",
"10869099999","2010-04-15T06:40:00","4","48.322333","11.948667","461.77","ERDING, GM","FM-16","ETSE ","V020","300,1,N,0015,1","00120,1,C,N","003000,1,N,1","+0040,1","+0030,1","99999,9","07,5,+00120,1,99,9",,,"07,99,1,99,9,99,9,99999,9,99,9,99,9","10149,1,99999,9","10,1",,,,"MET072SPECI ETSE 150640Z 30003KT 3000 BR BKN004 04/03 Q1015 YLO GRN TEMPO YLO;",
"10869099999","2010-04-15T07:20:00","4","48.322333","11.948667","461.77","ERDING, GM","FM-15","ETSE ","V020","310,1,N,0015,1","00150,1,C,N","004500,1,N,1","+0040,1","+0030,1","99999,9","07,5,+00150,1,99,9",,,"07,99,1,99,9,99,9,99999,9,99,9,99,9","10149,1,99999,9","10,1",,,,"MET072METAR ETSE 150720Z 31003KT 4500 BR BKN005 04/03 Q1015 YLO YLO BECMG GRN;",
"10869099999","2010-04-15T08:09:00","4","48.322333","11.948667","461.77","ERDING, GM","FM-16","ETSE ","V020","330,1,N,0026,1","00180,1,C,N","005000,1,N,1","+0050,1","+0030,1","99999,9","07,5,+00180,1,99,9",,,"07,99,1,99,9,99,9,99999,9,99,9,99,9","10149,1,99999,9","10,1",,,,"MET072SPECI ETSE 150809Z 33005KT 5000 BR BKN006 05/03 Q1015 YLO YLO BECMG GRN;",
"10869099999","2010-04-15T08:20:00","4","48.322333","11.948667","461.77","ERDING, GM","FM-15","ETSE ","V020","300,1,N,0015,1","00180,1,C,N","005000,1,N,1","+0050,1","+0040,1","99999,9","07,5,+00180,1,99,9",,,"07,99,1,99,9,99,9,99999,9,99,9,99,9","10149,1,99999,9","10,1",,,,"MET072METAR ETSE 150820Z 30003KT 5000 BR BKN006 05/04 Q1015 YLO YLO BECMG GRN;",
"10869099999","2010-04-15T08:45:00","4","48.322333","11.948667","461.77","ERDING, GM","FM-16","ETSE ","V020","310,1,N,0026,1","00210,1,C,N","006000,1,N,1","+0050,1","+0030,1","99999,9","07,5,+00210,1,99,9",,,"07,99,1,99,9,99,9,99999,9,99,9,99,9","10149,1,99999,9",,,,,"MET059SPECI ETSE 150845Z 31005KT 6000 BKN007 05/03 Q1015 GRN GRN;",
"10869099999","2010-04-15T09:20:00","4","48.322333","11.948667","461.77","ERDING, GM","FM-15","ETSE ","V020","300,1,N,0026,1","00390,1,C,N","007000,1,N,1","+0060,1","+0030,1","99999,9","07,5,+00390,1,99,9",,,"07,99,1,99,9,99,9,99999,9,99,9,99,9","10149,1,99999,9",,,,,"MET069METAR ETSE 150920Z 30005KT 7000 BKN013 06/03 Q1015 GRN GRN BECMG WHT;",
"10869099999","2010-04-15T10:20:00","4","48.322333","11.948667","461.77","ERDING, GM","FM-15","ETSE ","V020","120,1,N,0015,1","00450,1,C,N","011265,1,N,1","+0070,1","+0030,1","99999,9","07,5,+00450,1,99,9",,,"07,99,1,99,9,99,9,99999,9,99,9,99,9","10149,1,99999,9",,,,,"MET059METAR ETSE 151020Z 12003KT 9999 BKN015 07/03 Q1015 WHT WHT;",
"10869099999","2010-04-15T11:20:00","4","48.322333","11.948667","461.77","ERDING, GM","FM-15","ETSE ","V020","250,1,N,0015,1","00780,1,C,N","011265,1,N,1","+0090,1","+0040,1","99999,9","02,5,+00630,1,99,9","07,5,+00780,1,99,9",,"07,99,1,99,9,99,9,99999,9,99,9,99,9","10149,1,99999,9",,,,,"MET077METAR ETSE 151120Z 25003KT 9999 FEW021 BKN026 09/04 Q1015 BLU BLU TEMPO BLU/;",
"10869099999","2010-04-15T12:20:00","4","48.322333","11.948667","461.77","ERDING, GM","FM-15","ETSE ","V020","220,1,N,0015,1","00870,1,C,N","011265,1,N,1","+0090,1","+0040,1","99999,9","02,5,+00630,1,99,9","07,5,+00870,1,99,9",,"07,99,1,99,9,99,9,99999,9,99,9,99,9","10149,1,99999,9",,,,,"MET077METAR ETSE 151220Z 22003KT 9999 FEW021 BKN029 09/04 Q1015 BLU BLU TEMPO BLU/;",
"10869099999","2010-04-15T13:20:00","4","48.322333","11.948667","461.77","ERDING, GM","FM-15","ETSE ","V020","260,1,N,0015,1","01050,1,C,N","011265,1,N,1","+0090,1","+0030,1","99999,9","04,5,+00750,1,99,9","07,5,+01050,1,99,9",,"07,99,1,99,9,99,9,99999,9,99,9,99,9","10149,1,99999,9",,,,,"MET077METAR ETSE 151320Z 26003KT 9999 SCT025 BKN035 09/03 Q1015 BLU BLU TEMPO BLU/;",
"10869099999","2010-04-15T14:20:00","4","48.322333","11.948667","461.77","ERDING, GM","FM-15","ETSE ","V020","340,1,N,0021,1","01110,1,C,N","011265,1,N,1","+0090,1","+0030,1","99999,9","02,5,+00810,1,99,9","07,5,+01110,1,99,9",,"07,99,1,99,9,99,9,99999,9,99,9,99,9","10149,1,99999,9",,,,,"MET074METAR ETSE 151420Z 34004KT 9999 FEW027 BKN037 09/03 Q1015 BLU FCST CANCEL;",
"10869099999","2010-04-16T05:20:00","4","48.322333","11.948667","461.77","ERDING, GM","FM-15","ETSE ","V020","090,1,N,0010,1","00600,1,C,N","003800,1,N,1","+0040,1","+0040,1","99999,9","08,5,+00600,1,99,9",,,"08,99,1,99,9,99,9,99999,9,99,9,99,9","10169,1,99999,9","10,1",,,,"MET072METAR ETSE 160520Z 09002KT 3800 BR OVC020 04/04 Q1017 GRN GRN TEMPO YLO;",
"10869099999","2010-04-16T06:20:00","4","48.322333","11.948667","461.77","ERDING, GM","FM-15","ETSE ","V020","020,1,N,0010,1","00570,1,C,N","004500,1,N,1","+0050,1","+0050,1","99999,9","08,5,+00570,1,99,9",,,"08,99,1,99,9,99,9,99999,9,99,9,99,9","10180,1,99999,9","10,1",,,,"MET072METAR ETSE 160620Z 02002KT 4500 BR OVC019 05/05 Q1018 GRN GRN BECMG WHT;",
"10869099999","2010-04-16T07:00:00","4","48.322333","11.948667","461.77","ERDING, GM","FM-16","ETSE ","V020","040,1,N,0015,1","00570,1,C,N","005000,1,N,1","+0060,1","+0050,1","99999,9","07,5,+00570,1,99,9",,,"07,99,1,99,9,99,9,99999,9,99,9,99,9","10180,1,99999,9","10,1",,,,"MET062SPECI ETSE 160700Z 04003KT 5000 BR BKN019 06/05 Q1018 WHT WHT;",
"10869099999","2010-04-16T07:20:00","4","48.322333","11.948667","461.77","ERDING, GM","FM-15","ETSE ","V020","040,1,N,0015,1","00600,1,C,N","007000,1,N,1","+0070,1","+0040,1","99999,9","07,5,+00600,1,99,9",,,"07,99,1,99,9,99,9,99999,9,99,9,99,9","10180,1,99999,9",,,,,"MET059METAR ETSE 160720Z 04003KT 7000 BKN020 07/04 Q1018 WHT WHT;",
"10869099999","2010-04-16T09:20:00","4","48.322333","11.948667","461.77","ERDING, GM","FM-15","ETSE ","V020","360,1,N,0015,1","02100,1,C,N","009000,1,N,1","+0090,1","+0030,1","99999,9","02,5,+00510,1,99,9","07,5,+02100,1,99,9",,"07,99,1,99,9,99,9,99999,9,99,9,99,9","10180,1,99999,9",,,,,"MET074METAR ETSE 160920Z 36003KT 9000 FEW017 BKN070 09/03 Q1018 BLU FCST CANCEL;",
"10869099999","2010-04-19T05:20:00","4","48.322333","11.948667","461.77","ERDING, GM","FM-15","ETSE ","V020","190,1,N,0015,1","22000,1,9,N","011265,1,N,1","+0030,1","+0030,1","99999,9","02,5,+02400,1,99,9",,,"02,99,1,99,9,99,9,99999,9,99,9,99,9","10129,1,99999,9",,,,,"MET056METAR ETSE 190520Z 19003KT 9999 FEW080 03/03 Q1013 BLU/;",
"10869099999","2010-04-19T06:20:00","4","48.322333","11.948667","461.77","ERDING, GM","FM-15","ETSE ","V020","270,1,N,0031,1","22000,1,9,N","011265,1,N,1","+0090,1","+0050,1","99999,9","02,5,+02400,1,99,9",,,"02,99,1,99,9,99,9,99999,9,99,9,99,9","10129,1,99999,9",,,,,"MET056METAR ETSE 190620Z 27006KT 9999 FEW080 09/05 Q1013 BLU/;",
"10869099999","2010-04-19T07:20:00","4","48.322333","11.948667","461.77","ERDING, GM","FM-15","ETSE ","V020","280,1,N,0041,1","22000,1,9,N","011265,1,N,1","+0110,1","+0060,1","99999,9","04,5,+02400,1,99,9",,,"04,99,1,99,9,99,9,99999,9,99,9,99,9","10139,1,99999,9",,,,,"MET056METAR ETSE 190720Z 28008KT 9999 SCT080 11/06 Q1014 BLU/;",
"10869099999","2010-04-19T08:20:00","4","48.322333","11.948667","461.77","ERDING, GM","FM-15","ETSE ","V020","280,1,N,0031,1","22000,1,9,N","011265,1,N,1","+0130,1","+0070,1","99999,9","02,5,+02400,1,99,9",,,"02,99,1,99,9,99,9,99999,9,99,9,99,9","10139,1,99999,9",,,,,"MET056METAR ETSE 190820Z 28006KT 9999 FEW080 13/07 Q1014 BLU/;",
"10869099999","2010-04-19T09:20:00","4","48.322333","11.948667","461.77","ERDING, GM","FM-15","ETSE ","V020","290,1,N,0026,1","22000,1,9,N","011265,1,N,1","+0150,1","+0060,1","99999,9","02,5,+02400,1,99,9",,,"02,99,1,99,9,99,9,99999,9,99,9,99,9","10139,1,99999,9",,,,,"MET056METAR ETSE 190920Z 29005KT 9999 FEW080 15/06 Q1014 BLU/;",
"10869099999","2010-04-19T10:20:00","4","48.322333","11.948667","461.77","ERDING, GM","FM-15","ETSE ","V020","310,1,N,0031,1","22000,1,9,N","011265,1,N,1","+0160,1","+0050,1","99999,9","02,5,+01200,1,99,9",,,"02,99,1,99,9,99,9,99999,9,99,9,99,9","10139,1,99999,9",,,,,"MET056METAR ETSE 191020Z 31006KT 9999 FEW040 16/05 Q1014 BLU/;",
"10869099999","2010-04-19T11:20:00","4","48.322333","11.948667","461.77","ERDING, GM","FM-15","ETSE ","V020","270,1,N,0026,1","22000,1,9,N","011265,1,N,1","+0170,1","+0030,1","99999,9","02,5,+01350,1,99,9",,,"02,99,1,99,9,99,9,99999,9,99,9,99,9","10139,1,99999,9",,,,,"MET056METAR ETSE 191120Z 27005KT 9999 FEW045 17/03 Q1014 BLU/;",
"10869099999","2010-04-19T12:20:00","4","48.322333","11.948667","461.77","ERDING, GM","FM-15","ETSE ","V020","010,1,N,0021,1","22000,1,9,N","011265,1,N,1","+0170,1","+0020,1","99999,9","02,5,+01800,1,99,9",,,"02,99,1,99,9,99,9,99999,9,99,9,99,9","10139,1,99999,9",,,,,"MET056METAR ETSE 191220Z 01004KT 9999 FEW060 17/02 Q1014 BLU/;",
"10869099999","2010-04-19T13:20:00","4","48.322333","11.948667","461.77","ERDING, GM","FM-15","ETSE ","V020","340,1,N,0026,1","22000,1,9,N","011265,1,N,1","+0180,1","+0010,1","99999,9","02,5,+02100,1,99,9",,,"02,99,1,99,9,99,9,99999,9,99,9,99,9","10129,1,99999,9",,,,,"MET056METAR ETSE 191320Z 34005KT 9999 FEW070 18/01 Q1013 BLU/;",
"10869099999","2010-04-20T05:20:00","4","48.322333","11.948667","461.77","ERDING, GM","FM-15","ETSE ","V020","190,1,N,0015,1","22000,1,9,N","011265,1,N,1","+0070,1","+0040,1","99999,9","04,5,+02400,1,99,9",,,"04,99,1,99,9,99,9,99999,9,99,9,99,9","10139,1,99999,9",,,,,"MET056METAR ETSE 200520Z 19003KT 9999 SCT080 07/04 Q1014 BLU/;",
"10869099999","2010-04-20T06:20:00","4","48.322333","11.948667","461.77","ERDING, GM","FM-15","ETSE ","V020","260,1,N,0026,1","99999,9,C,N","011265,1,N,1","+0100,1","+0040,1","99999,9","02,5,+00750,1,99,9","04,5,+02400,1,99,9",,"04,99,1,99,9,99,9,99999,9,99,9,99,9","10149,1,99999,9",,,,,"MET063METAR ETSE 200620Z 26005KT 9999 FEW025 SCT080 10/04 Q1015 BLU/;","P01 024003SCOCIG"
"10869099999","2010-04-20T07:20:00","4","48.322333","11.948667","461.77","ERDING, GM","FM-15","ETSE ","V020","280,1,N,0031,1","22000,1,9,N","011265,1,N,1","+0120,1","+0050,1","99999,9","02,5,+05700,1,99,9",,,"02,99,1,99,9,99,9,99999,9,99,9,99,9","10149,1,99999,9",,,,,"MET056METAR ETSE 200720Z 28006KT 9999 FEW190 12/05 Q1015 BLU/;",
"10869099999","2010-04-20T08:20:00","4","48.322333","11.948667","461.77","ERDING, GM","FM-15","ETSE ","V020","270,1,N,0036,1","22000,1,9,N","011265,1,N,1","+0140,1","+0050,1","99999,9","02,5,+04800,1,99,9",,,"02,99,1,99,9,99,9,99999,9,99,9,99,9","10149,1,99999,9",,,,,"MET056METAR ETSE 200820Z 27007KT 9999 FEW160 14/05 Q1015 BLU/;",
"10869099999","2010-04-20T09:20:00","4","48.322333","11.948667","461.77","ERDING, GM","FM-15","ETSE ","V020","270,1,N,0041,1","99999,9,C,N","011265,1,N,1","+0160,1","+0040,1","99999,9","02,5,+01350,1,99,9","04,5,+07800,1,99,9",,"04,99,1,99,9,99,9,99999,9,99,9,99,9","10149,1,99999,9",,,,,"MET063METAR ETSE 200920Z 27008KT 9999 FEW045 SCT260 16/04 Q1015 BLU/;","P01 078003SCOCIG"
"10869099999","2010-04-20T10:20:00","4","48.322333","11.948667","461.77","ERDING, GM","FM-15","ETSE ","V020","280,1,N,0067,1","99999,9,C,N","011265,1,N,1","+0170,1","+0030,1","99999,9","02,5,+01500,1,99,9","04,5,+04800,1,99,9",,"04,99,1,99,9,99,9,99999,9,99,9,99,9","10149,1,99999,9",,,,,"MET063METAR ETSE 201020Z 28013KT 9999 FEW050 SCT160 17/03 Q1015 BLU/;","P01 048003SCOCIG"
"10869099999","2010-04-20T11:20:00","4","48.322333","11.948667","461.77","ERDING, GM","FM-15","ETSE ","V020","300,1,N,0067,1","03600,1,C,N","011265,1,N,1","+0170,1","+0040,1","99999,9","02,5,+01800,1,99,9","04,5,+03600,1,99,9","07,5,+08100,1,99,9","07,99,1,99,9,99,9,99999,9,99,9,99,9","10139,1,99999,9",,,,,"MET070METAR ETSE 201120Z 30013KT 9999 FEW060 SCT120 BKN270 17/04 Q1014 BLU/;",
"10869099999","2010-04-20T12:20:00","4","48.322333","11.948667","461.77","ERDING, GM","FM-15","ETSE ","V020","280,1,N,0067,1","03000,1,C,N","011265,1,N,1","+0160,1","+0030,1","99999,9","02,5,+01800,1,99,9","07,5,+03000,1,99,9","07,5,+07200,1,99,9","07,99,1,99,9,99,9,99999,9,99,9,99,9","10139,1,99999,9",,,,,"MET069METAR ETSE 201220Z 28013KT 9999 FEW060 BKN100 BKN240 16/03 Q1014 BLU;",
"10869099999","2010-04-20T13:20:00","4","48.322333","11.948667","461.77","ERDING, GM","FM-15","ETSE ","V020","290,1,N,0087,1","02400,1,C,N","011265,1,N,1","+0170,1","+0020,1","99999,9","02,5,+01800,1,99,9","07,5,+02400,1,99,9",,"07,99,1,99,9,99,9,99999,9,99,9,99,9","10139,1,99999,9",,,,,"MET062METAR ETSE 201320Z 29017KT 9999 FEW060 BKN080 17/02 Q1014 BLU;",
"10869099999","2010-04-20T14:20:00","4","48.322333","11.948667","461.77","ERDING, GM","FM-15","ETSE ","V020","270,1,N,0082,1","02400,1,C,N","011265,1,N,1","+0150,1","+0020,1","99999,9","02,5,+01800,1,99,9","07,5,+02400,1,99,9",,"07,99,1,99,9,99,9,99999,9,99,9,99,9","10139,1,99999,9","80,1",,,"0144,1","MET071METAR ETSE 201420Z 27016G28KT 9999 -SHRA FEW060 BKN080 15/02 Q1014 BLU;",
"10869099999","2010-04-21T04:20:00","4","48.322333","11.948667","461.77","ERDING, GM","FM-15","ETSE ","V020","270,1,N,0026,1","99999,9,C,N","009000,1,N,1","+0060,1","+0040,1","99999,9","04,5,+01800,1,99,9","04,5,+02100,1,99,9",,"04,99,1,99,9,99,9,99999,9,99,9,99,9","10149,1,99999,9",,,,,"MET063METAR ETSE 210420Z 27005KT 9000 SCT060 SCT070 06/04 Q1015 BLU/;","P01 021003SCOCIG"
"10869099999","2010-04-21T06:20:00","4","48.322333","11.948667","461.77","ERDING, GM","FM-15","ETSE ","V020","280,1,N,0031,1","22000,1,9,N","009000,1,N,1","+0070,1","+0030,1","99999,9","04,5,+02100,1,99,9",,,"04,99,1,99,9,99,9,99999,9,99,9,99,9","10159,1,99999,9",,,,,"MET056METAR ETSE 210620Z 28006KT 9000 SCT070 07/03 Q1016 BLU/;",
"10869099999","2010-04-21T06:21:00","4","48.322333","11.948667","461.77","ERDING, GM","FM-16","ETSE ","V020","280,1,N,0031,1","22000,1,9,N","009000,1,N,1","+0070,1","+0030,1","99999,9","04,5,+02100,1,99,9",,,"04,99,1,99,9,99,9,99999,9,99,9,99,9","10159,1,99999,9",,,,,"MET056SPECI ETSE 210621Z 28006KT 9000 SCT070 07/03 Q1016 BLU/;",
"10869099999","2010-04-21T07:20:00","4","48.322333","11.948667","461.77","ERDING, GM","FM-15","ETSE ","V020","300,1,N,0041,1","22000,1,9,N","011265,1,N,1","+0080,1","+0010,1","99999,9","02,5,+02100,1,99,9",,,"02,99,1,99,9,99,9,99999,9,99,9,99,9","10159,1,99999,9",,,,,"MET056METAR ETSE 210720Z 30008KT 9999 FEW070 08/01 Q1016 BLU/;",
"10869099999","2010-04-21T08:20:00","4","48.322333","11.948667","461.77","ERDING, GM","FM-15","ETSE ","V020","300,1,N,0046,1","22000,1,9,N","011265,1,N,1","+0090,1","+0010,1","99999,9","04,5,+01170,1,99,9",,,"04,99,1,99,9,99,9,99999,9,99,9,99,9","10159,1,99999,9",,,,,"MET056METAR ETSE 210820Z 30009KT 9999 SCT039 09/01 Q1016 BLU/;",
"10869099999","2010-04-21T09:20:00","4","48.322333","11.948667","461.77","ERDING, GM","FM-15","ETSE ","V020","300,1,N,0051,1","01260,1,C,N","011265,1,N,1","+0090,1","+0010,1","99999,9","07,5,+01260,1,99,9",,,"07,99,1,99,9,99,9,99999,9,99,9,99,9","10159,1,99999,9",,,,,"MET055METAR ETSE 210920Z 30010KT 9999 BKN042 09/01 Q1016 BLU;",
"10869099999","2010-04-21T10:20:00","4","48.322333","11.948667","461.77","ERDING, GM","FM-15","ETSE ","V020","300,1,N,0051,1","22000,1,9,N","011265,1,N,1","+0110,1","+0020,1","99999,9","04,5,+01230,1,99,9",,,"04,99,1,99,9,99,9,99999,9,99,9,99,9","10159,1,99999,9",,,,,"MET056METAR ETSE 211020Z 30010KT 9999 SCT041 11/02 Q1016 BLU/;",
"10869099999","2010-04-21T11:20:00","4","48.322333","11.948667","461.77","ERDING, GM","FM-15","ETSE ","V020","300,1,N,0057,1","22000,1,9,N","011265,1,N,1","+0110,1","+0020,1","99999,9","04,5,+01320,1,99,9",,,"04,99,1,99,9,99,9,99999,9,99,9,99,9","10149,1,99999,9",,,,,"MET056METAR ETSE 211120Z 30011KT 9999 SCT044 11/02 Q1015 BLU/;",
"10869099999","2010-04-21T12:20:00","4","48.322333","11.948667","461.77","ERDING, GM","FM-15","ETSE ","V020","300,1,N,0057,1","22000,1,9,N","011265,1,N,1","+0120,1","+0010,1","99999,9","04,5,+01500,1,99,9",,,"04,99,1,99,9,99,9,99999,9,99,9,99,9","10149,1,99999,9",,,,,"MET056METAR ETSE 211220Z 30011KT 9999 SCT050 12/01 Q1015 BLU/;",
"10869099999","2010-04-21T13:20:00","4","48.322333","11.948667","461.77","ERDING, GM","FM-15","ETSE ","V020","310,1,N,0057,1","22000,1,9,N","011265,1,N,1","+0130,1","+0000,1","99999,9","02,5,+01650,5,99,9",,,"02,99,1,99,9,99,9,99999,9,99,9,99,9","10139,1,99999,9",,,,"0108,1","MET059METAR ETSE 211320Z 31011G21KT 9999 FEW055 13/00 Q1014 BLU/;",
"10869099999","2010-04-22T05:20:00","4","48.322333","11.948667","461.77","ERDING, GM","FM-15","ETSE ","V020","060,1,N,0010,1","99999,9,C,N","011265,1,N,1","+0020,1","+0000,1","99999,9","04,5,+01800,1,99,9","04,5,+08400,1,99,9",,"04,99,1,99,9,99,9,99999,9,99,9,99,9","10169,1,99999,9",,,,,"MET064METAR ETSE 220520Z 06002KT 9999 SCT060 SCT280 02/M00 Q1017 BLU/;","P01 084003SCOCIG"
"10869099999","2010-04-22T06:20:00","4","48.322333","11.948667","461.77","ERDING, GM","FM-15","ETSE ","V020","080,1,N,0021,1","07500,1,C,N","011265,1,N,1","+0050,1","-0010,1","99999,9","02,5,+01800,1,99,9","07,5,+07500,1,99,9",,"07,99,1,99,9,99,9,99999,9,99,9,99,9","10169,1,99999,9",,,,,"MET064METAR ETSE 220620Z 08004KT 9999 FEW060 BKN250 05/M01 Q1017 BLU/;",
"10869099999","2010-04-22T07:20:00","4","48.322333","11.948667","461.77","ERDING, GM","FM-15","ETSE ","V020","080,1,N,0026,1","06600,1,C,N","011265,1,N,1","+0070,1","-0020,1","99999,9","07,5,+06600,1,99,9",,,"07,99,1,99,9,99,9,99999,9,99,9,99,9","10169,1,99999,9",,,,,"MET057METAR ETSE 220720Z 08005KT 9999 BKN220 07/M02 Q1017 BLU/;",
"10869099999","2010-04-22T08:20:00","4","48.322333","11.948667","461.77","ERDING, GM","FM-15","ETSE ","V020","040,1,N,0021,1","06300,1,C,N","011265,1,N,1","+0080,1","-0020,1","99999,9","07,5,+06300,1,99,9",,,"07,99,1,99,9,99,9,99999,9,99,9,99,9","10169,1,99999,9",,,,,"MET057METAR ETSE 220820Z 04004KT 9999 BKN210 08/M02 Q1017 BLU/;",
"10869099999","2010-04-22T09:20:00","4","48.322333","11.948667","461.77","ERDING, GM","FM-15","ETSE ","V020","080,1,N,0021,1","06300,1,C,N","011265,1,N,1","+0090,1","-0020,1","99999,9","02,5,+01200,1,99,9","07,5,+06300,1,99,9",,"07,99,1,99,9,99,9,99999,9,99,9,99,9","10169,1,99999,9",,,,,"MET064METAR ETSE 220920Z 08004KT 9999 FEW040 BKN210 09/M02 Q1017 BLU/;",
"10869099999","2010-04-22T10:20:00","4","48.322333","11.948667","461.77","ERDING, GM","FM-15","ETSE ","V020","050,1,N,0021,1","06000,1,C,N","011265,1,N,1","+0100,1","-0010,1","99999,9","02,5,+01500,1,99,9","07,5,+06000,1,99,9",,"07,99,1,99,9,99,9,99999,9,99,9,99,9","10159,1,99999,9",,,,,"MET064METAR ETSE 221020Z 05004KT 9999 FEW050 BKN200 10/M01 Q1016 BLU/;",
"10869099999","2010-04-22T11:20:00","4","48.322333","11.948667","461.77","ERDING, GM","FM-15","ETSE ","V020","110,1,N,0015,1","06000,1,C,N","011265,1,N,1","+0110,1","-0010,1","99999,9","02,5,+01500,1,99,9","07,5,+06000,1,99,9",,"07,99,1,99,9,99,9,99999,9,99,9,99,9","10159,1,99999,9",,,,,"MET064METAR ETSE 221120Z 11003KT 9999 FEW050 BKN200 11/M01 Q1016 BLU/;",
"10869099999","2010-04-22T12:20:00","4","48.322333","11.948667","461.77","ERDING, GM","FM-15","ETSE ","V020","220,1,N,0015,1","06000,1,C,N","011265,1,N,1","+0120,1","-0010,1","99999,9","07,5,+06000,1,99,9",,,"07,99,1,99,9,99,9,99999,9,99,9,99,9","10149,1,99999,9",,,,,"MET057METAR ETSE 221220Z 22003KT 9999 BKN200 12/M01 Q1015 BLU/;",
"10869099999","2010-04-22T13:20:00","4","48.322333","11.948667","461.77","ERDING, GM","FM-15","ETSE ","V020","010,1,N,0021,1","06000,1,C,N","011265,1,N,1","+0130,1","-0010,1","99999,9","07,5,+06000,1,99,9",,,"07,99,1,99,9,99,9,99999,9,99,9,99,9","10149,1,99999,9",,,,,"MET057METAR ETSE 221320Z 01004KT 9999 BKN200 13/M01 Q1015 BLU/;",
"10869099999","2010-04-22T14:20:00","4","48.322333","11.948667","461.77","ERDING, GM","FM-15","ETSE ","V020","080,1,N,0031,1","06000,1,C,N","011265,1,N,1","+0130,1","-0010,1","99999,9","07,5,+06000,1,99,9",,,"07,99,1,99,9,99,9,99999,9,99,9,99,9","10139,1,99999,9",,,,,"MET057METAR ETSE 221420Z 08006KT 9999 BKN200 13/M01 Q1014 BLU/;",
"10869099999","2010-04-23T05:20:00","4","48.322333","11.948667","461.77","ERDING, GM","FM-15","ETSE ","V020","999,9,V,0010,1","22000,1,9,N","011265,1,N,1","+0010,1","-0030,1","99999,9","04,5,+06000,1,99,9",,,"04,99,1,99,9,99,9,99999,9,99,9,99,9","10129,1,99999,9",,,,,"MET057METAR ETSE 230520Z VRB02KT 9999 SCT200 01/M03 Q1013 BLU/;",
"10869099999","2010-04-23T06:20:00","4","48.322333","11.948667","461.77","ERDING, GM","FM-15","ETSE ","V020","100,1,N,0010,1","22000,1,9,N","011265,1,N,1","+0050,1","-0010,1","99999,9","04,5,+05700,1,99,9",,,"04,99,1,99,9,99,9,99999,9,99,9,99,9","10129,1,99999,9",,,,,"MET057METAR ETSE 230620Z 10002KT 9999 SCT190 05/M01 Q1013 BLU/;",
"10869099999","2010-04-23T07:20:00","4","48.322333","11.948667","461.77","ERDING, GM","FM-15","ETSE ","V020","090,1,N,0036,1","06000,1,C,N","011265,1,N,1","+0080,1","+0010,1","99999,9","07,5,+06000,1,99,9",,,"07,99,1,99,9,99,9,99999,9,99,9,99,9","10129,1,99999,9",,,,,"MET056METAR ETSE 230720Z 09007KT 9999 BKN200 08/01 Q1013 BLU/;",
"10869099999","2010-04-23T08:20:00","4","48.322333","11.948667","461.77","ERDING, GM","FM-15","ETSE ","V020","110,1,N,0036,1","06900,1,C,N","011265,1,N,1","+0100,1","+0020,1","99999,9","07,5,+06900,1,99,9",,,"07,99,1,99,9,99,9,99999,9,99,9,99,9","10129,1,99999,9",,,,,"MET056METAR ETSE 230820Z 11007KT 9999 BKN230 10/02 Q1013 BLU/;",
"10869099999","2010-04-23T09:20:00","4","48.322333","11.948667","461.77","ERDING, GM","FM-15","ETSE ","V020","100,1,N,0036,1","07200,1,C,N","011265,1,N,1","+0120,1","+0030,1","99999,9","07,5,+07200,1,99,9",,,"07,99,1,99,9,99,9,99999,9,99,9,99,9","10129,1,99999,9",,,,,"MET056METAR ETSE 230920Z 10007KT 9999 BKN240 12/03 Q1013 BLU/;",
"10869099999","2010-04-26T05:20:00","4","48.322333","11.948667","461.77","ERDING, GM","FM-15","ETSE ","V020","999,9,V,0005,1","99999,9,C,N","011265,1,N,1","+0080,1","+0060,1","99999,9","02,5,+01500,1,09,1","04,5,+02700,1,99,9",,"04,99,1,99,9,99,9,99999,9,99,9,99,9","10230,1,99999,9",,,,,"MET065METAR ETSE 260520Z VRB01KT 9999 FEW050CB SCT090 08/06 Q1023 BLU/;","P01 027003SCOCIG"
"10869099999","2010-04-26T06:20:00","4","48.322333","11.948667","461.77","ERDING, GM","FM-15","ETSE ","V020","300,1,N,0051,1","02400,1,C,N","011265,1,N,1","+0120,1","+0080,1","99999,9","02,5,+01500,1,09,1","07,5,+02400,1,99,9",,"07,99,1,99,9,99,9,99999,9,99,9,99,9","10240,1,99999,9","80,1",,,,"MET070METAR ETSE 260620Z 30010KT 9999 -SHRA FEW050CB BKN080 12/08 Q1024 BLU;",
"10869099999","2010-04-26T07:20:00","4","48.322333","11.948667","461.77","ERDING, GM","FM-15","ETSE ","V020","300,1,N,0036,1","02100,1,C,N","011265,1,N,1","+0110,1","+0080,1","99999,9","02,5,+00900,1,99,9","07,5,+02100,1,99,9",,"07,99,1,99,9,99,9,99999,9,99,9,99,9","10251,1,99999,9",,,,,"MET062METAR ETSE 260720Z 30007KT 9999 FEW030 BKN070 11/08 Q1025 BLU;",
"10869099999","2010-04-26T08:20:00","4","48.322333","11.948667","461.77","ERDING, GM","FM-15","ETSE ","V020","310,1,N,0031,1","01500,1,C,N","011265,1,N,1","+0130,1","+0080,1","99999,9","02,5,+00900,1,99,9","04,5,+01500,1,99,9","07,5,+02700,1,99,9","07,99,1,99,9,99,9,99999,9,99,9,99,9","10251,1,99999,9",,,,,"MET069METAR ETSE 260820Z 31006KT 9999 FEW030 SCT050 BKN090 13/08 Q1025 BLU;",
"10869099999","2010-04-26T09:20:00","4","48.322333","11.948667","461.77","ERDING, GM","FM-15","ETSE ","V020","270,1,N,0026,1","01800,1,C,N","011265,1,N,1","+0140,1","+0070,1","99999,9","04,5,+00900,1,99,9","07,5,+01800,1,99,9",,"07,99,1,99,9,99,9,99999,9,99,9,99,9","10261,1,99999,9",,,,,"MET062METAR ETSE 260920Z 27005KT 9999 SCT030 BKN060 14/07 Q1026 BLU;",
"10869099999","2010-04-26T10:20:00","4","48.322333","11.948667","461.77","ERDING, GM","FM-15","ETSE ","V020","260,1,N,0026,1","00900,1,C,N","011265,1,N,1","+0130,1","+0090,1","99999,9","02,5,+00750,1,99,9","04,5,+00900,1,99,9","07,5,+01800,1,99,9","07,99,1,99,9,99,9,99999,9,99,9,99,9","10261,1,99999,9","80,1",,,,"MET075METAR ETSE 261020Z 26005KT 9999 -SHRA FEW025 SCT030 BKN060 13/09 Q1026 BLU;",
"10869099999","2010-04-26T11:20:00","4","48.322333","11.948667","461.77","ERDING, GM","FM-15","ETSE ","V020","260,1,N,0036,1","02700,1,C,N","011265,1,N,1","+0140,1","+0090,1","99999,9","02,5,+00660,1,99,9","07,5,+02700,1,99,9",,"07,99,1,99,9,99,9,99999,9,99,9,99,9","10261,1,99999,9",,,,,"MET062METAR ETSE 261120Z 26007KT 9999 FEW022 BKN090 14/09 Q1026 BLU;",
"10869099999","2010-04-26T12:20:00","4","48.322333","11.948667","461.77","ERDING, GM","FM-15","ETSE ","V020","240,1,N,0041,1","03300,1,C,N","011265,1,N,1","+0140,1","+0090,1","99999,9","02,5,+00660,1,99,9","07,5,+03300,1,99,9",,"07,99,1,99,9,99,9,99999,9,99,9,99,9","10251,1,99999,9",,,,,"MET062METAR ETSE 261220Z 24008KT 9999 FEW022 BKN110 14/09 Q1025 BLU;",
"10869099999","2010-04-26T13:20:00","4","48.322333","11.948667","461.77","ERDING, GM","FM-15","ETSE ","V020","240,1,N,0031,1","99999,9,C,N","011265,1,N,1","+0160,1","+0080,1","99999,9","02,5,+00840,1,99,9","04,5,+03300,1,99,9",,"04,99,1,99,9,99,9,99999,9,99,9,99,9","10251,1,99999,9",,,,,"MET063METAR ETSE 261320Z 24006KT 9999 FEW028 SCT110 16/08 Q1025 BLU/;","P01 033003SCOCIG"
"10869099999","2010-04-27T05:20:00","4","48.322333","11.948667","461.77","ERDING, GM","FM-15","ETSE ","V020","180,1,N,0010,1","06300,1,C,N","011265,1,N,1","+0060,1","+0060,1","99999,9","02,5,+02700,1,99,9","07,5,+06300,1,99,9",,"07,99,1,99,9,99,9,99999,9,99,9,99,9","10251,1,99999,9",,,,,"MET063METAR ETSE 270520Z 18002KT 9999 FEW090 BKN210 06/06 Q1025 BLU/;",
"10869099999","2010-04-27T06:20:00","4","48.322333","11.948667","461.77","ERDING, GM","FM-15","ETSE ","V020","010,1,N,0010,1","06900,1,C,N","011265,1,N,1","+0100,1","+0080,1","99999,9","02,5,+02700,1,99,9","07,5,+06900,1,99,9",,"07,99,1,99,9,99,9,99999,9,99,9,99,9","10261,1,99999,9",,,,,"MET063METAR ETSE 270620Z 01002KT 9999 FEW090 BKN230 10/08 Q1026 BLU/;",
"10869099999","2010-04-27T07:20:00","4","48.322333","11.948667","461.77","ERDING, GM","FM-15","ETSE ","V020","320,1,N,0010,1","06900,1,C,N","011265,1,N,1","+0110,1","+0090,1","99999,9","02,5,+02700,1,99,9","07,5,+06900,1,99,9",,"07,99,1,99,9,99,9,99999,9,99,9,99,9","10261,1,99999,9",,,,,"MET063METAR ETSE 270720Z 32002KT 9999 FEW090 BKN230 11/09 Q1026 BLU/;",
"10869099999","2010-04-27T08:20:00","4","48.322333","11.948667","461.77","ERDING, GM","FM-15","ETSE ","V020","020,1,N,0015,1","05700,1,C,N","011265,1,N,1","+0140,1","+0080,1","99999,9","02,5,+01650,5,99,9","07,5,+05700,1,99,9",,"07,99,1,99,9,99,9,99999,9,99,9,99,9","10261,1,99999,9",,,,,"MET062METAR ETSE 270820Z 02003KT 9999 FEW055 BKN190 14/08 Q1026 BLU;",
"10869099999","2010-04-27T09:20:00","4","48.322333","11.948667","461.77","ERDING, GM","FM-15","ETSE ","V020","030,1,N,0015,1","05700,1,C,N","011265,1,N,1","+0160,1","+0070,1","99999,9","02,5,+01050,1,99,9","07,5,+05700,1,99,9",,"07,99,1,99,9,99,9,99999,9,99,9,99,9","10261,1,99999,9",,,,,"MET062METAR ETSE 270920Z 03003KT 9999 FEW035 BKN190 16/07 Q1026 BLU;",
"10869099999","2010-04-27T10:20:00","4","48.322333","11.948667","461.77","ERDING, GM","FM-15","ETSE ","V020","080,1,N,0015,1","99999,9,C,N","011265,1,N,1","+0160,1","+0070,1","99999,9","02,5,+01200,1,99,9","04,5,+05400,1,99,9",,"04,99,1,99,9,99,9,99999,9,99,9,99,9","10261,1,99999,9",,,,,"MET063METAR ETSE 271020Z 08003KT 9999 FEW040 SCT180 16/07 Q1026 BLU/;","P01 054003SCOCIG"
"10869099999","2010-04-27T11:20:00","4","48.322333","11.948667","461.77","ERDING, GM","FM-15","ETSE ","V020","050,1,N,0021,1","99999,9,C,N","011265,1,N,1","+0180,1","+0040,1","99999,9","02,5,+01440,1,99,9","04,5,+06300,1,99,9",,"04,99,1,99,9,99,9,99999,9,99,9,99,9","10261,1,99999,9",,,,,"MET063METAR ETSE 271120Z 05004KT 9999 FEW048 SCT210 18/04 Q1026 BLU/;","P01 063003SCOCIG"
"10869099999","2010-04-27T12:20:00","4","48.322333","11.948667","461.77","ERDING, GM","FM-15","ETSE ","V020","340,1,N,0026,1","99999,9,C,N","011265,1,N,1","+0170,1","+0030,1","99999,9","02,5,+02100,1,99,9","04,5,+06300,1,99,9",,"04,99,1,99,9,99,9,99999,9,99,9,99,9","10261,1,99999,9",,,,,"MET063METAR ETSE 271220Z 34005KT 9999 FEW070 SCT210 17/03 Q1026 BLU/;","P01 063003SCOCIG"
"10869099999","2010-04-27T13:20:00","4","48.322333","11.948667","461.77","ERDING, GM","FM-15","ETSE ","V020","040,1,N,0015,1","99999,9,C,N","011265,1,N,1","+0180,1","+0040,1","99999,9","02,5,+01650,5,99,9","04,5,+02700,1,99,9",,"04,99,1,99,9,99,9,99999,9,99,9,99,9","10251,1,99999,9",,,,,"MET063METAR ETSE 271320Z 04003KT 9999 FEW055 SCT090 18/04 Q1025 BLU/;","P01 027003SCOCIG"
"10869099999","2010-04-27T14:20:00","4","48.322333","11.948667","461.77","ERDING, GM","FM-15","ETSE ","V020","020,1,N,0015,1","99999,9,C,N","011265,1,N,1","+0190,1","+0030,1","99999,9","02,5,+01800,1,99,9","04,5,+02700,1,99,9",,"04,99,1,99,9,99,9,99999,9,99,9,99,9","10251,1,99999,9",,,,,"MET063METAR ETSE 271420Z 02003KT 9999 FEW060 SCT090 19/03 Q1025 BLU/;","P01 027003SCOCIG"
"10869099999","2010-04-28T05:20:00","4","48.322333","11.948667","461.77","ERDING, GM","FM-15","ETSE ","V020","170,1,N,0010,1","22000,1,9,N","011265,1,N,1","+0050,1","+0030,1","99999,9","02,5,+06900,1,99,9",,,"02,99,1,99,9,99,9,99999,9,99,9,99,9","10271,1,99999,9",,,,,"MET056METAR ETSE 280520Z 17002KT 9999 FEW230 05/03 Q1027 BLU/;",
"10869099999","2010-04-28T06:20:00","4","48.322333","11.948667","461.77","ERDING, GM","FM-15","ETSE ","V020","110,1,N,0010,1","22000,1,9,N","011265,1,N,1","+0090,1","+0050,1","99999,9","02,5,+07500,1,99,9",,,"02,99,1,99,9,99,9,99999,9,99,9,99,9","10271,1,99999,9",,,,,"MET056METAR ETSE 280620Z 11002KT 9999 FEW250 09/05 Q1027 BLU/;",
"10869099999","2010-04-28T07:20:00","4","48.322333","11.948667","461.77","ERDING, GM","FM-15","ETSE ","V020","120,1,N,0026,1","22000,1,9,N","011265,1,N,1","+0120,1","+0060,1","99999,9","02,5,+07500,1,99,9",,,"02,99,1,99,9,99,9,99999,9,99,9,99,9","10271,1,99999,9",,,,,"MET056METAR ETSE 280720Z 12005KT 9999 FEW250 12/06 Q1027 BLU/;",
"10869099999","2010-04-28T08:20:00","4","48.322333","11.948667","461.77","ERDING, GM","FM-15","ETSE ","V020","080,1,N,0015,1","22000,1,9,N","011265,1,N,1","+0150,1","+0060,1","99999,9","02,5,+07500,1,99,9",,,"02,99,1,99,9,99,9,99999,9,99,9,99,9","10271,1,99999,9",,,,,"MET056METAR ETSE 280820Z 08003KT 9999 FEW250 15/06 Q1027 BLU/;",
"10869099999","2010-04-28T09:20:00","4","48.322333","11.948667","461.77","ERDING, GM","FM-15","ETSE ","V020","130,1,N,0026,1","99999,9,C,N","011265,1,N,1","+0160,1","+0070,1","99999,9","02,5,+01200,1,99,9","04,5,+06900,1,99,9",,"04,99,1,99,9,99,9,99999,9,99,9,99,9","10271,1,99999,9",,,,,"MET063METAR ETSE 280920Z 13005KT 9999 FEW040 SCT230 16/07 Q1027 BLU/;","P01 069003SCOCIG"
"10869099999","2010-04-28T10:20:00","4","48.322333","11.948667","461.77","ERDING, GM","FM-15","ETSE ","V020","070,1,N,0015,1","99999,9,C,N","011265,1,N,1","+0170,1","+0040,1","99999,9","02,5,+01500,1,99,9","04,5,+07800,1,99,9",,"04,99,1,99,9,99,9,99999,9,99,9,99,9","10261,1,99999,9",,,,,"MET063METAR ETSE 281020Z 07003KT 9999 FEW050 SCT260 17/04 Q1026 BLU/;","P01 078003SCOCIG"
"10869099999","2010-04-28T11:20:00","4","48.322333","11.948667","461.77","ERDING, GM","FM-15","ETSE ","V020","080,1,N,0026,1","07800,1,C,N","011265,1,N,1","+0180,1","+0060,1","99999,9","02,5,+01650,5,99,9","07,5,+07800,1,99,9",,"07,99,1,99,9,99,9,99999,9,99,9,99,9","10261,1,99999,9",,,,,"MET063METAR ETSE 281120Z 08005KT 9999 FEW055 BKN260 18/06 Q1026 BLU/;",
"10869099999","2010-04-29T05:20:00","4","48.322333","11.948667","461.77","ERDING, GM","FM-15","ETSE ","V020","160,1,N,0010,1","22000,1,9,N","011265,1,N,1","+0080,1","+0040,1","99999,9","02,5,+08400,1,99,9",,,"02,99,1,99,9,99,9,99999,9,99,9,99,9","10200,1,99999,9",,,,,"MET056METAR ETSE 290520Z 16002KT 9999 FEW280 08/04 Q1020 BLU/;",
"10869099999","2010-04-29T06:20:00","4","48.322333","11.948667","461.77","ERDING, GM","FM-15","ETSE ","V020","130,1,N,0015,1","22000,1,9,N","011265,1,N,1","+0110,1","+0060,1","99999,9","02,5,+08400,1,99,9",,,"02,99,1,99,9,99,9,99999,9,99,9,99,9","10200,1,99999,9",,,,,"MET056METAR ETSE 290620Z 13003KT 9999 FEW280 11/06 Q1020 BLU/;",
"10869099999","2010-04-29T07:20:00","4","48.322333","11.948667","461.77","ERDING, GM","FM-15","ETSE ","V020","160,1,N,0015,1","22000,1,9,N","011265,1,N,1","+0150,1","+0080,1","99999,9","02,5,+08400,1,99,9",,,"02,99,1,99,9,99,9,99999,9,99,9,99,9","10200,1,99999,9",,,,,"MET056METAR ETSE 290720Z 16003KT 9999 FEW280 15/08 Q1020 BLU/;",
"10869099999","2010-04-29T07:38:00","4","48.322333","11.948667","461.77","ERDING, GM","FM-16","ETSE ","V020","150,1,N,0015,1","22000,1,9,N","011265,1,N,1","+0160,1","+0080,1","99999,9","02,5,+08400,1,99,9",,,"02,99,1,99,9,99,9,99999,9,99,9,99,9","10200,1,99999,9",,,,,"MET061SPECI ETSE 290738Z 15003KT 9999 FEW280 16/08 Q1020 BLACKBLU/;",
"10869099999","2010-04-29T08:05:00","4","48.322333","11.948667","461.77","ERDING, GM","FM-16","ETSE ","V020","200,1,N,0015,1","22000,1,9,N","011265,1,N,1","+0170,1","+0070,1","99999,9","02,5,+08400,1,99,9",,,"02,99,1,99,9,99,9,99999,9,99,9,99,9","10200,1,99999,9",,,,,"MET056SPECI ETSE 290805Z 20003KT 9999 FEW280 17/07 Q1020 BLU/;",
"10869099999","2010-04-29T08:20:00","4","48.322333","11.948667","461.77","ERDING, GM","FM-15","ETSE ","V020","240,1,N,0015,1","22000,1,9,N","011265,1,N,1","+0180,1","+0080,1","99999,9","02,5,+08400,1,99,9",,,"02,99,1,99,9,99,9,99999,9,99,9,99,9","10200,1,99999,9",,,,,"MET056METAR ETSE 290820Z 24003KT 9999 FEW280 18/08 Q1020 BLU/;",
"10869099999","2010-04-29T09:20:00","4","48.322333","11.948667","461.77","ERDING, GM","FM-15","ETSE ","V020","130,1,N,0015,1","22000,1,9,N","011265,1,N,1","+0200,1","+0070,1","99999,9","04,5,+08400,1,99,9",,,"04,99,1,99,9,99,9,99999,9,99,9,99,9","10190,1,99999,9",,,,,"MET056METAR ETSE 290920Z 13003KT 9999 SCT280 20/07 Q1019 BLU/;",
"10869099999","2010-04-29T10:20:00","4","48.322333","11.948667","461.77","ERDING, GM","FM-15","ETSE ","V020","110,1,N,0015,1","22000,1,9,N","011265,1,N,1","+0220,1","+0060,1","99999,9","04,5,+08400,1,99,9",,,"04,99,1,99,9,99,9,99999,9,99,9,99,9","10190,1,99999,9",,,,,"MET056METAR ETSE 291020Z 11003KT 9999 SCT280 22/06 Q1019 BLU/;",
"10869099999","2010-04-29T11:20:00","4","48.322333","11.948667","461.77","ERDING, GM","FM-15","ETSE ","V020","999,9,V,0010,1","22000,1,9,N","011265,1,N,1","+0220,1","+0040,1","99999,9","04,5,+08400,1,99,9",,,"04,99,1,99,9,99,9,99999,9,99,9,99,9","10180,1,99999,9",,,,,"MET056METAR ETSE 291120Z VRB02KT 9999 SCT280 22/04 Q1018 BLU/;",
"10869099999","2010-04-29T12:20:00","4","48.322333","11.948667","461.77","ERDING, GM","FM-15","ETSE ","V020","060,1,N,0021,1","22000,1,9,N","011265,1,N,1","+0240,1","+0040,1","99999,9","04,5,+08400,1,99,9",,,"04,99,1,99,9,99,9,99999,9,99,9,99,9","10169,1,99999,9",,,,,"MET056METAR ETSE 291220Z 06004KT 9999 SCT280 24/04 Q1017 BLU/;",
"10869099999","2010-04-29T13:20:00","4","48.322333","11.948667","461.77","ERDING, GM","FM-15","ETSE ","V020","030,1,N,0015,1","22000,1,9,N","011265,1,N,1","+0240,1","+0040,1","99999,9","04,5,+08400,1,99,9",,,"04,99,1,99,9,99,9,99999,9,99,9,99,9","10159,1,99999,9",,,,,"MET056METAR ETSE 291320Z 03003KT 9999 SCT280 24/04 Q1016 BLU/;",
"10869099999","2010-04-30T05:20:00","4","48.322333","11.948667","461.77","ERDING, GM","FM-15","ETSE ","V020","250,1,N,0026,1","07500,1,C,N","011265,1,N,1","+0170,1","+0080,1","99999,9","04,5,+02400,1,99,9","07,5,+07500,1,99,9",,"07,99,1,99,9,99,9,99999,9,99,9,99,9","10129,1,99999,9",,,,,"MET063METAR ETSE 300520Z 25005KT 9999 SCT080 BKN250 17/08 Q1013 BLU/;",
"10869099999","2010-04-30T06:20:00","4","48.322333","11.948667","461.77","ERDING, GM","FM-15","ETSE ","V020","260,1,N,0036,1","02700,1,C,N","011265,1,N,1","+0170,1","+0080,1","99999,9","04,5,+02100,1,99,9","07,5,+02700,1,99,9",,"07,99,1,99,9,99,9,99999,9,99,9,99,9","10139,1,99999,9",,,,,"MET062METAR ETSE 300620Z 26007KT 9999 SCT070 BKN090 17/08 Q1014 BLU;",
"10869099999","2010-04-30T07:20:00","4","48.322333","11.948667","461.77","ERDING, GM","FM-15","ETSE ","V020","270,1,N,0026,1","02700,1,C,N","011265,1,N,1","+0180,1","+0100,1","99999,9","02,5,+01950,5,99,9","07,5,+02700,1,99,9",,"07,99,1,99,9,99,9,99999,9,99,9,99,9","10139,1,99999,9",,,,,"MET062METAR ETSE 300720Z 27005KT 9999 FEW065 BKN090 18/10 Q1014 BLU;",
"10869099999","2010-05-03T05:20:00","4","48.322333","11.948667","461.77","ERDING, GM","FM-15","ETSE ","V020","250,1,N,0026,1","00600,1,C,N","011265,1,N,1","+0080,1","+0070,1","99999,9","02,5,+00180,1,99,9","04,5,+00600,1,99,9","07,5,+01050,1,99,9","07,99,1,99,9,99,9,99999,9,99,9,99,9","10102,1,99999,9","63,1",,,,"MET072METAR ETSE 030520Z 25005KT 9999 RA FEW006 SCT020 BKN035 08/07 Q1010 BLU;",
"10869099999","2010-05-03T06:20:00","4","48.322333","11.948667","461.77","ERDING, GM","FM-15","ETSE ","V020","240,1,N,0026,1","00720,1,C,N","011265,1,N,1","+0080,1","+0070,1","99999,9","04,5,+00210,1,99,9","04,5,+00720,1,99,9","07,5,+01050,1,99,9","07,99,1,99,9,99,9,99999,9,99,9,99,9","10102,1,99999,9","63,1",,,,"MET072METAR ETSE 030620Z 24005KT 9999 RA SCT007 SCT024 BKN035 08/07 Q1010 BLU;",
"10869099999","2010-05-03T07:20:00","4","48.322333","11.948667","461.77","ERDING, GM","FM-15","ETSE ","V020","230,1,N,0026,1","00720,1,C,N","011265,1,N,1","+0080,1","+0070,1","99999,9","04,5,+00210,1,99,9","04,5,+00720,1,99,9","07,5,+02400,1,99,9","07,99,1,99,9,99,9,99999,9,99,9,99,9","10102,1,99999,9","61,1",,,,"MET078METAR ETSE 030720Z 23005KT 9999 -RA SCT007 SCT024 BKN080 08/07 Q1010 RERA BLU;",
"10869099999","2010-05-03T08:20:00","4","48.322333","11.948667","461.77","ERDING, GM","FM-15","ETSE ","V020","220,1,N,0021,1","00480,1,C,N","011265,1,N,1","+0100,1","+0070,1","99999,9","04,5,+00270,1,99,9","07,5,+00480,1,99,9","07,5,+01950,5,99,9","07,99,1,99,9,99,9,99999,9,99,9,99,9","10102,1,99999,9","61,1",,,,"MET073METAR ETSE 030820Z 22004KT 9999 -RA SCT009 BKN016 BKN065 10/07 Q1010 WHT;",
"10869099999","2010-05-03T09:20:00","4","48.322333","11.948667","461.77","ERDING, GM","FM-15","ETSE ","V020","260,1,N,0015,1","00750,1,C,N","011265,1,N,1","+0110,1","+0070,1","99999,9","04,5,+00450,1,99,9","07,5,+00750,1,99,9","07,5,+01950,5,99,9","07,99,1,99,9,99,9,99999,9,99,9,99,9","10102,1,99999,9",,,,,"MET069METAR ETSE 030920Z 26003KT 9999 SCT015 BKN025 BKN065 11/07 Q1010 BLU;",
"10869099999","2010-05-03T10:20:00","4","48.322333","11.948667","461.77","ERDING, GM","FM-15","ETSE ","V020","310,1,N,0026,1","00840,1,C,N","011265,1,N,1","+0110,1","+0070,1","99999,9","04,5,+00510,1,99,9","07,5,+00840,1,99,9","07,5,+01140,1,99,9","07,99,1,99,9,99,9,99999,9,99,9,99,9","10108,1,99999,9",,,,,"MET069METAR ETSE 031020Z 31005KT 9999 SCT017 BKN028 BKN038 11/07 Q1011 BLU;",
"10869099999","2010-05-03T11:20:00","4","48.322333","11.948667","461.77","ERDING, GM","FM-15","ETSE ","V020","310,1,N,0021,1","00990,1,C,N","011265,1,N,1","+0110,1","+0070,1","99999,9","04,5,+00600,1,99,9","07,5,+00990,1,99,9",,"07,99,1,99,9,99,9,99999,9,99,9,99,9","10108,1,99999,9",,,,,"MET062METAR ETSE 031120Z 31004KT 9999 SCT020 BKN033 11/07 Q1011 BLU;",
"10869099999","2010-05-03T12:20:00","4","48.322333","11.948667","461.77","ERDING, GM","FM-15","ETSE ","V020","310,1,N,0026,1","00990,1,C,N","011265,1,N,1","+0110,1","+0070,1","99999,9","02,5,+00630,1,99,9","07,5,+00990,1,99,9",,"07,99,1,99,9,99,9,99999,9,99,9,99,9","10108,1,99999,9",,,,,"MET062METAR ETSE 031220Z 31005KT 9999 FEW021 BKN033 11/07 Q1011 BLU;",
"10869099999","2010-05-03T13:20:00","4","48.322333","11.948667","461.77","ERDING, GM","FM-15","ETSE ","V020","260,1,N,0015,1","01140,1,C,N","011265,1,N,1","+0120,1","+0070,1","99999,9","02,5,+00690,1,99,9","07,5,+01140,1,99,9",,"07,99,1,99,9,99,9,99999,9,99,9,99,9","10108,1,99999,9",,,,,"MET062METAR ETSE 031320Z 26003KT 9999 FEW023 BKN038 12/07 Q1011 BLU;",
"10869099999","2010-05-04T05:20:00","4","48.322333","11.948667","461.77","ERDING, GM","FM-15","ETSE ","V020","020,1,N,0026,1","01140,1,C,N","011265,1,N,1","+0090,1","+0090,1","99999,9","02,5,+00120,1,99,9","07,5,+01140,1,99,9",,"07,99,1,99,9,99,9,99999,9,99,9,99,9","10129,1,99999,9","61,1",,,,"MET066METAR ETSE 040520Z 02005KT 9999 -RA FEW004 BKN038 09/09 Q1013 BLU;",
"10869099999","2010-05-04T06:20:00","4","48.322333","11.948667","461.77","ERDING, GM","FM-15","ETSE ","V020","050,1,N,0031,1","00990,1,C,N","011265,1,N,1","+0100,1","+0080,1","99999,9","02,5,+00120,1,99,9","07,5,+00990,1,99,9","07,5,+01350,1,99,9","07,99,1,99,9,99,9,99999,9,99,9,99,9","10129,1,99999,9","61,1",,,,"MET073METAR ETSE 040620Z 05006KT 9999 -RA FEW004 BKN033 BKN045 10/08 Q1013 BLU;",
"10869099999","2010-05-04T07:17:00","4","48.322333","11.948667","461.77","ERDING, GM","FM-16","ETSE ","V020","050,1,N,0036,1","00210,1,C,N","007000,1,N,1","+0100,1","+0090,1","99999,9","07,5,+00210,1,99,9","07,5,+00750,1,99,9",,"07,99,1,99,9,99,9,99999,9,99,9,99,9","10129,1,99999,9","51,1","61,1",,,"MET068SPECI ETSE 040717Z 05007KT 7000 -DZRA BKN007 BKN025 10/09 Q1013 GRN;",
"10869099999","2010-05-04T07:20:00","4","48.322333","11.948667","461.77","ERDING, GM","FM-15","ETSE ","V020","060,1,N,0036,1","00210,1,C,N","006000,1,N,1","+0100,1","+0090,1","99999,9","07,5,+00210,1,99,9","07,5,+00750,1,99,9",,"07,99,1,99,9,99,9,99999,9,99,9,99,9","10129,1,99999,9","51,1","61,1",,,"MET068METAR ETSE 040720Z 06007KT 6000 -DZRA BKN007 BKN025 10/09 Q1013 GRN;",
"10869099999","2010-05-04T07:33:00","4","48.322333","11.948667","461.77","ERDING, GM","FM-16","ETSE ","V020","050,1,N,0031,1","00180,1,C,N","005000,1,N,1","+0100,1","+0090,1","99999,9","02,5,+00120,1,99,9","07,5,+00180,1,99,9",,"07,99,1,99,9,99,9,99999,9,99,9,99,9","10129,1,99999,9","10,1","51,1","61,1",,"MET071SPECI ETSE 040733Z 05006KT 5000 -DZRA BR FEW004 BKN006 10/09 Q1013 YLO;",
"10869099999","2010-05-04T08:00:00","4","48.322333","11.948667","461.77","ERDING, GM","FM-15","ETSE ","V020","050,1,N,0036,1","00180,1,C,N","004500,1,N,1","+0100,1","+0090,1","99999,9","02,5,+00120,1,99,9","07,5,+00180,1,99,9",,"07,99,1,99,9,99,9,99999,9,99,9,99,9","10129,1,99999,9","10,1","51,1","61,1",,"MET071SPECI ETSE 040757Z 05007KT 4500 -DZRA BR FEW004 BKN006 10/09 Q1013 YLO;",
"10869099999","2010-05-04T08:20:00","4","48.322333","11.948667","461.77","ERDING, GM","FM-15","ETSE ","V020","060,1,N,0046,1","00180,1,C,N","004500,1,N,1","+0100,1","+0090,1","99999,9","02,5,+00120,1,99,9","07,5,+00180,1,99,9",,"07,99,1,99,9,99,9,99999,9,99,9,99,9","10129,1,99999,9","10,1","51,1","61,1",,"MET071METAR ETSE 040820Z 06009KT 4500 -DZRA BR FEW004 BKN006 10/09 Q1013 YLO;",
"10869099999","2010-05-04T09:00:00","4","48.322333","11.948667","461.77","ERDING, GM","FM-16","ETSE ","V020","070,1,N,0046,1","00180,1,C,N","006000,1,N,1","+0100,1","+0090,1","99999,9","04,5,+00120,1,99,9","07,5,+00180,1,99,9",,"07,99,1,99,9,99,9,99999,9,99,9,99,9","10129,1,99999,9","51,1",,,,"MET066SPECI ETSE 040900Z 07009KT 6000 -DZ SCT004 BKN006 10/09 Q1013 YLO;",
"10869099999","2010-05-04T09:20:00","4","48.322333","11.948667","461.77","ERDING, GM","FM-15","ETSE ","V020","070,1,N,0051,1","00270,1,C,N","007000,1,N,1","+0100,1","+0090,1","99999,9","04,5,+00150,1,99,9","07,5,+00270,1,99,9",,"07,99,1,99,9,99,9,99999,9,99,9,99,9","10119,1,99999,9","51,1",,,,"MET066METAR ETSE 040920Z 07010KT 7000 -DZ SCT005 BKN009 10/09 Q1012 GRN;",
"10869099999","2010-05-04T10:20:00","4","48.322333","11.948667","461.77","ERDING, GM","FM-15","ETSE ","V020","060,1,N,0041,1","00300,1,C,N","011265,1,N,1","+0110,1","+0100,1","99999,9","02,5,+00180,1,99,9","07,5,+00300,1,99,9",,"07,99,1,99,9,99,9,99999,9,99,9,99,9","10119,1,99999,9",,,,,"MET062METAR ETSE 041020Z 06008KT 9999 FEW006 BKN010 11/10 Q1012 GRN;",
"10869099999","2010-05-04T11:20:00","4","48.322333","11.948667","461.77","ERDING, GM","FM-15","ETSE ","V020","060,1,N,0046,1","00300,1,C,N","011265,1,N,1","+0110,1","+0090,1","99999,9","04,5,+00210,1,99,9","07,5,+00300,1,99,9",,"07,99,1,99,9,99,9,99999,9,99,9,99,9","10119,1,99999,9","51,1",,,,"MET066METAR ETSE 041120Z 06009KT 9999 -DZ SCT007 BKN010 11/09 Q1012 GRN;",
"10869099999","2010-05-04T12:20:00","4","48.322333","11.948667","461.77","ERDING, GM","FM-15","ETSE ","V020","050,1,N,0046,1","00300,1,C,N","011265,1,N,1","+0110,1","+0090,1","99999,9","04,5,+00210,1,99,9","07,5,+00300,1,99,9",,"07,99,1,99,9,99,9,99999,9,99,9,99,9","10119,1,99999,9","51,1",,,,"MET066METAR ETSE 041220Z 05009KT 9999 -DZ SCT007 BKN010 11/09 Q1012 GRN;",
"10869099999","2010-05-04T13:05:00","4","48.322333","11.948667","461.77","ERDING, GM","FM-16","ETSE ","V020","040,1,N,0041,1","00300,1,C,N","004500,1,N,1","+0110,1","+0100,1","99999,9","04,5,+00210,1,99,9","07,5,+00300,1,99,9",,"07,99,1,99,9,99,9,99999,9,99,9,99,9","10119,1,99999,9","10,1","51,1","61,1",,"MET071SPECI ETSE 041305Z 04008KT 4500 -DZRA BR SCT007 BKN010 11/10 Q1012 GRN;",
"10869099999","2010-05-04T13:20:00","4","48.322333","11.948667","461.77","ERDING, GM","FM-15","ETSE ","V020","040,1,N,0041,1","00210,1,C,N","008000,1,N,1","+0110,1","+0100,1","99999,9","02,5,+00120,1,99,9","04,5,+00210,1,99,9","07,5,+00330,1,99,9","07,99,1,99,9,99,9,99999,9,99,9,99,9","10119,1,99999,9","51,1","61,1",,,"MET075METAR ETSE 041320Z 04008KT 8000 -DZRA FEW004 SCT007 BKN011 11/10 Q1012 GRN;",
"10869099999","2010-05-05T05:20:00","4","48.322333","11.948667","461.77","ERDING, GM","FM-15","ETSE ","V020","040,1,N,0041,1","00240,1,C,N","011265,1,N,1","+0080,1","+0070,1","99999,9","02,5,+00180,1,99,9","07,5,+00240,1,99,9","07,5,+00630,1,99,9","07,99,1,99,9,99,9,99999,9,99,9,99,9","10108,1,99999,9",,,,,"MET069METAR ETSE 050520Z 04008KT 9999 FEW006 BKN008 BKN021 08/07 Q1011 GRN;",
"10869099999","2010-05-05T06:20:00","4","48.322333","11.948667","461.77","ERDING, GM","FM-15","ETSE ","V020","050,1,N,0046,1","00570,1,C,N","011265,1,N,1","+0080,1","+0070,1","99999,9","04,5,+00240,1,99,9","08,5,+00570,1,99,9",,"08,99,1,99,9,99,9,99999,9,99,9,99,9","10108,1,99999,9","51,1","61,1",,,"MET068METAR ETSE 050620Z 05009KT 9999 -RADZ SCT008 OVC019 08/07 Q1011 WHT;",
"10869099999","2010-05-05T07:20:00","4","48.322333","11.948667","461.77","ERDING, GM","FM-15","ETSE ","V020","050,1,N,0046,1","00570,1,C,N","011265,1,N,1","+0090,1","+0070,1","99999,9","04,5,+00240,1,99,9","07,5,+00570,1,99,9",,"07,99,1,99,9,99,9,99999,9,99,9,99,9","10102,1,99999,9","61,1",,,,"MET066METAR ETSE 050720Z 05009KT 9999 -RA SCT008 BKN019 09/07 Q1010 WHT;",
"10869099999","2010-05-05T08:20:00","4","48.322333","11.948667","461.77","ERDING, GM","FM-15","ETSE ","V020","070,1,N,0062,1","00480,1,C,N","011265,1,N,1","+0100,1","+0080,1","99999,9","02,5,+00240,1,99,9","07,5,+00480,1,99,9",,"07,99,1,99,9,99,9,99999,9,99,9,99,9","10102,1,99999,9",,,,,"MET062METAR ETSE 050820Z 07012KT 9999 FEW008 BKN016 10/08 Q1010 WHT;",
"10869099999","2010-05-05T09:20:00","4","48.322333","11.948667","461.77","ERDING, GM","FM-15","ETSE ","V020","080,1,N,0057,1","00480,1,C,N","011265,1,N,1","+0110,1","+0080,1","99999,9","02,5,+00300,1,99,9","07,5,+00480,1,99,9",,"07,99,1,99,9,99,9,99999,9,99,9,99,9","10102,1,99999,9",,,,,"MET062METAR ETSE 050920Z 08011KT 9999 FEW010 BKN016 11/08 Q1010 WHT;",
"10869099999","2010-05-05T10:20:00","4","48.322333","11.948667","461.77","ERDING, GM","FM-15","ETSE ","V020","090,1,N,0072,1","00510,1,C,N","011265,1,N,1","+0110,1","+0080,1","99999,9","02,5,+00300,1,99,9","07,5,+00510,1,99,9",,"07,99,1,99,9,99,9,99999,9,99,9,99,9","10091,1,99999,9",,,,,"MET062METAR ETSE 051020Z 09014KT 9999 FEW010 BKN017 11/08 Q1009 WHT;",
"10869099999","2010-05-05T11:20:00","4","48.322333","11.948667","461.77","ERDING, GM","FM-15","ETSE ","V020","070,1,N,0062,1","00510,1,C,N","011265,1,N,1","+0110,1","+0080,1","99999,9","02,5,+00300,1,99,9","07,5,+00510,1,99,9",,"07,99,1,99,9,99,9,99999,9,99,9,99,9","10081,1,99999,9",,,,,"MET062METAR ETSE 051120Z 07012KT 9999 FEW010 BKN017 11/08 Q1008 WHT;",
"10869099999","2010-05-05T12:20:00","4","48.322333","11.948667","461.77","ERDING, GM","FM-15","ETSE ","V020","080,1,N,0067,1","00510,1,C,N","011265,1,N,1","+0110,1","+0080,1","99999,9","02,5,+00300,1,99,9","07,5,+00510,1,99,9",,"07,99,1,99,9,99,9,99999,9,99,9,99,9","10081,1,99999,9",,,,,"MET062METAR ETSE 051220Z 08013KT 9999 FEW010 BKN017 11/08 Q1008 WHT;",
"10869099999","2010-05-05T13:20:00","4","48.322333","11.948667","461.77","ERDING, GM","FM-15","ETSE ","V020","090,1,N,0072,1","00540,1,C,N","011265,1,N,1","+0110,1","+0080,1","99999,9","02,5,+00300,1,99,9","07,5,+00540,1,99,9",,"07,99,1,99,9,99,9,99999,9,99,9,99,9","10071,1,99999,9",,,,,"MET062METAR ETSE 051320Z 09014KT 9999 FEW010 BKN018 11/08 Q1007 WHT;",
"10869099999","2010-05-06T05:20:00","4","48.322333","11.948667","461.77","ERDING, GM","FM-15","ETSE ","V020","300,1,N,0026,1","00120,1,C,N","009000,1,N,1","+0080,1","+0080,1","99999,9","07,5,+00120,1,99,9","08,5,+00270,1,99,9",,"08,99,1,99,9,99,9,99999,9,99,9,99,9","09990,1,99999,9","61,1",,,,"MET080METAR ETSE 060520Z 30005KT 9000 -RA BKN004 OVC009 08/08 Q0999 YLO GRN TEMPO YLO;",
"10869099999","2010-05-06T06:20:00","4","48.322333","11.948667","461.77","ERDING, GM","FM-15","ETSE ","V020","300,1,N,0021,1","00120,1,C,N","011265,1,N,1","+0090,1","+0080,1","99999,9","07,5,+00120,1,99,9",,,"07,99,1,99,9,99,9,99999,9,99,9,99,9","09980,1,99999,9","61,1",,,,"MET073METAR ETSE 060620Z 30004KT 9999 -RA BKN004 09/08 Q0998 YLO GRN TEMPO YLO;",
"10869099999","2010-05-06T07:20:00","4","48.322333","11.948667","461.77","ERDING, GM","FM-15","ETSE ","V020","260,1,N,0021,1","00120,1,C,N","011265,1,N,1","+0090,1","+0080,1","99999,9","07,5,+00120,1,99,9",,,"07,99,1,99,9,99,9,99999,9,99,9,99,9","09990,1,99999,9","61,1",,,,"MET073METAR ETSE 060720Z 26004KT 9999 -RA BKN004 09/08 Q0999 YLO GRN TEMPO YLO;",
"10869099999","2010-05-06T08:20:00","4","48.322333","11.948667","461.77","ERDING, GM","FM-15","ETSE ","V020","260,1,N,0036,1","00150,1,C,N","011265,1,N,1","+0090,1","+0080,1","99999,9","07,5,+00150,1,99,9","07,5,+00300,1,99,9",,"07,99,1,99,9,99,9,99999,9,99,9,99,9","09990,1,99999,9","51,1","61,1",,,"MET082METAR ETSE 060820Z 26007KT 9999 -DZRA BKN005 BKN010 09/08 Q0999 YLO GRN TEMPO YLO;",
"10869099999","2010-05-06T09:02:00","4","48.322333","11.948667","461.77","ERDING, GM","FM-16","ETSE ","V020","260,1,N,0036,1","00210,1,C,N","011265,1,N,1","+0090,1","+0080,1","99999,9","07,5,+00210,1,99,9","07,5,+00690,1,99,9",,"07,99,1,99,9,99,9,99999,9,99,9,99,9","09990,1,99999,9","51,1","61,1",,,"MET072SPECI ETSE 060902Z 26007KT 9999 -DZRA BKN007 BKN023 09/08 Q0999 GRN GRN;",
"10869099999","2010-05-06T09:20:00","4","48.322333","11.948667","461.77","ERDING, GM","FM-15","ETSE ","V020","260,1,N,0031,1","00270,1,C,N","011265,1,N,1","+0090,1","+0080,1","99999,9","02,5,+00180,1,99,9","07,5,+00270,1,99,9","07,5,+00630,1,99,9","07,99,1,99,9,99,9,99999,9,99,9,99,9","09990,1,99999,9","51,1","61,1",,,"MET079METAR ETSE 060920Z 26006KT 9999 -DZRA FEW006 BKN009 BKN021 09/08 Q0999 GRN GRN;",
"10869099999","2010-05-06T10:20:00","4","48.322333","11.948667","461.77","ERDING, GM","FM-15","ETSE ","V020","260,1,N,0036,1","00390,1,C,N","011265,1,N,1","+0090,1","+0080,1","99999,9","02,5,+00210,1,99,9","07,5,+00390,1,99,9","07,5,+00750,1,99,9","07,99,1,99,9,99,9,99999,9,99,9,99,9","10000,1,99999,9","51,1","61,1",,,"MET079METAR ETSE 061020Z 26007KT 9999 -RADZ FEW007 BKN013 BKN025 09/08 Q1000 GRN GRN;",
"10869099999","2010-05-06T11:20:00","4","48.322333","11.948667","461.77","ERDING, GM","FM-15","ETSE ","V020","260,1,N,0031,1","00390,1,C,N","011265,1,N,1","+0090,1","+0080,1","99999,9","02,5,+00210,1,99,9","07,5,+00390,1,99,9","07,5,+00840,1,99,9","07,99,1,99,9,99,9,99999,9,99,9,99,9","10000,1,99999,9","63,1",,,,"MET076METAR ETSE 061120Z 26006KT 9999 RA FEW007 BKN013 BKN028 09/08 Q1000 GRN GRN;",
"10869099999","2010-05-06T12:20:00","4","48.322333","11.948667","461.77","ERDING, GM","FM-15","ETSE ","V020","280,1,N,0041,1","00390,1,C,N","011265,1,N,1","+0090,1","+0080,1","99999,9","02,5,+00180,1,99,9","04,5,+00390,1,99,9","07,5,+01380,1,99,9","07,99,1,99,9,99,9,99999,9,99,9,99,9","10000,1,99999,9","61,1",,,,"MET092METAR ETSE 061220Z 28008KT 9999 -RA FEW006 SCT013 BKN046 09/08 Q1000 RERA BLU GRN TEMPO BLU;",
"10869099999","2010-05-06T13:20:00","4","48.322333","11.948667","461.77","ERDING, GM","FM-15","ETSE ","V020","270,1,N,0031,1","00390,1,C,N","011265,1,N,1","+0100,1","+0080,1","99999,9","02,5,+00240,1,99,9","04,5,+00390,1,99,9","07,5,+00990,1,99,9","07,99,1,99,9,99,9,99999,9,99,9,99,9","10000,1,99999,9","61,1",,,,"MET087METAR ETSE 061320Z 27006KT 9999 -RA FEW008 SCT013 BKN033 10/08 Q1000 BLU GRN TEMPO BLU;",
"10869099999","2010-05-06T14:20:00","4","48.322333","11.948667","461.77","ERDING, GM","FM-15","ETSE ","V020","280,1,N,0031,1","00810,1,C,N","011265,1,N,1","+0100,1","+0080,1","99999,9","04,5,+00390,1,99,9","07,5,+00810,1,99,9",,"07,99,1,99,9,99,9,99999,9,99,9,99,9","10010,1,99999,9",,,,,"MET076METAR ETSE 061420Z 28006KT 9999 SCT013 BKN027 10/08 Q1001 BLU GRN TEMPO BLU;",
"10869099999","2010-05-06T15:00:00","4","48.322333","11.948667","461.77","ERDING, GM","FM-16","ETSE ","V020","300,1,N,0031,1","00810,1,C,N","011265,1,N,1","+0100,1","+0080,1","99999,9","04,5,+00390,1,99,9","07,5,+00810,1,99,9",,"07,99,1,99,9,99,9,99999,9,99,9,99,9","10010,1,99999,9",,,,,"MET074SPECI ETSE 061500Z 30006KT 9999 SCT013 BKN027 10/08 Q1001 BLU FCST CANCEL;",
"10869099999","2010-05-07T05:20:00","4","48.322333","11.948667","461.77","ERDING, GM","FM-15","ETSE ","V020","260,1,N,0036,1","00540,1,C,N","011265,1,N,1","+0050,1","+0040,1","99999,9","04,5,+00300,1,99,9","07,5,+00540,1,99,9","07,5,+01500,1,99,9","07,99,1,99,9,99,9,99999,9,99,9,99,9","10061,1,99999,9","61,1",,,,"MET087METAR ETSE 070520Z 26007KT 9999 -RA SCT010 BKN018 BKN050 05/04 Q1006 WHT WHT TEMPO GRN;",
"10869099999","2010-05-07T06:20:00","4","48.322333","11.948667","461.77","ERDING, GM","FM-15","ETSE ","V020","260,1,N,0036,1","00660,1,C,N","011265,1,N,1","+0060,1","+0040,1","99999,9","04,5,+00360,1,99,9","07,5,+00660,1,99,9","07,5,+01800,1,99,9","07,99,1,99,9,99,9,99999,9,99,9,99,9","10061,1,99999,9","61,1",,,,"MET087METAR ETSE 070620Z 26007KT 9999 -RA SCT012 BKN022 BKN060 06/04 Q1006 WHT WHT TEMPO GRN;",
"10869099999","2010-05-07T07:20:00","4","48.322333","11.948667","461.77","ERDING, GM","FM-15","ETSE ","V020","250,1,N,0026,1","00600,1,C,N","011265,1,N,1","+0060,1","+0040,1","99999,9","02,5,+00360,1,99,9","07,5,+00600,1,99,9","07,5,+01800,1,99,9","07,99,1,99,9,99,9,99999,9,99,9,99,9","10071,1,99999,9","61,1",,,,"MET077METAR ETSE 070720Z 25005KT 9999 -RA FEW012 BKN020 BKN060 06/04 Q1007 WHT WHT;",
"10869099999","2010-05-07T07:45:00","4","48.322333","11.948667","461.77","ERDING, GM","FM-16","ETSE ","V020","250,1,N,0031,1","00600,1,C,N","011265,1,N,1","+0060,1","+0040,1","99999,9","02,5,+00360,1,99,9","07,5,+00600,1,99,9","07,5,+01800,1,99,9","07,99,1,99,9,99,9,99999,9,99,9,99,9","10071,1,99999,9","61,1",,,,"MET085SPECI ETSE 070745Z 25006KT 9999 -RA FEW012 BKN020 BKN060 06/04 Q1007 WHT FCST CANCEL;",
"10869099999","2010-05-10T05:20:00","4","48.322333","11.948667","461.77","ERDING, GM","FM-15","ETSE ","V020","999,9,V,0005,1","01350,1,C,N","009000,1,N,1","+0100,1","+0090,1","99999,9","02,5,+00750,1,99,9","04,5,+01350,1,99,9","07,5,+01710,5,99,9","07,99,1,99,9,99,9,99999,9,99,9,99,9","10061,1,99999,9","61,1",,,,"MET087METAR ETSE 100520Z VRB01KT 9000 -RA FEW025 SCT045 BKN057 10/09 Q1006 BLU BLU TEMPO WHT;",
"10869099999","2010-05-10T06:20:00","4","48.322333","11.948667","461.77","ERDING, GM","FM-15","ETSE ","V020","999,9,C,0000,1","01200,1,C,N","011265,1,N,1","+0110,1","+0090,1","99999,9","02,5,+00150,1,99,9","04,5,+01200,1,99,9","07,5,+01650,5,99,9","07,99,1,99,9,99,9,99999,9,99,9,99,9","10061,1,99999,9","61,1",,,,"MET087METAR ETSE 100620Z 00000KT 9999 -RA FEW005 SCT040 BKN055 11/09 Q1006 BLU BLU TEMPO WHT;",
"10869099999","2010-05-10T07:20:00","4","48.322333","11.948667","461.77","ERDING, GM","FM-15","ETSE ","V020","160,1,N,0010,1","01170,1,C,N","011265,1,N,1","+0110,1","+0090,1","99999,9","02,5,+00210,1,99,9","04,5,+01170,1,99,9","07,5,+01500,1,99,9","07,99,1,99,9,99,9,99999,9,99,9,99,9","10071,1,99999,9","61,1",,,,"MET087METAR ETSE 100720Z 16002KT 9999 -RA FEW007 SCT039 BKN050 11/09 Q1007 BLU BLU TEMPO WHT;",
"10869099999","2010-05-10T08:20:00","4","48.322333","11.948667","461.77","ERDING, GM","FM-15","ETSE ","V020","999,9,V,0010,1","01050,1,C,N","011265,1,N,1","+0120,1","+0090,1","99999,9","02,5,+00270,1,99,9","04,5,+01050,1,99,9","07,5,+01560,5,99,9","07,99,1,99,9,99,9,99999,9,99,9,99,9","10071,1,99999,9","61,1",,,,"MET087METAR ETSE 100820Z VRB02KT 9999 -RA FEW009 SCT035 BKN052 12/09 Q1007 BLU BLU TEMPO WHT;",
"10869099999","2010-05-10T09:20:00","4","48.322333","11.948667","461.77","ERDING, GM","FM-15","ETSE ","V020","210,1,N,0015,1","01350,1,C,N","011265,1,N,1","+0130,1","+0090,1","99999,9","04,5,+00480,1,99,9","07,5,+01350,1,99,9","07,5,+02100,1,99,9","07,99,1,99,9,99,9,99999,9,99,9,99,9","10071,1,99999,9","61,1",,,,"MET087METAR ETSE 100920Z 21003KT 9999 -RA SCT016 BKN045 BKN070 13/09 Q1007 BLU BLU TEMPO WHT;",
"10869099999","2010-05-10T10:20:00","4","48.322333","11.948667","461.77","ERDING, GM","FM-15","ETSE ","V020","190,1,N,0021,1","01500,1,C,N","011265,1,N,1","+0130,1","+0100,1","99999,9","04,5,+00480,1,99,9","07,5,+01500,1,99,9","07,5,+02100,1,99,9","07,99,1,99,9,99,9,99999,9,99,9,99,9","10071,1,99999,9","61,1",,,,"MET087METAR ETSE 101020Z 19004KT 9999 -RA SCT016 BKN050 BKN070 13/10 Q1007 BLU BLU TEMPO WHT;",
"10869099999","2010-05-10T11:20:00","4","48.322333","11.948667","461.77","ERDING, GM","FM-15","ETSE ","V020","220,1,N,0021,1","00570,1,C,N","011265,1,N,1","+0140,1","+0100,1","99999,9","07,5,+00570,1,99,9","04,5,+01500,1,99,9","07,5,+02100,1,99,9","07,99,1,99,9,99,9,99999,9,99,9,99,9","10071,1,99999,9","61,1",,,,"MET087METAR ETSE 101120Z 22004KT 9999 -RA BKN019 SCT050 BKN070 14/10 Q1007 WHT BLU TEMPO WHT;",
"10869099999","2010-05-10T12:20:00","4","48.322333","11.948667","461.77","ERDING, GM","FM-15","ETSE ","V020","260,1,N,0021,1","01080,1,C,N","011265,1,N,1","+0140,1","+0090,1","99999,9","02,5,+00600,1,99,9","04,5,+01080,1,99,9","07,5,+01800,1,99,9","07,99,1,99,9,99,9,99999,9,99,9,99,9","10071,1,99999,9","61,1",,,,"MET087METAR ETSE 101220Z 26004KT 9999 -RA FEW020 SCT036 BKN060 14/09 Q1007 BLU BLU TEMPO WHT;",
"10869099999","2010-05-10T13:20:00","4","48.322333","11.948667","461.77","ERDING, GM","FM-15","ETSE ","V020","290,1,N,0021,1","01500,1,C,N","011265,1,N,1","+0150,1","+0100,1","99999,9","02,5,+00660,1,99,9","04,5,+01500,1,99,9","07,5,+02400,1,99,9","07,99,1,99,9,99,9,99999,9,99,9,99,9","10061,1,99999,9",,,,,"MET083METAR ETSE 101320Z 29004KT 9999 FEW022 SCT050 BKN080 15/10 Q1006 BLU BLU TEMPO WHT;",
"10869099999","2010-05-10T14:00:00","4","48.322333","11.948667","461.77","ERDING, GM","FM-16","ETSE ","V020","260,1,N,0021,1","01350,1,C,N","011265,1,N,1","+0150,1","+0100,1","99999,9","04,5,+00750,1,99,9","04,5,+01350,1,99,9","07,5,+02400,1,99,9","07,99,1,99,9,99,9,99999,9,99,9,99,9","10061,1,99999,9",,,,,"MET081SPECI ETSE 101400Z 26004KT 9999 SCT025 SCT045 BKN080 15/10 Q1006 BLU FCST CANCEL;",
"10869099999","2010-05-11T05:20:00","4","48.322333","11.948667","461.77","ERDING, GM","FM-15","ETSE ","V020","120,1,N,0021,1","99999,9,C,N","001200,1,N,1","+0080,1","+0080,1","99999,9","04,5,+00000,5,99,9","04,5,+07200,1,99,9",,"04,99,1,99,9,99,9,99999,9,99,9,99,9","10071,1,99999,9","10,1","40,1",,,"MET084METAR ETSE 110520Z 12004KT 1200 VCFG BR SCT000 SCT240 08/08 Q1007 AMB AMB TEMPO RED;","P01 072003SCOCIG"
"10869099999","2010-05-11T05:48:00","4","48.322333","11.948667","461.77","ERDING, GM","FM-16","ETSE ","V020","120,1,N,0015,1","99999,9,C,N","003000,1,N,1","+0080,1","+0080,1","99999,9","04,5,+00030,1,99,9","04,5,+07200,1,99,9",,"04,99,1,99,9,99,9,99999,9,99,9,99,9","10071,1,99999,9","40,1",,,,"MET071SPECI ETSE 110548Z 12003KT 3000 VCFG SCT001 SCT240 08/08 Q1007 YLO YLO;","P01 072003SCOCIG"
"10869099999","2010-05-11T06:00:00","4","48.322333","11.948667","461.77","ERDING, GM","FM-15","ETSE ","V020","110,1,N,0015,1","99999,9,C,N","008000,1,N,1","+0090,1","+0090,1","99999,9","04,5,+00030,1,99,9","04,5,+02400,1,99,9",,"04,99,1,99,9,99,9,99999,9,99,9,99,9","10061,1,99999,9","40,1",,,,"MET072SPECI ETSE 110559Z 11003KT 8000 VCFG SCT001 SCT080 09/09 Q1006 BLU/BLU/;","P01 024003SCOCIG"
"10869099999","2010-05-11T06:20:00","4","48.322333","11.948667","461.77","ERDING, GM","FM-15","ETSE ","V020","080,1,N,0010,1","99999,9,C,N","011265,1,N,1","+0110,1","+0110,1","99999,9","02,5,+00060,1,99,9","04,5,+02400,1,99,9",,"04,99,1,99,9,99,9,99999,9,99,9,99,9","10071,1,99999,9",,,,,"MET067METAR ETSE 110620Z 08002KT 9999 FEW002 SCT080 11/11 Q1007 BLU/BLU/;","P01 024003SCOCIG"
"10869099999","2010-05-11T07:20:00","4","48.322333","11.948667","461.77","ERDING, GM","FM-15","ETSE ","V020","060,1,N,0015,1","06000,1,C,N","011265,1,N,1","+0130,1","+0110,1","99999,9","02,5,+00240,1,99,9","07,5,+06000,1,99,9",,"07,99,1,99,9,99,9,99999,9,99,9,99,9","10071,1,99999,9",,,,,"MET067METAR ETSE 110720Z 06003KT 9999 FEW008 BKN200 13/11 Q1007 BLU/BLU/;",
"10869099999","2010-05-11T08:20:00","4","48.322333","11.948667","461.77","ERDING, GM","FM-15","ETSE ","V020","060,1,N,0036,1","05700,1,C,N","011265,1,N,1","+0140,1","+0110,1","99999,9","02,5,+00330,1,99,9","07,5,+05700,1,99,9",,"07,99,1,99,9,99,9,99999,9,99,9,99,9","10061,1,99999,9",,,,,"MET077METAR ETSE 110820Z 06007KT 9999 FEW011 BKN190 14/11 Q1006 BLU BLU/ TEMPO BLU;",
"10869099999","2010-05-11T09:20:00","4","48.322333","11.948667","461.77","ERDING, GM","FM-15","ETSE ","V020","080,1,N,0026,1","03600,1,C,N","011265,1,N,1","+0150,1","+0110,1","99999,9","02,5,+00480,1,99,9","04,5,+03600,1,99,9","07,5,+05700,1,99,9","07,99,1,99,9,99,9,99999,9,99,9,99,9","10061,1,99999,9",,,,,"MET084METAR ETSE 110920Z 08005KT 9999 FEW016 SCT120 BKN190 15/11 Q1006 BLU BLU/ TEMPO BLU;",
"10869099999","2010-05-11T10:20:00","4","48.322333","11.948667","461.77","ERDING, GM","FM-15","ETSE ","V020","080,1,N,0041,1","03600,1,C,N","011265,1,N,1","+0170,1","+0120,1","99999,9","02,5,+00660,1,99,9","07,5,+03600,1,99,9",,"07,99,1,99,9,99,9,99999,9,99,9,99,9","10051,1,99999,9",,,,,"MET077METAR ETSE 111020Z 08008KT 9999 FEW022 BKN120 17/12 Q1005 BLU BLU/ TEMPO BLU;",
"10869099999","2010-05-11T11:20:00","4","48.322333","11.948667","461.77","ERDING, GM","FM-15","ETSE ","V020","070,1,N,0046,1","99999,9,C,N","011265,1,N,1","+0190,1","+0130,1","99999,9","02,5,+00840,1,99,9","04,5,+05400,1,99,9",,"04,99,1,99,9,99,9,99999,9,99,9,99,9","10041,1,99999,9",,,,,"MET067METAR ETSE 111120Z 07009KT 9999 FEW028 SCT180 19/13 Q1004 BLU/BLU/;","P01 054003SCOCIG"
"10869099999","2010-05-11T12:20:00","4","48.322333","11.948667","461.77","ERDING, GM","FM-15","ETSE ","V020","090,1,N,0046,1","99999,9,C,N","011265,1,N,1","+0190,1","+0110,1","99999,9","02,5,+01170,1,99,9","04,5,+05400,1,99,9",,"04,99,1,99,9,99,9,99999,9,99,9,99,9","10031,1,99999,9",,,,,"MET067METAR ETSE 111220Z 09009KT 9999 FEW039 SCT180 19/11 Q1003 BLU/BLU/;","P01 054003SCOCIG"
"10869099999","2010-05-11T13:20:00","4","48.322333","11.948667","461.77","ERDING, GM","FM-15","ETSE ","V020","100,1,N,0046,1","07200,1,C,N","011265,1,N,1","+0200,1","+0120,1","99999,9","02,5,+01200,1,99,9","07,5,+07200,1,99,9",,"07,99,1,99,9,99,9,99999,9,99,9,99,9","10031,1,99999,9",,,,,"MET067METAR ETSE 111320Z 10009KT 9999 FEW040 BKN240 20/12 Q1003 BLU/BLU/;",
"10869099999","2010-05-11T14:20:00","4","48.322333","11.948667","461.77","ERDING, GM","FM-15","ETSE ","V020","080,1,N,0046,1","07200,1,C,N","011265,1,N,1","+0200,1","+0120,1","99999,9","02,5,+01200,1,99,9","07,5,+07200,1,99,9",,"07,99,1,99,9,99,9,99999,9,99,9,99,9","10020,1,99999,9",,,,,"MET067METAR ETSE 111420Z 08009KT 9999 FEW040 BKN240 20/12 Q1002 BLU/BLU/;",
"10869099999","2010-05-12T05:20:00","4","48.322333","11.948667","461.77","ERDING, GM","FM-15","ETSE ","V020","230,1,N,0015,1","01950,5,C,N","011265,1,N,1","+0110,1","+0090,1","99999,9","02,5,+00840,1,99,9","07,5,+01950,5,99,9","07,5,+03600,1,99,9","07,99,1,99,9,99,9,99999,9,99,9,99,9","10081,1,99999,9",,,,,"MET069METAR ETSE 120520Z 23003KT 9999 FEW028 BKN065 BKN120 11/09 Q1008 BLU;",
"10869099999","2010-05-12T06:20:00","4","48.322333","11.948667","461.77","ERDING, GM","FM-15","ETSE ","V020","260,1,N,0021,1","01350,1,C,N","011265,1,N,1","+0120,1","+0090,1","99999,9","02,5,+00750,1,99,9","07,5,+01350,1,99,9","07,5,+03000,1,99,9","07,99,1,99,9,99,9,99999,9,99,9,99,9","10081,1,99999,9",,,,,"MET069METAR ETSE 120620Z 26004KT 9999 FEW025 BKN045 BKN100 12/09 Q1008 BLU;",
"10869099999","2010-05-12T07:20:00","4","48.322333","11.948667","461.77","ERDING, GM","FM-15","ETSE ","V020","290,1,N,0031,1","01500,1,C,N","011265,1,N,1","+0130,1","+0090,1","99999,9","02,5,+00450,1,99,9","04,5,+01500,1,99,9","07,5,+02250,5,99,9","07,99,1,99,9,99,9,99999,9,99,9,99,9","10081,1,99999,9",,,,,"MET073METAR ETSE 120720Z 29006KT 9999 FEW015 SCT050 BKN075 13/09 Q1008 BLU BLU;",
"10869099999","2010-05-12T08:20:00","4","48.322333","11.948667","461.77","ERDING, GM","FM-15","ETSE ","V020","340,1,N,0021,1","02250,5,C,N","011265,1,N,1","+0130,1","+0090,1","99999,9","04,5,+00570,1,99,9","07,5,+02250,5,99,9",,"07,99,1,99,9,99,9,99999,9,99,9,99,9","10081,1,99999,9",,,,,"MET066METAR ETSE 120820Z 34004KT 9999 SCT019 BKN075 13/09 Q1008 BLU BLU;",
"10869099999","2010-05-12T09:20:00","4","48.322333","11.948667","461.77","ERDING, GM","FM-15","ETSE ","V020","280,1,N,0015,1","02100,1,C,N","011265,1,N,1","+0130,1","+0080,1","99999,9","04,5,+00750,1,99,9","07,5,+02100,1,99,9",,"07,99,1,99,9,99,9,99999,9,99,9,99,9","10081,1,99999,9",,,,,"MET066METAR ETSE 120920Z 28003KT 9999 SCT025 BKN070 13/08 Q1008 BLU BLU;",
"10869099999","2010-05-12T10:20:00","4","48.322333","11.948667","461.77","ERDING, GM","FM-15","ETSE ","V020","300,1,N,0031,1","01200,1,C,N","011265,1,N,1","+0130,1","+0090,1","99999,9","02,5,+00750,1,99,9","04,5,+01200,1,99,9","07,5,+01950,5,99,9","07,99,1,99,9,99,9,99999,9,99,9,99,9","10091,1,99999,9",,,,,"MET081METAR ETSE 121020Z 30006KT 9999 FEW025 SCT040 BKN065 13/09 Q1009 BLU FCST CANCEL;",
"10869099999","2010-05-12T11:20:00","4","48.322333","11.948667","461.77","ERDING, GM","FM-15","ETSE ","V020","270,1,N,0026,1","01650,5,C,N","011265,1,N,1","+0140,1","+0080,1","99999,9","02,5,+00750,1,99,9","07,5,+01650,5,99,9",,"07,99,1,99,9,99,9,99999,9,99,9,99,9","10091,1,99999,9",,,,,"MET062METAR ETSE 121120Z 27005KT 9999 FEW025 BKN055 14/08 Q1009 BLU;",
"10869099999","2010-05-12T12:20:00","4","48.322333","11.948667","461.77","ERDING, GM","FM-15","ETSE ","V020","280,1,N,0021,1","01560,5,C,N","011265,1,N,1","+0140,1","+0090,1","99999,9","02,5,+00690,1,99,9","07,5,+01560,5,99,9",,"07,99,1,99,9,99,9,99999,9,99,9,99,9","10091,1,99999,9",,,,,"MET062METAR ETSE 121220Z 28004KT 9999 FEW023 BKN052 14/09 Q1009 BLU;",
"10869099999","2010-05-17T05:20:00","4","48.322333","11.948667","461.77","ERDING, GM","FM-15","ETSE ","V020","280,1,N,0036,1","99999,9,C,N","011265,1,N,1","+0080,1","+0050,1","99999,9","02,5,+02100,1,99,9","04,5,+06600,1,99,9",,"04,99,1,99,9,99,9,99999,9,99,9,99,9","10200,1,99999,9",,,,,"MET063METAR ETSE 170520Z 28007KT 9999 FEW070 SCT220 08/05 Q1020 BLU/;","P01 066003SCOCIG"
"10869099999","2010-05-17T06:20:00","4","48.322333","11.948667","461.77","ERDING, GM","FM-15","ETSE ","V020","280,1,N,0036,1","99999,9,C,N","011265,1,N,1","+0090,1","+0060,1","99999,9","02,5,+02100,1,99,9","04,5,+06600,1,99,9",,"04,99,1,99,9,99,9,99999,9,99,9,99,9","10200,1,99999,9",,,,,"MET063METAR ETSE 170620Z 28007KT 9999 FEW070 SCT220 09/06 Q1020 BLU/;","P01 066003SCOCIG"
"10869099999","2010-05-17T07:20:00","4","48.322333","11.948667","461.77","ERDING, GM","FM-15","ETSE ","V020","290,1,N,0031,1","07500,1,C,N","011265,1,N,1","+0110,1","+0060,1","99999,9","02,5,+01650,5,99,9","07,5,+07500,1,99,9",,"07,99,1,99,9,99,9,99999,9,99,9,99,9","10200,1,99999,9",,,,,"MET063METAR ETSE 170720Z 29006KT 9999 FEW055 BKN250 11/06 Q1020 BLU/;",
"10869099999","2010-05-17T08:20:00","4","48.322333","11.948667","461.77","ERDING, GM","FM-15","ETSE ","V020","280,1,N,0036,1","07500,1,C,N","011265,1,N,1","+0120,1","+0070,1","99999,9","02,5,+00750,1,99,9","07,5,+07500,1,99,9",,"07,99,1,99,9,99,9,99999,9,99,9,99,9","10200,1,99999,9",,,,,"MET063METAR ETSE 170820Z 28007KT 9999 FEW025 BKN250 12/07 Q1020 BLU/;",
"10869099999","2010-05-17T09:20:00","4","48.322333","11.948667","461.77","ERDING, GM","FM-15","ETSE ","V020","280,1,N,0041,1","07500,1,C,N","011265,1,N,1","+0140,1","+0070,1","99999,9","04,5,+00840,1,99,9","07,5,+07500,1,99,9",,"07,99,1,99,9,99,9,99999,9,99,9,99,9","10200,1,99999,9",,,,,"MET063METAR ETSE 170920Z 28008KT 9999 SCT028 BKN250 14/07 Q1020 BLU/;",
"10869099999","2010-05-17T10:20:00","4","48.322333","11.948667","461.77","ERDING, GM","FM-15","ETSE ","V020","290,1,N,0051,1","06600,1,C,N","011265,1,N,1","+0130,1","+0060,1","99999,9","04,5,+01050,1,99,9","07,5,+06600,1,99,9",,"07,99,1,99,9,99,9,99999,9,99,9,99,9","10200,1,99999,9",,,,,"MET077METAR ETSE 171020Z 29010KT 9999 SCT035 BKN220 13/06 Q1020 BLU/BLU/ TEMPO BLU;",
"10869099999","2010-05-17T11:20:00","4","48.322333","11.948667","461.77","ERDING, GM","FM-15","ETSE ","V020","280,1,N,0046,1","06000,1,C,N","011265,1,N,1","+0150,1","+0070,1","99999,9","04,5,+01260,1,99,9","07,5,+06000,1,99,9",,"07,99,1,99,9,99,9,99999,9,99,9,99,9","10200,1,99999,9",,,,,"MET077METAR ETSE 171120Z 28009KT 9999 SCT042 BKN200 15/07 Q1020 BLU/BLU/ TEMPO BLU;",
"10869099999","2010-05-17T12:20:00","4","48.322333","11.948667","461.77","ERDING, GM","FM-15","ETSE ","V020","280,1,N,0057,1","02700,1,C,N","011265,1,N,1","+0140,1","+0050,1","99999,9","04,5,+01260,1,02,1","04,5,+02700,1,99,9","07,5,+06000,1,99,9","07,99,1,99,9,99,9,99999,9,99,9,99,9","10200,1,99999,9",,,,,"MET087METAR ETSE 171220Z 28011KT 9999 SCT042TCU SCT090 BKN200 14/05 Q1020 BLU/BLU/ TEMPO BLU;",
"10869099999","2010-05-17T13:20:00","4","48.322333","11.948667","461.77","ERDING, GM","FM-15","ETSE ","V020","270,1,N,0051,1","02700,1,C,N","011265,1,N,1","+0150,1","+0050,1","99999,9","04,5,+01440,1,99,9","04,5,+02700,1,99,9","07,5,+06000,1,99,9","07,99,1,99,9,99,9,99999,9,99,9,99,9","10190,1,99999,9",,,,,"MET084METAR ETSE 171320Z 27010KT 9999 SCT048 SCT090 BKN200 15/05 Q1019 BLU/BLU/ TEMPO BLU;",
"10869099999","2010-05-17T14:00:00","4","48.322333","11.948667","461.77","ERDING, GM","FM-16","ETSE ","V020","320,1,N,0046,1","02700,1,C,N","011265,1,N,1","+0140,1","+0050,1","99999,9","04,5,+01500,1,99,9","04,5,+02700,1,99,9","07,5,+06000,1,99,9","07,99,1,99,9,99,9,99999,9,99,9,99,9","10200,1,99999,9",,,,,"MET081SPECI ETSE 171400Z 32009KT 9999 SCT050 SCT090 BKN200 14/05 Q1020 BLU/FCST CANCEL;",
"10869099999","2010-05-18T05:20:00","4","48.322333","11.948667","461.77","ERDING, GM","FM-15","ETSE ","V020","290,1,N,0057,1","99999,9,C,N","011265,1,N,1","+0080,1","+0050,1","99999,9","04,5,+00540,1,99,9","04,5,+01170,1,99,9",,"04,99,1,99,9,99,9,99999,9,99,9,99,9","10230,1,99999,9",,,,,"MET076METAR ETSE 180520Z 29011KT 9999 SCT018 SCT039 08/05 Q1023 BLU/BLU TEMPO WHT;","P01 011703SCOCIG"
"10869099999","2010-05-18T06:20:00","4","48.322333","11.948667","461.77","ERDING, GM","FM-15","ETSE ","V020","290,1,N,0072,1","00600,1,C,N","011265,1,N,1","+0080,1","+0040,1","99999,9","07,5,+00600,1,99,9","07,5,+01170,1,99,9",,"07,99,1,99,9,99,9,99999,9,99,9,99,9","10240,1,99999,9",,,,,"MET076METAR ETSE 180620Z 29014KT 9999 BKN020 BKN039 08/04 Q1024 WHT BLU TEMPO WHT;",
"10869099999","2010-05-18T07:20:00","4","48.322333","11.948667","461.77","ERDING, GM","FM-15","ETSE ","V020","300,1,N,0051,1","01350,1,C,N","011265,1,N,1","+0080,1","+0040,1","99999,9","04,5,+00690,1,99,9","07,5,+01350,1,99,9",,"07,99,1,99,9,99,9,99999,9,99,9,99,9","10240,1,99999,9",,,,,"MET076METAR ETSE 180720Z 30010KT 9999 SCT023 BKN045 08/04 Q1024 BLU BLU TEMPO WHT;",
"10869099999","2010-05-18T08:20:00","4","48.322333","11.948667","461.77","ERDING, GM","FM-15","ETSE ","V020","280,1,N,0062,1","01350,1,C,N","011265,1,N,1","+0090,1","+0040,1","99999,9","04,5,+00720,1,99,9","07,5,+01350,1,99,9",,"07,99,1,99,9,99,9,99999,9,99,9,99,9","10240,1,99999,9",,,,,"MET076METAR ETSE 180820Z 28012KT 9999 SCT024 BKN045 09/04 Q1024 BLU BLU TEMPO WHT;",
"10869099999","2010-05-18T09:20:00","4","48.322333","11.948667","461.77","ERDING, GM","FM-15","ETSE ","V020","290,1,N,0072,1","01470,1,C,N","011265,1,N,1","+0100,1","+0040,1","99999,9","04,5,+00720,1,99,9","07,5,+01470,1,99,9",,"07,99,1,99,9,99,9,99999,9,99,9,99,9","10240,1,99999,9",,,,,"MET076METAR ETSE 180920Z 29014KT 9999 SCT024 BKN049 10/04 Q1024 BLU BLU TEMPO WHT;",
"10869099999","2010-05-18T10:20:00","4","48.322333","11.948667","461.77","ERDING, GM","FM-15","ETSE ","V020","300,1,N,0072,1","00750,1,C,N","011265,1,N,1","+0090,1","+0050,1","99999,9","07,5,+00750,1,99,9","07,5,+01470,1,99,9",,"07,99,1,99,9,99,9,99999,9,99,9,99,9","10251,1,99999,9",,,,,"MET076METAR ETSE 181020Z 30014KT 9999 BKN025 BKN049 09/05 Q1025 BLU BLU TEMPO WHT;",
"10869099999","2010-05-18T11:20:00","4","48.322333","11.948667","461.77","ERDING, GM","FM-15","ETSE ","V020","320,1,N,0051,1","00840,1,C,N","011265,1,N,1","+0080,1","+0050,1","99999,9","04,5,+00540,1,99,9","07,5,+00840,1,99,9",,"07,99,1,99,9,99,9,99999,9,99,9,99,9","10251,1,99999,9",,,,,"MET076METAR ETSE 181120Z 32010KT 9999 SCT018 BKN028 08/05 Q1025 BLU BLU TEMPO WHT;",
"10869099999","2010-05-18T12:20:00","4","48.322333","11.948667","461.77","ERDING, GM","FM-15","ETSE ","V020","310,1,N,0057,1","00840,1,C,N","011265,1,N,1","+0090,1","+0050,1","99999,9","04,5,+00480,1,99,9","07,5,+00840,1,99,9",,"07,99,1,99,9,99,9,99999,9,99,9,99,9","10251,1,99999,9",,,,,"MET076METAR ETSE 181220Z 31011KT 9999 SCT016 BKN028 09/05 Q1025 BLU BLU TEMPO WHT;",
"10869099999","2010-05-18T13:20:00","4","48.322333","11.948667","461.77","ERDING, GM","FM-15","ETSE ","V020","310,1,N,0051,1","00570,1,C,N","011265,1,N,1","+0080,1","+0050,1","99999,9","02,5,+00330,1,99,9","04,5,+00570,1,99,9","07,5,+01050,1,99,9","07,99,1,99,9,99,9,99999,9,99,9,99,9","10251,1,99999,9","80,1",,,,"MET089METAR ETSE 181320Z 31010KT 9999 -SHRA FEW011 SCT019 BKN035 08/05 Q1025 BLU BLU TEMPO WHT;",
"10869099999","2010-05-18T14:20:00","4","48.322333","11.948667","461.77","ERDING, GM","FM-15","ETSE ","V020","330,1,N,0046,1","01950,5,C,N","011265,1,N,1","+0100,1","+0050,1","99999,9","04,5,+00660,1,99,9","07,5,+01950,5,99,9",,"07,99,1,99,9,99,9,99999,9,99,9,99,9","10240,1,99999,9",,,,,"MET074METAR ETSE 181420Z 33009KT 9999 SCT022 BKN065 10/05 Q1024 BLU FCST CANCEL;",
"10869099999","2010-05-19T05:20:00","4","48.322333","11.948667","461.77","ERDING, GM","FM-15","ETSE ","V020","260,1,N,0031,1","22000,1,9,N","011265,1,N,1","+0060,1","+0030,1","99999,9","02,5,+01350,1,99,9",,,"02,99,1,99,9,99,9,99999,9,99,9,99,9","10230,1,99999,9",,,,,"MET056METAR ETSE 190520Z 26006KT 9999 FEW045 06/03 Q1023 BLU/;",
"10869099999","2010-05-19T06:20:00","4","48.322333","11.948667","461.77","ERDING, GM","FM-15","ETSE ","V020","270,1,N,0036,1","99999,9,C,N","011265,1,N,1","+0060,1","+0040,1","99999,9","02,5,+01140,1,99,9","04,5,+01950,5,99,9",,"04,99,1,99,9,99,9,99999,9,99,9,99,9","10230,1,99999,9",,,,,"MET063METAR ETSE 190620Z 27007KT 9999 FEW038 SCT065 06/04 Q1023 BLU/;","P01 019503SCOCIG"
"10869099999","2010-05-19T07:20:00","4","48.322333","11.948667","461.77","ERDING, GM","FM-15","ETSE ","V020","280,1,N,0046,1","99999,9,C,N","011265,1,N,1","+0080,1","+0050,1","99999,9","02,5,+00450,1,99,9","04,5,+01800,1,99,9",,"04,99,1,99,9,99,9,99999,9,99,9,99,9","10230,1,99999,9",,,,,"MET067METAR ETSE 190720Z 28009KT 9999 FEW015 SCT060 08/05 Q1023 BLU/BLU/;","P01 018003SCOCIG"
"10869099999","2010-05-19T08:20:00","4","48.322333","11.948667","461.77","ERDING, GM","FM-15","ETSE ","V020","280,1,N,0046,1","99999,9,C,N","011265,1,N,1","+0090,1","+0050,1","99999,9","04,5,+00570,1,99,9","04,5,+01800,1,99,9",,"04,99,1,99,9,99,9,99999,9,99,9,99,9","10230,1,99999,9",,,,,"MET077METAR ETSE 190820Z 28009KT 9999 SCT019 SCT060 09/05 Q1023 BLU/BLU/ BECMG BLU;","P01 018003SCOCIG"
"10869099999","2010-05-19T09:20:00","4","48.322333","11.948667","461.77","ERDING, GM","FM-15","ETSE ","V020","280,1,N,0041,1","01500,1,C,N","011265,1,N,1","+0090,1","+0040,1","99999,9","04,5,+00660,1,99,9","07,5,+01500,1,99,9",,"07,99,1,99,9,99,9,99999,9,99,9,99,9","10230,1,99999,9","61,1",,,,"MET070METAR ETSE 190920Z 28008KT 9999 -RA SCT022 BKN050 09/04 Q1023 BLU BLU;",
"10869099999","2010-05-19T10:20:00","4","48.322333","11.948667","461.77","ERDING, GM","FM-15","ETSE ","V020","280,1,N,0051,1","01650,5,C,N","011265,1,N,1","+0100,1","+0030,1","99999,9","04,5,+00750,1,99,9","07,5,+01650,5,99,9",,"07,99,1,99,9,99,9,99999,9,99,9,99,9","10230,1,99999,9",,,,,"MET066METAR ETSE 191020Z 28010KT 9999 SCT025 BKN055 10/03 Q1023 BLU BLU;",
"10869099999","2010-05-19T11:20:00","4","48.322333","11.948667","461.77","ERDING, GM","FM-15","ETSE ","V020","280,1,N,0062,1","01800,1,C,N","011265,1,N,1","+0110,1","+0050,1","99999,9","04,5,+00840,1,99,9","07,5,+01800,1,99,9",,"07,99,1,99,9,99,9,99999,9,99,9,99,9","10230,1,99999,9",,,,,"MET066METAR ETSE 191120Z 28012KT 9999 SCT028 BKN060 11/05 Q1023 BLU BLU;",
"10869099999","2010-05-19T12:20:00","4","48.322333","11.948667","461.77","ERDING, GM","FM-15","ETSE ","V020","290,1,N,0057,1","01200,1,C,N","011265,1,N,1","+0090,1","+0040,1","99999,9","02,5,+00870,1,99,9","07,5,+01200,1,99,9","07,5,+01500,1,99,9","07,99,1,99,9,99,9,99999,9,99,9,99,9","10230,1,99999,9","61,1",,,,"MET087METAR ETSE 191220Z 29011KT 9999 -RA FEW029 BKN040 BKN050 09/04 Q1023 BLU BLU TEMPO WHT;",
"10869099999","2010-05-19T13:20:00","4","48.322333","11.948667","461.77","ERDING, GM","FM-15","ETSE ","V020","280,1,N,0057,1","01470,1,C,N","011265,1,N,1","+0100,1","+0040,1","99999,9","02,5,+00900,1,99,9","07,5,+01470,1,99,9","07,5,+02400,1,99,9","07,99,1,99,9,99,9,99999,9,99,9,99,9","10230,1,99999,9","61,1",,,,"MET087METAR ETSE 191320Z 28011KT 9999 -RA FEW030 BKN049 BKN080 10/04 Q1023 BLU BLU BECMG WHT;",
"10869099999","2010-05-19T14:00:00","4","48.322333","11.948667","461.77","ERDING, GM","FM-16","ETSE ","V020","300,1,N,0046,1","01440,1,C,N","011265,1,N,1","+0100,1","+0050,1","99999,9","04,5,+00930,1,99,9","07,5,+01440,1,99,9","07,5,+02400,1,99,9","07,99,1,99,9,99,9,99999,9,99,9,99,9","10230,1,99999,9","61,1",,,,"MET085SPECI ETSE 191400Z 30009KT 9999 -RA SCT031 BKN048 BKN080 10/05 Q1023 BLU FCST CANCEL;",
"10869099999","2010-05-20T05:20:00","4","48.322333","11.948667","461.77","ERDING, GM","FM-15","ETSE ","V020","260,1,N,0041,1","00210,1,C,N","011265,1,N,1","+0070,1","+0060,1","99999,9","07,5,+00210,1,99,9","08,5,+00390,1,99,9",,"08,99,1,99,9,99,9,99999,9,99,9,99,9","10251,1,99999,9",,,,,"MET076METAR ETSE 200520Z 26008KT 9999 BKN007 OVC013 07/06 Q1025 GRN GRN TEMPO YLO;",
"10869099999","2010-05-20T06:20:00","4","48.322333","11.948667","461.77","ERDING, GM","FM-15","ETSE ","V020","260,1,N,0031,1","00180,1,C,N","011265,1,N,1","+0070,1","+0060,1","99999,9","07,5,+00180,1,99,9","08,5,+00240,1,99,9",,"08,99,1,99,9,99,9,99999,9,99,9,99,9","10251,1,99999,9","51,1",,,,"MET080METAR ETSE 200620Z 26006KT 9999 -DZ BKN006 OVC008 07/06 Q1025 YLO GRN TEMPO YLO;",
"10869099999","2010-05-20T07:20:00","4","48.322333","11.948667","461.77","ERDING, GM","FM-15","ETSE ","V020","260,1,N,0031,1","00150,1,C,N","006000,1,N,1","+0080,1","+0070,1","99999,9","07,5,+00150,1,99,9","08,5,+00240,1,99,9",,"08,99,1,99,9,99,9,99999,9,99,9,99,9","10261,1,99999,9","51,1",,,,"MET080METAR ETSE 200720Z 26006KT 6000 -DZ BKN005 OVC008 08/07 Q1026 YLO GRN TEMPO YLO;",
"10869099999","2010-05-20T07:37:00","4","48.322333","11.948667","461.77","ERDING, GM","FM-16","ETSE ","V020","260,1,N,0036,1","00150,1,C,N","004000,1,N,1","+0080,1","+0070,1","99999,9","07,5,+00150,1,99,9","08,5,+00210,1,99,9",,"08,99,1,99,9,99,9,99999,9,99,9,99,9","10261,1,99999,9","51,1",,,,"MET080SPECI ETSE 200737Z 26007KT 4000 -DZ BKN005 OVC007 08/07 Q1026 YLO GRN TEMPO YLO;",
"10869099999","2010-05-20T08:00:00","4","48.322333","11.948667","461.77","ERDING, GM","FM-16","ETSE ","V020","250,1,N,0026,1","00150,1,C,N","006000,1,N,1","+0080,1","+0070,1","99999,9","07,5,+00150,1,99,9","08,5,+00270,1,99,9",,"08,99,1,99,9,99,9,99999,9,99,9,99,9","10261,1,99999,9","51,1",,,,"MET080SPECI ETSE 200800Z 25005KT 6000 -DZ BKN005 OVC009 08/07 Q1026 YLO GRN TEMPO YLO;",
"10869099999","2010-05-20T08:20:00","4","48.322333","11.948667","461.77","ERDING, GM","FM-15","ETSE ","V020","260,1,N,0031,1","00180,1,C,N","008000,1,N,1","+0080,1","+0070,1","99999,9","07,5,+00180,1,99,9","08,5,+00270,1,99,9",,"08,99,1,99,9,99,9,99999,9,99,9,99,9","10261,1,99999,9","51,1",,,,"MET080METAR ETSE 200820Z 26006KT 8000 -DZ BKN006 OVC009 08/07 Q1026 YLO GRN TEMPO YLO;",
"10869099999","2010-05-20T09:20:00","4","48.322333","11.948667","461.77","ERDING, GM","FM-15","ETSE ","V020","260,1,N,0036,1","00210,1,C,N","008000,1,N,1","+0090,1","+0070,1","99999,9","07,5,+00210,1,99,9","08,5,+00330,1,99,9",,"08,99,1,99,9,99,9,99999,9,99,9,99,9","10261,1,99999,9","51,1",,,,"MET080METAR ETSE 200920Z 26007KT 8000 -DZ BKN007 OVC011 09/07 Q1026 GRN GRN TEMPO YLO;",
"10869099999","2010-05-20T10:20:00","4","48.322333","11.948667","461.77","ERDING, GM","FM-15","ETSE ","V020","270,1,N,0041,1","00210,1,C,N","008000,1,N,1","+0090,1","+0080,1","99999,9","02,5,+00150,1,99,9","07,5,+00210,1,99,9","08,5,+00330,1,99,9","08,99,1,99,9,99,9,99999,9,99,9,99,9","10261,1,99999,9","51,1",,,,"MET077METAR ETSE 201020Z 27008KT 8000 -DZ FEW005 BKN007 OVC011 09/08 Q1026 GRN GRN;",
"10869099999","2010-05-20T11:20:00","4","48.322333","11.948667","461.77","ERDING, GM","FM-15","ETSE ","V020","280,1,N,0046,1","00240,1,C,N","008000,1,N,1","+0090,1","+0080,1","99999,9","04,5,+00150,1,99,9","07,5,+00240,1,99,9","08,5,+00390,1,99,9","08,99,1,99,9,99,9,99999,9,99,9,99,9","10261,1,99999,9","51,1",,,,"MET077METAR ETSE 201120Z 28009KT 8000 -DZ SCT005 BKN008 OVC013 09/08 Q1026 GRN GRN;",
"10869099999","2010-05-20T12:20:00","4","48.322333","11.948667","461.77","ERDING, GM","FM-15","ETSE ","V020","280,1,N,0041,1","00270,1,C,N","011265,1,N,1","+0100,1","+0080,1","99999,9","02,5,+00150,1,99,9","07,5,+00270,1,99,9","07,5,+00390,1,99,9","07,99,1,99,9,99,9,99999,9,99,9,99,9","10261,1,99999,9","51,1",,,,"MET077METAR ETSE 201220Z 28008KT 9999 -DZ FEW005 BKN009 BKN013 10/08 Q1026 GRN GRN;",
"10869099999","2010-05-20T13:20:00","4","48.322333","11.948667","461.77","ERDING, GM","FM-15","ETSE ","V020","280,1,N,0041,1","00270,1,C,N","011265,1,N,1","+0100,1","+0080,1","99999,9","02,5,+00150,1,99,9","07,5,+00270,1,99,9","07,5,+00360,1,99,9","07,99,1,99,9,99,9,99999,9,99,9,99,9","10261,1,99999,9","51,1",,,,"MET077METAR ETSE 201320Z 28008KT 9999 -DZ FEW005 BKN009 BKN012 10/08 Q1026 GRN GRN;",
"10869099999","2010-05-20T14:00:00","4","48.322333","11.948667","461.77","ERDING, GM","FM-16","ETSE ","V020","270,1,N,0036,1","00270,1,C,N","011265,1,N,1","+0100,1","+0080,1","99999,9","02,5,+00180,1,99,9","07,5,+00270,1,99,9","07,5,+00390,1,99,9","07,99,1,99,9,99,9,99999,9,99,9,99,9","10261,1,99999,9","51,1",,,,"MET085SPECI ETSE 201400Z 27007KT 9999 -DZ FEW006 BKN009 BKN013 10/08 Q1026 GRN FCST CANCEL;",
"10869099999","2010-05-21T05:20:00","4","48.322333","11.948667","461.77","ERDING, GM","FM-15","ETSE ","V020","270,1,N,0021,1","00120,1,C,N","005000,1,N,1","+0090,1","+0090,1","99999,9","08,5,+00120,1,99,9",,,"08,99,1,99,9,99,9,99999,9,99,9,99,9","10271,1,99999,9","51,1",,,,"MET063METAR ETSE 210520Z 27004KT 5000 -DZ OVC004 09/09 Q1027 YLO YLO;",
"10869099999","2010-05-21T06:20:00","4","48.322333","11.948667","461.77","ERDING, GM","FM-15","ETSE ","V020","280,1,N,0031,1","00060,1,C,N","002000,1,N,1","+0090,1","+0090,1","99999,9","08,5,+00060,1,99,9",,,"08,99,1,99,9,99,9,99999,9,99,9,99,9","10271,1,99999,9","10,1","51,1",,,"MET066METAR ETSE 210620Z 28006KT 2000 -DZ BR OVC002 09/09 Q1027 AMB YLO;",
"10869099999","2010-05-21T07:20:00","4","48.322333","11.948667","461.77","ERDING, GM","FM-15","ETSE ","V020","290,1,N,0031,1","00060,1,C,N","001200,1,N,1","+0100,1","+0100,1","99999,9","08,5,+00060,1,99,9",,,"08,99,1,99,9,99,9,99999,9,99,9,99,9","10271,1,99999,9","10,1","51,1",,,"MET074METAR ETSE 210720Z 29006KT 1200 -DZ BR OVC002 10/10 Q1027 AMB FCST CANCEL;",
"10869099999","2010-05-25T04:20:00","4","48.322333","11.948667","461.77","ERDING, GM","FM-15","ETSE ","V020","250,1,N,0031,1","99999,9,C,N","011265,1,N,1","+0160,1","+0090,1","99999,9","04,5,+01800,1,99,9","04,5,+02400,1,99,9",,"04,99,1,99,9,99,9,99999,9,99,9,99,9","10119,1,99999,9",,,,,"MET063METAR ETSE 250420Z 25006KT 9999 SCT060 SCT080 16/09 Q1012 BLU/;","P01 024003SCOCIG"
"10869099999","2010-05-25T05:20:00","4","48.322333","11.948667","461.77","ERDING, GM","FM-15","ETSE ","V020","260,1,N,0031,1","99999,9,C,N","011265,1,N,1","+0170,1","+0100,1","99999,9","02,5,+01800,1,99,9","04,5,+02400,1,99,9",,"04,99,1,99,9,99,9,99999,9,99,9,99,9","10129,1,99999,9",,,,,"MET067METAR ETSE 250520Z 26006KT 9999 FEW060 SCT080 17/10 Q1013 BLU/BLU/;","P01 024003SCOCIG"
"10869099999","2010-05-25T06:20:00","4","48.322333","11.948667","461.77","ERDING, GM","FM-15","ETSE ","V020","260,1,N,0041,1","99999,9,C,N","011265,1,N,1","+0190,1","+0110,1","99999,9","02,5,+01500,1,99,9","04,5,+02400,1,99,9",,"04,99,1,99,9,99,9,99999,9,99,9,99,9","10129,1,99999,9",,,,,"MET067METAR ETSE 250620Z 26008KT 9999 FEW050 SCT080 19/11 Q1013 BLU/BLU/;","P01 024003SCOCIG"
"10869099999","2010-05-25T07:20:00","4","48.322333","11.948667","461.77","ERDING, GM","FM-15","ETSE ","V020","270,1,N,0041,1","99999,9,C,N","011265,1,N,1","+0200,1","+0120,1","99999,9","02,5,+01500,1,99,9","04,5,+02700,1,99,9",,"04,99,1,99,9,99,9,99999,9,99,9,99,9","10129,1,99999,9",,,,,"MET067METAR ETSE 250720Z 27008KT 9999 FEW050 SCT090 20/12 Q1013 BLU/BLU/;","P01 027003SCOCIG"
"10869099999","2010-05-25T08:20:00","4","48.322333","11.948667","461.77","ERDING, GM","FM-15","ETSE ","V020","270,1,N,0041,1","22000,1,9,N","011265,1,N,1","+0210,1","+0120,1","99999,9","02,5,+01500,1,99,9",,,"02,99,1,99,9,99,9,99999,9,99,9,99,9","10129,1,99999,9",,,,,"MET060METAR ETSE 250820Z 27008KT 9999 FEW050 21/12 Q1013 BLU/BLU/;",
"10869099999","2010-05-25T09:20:00","4","48.322333","11.948667","461.77","ERDING, GM","FM-15","ETSE ","V020","280,1,N,0051,1","22000,1,9,N","011265,1,N,1","+0220,1","+0130,1","99999,9","02,5,+01500,1,99,9",,,"02,99,1,99,9,99,9,99999,9,99,9,99,9","10129,1,99999,9",,,,,"MET060METAR ETSE 250920Z 28010KT 9999 FEW050 22/13 Q1013 BLU/BLU/;",
"10869099999","2010-05-25T10:20:00","4","48.322333","11.948667","461.77","ERDING, GM","FM-15","ETSE ","V020","280,1,N,0057,1","22000,1,9,N","011265,1,N,1","+0230,1","+0120,1","99999,9","02,5,+01500,1,99,9",,,"02,99,1,99,9,99,9,99999,9,99,9,99,9","10119,1,99999,9",,,,,"MET060METAR ETSE 251020Z 28011KT 9999 FEW050 23/12 Q1012 BLU/BLU/;",
"10869099999","2010-05-25T11:20:00","4","48.322333","11.948667","461.77","ERDING, GM","FM-15","ETSE ","V020","280,1,N,0051,1","22000,1,9,N","011265,1,N,1","+0240,1","+0110,1","99999,9","02,5,+01650,5,99,9",,,"02,99,1,99,9,99,9,99999,9,99,9,99,9","10119,1,99999,9",,,,,"MET060METAR ETSE 251120Z 28010KT 9999 FEW055 24/11 Q1012 BLU/BLU/;",
"10869099999","2010-05-25T12:20:00","4","48.322333","11.948667","461.77","ERDING, GM","FM-15","ETSE ","V020","310,1,N,0051,1","22000,1,9,N","011265,1,N,1","+0240,1","+0110,1","99999,9","02,5,+01800,1,99,9",,,"02,99,1,99,9,99,9,99999,9,99,9,99,9","10108,1,99999,9",,,,,"MET070METAR ETSE 251220Z 31010KT 9999 FEW060 24/11 Q1011 BLU/BLU/ TEMPO BLU;",
"10869099999","2010-05-25T13:20:00","4","48.322333","11.948667","461.77","ERDING, GM","FM-15","ETSE ","V020","280,1,N,0051,1","22000,1,9,N","011265,1,N,1","+0250,1","+0120,1","99999,9","02,5,+01800,1,99,9",,,"02,99,1,99,9,99,9,99999,9,99,9,99,9","10108,1,99999,9",,,,,"MET070METAR ETSE 251320Z 28010KT 9999 FEW060 25/12 Q1011 BLU/BLU/ TEMPO BLU;",
"10869099999","2010-05-25T14:20:00","4","48.322333","11.948667","461.77","ERDING, GM","FM-15","ETSE ","V020","280,1,N,0041,1","99999,9,C,N","011265,1,N,1","+0240,1","+0100,1","99999,9","02,5,+01800,1,99,9","04,5,+03000,1,99,9",,"04,99,1,99,9,99,9,99999,9,99,9,99,9","10102,1,99999,9",,,,,"MET077METAR ETSE 251420Z 28008KT 9999 FEW060 SCT100 24/10 Q1010 BLU/BLU/ TEMPO BLU;","P01 030003SCOCIG"
"10869099999","2010-05-25T15:20:00","4","48.322333","11.948667","461.77","ERDING, GM","FM-15","ETSE ","V020","280,1,N,0036,1","99999,9,C,N","011265,1,N,1","+0250,1","+0110,1","99999,9","02,5,+01800,1,99,9","04,5,+03000,1,99,9",,"04,99,1,99,9,99,9,99999,9,99,9,99,9","10102,1,99999,9",,,,,"MET077METAR ETSE 251520Z 28007KT 9999 FEW060 SCT100 25/11 Q1010 BLU/BLU/ TEMPO BLU;","P01 030003SCOCIG"
"10869099999","2010-05-25T16:10:00","4","48.322333","11.948667","461.77","ERDING, GM","FM-16","ETSE ","V020","290,1,N,0036,1","99999,9,C,N","011265,1,N,1","+0230,1","+0110,1","99999,9","04,5,+01500,1,09,1","04,5,+03000,1,99,9",,"04,99,1,99,9,99,9,99999,9,99,9,99,9","10102,1,99999,9",,,,,"MET076SPECI ETSE 251610Z 29007KT 9999 SCT050CB SCT100 23/11 Q1010 BLU/FCST CANCEL;","P01 030003SCOCIG"
"10869099999","2010-05-26T05:20:00","4","48.322333","11.948667","461.77","ERDING, GM","FM-15","ETSE ","V020","220,1,N,0015,1","03300,1,C,N","011265,1,N,1","+0150,1","+0120,1","99999,9","02,5,+01200,1,99,9","07,5,+03300,1,99,9",,"07,99,1,99,9,99,9,99999,9,99,9,99,9","10091,1,99999,9",,,,,"MET062METAR ETSE 260520Z 22003KT 9999 FEW040 BKN110 15/12 Q1009 BLU;",
"10869099999","2010-05-26T06:20:00","4","48.322333","11.948667","461.77","ERDING, GM","FM-15","ETSE ","V020","240,1,N,0026,1","01320,1,C,N","011265,1,N,1","+0150,1","+0130,1","99999,9","02,5,+00930,1,99,9","04,5,+01320,1,99,9","07,5,+02700,1,99,9","07,99,1,99,9,99,9,99999,9,99,9,99,9","10091,1,99999,9",,,,,"MET069METAR ETSE 260620Z 24005KT 9999 FEW031 SCT044 BKN090 15/13 Q1009 BLU;",
"10869099999","2010-05-26T07:20:00","4","48.322333","11.948667","461.77","ERDING, GM","FM-15","ETSE ","V020","300,1,N,0021,1","01500,1,C,N","011265,1,N,1","+0160,1","+0140,1","99999,9","02,5,+00990,1,99,9","07,5,+01500,1,99,9","07,5,+02400,1,99,9","07,99,1,99,9,99,9,99999,9,99,9,99,9","10102,1,99999,9",,,,,"MET073METAR ETSE 260720Z 30004KT 9999 FEW033 BKN050 BKN080 16/14 Q1010 BLU BLU;",
"10869099999","2010-05-26T08:20:00","4","48.322333","11.948667","461.77","ERDING, GM","FM-15","ETSE ","V020","010,1,N,0031,1","01200,1,C,N","011265,1,N,1","+0160,1","+0140,1","99999,9","02,5,+00900,1,99,9","07,5,+01200,1,99,9",,"07,99,1,99,9,99,9,99999,9,99,9,99,9","10102,1,99999,9",,,,,"MET066METAR ETSE 260820Z 01006KT 9999 FEW030 BKN040 16/14 Q1010 BLU BLU;",
"10869099999","2010-05-26T09:20:00","4","48.322333","11.948667","461.77","ERDING, GM","FM-15","ETSE ","V020","020,1,N,0015,1","01500,1,C,N","011265,1,N,1","+0170,1","+0140,1","99999,9","02,5,+00750,1,99,9","07,5,+01500,1,99,9",,"07,99,1,99,9,99,9,99999,9,99,9,99,9","10102,1,99999,9",,,,,"MET066METAR ETSE 260920Z 02003KT 9999 FEW025 BKN050 17/14 Q1010 BLU BLU;",
"10869099999","2010-05-26T10:20:00","4","48.322333","11.948667","461.77","ERDING, GM","FM-15","ETSE ","V020","999,9,V,0010,1","02700,1,C,N","011265,1,N,1","+0180,1","+0140,1","99999,9","02,5,+00750,1,99,9","07,5,+02700,1,99,9",,"07,99,1,99,9,99,9,99999,9,99,9,99,9","10102,1,99999,9",,,,,"MET066METAR ETSE 261020Z VRB02KT 9999 FEW025 BKN090 18/14 Q1010 BLU BLU;",
"10869099999","2010-05-26T11:20:00","4","48.322333","11.948667","461.77","ERDING, GM","FM-15","ETSE ","V020","310,1,N,0026,1","99999,9,C,N","011265,1,N,1","+0200,1","+0130,1","99999,9","04,5,+00870,1,99,9","04,5,+02400,1,99,9",,"04,99,1,99,9,99,9,99999,9,99,9,99,9","10102,1,99999,9",,,,,"MET066METAR ETSE 261120Z 31005KT 9999 SCT029 SCT080 20/13 Q1010 BLU/BLU;","P01 024003SCOCIG"
"10869099999","2010-05-26T12:20:00","4","48.322333","11.948667","461.77","ERDING, GM","FM-15","ETSE ","V020","290,1,N,0021,1","99999,9,C,N","011265,1,N,1","+0210,1","+0130,1","99999,9","04,5,+01050,1,99,9","04,5,+03000,1,99,9",,"04,99,1,99,9,99,9,99999,9,99,9,99,9","10091,1,99999,9",,,,,"MET066METAR ETSE 261220Z 29004KT 9999 SCT035 SCT100 21/13 Q1009 BLU/BLU;","P01 030003SCOCIG"
"10869099999","2010-05-26T13:20:00","4","48.322333","11.948667","461.77","ERDING, GM","FM-15","ETSE ","V020","290,1,N,0031,1","99999,9,C,N","011265,1,N,1","+0220,1","+0120,1","99999,9","02,5,+01260,1,99,9","04,5,+03300,1,99,9",,"04,99,1,99,9,99,9,99999,9,99,9,99,9","10081,1,99999,9",,,,,"MET074METAR ETSE 261320Z 29006KT 9999 FEW042 SCT110 22/12 Q1008 BLU/FCST CANCEL;","P01 033003SCOCIG"
"10869099999","2010-05-27T04:20:00","4","48.322333","11.948667","461.77","ERDING, GM","FM-15","ETSE ","V020","210,1,N,0026,1","01800,1,C,N","011265,1,N,1","+0140,1","+0120,1","99999,9","02,5,+00870,1,99,9","04,5,+01800,1,99,9","07,5,+02400,1,99,9","07,99,1,99,9,99,9,99999,9,99,9,99,9","10081,1,99999,9",,,,,"MET083METAR ETSE 270420Z 21005KT 9999 FEW029 SCT060 BKN080 14/12 Q1008 BLU BLU TEMPO WHT;",
"10869099999","2010-05-27T05:20:00","4","48.322333","11.948667","461.77","ERDING, GM","FM-15","ETSE ","V020","220,1,N,0026,1","01500,1,C,N","011265,1,N,1","+0140,1","+0120,1","99999,9","02,5,+00840,1,99,9","04,5,+01650,5,99,9","07,5,+02400,1,99,9","07,99,1,99,9,99,9,99999,9,99,9,99,9","10091,1,99999,9",,,,,"MET083METAR ETSE 270520Z 22005KT 9999 FEW028 SCT055 BKN080 14/12 Q1009 BLU BLU TEMPO WHT;",
"10869099999","2010-05-27T06:20:00","4","48.322333","11.948667","461.77","ERDING, GM","FM-15","ETSE ","V020","250,1,N,0031,1","01800,1,C,N","011265,1,N,1","+0150,1","+0120,1","99999,9","02,5,+00840,1,99,9","04,5,+01950,5,99,9","07,5,+02700,1,99,9","07,99,1,99,9,99,9,99999,9,99,9,99,9","10091,1,99999,9",,,,,"MET083METAR ETSE 270620Z 25006KT 9999 FEW028 SCT065 BKN090 15/12 Q1009 BLU BLU TEMPO WHT;",
"10869099999","2010-05-27T07:20:00","4","48.322333","11.948667","461.77","ERDING, GM","FM-15","ETSE ","V020","230,1,N,0026,1","01800,1,C,N","011265,1,N,1","+0150,1","+0120,1","99999,9","02,5,+00900,1,99,9","04,5,+01800,1,99,9","07,5,+02550,5,99,9","07,99,1,99,9,99,9,99999,9,99,9,99,9","10102,1,99999,9",,,,,"MET083METAR ETSE 270720Z 23005KT 9999 FEW030 SCT060 BKN085 15/12 Q1010 BLU BLU TEMPO WHT;",
"10869099999","2010-05-27T08:20:00","4","48.322333","11.948667","461.77","ERDING, GM","FM-15","ETSE ","V020","240,1,N,0046,1","00900,1,C,N","011265,1,N,1","+0150,1","+0120,1","99999,9","02,5,+00600,1,99,9","04,5,+00900,1,99,9","07,5,+02100,1,99,9","07,99,1,99,9,99,9,99999,9,99,9,99,9","10102,1,99999,9",,,,,"MET083METAR ETSE 270820Z 24009KT 9999 FEW020 SCT030 BKN070 15/12 Q1010 BLU BLU TEMPO WHT;",
"10869099999","2010-05-27T09:20:00","4","48.322333","11.948667","461.77","ERDING, GM","FM-15","ETSE ","V020","240,1,N,0041,1","01050,1,C,N","011265,1,N,1","+0150,1","+0120,1","99999,9","04,5,+00510,1,99,9","07,5,+01050,1,99,9","07,5,+02100,1,99,9","07,99,1,99,9,99,9,99999,9,99,9,99,9","10102,1,99999,9","61,1",,,,"MET087METAR ETSE 270920Z 24008KT 9999 -RA SCT017 BKN035 BKN070 15/12 Q1010 BLU BLU TEMPO WHT;",
"10869099999","2010-05-27T10:20:00","4","48.322333","11.948667","461.77","ERDING, GM","FM-15","ETSE ","V020","260,1,N,0036,1","01320,1,C,N","011265,1,N,1","+0160,1","+0120,1","99999,9","04,5,+00570,1,99,9","07,5,+01320,1,99,9","07,5,+02100,1,99,9","07,99,1,99,9,99,9,99999,9,99,9,99,9","10102,1,99999,9","61,1",,,,"MET087METAR ETSE 271020Z 26007KT 9999 -RA SCT019 BKN044 BKN070 16/12 Q1010 BLU BLU TEMPO WHT;",
"10869099999","2010-05-27T11:20:00","4","48.322333","11.948667","461.77","ERDING, GM","FM-15","ETSE ","V020","310,1,N,0031,1","00630,1,C,N","004000,1,N,1","+0150,1","+0120,1","99999,9","04,5,+00390,1,99,9","07,5,+00630,1,09,5","07,5,+01200,1,99,9","07,99,1,99,9,99,9,99999,9,99,9,99,9","10102,1,99999,9","10,1","82,1",,,"MET094METAR ETSE 271120Z 31006KT 4000 +SHRA BR SCT013 BKN021CB BKN040 15/12 Q1010 GRN BLU TEMPO WHT;",
"10869099999","2010-05-27T11:42:00","4","48.322333","11.948667","461.77","ERDING, GM","FM-16","ETSE ","V020","300,1,N,0046,1","00660,1,C,N","006000,1,N,1","+0130,1","+0120,1","99999,9","02,5,+00330,1,99,9","07,5,+00660,1,09,5","07,5,+01200,1,99,9","07,99,1,99,9,99,9,99999,9,99,9,99,9","10102,1,99999,9","80,1",,,,"MET096SPECI ETSE 271142Z 30009KT 6000 -SHRA FEW011 BKN022CB BKN040 13/12 Q1010 RERA WHT BLU TEMPO GRN;",
"10869099999","2010-05-27T12:20:00","4","48.322333","11.948667","461.77","ERDING, GM","FM-15","ETSE ","V020","280,1,N,0026,1","00690,1,C,N","011265,1,N,1","+0140,1","+0120,1","99999,9","02,5,+00450,1,99,9","04,5,+00690,1,02,5","07,5,+01800,1,99,9","07,99,1,99,9,99,9,99999,9,99,9,99,9","10102,1,99999,9","80,1",,,,"MET092METAR ETSE 271220Z 28005KT 9999 -SHRA FEW015 SCT023TCU BKN060 14/12 Q1010 BLU BLU TEMPO GRN;",
"10869099999","2010-05-27T13:20:00","4","48.322333","11.948667","461.77","ERDING, GM","FM-15","ETSE ","V020","260,1,N,0021,1","00750,1,C,N","011265,1,N,1","+0150,1","+0120,1","99999,9","04,5,+00450,1,99,9","04,5,+00750,1,02,5","07,5,+01800,1,99,9","07,99,1,99,9,99,9,99999,9,99,9,99,9","10102,1,99999,9","80,1",,,,"MET092METAR ETSE 271320Z 26004KT 9999 -SHRA SCT015 SCT025TCU BKN060 15/12 Q1010 BLU BLU TEMPO WHT;",
"10869099999","2010-05-27T14:20:00","4","48.322333","11.948667","461.77","ERDING, GM","FM-15","ETSE ","V020","999,9,V,0010,1","00840,1,C,N","011265,1,N,1","+0150,1","+0120,1","99999,9","02,5,+00540,1,99,9","04,5,+00840,1,99,9","07,5,+02100,1,99,9","07,99,1,99,9,99,9,99999,9,99,9,99,9","10108,1,99999,9",,,,,"MET083METAR ETSE 271420Z VRB02KT 9999 FEW018 SCT028 BKN070 15/12 Q1011 BLU BLU TEMPO WHT;",
"10869099999","2010-05-27T15:00:00","4","48.322333","11.948667","461.77","ERDING, GM","FM-16","ETSE ","V020","200,1,N,0021,1","00840,1,C,N","011265,1,N,1","+0150,1","+0130,1","99999,9","02,5,+00540,1,99,9","04,5,+00840,1,99,9","07,5,+02100,1,99,9","07,99,1,99,9,99,9,99999,9,99,9,99,9","10108,1,99999,9",,,,,"MET081SPECI ETSE 271500Z 20004KT 9999 FEW018 SCT028 BKN070 15/13 Q1011 BLU FCST CANCEL;",
"10869099999","2010-05-28T05:20:00","4","48.322333","11.948667","461.77","ERDING, GM","FM-15","ETSE ","V020","200,1,N,0021,1","06300,1,C,N","011265,1,N,1","+0120,1","+0100,1","99999,9","02,5,+02700,1,99,9","07,5,+06300,1,99,9",,"07,99,1,99,9,99,9,99999,9,99,9,99,9","10129,1,99999,9",,,,,"MET067METAR ETSE 280520Z 20004KT 9999 FEW090 BKN210 12/10 Q1013 BLU/BLU/;",
"10869099999","2010-05-28T06:20:00","4","48.322333","11.948667","461.77","ERDING, GM","FM-15","ETSE ","V020","180,1,N,0021,1","06600,1,C,N","011265,1,N,1","+0140,1","+0110,1","99999,9","02,5,+02700,1,99,9","07,5,+06600,1,99,9",,"07,99,1,99,9,99,9,99999,9,99,9,99,9","10129,1,99999,9",,,,,"MET067METAR ETSE 280620Z 18004KT 9999 FEW090 BKN220 14/11 Q1013 BLU/BLU/;",
"10869099999","2010-05-28T07:20:00","4","48.322333","11.948667","461.77","ERDING, GM","FM-15","ETSE ","V020","230,1,N,0015,1","06600,1,C,N","011265,1,N,1","+0170,1","+0120,1","99999,9","02,5,+02700,1,99,9","07,5,+06600,1,99,9",,"07,99,1,99,9,99,9,99999,9,99,9,99,9","10129,1,99999,9",,,,,"MET067METAR ETSE 280720Z 23003KT 9999 FEW090 BKN220 17/12 Q1013 BLU/BLU/;",
"10869099999","2010-05-28T08:00:00","4","48.322333","11.948667","461.77","ERDING, GM","FM-16","ETSE ","V020","260,1,N,0021,1","06600,1,C,N","011265,1,N,1","+0180,1","+0110,1","99999,9","02,5,+00660,1,99,9","07,5,+06600,1,99,9",,"07,99,1,99,9,99,9,99999,9,99,9,99,9","10139,1,99999,9",,,,,"MET074SPECI ETSE 280800Z 26004KT 9999 FEW022 BKN220 18/11 Q1014 BLU/FCST CANCEL;",
"10869099999","2010-05-31T05:20:00","4","48.322333","11.948667","461.77","ERDING, GM","FM-15","ETSE ","V020","270,1,N,0041,1","02400,1,C,N","011265,1,N,1","+0080,1","+0050,1","99999,9","02,5,+00420,1,99,9","07,5,+02400,1,99,9",,"07,99,1,99,9,99,9,99999,9,99,9,99,9","10119,1,99999,9",,,,,"MET062METAR ETSE 310520Z 27008KT 9999 FEW014 BKN080 08/05 Q1012 BLU;",
"10869099999","2010-05-31T06:20:00","4","48.322333","11.948667","461.77","ERDING, GM","FM-15","ETSE ","V020","250,1,N,0046,1","00780,1,C,N","011265,1,N,1","+0080,1","+0050,1","99999,9","02,5,+00450,1,99,9","04,5,+00780,1,99,9","07,5,+01800,1,99,9","07,99,1,99,9,99,9,99999,9,99,9,99,9","10119,1,99999,9",,,,,"MET069METAR ETSE 310620Z 25009KT 9999 FEW015 SCT026 BKN060 08/05 Q1012 BLU;",
"10869099999","2010-05-31T07:20:00","4","48.322333","11.948667","461.77","ERDING, GM","FM-15","ETSE ","V020","250,1,N,0046,1","00750,1,C,N","009000,1,N,1","+0060,1","+0040,1","99999,9","02,5,+00450,1,99,9","07,5,+00750,1,99,9","07,5,+01500,1,99,9","07,99,1,99,9,99,9,99999,9,99,9,99,9","10119,1,99999,9","63,1",,,,"MET072METAR ETSE 310720Z 25009KT 9000 RA FEW015 BKN025 BKN050 06/04 Q1012 BLU;",
"10869099999","2010-05-31T08:20:00","4","48.322333","11.948667","461.77","ERDING, GM","FM-15","ETSE ","V020","250,1,N,0046,1","00840,1,C,N","009000,1,N,1","+0080,1","+0050,1","99999,9","04,5,+00390,1,99,9","07,5,+00840,1,99,9",,"07,99,1,99,9,99,9,99999,9,99,9,99,9","10119,1,99999,9","61,1",,,,"MET071METAR ETSE 310820Z 25009KT 9000 -RA SCT013 BKN028 08/05 Q1012 RERA BLU;",
"10869099999","2010-05-31T09:20:00","4","48.322333","11.948667","461.77","ERDING, GM","FM-15","ETSE ","V020","270,1,N,0041,1","00450,1,C,N","011265,1,N,1","+0080,1","+0060,1","99999,9","02,5,+00300,1,99,9","04,5,+00450,1,99,9","07,5,+00780,1,99,9","07,99,1,99,9,99,9,99999,9,99,9,99,9","10119,1,99999,9","61,1",,,,"MET073METAR ETSE 310920Z 27008KT 9999 -RA FEW010 SCT015 BKN026 08/06 Q1012 BLU;",
"10869099999","2010-05-31T10:20:00","4","48.322333","11.948667","461.77","ERDING, GM","FM-15","ETSE ","V020","270,1,N,0051,1","00540,1,C,N","011265,1,N,1","+0080,1","+0060,1","99999,9","02,5,+00300,1,99,9","04,5,+00540,1,02,5","07,5,+00960,1,99,9","07,99,1,99,9,99,9,99999,9,99,9,99,9","10119,1,99999,9","61,1",,,,"MET076METAR ETSE 311020Z 27010KT 9999 -RA FEW010 SCT018TCU BKN032 08/06 Q1012 BLU;",
"10869099999","2010-05-31T11:20:00","4","48.322333","11.948667","461.77","ERDING, GM","FM-15","ETSE ","V020","350,1,N,0026,1","00510,1,C,N","011265,1,N,1","+0070,1","+0050,1","99999,9","04,5,+00240,1,99,9","07,5,+00510,1,02,5","07,5,+00930,1,99,9","07,99,1,99,9,99,9,99999,9,99,9,99,9","10129,1,99999,9","81,1",,,,"MET077METAR ETSE 311120Z 35005KT 9999 SHRA SCT008 BKN017TCU BKN031 07/05 Q1013 WHT;",
"10869099999","2010-05-31T12:20:00","4","48.322333","11.948667","461.77","ERDING, GM","FM-15","ETSE ","V020","300,1,N,0072,1","00540,1,C,N","011265,1,N,1","+0100,1","+0070,1","99999,9","02,5,+00330,1,99,9","04,5,+00540,1,02,5","07,5,+01500,1,99,9","07,99,1,99,9,99,9,99999,9,99,9,99,9","10119,1,99999,9",,,,,"MET077METAR ETSE 311220Z 30014KT 9999 FEW011 SCT018TCU BKN050 10/07 Q1012 RERA BLU;",
"10869099999","2010-05-31T13:20:00","4","48.322333","11.948667","461.77","ERDING, GM","FM-15","ETSE ","V020","290,1,N,0067,1","00540,1,C,N","011265,1,N,1","+0100,1","+0070,1","99999,9","02,5,+00300,1,99,9","07,5,+00540,1,02,5","07,5,+01200,1,99,9","07,99,1,99,9,99,9,99999,9,99,9,99,9","10129,1,99999,9","81,1",,,,"MET077METAR ETSE 311320Z 29013KT 9999 SHRA FEW010 BKN018TCU BKN040 10/07 Q1013 WHT;",
"10869099999","2010-06-01T05:20:00","4","48.322333","11.948667","461.77","ERDING, GM","FM-15","ETSE ","V020","280,1,N,0041,1","00180,1,C,N","009000,1,N,1","+0090,1","+0090,1","99999,9","07,5,+00180,1,99,9","07,5,+00450,1,99,9",,"07,99,1,99,9,99,9,99999,9,99,9,99,9","10139,1,99999,9","51,1","61,1",,,"MET068METAR ETSE 010520Z 28008KT 9000 -RADZ BKN006 BKN015 09/09 Q1014 YLO;",
"10869099999","2010-06-01T06:20:00","4","48.322333","11.948667","461.77","ERDING, GM","FM-15","ETSE ","V020","290,1,N,0046,1","00570,1,C,N","011265,1,N,1","+0100,1","+0090,1","99999,9","04,5,+00240,1,99,9","07,5,+00570,1,99,9","07,5,+00900,1,99,9","07,99,1,99,9,99,9,99999,9,99,9,99,9","10139,1,99999,9",,,,,"MET069METAR ETSE 010620Z 29009KT 9999 SCT008 BKN019 BKN030 10/09 Q1014 WHT;",
"10869099999","2010-06-01T07:20:00","4","48.322333","11.948667","461.77","ERDING, GM","FM-15","ETSE ","V020","270,1,N,0041,1","00570,1,C,N","011265,1,N,1","+0100,1","+0090,1","99999,9","02,5,+00300,1,99,9","04,5,+00570,1,99,9","07,5,+00900,1,99,9","07,99,1,99,9,99,9,99999,9,99,9,99,9","10149,1,99999,9",,,,,"MET069METAR ETSE 010720Z 27008KT 9999 FEW010 SCT019 BKN030 10/09 Q1015 BLU;",
"10869099999","2010-06-01T08:20:00","4","48.322333","11.948667","461.77","ERDING, GM","FM-15","ETSE ","V020","290,1,N,0046,1","00480,1,C,N","011265,1,N,1","+0100,1","+0090,1","99999,9","02,5,+00300,1,99,9","04,5,+00480,1,99,9","07,5,+01050,1,99,9","07,99,1,99,9,99,9,99999,9,99,9,99,9","10149,1,99999,9","61,1",,,,"MET073METAR ETSE 010820Z 29009KT 9999 -RA FEW010 SCT016 BKN035 10/09 Q1015 BLU;",
"10869099999","2010-06-01T09:20:00","4","48.322333","11.948667","461.77","ERDING, GM","FM-15","ETSE ","V020","290,1,N,0051,1","00450,1,C,N","011265,1,N,1","+0110,1","+0090,1","99999,9","02,5,+00300,1,99,9","07,5,+00450,1,99,9","07,5,+01050,1,99,9","07,99,1,99,9,99,9,99999,9,99,9,99,9","10149,1,99999,9","61,1",,,,"MET073METAR ETSE 010920Z 29010KT 9999 -RA FEW010 BKN015 BKN035 11/09 Q1015 WHT;",
"10869099999","2010-06-01T10:20:00","4","48.322333","11.948667","461.77","ERDING, GM","FM-15","ETSE ","V020","290,1,N,0046,1","00540,1,C,N","011265,1,N,1","+0110,1","+0090,1","99999,9","02,5,+00300,1,99,9","07,5,+00540,1,99,9","07,5,+01050,1,99,9","07,99,1,99,9,99,9,99999,9,99,9,99,9","10149,1,99999,9","61,1",,,,"MET073METAR ETSE 011020Z 29009KT 9999 -RA FEW010 BKN018 BKN035 11/09 Q1015 WHT;",
"10869099999","2010-06-01T11:20:00","4","48.322333","11.948667","461.77","ERDING, GM","FM-15","ETSE ","V020","290,1,N,0036,1","00540,1,C,N","011265,1,N,1","+0110,1","+0090,1","99999,9","02,5,+00300,1,99,9","07,5,+00540,1,99,9","07,5,+01080,1,99,9","07,99,1,99,9,99,9,99999,9,99,9,99,9","10139,1,99999,9","61,1",,,,"MET073METAR ETSE 011120Z 29007KT 9999 -RA FEW010 BKN018 BKN036 11/09 Q1014 WHT;",
"10869099999","2010-06-01T12:20:00","4","48.322333","11.948667","461.77","ERDING, GM","FM-15","ETSE ","V020","270,1,N,0041,1","00540,1,C,N","011265,1,N,1","+0120,1","+0090,1","99999,9","02,5,+00300,1,99,9","04,5,+00540,1,99,9","07,5,+01440,1,99,9","07,99,1,99,9,99,9,99999,9,99,9,99,9","10129,1,99999,9","61,1",,,,"MET073METAR ETSE 011220Z 27008KT 9999 -RA FEW010 SCT018 BKN048 12/09 Q1013 BLU;",
"10869099999","2010-06-01T13:20:00","4","48.322333","11.948667","461.77","ERDING, GM","FM-15","ETSE ","V020","260,1,N,0041,1","01350,1,C,N","011265,1,N,1","+0120,1","+0090,1","99999,9","02,5,+00600,1,99,9","04,5,+01350,1,99,9","07,5,+01950,5,99,9","07,99,1,99,9,99,9,99999,9,99,9,99,9","10129,1,99999,9",,,,,"MET069METAR ETSE 011320Z 26008KT 9999 FEW020 SCT045 BKN065 12/09 Q1013 BLU;",
"10869099999","2010-06-02T07:20:00","4","48.322333","11.948667","461.77","ERDING, GM","FM-15","ETSE ","V020","280,1,N,0036,1","00150,1,C,N","007000,1,N,1","+0100,1","+0100,1","99999,9","07,5,+00150,1,99,9","08,5,+00300,1,99,9",,"08,99,1,99,9,99,9,99999,9,99,9,99,9","10119,1,99999,9","61,1",,,,"MET066METAR ETSE 020720Z 28007KT 7000 -RA BKN005 OVC010 10/10 Q1012 YLO;",
"10869099999","2010-06-02T08:20:00","4","48.322333","11.948667","461.77","ERDING, GM","FM-15","ETSE ","V020","300,1,N,0051,1","00150,1,C,N","007000,1,N,1","+0100,1","+0090,1","99999,9","07,5,+00150,1,99,9","08,5,+00300,1,99,9",,"08,99,1,99,9,99,9,99999,9,99,9,99,9","10119,1,99999,9","51,1",,,,"MET066METAR ETSE 020820Z 30010KT 7000 -DZ BKN005 OVC010 10/09 Q1012 YLO;",
"10869099999","2010-06-02T09:20:00","4","48.322333","11.948667","461.77","ERDING, GM","FM-15","ETSE ","V020","300,1,N,0046,1","00210,1,C,N","009000,1,N,1","+0110,1","+0100,1","99999,9","07,5,+00210,1,99,9","08,5,+00420,1,99,9",,"08,99,1,99,9,99,9,99999,9,99,9,99,9","10119,1,99999,9",,,,,"MET062METAR ETSE 020920Z 30009KT 9000 BKN007 OVC014 11/10 Q1012 GRN;",
"10869099999","2010-06-02T10:20:00","4","48.322333","11.948667","461.77","ERDING, GM","FM-15","ETSE ","V020","310,1,N,0036,1","00210,1,C,N","009000,1,N,1","+0110,1","+0100,1","99999,9","07,5,+00210,1,99,9","08,5,+00390,1,99,9",,"08,99,1,99,9,99,9,99999,9,99,9,99,9","10129,1,99999,9","51,1",,,,"MET066METAR ETSE 021020Z 31007KT 9000 -DZ BKN007 OVC013 11/10 Q1013 GRN;",
"10869099999","2010-06-02T11:20:00","4","48.322333","11.948667","461.77","ERDING, GM","FM-15","ETSE ","V020","300,1,N,0041,1","00180,1,C,N","004500,1,N,1","+0110,1","+0100,1","99999,9","07,5,+00180,1,99,9","08,5,+00360,1,99,9",,"08,99,1,99,9,99,9,99999,9,99,9,99,9","10129,1,99999,9","51,1",,,,"MET066METAR ETSE 021120Z 30008KT 4500 -DZ BKN006 OVC012 11/10 Q1013 YLO;",
"10869099999","2010-06-02T12:20:00","4","48.322333","11.948667","461.77","ERDING, GM","FM-15","ETSE ","V020","300,1,N,0046,1","00240,1,C,N","011265,1,N,1","+0110,1","+0100,1","99999,9","07,5,+00240,1,99,9","08,5,+00540,1,99,9",,"08,99,1,99,9,99,9,99999,9,99,9,99,9","10129,1,99999,9",,,,,"MET062METAR ETSE 021220Z 30009KT 9999 BKN008 OVC018 11/10 Q1013 GRN;",
"10869099999","2010-06-07T06:20:00","4","48.322333","11.948667","461.77","ERDING, GM","FM-15","ETSE ","V020","260,1,N,0036,1","01200,1,C,N","011265,1,N,1","+0180,1","+0140,1","99999,9","02,5,+00510,1,99,9","04,5,+01200,1,99,9","07,5,+03300,1,99,9","07,99,1,99,9,99,9,99999,9,99,9,99,9","10149,1,99999,9",,,,,"MET084METAR ETSE 070620Z 26007KT 9999 FEW017 SCT040 BKN110 18/14 Q1015 BLU BLU/ TEMPO BLU;",
"10869099999","2010-06-07T07:20:00","4","48.322333","11.948667","461.77","ERDING, GM","FM-15","ETSE ","V020","260,1,N,0031,1","01800,1,C,N","011265,1,N,1","+0180,1","+0140,1","99999,9","02,5,+00600,1,99,9","07,5,+01800,1,99,9",,"07,99,1,99,9,99,9,99999,9,99,9,99,9","10149,1,99999,9",,,,,"MET077METAR ETSE 070720Z 26006KT 9999 FEW020 BKN060 18/14 Q1015 BLU BLU/ TEMPO BLU;",
"10869099999","2010-06-07T08:20:00","4","48.322333","11.948667","461.77","ERDING, GM","FM-15","ETSE ","V020","280,1,N,0041,1","01800,1,C,N","011265,1,N,1","+0190,1","+0150,1","99999,9","04,5,+00600,1,99,9","07,5,+01800,1,99,9",,"07,99,1,99,9,99,9,99999,9,99,9,99,9","10149,1,99999,9",,,,,"MET077METAR ETSE 070820Z 28008KT 9999 SCT020 BKN060 19/15 Q1015 BLU BLU/ TEMPO BLU;",
"10869099999","2010-06-07T09:20:00","4","48.322333","11.948667","461.77","ERDING, GM","FM-15","ETSE ","V020","290,1,N,0041,1","01950,5,C,N","011265,1,N,1","+0200,1","+0150,1","99999,9","02,5,+00600,1,99,9","07,5,+01950,5,99,9",,"07,99,1,99,9,99,9,99999,9,99,9,99,9","10149,1,99999,9",,,,,"MET077METAR ETSE 070920Z 29008KT 9999 FEW020 BKN065 20/15 Q1015 BLU BLU/ TEMPO BLU;",
"10869099999","2010-06-07T10:20:00","4","48.322333","11.948667","461.77","ERDING, GM","FM-15","ETSE ","V020","270,1,N,0026,1","99999,9,C,N","011265,1,N,1","+0210,1","+0150,1","99999,9","04,5,+00750,1,99,9","04,5,+01800,1,99,9",,"04,99,1,99,9,99,9,99999,9,99,9,99,9","10149,1,99999,9",,,,,"MET067METAR ETSE 071020Z 27005KT 9999 SCT025 SCT060 21/15 Q1015 BLU/BLU/;","P01 018003SCOCIG"
"10869099999","2010-06-07T11:20:00","4","48.322333","11.948667","461.77","ERDING, GM","FM-15","ETSE ","V020","310,1,N,0026,1","99999,9,C,N","011265,1,N,1","+0200,1","+0150,1","99999,9","04,5,+00750,1,99,9","04,5,+01800,1,99,9",,"04,99,1,99,9,99,9,99999,9,99,9,99,9","10149,1,99999,9",,,,,"MET067METAR ETSE 071120Z 31005KT 9999 SCT025 SCT060 20/15 Q1015 BLU/BLU/;","P01 018003SCOCIG"
"10869099999","2010-06-07T12:20:00","4","48.322333","11.948667","461.77","ERDING, GM","FM-15","ETSE ","V020","280,1,N,0031,1","99999,9,C,N","011265,1,N,1","+0220,1","+0140,1","99999,9","02,5,+00840,1,99,9","04,5,+02550,5,99,9",,"04,99,1,99,9,99,9,99999,9,99,9,99,9","10139,1,99999,9",,,,,"MET067METAR ETSE 071220Z 28006KT 9999 FEW028 SCT085 22/14 Q1014 BLU/BLU/;","P01 025503SCOCIG"
"10869099999","2010-06-07T13:20:00","4","48.322333","11.948667","461.77","ERDING, GM","FM-15","ETSE ","V020","270,1,N,0026,1","22000,1,9,N","011265,1,N,1","+0230,1","+0140,1","99999,9","02,5,+01110,1,99,9",,,"02,99,1,99,9,99,9,99999,9,99,9,99,9","10129,1,99999,9",,,,,"MET067METAR ETSE 071320Z 27005KT 9999 FEW037 23/14 Q1013 BLU/FCST CANCEL;",
"10869099999","2010-06-08T05:20:00","4","48.322333","11.948667","461.77","ERDING, GM","FM-15","ETSE ","V020","150,1,N,0015,1","99999,9,C,N","000800,1,N,1","+0150,1","+0150,1","99999,9","02,5,+00000,5,99,9","04,5,+02400,1,99,9",,"04,99,1,99,9,99,9,99999,9,99,9,99,9","10108,1,99999,9","44,1",,,,"MET080METAR ETSE 080520Z 15003KT 0800 FG FEW000 SCT080 15/15 Q1011 AMB AMB BECMG BLU/;","P01 024003SCOCIG"
"10869099999","2010-06-08T05:30:00","4","48.322333","11.948667","461.77","ERDING, GM","FM-16","ETSE ","V020","150,1,N,0021,1","99999,9,C,N","002000,1,N,1","+0160,1","+0150,1","99999,9","02,5,+00030,1,99,9","04,5,+02250,5,99,9",,"04,99,1,99,9,99,9,99999,9,99,9,99,9","10108,1,99999,9","10,1",,,,"MET080SPECI ETSE 080530Z 15004KT 2000 BR FEW001 SCT075 16/15 Q1011 YLO YLO BECMG BLU/;","P01 022503SCOCIG"
"10869099999","2010-06-08T05:38:00","4","48.322333","11.948667","461.77","ERDING, GM","FM-16","ETSE ","V020","160,1,N,0021,1","99999,9,C,N","008000,1,N,1","+0170,1","+0160,1","99999,9","02,5,+00030,1,99,9","04,5,+02250,5,99,9",,"04,99,1,99,9,99,9,99999,9,99,9,99,9","10108,1,99999,9",,,,,"MET067SPECI ETSE 080538Z 16004KT 8000 FEW001 SCT075 17/16 Q1011 BLU/BLU/;","P01 022503SCOCIG"
"10869099999","2010-06-08T06:20:00","4","48.322333","11.948667","461.77","ERDING, GM","FM-15","ETSE ","V020","170,1,N,0010,1","22000,1,9,N","011265,1,N,1","+0180,1","+0160,1","99999,9","02,5,+02400,1,99,9",,,"02,99,1,99,9,99,9,99999,9,99,9,99,9","10108,1,99999,9",,,,,"MET060METAR ETSE 080620Z 17002KT 9999 FEW080 18/16 Q1011 BLU/BLU/;",
"10869099999","2010-06-08T07:20:00","4","48.322333","11.948667","461.77","ERDING, GM","FM-15","ETSE ","V020","999,9,V,0010,1","22000,1,9,N","011265,1,N,1","+0200,1","+0160,1","99999,9","02,5,+00450,1,99,9",,,"02,99,1,99,9,99,9,99999,9,99,9,99,9","10108,1,99999,9",,,,,"MET060METAR ETSE 080720Z VRB02KT 9999 FEW015 20/16 Q1011 BLU/BLU/;",
"10869099999","2010-06-08T08:20:00","4","48.322333","11.948667","461.77","ERDING, GM","FM-15","ETSE ","V020","120,1,N,0021,1","22000,1,9,N","011265,1,N,1","+0210,1","+0160,1","99999,9","02,5,+00540,1,99,9",,,"02,99,1,99,9,99,9,99999,9,99,9,99,9","10108,1,99999,9",,,,,"MET060METAR ETSE 080820Z 12004KT 9999 FEW018 21/16 Q1011 BLU/BLU/;",
"10869099999","2010-06-08T09:20:00","4","48.322333","11.948667","461.77","ERDING, GM","FM-15","ETSE ","V020","170,1,N,0015,1","22000,1,9,N","011265,1,N,1","+0220,1","+0160,1","99999,9","02,5,+00720,1,99,9",,,"02,99,1,99,9,99,9,99999,9,99,9,99,9","10102,1,99999,9",,,,,"MET060METAR ETSE 080920Z 17003KT 9999 FEW024 22/16 Q1010 BLU/BLU/;",
"10869099999","2010-06-08T10:20:00","4","48.322333","11.948667","461.77","ERDING, GM","FM-15","ETSE ","V020","160,1,N,0015,1","22000,1,9,N","011265,1,N,1","+0240,1","+0160,1","99999,9","02,5,+00840,1,99,9",,,"02,99,1,99,9,99,9,99999,9,99,9,99,9","10102,1,99999,9",,,,,"MET060METAR ETSE 081020Z 16003KT 9999 FEW028 24/16 Q1010 BLU/BLU/;",
"10869099999","2010-06-08T11:20:00","4","48.322333","11.948667","461.77","ERDING, GM","FM-15","ETSE ","V020","120,1,N,0015,1","99999,9,C,N","011265,1,N,1","+0250,1","+0140,1","99999,9","02,5,+01200,1,99,9","04,5,+07200,1,99,9",,"04,99,1,99,9,99,9,99999,9,99,9,99,9","10102,1,99999,9",,,,,"MET067METAR ETSE 081120Z 12003KT 9999 FEW040 SCT240 25/14 Q1010 BLU/BLU/;","P01 072003SCOCIG"
"10869099999","2010-06-08T12:20:00","4","48.322333","11.948667","461.77","ERDING, GM","FM-15","ETSE ","V020","120,1,N,0015,1","07200,1,C,N","011265,1,N,1","+0260,1","+0150,1","99999,9","02,5,+01260,1,99,9","07,5,+07200,1,99,9",,"07,99,1,99,9,99,9,99999,9,99,9,99,9","10091,1,99999,9",,,,,"MET067METAR ETSE 081220Z 12003KT 9999 FEW042 BKN240 26/15 Q1009 BLU/BLU/;",
"10869099999","2010-06-08T13:20:00","4","48.322333","11.948667","461.77","ERDING, GM","FM-15","ETSE ","V020","070,1,N,0026,1","07200,1,C,N","011265,1,N,1","+0260,1","+0150,1","99999,9","02,5,+01350,1,99,9","07,5,+07200,1,99,9",,"07,99,1,99,9,99,9,99999,9,99,9,99,9","10081,1,99999,9",,,,,"MET067METAR ETSE 081320Z 07005KT 9999 FEW045 BKN240 26/15 Q1008 BLU/BLU/;",
"10869099999","2010-06-08T14:20:00","4","48.322333","11.948667","461.77","ERDING, GM","FM-15","ETSE ","V020","050,1,N,0026,1","03000,1,C,N","011265,1,N,1","+0260,1","+0140,1","99999,9","02,5,+01350,1,99,9","04,5,+03000,1,99,9","07,5,+07200,1,99,9","07,99,1,99,9,99,9,99999,9,99,9,99,9","10081,1,99999,9",,,,,"MET081METAR ETSE 081420Z 05005KT 9999 FEW045 SCT100 BKN240 26/14 Q1008 BLU/FCST CANCEL;",
"10869099999","2010-06-09T05:20:00","4","48.322333","11.948667","461.77","ERDING, GM","FM-15","ETSE ","V020","130,1,N,0015,1","22000,1,9,N","011265,1,N,1","+0170,1","+0150,1","99999,9","02,5,+03600,1,99,9",,,"02,99,1,99,9,99,9,99999,9,99,9,99,9","10102,1,99999,9",,,,,"MET056METAR ETSE 090520Z 13003KT 9999 FEW120 17/15 Q1010 BLU/;",
"10869099999","2010-06-09T06:20:00","4","48.322333","11.948667","461.77","ERDING, GM","FM-15","ETSE ","V020","120,1,N,0026,1","22000,1,9,N","011265,1,N,1","+0180,1","+0160,1","99999,9","02,5,+03600,1,99,9",,,"02,99,1,99,9,99,9,99999,9,99,9,99,9","10102,1,99999,9",,,,,"MET056METAR ETSE 090620Z 12005KT 9999 FEW120 18/16 Q1010 BLU/;",
"10869099999","2010-06-09T07:20:00","4","48.322333","11.948667","461.77","ERDING, GM","FM-15","ETSE ","V020","120,1,N,0026,1","22000,1,9,N","011265,1,N,1","+0210,1","+0170,1","99999,9","02,5,+03600,1,99,9",,,"02,99,1,99,9,99,9,99999,9,99,9,99,9","10102,1,99999,9",,,,,"MET060METAR ETSE 090720Z 12005KT 9999 FEW120 21/17 Q1010 BLU/BLU/;",
"10869099999","2010-06-09T08:20:00","4","48.322333","11.948667","461.77","ERDING, GM","FM-15","ETSE ","V020","110,1,N,0036,1","22000,1,9,N","011265,1,N,1","+0220,1","+0180,1","99999,9","02,5,+03600,1,99,9",,,"02,99,1,99,9,99,9,99999,9,99,9,99,9","10102,1,99999,9",,,,,"MET060METAR ETSE 090820Z 11007KT 9999 FEW120 22/18 Q1010 BLU/BLU/;",
"10869099999","2010-06-09T09:20:00","4","48.322333","11.948667","461.77","ERDING, GM","FM-15","ETSE ","V020","120,1,N,0031,1","22000,1,9,N","011265,1,N,1","+0240,1","+0180,1","99999,9","02,5,+00600,1,99,9",,,"02,99,1,99,9,99,9,99999,9,99,9,99,9","10091,1,99999,9",,,,,"MET060METAR ETSE 090920Z 12006KT 9999 FEW020 24/18 Q1009 BLU/BLU/;",
"10869099999","2010-06-09T10:20:00","4","48.322333","11.948667","461.77","ERDING, GM","FM-15","ETSE ","V020","110,1,N,0031,1","22000,1,9,N","011265,1,N,1","+0250,1","+0180,1","99999,9","02,5,+00750,1,99,9",,,"02,99,1,99,9,99,9,99999,9,99,9,99,9","10091,1,99999,9",,,,,"MET060METAR ETSE 091020Z 11006KT 9999 FEW025 25/18 Q1009 BLU/BLU/;",
"10869099999","2010-06-09T11:20:00","4","48.322333","11.948667","461.77","ERDING, GM","FM-15","ETSE ","V020","120,1,N,0036,1","22000,1,9,N","011265,1,N,1","+0260,1","+0180,1","99999,9","02,5,+00900,1,99,9",,,"02,99,1,99,9,99,9,99999,9,99,9,99,9","10091,1,99999,9",,,,,"MET060METAR ETSE 091120Z 12007KT 9999 FEW030 26/18 Q1009 BLU/BLU/;",
"10869099999","2010-06-09T12:20:00","4","48.322333","11.948667","461.77","ERDING, GM","FM-15","ETSE ","V020","130,1,N,0041,1","22000,1,9,N","011265,1,N,1","+0270,1","+0170,1","99999,9","02,5,+01050,1,02,1",,,"02,99,1,99,9,99,9,99999,9,99,9,99,9","10081,1,99999,9",,,,,"MET063METAR ETSE 091220Z 13008KT 9999 FEW035TCU 27/17 Q1008 BLU/BLU/;",
"10869099999","2010-06-09T13:20:00","4","48.322333","11.948667","461.77","ERDING, GM","FM-15","ETSE ","V020","110,1,N,0041,1","22000,1,9,N","011265,1,N,1","+0270,1","+0160,1","99999,9","02,5,+01200,1,02,1",,,"02,99,1,99,9,99,9,99999,9,99,9,99,9","10071,1,99999,9",,,,,"MET063METAR ETSE 091320Z 11008KT 9999 FEW040TCU 27/16 Q1007 BLU/BLU/;",
"10869099999","2010-06-09T14:00:00","4","48.322333","11.948667","461.77","ERDING, GM","FM-16","ETSE ","V020","110,1,N,0036,1","22000,1,9,N","011265,1,N,1","+0280,1","+0160,1","99999,9","02,5,+01350,1,02,1",,,"02,99,1,99,9,99,9,99999,9,99,9,99,9","10071,1,99999,9",,,,,"MET070SPECI ETSE 091400Z 11007KT 9999 FEW045TCU 28/16 Q1007 BLU/FCST CANCEL;",
"10869099999","2010-06-10T05:20:00","4","48.322333","11.948667","461.77","ERDING, GM","FM-15","ETSE ","V020","130,1,N,0010,1","04800,1,C,N","011265,1,N,1","+0190,1","+0140,1","99999,9","02,5,+03600,1,99,9","07,5,+04800,1,99,9",,"07,99,1,99,9,99,9,99999,9,99,9,99,9","10081,1,99999,9",,,,,"MET077METAR ETSE 100520Z 13002KT 9999 FEW120 BKN160 19/14 Q1008 BLU BLU/ TEMPO BLU;",
"10869099999","2010-06-10T06:20:00","4","48.322333","11.948667","461.77","ERDING, GM","FM-15","ETSE ","V020","100,1,N,0015,1","04500,1,C,N","011265,1,N,1","+0220,1","+0170,1","99999,9","07,5,+04500,1,99,9","07,5,+06600,1,99,9",,"07,99,1,99,9,99,9,99999,9,99,9,99,9","10081,1,99999,9",,,,,"MET077METAR ETSE 100620Z 10003KT 9999 BKN150 BKN220 22/17 Q1008 BLU BLU/ TEMPO BLU;",
"10869099999","2010-06-10T07:20:00","4","48.322333","11.948667","461.77","ERDING, GM","FM-15","ETSE ","V020","120,1,N,0026,1","07200,1,C,N","011265,1,N,1","+0220,1","+0170,1","99999,9","04,5,+04800,1,99,9","07,5,+07200,1,99,9",,"07,99,1,99,9,99,9,99999,9,99,9,99,9","10081,1,99999,9",,,,,"MET077METAR ETSE 100720Z 12005KT 9999 SCT160 BKN240 22/17 Q1008 BLU/BLU/ TEMPO BLU;",
"10869099999","2010-06-10T08:20:00","4","48.322333","11.948667","461.77","ERDING, GM","FM-15","ETSE ","V020","110,1,N,0026,1","07200,1,C,N","011265,1,N,1","+0250,1","+0160,1","99999,9","04,5,+04800,1,99,9","07,5,+07200,1,99,9",,"07,99,1,99,9,99,9,99999,9,99,9,99,9","10081,1,99999,9",,,,,"MET077METAR ETSE 100820Z 11005KT 9999 SCT160 BKN240 25/16 Q1008 BLU/BLU/ TEMPO BLU;",
"10869099999","2010-06-10T09:20:00","4","48.322333","11.948667","461.77","ERDING, GM","FM-15","ETSE ","V020","110,1,N,0031,1","07500,1,C,N","011265,1,N,1","+0260,1","+0170,1","99999,9","02,5,+04200,1,99,9","07,5,+07500,1,99,9",,"07,99,1,99,9,99,9,99999,9,99,9,99,9","10081,1,99999,9",,,,,"MET067METAR ETSE 100920Z 11006KT 9999 FEW140 BKN250 26/17 Q1008 BLU/BLU/;",
"10869099999","2010-06-10T10:20:00","4","48.322333","11.948667","461.77","ERDING, GM","FM-15","ETSE ","V020","120,1,N,0031,1","07500,1,C,N","011265,1,N,1","+0280,1","+0180,1","99999,9","02,5,+04200,1,99,9","07,5,+07500,1,99,9",,"07,99,1,99,9,99,9,99999,9,99,9,99,9","10081,1,99999,9",,,,,"MET067METAR ETSE 101020Z 12006KT 9999 FEW140 BKN250 28/18 Q1008 BLU/BLU/;",
"10869099999","2010-06-10T11:20:00","4","48.322333","11.948667","461.77","ERDING, GM","FM-15","ETSE ","V020","100,1,N,0026,1","07200,1,C,N","011265,1,N,1","+0290,1","+0180,1","99999,9","02,5,+04200,1,99,9","07,5,+07200,1,99,9",,"07,99,1,99,9,99,9,99999,9,99,9,99,9","10081,1,99999,9",,,,,"MET067METAR ETSE 101120Z 10005KT 9999 FEW140 BKN240 29/18 Q1008 BLU/BLU/;",
"10869099999","2010-06-10T12:20:00","4","48.322333","11.948667","461.77","ERDING, GM","FM-15","ETSE ","V020","150,1,N,0026,1","07800,1,C,N","011265,1,N,1","+0300,1","+0130,1","99999,9","02,5,+03600,1,99,9","07,5,+07800,1,99,9",,"07,99,1,99,9,99,9,99999,9,99,9,99,9","10081,1,99999,9",,,,,"MET067METAR ETSE 101220Z 15005KT 9999 FEW120 BKN260 30/13 Q1008 BLU/BLU/;",
"10869099999","2010-06-10T13:20:00","4","48.322333","11.948667","461.77","ERDING, GM","FM-15","ETSE ","V020","070,1,N,0026,1","07800,1,C,N","011265,1,N,1","+0300,1","+0190,1","99999,9","02,5,+03600,1,99,9","07,5,+07800,1,99,9",,"07,99,1,99,9,99,9,99999,9,99,9,99,9","10081,1,99999,9",,,,,"MET067METAR ETSE 101320Z 07005KT 9999 FEW120 BKN260 30/19 Q1008 BLU/BLU/;",
"10869099999","2010-06-10T14:20:00","4","48.322333","11.948667","461.77","ERDING, GM","FM-15","ETSE ","V020","080,1,N,0036,1","07800,1,C,N","011265,1,N,1","+0300,1","+0180,1","99999,9","04,5,+04200,1,99,9","07,5,+07800,1,99,9",,"07,99,1,99,9,99,9,99999,9,99,9,99,9","10071,1,99999,9",,,,,"MET074METAR ETSE 101420Z 08007KT 9999 SCT140 BKN260 30/18 Q1007 BLU/FCST CANCEL;",
"10869099999","2010-06-11T05:20:00","4","48.322333","11.948667","461.77","ERDING, GM","FM-15","ETSE ","V020","300,1,N,0021,1","10800,5,C,N","011265,1,N,1","+0200,1","+0160,1","99999,9","02,5,+05700,1,99,9","07,5,+10800,5,99,9",,"07,99,1,99,9,99,9,99999,9,99,9,99,9","10091,1,99999,9",,,,,"MET063METAR ETSE 110520Z 30004KT 9999 FEW190 BKN360 20/16 Q1009 BLU/;",
"10869099999","2010-06-11T06:20:00","4","48.322333","11.948667","461.77","ERDING, GM","FM-15","ETSE ","V020","300,1,N,0031,1","10800,5,C,N","011265,1,N,1","+0200,1","+0160,1","99999,9","02,5,+05700,1,99,9","07,5,+10800,5,99,9",,"07,99,1,99,9,99,9,99999,9,99,9,99,9","10102,1,99999,9",,,,,"MET063METAR ETSE 110620Z 30006KT 9999 FEW190 BKN360 20/16 Q1010 BLU/;",
"10869099999","2010-06-11T07:20:00","4","48.322333","11.948667","461.77","ERDING, GM","FM-15","ETSE ","V020","320,1,N,0031,1","10800,5,C,N","011265,1,N,1","+0210,1","+0160,1","99999,9","02,5,+06000,1,99,9","07,5,+10800,5,99,9",,"07,99,1,99,9,99,9,99999,9,99,9,99,9","10102,1,99999,9",,,,,"MET063METAR ETSE 110720Z 32006KT 9999 FEW200 BKN360 21/16 Q1010 BLU/;",
"10869099999","2010-06-14T05:20:00","4","48.322333","11.948667","461.77","ERDING, GM","FM-15","ETSE ","V020","250,1,N,0015,1","00870,1,C,N","009000,1,N,1","+0140,1","+0130,1","99999,9","02,5,+00300,1,99,9","07,5,+00870,1,99,9","07,5,+01230,1,99,9","07,99,1,99,9,99,9,99999,9,99,9,99,9","10129,1,99999,9","61,1",,,,"MET087METAR ETSE 140520Z 25003KT 9000 -RA FEW010 BKN029 BKN041 14/13 Q1013 BLU BLU TEMPO GRN;",
"10869099999","2010-06-14T06:20:00","4","48.322333","11.948667","461.77","ERDING, GM","FM-15","ETSE ","V020","250,1,N,0010,1","00540,1,C,N","011265,1,N,1","+0150,1","+0140,1","99999,9","02,5,+00180,1,99,9","07,5,+00540,1,99,9",,"07,99,1,99,9,99,9,99999,9,99,9,99,9","10129,1,99999,9","61,1",,,,"MET080METAR ETSE 140620Z 25002KT 9999 -RA FEW006 BKN018 15/14 Q1013 WHT BLU TEMPO GRN;",
"10869099999","2010-06-14T07:20:00","4","48.322333","11.948667","461.77","ERDING, GM","FM-15","ETSE ","V020","999,9,V,0010,1","00300,1,C,N","011265,1,N,1","+0150,1","+0140,1","99999,9","04,5,+00210,1,99,9","07,5,+00300,1,99,9",,"07,99,1,99,9,99,9,99999,9,99,9,99,9","10139,1,99999,9","61,1",,,,"MET080METAR ETSE 140720Z VRB02KT 9999 -RA SCT007 BKN010 15/14 Q1014 GRN WHT TEMPO GRN;",
"10869099999","2010-06-14T08:20:00","4","48.322333","11.948667","461.77","ERDING, GM","FM-15","ETSE ","V020","210,1,N,0015,1","00300,1,C,N","011265,1,N,1","+0160,1","+0140,1","99999,9","02,5,+00210,1,99,9","04,5,+00300,1,99,9","07,5,+00600,1,99,9","07,99,1,99,9,99,9,99999,9,99,9,99,9","10139,1,99999,9","61,1",,,,"MET087METAR ETSE 140820Z 21003KT 9999 -RA FEW007 SCT010 BKN020 16/14 Q1014 WHT WHT TEMPO GRN;",
"10869099999","2010-06-14T08:44:00","4","48.322333","11.948667","461.77","ERDING, GM","FM-16","ETSE ","V020","240,1,N,0015,1","00390,1,C,N","011265,1,N,1","+0160,1","+0140,1","99999,9","04,5,+00210,1,99,9","07,5,+00390,1,99,9","07,5,+00600,1,99,9","07,99,1,99,9,99,9,99999,9,99,9,99,9","10139,1,99999,9","61,1",,,,"MET087SPECI ETSE 140844Z 24003KT 9999 -RA SCT007 BKN013 BKN020 16/14 Q1014 GRN WHT TEMPO GRN;",
"10869099999","2010-06-14T09:20:00","4","48.322333","11.948667","461.77","ERDING, GM","FM-15","ETSE ","V020","290,1,N,0015,1","00390,1,C,N","011265,1,N,1","+0170,1","+0150,1","99999,9","02,5,+00240,1,99,9","07,5,+00390,1,99,9","07,5,+00840,1,99,9","07,99,1,99,9,99,9,99999,9,99,9,99,9","10139,1,99999,9",,,,,"MET083METAR ETSE 140920Z 29003KT 9999 FEW008 BKN013 BKN028 17/15 Q1014 GRN WHT BECMG BLU;",
"10869099999","2010-06-14T10:07:00","4","48.322333","11.948667","461.77","ERDING, GM","FM-16","ETSE ","V020","340,1,N,0026,1","00720,1,C,N","011265,1,N,1","+0170,1","+0140,1","99999,9","04,5,+00300,1,99,9","04,5,+00720,1,99,9","07,5,+03900,1,99,9","07,99,1,99,9,99,9,99999,9,99,9,99,9","10149,1,99999,9",,,,,"MET083SPECI ETSE 141007Z 34005KT 9999 SCT010 SCT024 BKN130 17/14 Q1015 BLU BLU TEMPO WHT;",
"10869099999","2010-06-14T10:20:00","4","48.322333","11.948667","461.77","ERDING, GM","FM-15","ETSE ","V020","340,1,N,0021,1","00780,1,C,N","011265,1,N,1","+0170,1","+0150,1","99999,9","04,5,+00300,1,99,9","04,5,+00780,1,99,9","07,5,+03900,1,99,9","07,99,1,99,9,99,9,99999,9,99,9,99,9","10149,1,99999,9",,,,,"MET083METAR ETSE 141020Z 34004KT 9999 SCT010 SCT026 BKN130 17/15 Q1015 BLU BLU TEMPO WHT;",
"10869099999","2010-06-14T11:20:00","4","48.322333","11.948667","461.77","ERDING, GM","FM-15","ETSE ","V020","030,1,N,0026,1","00540,1,C,N","011265,1,N,1","+0190,1","+0150,1","99999,9","07,5,+00540,1,99,9",,,"07,99,1,99,9,99,9,99999,9,99,9,99,9","10149,1,99999,9",,,,,"MET069METAR ETSE 141120Z 03005KT 9999 BKN018 19/15 Q1015 WHT BLU TEMPO WHT;",
"10869099999","2010-06-14T12:20:00","4","48.322333","11.948667","461.77","ERDING, GM","FM-15","ETSE ","V020","010,1,N,0026,1","99999,9,C,N","011265,1,N,1","+0190,1","+0140,1","99999,9","04,5,+00600,1,99,9","04,5,+01800,1,99,9",,"04,99,1,99,9,99,9,99999,9,99,9,99,9","10139,1,99999,9",,,,,"MET076METAR ETSE 141220Z 01005KT 9999 SCT020 SCT060 19/14 Q1014 BLU/BLU TEMPO WHT;","P01 018003SCOCIG"
"10869099999","2010-06-14T13:20:00","4","48.322333","11.948667","461.77","ERDING, GM","FM-15","ETSE ","V020","330,1,N,0031,1","01800,1,C,N","008000,1,N,1","+0160,1","+0150,1","99999,9","04,5,+00600,1,09,1","07,5,+01800,1,99,9",,"07,99,1,99,9,99,9,99999,9,99,9,99,9","10149,1,99999,9","80,1",,,,"MET089METAR ETSE 141320Z 33006KT 8000 -SHRA SCT020CB BKN060 16/15 Q1015 RERA BLU BLU TEMPO WHT;",
"10869099999","2010-06-14T13:52:00","4","48.322333","11.948667","461.77","ERDING, GM","FM-16","ETSE ","V020","050,1,N,0026,1","01800,1,C,N","011265,1,N,1","+0180,1","+0160,1","99999,9","04,5,+00600,1,09,1","07,5,+01800,1,99,9",,"07,99,1,99,9,99,9,99999,9,99,9,99,9","10149,1,99999,9","17,1",,,,"MET083SPECI ETSE 141352Z 05005KT 9999 VCTS SCT020CB BKN060 18/16 Q1015 BLU BLU TEMPO WHT;",
"10869099999","2010-06-14T14:00:00","4","48.322333","11.948667","461.77","ERDING, GM","FM-16","ETSE ","V020","040,1,N,0026,1","01800,1,C,N","011265,1,N,1","+0180,1","+0150,1","99999,9","04,5,+00600,1,09,1","07,5,+01800,1,99,9",,"07,99,1,99,9,99,9,99999,9,99,9,99,9","10149,1,99999,9","17,1",,,,"MET081SPECI ETSE 141400Z 04005KT 9999 VCTS SCT020CB BKN060 18/15 Q1015 BLU FCST CANCEL;",
"10869099999","2010-06-15T05:20:00","4","48.322333","11.948667","461.77","ERDING, GM","FM-15","ETSE ","V020","100,1,N,0041,1","05400,1,C,N","011265,1,N,1","+0140,1","+0130,1","99999,9","02,5,+00240,1,99,9","07,5,+05400,1,99,9",,"07,99,1,99,9,99,9,99999,9,99,9,99,9","10159,1,99999,9",,,,,"MET077METAR ETSE 150520Z 10008KT 9999 FEW008 BKN180 14/13 Q1016 BLU BLU/ TEMPO BLU;",
"10869099999","2010-06-15T06:07:00","4","48.322333","11.948667","461.77","ERDING, GM","FM-16","ETSE ","V020","110,1,N,0026,1","05400,1,C,N","011265,1,N,1","+0150,1","+0130,1","99999,9","04,5,+00210,1,99,9","07,5,+05400,1,99,9",,"07,99,1,99,9,99,9,99999,9,99,9,99,9","10159,1,99999,9",,,,,"MET077SPECI ETSE 150607Z 11005KT 9999 SCT007 BKN180 15/13 Q1016 BLU BLU/ TEMPO GRN;",
"10869099999","2010-06-15T06:20:00","4","48.322333","11.948667","461.77","ERDING, GM","FM-15","ETSE ","V020","090,1,N,0031,1","03900,1,C,N","011265,1,N,1","+0150,1","+0130,1","99999,9","04,5,+00210,1,99,9","04,5,+03900,1,99,9","07,5,+05100,1,99,9","07,99,1,99,9,99,9,99999,9,99,9,99,9","10159,1,99999,9",,,,,"MET084METAR ETSE 150620Z 09006KT 9999 SCT007 SCT130 BKN170 15/13 Q1016 BLU BLU/ TEMPO GRN;",
"10869099999","2010-06-15T06:32:00","4","48.322333","11.948667","461.77","ERDING, GM","FM-16","ETSE ","V020","090,1,N,0031,1","00210,1,C,N","011265,1,N,1","+0150,1","+0130,1","99999,9","07,5,+00210,1,99,9","07,5,+05100,1,99,9",,"07,99,1,99,9,99,9,99999,9,99,9,99,9","10159,1,99999,9",,,,,"MET077SPECI ETSE 150632Z 09006KT 9999 BKN007 BKN170 15/13 Q1016 GRN BLU/ TEMPO GRN;",
"10869099999","2010-06-15T07:20:00","4","48.322333","11.948667","461.77","ERDING, GM","FM-15","ETSE ","V020","070,1,N,0031,1","02100,1,C,N","011265,1,N,1","+0150,1","+0130,1","99999,9","04,5,+00240,1,99,9","07,5,+02100,1,99,9","07,5,+03600,1,99,9","07,99,1,99,9,99,9,99999,9,99,9,99,9","10159,1,99999,9","61,1",,,,"MET077METAR ETSE 150720Z 07006KT 9999 -RA SCT008 BKN070 BKN120 15/13 Q1016 BLU BLU;",
"10869099999","2010-06-15T08:20:00","4","48.322333","11.948667","461.77","ERDING, GM","FM-15","ETSE ","V020","070,1,N,0021,1","01200,1,C,N","011265,1,N,1","+0160,1","+0140,1","99999,9","02,5,+00270,1,99,9","04,5,+01200,1,99,9","07,5,+02700,1,99,9","07,99,1,99,9,99,9,99999,9,99,9,99,9","10169,1,99999,9","61,1",,,,"MET077METAR ETSE 150820Z 07004KT 9999 -RA FEW009 SCT040 BKN090 16/14 Q1017 BLU BLU;",
"10869099999","2010-06-15T09:20:00","4","48.322333","11.948667","461.77","ERDING, GM","FM-15","ETSE ","V020","070,1,N,0051,1","01140,1,C,N","011265,1,N,1","+0150,1","+0130,1","99999,9","02,5,+00300,1,99,9","04,5,+01140,1,99,9","07,5,+03000,1,99,9","07,99,1,99,9,99,9,99999,9,99,9,99,9","10169,1,99999,9","61,1",,,,"MET077METAR ETSE 150920Z 07010KT 9999 -RA FEW010 SCT038 BKN100 15/13 Q1017 BLU BLU;",
"10869099999","2010-06-15T10:20:00","4","48.322333","11.948667","461.77","ERDING, GM","FM-15","ETSE ","V020","080,1,N,0041,1","02700,1,C,N","011265,1,N,1","+0160,1","+0140,1","99999,9","04,5,+00510,1,99,9","07,5,+02700,1,99,9",,"07,99,1,99,9,99,9,99999,9,99,9,99,9","10169,1,99999,9","61,1",,,,"MET080METAR ETSE 151020Z 08008KT 9999 -RA SCT017 BKN090 16/14 Q1017 BLU BLU TEMPO WHT;",
"10869099999","2010-06-15T11:20:00","4","48.322333","11.948667","461.77","ERDING, GM","FM-15","ETSE ","V020","090,1,N,0041,1","00540,1,C,N","011265,1,N,1","+0170,1","+0140,1","99999,9","07,5,+00540,1,99,9","07,5,+02700,1,99,9",,"07,99,1,99,9,99,9,99999,9,99,9,99,9","10180,1,99999,9","61,1",,,,"MET080METAR ETSE 151120Z 09008KT 9999 -RA BKN018 BKN090 17/14 Q1018 WHT BLU TEMPO WHT;",
"10869099999","2010-06-15T12:20:00","4","48.322333","11.948667","461.77","ERDING, GM","FM-15","ETSE ","V020","080,1,N,0041,1","00570,1,C,N","011265,1,N,1","+0170,1","+0140,1","99999,9","02,5,+00450,1,99,9","07,5,+00570,1,99,9",,"07,99,1,99,9,99,9,99999,9,99,9,99,9","10169,1,99999,9","61,1",,,,"MET080METAR ETSE 151220Z 08008KT 9999 -RA FEW015 BKN019 17/14 Q1017 WHT BLU TEMPO WHT;",
"10869099999","2010-06-15T13:20:00","4","48.322333","11.948667","461.77","ERDING, GM","FM-15","ETSE ","V020","090,1,N,0046,1","00600,1,C,N","011265,1,N,1","+0180,1","+0140,1","99999,9","02,5,+00450,1,99,9","07,5,+00600,1,99,9",,"07,99,1,99,9,99,9,99999,9,99,9,99,9","10169,1,99999,9","61,1",,,,"MET080METAR ETSE 151320Z 09009KT 9999 -RA FEW015 BKN020 18/14 Q1017 WHT BLU TEMPO WHT;",
"10869099999","2010-06-15T14:20:00","4","48.322333","11.948667","461.77","ERDING, GM","FM-15","ETSE ","V020","060,1,N,0041,1","00630,1,C,N","011265,1,N,1","+0180,1","+0150,1","99999,9","02,5,+00450,1,99,9","07,5,+00630,1,99,9",,"07,99,1,99,9,99,9,99999,9,99,9,99,9","10169,1,99999,9","61,1",,,,"MET080METAR ETSE 151420Z 06008KT 9999 -RA FEW015 BKN021 18/15 Q1017 WHT BLU TEMPO WHT;",
"10869099999","2010-06-15T15:00:00","4","48.322333","11.948667","461.77","ERDING, GM","FM-16","ETSE ","V020","050,1,N,0041,1","00690,1,C,N","011265,1,N,1","+0180,1","+0150,1","99999,9","02,5,+00480,1,99,9","07,5,+00690,1,99,9",,"07,99,1,99,9,99,9,99999,9,99,9,99,9","10169,1,99999,9","61,1",,,,"MET078SPECI ETSE 151500Z 05008KT 9999 -RA FEW016 BKN023 18/15 Q1017 WHT FCST CANCEL;",
"10869099999","2010-06-16T05:20:00","4","48.322333","11.948667","461.77","ERDING, GM","FM-15","ETSE ","V020","060,1,N,0031,1","01200,1,C,N","011265,1,N,1","+0150,1","+0120,1","99999,9","02,5,+00810,1,99,9","08,5,+01200,1,99,9",,"08,99,1,99,9,99,9,99999,9,99,9,99,9","10149,1,99999,9","61,1",,,,"MET080METAR ETSE 160520Z 06006KT 9999 -RA FEW027 OVC040 15/12 Q1015 BLU BLU BECMG WHT;",
"10869099999","2010-06-16T06:20:00","4","48.322333","11.948667","461.77","ERDING, GM","FM-15","ETSE ","V020","060,1,N,0036,1","00630,1,C,N","011265,1,N,1","+0150,1","+0120,1","99999,9","07,5,+00630,1,99,9","07,5,+01200,1,99,9",,"07,99,1,99,9,99,9,99999,9,99,9,99,9","10149,1,99999,9","61,1",,,,"MET070METAR ETSE 160620Z 06007KT 9999 -RA BKN021 BKN040 15/12 Q1015 WHT WHT;",
"10869099999","2010-06-16T07:20:00","4","48.322333","11.948667","461.77","ERDING, GM","FM-15","ETSE ","V020","080,1,N,0057,1","00570,1,C,N","011265,1,N,1","+0140,1","+0110,1","99999,9","07,5,+00570,1,99,9","07,5,+01020,1,99,9",,"07,99,1,99,9,99,9,99999,9,99,9,99,9","10149,1,99999,9","51,1","61,1",,,"MET082METAR ETSE 160720Z 08011KT 9999 -DZRA BKN019 BKN034 14/11 Q1015 WHT WHT TEMPO GRN;",
"10869099999","2010-06-16T07:43:00","4","48.322333","11.948667","461.77","ERDING, GM","FM-16","ETSE ","V020","070,1,N,0041,1","00420,1,C,N","011265,1,N,1","+0140,1","+0120,1","99999,9","07,5,+00420,1,99,9","07,5,+00780,1,99,9",,"07,99,1,99,9,99,9,99999,9,99,9,99,9","10149,1,99999,9","61,1",,,,"MET080SPECI ETSE 160743Z 07008KT 9999 -RA BKN014 BKN026 14/12 Q1015 GRN WHT TEMPO GRN;",
"10869099999","2010-06-16T08:20:00","4","48.322333","11.948667","461.77","ERDING, GM","FM-15","ETSE ","V020","070,1,N,0041,1","00300,1,C,N","007000,1,N,1","+0130,1","+0120,1","99999,9","02,5,+00210,1,99,9","07,5,+00300,1,99,9",,"07,99,1,99,9,99,9,99999,9,99,9,99,9","10149,1,99999,9","63,1",,,,"MET079METAR ETSE 160820Z 07008KT 7000 RA FEW007 BKN010 13/12 Q1015 GRN WHT TEMPO GRN;",
"10869099999","2010-06-16T09:20:00","4","48.322333","11.948667","461.77","ERDING, GM","FM-15","ETSE ","V020","060,1,N,0057,1","00300,1,C,N","007000,1,N,1","+0130,1","+0120,1","99999,9","02,5,+00240,1,99,9","07,5,+00300,1,99,9",,"07,99,1,99,9,99,9,99999,9,99,9,99,9","10149,1,99999,9","63,1",,,,"MET079METAR ETSE 160920Z 06011KT 7000 RA FEW008 BKN010 13/12 Q1015 GRN WHT TEMPO GRN;",
"10869099999","2010-06-16T09:28:00","4","48.322333","11.948667","461.77","ERDING, GM","FM-16","ETSE ","V020","070,1,N,0062,1","00300,1,C,N","007000,1,N,1","+0130,1","+0120,1","99999,9","02,5,+00240,1,99,9","07,5,+00300,1,99,9",,"07,99,1,99,9,99,9,99999,9,99,9,99,9","10149,1,99999,9","65,1",,,,"MET080SPECI ETSE 160928Z 07012KT 7000 +RA FEW008 BKN010 13/12 Q1015 GRN WHT TEMPO GRN;",
"10869099999","2010-06-16T10:20:00","4","48.322333","11.948667","461.77","ERDING, GM","FM-15","ETSE ","V020","070,1,N,0062,1","00300,1,C,N","011265,1,N,1","+0130,1","+0120,1","99999,9","02,5,+00240,1,99,9","07,5,+00300,1,99,9","07,5,+00600,1,99,9","07,99,1,99,9,99,9,99999,9,99,9,99,9","10149,1,99999,9","63,1",,,,"MET091METAR ETSE 161020Z 07012KT 9999 RA FEW008 BKN010 BKN020 13/12 Q1015 RERA GRN WHT TEMPO GRN;",
"10869099999","2010-06-16T11:20:00","4","48.322333","11.948667","461.77","ERDING, GM","FM-15","ETSE ","V020","060,1,N,0051,1","00300,1,C,N","011265,1,N,1","+0130,1","+0120,1","99999,9","02,5,+00240,1,99,9","07,5,+00300,1,99,9",,"07,99,1,99,9,99,9,99999,9,99,9,99,9","10149,1,99999,9","63,1",,,,"MET079METAR ETSE 161120Z 06010KT 9999 RA FEW008 BKN010 13/12 Q1015 GRN WHT TEMPO GRN;",
"10869099999","2010-06-16T12:20:00","4","48.322333","11.948667","461.77","ERDING, GM","FM-15","ETSE ","V020","050,1,N,0057,1","00300,1,C,N","011265,1,N,1","+0130,1","+0120,1","99999,9","02,5,+00240,1,99,9","07,5,+00300,1,99,9","08,5,+00450,1,99,9","08,99,1,99,9,99,9,99999,9,99,9,99,9","10159,1,99999,9","63,1",,,,"MET086METAR ETSE 161220Z 05011KT 9999 RA FEW008 BKN010 OVC015 13/12 Q1016 GRN WHT TEMPO GRN;",
"10869099999","2010-06-16T13:20:00","4","48.322333","11.948667","461.77","ERDING, GM","FM-15","ETSE ","V020","040,1,N,0041,1","00210,1,C,N","011265,1,N,1","+0130,1","+0120,1","99999,9","02,5,+00180,1,99,9","07,5,+00210,1,99,9",,"07,99,1,99,9,99,9,99999,9,99,9,99,9","10159,1,99999,9","63,1",,,,"MET079METAR ETSE 161320Z 04008KT 9999 RA FEW006 BKN007 13/12 Q1016 GRN WHT TEMPO GRN;",
"10869099999","2010-06-16T14:00:00","4","48.322333","11.948667","461.77","ERDING, GM","FM-16","ETSE ","V020","060,1,N,0051,1","00300,1,C,N","011265,1,N,1","+0130,1","+0120,1","99999,9","02,5,+00210,1,99,9","07,5,+00300,1,99,9",,"07,99,1,99,9,99,9,99999,9,99,9,99,9","10159,1,99999,9","61,1",,,,"MET083SPECI ETSE 161400Z 06010KT 9999 -RA FEW007 BKN010 13/12 Q1016 RERA GRN FCST CANCEL;",
"10869099999","2010-06-17T05:20:00","4","48.322333","11.948667","461.77","ERDING, GM","FM-15","ETSE ","V020","090,1,N,0036,1","00300,1,C,N","011265,1,N,1","+0130,1","+0120,1","99999,9","07,5,+00300,1,99,9","07,5,+00480,1,99,9",,"07,99,1,99,9,99,9,99999,9,99,9,99,9","10139,1,99999,9",,,,,"MET071METAR ETSE 170520Z 09007KT 9999 BKN010 BKN016 13/12 Q1014 RERA GRN GRN;",
"10869099999","2010-06-17T06:20:00","4","48.322333","11.948667","461.77","ERDING, GM","FM-15","ETSE ","V020","090,1,N,0041,1","00300,1,C,N","011265,1,N,1","+0130,1","+0120,1","99999,9","07,5,+00300,1,99,9","07,5,+00480,1,99,9",,"07,99,1,99,9,99,9,99999,9,99,9,99,9","10139,1,99999,9",,,,,"MET071METAR ETSE 170620Z 09008KT 9999 BKN010 BKN016 13/12 Q1014 RERA GRN GRN;",
"10869099999","2010-06-17T07:20:00","4","48.322333","11.948667","461.77","ERDING, GM","FM-15","ETSE ","V020","100,1,N,0041,1","00330,1,C,N","011265,1,N,1","+0140,1","+0120,1","99999,9","02,5,+00210,1,99,9","07,5,+00330,1,99,9",,"07,99,1,99,9,99,9,99999,9,99,9,99,9","10139,1,99999,9","51,1",,,,"MET070METAR ETSE 170720Z 10008KT 9999 -DZ FEW007 BKN011 14/12 Q1014 GRN GRN;",
"10869099999","2010-06-17T08:20:00","4","48.322333","11.948667","461.77","ERDING, GM","FM-15","ETSE ","V020","100,1,N,0041,1","00360,1,C,N","011265,1,N,1","+0140,1","+0120,1","99999,9","02,5,+00210,1,99,9","07,5,+00360,1,99,9",,"07,99,1,99,9,99,9,99999,9,99,9,99,9","10139,1,99999,9","51,1",,,,"MET080METAR ETSE 170820Z 10008KT 9999 -DZ FEW007 BKN012 14/12 Q1014 GRN GRN BECMG WHT;",
"10869099999","2010-06-17T09:20:00","4","48.322333","11.948667","461.77","ERDING, GM","FM-15","ETSE ","V020","100,1,N,0046,1","00390,1,C,N","011265,1,N,1","+0150,1","+0120,1","99999,9","02,5,+00240,1,99,9","07,5,+00390,1,99,9",,"07,99,1,99,9,99,9,99999,9,99,9,99,9","10139,1,99999,9",,,,,"MET076METAR ETSE 170920Z 10009KT 9999 FEW008 BKN013 15/12 Q1014 GRN GRN BECMG WHT;",
"10869099999","2010-06-17T10:20:00","4","48.322333","11.948667","461.77","ERDING, GM","FM-15","ETSE ","V020","100,1,N,0046,1","00390,1,C,N","011265,1,N,1","+0150,1","+0130,1","99999,9","02,5,+00270,1,99,9","07,5,+00390,1,99,9",,"07,99,1,99,9,99,9,99999,9,99,9,99,9","10139,1,99999,9",,,,,"MET076METAR ETSE 171020Z 10009KT 9999 FEW009 BKN013 15/13 Q1014 GRN GRN BECMG WHT;",
"10869099999","2010-06-17T11:20:00","4","48.322333","11.948667","461.77","ERDING, GM","FM-15","ETSE ","V020","110,1,N,0041,1","00480,1,C,N","011265,1,N,1","+0160,1","+0130,1","99999,9","02,5,+00300,1,99,9","07,5,+00480,1,99,9",,"07,99,1,99,9,99,9,99999,9,99,9,99,9","10139,1,99999,9",,,,,"MET066METAR ETSE 171120Z 11008KT 9999 FEW010 BKN016 16/13 Q1014 WHT WHT;",
"10869099999","2010-06-17T12:20:00","4","48.322333","11.948667","461.77","ERDING, GM","FM-15","ETSE ","V020","110,1,N,0026,1","00480,1,C,N","011265,1,N,1","+0170,1","+0140,1","99999,9","02,5,+00300,1,99,9","07,5,+00480,1,99,9",,"07,99,1,99,9,99,9,99999,9,99,9,99,9","10129,1,99999,9",,,,,"MET066METAR ETSE 171220Z 11005KT 9999 FEW010 BKN016 17/14 Q1013 WHT WHT;",
"10869099999","2010-06-17T13:20:00","4","48.322333","11.948667","461.77","ERDING, GM","FM-15","ETSE ","V020","070,1,N,0010,1","00630,1,C,N","011265,1,N,1","+0170,1","+0140,1","99999,9","02,5,+00390,1,99,9","07,5,+00630,1,99,9",,"07,99,1,99,9,99,9,99999,9,99,9,99,9","10129,1,99999,9",,,,,"MET074METAR ETSE 171320Z 07002KT 9999 FEW013 BKN021 17/14 Q1013 WHT FCST CANCEL;",
"10869099999","2010-06-18T05:20:00","4","48.322333","11.948667","461.77","ERDING, GM","FM-15","ETSE ","V020","210,1,N,0021,1","99999,9,C,N","011265,1,N,1","+0130,1","+0110,1","99999,9","02,5,+00300,1,99,9","04,5,+01950,5,99,9",,"04,99,1,99,9,99,9,99999,9,99,9,99,9","10102,1,99999,9",,,,,"MET063METAR ETSE 180520Z 21004KT 9999 FEW010 SCT065 13/11 Q1010 BLU/;","P01 019503SCOCIG"
"10869099999","2010-06-18T06:20:00","4","48.322333","11.948667","461.77","ERDING, GM","FM-15","ETSE ","V020","240,1,N,0031,1","99999,9,C,N","011265,1,N,1","+0150,1","+0120,1","99999,9","02,5,+00600,1,99,9","04,5,+02100,1,99,9",,"04,99,1,99,9,99,9,99999,9,99,9,99,9","10102,1,99999,9",,,,,"MET063METAR ETSE 180620Z 24006KT 9999 FEW020 SCT070 15/12 Q1010 BLU/;","P01 021003SCOCIG"
"10869099999","2010-06-21T05:20:00","4","48.322333","11.948667","461.77","ERDING, GM","FM-15","ETSE ","V020","999,9,C,0000,1","00990,1,C,N","005000,1,N,1","+0100,1","+0090,1","99999,9","02,5,+00120,1,99,9","07,5,+00990,1,99,9","07,5,+01800,1,99,9","07,99,1,99,9,99,9,99999,9,99,9,99,9","10159,1,99999,9","10,1","61,1",,,"MET090METAR ETSE 210520Z 00000KT 5000 -RA BR FEW004 BKN033 BKN060 10/09 Q1016 WHT BLU TEMPO WHT;",
"10869099999","2010-06-21T06:20:00","4","48.322333","11.948667","461.77","ERDING, GM","FM-15","ETSE ","V020","260,1,N,0010,1","00930,1,C,N","008000,1,N,1","+0110,1","+0100,1","99999,9","02,5,+00150,1,99,9","07,5,+00930,1,99,9","07,5,+01950,5,99,9","07,99,1,99,9,99,9,99999,9,99,9,99,9","10169,1,99999,9","61,1",,,,"MET087METAR ETSE 210620Z 26002KT 8000 -RA FEW005 BKN031 BKN065 11/10 Q1017 BLU BLU TEMPO WHT;",
"10869099999","2010-06-21T07:20:00","4","48.322333","11.948667","461.77","ERDING, GM","FM-15","ETSE ","V020","360,1,N,0021,1","00900,1,C,N","011265,1,N,1","+0120,1","+0100,1","99999,9","04,5,+00210,1,99,9","04,5,+00900,1,99,9","07,5,+02100,1,99,9","07,99,1,99,9,99,9,99999,9,99,9,99,9","10169,1,99999,9",,,,,"MET083METAR ETSE 210720Z 36004KT 9999 SCT007 SCT030 BKN070 12/10 Q1017 BLU BLU TEMPO GRN;",
"10869099999","2010-06-21T08:20:00","4","48.322333","11.948667","461.77","ERDING, GM","FM-15","ETSE ","V020","999,9,V,0005,1","00510,1,C,N","011265,1,N,1","+0130,1","+0090,1","99999,9","07,5,+00510,1,99,9","07,5,+02100,1,99,9",,"07,99,1,99,9,99,9,99999,9,99,9,99,9","10169,1,99999,9",,,,,"MET076METAR ETSE 210820Z VRB01KT 9999 BKN017 BKN070 13/09 Q1017 WHT BLU TEMPO GRN;",
"10869099999","2010-06-21T09:20:00","4","48.322333","11.948667","461.77","ERDING, GM","FM-15","ETSE ","V020","110,1,N,0015,1","00600,1,C,N","011265,1,N,1","+0140,1","+0090,1","99999,9","07,5,+00600,1,99,9","07,5,+02400,1,99,9",,"07,99,1,99,9,99,9,99999,9,99,9,99,9","10169,1,99999,9",,,,,"MET066METAR ETSE 210920Z 11003KT 9999 BKN020 BKN080 14/09 Q1017 WHT BLU;",
"10869099999","2010-06-21T10:20:00","4","48.322333","11.948667","461.77","ERDING, GM","FM-15","ETSE ","V020","040,1,N,0021,1","01800,1,C,N","011265,1,N,1","+0140,1","+0090,1","99999,9","04,5,+00690,1,99,9","07,5,+01800,1,99,9",,"07,99,1,99,9,99,9,99999,9,99,9,99,9","10180,1,99999,9",,,,,"MET066METAR ETSE 211020Z 04004KT 9999 SCT023 BKN060 14/09 Q1018 BLU BLU;",
"10869099999","2010-06-21T11:20:00","4","48.322333","11.948667","461.77","ERDING, GM","FM-15","ETSE ","V020","040,1,N,0015,1","01950,5,C,N","011265,1,N,1","+0140,1","+0080,1","99999,9","02,5,+00750,1,99,9","07,5,+01950,5,99,9",,"07,99,1,99,9,99,9,99999,9,99,9,99,9","10180,1,99999,9",,,,,"MET066METAR ETSE 211120Z 04003KT 9999 FEW025 BKN065 14/08 Q1018 BLU BLU;",
"10869099999","2010-06-21T12:20:00","4","48.322333","11.948667","461.77","ERDING, GM","FM-15","ETSE ","V020","340,1,N,0015,1","02400,1,C,N","011265,1,N,1","+0150,1","+0070,1","99999,9","02,5,+00900,1,99,9","07,5,+02400,1,99,9",,"07,99,1,99,9,99,9,99999,9,99,9,99,9","10169,1,99999,9",,,,,"MET066METAR ETSE 211220Z 34003KT 9999 FEW030 BKN080 15/07 Q1017 BLU BLU;",
"10869099999","2010-06-21T13:20:00","4","48.322333","11.948667","461.77","ERDING, GM","FM-15","ETSE ","V020","360,1,N,0021,1","01950,5,C,N","011265,1,N,1","+0150,1","+0080,1","99999,9","04,5,+01050,1,99,9","07,5,+01950,5,99,9",,"07,99,1,99,9,99,9,99999,9,99,9,99,9","10169,1,99999,9",,,,,"MET066METAR ETSE 211320Z 36004KT 9999 SCT035 BKN065 15/08 Q1017 BLU BLU;",
"10869099999","2010-06-21T14:00:00","4","48.322333","11.948667","461.77","ERDING, GM","FM-16","ETSE ","V020","330,1,N,0031,1","02400,1,C,N","011265,1,N,1","+0150,1","+0080,1","99999,9","04,5,+01200,1,99,9","07,5,+02400,1,99,9",,"07,99,1,99,9,99,9,99999,9,99,9,99,9","10180,1,99999,9",,,,,"MET074SPECI ETSE 211400Z 33006KT 9999 SCT040 BKN080 15/08 Q1018 BLU FCST CANCEL;",
"10869099999","2010-06-22T05:20:00","4","48.322333","11.948667","461.77","ERDING, GM","FM-15","ETSE ","V020","310,1,N,0015,1","02400,1,C,N","011265,1,N,1","+0110,1","+0090,1","99999,9","02,5,+01500,1,99,9","07,5,+02400,1,99,9",,"07,99,1,99,9,99,9,99999,9,99,9,99,9","10210,1,99999,9",,,,,"MET062METAR ETSE 220520Z 31003KT 9999 FEW050 BKN080 11/09 Q1021 BLU;",
"10869099999","2010-06-22T06:20:00","4","48.322333","11.948667","461.77","ERDING, GM","FM-15","ETSE ","V020","999,9,C,0000,1","02400,1,C,N","011265,1,N,1","+0120,1","+0090,1","99999,9","02,5,+01500,1,99,9","07,5,+02400,1,99,9",,"07,99,1,99,9,99,9,99999,9,99,9,99,9","10210,1,99999,9",,,,,"MET062METAR ETSE 220620Z 00000KT 9999 FEW050 BKN080 12/09 Q1021 BLU;",
"10869099999","2010-06-22T07:20:00","4","48.322333","11.948667","461.77","ERDING, GM","FM-15","ETSE ","V020","999,9,C,0000,1","02550,5,C,N","011265,1,N,1","+0140,1","+0090,1","99999,9","02,5,+00600,1,99,9","07,5,+02550,5,99,9",,"07,99,1,99,9,99,9,99999,9,99,9,99,9","10220,1,99999,9",,,,,"MET077METAR ETSE 220720Z 00000KT 9999 FEW020 BKN085 14/09 Q1022 BLU BLU BECMG BLU/;",
"10869099999","2010-06-22T08:20:00","4","48.322333","11.948667","461.77","ERDING, GM","FM-15","ETSE ","V020","020,1,N,0021,1","99999,9,C,N","011265,1,N,1","+0150,1","+0090,1","99999,9","02,5,+00660,1,99,9","04,5,+02550,5,99,9",,"04,99,1,99,9,99,9,99999,9,99,9,99,9","10220,1,99999,9",,,,,"MET077METAR ETSE 220820Z 02004KT 9999 FEW022 SCT085 15/09 Q1022 BLU/BLU BECMG BLU/;","P01 025503SCOCIG"
"10869099999","2010-06-22T09:20:00","4","48.322333","11.948667","461.77","ERDING, GM","FM-15","ETSE ","V020","280,1,N,0021,1","99999,9,C,N","011265,1,N,1","+0180,1","+0090,1","99999,9","04,5,+00990,1,99,9","04,5,+02400,1,99,9",,"04,99,1,99,9,99,9,99999,9,99,9,99,9","10210,1,99999,9",,,,,"MET067METAR ETSE 220920Z 28004KT 9999 SCT033 SCT080 18/09 Q1021 BLU/BLU/;","P01 024003SCOCIG"
"10869099999","2010-06-22T10:20:00","4","48.322333","11.948667","461.77","ERDING, GM","FM-15","ETSE ","V020","020,1,N,0026,1","99999,9,C,N","011265,1,N,1","+0170,1","+0070,1","99999,9","04,5,+01110,1,99,9","04,5,+02400,1,99,9",,"04,99,1,99,9,99,9,99999,9,99,9,99,9","10220,1,99999,9",,,,,"MET067METAR ETSE 221020Z 02005KT 9999 SCT037 SCT080 17/07 Q1022 BLU/BLU/;","P01 024003SCOCIG"
"10869099999","2010-06-22T11:20:00","4","48.322333","11.948667","461.77","ERDING, GM","FM-15","ETSE ","V020","060,1,N,0021,1","02400,1,C,N","011265,1,N,1","+0170,1","+0060,1","99999,9","04,5,+01200,1,99,9","07,5,+02400,1,99,9",,"07,99,1,99,9,99,9,99999,9,99,9,99,9","10210,1,99999,9",,,,,"MET077METAR ETSE 221120Z 06004KT 9999 SCT040 BKN080 17/06 Q1021 BLU BLU/ TEMPO BLU;",
"10869099999","2010-06-22T12:20:00","4","48.322333","11.948667","461.77","ERDING, GM","FM-15","ETSE ","V020","060,1,N,0021,1","02100,1,C,N","011265,1,N,1","+0160,1","+0080,1","99999,9","02,5,+01200,1,99,9","07,5,+02100,1,99,9",,"07,99,1,99,9,99,9,99999,9,99,9,99,9","10210,1,99999,9",,,,,"MET077METAR ETSE 221220Z 06004KT 9999 FEW040 BKN070 16/08 Q1021 BLU BLU/ TEMPO BLU;",
"10869099999","2010-06-22T13:20:00","4","48.322333","11.948667","461.77","ERDING, GM","FM-15","ETSE ","V020","030,1,N,0026,1","02100,1,C,N","011265,1,N,1","+0170,1","+0070,1","99999,9","02,5,+01200,1,99,9","07,5,+02100,1,99,9",,"07,99,1,99,9,99,9,99999,9,99,9,99,9","10210,1,99999,9",,,,,"MET066METAR ETSE 221320Z 03005KT 9999 FEW040 BKN070 17/07 Q1021 BLU BLU;",
"10869099999","2010-06-22T14:20:00","4","48.322333","11.948667","461.77","ERDING, GM","FM-15","ETSE ","V020","040,1,N,0021,1","02400,1,C,N","011265,1,N,1","+0160,1","+0100,1","99999,9","02,5,+01350,1,99,9","07,5,+02400,1,99,9",,"07,99,1,99,9,99,9,99999,9,99,9,99,9","10220,1,99999,9",,,,,"MET074METAR ETSE 221420Z 04004KT 9999 FEW045 BKN080 16/10 Q1022 BLU FCST CANCEL;",
"10869099999","2010-06-23T05:20:00","4","48.322333","11.948667","461.77","ERDING, GM","FM-15","ETSE ","V020","999,9,C,0000,1","22000,1,9,N","011265,1,N,1","+0110,1","+0090,1","99999,9","02,5,+04800,1,99,9",,,"02,99,1,99,9,99,9,99999,9,99,9,99,9","10220,1,99999,9",,,,,"MET056METAR ETSE 230520Z 00000KT 9999 FEW160 11/09 Q1022 BLU/;",
"10869099999","2010-06-23T06:20:00","4","48.322333","11.948667","461.77","ERDING, GM","FM-15","ETSE ","V020","999,9,C,0000,1","22000,1,9,N","011265,1,N,1","+0130,1","+0100,1","99999,9","02,5,+08100,1,99,9",,,"02,99,1,99,9,99,9,99999,9,99,9,99,9","10220,1,99999,9",,,,,"MET056METAR ETSE 230620Z 00000KT 9999 FEW270 13/10 Q1022 BLU/;",
"10869099999","2010-06-23T07:20:00","4","48.322333","11.948667","461.77","ERDING, GM","FM-15","ETSE ","V020","999,9,C,0000,1","22000,1,9,N","011265,1,N,1","+0150,1","+0110,1","99999,9","02,5,+08100,1,99,9",,,"02,99,1,99,9,99,9,99999,9,99,9,99,9","10220,1,99999,9",,,,,"MET060METAR ETSE 230720Z 00000KT 9999 FEW270 15/11 Q1022 BLU/BLU/;",
"10869099999","2010-06-23T08:20:00","4","48.322333","11.948667","461.77","ERDING, GM","FM-15","ETSE ","V020","110,1,N,0021,1","22000,1,9,N","011265,1,N,1","+0170,1","+0090,1","99999,9","02,5,+00900,1,99,9",,,"02,99,1,99,9,99,9,99999,9,99,9,99,9","10220,1,99999,9",,,,,"MET060METAR ETSE 230820Z 11004KT 9999 FEW030 17/09 Q1022 BLU/BLU/;",
"10869099999","2010-06-23T09:20:00","4","48.322333","11.948667","461.77","ERDING, GM","FM-15","ETSE ","V020","130,1,N,0015,1","22000,1,9,N","011265,1,N,1","+0170,1","+0080,1","99999,9","02,5,+01140,1,99,9",,,"02,99,1,99,9,99,9,99999,9,99,9,99,9","10220,1,99999,9",,,,,"MET060METAR ETSE 230920Z 13003KT 9999 FEW038 17/08 Q1022 BLU/BLU/;",
"10869099999","2010-06-23T10:20:00","4","48.322333","11.948667","461.77","ERDING, GM","FM-15","ETSE ","V020","090,1,N,0005,1","99999,9,C,N","011265,1,N,1","+0170,1","+0080,1","99999,9","02,5,+01200,1,99,9","04,5,+01950,5,99,9",,"04,99,1,99,9,99,9,99999,9,99,9,99,9","10220,1,99999,9",,,,,"MET067METAR ETSE 231020Z 09001KT 9999 FEW040 SCT065 17/08 Q1022 BLU/BLU/;","P01 019503SCOCIG"
"10869099999","2010-06-23T11:20:00","4","48.322333","11.948667","461.77","ERDING, GM","FM-15","ETSE ","V020","020,1,N,0021,1","99999,9,C,N","011265,1,N,1","+0200,1","+0070,1","99999,9","02,5,+01350,1,99,9","04,5,+01950,5,99,9",,"04,99,1,99,9,99,9,99999,9,99,9,99,9","10220,1,99999,9",,,,,"MET067METAR ETSE 231120Z 02004KT 9999 FEW045 SCT065 20/07 Q1022 BLU/BLU/;","P01 019503SCOCIG"
"10869099999","2010-06-23T12:20:00","4","48.322333","11.948667","461.77","ERDING, GM","FM-15","ETSE ","V020","070,1,N,0026,1","99999,9,C,N","011265,1,N,1","+0200,1","+0070,1","99999,9","02,5,+01350,1,99,9","04,5,+01950,5,99,9",,"04,99,1,99,9,99,9,99999,9,99,9,99,9","10210,1,99999,9",,,,,"MET067METAR ETSE 231220Z 07005KT 9999 FEW045 SCT065 20/07 Q1021 BLU/BLU/;","P01 019503SCOCIG"
"10869099999","2010-06-23T13:20:00","4","48.322333","11.948667","461.77","ERDING, GM","FM-15","ETSE ","V020","060,1,N,0010,1","99999,9,C,N","011265,1,N,1","+0200,1","+0060,1","99999,9","02,5,+01350,1,99,9","04,5,+01860,5,99,9",,"04,99,1,99,9,99,9,99999,9,99,9,99,9","10210,1,99999,9",,,,,"MET067METAR ETSE 231320Z 06002KT 9999 FEW045 SCT062 20/06 Q1021 BLU/BLU/;","P01 018603SCOCIG"
"10869099999","2010-06-23T14:00:00","4","48.322333","11.948667","461.77","ERDING, GM","FM-16","ETSE ","V020","030,1,N,0026,1","99999,9,C,N","011265,1,N,1","+0200,1","+0060,1","99999,9","02,5,+01350,1,99,9","04,5,+01860,5,99,9",,"04,99,1,99,9,99,9,99999,9,99,9,99,9","10210,1,99999,9",,,,,"MET074SPECI ETSE 231400Z 03005KT 9999 FEW045 SCT062 20/06 Q1021 BLU/FCST CANCEL;","P01 018603SCOCIG"
"10869099999","2010-06-24T05:20:00","4","48.322333","11.948667","461.77","ERDING, GM","FM-15","ETSE ","V020","190,1,N,0015,1","01950,5,C,N","011265,1,N,1","+0130,1","+0110,1","99999,9","07,5,+01950,5,99,9",,,"07,99,1,99,9,99,9,99999,9,99,9,99,9","10200,1,99999,9",,,,,"MET059METAR ETSE 240520Z 19003KT 9999 BKN065 13/11 Q1020 BLU BLU;",
"10869099999","2010-06-24T06:20:00","4","48.322333","11.948667","461.77","ERDING, GM","FM-15","ETSE ","V020","200,1,N,0015,1","01950,5,C,N","011265,1,N,1","+0150,1","+0110,1","99999,9","07,5,+01950,5,99,9",,,"07,99,1,99,9,99,9,99999,9,99,9,99,9","10200,1,99999,9",,,,,"MET059METAR ETSE 240620Z 20003KT 9999 BKN065 15/11 Q1020 BLU BLU;",
"10869099999","2010-06-24T07:20:00","4","48.322333","11.948667","461.77","ERDING, GM","FM-15","ETSE ","V020","999,9,V,0005,1","01950,5,C,N","011265,1,N,1","+0160,1","+0100,1","99999,9","07,5,+01950,5,99,9",,,"07,99,1,99,9,99,9,99999,9,99,9,99,9","10200,1,99999,9",,,,,"MET070METAR ETSE 240720Z VRB01KT 9999 BKN065 16/10 Q1020 BLU BLU BECMG BLU/;",
"10869099999","2010-06-24T08:20:00","4","48.322333","11.948667","461.77","ERDING, GM","FM-15","ETSE ","V020","250,1,N,0010,1","01950,5,C,N","011265,1,N,1","+0180,1","+0100,1","99999,9","02,5,+00900,1,99,9","07,5,+01950,5,99,9",,"07,99,1,99,9,99,9,99999,9,99,9,99,9","10200,1,99999,9",,,,,"MET077METAR ETSE 240820Z 25002KT 9999 FEW030 BKN065 18/10 Q1020 BLU BLU BECMG BLU/;",
"10869099999","2010-06-24T09:20:00","4","48.322333","11.948667","461.77","ERDING, GM","FM-15","ETSE ","V020","999,9,V,0010,1","99999,9,C,N","011265,1,N,1","+0200,1","+0070,1","99999,9","02,5,+01200,1,99,9","04,5,+01950,5,99,9",,"04,99,1,99,9,99,9,99999,9,99,9,99,9","10200,1,99999,9",,,,,"MET067METAR ETSE 240920Z VRB02KT 9999 FEW040 SCT065 20/07 Q1020 BLU/BLU/;","P01 019503SCOCIG"
"10869099999","2010-06-24T10:20:00","4","48.322333","11.948667","461.77","ERDING, GM","FM-15","ETSE ","V020","340,1,N,0021,1","22000,1,9,N","011265,1,N,1","+0220,1","+0060,1","99999,9","04,5,+02100,1,99,9",,,"04,99,1,99,9,99,9,99999,9,99,9,99,9","10190,1,99999,9",,,,,"MET060METAR ETSE 241020Z 34004KT 9999 SCT070 22/06 Q1019 BLU/BLU/;",
"10869099999","2010-06-24T11:20:00","4","48.322333","11.948667","461.77","ERDING, GM","FM-15","ETSE ","V020","040,1,N,0015,1","22000,1,9,N","011265,1,N,1","+0220,1","+0070,1","99999,9","04,5,+02100,1,99,9",,,"04,99,1,99,9,99,9,99999,9,99,9,99,9","10190,1,99999,9",,,,,"MET060METAR ETSE 241120Z 04003KT 9999 SCT070 22/07 Q1019 BLU/BLU/;",
"10869099999","2010-06-24T12:20:00","4","48.322333","11.948667","461.77","ERDING, GM","FM-15","ETSE ","V020","030,1,N,0015,1","99999,9,C,N","011265,1,N,1","+0210,1","+0070,1","99999,9","02,5,+01500,1,99,9","04,5,+02100,1,99,9",,"04,99,1,99,9,99,9,99999,9,99,9,99,9","10190,1,99999,9",,,,,"MET067METAR ETSE 241220Z 03003KT 9999 FEW050 SCT070 21/07 Q1019 BLU/BLU/;","P01 021003SCOCIG"
"10869099999","2010-06-24T13:20:00","4","48.322333","11.948667","461.77","ERDING, GM","FM-15","ETSE ","V020","360,1,N,0015,1","99999,9,C,N","011265,1,N,1","+0210,1","+0080,1","99999,9","02,5,+01500,1,99,9","04,5,+02100,1,99,9",,"04,99,1,99,9,99,9,99999,9,99,9,99,9","10180,1,99999,9",,,,,"MET074METAR ETSE 241320Z 36003KT 9999 FEW050 SCT070 21/08 Q1018 BLU/FCST CANCEL;","P01 021003SCOCIG"
"10869099999","2010-06-25T05:20:00","4","48.322333","11.948667","461.77","ERDING, GM","FM-15","ETSE ","V020","220,1,N,0015,1","22000,1,9,N","011265,1,N,1","+0140,1","+0100,1","99999,9","02,5,+01800,1,99,9",,,"02,99,1,99,9,99,9,99999,9,99,9,99,9","10169,1,99999,9",,,,,"MET056METAR ETSE 250520Z 22003KT 9999 FEW060 14/10 Q1017 BLU/;",
"10869099999","2010-06-25T06:20:00","4","48.322333","11.948667","461.77","ERDING, GM","FM-15","ETSE ","V020","240,1,N,0021,1","22000,1,9,N","011265,1,N,1","+0160,1","+0100,1","99999,9","02,5,+01800,1,99,9",,,"02,99,1,99,9,99,9,99999,9,99,9,99,9","10169,1,99999,9",,,,,"MET056METAR ETSE 250620Z 24004KT 9999 FEW060 16/10 Q1017 BLU/;",
"10869099999","2010-06-25T07:20:00","4","48.322333","11.948667","461.77","ERDING, GM","FM-15","ETSE ","V020","260,1,N,0021,1","22000,1,9,N","011265,1,N,1","+0190,1","+0110,1","99999,9","02,5,+04800,1,99,9",,,"02,99,1,99,9,99,9,99999,9,99,9,99,9","10169,1,99999,9",,,,,"MET056METAR ETSE 250720Z 26004KT 9999 FEW160 19/11 Q1017 BLU/;",
"10869099999","2010-06-25T08:20:00","4","48.322333","11.948667","461.77","ERDING, GM","FM-15","ETSE ","V020","300,1,N,0031,1","22000,1,9,N","011265,1,N,1","+0210,1","+0110,1","99999,9","02,5,+05100,1,99,9",,,"02,99,1,99,9,99,9,99999,9,99,9,99,9","10169,1,99999,9",,,,,"MET056METAR ETSE 250820Z 30006KT 9999 FEW170 21/11 Q1017 BLU/;",
"10869099999","2010-06-25T09:20:00","4","48.322333","11.948667","461.77","ERDING, GM","FM-15","ETSE ","V020","290,1,N,0021,1","22000,1,9,N","011265,1,N,1","+0220,1","+0110,1","99999,9","02,5,+01350,1,99,9",,,"02,99,1,99,9,99,9,99999,9,99,9,99,9","10169,1,99999,9",,,,,"MET056METAR ETSE 250920Z 29004KT 9999 FEW045 22/11 Q1017 BLU/;",
"10869099999","2010-06-28T05:20:00","4","48.322333","11.948667","461.77","ERDING, GM","FM-15","ETSE ","V020","999,9,C,0000,1","22000,1,9,N","011265,1,N,1","+0170,1","+0130,1","99999,9",,,,,"10200,1,99999,9",,,,,"MET053METAR ETSE 280520Z 00000KT 9999 17/13 Q1020 BLU/BLU/;",
"10869099999","2010-06-28T06:20:00","4","48.322333","11.948667","461.77","ERDING, GM","FM-15","ETSE ","V020","110,1,N,0021,1","22000,1,9,N","011265,1,N,1","+0180,1","+0130,1","99999,9",,,,,"10200,1,99999,9",,,,,"MET053METAR ETSE 280620Z 11004KT 9999 18/13 Q1020 BLU/BLU/;",
"10869099999","2010-06-28T07:20:00","4","48.322333","11.948667","461.77","ERDING, GM","FM-15","ETSE ","V020","120,1,N,0026,1","22000,1,9,N","011265,1,N,1","+0200,1","+0130,1","99999,9",,,,,"10200,1,99999,9",,,,,"MET053METAR ETSE 280720Z 12005KT 9999 20/13 Q1020 BLU/BLU/;",
"10869099999","2010-06-28T08:20:00","4","48.322333","11.948667","461.77","ERDING, GM","FM-15","ETSE ","V020","110,1,N,0021,1","22000,1,9,N","011265,1,N,1","+0210,1","+0130,1","99999,9","02,5,+00900,1,99,9",,,"02,99,1,99,9,99,9,99999,9,99,9,99,9","10200,1,99999,9",,,,,"MET060METAR ETSE 280820Z 11004KT 9999 FEW030 21/13 Q1020 BLU/BLU/;",
"10869099999","2010-06-28T09:20:00","4","48.322333","11.948667","461.77","ERDING, GM","FM-15","ETSE ","V020","130,1,N,0021,1","22000,1,9,N","011265,1,N,1","+0230,1","+0130,1","99999,9","02,5,+01200,1,99,9",,,"02,99,1,99,9,99,9,99999,9,99,9,99,9","10200,1,99999,9",,,,,"MET060METAR ETSE 280920Z 13004KT 9999 FEW040 23/13 Q1020 BLU/BLU/;",
"10869099999","2010-06-28T10:20:00","4","48.322333","11.948667","461.77","ERDING, GM","FM-15","ETSE ","V020","130,1,N,0026,1","22000,1,9,N","011265,1,N,1","+0240,1","+0120,1","99999,9","02,5,+01200,1,99,9",,,"02,99,1,99,9,99,9,99999,9,99,9,99,9","10200,1,99999,9",,,,,"MET060METAR ETSE 281020Z 13005KT 9999 FEW040 24/12 Q1020 BLU/BLU/;",
"10869099999","2010-06-28T11:20:00","4","48.322333","11.948667","461.77","ERDING, GM","FM-15","ETSE ","V020","110,1,N,0015,1","22000,1,9,N","011265,1,N,1","+0250,1","+0120,1","99999,9","02,5,+01500,1,99,9",,,"02,99,1,99,9,99,9,99999,9,99,9,99,9","10200,1,99999,9",,,,,"MET060METAR ETSE 281120Z 11003KT 9999 FEW050 25/12 Q1020 BLU/BLU/;",
"10869099999","2010-06-28T12:20:00","4","48.322333","11.948667","461.77","ERDING, GM","FM-15","ETSE ","V020","020,1,N,0015,1","22000,1,9,N","011265,1,N,1","+0240,1","+0120,1","99999,9","02,5,+01650,5,99,9",,,"02,99,1,99,9,99,9,99999,9,99,9,99,9","10200,1,99999,9",,,,,"MET060METAR ETSE 281220Z 02003KT 9999 FEW055 24/12 Q1020 BLU/BLU/;",
"10869099999","2010-06-28T13:20:00","4","48.322333","11.948667","461.77","ERDING, GM","FM-15","ETSE ","V020","999,9,V,0005,1","22000,1,9,N","011265,1,N,1","+0260,1","+0110,1","99999,9","02,5,+01740,5,99,9",,,"02,99,1,99,9,99,9,99999,9,99,9,99,9","10200,1,99999,9",,,,,"MET067METAR ETSE 281320Z VRB01KT 9999 FEW058 26/11 Q1020 BLU/FCST CANCEL;",
"10869099999","2010-06-29T05:20:00","4","48.322333","11.948667","461.77","ERDING, GM","FM-15","ETSE ","V020","190,1,N,0015,1","22000,1,9,N","011265,1,N,1","+0160,1","+0130,1","99999,9","02,5,+02100,1,99,9",,,"02,99,1,99,9,99,9,99999,9,99,9,99,9","10200,1,99999,9",,,,,"MET060METAR ETSE 290520Z 19003KT 9999 FEW070 16/13 Q1020 BLU/BLU/;",
"10869099999","2010-06-29T06:20:00","4","48.322333","11.948667","461.77","ERDING, GM","FM-15","ETSE ","V020","200,1,N,0015,1","22000,1,9,N","011265,1,N,1","+0190,1","+0140,1","99999,9","02,5,+02100,1,99,9",,,"02,99,1,99,9,99,9,99999,9,99,9,99,9","10200,1,99999,9",,,,,"MET060METAR ETSE 290620Z 20003KT 9999 FEW070 19/14 Q1020 BLU/BLU/;",
"10869099999","2010-06-29T07:20:00","4","48.322333","11.948667","461.77","ERDING, GM","FM-15","ETSE ","V020","999,9,C,0000,1","22000,1,9,N","011265,1,N,1","+0220,1","+0140,1","99999,9","02,5,+02100,1,99,9",,,"02,99,1,99,9,99,9,99999,9,99,9,99,9","10200,1,99999,9",,,,,"MET060METAR ETSE 290720Z 00000KT 9999 FEW070 22/14 Q1020 BLU/BLU/;",
"10869099999","2010-06-29T08:20:00","4","48.322333","11.948667","461.77","ERDING, GM","FM-15","ETSE ","V020","999,9,V,0010,1","22000,1,9,N","011265,1,N,1","+0240,1","+0150,1","99999,9","02,5,+01200,1,99,9",,,"02,99,1,99,9,99,9,99999,9,99,9,99,9","10200,1,99999,9",,,,,"MET060METAR ETSE 290820Z VRB02KT 9999 FEW040 24/15 Q1020 BLU/BLU/;",
"10869099999","2010-06-29T09:20:00","4","48.322333","11.948667","461.77","ERDING, GM","FM-15","ETSE ","V020","999,9,V,0010,1","22000,1,9,N","011265,1,N,1","+0250,1","+0120,1","99999,9","02,5,+01260,1,99,9",,,"02,99,1,99,9,99,9,99999,9,99,9,99,9","10200,1,99999,9",,,,,"MET060METAR ETSE 290920Z VRB02KT 9999 FEW042 25/12 Q1020 BLU/BLU/;",
"10869099999","2010-06-29T10:20:00","4","48.322333","11.948667","461.77","ERDING, GM","FM-15","ETSE ","V020","150,1,N,0015,1","22000,1,9,N","011265,1,N,1","+0270,1","+0100,1","99999,9","02,5,+01350,1,99,9",,,"02,99,1,99,9,99,9,99999,9,99,9,99,9","10200,1,99999,9",,,,,"MET060METAR ETSE 291020Z 15003KT 9999 FEW045 27/10 Q1020 BLU/BLU/;",
"10869099999","2010-06-29T11:20:00","4","48.322333","11.948667","461.77","ERDING, GM","FM-15","ETSE ","V020","999,9,V,0005,1","22000,1,9,N","011265,1,N,1","+0250,1","+0110,1","99999,9","02,5,+01500,1,99,9",,,"02,99,1,99,9,99,9,99999,9,99,9,99,9","10200,1,99999,9",,,,,"MET060METAR ETSE 291120Z VRB01KT 9999 FEW050 25/11 Q1020 BLU/BLU/;",
"10869099999","2010-06-29T12:20:00","4","48.322333","11.948667","461.77","ERDING, GM","FM-15","ETSE ","V020","160,1,N,0021,1","22000,1,9,N","011265,1,N,1","+0270,1","+0100,1","99999,9","02,5,+01800,1,99,9",,,"02,99,1,99,9,99,9,99999,9,99,9,99,9","10190,1,99999,9",,,,,"MET060METAR ETSE 291220Z 16004KT 9999 FEW060 27/10 Q1019 BLU/BLU/;",
"10869099999","2010-06-29T13:20:00","4","48.322333","11.948667","461.77","ERDING, GM","FM-15","ETSE ","V020","170,1,N,0005,1","22000,1,9,N","011265,1,N,1","+0280,1","+0090,1","99999,9","02,5,+01800,1,99,9",,,"02,99,1,99,9,99,9,99999,9,99,9,99,9","10190,1,99999,9",,,,,"MET060METAR ETSE 291320Z 17001KT 9999 FEW060 28/09 Q1019 BLU/BLU/;",
"10869099999","2010-06-29T14:20:00","4","48.322333","11.948667","461.77","ERDING, GM","FM-15","ETSE ","V020","999,9,V,0010,1","22000,1,9,N","011265,1,N,1","+0280,1","+0090,1","99999,9","02,5,+01800,1,99,9",,,"02,99,1,99,9,99,9,99999,9,99,9,99,9","10190,1,99999,9",,,,,"MET067METAR ETSE 291420Z VRB02KT 9999 FEW060 28/09 Q1019 BLU/FCST CANCEL;",
"10869099999","2010-06-30T05:20:00","4","48.322333","11.948667","461.77","ERDING, GM","FM-15","ETSE ","V020","200,1,N,0021,1","99999,9,C,N","011265,1,N,1","+0200,1","+0150,1","99999,9","02,5,+02250,5,02,1","04,5,+03000,1,99,9",,"04,99,1,99,9,99,9,99999,9,99,9,99,9","10200,1,99999,9",,,,,"MET066METAR ETSE 300520Z 20004KT 9999 FEW075TCU SCT100 20/15 Q1020 BLU/;","P01 030003SCOCIG"
"10869099999","2010-06-30T06:20:00","4","48.322333","11.948667","461.77","ERDING, GM","FM-15","ETSE ","V020","300,1,N,0031,1","99999,9,C,N","011265,1,N,1","+0200,1","+0150,1","99999,9","02,5,+02100,1,02,1","04,5,+02400,1,99,9",,"04,99,1,99,9,99,9,99999,9,99,9,99,9","10200,1,99999,9","80,1",,,,"MET072METAR ETSE 300620Z 30006KT 9999 -SHRA FEW070TCU SCT080 20/15 Q1020 BLU/;","P01 024003SCOCIG"
"10869099999","2010-06-30T07:20:00","4","48.322333","11.948667","461.77","ERDING, GM","FM-15","ETSE ","V020","270,1,N,0026,1","22000,1,9,N","011265,1,N,1","+0210,1","+0150,1","99999,9","02,5,+02100,1,99,9",,,"02,99,1,99,9,99,9,99999,9,99,9,99,9","10200,1,99999,9",,,,,"MET060METAR ETSE 300720Z 27005KT 9999 FEW070 21/15 Q1020 BLU/BLU/;",
"10869099999","2010-06-30T08:20:00","4","48.322333","11.948667","461.77","ERDING, GM","FM-15","ETSE ","V020","260,1,N,0026,1","22000,1,9,N","011265,1,N,1","+0220,1","+0150,1","99999,9","02,5,+03000,1,99,9",,,"02,99,1,99,9,99,9,99999,9,99,9,99,9","10200,1,99999,9",,,,,"MET060METAR ETSE 300820Z 26005KT 9999 FEW100 22/15 Q1020 BLU/BLU/;",
"10869099999","2010-06-30T09:20:00","4","48.322333","11.948667","461.77","ERDING, GM","FM-15","ETSE ","V020","240,1,N,0031,1","22000,1,9,N","011265,1,N,1","+0240,1","+0160,1","99999,9","02,5,+01200,1,99,9",,,"02,99,1,99,9,99,9,99999,9,99,9,99,9","10200,1,99999,9",,,,,"MET060METAR ETSE 300920Z 24006KT 9999 FEW040 24/16 Q1020 BLU/BLU/;",
"10869099999","2010-06-30T10:20:00","4","48.322333","11.948667","461.77","ERDING, GM","FM-15","ETSE ","V020","290,1,N,0031,1","22000,1,9,N","011265,1,N,1","+0250,1","+0160,1","99999,9","02,5,+01140,1,99,9",,,"02,99,1,99,9,99,9,99999,9,99,9,99,9","10200,1,99999,9",,,,,"MET060METAR ETSE 301020Z 29006KT 9999 FEW038 25/16 Q1020 BLU/BLU/;",
"10869099999","2010-06-30T11:20:00","4","48.322333","11.948667","461.77","ERDING, GM","FM-15","ETSE ","V020","280,1,N,0026,1","22000,1,9,N","011265,1,N,1","+0260,1","+0150,1","99999,9","02,5,+01200,1,02,1",,,"02,99,1,99,9,99,9,99999,9,99,9,99,9","10200,1,99999,9",,,,,"MET063METAR ETSE 301120Z 28005KT 9999 FEW040TCU 26/15 Q1020 BLU/BLU/;",
"10869099999","2010-06-30T12:20:00","4","48.322333","11.948667","461.77","ERDING, GM","FM-15","ETSE ","V020","250,1,N,0015,1","22000,1,9,N","011265,1,N,1","+0270,1","+0150,1","99999,9","02,5,+01260,1,02,1",,,"02,99,1,99,9,99,9,99999,9,99,9,99,9","10200,1,99999,9",,,,,"MET063METAR ETSE 301220Z 25003KT 9999 FEW042TCU 27/15 Q1020 BLU/BLU/;",
"10869099999","2010-06-30T13:20:00","4","48.322333","11.948667","461.77","ERDING, GM","FM-15","ETSE ","V020","310,1,N,0021,1","22000,1,9,N","011265,1,N,1","+0270,1","+0150,1","99999,9","02,5,+01350,1,02,1",,,"02,99,1,99,9,99,9,99999,9,99,9,99,9","10190,1,99999,9",,,,,"MET063METAR ETSE 301320Z 31004KT 9999 FEW045TCU 27/15 Q1019 BLU/BLU/;",
"10869099999","2010-06-30T14:00:00","4","48.322333","11.948667","461.77","ERDING, GM","FM-16","ETSE ","V020","320,1,N,0026,1","22000,1,9,N","011265,1,N,1","+0260,1","+0140,1","99999,9","04,5,+01500,1,09,1",,,"04,99,1,99,9,99,9,99999,9,99,9,99,9","10190,1,99999,9",,,,,"MET069SPECI ETSE 301400Z 32005KT 9999 SCT050CB 26/14 Q1019 BLU/FCST CANCEL;",
"10869099999","2010-07-01T05:20:00","4","48.322333","11.948667","461.77","ERDING, GM","FM-15","ETSE ","V020","150,1,N,0010,1","99999,9,C,N","011265,1,N,1","+0160,1","+0150,1","99999,9","02,5,+02400,1,99,9","04,5,+08400,1,99,9",,"04,99,1,99,9,99,9,99999,9,99,9,99,9","10190,1,99999,9",,,,,"MET077METAR ETSE 010520Z 15002KT 9999 FEW080 SCT280 16/15 Q1019 BLU/BLU/ TEMPO BLU;","P01 084003SCOCIG"
"10869099999","2010-07-01T06:20:00","4","48.322333","11.948667","461.77","ERDING, GM","FM-15","ETSE ","V020","999,9,V,0010,1","08400,1,C,N","011265,1,N,1","+0190,1","+0160,1","99999,9","02,5,+02100,1,99,9","07,5,+08400,1,99,9",,"07,99,1,99,9,99,9,99999,9,99,9,99,9","10190,1,99999,9",,,,,"MET077METAR ETSE 010620Z VRB02KT 9999 FEW070 BKN280 19/16 Q1019 BLU/BLU/ TEMPO BLU;",
"10869099999","2010-07-01T07:20:00","4","48.322333","11.948667","461.77","ERDING, GM","FM-15","ETSE ","V020","999,9,V,0010,1","08400,1,C,N","011265,1,N,1","+0200,1","+0160,1","99999,9","04,5,+02250,5,99,9","07,5,+08400,1,99,9",,"07,99,1,99,9,99,9,99999,9,99,9,99,9","10190,1,99999,9",,,,,"MET077METAR ETSE 010720Z VRB02KT 9999 SCT075 BKN280 20/16 Q1019 BLU/BLU/ TEMPO BLU;",
"10869099999","2010-07-01T08:20:00","4","48.322333","11.948667","461.77","ERDING, GM","FM-15","ETSE ","V020","340,1,N,0015,1","08400,1,C,N","011265,1,N,1","+0220,1","+0160,1","99999,9","04,5,+02100,1,99,9","07,5,+08400,1,99,9",,"07,99,1,99,9,99,9,99999,9,99,9,99,9","10190,1,99999,9",,,,,"MET077METAR ETSE 010820Z 34003KT 9999 SCT070 BKN280 22/16 Q1019 BLU/BLU/ TEMPO BLU;",
"10869099999","2010-07-01T09:20:00","4","48.322333","11.948667","461.77","ERDING, GM","FM-15","ETSE ","V020","050,1,N,0015,1","01800,1,C,N","011265,1,N,1","+0240,1","+0150,1","99999,9","02,5,+01200,1,02,1","04,5,+01950,5,99,9","07,5,+08400,1,99,9","07,99,1,99,9,99,9,99999,9,99,9,99,9","10190,1,99999,9",,,,,"MET077METAR ETSE 010920Z 05003KT 9999 FEW040TCU SCT065 BKN280 24/15 Q1019 BLU/BLU/;",
"10869099999","2010-07-01T10:20:00","4","48.322333","11.948667","461.77","ERDING, GM","FM-15","ETSE ","V020","040,1,N,0026,1","01800,1,C,N","011265,1,N,1","+0260,1","+0170,1","99999,9","02,5,+01200,1,99,9","04,5,+01950,5,99,9","07,5,+08400,1,99,9","07,99,1,99,9,99,9,99999,9,99,9,99,9","10190,1,99999,9",,,,,"MET074METAR ETSE 011020Z 04005KT 9999 FEW040 SCT065 BKN280 26/17 Q1019 BLU/BLU/;",
"10869099999","2010-07-01T11:20:00","4","48.322333","11.948667","461.77","ERDING, GM","FM-15","ETSE ","V020","050,1,N,0021,1","08400,1,C,N","011265,1,N,1","+0260,1","+0160,1","99999,9","02,5,+01350,1,99,9","07,5,+08400,1,99,9",,"07,99,1,99,9,99,9,99999,9,99,9,99,9","10180,1,99999,9",,,,,"MET067METAR ETSE 011120Z 05004KT 9999 FEW045 BKN280 26/16 Q1018 BLU/BLU/;",
"10869099999","2010-07-01T11:45:00","4","48.322333","11.948667","461.77","ERDING, GM","FM-16","ETSE ","V020","020,1,N,0021,1","08400,1,C,N","011265,1,N,1","+0270,1","+0160,1","99999,9","02,5,+01350,1,99,9","07,5,+08400,1,99,9",,"07,99,1,99,9,99,9,99999,9,99,9,99,9","10180,1,99999,9",,,,,"MET074SPECI ETSE 011145Z 02004KT 9999 FEW045 BKN280 27/16 Q1018 BLU/FCST CANCEL;",
"10869099999","2010-07-02T06:20:00","4","48.322333","11.948667","461.77","ERDING, GM","FM-15","ETSE ","V020","999,9,C,0000,1","07500,1,C,N","009000,1,N,1","+0210,1","+0170,1","99999,9","07,5,+07500,1,99,9",,,"07,99,1,99,9,99,9,99999,9,99,9,99,9","10190,1,99999,9",,,,,"MET060METAR ETSE 020620Z 00000KT 9000 BKN250 21/17 Q1019 BLU/BLU/;",
"10869099999","2010-07-02T07:20:00","4","48.322333","11.948667","461.77","ERDING, GM","FM-15","ETSE ","V020","170,1,N,0010,1","07500,1,C,N","011265,1,N,1","+0230,1","+0170,1","99999,9","07,5,+07500,1,99,9",,,"07,99,1,99,9,99,9,99999,9,99,9,99,9","10190,1,99999,9",,,,,"MET067METAR ETSE 020720Z 17002KT 9999 BKN250 23/17 Q1019 BLU/FCST CANCEL;",
"10869099999","2010-07-05T05:20:00","4","48.322333","11.948667","461.77","ERDING, GM","FM-15","ETSE ","V020","280,1,N,0031,1","03300,1,C,N","006000,1,N,1","+0190,1","+0170,1","99999,9","04,5,+01500,1,99,9","07,5,+03300,1,99,9",,"07,99,1,99,9,99,9,99999,9,99,9,99,9","10200,1,99999,9",,,,,"MET077METAR ETSE 050520Z 28006KT 6000 SCT050 BKN110 19/17 Q1020 WHT WHT BECMG BLU/;",
"10869099999","2010-07-05T06:20:00","4","48.322333","11.948667","461.77","ERDING, GM","FM-15","ETSE ","V020","280,1,N,0021,1","99999,9,C,N","008000,1,N,1","+0210,1","+0180,1","99999,9","02,5,+00300,1,99,9","04,5,+03000,1,99,9",,"04,99,1,99,9,99,9,99999,9,99,9,99,9","10200,1,99999,9",,,,,"MET067METAR ETSE 050620Z 28004KT 8000 FEW010 SCT100 21/18 Q1020 BLU/BLU/;","P01 030003SCOCIG"
"10869099999","2010-07-05T07:20:00","4","48.322333","11.948667","461.77","ERDING, GM","FM-15","ETSE ","V020","290,1,N,0036,1","22000,1,9,N","011265,1,N,1","+0220,1","+0180,1","99999,9","02,5,+00390,1,99,9",,,"02,99,1,99,9,99,9,99999,9,99,9,99,9","10200,1,99999,9",,,,,"MET060METAR ETSE 050720Z 29007KT 9999 FEW013 22/18 Q1020 BLU/BLU/;",
"10869099999","2010-07-05T08:20:00","4","48.322333","11.948667","461.77","ERDING, GM","FM-15","ETSE ","V020","270,1,N,0026,1","22000,1,9,N","011265,1,N,1","+0220,1","+0180,1","99999,9","04,5,+00600,1,99,9",,,"04,99,1,99,9,99,9,99999,9,99,9,99,9","10200,1,99999,9",,,,,"MET060METAR ETSE 050820Z 27005KT 9999 SCT020 22/18 Q1020 BLU/BLU/;",
"10869099999","2010-07-05T09:20:00","4","48.322333","11.948667","461.77","ERDING, GM","FM-15","ETSE ","V020","280,1,N,0026,1","22000,1,9,N","011265,1,N,1","+0240,1","+0190,1","99999,9","04,5,+00630,1,99,9",,,"04,99,1,99,9,99,9,99999,9,99,9,99,9","10190,1,99999,9",,,,,"MET060METAR ETSE 050920Z 28005KT 9999 SCT021 24/19 Q1019 BLU/BLU/;",
"10869099999","2010-07-05T10:20:00","4","48.322333","11.948667","461.77","ERDING, GM","FM-15","ETSE ","V020","300,1,N,0026,1","22000,1,9,N","011265,1,N,1","+0240,1","+0170,1","99999,9","04,5,+00900,1,99,9",,,"04,99,1,99,9,99,9,99999,9,99,9,99,9","10190,1,99999,9",,,,,"MET060METAR ETSE 051020Z 30005KT 9999 SCT030 24/17 Q1019 BLU/BLU/;",
"10869099999","2010-07-05T11:20:00","4","48.322333","11.948667","461.77","ERDING, GM","FM-15","ETSE ","V020","320,1,N,0026,1","99999,9,C,N","011265,1,N,1","+0240,1","+0160,1","99999,9","02,5,+01200,1,99,9","04,5,+02400,1,99,9",,"04,99,1,99,9,99,9,99999,9,99,9,99,9","10190,1,99999,9",,,,,"MET067METAR ETSE 051120Z 32005KT 9999 FEW040 SCT080 24/16 Q1019 BLU/BLU/;","P01 024003SCOCIG"
"10869099999","2010-07-05T12:20:00","4","48.322333","11.948667","461.77","ERDING, GM","FM-15","ETSE ","V020","310,1,N,0036,1","22000,1,9,N","011265,1,N,1","+0260,1","+0150,1","99999,9","02,5,+01200,1,99,9",,,"02,99,1,99,9,99,9,99999,9,99,9,99,9","10180,1,99999,9",,,,,"MET060METAR ETSE 051220Z 31007KT 9999 FEW040 26/15 Q1018 BLU/BLU/;",
"10869099999","2010-07-05T13:20:00","4","48.322333","11.948667","461.77","ERDING, GM","FM-15","ETSE ","V020","310,1,N,0046,1","22000,1,9,N","011265,1,N,1","+0260,1","+0160,1","99999,9","02,5,+01200,1,99,9",,,"02,99,1,99,9,99,9,99999,9,99,9,99,9","10180,1,99999,9",,,,,"MET060METAR ETSE 051320Z 31009KT 9999 FEW040 26/16 Q1018 BLU/BLU/;",
"10869099999","2010-07-05T14:00:00","4","48.322333","11.948667","461.77","ERDING, GM","FM-16","ETSE ","V020","310,1,N,0046,1","22000,1,9,N","011265,1,N,1","+0270,1","+0150,1","99999,9","02,5,+01350,1,99,9",,,"02,99,1,99,9,99,9,99999,9,99,9,99,9","10180,1,99999,9",,,,,"MET067SPECI ETSE 051400Z 31009KT 9999 FEW045 27/15 Q1018 BLU/FCST CANCEL;",
"10869099999","2010-07-06T05:20:00","4","48.322333","11.948667","461.77","ERDING, GM","FM-15","ETSE ","V020","280,1,N,0031,1","99999,9,C,N","011265,1,N,1","+0180,1","+0130,1","99999,9","02,5,+01650,5,99,9","04,5,+07200,1,99,9",,"04,99,1,99,9,99,9,99999,9,99,9,99,9","10210,1,99999,9",,,,,"MET077METAR ETSE 060520Z 28006KT 9999 FEW055 SCT240 18/13 Q1021 BLU/BLU/ TEMPO BLU;","P01 072003SCOCIG"
"10869099999","2010-07-06T06:20:00","4","48.322333","11.948667","461.77","ERDING, GM","FM-15","ETSE ","V020","310,1,N,0036,1","99999,9,C,N","011265,1,N,1","+0190,1","+0140,1","99999,9","02,5,+01710,5,99,9","04,5,+03600,1,99,9",,"04,99,1,99,9,99,9,99999,9,99,9,99,9","10210,1,99999,9",,,,,"MET077METAR ETSE 060620Z 31007KT 9999 FEW057 SCT120 19/14 Q1021 BLU/BLU/ TEMPO BLU;","P01 036003SCOCIG"
"10869099999","2010-07-06T07:20:00","4","48.322333","11.948667","461.77","ERDING, GM","FM-15","ETSE ","V020","290,1,N,0036,1","02700,1,C,N","011265,1,N,1","+0190,1","+0140,1","99999,9","02,5,+00660,1,99,9","07,5,+02700,1,99,9",,"07,99,1,99,9,99,9,99999,9,99,9,99,9","10210,1,99999,9",,,,,"MET077METAR ETSE 060720Z 29007KT 9999 FEW022 BKN090 19/14 Q1021 BLU BLU/ TEMPO BLU;",
"10869099999","2010-07-06T08:20:00","4","48.322333","11.948667","461.77","ERDING, GM","FM-15","ETSE ","V020","300,1,N,0046,1","03300,1,C,N","011265,1,N,1","+0190,1","+0130,1","99999,9","02,5,+00900,1,99,9","07,5,+03300,1,99,9",,"07,99,1,99,9,99,9,99999,9,99,9,99,9","10210,1,99999,9",,,,,"MET077METAR ETSE 060820Z 30009KT 9999 FEW030 BKN110 19/13 Q1021 BLU BLU/ TEMPO BLU;",
"10869099999","2010-07-06T09:20:00","4","48.322333","11.948667","461.77","ERDING, GM","FM-15","ETSE ","V020","310,1,N,0051,1","01800,1,C,N","011265,1,N,1","+0210,1","+0130,1","99999,9","02,5,+01050,1,99,9","04,5,+01800,1,99,9","07,5,+02700,1,99,9","07,99,1,99,9,99,9,99999,9,99,9,99,9","10210,1,99999,9",,,,,"MET084METAR ETSE 060920Z 31010KT 9999 FEW035 SCT060 BKN090 21/13 Q1021 BLU BLU/ TEMPO BLU;",
"10869099999","2010-07-06T10:20:00","4","48.322333","11.948667","461.77","ERDING, GM","FM-15","ETSE ","V020","310,1,N,0062,1","99999,9,C,N","011265,1,N,1","+0200,1","+0110,1","99999,9","04,5,+01140,1,99,9","04,5,+01950,5,99,9",,"04,99,1,99,9,99,9,99999,9,99,9,99,9","10220,1,99999,9",,,,,"MET077METAR ETSE 061020Z 31012KT 9999 SCT038 SCT065 20/11 Q1022 BLU/BLU/ TEMPO BLU;","P01 019503SCOCIG"
"10869099999","2010-07-06T11:20:00","4","48.322333","11.948667","461.77","ERDING, GM","FM-15","ETSE ","V020","310,1,N,0062,1","99999,9,C,N","011265,1,N,1","+0210,1","+0120,1","99999,9","04,5,+01200,1,99,9","04,5,+01800,1,99,9",,"04,99,1,99,9,99,9,99999,9,99,9,99,9","10220,1,99999,9",,,,,"MET077METAR ETSE 061120Z 31012KT 9999 SCT040 SCT060 21/12 Q1022 BLU/BLU/ TEMPO BLU;","P01 018003SCOCIG"
"10869099999","2010-07-06T12:20:00","4","48.322333","11.948667","461.77","ERDING, GM","FM-15","ETSE ","V020","300,1,N,0072,1","22000,1,9,N","011265,1,N,1","+0220,1","+0100,1","99999,9","02,5,+01500,1,99,9",,,"02,99,1,99,9,99,9,99999,9,99,9,99,9","10210,1,99999,9",,,,,"MET070METAR ETSE 061220Z 30014KT 9999 FEW050 22/10 Q1021 BLU/BLU/ TEMPO BLU;",
"10869099999","2010-07-06T13:20:00","4","48.322333","11.948667","461.77","ERDING, GM","FM-15","ETSE ","V020","320,1,N,0062,1","22000,1,9,N","011265,1,N,1","+0220,1","+0090,1","99999,9","02,5,+01500,1,99,9",,,"02,99,1,99,9,99,9,99999,9,99,9,99,9","10210,1,99999,9",,,,,"MET070METAR ETSE 061320Z 32012KT 9999 FEW050 22/09 Q1021 BLU/BLU/ TEMPO BLU;",
"10869099999","2010-07-06T14:20:00","4","48.322333","11.948667","461.77","ERDING, GM","FM-15","ETSE ","V020","310,1,N,0062,1","22000,1,9,N","011265,1,N,1","+0220,1","+0080,1","99999,9","02,5,+01800,1,99,9",,,"02,99,1,99,9,99,9,99999,9,99,9,99,9","10210,1,99999,9",,,,,"MET067METAR ETSE 061420Z 31012KT 9999 FEW060 22/08 Q1021 BLU/FCST CANCEL;",
"10869099999","2010-07-07T05:20:00","4","48.322333","11.948667","461.77","ERDING, GM","FM-15","ETSE ","V020","999,9,C,0000,1","08100,1,C,N","011265,1,N,1","+0150,1","+0110,1","99999,9","02,5,+02400,1,99,9","07,5,+08100,1,99,9",,"07,99,1,99,9,99,9,99999,9,99,9,99,9","10240,1,99999,9",,,,,"MET063METAR ETSE 070520Z 00000KT 9999 FEW080 BKN270 15/11 Q1024 BLU/;",
"10869099999","2010-07-07T06:20:00","4","48.322333","11.948667","461.77","ERDING, GM","FM-15","ETSE ","V020","999,9,C,0000,1","08100,1,C,N","011265,1,N,1","+0170,1","+0090,1","99999,9","02,5,+06000,1,99,9","07,5,+08100,1,99,9",,"07,99,1,99,9,99,9,99999,9,99,9,99,9","10240,1,99999,9",,,,,"MET063METAR ETSE 070620Z 00000KT 9999 FEW200 BKN270 17/09 Q1024 BLU/;",
"10869099999","2010-07-07T07:20:00","4","48.322333","11.948667","461.77","ERDING, GM","FM-15","ETSE ","V020","999,9,V,0005,1","08100,1,C,N","011265,1,N,1","+0180,1","+0080,1","99999,9","02,5,+01200,1,99,9","07,5,+08100,1,99,9",,"07,99,1,99,9,99,9,99999,9,99,9,99,9","10240,1,99999,9",,,,,"MET067METAR ETSE 070720Z VRB01KT 9999 FEW040 BKN270 18/08 Q1024 BLU/BLU/;",
"10869099999","2010-07-07T08:20:00","4","48.322333","11.948667","461.77","ERDING, GM","FM-15","ETSE ","V020","999,9,C,0000,1","08100,1,C,N","011265,1,N,1","+0190,1","+0070,1","99999,9","02,5,+01500,1,99,9","07,5,+08100,1,99,9",,"07,99,1,99,9,99,9,99999,9,99,9,99,9","10240,1,99999,9",,,,,"MET067METAR ETSE 070820Z 00000KT 9999 FEW050 BKN270 19/07 Q1024 BLU/BLU/;",
"10869099999","2010-07-07T09:20:00","4","48.322333","11.948667","461.77","ERDING, GM","FM-15","ETSE ","V020","030,1,N,0015,1","22000,1,9,N","011265,1,N,1","+0200,1","+0060,1","99999,9","02,5,+01500,1,99,9",,,"02,99,1,99,9,99,9,99999,9,99,9,99,9","10240,1,99999,9",,,,,"MET060METAR ETSE 070920Z 03003KT 9999 FEW050 20/06 Q1024 BLU/BLU/;",
"10869099999","2010-07-07T10:20:00","4","48.322333","11.948667","461.77","ERDING, GM","FM-15","ETSE ","V020","360,1,N,0021,1","22000,1,9,N","011265,1,N,1","+0200,1","+0060,1","99999,9","02,5,+01650,5,99,9",,,"02,99,1,99,9,99,9,99999,9,99,9,99,9","10251,1,99999,9",,,,,"MET060METAR ETSE 071020Z 36004KT 9999 FEW055 20/06 Q1025 BLU/BLU/;",
"10869099999","2010-07-07T11:20:00","4","48.322333","11.948667","461.77","ERDING, GM","FM-15","ETSE ","V020","240,1,N,0021,1","22000,1,9,N","011265,1,N,1","+0210,1","+0070,1","99999,9","02,5,+01800,1,99,9",,,"02,99,1,99,9,99,9,99999,9,99,9,99,9","10240,1,99999,9",,,,,"MET060METAR ETSE 071120Z 24004KT 9999 FEW060 21/07 Q1024 BLU/BLU/;",
"10869099999","2010-07-07T12:20:00","4","48.322333","11.948667","461.77","ERDING, GM","FM-15","ETSE ","V020","070,1,N,0005,1","22000,1,9,N","011265,1,N,1","+0210,1","+0070,1","99999,9","02,5,+01800,1,99,9",,,"02,99,1,99,9,99,9,99999,9,99,9,99,9","10240,1,99999,9",,,,,"MET067METAR ETSE 071220Z 07001KT 9999 FEW060 21/07 Q1024 BLU/FCST CANCEL;",
"10869099999","2010-07-07T13:20:00","4","48.322333","11.948667","461.77","ERDING, GM","FM-15","ETSE ","V020","100,1,N,0021,1","22000,1,9,N","011265,1,N,1","+0220,1","+0070,1","99999,9","02,5,+01800,1,99,9",,,"02,99,1,99,9,99,9,99999,9,99,9,99,9","10240,1,99999,9",,,,,"MET056METAR ETSE 071320Z 10004KT 9999 FEW060 22/07 Q1024 BLU/;",
"10869099999","2010-07-08T05:20:00","4","48.322333","11.948667","461.77","ERDING, GM","FM-15","ETSE ","V020","120,1,N,0010,1","22000,1,9,N","011265,1,N,1","+0140,1","+0100,1","99999,9","02,5,+07500,1,99,9",,,"02,99,1,99,9,99,9,99999,9,99,9,99,9","10230,1,99999,9",,,,,"MET060METAR ETSE 080520Z 12002KT 9999 FEW250 14/10 Q1023 BLU/BLU/;",
"10869099999","2010-07-08T06:20:00","4","48.322333","11.948667","461.77","ERDING, GM","FM-15","ETSE ","V020","999,9,V,0005,1","22000,1,9,N","011265,1,N,1","+0160,1","+0110,1","99999,9","02,5,+07500,1,99,9",,,"02,99,1,99,9,99,9,99999,9,99,9,99,9","10230,1,99999,9",,,,,"MET060METAR ETSE 080620Z VRB01KT 9999 FEW250 16/11 Q1023 BLU/BLU/;",
"10869099999","2010-07-08T07:20:00","4","48.322333","11.948667","461.77","ERDING, GM","FM-15","ETSE ","V020","110,1,N,0031,1","22000,1,9,N","011265,1,N,1","+0190,1","+0100,1","99999,9","02,5,+07500,1,99,9",,,"02,99,1,99,9,99,9,99999,9,99,9,99,9","10230,1,99999,9",,,,,"MET060METAR ETSE 080720Z 11006KT 9999 FEW250 19/10 Q1023 BLU/BLU/;",
"10869099999","2010-07-08T08:20:00","4","48.322333","11.948667","461.77","ERDING, GM","FM-15","ETSE ","V020","110,1,N,0041,1","22000,1,9,N","011265,1,N,1","+0210,1","+0090,1","99999,9","02,5,+05100,1,99,9",,,"02,99,1,99,9,99,9,99999,9,99,9,99,9","10230,1,99999,9",,,,,"MET060METAR ETSE 080820Z 11008KT 9999 FEW170 21/09 Q1023 BLU/BLU/;",
"10869099999","2010-07-08T09:20:00","4","48.322333","11.948667","461.77","ERDING, GM","FM-15","ETSE ","V020","120,1,N,0036,1","22000,1,9,N","011265,1,N,1","+0220,1","+0090,1","99999,9","02,5,+05100,1,99,9",,,"02,99,1,99,9,99,9,99999,9,99,9,99,9","10230,1,99999,9",,,,,"MET060METAR ETSE 080920Z 12007KT 9999 FEW170 22/09 Q1023 BLU/BLU/;",
"10869099999","2010-07-08T10:20:00","4","48.322333","11.948667","461.77","ERDING, GM","FM-15","ETSE ","V020","090,1,N,0031,1","22000,1,9,N","011265,1,N,1","+0220,1","+0080,1","99999,9","02,5,+05100,1,99,9",,,"02,99,1,99,9,99,9,99999,9,99,9,99,9","10230,1,99999,9",,,,,"MET060METAR ETSE 081020Z 09006KT 9999 FEW170 22/08 Q1023 BLU/BLU/;",
"10869099999","2010-07-08T11:20:00","4","48.322333","11.948667","461.77","ERDING, GM","FM-15","ETSE ","V020","130,1,N,0026,1","22000,1,9,N","011265,1,N,1","+0230,1","+0080,1","99999,9","02,5,+05100,1,99,9",,,"02,99,1,99,9,99,9,99999,9,99,9,99,9","10230,1,99999,9",,,,,"MET060METAR ETSE 081120Z 13005KT 9999 FEW170 23/08 Q1023 BLU/BLU/;",
"10869099999","2010-07-08T12:20:00","4","48.322333","11.948667","461.77","ERDING, GM","FM-15","ETSE ","V020","080,1,N,0005,1","22000,1,9,N","011265,1,N,1","+0240,1","+0070,1","99999,9","02,5,+05100,1,99,9",,,"02,99,1,99,9,99,9,99999,9,99,9,99,9","10230,1,99999,9",,,,,"MET060METAR ETSE 081220Z 08001KT 9999 FEW170 24/07 Q1023 BLU/BLU/;",
"10869099999","2010-07-08T13:20:00","4","48.322333","11.948667","461.77","ERDING, GM","FM-15","ETSE ","V020","999,9,C,0000,1","22000,1,9,N","011265,1,N,1","+0260,1","+0070,1","99999,9","02,5,+05100,1,99,9",,,"02,99,1,99,9,99,9,99999,9,99,9,99,9","10220,1,99999,9",,,,,"MET060METAR ETSE 081320Z 00000KT 9999 FEW170 26/07 Q1022 BLU/BLU/;",
"10869099999","2010-07-08T14:20:00","4","48.322333","11.948667","461.77","ERDING, GM","FM-15","ETSE ","V020","999,9,V,0005,1","22000,1,9,N","011265,1,N,1","+0260,1","+0070,1","99999,9","02,5,+09000,1,99,9",,,"02,99,1,99,9,99,9,99999,9,99,9,99,9","10220,1,99999,9",,,,,"MET067METAR ETSE 081420Z VRB01KT 9999 FEW300 26/07 Q1022 BLU/FCST CANCEL;",
"10869099999","2010-07-09T05:20:00","4","48.322333","11.948667","461.77","ERDING, GM","FM-15","ETSE ","V020","210,1,N,0010,1","22000,1,9,N","011265,1,N,1","+0160,1","+0120,1","99999,9","02,5,+08400,1,99,9",,,"02,99,1,99,9,99,9,99999,9,99,9,99,9","10230,1,99999,9",,,,,"MET060METAR ETSE 090520Z 21002KT 9999 FEW280 16/12 Q1023 BLU/BLU/;",
"10869099999","2010-07-09T06:20:00","4","48.322333","11.948667","461.77","ERDING, GM","FM-15","ETSE ","V020","130,1,N,0010,1","22000,1,9,N","011265,1,N,1","+0200,1","+0130,1","99999,9","02,5,+08400,1,99,9",,,"02,99,1,99,9,99,9,99999,9,99,9,99,9","10230,1,99999,9",,,,,"MET060METAR ETSE 090620Z 13002KT 9999 FEW280 20/13 Q1023 BLU/BLU/;",
"10869099999","2010-07-09T07:20:00","4","48.322333","11.948667","461.77","ERDING, GM","FM-15","ETSE ","V020","070,1,N,0010,1","22000,1,9,N","011265,1,N,1","+0220,1","+0140,1","99999,9","02,5,+08400,1,99,9",,,"02,99,1,99,9,99,9,99999,9,99,9,99,9","10230,1,99999,9",,,,,"MET067METAR ETSE 090720Z 07002KT 9999 FEW280 22/14 Q1023 BLU/FCST CANCEL;",
"10869099999","2010-07-09T08:20:00","4","48.322333","11.948667","461.77","ERDING, GM","FM-15","ETSE ","V020","100,1,N,0021,1","22000,1,9,N","011265,1,N,1","+0240,1","+0140,1","99999,9","02,5,+08400,1,99,9",,,"02,99,1,99,9,99,9,99999,9,99,9,99,9","10220,1,99999,9",,,,,"MET056METAR ETSE 090820Z 10004KT 9999 FEW280 24/14 Q1022 BLU/;",
"10869099999","2010-07-09T09:20:00","4","48.322333","11.948667","461.77","ERDING, GM","FM-15","ETSE ","V020","090,1,N,0010,1","22000,1,9,N","011265,1,N,1","+0260,1","+0130,1","99999,9","02,5,+08400,1,99,9",,,"02,99,1,99,9,99,9,99999,9,99,9,99,9","10230,1,99999,9",,,,,"MET056METAR ETSE 090920Z 09002KT 9999 FEW280 26/13 Q1023 BLU/;",
"10869099999","2010-07-12T05:20:00","4","48.322333","11.948667","461.77","ERDING, GM","FM-15","ETSE ","V020","210,1,N,0015,1","99999,9,C,N","011265,1,N,1","+0200,1","+0160,1","99999,9","02,5,+04800,1,99,9","04,5,+09000,1,99,9",,"04,99,1,99,9,99,9,99999,9,99,9,99,9","10180,1,99999,9",,,,,"MET067METAR ETSE 120520Z 21003KT 9999 FEW160 SCT300 20/16 Q1018 BLU/BLU/;","P01 090003SCOCIG"
"10869099999","2010-07-12T06:20:00","4","48.322333","11.948667","461.77","ERDING, GM","FM-15","ETSE ","V020","190,1,N,0021,1","99999,9,C,N","011265,1,N,1","+0230,1","+0160,1","99999,9","02,5,+04800,1,99,9","04,5,+09000,1,99,9",,"04,99,1,99,9,99,9,99999,9,99,9,99,9","10169,1,99999,9",,,,,"MET067METAR ETSE 120620Z 19004KT 9999 FEW160 SCT300 23/16 Q1017 BLU/BLU/;","P01 090003SCOCIG"
"10869099999","2010-07-12T07:20:00","4","48.322333","11.948667","461.77","ERDING, GM","FM-15","ETSE ","V020","999,9,V,0005,1","99999,9,C,N","011265,1,N,1","+0260,1","+0160,1","99999,9","02,5,+04800,1,99,9","04,5,+09000,1,99,9",,"04,99,1,99,9,99,9,99999,9,99,9,99,9","10169,1,99999,9",,,,,"MET067METAR ETSE 120720Z VRB01KT 9999 FEW160 SCT300 26/16 Q1017 BLU/BLU/;","P01 090003SCOCIG"
"10869099999","2010-07-12T08:20:00","4","48.322333","11.948667","461.77","ERDING, GM","FM-15","ETSE ","V020","999,9,V,0010,1","22000,1,9,N","011265,1,N,1","+0270,1","+0170,1","99999,9","04,5,+09000,1,99,9",,,"04,99,1,99,9,99,9,99999,9,99,9,99,9","10159,1,99999,9",,,,,"MET060METAR ETSE 120820Z VRB02KT 9999 SCT300 27/17 Q1016 BLU/BLU/;",
"10869099999","2010-07-12T09:20:00","4","48.322333","11.948667","461.77","ERDING, GM","FM-15","ETSE ","V020","999,9,V,0010,1","22000,1,9,N","011265,1,N,1","+0270,1","+0170,1","99999,9","04,5,+09000,1,99,9",,,"04,99,1,99,9,99,9,99999,9,99,9,99,9","10159,1,99999,9",,,,,"MET060METAR ETSE 120920Z VRB02KT 9999 SCT300 27/17 Q1016 BLU/BLU/;",
"10869099999","2010-07-12T10:20:00","4","48.322333","11.948667","461.77","ERDING, GM","FM-15","ETSE ","V020","999,9,V,0010,1","22000,1,9,N","011265,1,N,1","+0300,1","+0170,1","99999,9","04,5,+09000,1,99,9",,,"04,99,1,99,9,99,9,99999,9,99,9,99,9","10159,1,99999,9",,,,,"MET060METAR ETSE 121020Z VRB02KT 9999 SCT300 30/17 Q1016 BLU/BLU/;",
"10869099999","2010-07-12T11:20:00","4","48.322333","11.948667","461.77","ERDING, GM","FM-15","ETSE ","V020","999,9,V,0005,1","99999,9,C,N","011265,1,N,1","+0300,1","+0170,1","99999,9","02,5,+01350,1,99,9","04,5,+09000,1,99,9",,"04,99,1,99,9,99,9,99999,9,99,9,99,9","10159,1,99999,9",,,,,"MET067METAR ETSE 121120Z VRB01KT 9999 FEW045 SCT300 30/17 Q1016 BLU/BLU/;","P01 090003SCOCIG"
"10869099999","2010-07-12T12:20:00","4","48.322333","11.948667","461.77","ERDING, GM","FM-15","ETSE ","V020","020,1,N,0015,1","99999,9,C,N","011265,1,N,1","+0310,1","+0150,1","99999,9","02,5,+01500,1,02,1","04,5,+09000,1,99,9",,"04,99,1,99,9,99,9,99999,9,99,9,99,9","10149,1,99999,9",,,,,"MET070METAR ETSE 121220Z 02003KT 9999 FEW050TCU SCT300 31/15 Q1015 BLU/BLU/;","P01 090003SCOCIG"
"10869099999","2010-07-12T13:20:00","4","48.322333","11.948667","461.77","ERDING, GM","FM-15","ETSE ","V020","120,1,N,0015,1","99999,9,C,N","011265,1,N,1","+0310,1","+0140,1","99999,9","02,5,+01500,1,09,1","04,5,+09000,1,99,9",,"04,99,1,99,9,99,9,99999,9,99,9,99,9","10139,1,99999,9",,,,,"MET069METAR ETSE 121320Z 12003KT 9999 FEW050CB SCT300 31/14 Q1014 BLU/BLU/;","P01 090003SCOCIG"
"10869099999","2010-07-12T14:00:00","4","48.322333","11.948667","461.77","ERDING, GM","FM-16","ETSE ","V020","100,1,N,0015,1","99999,9,C,N","011265,1,N,1","+0300,1","+0150,1","99999,9","02,5,+01500,1,09,1","04,5,+09000,1,99,9",,"04,99,1,99,9,99,9,99999,9,99,9,99,9","10129,1,99999,9",,,,,"MET076SPECI ETSE 121400Z 10003KT 9999 FEW050CB SCT300 30/15 Q1013 BLU/FCST CANCEL;","P01 090003SCOCIG"
"10869099999","2010-07-13T05:20:00","4","48.322333","11.948667","461.77","ERDING, GM","FM-15","ETSE ","V020","090,1,N,0015,1","99999,9,C,N","011265,1,N,1","+0190,1","+0160,1","99999,9","02,5,+04800,1,99,9","04,5,+08100,1,99,9",,"04,99,1,99,9,99,9,99999,9,99,9,99,9","10149,1,99999,9",,,,,"MET067METAR ETSE 130520Z 09003KT 9999 FEW160 SCT270 19/16 Q1015 BLU/BLU/;","P01 081003SCOCIG"
"10869099999","2010-07-13T06:20:00","4","48.322333","11.948667","461.77","ERDING, GM","FM-15","ETSE ","V020","999,9,V,0010,1","99999,9,C,N","011265,1,N,1","+0210,1","+0150,1","99999,9","02,5,+04800,1,99,9","04,5,+08100,1,99,9",,"04,99,1,99,9,99,9,99999,9,99,9,99,9","10149,1,99999,9",,,,,"MET077METAR ETSE 130620Z VRB02KT 9999 FEW160 SCT270 21/15 Q1015 BLU/BLU/ TEMPO BLU;","P01 081003SCOCIG"
"10869099999","2010-07-13T07:20:00","4","48.322333","11.948667","461.77","ERDING, GM","FM-15","ETSE ","V020","130,1,N,0010,1","09000,1,C,N","011265,1,N,1","+0230,1","+0160,1","99999,9","02,5,+04800,1,99,9","07,5,+09000,1,99,9",,"07,99,1,99,9,99,9,99999,9,99,9,99,9","10149,1,99999,9",,,,,"MET067METAR ETSE 130720Z 13002KT 9999 FEW160 BKN300 23/16 Q1015 BLU/BLU/;",
"10869099999","2010-07-13T08:20:00","4","48.322333","11.948667","461.77","ERDING, GM","FM-15","ETSE ","V020","999,9,V,0010,1","08700,1,C,N","011265,1,N,1","+0240,1","+0140,1","99999,9","02,5,+04200,1,99,9","07,5,+08700,1,99,9",,"07,99,1,99,9,99,9,99999,9,99,9,99,9","10149,1,99999,9",,,,,"MET067METAR ETSE 130820Z VRB02KT 9999 FEW140 BKN290 24/14 Q1015 BLU/BLU/;",
"10869099999","2010-07-13T09:20:00","4","48.322333","11.948667","461.77","ERDING, GM","FM-15","ETSE ","V020","110,1,N,0015,1","08700,1,C,N","011265,1,N,1","+0250,1","+0140,1","99999,9","02,5,+04800,1,99,9","07,5,+08700,1,99,9",,"07,99,1,99,9,99,9,99999,9,99,9,99,9","10149,1,99999,9",,,,,"MET067METAR ETSE 130920Z 11003KT 9999 FEW160 BKN290 25/14 Q1015 BLU/BLU/;",
"10869099999","2010-07-13T10:20:00","4","48.322333","11.948667","461.77","ERDING, GM","FM-15","ETSE ","V020","160,1,N,0015,1","08700,1,C,N","011265,1,N,1","+0270,1","+0150,1","99999,9","02,5,+01260,1,99,9","07,5,+08700,1,99,9",,"07,99,1,99,9,99,9,99999,9,99,9,99,9","10139,1,99999,9",,,,,"MET067METAR ETSE 131020Z 16003KT 9999 FEW042 BKN290 27/15 Q1014 BLU/BLU/;",
"10869099999","2010-07-13T11:20:00","4","48.322333","11.948667","461.77","ERDING, GM","FM-15","ETSE ","V020","340,1,N,0015,1","04500,1,C,N","011265,1,N,1","+0280,1","+0140,1","99999,9","02,5,+01350,1,99,9","04,5,+04500,1,99,9","07,5,+08700,1,99,9","07,99,1,99,9,99,9,99999,9,99,9,99,9","10139,1,99999,9",,,,,"MET074METAR ETSE 131120Z 34003KT 9999 FEW045 SCT150 BKN290 28/14 Q1014 BLU/BLU/;",
"10869099999","2010-07-13T12:20:00","4","48.322333","11.948667","461.77","ERDING, GM","FM-15","ETSE ","V020","020,1,N,0021,1","08700,1,C,N","011265,1,N,1","+0290,1","+0150,1","99999,9","02,5,+01500,1,99,9","07,5,+08700,1,99,9",,"07,99,1,99,9,99,9,99999,9,99,9,99,9","10139,1,99999,9",,,,,"MET067METAR ETSE 131220Z 02004KT 9999 FEW050 BKN290 29/15 Q1014 BLU/BLU/;",
"10869099999","2010-07-13T13:20:00","4","48.322333","11.948667","461.77","ERDING, GM","FM-15","ETSE ","V020","310,1,N,0021,1","09000,1,C,N","011265,1,N,1","+0290,1","+0140,1","99999,9","02,5,+01500,1,99,9","07,5,+09000,1,99,9",,"07,99,1,99,9,99,9,99999,9,99,9,99,9","10129,1,99999,9",,,,,"MET067METAR ETSE 131320Z 31004KT 9999 FEW050 BKN300 29/14 Q1013 BLU/BLU/;",
"10869099999","2010-07-13T14:00:00","4","48.322333","11.948667","461.77","ERDING, GM","FM-16","ETSE ","V020","110,1,N,0015,1","09000,1,C,N","011265,1,N,1","+0280,1","+0150,1","99999,9","02,5,+01500,1,99,9","07,5,+09000,1,99,9",,"07,99,1,99,9,99,9,99999,9,99,9,99,9","10129,1,99999,9",,,,,"MET074SPECI ETSE 131400Z 11003KT 9999 FEW050 BKN300 28/15 Q1013 BLU/FCST CANCEL;",
"10869099999","2010-07-14T05:20:00","4","48.322333","11.948667","461.77","ERDING, GM","FM-15","ETSE ","V020","130,1,N,0015,1","99999,9,C,N","011265,1,N,1","+0190,1","+0160,1","99999,9","04,5,+02400,1,99,9","04,5,+03300,1,99,9",,"04,99,1,99,9,99,9,99999,9,99,9,99,9","10129,1,99999,9",,,,,"MET063METAR ETSE 140520Z 13003KT 9999 SCT080 SCT110 19/16 Q1013 BLU/;","P01 033003SCOCIG"
"10869099999","2010-07-14T06:20:00","4","48.322333","11.948667","461.77","ERDING, GM","FM-15","ETSE ","V020","090,1,N,0015,1","02700,1,C,N","011265,1,N,1","+0210,1","+0170,1","99999,9","07,5,+02700,1,99,9",,,"07,99,1,99,9,99,9,99999,9,99,9,99,9","10129,1,99999,9",,,,,"MET055METAR ETSE 140620Z 09003KT 9999 BKN090 21/17 Q1013 BLU;",
"10869099999","2010-07-14T07:20:00","4","48.322333","11.948667","461.77","ERDING, GM","FM-15","ETSE ","V020","999,9,V,0010,1","03300,1,C,N","011265,1,N,1","+0230,1","+0180,1","99999,9","07,5,+03300,1,99,9",,,"07,99,1,99,9,99,9,99999,9,99,9,99,9","10129,1,99999,9",,,,,"MET070METAR ETSE 140720Z VRB02KT 9999 BKN110 23/18 Q1013 BLU BLU BECMG BLU/;",
"10869099999","2010-07-14T08:20:00","4","48.322333","11.948667","461.77","ERDING, GM","FM-15","ETSE ","V020","170,1,N,0010,1","99999,9,C,N","011265,1,N,1","+0250,1","+0180,1","99999,9","04,5,+03600,1,99,9","04,5,+09000,1,99,9",,"04,99,1,99,9,99,9,99999,9,99,9,99,9","10129,1,99999,9",,,,,"MET067METAR ETSE 140820Z 17002KT 9999 SCT120 SCT300 25/18 Q1013 BLU/BLU/;","P01 090003SCOCIG"
"10869099999","2010-07-14T09:20:00","4","48.322333","11.948667","461.77","ERDING, GM","FM-15","ETSE ","V020","120,1,N,0015,1","22000,1,9,N","011265,1,N,1","+0260,1","+0180,1","99999,9","02,5,+03600,1,99,9",,,"02,99,1,99,9,99,9,99999,9,99,9,99,9","10129,1,99999,9",,,,,"MET060METAR ETSE 140920Z 12003KT 9999 FEW120 26/18 Q1013 BLU/BLU/;",
"10869099999","2010-07-14T10:20:00","4","48.322333","11.948667","461.77","ERDING, GM","FM-15","ETSE ","V020","120,1,N,0021,1","22000,1,9,N","011265,1,N,1","+0280,1","+0170,1","99999,9","02,5,+01200,1,99,9",,,"02,99,1,99,9,99,9,99999,9,99,9,99,9","10129,1,99999,9",,,,,"MET060METAR ETSE 141020Z 12004KT 9999 FEW040 28/17 Q1013 BLU/BLU/;",
"10869099999","2010-07-14T11:20:00","4","48.322333","11.948667","461.77","ERDING, GM","FM-15","ETSE ","V020","120,1,N,0021,1","99999,9,C,N","011265,1,N,1","+0300,1","+0150,1","99999,9","02,5,+01350,1,99,9","04,5,+09000,1,99,9",,"04,99,1,99,9,99,9,99999,9,99,9,99,9","10119,1,99999,9",,,,,"MET067METAR ETSE 141120Z 12004KT 9999 FEW045 SCT300 30/15 Q1012 BLU/BLU/;","P01 090003SCOCIG"
"10869099999","2010-07-14T12:20:00","4","48.322333","11.948667","461.77","ERDING, GM","FM-15","ETSE ","V020","100,1,N,0036,1","99999,9,C,N","011265,1,N,1","+0300,1","+0150,1","99999,9","02,5,+01350,1,99,9","04,5,+09000,1,99,9",,"04,99,1,99,9,99,9,99999,9,99,9,99,9","10119,1,99999,9",,,,,"MET067METAR ETSE 141220Z 10007KT 9999 FEW045 SCT300 30/15 Q1012 BLU/BLU/;","P01 090003SCOCIG"
"10869099999","2010-07-14T13:20:00","4","48.322333","11.948667","461.77","ERDING, GM","FM-15","ETSE ","V020","130,1,N,0036,1","99999,9,C,N","011265,1,N,1","+0310,1","+0130,1","99999,9","02,5,+01800,1,99,9","04,5,+09000,1,99,9",,"04,99,1,99,9,99,9,99999,9,99,9,99,9","10108,1,99999,9",,,,,"MET067METAR ETSE 141320Z 13007KT 9999 FEW060 SCT300 31/13 Q1011 BLU/BLU/;","P01 090003SCOCIG"
"10869099999","2010-07-14T14:00:00","4","48.322333","11.948667","461.77","ERDING, GM","FM-16","ETSE ","V020","110,1,N,0031,1","09000,1,C,N","011265,1,N,1","+0310,1","+0140,1","99999,9","02,5,+01950,5,99,9","07,5,+09000,1,99,9",,"07,99,1,99,9,99,9,99999,9,99,9,99,9","10102,1,99999,9",,,,,"MET074SPECI ETSE 141400Z 11006KT 9999 FEW065 BKN300 31/14 Q1010 BLU/FCST CANCEL;",
"10869099999","2010-07-15T05:20:00","4","48.322333","11.948667","461.77","ERDING, GM","FM-15","ETSE ","V020","280,1,N,0021,1","99999,9,C,N","011265,1,N,1","+0200,1","+0180,1","99999,9","04,5,+02700,1,99,9","04,5,+03600,1,99,9",,"04,99,1,99,9,99,9,99999,9,99,9,99,9","10159,1,99999,9",,,,,"MET077METAR ETSE 150520Z 28004KT 9999 SCT090 SCT120 20/18 Q1016 BLU/BLU/ TEMPO BLU;","P01 036003SCOCIG"
"10869099999","2010-07-15T06:20:00","4","48.322333","11.948667","461.77","ERDING, GM","FM-15","ETSE ","V020","280,1,N,0010,1","02700,1,C,N","011265,1,N,1","+0210,1","+0170,1","99999,9","02,5,+00600,1,99,9","07,5,+02700,1,99,9","07,5,+03600,1,99,9","07,99,1,99,9,99,9,99999,9,99,9,99,9","10169,1,99999,9",,,,,"MET084METAR ETSE 150620Z 28002KT 9999 FEW020 BKN090 BKN120 21/17 Q1017 BLU BLU/ TEMPO BLU;",
"10869099999","2010-07-15T07:20:00","4","48.322333","11.948667","461.77","ERDING, GM","FM-15","ETSE ","V020","310,1,N,0026,1","02700,1,C,N","011265,1,N,1","+0210,1","+0180,1","99999,9","04,5,+00330,1,99,9","04,5,+02700,1,99,9","07,5,+04200,1,99,9","07,99,1,99,9,99,9,99999,9,99,9,99,9","10169,1,99999,9",,,,,"MET084METAR ETSE 150720Z 31005KT 9999 SCT011 SCT090 BKN140 21/18 Q1017 BLU BLU/ TEMPO BLU;",
"10869099999","2010-07-15T08:20:00","4","48.322333","11.948667","461.77","ERDING, GM","FM-15","ETSE ","V020","360,1,N,0021,1","03000,1,C,N","011265,1,N,1","+0220,1","+0180,1","99999,9","02,5,+00480,1,99,9","04,5,+03000,1,99,9","07,5,+04200,1,99,9","07,99,1,99,9,99,9,99999,9,99,9,99,9","10169,1,99999,9",,,,,"MET084METAR ETSE 150820Z 36004KT 9999 FEW016 SCT100 BKN140 22/18 Q1017 BLU BLU/ TEMPO BLU;",
"10869099999","2010-07-15T09:20:00","4","48.322333","11.948667","461.77","ERDING, GM","FM-15","ETSE ","V020","360,1,N,0031,1","02400,1,C,N","011265,1,N,1","+0230,1","+0170,1","99999,9","02,5,+00600,1,99,9","04,5,+02400,1,99,9","07,5,+03900,1,99,9","07,99,1,99,9,99,9,99999,9,99,9,99,9","10169,1,99999,9",,,,,"MET084METAR ETSE 150920Z 36006KT 9999 FEW020 SCT080 BKN130 23/17 Q1017 BLU BLU/ TEMPO BLU;",
"10869099999","2010-07-15T10:20:00","4","48.322333","11.948667","461.77","ERDING, GM","FM-15","ETSE ","V020","010,1,N,0026,1","02400,1,C,N","011265,1,N,1","+0240,1","+0170,1","99999,9","04,5,+00690,1,99,9","07,5,+02400,1,99,9",,"07,99,1,99,9,99,9,99999,9,99,9,99,9","10169,1,99999,9",,,,,"MET077METAR ETSE 151020Z 01005KT 9999 SCT023 BKN080 24/17 Q1017 BLU BLU/ TEMPO BLU;",
"10869099999","2010-07-15T11:20:00","4","48.322333","11.948667","461.77","ERDING, GM","FM-15","ETSE ","V020","350,1,N,0036,1","01200,1,C,N","011265,1,N,1","+0240,1","+0180,1","99999,9","02,5,+00600,1,99,9","04,5,+01200,1,99,9","07,5,+07200,1,99,9","07,99,1,99,9,99,9,99999,9,99,9,99,9","10169,1,99999,9",,,,,"MET084METAR ETSE 151120Z 35007KT 9999 FEW020 SCT040 BKN240 24/18 Q1017 BLU/BLU/ TEMPO BLU;",
"10869099999","2010-07-15T12:20:00","4","48.322333","11.948667","461.77","ERDING, GM","FM-15","ETSE ","V020","340,1,N,0031,1","01200,1,C,N","011265,1,N,1","+0240,1","+0180,1","99999,9","02,5,+00840,1,99,9","04,5,+01200,1,99,9","07,5,+07200,1,99,9","07,99,1,99,9,99,9,99999,9,99,9,99,9","10169,1,99999,9",,,,,"MET084METAR ETSE 151220Z 34006KT 9999 FEW028 SCT040 BKN240 24/18 Q1017 BLU/BLU/ TEMPO BLU;",
"10869099999","2010-07-15T13:20:00","4","48.322333","11.948667","461.77","ERDING, GM","FM-15","ETSE ","V020","340,1,N,0031,1","07200,1,C,N","011265,1,N,1","+0250,1","+0180,1","99999,9","02,5,+00840,1,99,9","07,5,+07200,1,99,9",,"07,99,1,99,9,99,9,99999,9,99,9,99,9","10169,1,99999,9",,,,,"MET077METAR ETSE 151320Z 34006KT 9999 FEW028 BKN240 25/18 Q1017 BLU/BLU/ TEMPO BLU;",
"10869099999","2010-07-15T14:20:00","4","48.322333","11.948667","461.77","ERDING, GM","FM-15","ETSE ","V020","360,1,N,0036,1","01800,1,C,N","011265,1,N,1","+0250,1","+0180,1","99999,9","02,5,+00900,1,99,9","04,5,+01800,1,99,9","07,5,+07200,1,99,9","07,99,1,99,9,99,9,99999,9,99,9,99,9","10169,1,99999,9",,,,,"MET084METAR ETSE 151420Z 36007KT 9999 FEW030 SCT060 BKN240 25/18 Q1017 BLU/BLU/ TEMPO BLU;",
"10869099999","2010-07-15T15:00:00","4","48.322333","11.948667","461.77","ERDING, GM","FM-16","ETSE ","V020","020,1,N,0031,1","01800,1,C,N","011265,1,N,1","+0270,1","+0170,1","99999,9","02,5,+00900,1,99,9","07,5,+01800,1,99,9","07,5,+07200,1,99,9","07,99,1,99,9,99,9,99999,9,99,9,99,9","10169,1,99999,9",,,,,"MET081SPECI ETSE 151500Z 02006KT 9999 FEW030 BKN060 BKN240 27/17 Q1017 BLU FCST CANCEL;",
"10869099999","2010-07-16T05:20:00","4","48.322333","11.948667","461.77","ERDING, GM","FM-15","ETSE ","V020","110,1,N,0026,1","22000,1,9,N","011265,1,N,1","+0200,1","+0170,1","99999,9","02,5,+03300,1,99,9",,,"02,99,1,99,9,99,9,99999,9,99,9,99,9","10169,1,99999,9",,,,,"MET056METAR ETSE 160520Z 11005KT 9999 FEW110 20/17 Q1017 BLU/;",
"10869099999","2010-07-16T06:20:00","4","48.322333","11.948667","461.77","ERDING, GM","FM-15","ETSE ","V020","100,1,N,0021,1","22000,1,9,N","011265,1,N,1","+0210,1","+0180,1","99999,9","02,5,+03300,1,99,9",,,"02,99,1,99,9,99,9,99999,9,99,9,99,9","10180,1,99999,9",,,,,"MET056METAR ETSE 160620Z 10004KT 9999 FEW110 21/18 Q1018 BLU/;",
"10869099999","2010-07-16T07:20:00","4","48.322333","11.948667","461.77","ERDING, GM","FM-15","ETSE ","V020","110,1,N,0015,1","22000,1,9,N","011265,1,N,1","+0240,1","+0180,1","99999,9","02,5,+03300,1,99,9",,,"02,99,1,99,9,99,9,99999,9,99,9,99,9","10180,1,99999,9",,,,,"MET056METAR ETSE 160720Z 11003KT 9999 FEW110 24/18 Q1018 BLU/;",
"10869099999","2010-07-16T08:20:00","4","48.322333","11.948667","461.77","ERDING, GM","FM-15","ETSE ","V020","090,1,N,0026,1","22000,1,9,N","011265,1,N,1","+0260,1","+0190,1","99999,9","02,5,+03300,1,99,9",,,"02,99,1,99,9,99,9,99999,9,99,9,99,9","10180,1,99999,9",,,,,"MET056METAR ETSE 160820Z 09005KT 9999 FEW110 26/19 Q1018 BLU/;",
"10869099999","2010-07-19T05:20:00","4","48.322333","11.948667","461.77","ERDING, GM","FM-15","ETSE ","V020","120,1,N,0010,1","22000,1,9,N","011265,1,N,1","+0140,1","+0120,1","99999,9","04,5,+03300,1,99,9",,,"04,99,1,99,9,99,9,99999,9,99,9,99,9","10251,1,99999,9",,,,,"MET056METAR ETSE 190520Z 12002KT 9999 SCT110 14/12 Q1025 BLU/;",
"10869099999","2010-07-19T06:20:00","4","48.322333","11.948667","461.77","ERDING, GM","FM-15","ETSE ","V020","090,1,N,0021,1","22000,1,9,N","011265,1,N,1","+0150,1","+0120,1","99999,9","02,5,+03000,1,99,9",,,"02,99,1,99,9,99,9,99999,9,99,9,99,9","10251,1,99999,9",,,,,"MET056METAR ETSE 190620Z 09004KT 9999 FEW100 15/12 Q1025 BLU/;",
"10869099999","2010-07-19T07:20:00","4","48.322333","11.948667","461.77","ERDING, GM","FM-15","ETSE ","V020","100,1,N,0036,1","22000,1,9,N","011265,1,N,1","+0180,1","+0120,1","99999,9","02,5,+00600,1,99,9",,,"02,99,1,99,9,99,9,99999,9,99,9,99,9","10251,1,99999,9",,,,,"MET056METAR ETSE 190720Z 10007KT 9999 FEW020 18/12 Q1025 BLU/;",
"10869099999","2010-07-19T08:20:00","4","48.322333","11.948667","461.77","ERDING, GM","FM-15","ETSE ","V020","080,1,N,0046,1","22000,1,9,N","011265,1,N,1","+0190,1","+0110,1","99999,9","02,5,+00900,1,99,9",,,"02,99,1,99,9,99,9,99999,9,99,9,99,9","10251,1,99999,9",,,,,"MET056METAR ETSE 190820Z 08009KT 9999 FEW030 19/11 Q1025 BLU/;",
"10869099999","2010-07-19T09:20:00","4","48.322333","11.948667","461.77","ERDING, GM","FM-15","ETSE ","V020","080,1,N,0031,1","22000,1,9,N","011265,1,N,1","+0200,1","+0110,1","99999,9","02,5,+01050,1,99,9",,,"02,99,1,99,9,99,9,99999,9,99,9,99,9","10240,1,99999,9",,,,,"MET056METAR ETSE 190920Z 08006KT 9999 FEW035 20/11 Q1024 BLU/;",
"10869099999","2010-07-19T10:20:00","4","48.322333","11.948667","461.77","ERDING, GM","FM-15","ETSE ","V020","080,1,N,0036,1","22000,1,9,N","011265,1,N,1","+0200,1","+0110,1","99999,9","02,5,+01050,1,99,9",,,"02,99,1,99,9,99,9,99999,9,99,9,99,9","10240,1,99999,9",,,,,"MET060METAR ETSE 191020Z 08007KT 9999 FEW035 20/11 Q1024 BLU/BLU/;",
"10869099999","2010-07-19T11:20:00","4","48.322333","11.948667","461.77","ERDING, GM","FM-15","ETSE ","V020","090,1,N,0021,1","22000,1,9,N","011265,1,N,1","+0210,1","+0120,1","99999,9","02,5,+01050,1,99,9",,,"02,99,1,99,9,99,9,99999,9,99,9,99,9","10230,1,99999,9",,,,,"MET060METAR ETSE 191120Z 09004KT 9999 FEW035 21/12 Q1023 BLU/BLU/;",
"10869099999","2010-07-19T12:20:00","4","48.322333","11.948667","461.77","ERDING, GM","FM-15","ETSE ","V020","090,1,N,0031,1","22000,1,9,N","011265,1,N,1","+0220,1","+0120,1","99999,9","02,5,+01140,1,99,9",,,"02,99,1,99,9,99,9,99999,9,99,9,99,9","10230,1,99999,9",,,,,"MET060METAR ETSE 191220Z 09006KT 9999 FEW038 22/12 Q1023 BLU/BLU/;",
"10869099999","2010-07-19T13:20:00","4","48.322333","11.948667","461.77","ERDING, GM","FM-15","ETSE ","V020","100,1,N,0031,1","22000,1,9,N","011265,1,N,1","+0230,1","+0120,1","99999,9","02,5,+01350,1,99,9",,,"02,99,1,99,9,99,9,99999,9,99,9,99,9","10220,1,99999,9",,,,,"MET060METAR ETSE 191320Z 10006KT 9999 FEW045 23/12 Q1022 BLU/BLU/;",
"10869099999","2010-07-19T14:00:00","4","48.322333","11.948667","461.77","ERDING, GM","FM-16","ETSE ","V020","100,1,N,0031,1","22000,1,9,N","011265,1,N,1","+0230,1","+0120,1","99999,9","02,5,+01350,1,99,9",,,"02,99,1,99,9,99,9,99999,9,99,9,99,9","10220,1,99999,9",,,,,"MET067SPECI ETSE 191400Z 10006KT 9999 FEW045 23/12 Q1022 BLU/FCST CANCEL;",
"10869099999","2010-07-20T05:20:00","4","48.322333","11.948667","461.77","ERDING, GM","FM-15","ETSE ","V020","100,1,N,0015,1","22000,1,9,N","009000,1,N,1","+0150,1","+0140,1","99999,9",,,,,"10190,1,99999,9",,,,,"MET053METAR ETSE 200520Z 10003KT 9000 15/14 Q1019 BLU/BLU/;",
"10869099999","2010-07-20T06:20:00","4","48.322333","11.948667","461.77","ERDING, GM","FM-15","ETSE ","V020","110,1,N,0036,1","22000,1,9,N","009000,1,N,1","+0170,1","+0150,1","99999,9","02,5,+00300,1,99,9",,,"02,99,1,99,9,99,9,99999,9,99,9,99,9","10190,1,99999,9",,,,,"MET060METAR ETSE 200620Z 11007KT 9000 FEW010 17/15 Q1019 BLU/BLU/;",
"10869099999","2010-07-20T07:20:00","4","48.322333","11.948667","461.77","ERDING, GM","FM-15","ETSE ","V020","100,1,N,0036,1","22000,1,9,N","011265,1,N,1","+0190,1","+0150,1","99999,9","02,5,+00450,1,99,9",,,"02,99,1,99,9,99,9,99999,9,99,9,99,9","10180,1,99999,9",,,,,"MET060METAR ETSE 200720Z 10007KT 9999 FEW015 19/15 Q1018 BLU/BLU/;",
"10869099999","2010-07-20T08:20:00","4","48.322333","11.948667","461.77","ERDING, GM","FM-15","ETSE ","V020","100,1,N,0041,1","22000,1,9,N","011265,1,N,1","+0210,1","+0140,1","99999,9","02,5,+00660,1,99,9",,,"02,99,1,99,9,99,9,99999,9,99,9,99,9","10180,1,99999,9",,,,,"MET060METAR ETSE 200820Z 10008KT 9999 FEW022 21/14 Q1018 BLU/BLU/;",
"10869099999","2010-07-20T09:20:00","4","48.322333","11.948667","461.77","ERDING, GM","FM-15","ETSE ","V020","100,1,N,0031,1","22000,1,9,N","011265,1,N,1","+0220,1","+0150,1","99999,9","02,5,+00900,1,99,9",,,"02,99,1,99,9,99,9,99999,9,99,9,99,9","10169,1,99999,9",,,,,"MET060METAR ETSE 200920Z 10006KT 9999 FEW030 22/15 Q1017 BLU/BLU/;",
"10869099999","2010-07-20T10:20:00","4","48.322333","11.948667","461.77","ERDING, GM","FM-15","ETSE ","V020","100,1,N,0031,1","22000,1,9,N","011265,1,N,1","+0230,1","+0150,1","99999,9","02,5,+01050,1,99,9",,,"02,99,1,99,9,99,9,99999,9,99,9,99,9","10169,1,99999,9",,,,,"MET060METAR ETSE 201020Z 10006KT 9999 FEW035 23/15 Q1017 BLU/BLU/;",
"10869099999","2010-07-20T11:20:00","4","48.322333","11.948667","461.77","ERDING, GM","FM-15","ETSE ","V020","080,1,N,0031,1","22000,1,9,N","011265,1,N,1","+0230,1","+0150,1","99999,9","02,5,+01140,1,99,9",,,"02,99,1,99,9,99,9,99999,9,99,9,99,9","10159,1,99999,9",,,,,"MET060METAR ETSE 201120Z 08006KT 9999 FEW038 23/15 Q1016 BLU/BLU/;",
"10869099999","2010-07-20T12:20:00","4","48.322333","11.948667","461.77","ERDING, GM","FM-15","ETSE ","V020","090,1,N,0031,1","22000,1,9,N","011265,1,N,1","+0240,1","+0150,1","99999,9","02,5,+01200,1,99,9",,,"02,99,1,99,9,99,9,99999,9,99,9,99,9","10159,1,99999,9",,,,,"MET060METAR ETSE 201220Z 09006KT 9999 FEW040 24/15 Q1016 BLU/BLU/;",
"10869099999","2010-07-20T13:20:00","4","48.322333","11.948667","461.77","ERDING, GM","FM-15","ETSE ","V020","110,1,N,0021,1","22000,1,9,N","011265,1,N,1","+0250,1","+0140,1","99999,9","02,5,+01260,1,99,9",,,"02,99,1,99,9,99,9,99999,9,99,9,99,9","10149,1,99999,9",,,,,"MET060METAR ETSE 201320Z 11004KT 9999 FEW042 25/14 Q1015 BLU/BLU/;",
"10869099999","2010-07-20T14:20:00","4","48.322333","11.948667","461.77","ERDING, GM","FM-15","ETSE ","V020","999,9,V,0010,1","22000,1,9,N","011265,1,N,1","+0260,1","+0140,1","99999,9","02,5,+01350,1,99,9",,,"02,99,1,99,9,99,9,99999,9,99,9,99,9","10149,1,99999,9",,,,,"MET067METAR ETSE 201420Z VRB02KT 9999 FEW045 26/14 Q1015 BLU/FCST CANCEL;",
"10869099999","2010-07-21T05:20:00","4","48.322333","11.948667","461.77","ERDING, GM","FM-15","ETSE ","V020","150,1,N,0015,1","22000,1,9,N","011265,1,N,1","+0170,1","+0150,1","99999,9",,,,,"10119,1,99999,9",,,,,"MET049METAR ETSE 210520Z 15003KT 9999 17/15 Q1012 BLU/;",
"10869099999","2010-07-21T06:20:00","4","48.322333","11.948667","461.77","ERDING, GM","FM-15","ETSE ","V020","180,1,N,0015,1","22000,1,9,N","011265,1,N,1","+0200,1","+0170,1","99999,9",,,,,"10119,1,99999,9",,,,,"MET049METAR ETSE 210620Z 18003KT 9999 20/17 Q1012 BLU/;",
"10869099999","2010-07-21T07:20:00","4","48.322333","11.948667","461.77","ERDING, GM","FM-15","ETSE ","V020","999,9,V,0010,1","22000,1,9,N","011265,1,N,1","+0230,1","+0170,1","99999,9",,,,,"10129,1,99999,9",,,,,"MET053METAR ETSE 210720Z VRB02KT 9999 23/17 Q1013 BLU/BLU/;",
"10869099999","2010-07-21T08:20:00","4","48.322333","11.948667","461.77","ERDING, GM","FM-15","ETSE ","V020","300,1,N,0015,1","22000,1,9,N","011265,1,N,1","+0240,1","+0180,1","99999,9","02,5,+08700,1,99,9",,,"02,99,1,99,9,99,9,99999,9,99,9,99,9","10129,1,99999,9",,,,,"MET060METAR ETSE 210820Z 30003KT 9999 FEW290 24/18 Q1013 BLU/BLU/;",
"10869099999","2010-07-21T09:20:00","4","48.322333","11.948667","461.77","ERDING, GM","FM-15","ETSE ","V020","090,1,N,0010,1","22000,1,9,N","011265,1,N,1","+0270,1","+0160,1","99999,9","02,5,+08700,1,99,9",,,"02,99,1,99,9,99,9,99999,9,99,9,99,9","10129,1,99999,9",,,,,"MET060METAR ETSE 210920Z 09002KT 9999 FEW290 27/16 Q1013 BLU/BLU/;",
"10869099999","2010-07-21T10:20:00","4","48.322333","11.948667","461.77","ERDING, GM","FM-15","ETSE ","V020","170,1,N,0015,1","22000,1,9,N","011265,1,N,1","+0280,1","+0150,1","99999,9","02,5,+01500,1,99,9",,,"02,99,1,99,9,99,9,99999,9,99,9,99,9","10119,1,99999,9",,,,,"MET060METAR ETSE 211020Z 17003KT 9999 FEW050 28/15 Q1012 BLU/BLU/;",
"10869099999","2010-07-21T11:20:00","4","48.322333","11.948667","461.77","ERDING, GM","FM-15","ETSE ","V020","140,1,N,0015,1","22000,1,9,N","011265,1,N,1","+0290,1","+0150,1","99999,9","02,5,+01650,5,99,9",,,"02,99,1,99,9,99,9,99999,9,99,9,99,9","10119,1,99999,9",,,,,"MET060METAR ETSE 211120Z 14003KT 9999 FEW055 29/15 Q1012 BLU/BLU/;",
"10869099999","2010-07-21T12:20:00","4","48.322333","11.948667","461.77","ERDING, GM","FM-15","ETSE ","V020","140,1,N,0015,1","22000,1,9,N","011265,1,N,1","+0300,1","+0140,1","99999,9","02,5,+01800,1,99,9",,,"02,99,1,99,9,99,9,99999,9,99,9,99,9","10119,1,99999,9",,,,,"MET060METAR ETSE 211220Z 14003KT 9999 FEW060 30/14 Q1012 BLU/BLU/;",
"10869099999","2010-07-21T13:20:00","4","48.322333","11.948667","461.77","ERDING, GM","FM-15","ETSE ","V020","360,1,N,0015,1","22000,1,9,N","011265,1,N,1","+0300,1","+0140,1","99999,9","02,5,+01800,1,99,9",,,"02,99,1,99,9,99,9,99999,9,99,9,99,9","10108,1,99999,9",,,,,"MET067METAR ETSE 211320Z 36003KT 9999 FEW060 30/14 Q1011 BLU/FCST CANCEL;",
"10869099999","2010-07-22T05:20:00","4","48.322333","11.948667","461.77","ERDING, GM","FM-15","ETSE ","V020","260,1,N,0026,1","22000,1,9,N","011265,1,N,1","+0200,1","+0160,1","99999,9","02,5,+04800,1,99,9",,,"02,99,1,99,9,99,9,99999,9,99,9,99,9","10139,1,99999,9",,,,,"MET060METAR ETSE 220520Z 26005KT 9999 FEW160 20/16 Q1014 BLU/BLU/;",
"10869099999","2010-07-22T06:20:00","4","48.322333","11.948667","461.77","ERDING, GM","FM-15","ETSE ","V020","280,1,N,0031,1","22000,1,9,N","011265,1,N,1","+0210,1","+0170,1","99999,9","04,5,+04200,1,99,9",,,"04,99,1,99,9,99,9,99999,9,99,9,99,9","10149,1,99999,9",,,,,"MET060METAR ETSE 220620Z 28006KT 9999 SCT140 21/17 Q1015 BLU/BLU/;",
"10869099999","2010-07-22T07:20:00","4","48.322333","11.948667","461.77","ERDING, GM","FM-15","ETSE ","V020","300,1,N,0036,1","22000,1,9,N","011265,1,N,1","+0220,1","+0170,1","99999,9","02,5,+04200,1,99,9",,,"02,99,1,99,9,99,9,99999,9,99,9,99,9","10149,1,99999,9",,,,,"MET060METAR ETSE 220720Z 30007KT 9999 FEW140 22/17 Q1015 BLU/BLU/;",
"10869099999","2010-07-22T08:20:00","4","48.322333","11.948667","461.77","ERDING, GM","FM-15","ETSE ","V020","320,1,N,0026,1","22000,1,9,N","011265,1,N,1","+0240,1","+0170,1","99999,9","02,5,+04200,1,99,9",,,"02,99,1,99,9,99,9,99999,9,99,9,99,9","10149,1,99999,9",,,,,"MET060METAR ETSE 220820Z 32005KT 9999 FEW140 24/17 Q1015 BLU/BLU/;",
"10869099999","2010-07-22T09:20:00","4","48.322333","11.948667","461.77","ERDING, GM","FM-15","ETSE ","V020","010,1,N,0021,1","22000,1,9,N","011265,1,N,1","+0260,1","+0170,1","99999,9","02,5,+05100,1,99,9",,,"02,99,1,99,9,99,9,99999,9,99,9,99,9","10149,1,99999,9",,,,,"MET060METAR ETSE 220920Z 01004KT 9999 FEW170 26/17 Q1015 BLU/BLU/;",
"10869099999","2010-07-22T10:20:00","4","48.322333","11.948667","461.77","ERDING, GM","FM-15","ETSE ","V020","040,1,N,0015,1","99999,9,C,N","011265,1,N,1","+0270,1","+0170,1","99999,9","02,5,+05100,1,99,9","04,5,+09000,1,99,9",,"04,99,1,99,9,99,9,99999,9,99,9,99,9","10139,1,99999,9",,,,,"MET067METAR ETSE 221020Z 04003KT 9999 FEW170 SCT300 27/17 Q1014 BLU/BLU/;","P01 090003SCOCIG"
"10869099999","2010-07-22T11:20:00","4","48.322333","11.948667","461.77","ERDING, GM","FM-15","ETSE ","V020","190,1,N,0015,1","99999,9,C,N","011265,1,N,1","+0280,1","+0170,1","99999,9","02,5,+01200,1,99,9","04,5,+09000,1,99,9",,"04,99,1,99,9,99,9,99999,9,99,9,99,9","10139,1,99999,9",,,,,"MET067METAR ETSE 221120Z 19003KT 9999 FEW040 SCT300 28/17 Q1014 BLU/BLU/;","P01 090003SCOCIG"
"10869099999","2010-07-22T12:20:00","4","48.322333","11.948667","461.77","ERDING, GM","FM-15","ETSE ","V020","020,1,N,0015,1","99999,9,C,N","011265,1,N,1","+0290,1","+0170,1","99999,9","02,5,+01260,1,99,9","04,5,+09000,1,99,9",,"04,99,1,99,9,99,9,99999,9,99,9,99,9","10129,1,99999,9",,,,,"MET067METAR ETSE 221220Z 02003KT 9999 FEW042 SCT300 29/17 Q1013 BLU/BLU/;","P01 090003SCOCIG"
"10869099999","2010-07-22T13:20:00","4","48.322333","11.948667","461.77","ERDING, GM","FM-15","ETSE ","V020","030,1,N,0015,1","99999,9,C,N","011265,1,N,1","+0300,1","+0180,1","99999,9","02,5,+01350,1,99,9","04,5,+09000,1,99,9",,"04,99,1,99,9,99,9,99999,9,99,9,99,9","10129,1,99999,9",,,,,"MET067METAR ETSE 221320Z 03003KT 9999 FEW045 SCT300 30/18 Q1013 BLU/BLU/;","P01 090003SCOCIG"
"10869099999","2010-07-22T14:20:00","4","48.322333","11.948667","461.77","ERDING, GM","FM-15","ETSE ","V020","050,1,N,0021,1","99999,9,C,N","011265,1,N,1","+0300,1","+0180,1","99999,9","02,5,+01350,1,99,9","04,5,+09000,1,99,9",,"04,99,1,99,9,99,9,99999,9,99,9,99,9","10119,1,99999,9",,,,,"MET074METAR ETSE 221420Z 05004KT 9999 FEW045 SCT300 30/18 Q1012 BLU/FCST CANCEL;","P01 090003SCOCIG"
"10869099999","2010-07-23T05:20:00","4","48.322333","11.948667","461.77","ERDING, GM","FM-15","ETSE ","V020","270,1,N,0021,1","00150,1,C,N","011265,1,N,1","+0180,1","+0170,1","99999,9","07,5,+00150,1,99,9","07,5,+02700,1,99,9",,"07,99,1,99,9,99,9,99999,9,99,9,99,9","10169,1,99999,9",,,,,"MET076METAR ETSE 230520Z 27004KT 9999 BKN005 BKN090 18/17 Q1017 YLO BLU TEMPO YLO;",
"10869099999","2010-07-23T06:20:00","4","48.322333","11.948667","461.77","ERDING, GM","FM-15","ETSE ","V020","260,1,N,0021,1","01140,1,C,N","011265,1,N,1","+0180,1","+0170,1","99999,9","04,5,+00210,1,99,9","04,5,+01140,1,99,9","07,5,+02700,1,99,9","07,99,1,99,9,99,9,99999,9,99,9,99,9","10180,1,99999,9","61,1",,,,"MET087METAR ETSE 230620Z 26004KT 9999 -RA SCT007 SCT038 BKN090 18/17 Q1018 BLU BLU TEMPO YLO;",
"10869099999","2010-07-23T07:20:00","4","48.322333","11.948667","461.77","ERDING, GM","FM-15","ETSE ","V020","280,1,N,0021,1","01140,1,C,N","011265,1,N,1","+0180,1","+0170,1","99999,9","02,5,+00300,1,99,9","04,5,+01140,1,99,9","07,5,+02100,1,99,9","07,99,1,99,9,99,9,99999,9,99,9,99,9","10180,1,99999,9","80,1",,,,"MET089METAR ETSE 230720Z 28004KT 9999 -SHRA FEW010 SCT038 BKN070 18/17 Q1018 BLU BLU TEMPO GRN;",
"10869099999","2010-07-23T08:00:00","4","48.322333","11.948667","461.77","ERDING, GM","FM-16","ETSE ","V020","260,1,N,0015,1","00990,1,C,N","011265,1,N,1","+0180,1","+0170,1","99999,9","02,5,+00180,1,99,9","04,5,+00990,1,99,9","07,5,+02100,1,99,9","07,99,1,99,9,99,9,99999,9,99,9,99,9","10180,1,99999,9","80,1",,,,"MET087SPECI ETSE 230800Z 26003KT 9999 -SHRA FEW006 SCT033 BKN070 18/17 Q1018 BLU FCST CANCEL;",
"10869099999","2010-07-26T05:20:00","4","48.322333","11.948667","461.77","ERDING, GM","FM-15","ETSE ","V020","200,1,N,0021,1","99999,9,C,N","011265,1,N,1","+0120,1","+0100,1","99999,9","02,5,+01620,5,99,9","04,5,+02550,5,99,9",,"04,99,1,99,9,99,9,99999,9,99,9,99,9","10149,1,99999,9",,,,,"MET077METAR ETSE 260520Z 20004KT 9999 FEW054 SCT085 12/10 Q1015 BLU/BLU TEMPO BLU/;","P01 025503SCOCIG"
"10869099999","2010-07-26T06:20:00","4","48.322333","11.948667","461.77","ERDING, GM","FM-15","ETSE ","V020","240,1,N,0026,1","02550,5,C,N","011265,1,N,1","+0150,1","+0110,1","99999,9","02,5,+01500,1,99,9","07,5,+02550,5,99,9",,"07,99,1,99,9,99,9,99999,9,99,9,99,9","10149,1,99999,9",,,,,"MET077METAR ETSE 260620Z 24005KT 9999 FEW050 BKN085 15/11 Q1015 BLU BLU TEMPO BLU/;",
"10869099999","2010-07-26T07:20:00","4","48.322333","11.948667","461.77","ERDING, GM","FM-15","ETSE ","V020","270,1,N,0026,1","02460,5,C,N","011265,1,N,1","+0160,1","+0120,1","99999,9","02,5,+01380,1,99,9","07,5,+02460,5,99,9",,"07,99,1,99,9,99,9,99999,9,99,9,99,9","10149,1,99999,9",,,,,"MET077METAR ETSE 260720Z 27005KT 9999 FEW046 BKN082 16/12 Q1015 BLU BLU TEMPO BLU/;",
"10869099999","2010-07-26T08:20:00","4","48.322333","11.948667","461.77","ERDING, GM","FM-15","ETSE ","V020","290,1,N,0031,1","02400,1,C,N","011265,1,N,1","+0170,1","+0120,1","99999,9","02,5,+00600,1,99,9","04,5,+02460,5,99,9","07,5,+06600,1,99,9","07,99,1,99,9,99,9,99999,9,99,9,99,9","10149,1,99999,9",,,,,"MET084METAR ETSE 260820Z 29006KT 9999 FEW020 SCT082 BKN220 17/12 Q1015 BLU/BLU TEMPO BLU/;",
"10869099999","2010-07-26T09:20:00","4","48.322333","11.948667","461.77","ERDING, GM","FM-15","ETSE ","V020","270,1,N,0026,1","02400,1,C,N","011265,1,N,1","+0180,1","+0110,1","99999,9","04,5,+00750,1,02,1","04,5,+02550,5,99,9","07,5,+06600,1,99,9","07,99,1,99,9,99,9,99999,9,99,9,99,9","10149,1,99999,9",,,,,"MET086METAR ETSE 260920Z 27005KT 9999 SCT025TCU SCT085 BKN220 18/11 Q1015 BLU/BLU TEMPO WHT;",
"10869099999","2010-07-26T10:20:00","4","48.322333","11.948667","461.77","ERDING, GM","FM-15","ETSE ","V020","320,1,N,0026,1","99999,9,C,N","011265,1,N,1","+0180,1","+0110,1","99999,9","04,5,+01050,1,02,1","04,5,+02700,1,99,9",,"04,99,1,99,9,99,9,99999,9,99,9,99,9","10149,1,99999,9",,,,,"MET079METAR ETSE 261020Z 32005KT 9999 SCT035TCU SCT090 18/11 Q1015 BLU/BLU TEMPO WHT;","P01 027003SCOCIG"
"10869099999","2010-07-26T11:20:00","4","48.322333","11.948667","461.77","ERDING, GM","FM-15","ETSE ","V020","280,1,N,0021,1","99999,9,C,N","011265,1,N,1","+0200,1","+0100,1","99999,9","02,5,+01200,1,02,1","04,5,+03000,1,99,9",,"04,99,1,99,9,99,9,99999,9,99,9,99,9","10139,1,99999,9",,,,,"MET079METAR ETSE 261120Z 28004KT 9999 FEW040TCU SCT100 20/10 Q1014 BLU/BLU TEMPO WHT;","P01 030003SCOCIG"
"10869099999","2010-07-26T12:20:00","4","48.322333","11.948667","461.77","ERDING, GM","FM-15","ETSE ","V020","310,1,N,0031,1","99999,9,C,N","011265,1,N,1","+0200,1","+0090,1","99999,9","04,5,+01350,1,02,1","04,5,+02700,1,99,9",,"04,99,1,99,9,99,9,99999,9,99,9,99,9","10129,1,99999,9",,,,,"MET079METAR ETSE 261220Z 31006KT 9999 SCT045TCU SCT090 20/09 Q1013 BLU/BLU TEMPO WHT;","P01 027003SCOCIG"
"10869099999","2010-07-26T13:20:00","4","48.322333","11.948667","461.77","ERDING, GM","FM-15","ETSE ","V020","330,1,N,0041,1","01140,1,C,N","011265,1,N,1","+0180,1","+0110,1","99999,9","07,5,+01140,1,02,1","04,5,+02700,1,99,9",,,"10139,1,99999,9","80,1",,,,"MET085METAR ETSE 261320Z 33008KT 9999 -SHRA BKN038TCU SCT090 18/11 Q1014 BLU BLU TEMPO WHT;","Q01+000042SCOTCV"
"10869099999","2010-07-26T13:36:00","4","48.322333","11.948667","461.77","ERDING, GM","FM-16","ETSE ","V020","320,1,N,0041,1","01140,1,C,N","011265,1,N,1","+0190,1","+0110,1","99999,9","07,5,+01140,1,09,1","04,5,+02700,1,99,9",,,"10139,1,99999,9","16,1","17,1",,,"MET086SPECI ETSE 261336Z 32008KT 9999 TS VCSH BKN038CB SCT090 19/11 Q1014 BLU BLU TEMPO WHT;","Q01+000042SCOTCV"
"10869099999","2010-07-26T14:00:00","4","48.322333","11.948667","461.77","ERDING, GM","FM-16","ETSE ","V020","310,1,N,0051,1","99999,9,C,N","011265,1,N,1","+0200,1","+0100,1","99999,9","02,5,+01110,1,09,1","04,5,+01380,1,99,9",,"04,99,1,99,9,99,9,99999,9,99,9,99,9","10139,1,99999,9",,,,,"MET081SPECI ETSE 261400Z 31010KT 9999 FEW037CB SCT046 20/10 Q1014 RETS BLU/FCST CANCEL;","P01 013803SCOCIG"
"10869099999","2010-07-27T05:20:00","4","48.322333","11.948667","461.77","ERDING, GM","FM-15","ETSE ","V020","220,1,N,0015,1","00240,1,C,N","011265,1,N,1","+0140,1","+0130,1","99999,9","02,5,+00090,1,99,9","07,5,+00240,1,99,9","07,5,+01050,1,99,9","07,99,1,99,9,99,9,99999,9,99,9,99,9","10149,1,99999,9","61,1",,,,"MET087METAR ETSE 270520Z 22003KT 9999 -RA FEW003 BKN008 BKN035 14/13 Q1015 GRN BLU TEMPO GRN;",
"10869099999","2010-07-27T06:20:00","4","48.322333","11.948667","461.77","ERDING, GM","FM-15","ETSE ","V020","310,1,N,0026,1","00300,1,C,N","011265,1,N,1","+0150,1","+0130,1","99999,9","02,5,+00150,1,99,9","07,5,+00300,1,99,9",,"07,99,1,99,9,99,9,99999,9,99,9,99,9","10159,1,99999,9",,,,,"MET076METAR ETSE 270620Z 31005KT 9999 FEW005 BKN010 15/13 Q1016 GRN BLU TEMPO GRN;",
"10869099999","2010-07-27T07:20:00","4","48.322333","11.948667","461.77","ERDING, GM","FM-15","ETSE ","V020","300,1,N,0031,1","00240,1,C,N","011265,1,N,1","+0150,1","+0130,1","99999,9","02,5,+00150,1,99,9","07,5,+00240,1,99,9","07,5,+00600,1,99,9","07,99,1,99,9,99,9,99999,9,99,9,99,9","10159,1,99999,9",,,,,"MET083METAR ETSE 270720Z 30006KT 9999 FEW005 BKN008 BKN020 15/13 Q1016 GRN BLU TEMPO GRN;",
"10869099999","2010-07-27T08:11:00","4","48.322333","11.948667","461.77","ERDING, GM","FM-16","ETSE ","V020","300,1,N,0046,1","00840,1,C,N","011265,1,N,1","+0160,1","+0130,1","99999,9","04,5,+00330,1,99,9","07,5,+00840,1,99,9",,"07,99,1,99,9,99,9,99999,9,99,9,99,9","10169,1,99999,9",,,,,"MET076SPECI ETSE 270811Z 30009KT 9999 SCT011 BKN028 16/13 Q1017 BLU BLU TEMPO GRN;",
"10869099999","2010-07-27T08:20:00","4","48.322333","11.948667","461.77","ERDING, GM","FM-15","ETSE ","V020","300,1,N,0046,1","00840,1,C,N","011265,1,N,1","+0160,1","+0130,1","99999,9","04,5,+00330,1,99,9","07,5,+00840,1,99,9",,"07,99,1,99,9,99,9,99999,9,99,9,99,9","10169,1,99999,9",,,,,"MET076METAR ETSE 270820Z 30009KT 9999 SCT011 BKN028 16/13 Q1017 BLU BLU TEMPO GRN;",
"10869099999","2010-07-27T09:20:00","4","48.322333","11.948667","461.77","ERDING, GM","FM-15","ETSE ","V020","290,1,N,0036,1","00900,1,C,N","011265,1,N,1","+0170,1","+0140,1","99999,9","04,5,+00390,1,99,9","04,5,+00900,1,99,9","07,5,+02400,1,99,9","07,99,1,99,9,99,9,99999,9,99,9,99,9","10169,1,99999,9",,,,,"MET083METAR ETSE 270920Z 29007KT 9999 SCT013 SCT030 BKN080 17/14 Q1017 BLU BLU TEMPO GRN;",
"10869099999","2010-07-27T10:20:00","4","48.322333","11.948667","461.77","ERDING, GM","FM-15","ETSE ","V020","280,1,N,0036,1","02100,1,C,N","011265,1,N,1","+0170,1","+0120,1","99999,9","04,5,+00690,1,02,1","07,5,+02100,1,99,9",,"07,99,1,99,9,99,9,99999,9,99,9,99,9","10169,1,99999,9",,,,,"MET079METAR ETSE 271020Z 28007KT 9999 SCT023TCU BKN070 17/12 Q1017 BLU BLU TEMPO WHT;",
"10869099999","2010-07-27T11:20:00","4","48.322333","11.948667","461.77","ERDING, GM","FM-15","ETSE ","V020","220,1,N,0021,1","02100,1,C,N","011265,1,N,1","+0170,1","+0140,1","99999,9","04,5,+00570,1,02,1","07,5,+02100,1,99,9",,"07,99,1,99,9,99,9,99999,9,99,9,99,9","10169,1,99999,9",,,,,"MET079METAR ETSE 271120Z 22004KT 9999 SCT019TCU BKN070 17/14 Q1017 BLU BLU TEMPO WHT;",
"10869099999","2010-07-27T12:20:00","4","48.322333","11.948667","461.77","ERDING, GM","FM-15","ETSE ","V020","260,1,N,0031,1","00810,1,C,N","011265,1,N,1","+0180,1","+0120,1","99999,9","07,5,+00810,1,02,1","04,5,+02100,1,99,9",,,"10169,1,99999,9",,,,,"MET079METAR ETSE 271220Z 26006KT 9999 BKN027TCU SCT070 18/12 Q1017 BLU BLU TEMPO WHT;","Q01+000042SCOTCV"
"10869099999","2010-07-27T13:20:00","4","48.322333","11.948667","461.77","ERDING, GM","FM-15","ETSE ","V020","270,1,N,0046,1","99999,9,C,N","011265,1,N,1","+0170,1","+0130,1","99999,9","04,5,+00810,1,09,1","04,5,+02400,1,99,9",,"04,99,1,99,9,99,9,99999,9,99,9,99,9","10180,1,99999,9",,,,,"MET078METAR ETSE 271320Z 27009KT 9999 SCT027CB SCT080 17/13 Q1018 BLU/BLU TEMPO WHT;","P01 024003SCOCIG"
"10869099999","2010-07-27T14:20:00","4","48.322333","11.948667","461.77","ERDING, GM","FM-15","ETSE ","V020","230,1,N,0046,1","99999,9,C,N","011265,1,N,1","+0180,1","+0140,1","99999,9","04,5,+00480,1,02,1","04,5,+02400,1,99,9",,"04,99,1,99,9,99,9,99999,9,99,9,99,9","10180,1,99999,9",,,,,"MET077METAR ETSE 271420Z 23009KT 9999 SCT016TCU SCT080 18/14 Q1018 BLU/FCST CANCEL;","P01 024003SCOCIG"
"10869099999","2010-07-28T05:20:00","4","48.322333","11.948667","461.77","ERDING, GM","FM-15","ETSE ","V020","240,1,N,0031,1","99999,9,C,N","011265,1,N,1","+0150,1","+0120,1","99999,9","02,5,+01950,5,99,9","04,5,+02700,1,99,9",,"04,99,1,99,9,99,9,99999,9,99,9,99,9","10190,1,99999,9",,,,,"MET063METAR ETSE 280520Z 24006KT 9999 FEW065 SCT090 15/12 Q1019 BLU/;","P01 027003SCOCIG"
"10869099999","2010-07-28T06:20:00","4","48.322333","11.948667","461.77","ERDING, GM","FM-15","ETSE ","V020","240,1,N,0036,1","99999,9,C,N","011265,1,N,1","+0160,1","+0120,1","99999,9","02,5,+02700,1,99,9","04,5,+06000,1,99,9",,"04,99,1,99,9,99,9,99999,9,99,9,99,9","10190,1,99999,9",,,,,"MET063METAR ETSE 280620Z 24007KT 9999 FEW090 SCT200 16/12 Q1019 BLU/;","P01 060003SCOCIG"
"10869099999","2010-07-28T07:20:00","4","48.322333","11.948667","461.77","ERDING, GM","FM-15","ETSE ","V020","260,1,N,0031,1","22000,1,9,N","011265,1,N,1","+0180,1","+0130,1","99999,9","02,5,+00540,1,99,9",,,"02,99,1,99,9,99,9,99999,9,99,9,99,9","10190,1,99999,9",,,,,"MET070METAR ETSE 280720Z 26006KT 9999 FEW018 18/13 Q1019 BLU/BLU/ BECMG BLU;",
"10869099999","2010-07-28T08:20:00","4","48.322333","11.948667","461.77","ERDING, GM","FM-15","ETSE ","V020","250,1,N,0041,1","22000,1,9,N","011265,1,N,1","+0190,1","+0120,1","99999,9","02,5,+00810,1,99,9",,,"02,99,1,99,9,99,9,99999,9,99,9,99,9","10190,1,99999,9",,,,,"MET070METAR ETSE 280820Z 25008KT 9999 FEW027 19/12 Q1019 BLU/BLU/ BECMG BLU;",
"10869099999","2010-07-28T09:20:00","4","48.322333","11.948667","461.77","ERDING, GM","FM-15","ETSE ","V020","270,1,N,0041,1","22000,1,9,N","011265,1,N,1","+0200,1","+0120,1","99999,9","02,5,+01140,1,99,9",,,"02,99,1,99,9,99,9,99999,9,99,9,99,9","10180,1,99999,9",,,,,"MET070METAR ETSE 280920Z 27008KT 9999 FEW038 20/12 Q1018 BLU/BLU/ BECMG BLU;",
"10869099999","2010-07-28T10:20:00","4","48.322333","11.948667","461.77","ERDING, GM","FM-15","ETSE ","V020","280,1,N,0046,1","99999,9,C,N","011265,1,N,1","+0210,1","+0110,1","99999,9","02,5,+01320,1,99,9","04,5,+08100,1,99,9",,"04,99,1,99,9,99,9,99999,9,99,9,99,9","10180,1,99999,9",,,,,"MET077METAR ETSE 281020Z 28009KT 9999 FEW044 SCT270 21/11 Q1018 BLU/BLU/ BECMG BLU;","P01 081003SCOCIG"
"10869099999","2010-07-28T11:20:00","4","48.322333","11.948667","461.77","ERDING, GM","FM-15","ETSE ","V020","270,1,N,0046,1","99999,9,C,N","011265,1,N,1","+0210,1","+0120,1","99999,9","04,5,+01200,1,99,9","04,5,+02100,1,99,9",,"04,99,1,99,9,99,9,99999,9,99,9,99,9","10169,1,99999,9",,,,,"MET077METAR ETSE 281120Z 27009KT 9999 SCT040 SCT070 21/12 Q1017 BLU/BLU/ BECMG BLU;","P01 021003SCOCIG"
"10869099999","2010-07-28T12:20:00","4","48.322333","11.948667","461.77","ERDING, GM","FM-15","ETSE ","V020","280,1,N,0062,1","01800,1,C,N","011265,1,N,1","+0210,1","+0110,1","99999,9","04,5,+01260,1,99,9","07,5,+01800,1,99,9",,"07,99,1,99,9,99,9,99999,9,99,9,99,9","10169,1,99999,9",,,,,"MET066METAR ETSE 281220Z 28012KT 9999 SCT042 BKN060 21/11 Q1017 BLU BLU;",
"10869099999","2010-07-28T13:20:00","4","48.322333","11.948667","461.77","ERDING, GM","FM-15","ETSE ","V020","280,1,N,0057,1","01800,1,C,N","011265,1,N,1","+0210,1","+0120,1","99999,9","04,5,+01230,1,99,9","07,5,+01800,1,99,9","07,5,+02700,1,99,9","07,99,1,99,9,99,9,99999,9,99,9,99,9","10169,1,99999,9",,,,,"MET073METAR ETSE 281320Z 28011KT 9999 SCT041 BKN060 BKN090 21/12 Q1017 BLU BLU;",
"10869099999","2010-07-28T14:00:00","4","48.322333","11.948667","461.77","ERDING, GM","FM-16","ETSE ","V020","290,1,N,0046,1","01800,1,C,N","011265,1,N,1","+0200,1","+0130,1","99999,9","04,5,+01200,1,99,9","07,5,+01800,1,99,9",,"07,99,1,99,9,99,9,99999,9,99,9,99,9","10169,1,99999,9","61,1",,,,"MET078SPECI ETSE 281400Z 29009KT 9999 -RA SCT040 BKN060 20/13 Q1017 BLU FCST CANCEL;",
"10869099999","2010-07-29T05:20:00","4","48.322333","11.948667","461.77","ERDING, GM","FM-15","ETSE ","V020","200,1,N,0015,1","02400,1,C,N","011265,1,N,1","+0160,1","+0140,1","99999,9","02,5,+00600,1,99,9","04,5,+02400,1,99,9","07,5,+06000,1,99,9","07,99,1,99,9,99,9,99999,9,99,9,99,9","10108,1,99999,9",,,,,"MET084METAR ETSE 290520Z 20003KT 9999 FEW020 SCT080 BKN200 16/14 Q1011 BLU/BLU/ BECMG BLU;",
"10869099999","2010-07-29T06:20:00","4","48.322333","11.948667","461.77","ERDING, GM","FM-15","ETSE ","V020","170,1,N,0010,1","02100,1,C,N","011265,1,N,1","+0160,1","+0140,1","99999,9","02,5,+00750,1,02,1","07,5,+02100,1,99,9","07,5,+06000,1,99,9","07,99,1,99,9,99,9,99999,9,99,9,99,9","10108,1,99999,9",,,,,"MET086METAR ETSE 290620Z 17002KT 9999 FEW025TCU BKN070 BKN200 16/14 Q1011 BLU BLU TEMPO WHT;",
"10869099999","2010-07-29T07:20:00","4","48.322333","11.948667","461.77","ERDING, GM","FM-15","ETSE ","V020","330,1,N,0015,1","01800,1,C,N","011265,1,N,1","+0160,1","+0150,1","99999,9","02,5,+00810,1,09,1","07,5,+01800,1,99,9",,"07,99,1,99,9,99,9,99999,9,99,9,99,9","10108,1,99999,9","80,1",,,,"MET084METAR ETSE 290720Z 33003KT 9999 -SHRA FEW027CB BKN060 16/15 Q1011 BLU BLU TEMPO YLO;",
"10869099999","2010-07-29T07:34:00","4","48.322333","11.948667","461.77","ERDING, GM","FM-16","ETSE ","V020","330,1,N,0021,1","00690,1,C,N","011265,1,N,1","+0160,1","+0150,1","99999,9","07,5,+00690,1,09,1","07,5,+01800,1,99,9",,"07,99,1,99,9,99,9,99999,9,99,9,99,9","10108,1,99999,9","81,1","95,1",,,"MET083SPECI ETSE 290734Z 33004KT 9999 TSRA BKN023CB BKN060 16/15 Q1011 WHT BLU TEMPO YLO;",
"10869099999","2010-07-29T07:47:00","4","48.322333","11.948667","461.77","ERDING, GM","FM-16","ETSE ","V020","320,1,N,0031,1","00540,1,C,N","002200,1,N,1","+0150,1","+0140,1","99999,9","07,5,+00540,1,09,1",,,"07,99,1,99,9,99,9,99999,9,99,9,99,9","10119,1,99999,9","82,1","97,1",,,"MET077SPECI ETSE 290747Z 32006KT 2200 +TSRA BKN018CB 15/14 Q1012 YLO BLU TEMPO YLO;",
"10869099999","2010-07-29T08:06:00","4","48.322333","11.948667","461.77","ERDING, GM","FM-16","ETSE ","V020","310,1,N,0067,1","00600,1,C,N","005000,1,N,1","+0130,1","+0120,1","99999,9","02,5,+00300,1,99,9","04,5,+00600,1,09,5","07,5,+01650,5,99,9","07,99,1,99,9,99,9,99999,9,99,9,99,9","10119,1,99999,9","81,1",,,,"MET095SPECI ETSE 290806Z 31013KT 5000 SHRA FEW010 SCT020CB BKN055 13/12 Q1012 RETS WHT BLU TEMPO YLO;",
"10869099999","2010-07-29T08:20:00","4","48.322333","11.948667","461.77","ERDING, GM","FM-15","ETSE ","V020","320,1,N,0031,1","01650,5,C,N","011265,1,N,1","+0130,1","+0120,1","99999,9","02,5,+00300,1,99,9","02,5,+00600,1,09,5","07,5,+01650,5,99,9","07,99,1,99,9,99,9,99999,9,99,9,99,9","10119,1,99999,9","81,1",,,,"MET095METAR ETSE 290820Z 32006KT 9999 SHRA FEW010 FEW020CB BKN055 13/12 Q1012 RETS BLU BLU TEMPO WHT;",
"10869099999","2010-07-29T09:20:00","4","48.322333","11.948667","461.77","ERDING, GM","FM-15","ETSE ","V020","220,1,N,0021,1","01800,1,C,N","011265,1,N,1","+0140,1","+0130,1","99999,9","02,5,+00600,1,09,1","04,5,+01950,5,99,9","07,5,+03900,1,99,9","07,99,1,99,9,99,9,99999,9,99,9,99,9","10119,1,99999,9","80,1",,,,"MET086METAR ETSE 290920Z 22004KT 9999 -SHRA FEW020CB SCT065 BKN130 14/13 Q1012 RERA BLU BLU;",
"10869099999","2010-07-29T10:20:00","4","48.322333","11.948667","461.77","ERDING, GM","FM-15","ETSE ","V020","210,1,N,0021,1","03900,1,C,N","011265,1,N,1","+0160,1","+0130,1","99999,9","02,5,+00900,1,02,1","07,5,+03900,1,99,9",,"07,99,1,99,9,99,9,99999,9,99,9,99,9","10119,1,99999,9",,,,,"MET069METAR ETSE 291020Z 21004KT 9999 FEW030TCU BKN130 16/13 Q1012 BLU BLU;",
"10869099999","2010-07-29T11:20:00","4","48.322333","11.948667","461.77","ERDING, GM","FM-15","ETSE ","V020","230,1,N,0026,1","03600,1,C,N","011265,1,N,1","+0170,1","+0120,1","99999,9","02,5,+01110,1,99,9","04,5,+03600,1,99,9","07,5,+04200,1,99,9","07,99,1,99,9,99,9,99999,9,99,9,99,9","10119,1,99999,9",,,,,"MET073METAR ETSE 291120Z 23005KT 9999 FEW037 SCT120 BKN140 17/12 Q1012 BLU BLU;",
"10869099999","2010-07-29T12:20:00","4","48.322333","11.948667","461.77","ERDING, GM","FM-15","ETSE ","V020","290,1,N,0036,1","01500,1,C,N","011265,1,N,1","+0180,1","+0130,1","99999,9","04,5,+00660,1,99,9","04,5,+01500,1,99,9","07,5,+04200,1,99,9","07,99,1,99,9,99,9,99999,9,99,9,99,9","10119,1,99999,9",,,,,"MET073METAR ETSE 291220Z 29007KT 9999 SCT022 SCT050 BKN140 18/13 Q1012 BLU BLU;",
"10869099999","2010-07-29T13:20:00","4","48.322333","11.948667","461.77","ERDING, GM","FM-15","ETSE ","V020","300,1,N,0036,1","01350,1,C,N","011265,1,N,1","+0180,1","+0120,1","99999,9","04,5,+00780,1,09,1","04,5,+01350,1,99,9","07,5,+04800,1,99,9","07,99,1,99,9,99,9,99999,9,99,9,99,9","10119,1,99999,9",,,,,"MET075METAR ETSE 291320Z 30007KT 9999 SCT026CB SCT045 BKN160 18/12 Q1012 BLU BLU;",
"10869099999","2010-07-29T14:20:00","4","48.322333","11.948667","461.77","ERDING, GM","FM-15","ETSE ","V020","270,1,N,0031,1","02400,1,C,N","011265,1,N,1","+0180,1","+0120,1","99999,9","04,5,+00900,1,09,1","04,5,+02400,1,99,9","07,5,+03900,1,99,9","07,99,1,99,9,99,9,99999,9,99,9,99,9","10108,1,99999,9","80,1",,,,"MET089METAR ETSE 291420Z 27006KT 9999 -SHRA SCT030CB SCT080 BKN130 18/12 Q1011 BLU FCST CANCEL;",
"10869099999","2010-07-30T05:20:00","4","48.322333","11.948667","461.77","ERDING, GM","FM-15","ETSE ","V020","280,1,N,0026,1","00150,1,C,N","011265,1,N,1","+0130,1","+0120,1","99999,9","07,5,+00150,1,99,9","07,5,+00480,1,99,9",,"07,99,1,99,9,99,9,99999,9,99,9,99,9","10139,1,99999,9",,,,,"MET062METAR ETSE 300520Z 28005KT 9999 BKN005 BKN016 13/12 Q1014 YLO;",
"10869099999","2010-07-30T06:20:00","4","48.322333","11.948667","461.77","ERDING, GM","FM-15","ETSE ","V020","280,1,N,0026,1","00210,1,C,N","011265,1,N,1","+0130,1","+0120,1","99999,9","07,5,+00210,1,99,9",,,"07,99,1,99,9,99,9,99999,9,99,9,99,9","10149,1,99999,9",,,,,"MET055METAR ETSE 300620Z 28005KT 9999 BKN007 13/12 Q1015 GRN;",
"10869099999","2010-07-30T07:20:00","4","48.322333","11.948667","461.77","ERDING, GM","FM-15","ETSE ","V020","310,1,N,0041,1","00270,1,C,N","011265,1,N,1","+0140,1","+0120,1","99999,9","07,5,+00270,1,99,9","07,5,+00540,1,99,9",,"07,99,1,99,9,99,9,99999,9,99,9,99,9","10149,1,99999,9",,,,,"MET062METAR ETSE 300720Z 31008KT 9999 BKN009 BKN018 14/12 Q1015 GRN;",
"10869099999","2010-08-02T05:20:00","4","48.322333","11.948667","461.77","ERDING, GM","FM-15","ETSE ","V020","999,9,V,0010,1","22000,1,9,N","011265,1,N,1","+0180,1","+0160,1","99999,9","02,5,+01200,1,99,9",,,"02,99,1,99,9,99,9,99999,9,99,9,99,9","10169,1,99999,9",,,,,"MET056METAR ETSE 020520Z VRB02KT 9999 FEW040 18/16 Q1017 BLU/;",
"10869099999","2010-08-02T06:20:00","4","48.322333","11.948667","461.77","ERDING, GM","FM-15","ETSE ","V020","230,1,N,0010,1","99999,9,C,N","011265,1,N,1","+0190,1","+0160,1","99999,9","02,5,+00360,1,99,9","04,5,+05400,1,99,9",,"04,99,1,99,9,99,9,99999,9,99,9,99,9","10169,1,99999,9",,,,,"MET063METAR ETSE 020620Z 23002KT 9999 FEW012 SCT180 19/16 Q1017 BLU/;","P01 054003SCOCIG"
"10869099999","2010-08-02T07:20:00","4","48.322333","11.948667","461.77","ERDING, GM","FM-15","ETSE ","V020","180,1,N,0015,1","04800,1,C,N","011265,1,N,1","+0200,1","+0170,1","99999,9","02,5,+00360,1,99,9","07,5,+04800,1,99,9",,"07,99,1,99,9,99,9,99999,9,99,9,99,9","10169,1,99999,9",,,,,"MET062METAR ETSE 020720Z 18003KT 9999 FEW012 BKN160 20/17 Q1017 BLU;",
"10869099999","2010-08-02T08:20:00","4","48.322333","11.948667","461.77","ERDING, GM","FM-15","ETSE ","V020","200,1,N,0015,1","03600,1,C,N","011265,1,N,1","+0210,1","+0160,1","99999,9","02,5,+00540,1,99,9","07,5,+03600,1,99,9","07,5,+04800,1,99,9","07,99,1,99,9,99,9,99999,9,99,9,99,9","10169,1,99999,9",,,,,"MET069METAR ETSE 020820Z 20003KT 9999 FEW018 BKN120 BKN160 21/16 Q1017 BLU;",
"10869099999","2010-08-02T09:20:00","4","48.322333","11.948667","461.77","ERDING, GM","FM-15","ETSE ","V020","200,1,N,0015,1","03300,1,C,N","011265,1,N,1","+0210,1","+0160,1","99999,9","02,5,+00540,1,99,9","07,5,+03300,1,99,9","07,5,+04200,1,99,9","07,99,1,99,9,99,9,99999,9,99,9,99,9","10169,1,99999,9",,,,,"MET069METAR ETSE 020920Z 20003KT 9999 FEW018 BKN110 BKN140 21/16 Q1017 BLU;",
"10869099999","2010-08-02T10:20:00","4","48.322333","11.948667","461.77","ERDING, GM","FM-15","ETSE ","V020","240,1,N,0021,1","03000,1,C,N","011265,1,N,1","+0210,1","+0170,1","99999,9","02,5,+00510,1,99,9","04,5,+03000,1,99,9","07,5,+04200,1,99,9","07,99,1,99,9,99,9,99999,9,99,9,99,9","10169,1,99999,9","61,1",,,,"MET073METAR ETSE 021020Z 24004KT 9999 -RA FEW017 SCT100 BKN140 21/17 Q1017 BLU;",
"10869099999","2010-08-02T11:20:00","4","48.322333","11.948667","461.77","ERDING, GM","FM-15","ETSE ","V020","280,1,N,0036,1","03000,1,C,N","011265,1,N,1","+0210,1","+0160,1","99999,9","02,5,+00600,1,99,9","07,5,+03000,1,99,9",,"07,99,1,99,9,99,9,99999,9,99,9,99,9","10169,1,99999,9",,,,,"MET062METAR ETSE 021120Z 28007KT 9999 FEW020 BKN100 21/16 Q1017 BLU;",
"10869099999","2010-08-02T12:20:00","4","48.322333","11.948667","461.77","ERDING, GM","FM-15","ETSE ","V020","280,1,N,0026,1","03000,1,C,N","011265,1,N,1","+0210,1","+0170,1","99999,9","02,5,+00570,1,99,9","07,5,+03000,1,99,9",,"07,99,1,99,9,99,9,99999,9,99,9,99,9","10159,1,99999,9",,,,,"MET062METAR ETSE 021220Z 28005KT 9999 FEW019 BKN100 21/17 Q1016 BLU;",
"10869099999","2010-08-02T13:20:00","4","48.322333","11.948667","461.77","ERDING, GM","FM-15","ETSE ","V020","270,1,N,0021,1","02400,1,C,N","011265,1,N,1","+0200,1","+0160,1","99999,9","02,5,+00570,1,99,9","07,5,+02400,1,99,9",,"07,99,1,99,9,99,9,99999,9,99,9,99,9","10159,1,99999,9","61,1",,,,"MET066METAR ETSE 021320Z 27004KT 9999 -RA FEW019 BKN080 20/16 Q1016 BLU;",
"10869099999","2010-08-02T14:20:00","4","48.322333","11.948667","461.77","ERDING, GM","FM-15","ETSE ","V020","270,1,N,0021,1","02400,1,C,N","011265,1,N,1","+0190,1","+0170,1","99999,9","02,5,+00630,1,99,9","07,5,+02400,1,99,9","07,5,+03900,1,99,9","07,99,1,99,9,99,9,99999,9,99,9,99,9","10159,1,99999,9","61,1",,,,"MET073METAR ETSE 021420Z 27004KT 9999 -RA FEW021 BKN080 BKN130 19/17 Q1016 BLU;",
"10869099999","2010-08-03T05:20:00","4","48.322333","11.948667","461.77","ERDING, GM","FM-15","ETSE ","V020","260,1,N,0026,1","00630,1,C,N","011265,1,N,1","+0160,1","+0150,1","99999,9","04,5,+00180,1,99,9","07,5,+00630,1,99,9","07,5,+02700,1,99,9","07,99,1,99,9,99,9,99999,9,99,9,99,9","10139,1,99999,9",,,,,"MET069METAR ETSE 030520Z 26005KT 9999 SCT006 BKN021 BKN090 16/15 Q1014 WHT;",
"10869099999","2010-08-03T06:20:00","4","48.322333","11.948667","461.77","ERDING, GM","FM-15","ETSE ","V020","270,1,N,0031,1","00180,1,C,N","011265,1,N,1","+0160,1","+0150,1","99999,9","07,5,+00180,1,99,9","07,5,+00630,1,99,9",,"07,99,1,99,9,99,9,99999,9,99,9,99,9","10149,1,99999,9",,,,,"MET062METAR ETSE 030620Z 27006KT 9999 BKN006 BKN021 16/15 Q1015 YLO;",
"10869099999","2010-08-03T06:40:00","4","48.322333","11.948667","461.77","ERDING, GM","FM-16","ETSE ","V020","270,1,N,0031,1","00480,1,C,N","011265,1,N,1","+0170,1","+0150,1","99999,9","04,5,+00210,1,99,9","07,5,+00480,1,99,9",,"07,99,1,99,9,99,9,99999,9,99,9,99,9","10139,1,99999,9",,,,,"MET062SPECI ETSE 030640Z 27006KT 9999 SCT007 BKN016 17/15 Q1014 WHT;",
"10869099999","2010-08-03T07:20:00","4","48.322333","11.948667","461.77","ERDING, GM","FM-15","ETSE ","V020","250,1,N,0036,1","00300,1,C,N","011265,1,N,1","+0170,1","+0150,1","99999,9","07,5,+00300,1,99,9","04,5,+00570,1,99,9","07,5,+02550,5,99,9","07,99,1,99,9,99,9,99999,9,99,9,99,9","10149,1,99999,9",,,,,"MET069METAR ETSE 030720Z 25007KT 9999 BKN010 SCT019 BKN085 17/15 Q1015 GRN;",
"10869099999","2010-08-03T08:20:00","4","48.322333","11.948667","461.77","ERDING, GM","FM-15","ETSE ","V020","280,1,N,0041,1","00360,1,C,N","011265,1,N,1","+0180,1","+0150,1","99999,9","07,5,+00360,1,02,1","07,5,+02100,1,99,9",,"07,99,1,99,9,99,9,99999,9,99,9,99,9","10149,1,99999,9",,,,,"MET065METAR ETSE 030820Z 28008KT 9999 BKN012TCU BKN070 18/15 Q1015 GRN;",
"10869099999","2010-08-03T09:20:00","4","48.322333","11.948667","461.77","ERDING, GM","FM-15","ETSE ","V020","280,1,N,0062,1","01350,1,C,N","011265,1,N,1","+0170,1","+0140,1","99999,9","04,5,+00480,1,02,1","04,5,+01350,1,99,9","07,5,+03000,1,99,9","07,99,1,99,9,99,9,99999,9,99,9,99,9","10149,1,99999,9",,,,,"MET072METAR ETSE 030920Z 28012KT 9999 SCT016TCU SCT045 BKN100 17/14 Q1015 BLU;",
"10869099999","2010-08-03T10:20:00","4","48.322333","11.948667","461.77","ERDING, GM","FM-15","ETSE ","V020","290,1,N,0057,1","99999,9,C,N","011265,1,N,1","+0180,1","+0140,1","99999,9","04,5,+00600,1,02,1","04,5,+01380,1,99,9",,"04,99,1,99,9,99,9,99999,9,99,9,99,9","10149,1,99999,9",,,,,"MET066METAR ETSE 031020Z 29011KT 9999 SCT020TCU SCT046 18/14 Q1015 BLU/;","P01 013803SCOCIG"
"10869099999","2010-08-03T11:20:00","4","48.322333","11.948667","461.77","ERDING, GM","FM-15","ETSE ","V020","290,1,N,0057,1","99999,9,C,N","011265,1,N,1","+0190,1","+0140,1","99999,9","04,5,+00780,1,02,1","04,5,+01380,1,99,9",,"04,99,1,99,9,99,9,99999,9,99,9,99,9","10149,1,99999,9",,,,,"MET066METAR ETSE 031120Z 29011KT 9999 SCT026TCU SCT046 19/14 Q1015 BLU/;","P01 013803SCOCIG"
"10869099999","2010-08-03T12:20:00","4","48.322333","11.948667","461.77","ERDING, GM","FM-15","ETSE ","V020","290,1,N,0057,1","02400,1,C,N","011265,1,N,1","+0200,1","+0130,1","99999,9","04,5,+00900,1,02,1","07,5,+02400,1,99,9",,"07,99,1,99,9,99,9,99999,9,99,9,99,9","10149,1,99999,9",,,,,"MET065METAR ETSE 031220Z 29011KT 9999 SCT030TCU BKN080 20/13 Q1015 BLU;",
"10869099999","2010-08-03T13:20:00","4","48.322333","11.948667","461.77","ERDING, GM","FM-15","ETSE ","V020","300,1,N,0046,1","02550,5,C,N","011265,1,N,1","+0180,1","+0140,1","99999,9","02,5,+00900,1,02,1","07,5,+02550,5,99,9",,"07,99,1,99,9,99,9,99999,9,99,9,99,9","10149,1,99999,9",,,,,"MET065METAR ETSE 031320Z 30009KT 9999 FEW030TCU BKN085 18/14 Q1015 BLU;",
"10869099999","2010-08-03T14:20:00","4","48.322333","11.948667","461.77","ERDING, GM","FM-15","ETSE ","V020","320,1,N,0041,1","02700,1,C,N","011265,1,N,1","+0190,1","+0140,1","99999,9","02,5,+00870,1,02,1","04,5,+02700,1,99,9","07,5,+03900,1,99,9","07,99,1,99,9,99,9,99999,9,99,9,99,9","10149,1,99999,9",,,,,"MET072METAR ETSE 031420Z 32008KT 9999 FEW029TCU SCT090 BKN130 19/14 Q1015 BLU;",
"10869099999","2010-08-04T07:20:00","4","48.322333","11.948667","461.77","ERDING, GM","FM-15","ETSE ","V020","150,1,N,0015,1","99999,9,C,N","011265,1,N,1","+0160,1","+0110,1","99999,9","02,5,+00540,1,99,9","04,5,+08400,1,99,9",,"04,99,1,99,9,99,9,99999,9,99,9,99,9","10149,1,99999,9",,,,,"MET063METAR ETSE 040720Z 15003KT 9999 FEW018 SCT280 16/11 Q1015 BLU/;","P01 084003SCOCIG"
"10869099999","2010-08-04T08:20:00","4","48.322333","11.948667","461.77","ERDING, GM","FM-15","ETSE ","V020","310,1,N,0015,1","22000,1,9,N","011265,1,N,1","+0170,1","+0110,1","99999,9","02,5,+00660,1,99,9",,,"02,99,1,99,9,99,9,99999,9,99,9,99,9","10149,1,99999,9",,,,,"MET056METAR ETSE 040820Z 31003KT 9999 FEW022 17/11 Q1015 BLU/;",
"10869099999","2010-08-04T09:20:00","4","48.322333","11.948667","461.77","ERDING, GM","FM-15","ETSE ","V020","999,9,V,0010,1","22000,1,9,N","011265,1,N,1","+0180,1","+0110,1","99999,9","02,5,+00690,1,99,9",,,"02,99,1,99,9,99,9,99999,9,99,9,99,9","10139,1,99999,9",,,,,"MET056METAR ETSE 040920Z VRB02KT 9999 FEW023 18/11 Q1014 BLU/;",
"10869099999","2010-08-04T10:20:00","4","48.322333","11.948667","461.77","ERDING, GM","FM-15","ETSE ","V020","040,1,N,0021,1","22000,1,9,N","011265,1,N,1","+0200,1","+0100,1","99999,9","02,5,+01050,1,99,9",,,"02,99,1,99,9,99,9,99999,9,99,9,99,9","10139,1,99999,9",,,,,"MET056METAR ETSE 041020Z 04004KT 9999 FEW035 20/10 Q1014 BLU/;",
"10869099999","2010-08-04T11:20:00","4","48.322333","11.948667","461.77","ERDING, GM","FM-15","ETSE ","V020","080,1,N,0015,1","06600,1,C,N","011265,1,N,1","+0210,1","+0100,1","99999,9","02,5,+01320,1,99,9","07,5,+06600,1,99,9",,"07,99,1,99,9,99,9,99999,9,99,9,99,9","10129,1,99999,9",,,,,"MET063METAR ETSE 041120Z 08003KT 9999 FEW044 BKN220 21/10 Q1013 BLU/;",
"10869099999","2010-08-04T12:20:00","4","48.322333","11.948667","461.77","ERDING, GM","FM-15","ETSE ","V020","020,1,N,0015,1","06600,1,C,N","011265,1,N,1","+0220,1","+0100,1","99999,9","02,5,+01350,1,99,9","07,5,+06600,1,99,9",,"07,99,1,99,9,99,9,99999,9,99,9,99,9","10119,1,99999,9",,,,,"MET063METAR ETSE 041220Z 02003KT 9999 FEW045 BKN220 22/10 Q1012 BLU/;",
"10869099999","2010-08-04T13:20:00","4","48.322333","11.948667","461.77","ERDING, GM","FM-15","ETSE ","V020","320,1,N,0010,1","06300,1,C,N","011265,1,N,1","+0220,1","+0090,1","99999,9","02,5,+01500,1,99,9","07,5,+06300,1,99,9",,"07,99,1,99,9,99,9,99999,9,99,9,99,9","10119,1,99999,9",,,,,"MET063METAR ETSE 041320Z 32002KT 9999 FEW050 BKN210 22/09 Q1012 BLU/;",
"10869099999","2010-08-04T14:20:00","4","48.322333","11.948667","461.77","ERDING, GM","FM-15","ETSE ","V020","150,1,N,0015,1","06300,1,C,N","011265,1,N,1","+0220,1","+0100,1","99999,9","02,5,+01650,5,99,9","07,5,+06300,1,99,9",,"07,99,1,99,9,99,9,99999,9,99,9,99,9","10119,1,99999,9",,,,,"MET063METAR ETSE 041420Z 15003KT 9999 FEW055 BKN210 22/10 Q1012 BLU/;",
"10869099999","2010-08-05T05:20:00","4","48.322333","11.948667","461.77","ERDING, GM","FM-15","ETSE ","V020","140,1,N,0010,1","01500,1,C,N","011265,1,N,1","+0140,1","+0130,1","99999,9","02,5,+01200,1,99,9","04,5,+01650,5,99,9","07,5,+02400,1,99,9","07,99,1,99,9,99,9,99999,9,99,9,99,9","10081,1,99999,9","61,1",,,,"MET073METAR ETSE 050520Z 14002KT 9999 -RA FEW040 SCT055 BKN080 14/13 Q1008 BLU;",
"10869099999","2010-08-05T06:20:00","4","48.322333","11.948667","461.77","ERDING, GM","FM-15","ETSE ","V020","120,1,N,0015,1","01500,1,C,N","011265,1,N,1","+0150,1","+0140,1","99999,9","02,5,+00600,1,99,9","04,5,+01650,5,99,9","07,5,+02400,1,99,9","07,99,1,99,9,99,9,99999,9,99,9,99,9","10081,1,99999,9","61,1",,,,"MET073METAR ETSE 050620Z 12003KT 9999 -RA FEW020 SCT055 BKN080 15/14 Q1008 BLU;",
"10869099999","2010-08-05T07:20:00","4","48.322333","11.948667","461.77","ERDING, GM","FM-15","ETSE ","V020","110,1,N,0010,1","02700,1,C,N","011265,1,N,1","+0160,1","+0140,1","99999,9","02,5,+01800,1,99,9","07,5,+02700,1,99,9",,"07,99,1,99,9,99,9,99999,9,99,9,99,9","10081,1,99999,9","61,1",,,,"MET066METAR ETSE 050720Z 11002KT 9999 -RA FEW060 BKN090 16/14 Q1008 BLU;",
"10869099999","2010-08-05T08:20:00","4","48.322333","11.948667","461.77","ERDING, GM","FM-15","ETSE ","V020","130,1,N,0015,1","02400,1,C,N","011265,1,N,1","+0160,1","+0140,1","99999,9","02,5,+00630,1,99,9","07,5,+02400,1,99,9",,"07,99,1,99,9,99,9,99999,9,99,9,99,9","10081,1,99999,9","61,1",,,,"MET066METAR ETSE 050820Z 13003KT 9999 -RA FEW021 BKN080 16/14 Q1008 BLU;",
"10869099999","2010-08-05T09:20:00","4","48.322333","11.948667","461.77","ERDING, GM","FM-15","ETSE ","V020","090,1,N,0015,1","01800,1,C,N","011265,1,N,1","+0160,1","+0140,1","99999,9","02,5,+00600,1,99,9","04,5,+01800,1,99,9","07,5,+02400,1,99,9","07,99,1,99,9,99,9,99999,9,99,9,99,9","10081,1,99999,9","61,1",,,,"MET073METAR ETSE 050920Z 09003KT 9999 -RA FEW020 SCT060 BKN080 16/14 Q1008 BLU;",
"10869099999","2010-08-05T10:20:00","4","48.322333","11.948667","461.77","ERDING, GM","FM-15","ETSE ","V020","080,1,N,0010,1","01500,1,C,N","011265,1,N,1","+0170,1","+0140,1","99999,9","02,5,+00600,1,99,9","04,5,+01650,5,99,9","07,5,+02400,1,99,9","07,99,1,99,9,99,9,99999,9,99,9,99,9","10081,1,99999,9","61,1",,,,"MET073METAR ETSE 051020Z 08002KT 9999 -RA FEW020 SCT055 BKN080 17/14 Q1008 BLU;",
"10869099999","2010-08-05T11:20:00","4","48.322333","11.948667","461.77","ERDING, GM","FM-15","ETSE ","V020","290,1,N,0015,1","01500,1,C,N","011265,1,N,1","+0170,1","+0140,1","99999,9","02,5,+00690,1,99,9","07,5,+01500,1,99,9","07,5,+02250,5,99,9","07,99,1,99,9,99,9,99999,9,99,9,99,9","10081,1,99999,9","61,1",,,,"MET073METAR ETSE 051120Z 29003KT 9999 -RA FEW023 BKN050 BKN075 17/14 Q1008 BLU;",
"10869099999","2010-08-05T12:20:00","4","48.322333","11.948667","461.77","ERDING, GM","FM-15","ETSE ","V020","310,1,N,0026,1","01650,5,C,N","011265,1,N,1","+0170,1","+0120,1","99999,9","02,5,+00600,1,99,9","07,5,+01650,5,99,9","07,5,+02100,1,99,9","07,99,1,99,9,99,9,99999,9,99,9,99,9","10081,1,99999,9","61,1",,,,"MET073METAR ETSE 051220Z 31005KT 9999 -RA FEW020 BKN055 BKN070 17/12 Q1008 BLU;",
"10869099999","2010-08-05T13:20:00","4","48.322333","11.948667","461.77","ERDING, GM","FM-15","ETSE ","V020","310,1,N,0021,1","01650,5,C,N","011265,1,N,1","+0180,1","+0120,1","99999,9","02,5,+00600,1,99,9","07,5,+01650,5,99,9",,"07,99,1,99,9,99,9,99999,9,99,9,99,9","10081,1,99999,9","61,1",,,,"MET066METAR ETSE 051320Z 31004KT 9999 -RA FEW020 BKN055 18/12 Q1008 BLU;",
"10869099999","2010-08-05T14:20:00","4","48.322333","11.948667","461.77","ERDING, GM","FM-15","ETSE ","V020","280,1,N,0026,1","01650,5,C,N","011265,1,N,1","+0160,1","+0140,1","99999,9","02,5,+00600,1,99,9","07,5,+01650,5,99,9",,"07,99,1,99,9,99,9,99999,9,99,9,99,9","10081,1,99999,9","61,1",,,,"MET066METAR ETSE 051420Z 28005KT 9999 -RA FEW020 BKN055 16/14 Q1008 BLU;",
"10869099999","2010-08-06T05:20:00","4","48.322333","11.948667","461.77","ERDING, GM","FM-15","ETSE ","V020","270,1,N,0036,1","00150,1,C,N","004800,1,N,1","+0130,1","+0130,1","99999,9","07,5,+00150,1,99,9",,,"07,99,1,99,9,99,9,99999,9,99,9,99,9","10108,1,99999,9","10,1","63,1",,,"MET061METAR ETSE 060520Z 27007KT 4800 RA BR BKN005 13/13 Q1011 YLO;",
"10869099999","2010-08-06T06:20:00","4","48.322333","11.948667","461.77","ERDING, GM","FM-15","ETSE ","V020","270,1,N,0046,1","00150,1,C,N","004800,1,N,1","+0130,1","+0130,1","99999,9","07,5,+00150,1,99,9","07,5,+00240,1,99,9",,"07,99,1,99,9,99,9,99999,9,99,9,99,9","10108,1,99999,9","10,1","61,1",,,"MET074METAR ETSE 060620Z 27009KT 4800 -RA BR BKN005 BKN008 13/13 Q1011 RERA YLO;",
"10869099999","2010-08-06T07:20:00","4","48.322333","11.948667","461.77","ERDING, GM","FM-15","ETSE ","V020","260,1,N,0041,1","00150,1,C,N","003600,1,N,1","+0130,1","+0130,1","99999,9","02,5,+00120,1,99,9","07,5,+00150,1,99,9",,"07,99,1,99,9,99,9,99999,9,99,9,99,9","10119,1,99999,9","10,1","53,1","63,1",,"MET070METAR ETSE 060720Z 26008KT 3600 RADZ BR FEW004 BKN005 13/13 Q1012 YLO;",
"10869099999","2010-08-06T08:20:00","4","48.322333","11.948667","461.77","ERDING, GM","FM-15","ETSE ","V020","260,1,N,0041,1","00150,1,C,N","004000,1,N,1","+0130,1","+0130,1","99999,9","02,5,+00120,1,99,9","07,5,+00150,1,99,9",,"07,99,1,99,9,99,9,99999,9,99,9,99,9","10119,1,99999,9","10,1","63,1",,,"MET068METAR ETSE 060820Z 26008KT 4000 RA BR FEW004 BKN005 13/13 Q1012 YLO;",
"10869099999","2010-08-06T09:20:00","4","48.322333","11.948667","461.77","ERDING, GM","FM-15","ETSE ","V020","260,1,N,0046,1","00150,1,C,N","003500,1,N,1","+0130,1","+0120,1","99999,9","02,5,+00120,1,99,9","07,5,+00150,1,99,9",,"07,99,1,99,9,99,9,99999,9,99,9,99,9","10129,1,99999,9","10,1","63,1",,,"MET068METAR ETSE 060920Z 26009KT 3500 RA BR FEW004 BKN005 13/12 Q1013 YLO;",
"10869099999","2010-08-09T05:20:00","4","48.322333","11.948667","461.77","ERDING, GM","FM-15","ETSE ","V020","230,1,N,0015,1","99999,9,C,N","011265,1,N,1","+0130,1","+0120,1","99999,9","02,5,+00450,1,99,9","04,5,+03000,1,99,9",,"04,99,1,99,9,99,9,99999,9,99,9,99,9","10190,1,99999,9",,,,,"MET063METAR ETSE 090520Z 23003KT 9999 FEW015 SCT100 13/12 Q1019 BLU/;","P01 030003SCOCIG"
"10869099999","2010-08-09T06:20:00","4","48.322333","11.948667","461.77","ERDING, GM","FM-15","ETSE ","V020","230,1,N,0015,1","99999,9,C,N","011265,1,N,1","+0150,1","+0130,1","99999,9","02,5,+00450,1,99,9","04,5,+03000,1,99,9",,"04,99,1,99,9,99,9,99999,9,99,9,99,9","10200,1,99999,9",,,,,"MET063METAR ETSE 090620Z 23003KT 9999 FEW015 SCT100 15/13 Q1020 BLU/;","P01 030003SCOCIG"
"10869099999","2010-08-09T07:20:00","4","48.322333","11.948667","461.77","ERDING, GM","FM-15","ETSE ","V020","260,1,N,0021,1","22000,1,9,N","011265,1,N,1","+0170,1","+0130,1","99999,9","02,5,+00600,1,99,9",,,"02,99,1,99,9,99,9,99999,9,99,9,99,9","10200,1,99999,9",,,,,"MET056METAR ETSE 090720Z 26004KT 9999 FEW020 17/13 Q1020 BLU/;",
"10869099999","2010-08-09T08:20:00","4","48.322333","11.948667","461.77","ERDING, GM","FM-15","ETSE ","V020","280,1,N,0021,1","22000,1,9,N","011265,1,N,1","+0180,1","+0140,1","99999,9","02,5,+00600,1,99,9",,,"02,99,1,99,9,99,9,99999,9,99,9,99,9","10200,1,99999,9",,,,,"MET056METAR ETSE 090820Z 28004KT 9999 FEW020 18/14 Q1020 BLU/;",
"10869099999","2010-08-09T09:20:00","4","48.322333","11.948667","461.77","ERDING, GM","FM-15","ETSE ","V020","260,1,N,0015,1","22000,1,9,N","011265,1,N,1","+0190,1","+0140,1","99999,9","02,5,+00750,1,99,9",,,"02,99,1,99,9,99,9,99999,9,99,9,99,9","10200,1,99999,9",,,,,"MET056METAR ETSE 090920Z 26003KT 9999 FEW025 19/14 Q1020 BLU/;",
"10869099999","2010-08-09T10:20:00","4","48.322333","11.948667","461.77","ERDING, GM","FM-15","ETSE ","V020","230,1,N,0015,1","22000,1,9,N","011265,1,N,1","+0200,1","+0120,1","99999,9","04,5,+00840,1,99,9",,,"04,99,1,99,9,99,9,99999,9,99,9,99,9","10190,1,99999,9",,,,,"MET056METAR ETSE 091020Z 23003KT 9999 SCT028 20/12 Q1019 BLU/;",
"10869099999","2010-08-09T11:20:00","4","48.322333","11.948667","461.77","ERDING, GM","FM-15","ETSE ","V020","270,1,N,0026,1","22000,1,9,N","011265,1,N,1","+0210,1","+0120,1","99999,9","04,5,+01170,1,99,9",,,"04,99,1,99,9,99,9,99999,9,99,9,99,9","10180,1,99999,9",,,,,"MET056METAR ETSE 091120Z 27005KT 9999 SCT039 21/12 Q1018 BLU/;",
"10869099999","2010-08-09T12:20:00","4","48.322333","11.948667","461.77","ERDING, GM","FM-15","ETSE ","V020","330,1,N,0021,1","22000,1,9,N","011265,1,N,1","+0210,1","+0130,1","99999,9","02,5,+01200,1,99,9",,,"02,99,1,99,9,99,9,99999,9,99,9,99,9","10180,1,99999,9",,,,,"MET056METAR ETSE 091220Z 33004KT 9999 FEW040 21/13 Q1018 BLU/;",
"10869099999","2010-08-09T13:20:00","4","48.322333","11.948667","461.77","ERDING, GM","FM-15","ETSE ","V020","010,1,N,0021,1","22000,1,9,N","011265,1,N,1","+0230,1","+0130,1","99999,9","02,5,+01260,1,99,9",,,"02,99,1,99,9,99,9,99999,9,99,9,99,9","10180,1,99999,9",,,,,"MET056METAR ETSE 091320Z 01004KT 9999 FEW042 23/13 Q1018 BLU/;",
"10869099999","2010-08-10T05:20:00","4","48.322333","11.948667","461.77","ERDING, GM","FM-15","ETSE ","V020","010,1,N,0010,1","22000,1,9,N","007000,1,N,1","+0130,1","+0110,1","99999,9","02,5,+01200,1,99,9",,,"02,99,1,99,9,99,9,99999,9,99,9,99,9","10180,1,99999,9",,,,,"MET055METAR ETSE 100520Z 01002KT 7000 FEW040 13/11 Q1018 WHT;",
"10869099999","2010-08-10T06:20:00","4","48.322333","11.948667","461.77","ERDING, GM","FM-15","ETSE ","V020","330,1,N,0005,1","99999,9,C,N","011265,1,N,1","+0160,1","+0130,1","99999,9","02,5,+01200,1,99,9","04,5,+07800,1,99,9",,"04,99,1,99,9,99,9,99999,9,99,9,99,9","10180,1,99999,9",,,,,"MET063METAR ETSE 100620Z 33001KT 9999 FEW040 SCT260 16/13 Q1018 BLU/;","P01 078003SCOCIG"
"10869099999","2010-08-10T07:20:00","4","48.322333","11.948667","461.77","ERDING, GM","FM-15","ETSE ","V020","330,1,N,0010,1","99999,9,C,N","011265,1,N,1","+0180,1","+0140,1","99999,9","02,5,+01200,1,99,9","04,5,+07800,1,99,9",,"04,99,1,99,9,99,9,99999,9,99,9,99,9","10180,1,99999,9",,,,,"MET063METAR ETSE 100720Z 33002KT 9999 FEW040 SCT260 18/14 Q1018 BLU/;","P01 078003SCOCIG"
"10869099999","2010-08-10T08:20:00","4","48.322333","11.948667","461.77","ERDING, GM","FM-15","ETSE ","V020","999,9,V,0010,1","22000,1,9,N","011265,1,N,1","+0200,1","+0140,1","99999,9","04,5,+01950,5,99,9",,,"04,99,1,99,9,99,9,99999,9,99,9,99,9","10180,1,99999,9",,,,,"MET056METAR ETSE 100820Z VRB02KT 9999 SCT065 20/14 Q1018 BLU/;",
"10869099999","2010-08-10T09:20:00","4","48.322333","11.948667","461.77","ERDING, GM","FM-15","ETSE ","V020","340,1,N,0015,1","99999,9,C,N","011265,1,N,1","+0210,1","+0150,1","99999,9","02,5,+00600,1,99,9","04,5,+01890,5,99,9",,"04,99,1,99,9,99,9,99999,9,99,9,99,9","10180,1,99999,9",,,,,"MET063METAR ETSE 100920Z 34003KT 9999 FEW020 SCT063 21/15 Q1018 BLU/;","P01 018903SCOCIG"
"10869099999","2010-08-10T10:20:00","4","48.322333","11.948667","461.77","ERDING, GM","FM-15","ETSE ","V020","130,1,N,0015,1","99999,9,C,N","011265,1,N,1","+0230,1","+0150,1","99999,9","02,5,+00900,1,99,9","04,5,+02250,5,99,9",,"04,99,1,99,9,99,9,99999,9,99,9,99,9","10180,1,99999,9",,,,,"MET063METAR ETSE 101020Z 13003KT 9999 FEW030 SCT075 23/15 Q1018 BLU/;","P01 022503SCOCIG"
"10869099999","2010-08-10T11:20:00","4","48.322333","11.948667","461.77","ERDING, GM","FM-15","ETSE ","V020","320,1,N,0015,1","22000,1,9,N","011265,1,N,1","+0230,1","+0130,1","99999,9","02,5,+01200,1,99,9",,,"02,99,1,99,9,99,9,99999,9,99,9,99,9","10169,1,99999,9",,,,,"MET056METAR ETSE 101120Z 32003KT 9999 FEW040 23/13 Q1017 BLU/;",
"10869099999","2010-08-10T12:20:00","4","48.322333","11.948667","461.77","ERDING, GM","FM-15","ETSE ","V020","210,1,N,0021,1","22000,1,9,N","011265,1,N,1","+0250,1","+0110,1","99999,9","02,5,+01200,1,99,9",,,"02,99,1,99,9,99,9,99999,9,99,9,99,9","10169,1,99999,9",,,,,"MET056METAR ETSE 101220Z 21004KT 9999 FEW040 25/11 Q1017 BLU/;",
"10869099999","2010-08-10T13:20:00","4","48.322333","11.948667","461.77","ERDING, GM","FM-15","ETSE ","V020","320,1,N,0026,1","22000,1,9,N","011265,1,N,1","+0250,1","+0130,1","99999,9","02,5,+01350,1,99,9",,,"02,99,1,99,9,99,9,99999,9,99,9,99,9","10169,1,99999,9",,,,,"MET056METAR ETSE 101320Z 32005KT 9999 FEW045 25/13 Q1017 BLU/;",
"10869099999","2010-08-10T14:20:00","4","48.322333","11.948667","461.77","ERDING, GM","FM-15","ETSE ","V020","250,1,N,0015,1","22000,1,9,N","011265,1,N,1","+0250,1","+0130,1","99999,9","02,5,+01650,5,99,9",,,"02,99,1,99,9,99,9,99999,9,99,9,99,9","10159,1,99999,9",,,,,"MET056METAR ETSE 101420Z 25003KT 9999 FEW055 25/13 Q1016 BLU/;",
"10869099999","2010-08-11T05:20:00","4","48.322333","11.948667","461.77","ERDING, GM","FM-15","ETSE ","V020","160,1,N,0010,1","03900,1,C,N","011265,1,N,1","+0160,1","+0140,1","99999,9","02,5,+02700,1,99,9","07,5,+03900,1,99,9",,"07,99,1,99,9,99,9,99999,9,99,9,99,9","10159,1,99999,9",,,,,"MET062METAR ETSE 110520Z 16002KT 9999 FEW090 BKN130 16/14 Q1016 BLU;",
"10869099999","2010-08-11T06:20:00","4","48.322333","11.948667","461.77","ERDING, GM","FM-15","ETSE ","V020","190,1,N,0010,1","03900,1,C,N","011265,1,N,1","+0170,1","+0140,1","99999,9","02,5,+02700,1,99,9","07,5,+03900,1,99,9",,"07,99,1,99,9,99,9,99999,9,99,9,99,9","10159,1,99999,9",,,,,"MET062METAR ETSE 110620Z 19002KT 9999 FEW090 BKN130 17/14 Q1016 BLU;",
"10869099999","2010-08-11T07:20:00","4","48.322333","11.948667","461.77","ERDING, GM","FM-15","ETSE ","V020","220,1,N,0015,1","03900,1,C,N","011265,1,N,1","+0190,1","+0150,1","99999,9","02,5,+02700,1,99,9","07,5,+03900,1,99,9",,"07,99,1,99,9,99,9,99999,9,99,9,99,9","10169,1,99999,9",,,,,"MET062METAR ETSE 110720Z 22003KT 9999 FEW090 BKN130 19/15 Q1017 BLU;",
"10869099999","2010-08-11T08:20:00","4","48.322333","11.948667","461.77","ERDING, GM","FM-15","ETSE ","V020","230,1,N,0015,1","02700,1,C,N","011265,1,N,1","+0210,1","+0150,1","99999,9","02,5,+01950,5,99,9","07,5,+02700,1,99,9","07,5,+03900,1,99,9","07,99,1,99,9,99,9,99999,9,99,9,99,9","10169,1,99999,9",,,,,"MET069METAR ETSE 110820Z 23003KT 9999 FEW065 BKN090 BKN130 21/15 Q1017 BLU;",
"10869099999","2010-08-11T09:20:00","4","48.322333","11.948667","461.77","ERDING, GM","FM-15","ETSE ","V020","270,1,N,0026,1","02400,1,C,N","011265,1,N,1","+0230,1","+0160,1","99999,9","02,5,+01500,1,99,9","04,5,+02400,1,99,9","07,5,+03900,1,99,9","07,99,1,99,9,99,9,99999,9,99,9,99,9","10169,1,99999,9",,,,,"MET069METAR ETSE 110920Z 27005KT 9999 FEW050 SCT080 BKN130 23/16 Q1017 BLU;",
"10869099999","2010-08-11T10:20:00","4","48.322333","11.948667","461.77","ERDING, GM","FM-15","ETSE ","V020","310,1,N,0026,1","02400,1,C,N","011265,1,N,1","+0240,1","+0160,1","99999,9","02,5,+01500,1,99,9","04,5,+02400,1,99,9","07,5,+03600,1,99,9","07,99,1,99,9,99,9,99999,9,99,9,99,9","10169,1,99999,9",,,,,"MET069METAR ETSE 111020Z 31005KT 9999 FEW050 SCT080 BKN120 24/16 Q1017 BLU;",
"10869099999","2010-08-11T11:20:00","4","48.322333","11.948667","461.77","ERDING, GM","FM-15","ETSE ","V020","300,1,N,0036,1","01800,1,C,N","011265,1,N,1","+0250,1","+0150,1","99999,9","02,5,+01200,1,99,9","04,5,+01800,1,99,9","07,5,+04200,1,99,9","07,99,1,99,9,99,9,99999,9,99,9,99,9","10169,1,99999,9",,,,,"MET069METAR ETSE 111120Z 30007KT 9999 FEW040 SCT060 BKN140 25/15 Q1017 BLU;",
"10869099999","2010-08-11T12:20:00","4","48.322333","11.948667","461.77","ERDING, GM","FM-15","ETSE ","V020","320,1,N,0031,1","04800,1,C,N","011265,1,N,1","+0250,1","+0140,1","99999,9","02,5,+01200,1,99,9","07,5,+04800,1,99,9",,"07,99,1,99,9,99,9,99999,9,99,9,99,9","10159,1,99999,9",,,,,"MET062METAR ETSE 111220Z 32006KT 9999 FEW040 BKN160 25/14 Q1016 BLU;",
"10869099999","2010-08-11T13:20:00","4","48.322333","11.948667","461.77","ERDING, GM","FM-15","ETSE ","V020","290,1,N,0021,1","04500,1,C,N","011265,1,N,1","+0250,1","+0120,1","99999,9","02,5,+01350,1,99,9","07,5,+04500,1,99,9",,"07,99,1,99,9,99,9,99999,9,99,9,99,9","10159,1,99999,9",,,,,"MET062METAR ETSE 111320Z 29004KT 9999 FEW045 BKN150 25/12 Q1016 BLU;",
"10869099999","2010-08-11T14:20:00","4","48.322333","11.948667","461.77","ERDING, GM","FM-15","ETSE ","V020","300,1,N,0026,1","04800,1,C,N","011265,1,N,1","+0250,1","+0140,1","99999,9","02,5,+01500,1,99,9","07,5,+04800,1,99,9",,"07,99,1,99,9,99,9,99999,9,99,9,99,9","10149,1,99999,9",,,,,"MET062METAR ETSE 111420Z 30005KT 9999 FEW050 BKN160 25/14 Q1015 BLU;",
"10869099999","2010-08-12T05:20:00","4","48.322333","11.948667","461.77","ERDING, GM","FM-15","ETSE ","V020","190,1,N,0015,1","02400,1,C,N","011265,1,N,1","+0170,1","+0150,1","99999,9","02,5,+00900,1,99,9","07,5,+02400,1,99,9","07,5,+03000,1,99,9","07,99,1,99,9,99,9,99999,9,99,9,99,9","10129,1,99999,9","61,1",,,,"MET073METAR ETSE 120520Z 19003KT 9999 -RA FEW030 BKN080 BKN100 17/15 Q1013 BLU;",
"10869099999","2010-08-12T06:20:00","4","48.322333","11.948667","461.77","ERDING, GM","FM-15","ETSE ","V020","250,1,N,0036,1","02400,1,C,N","011265,1,N,1","+0180,1","+0160,1","99999,9","02,5,+00900,1,99,9","07,5,+02400,1,99,9",,"07,99,1,99,9,99,9,99999,9,99,9,99,9","10139,1,99999,9","61,1",,,,"MET066METAR ETSE 120620Z 25007KT 9999 -RA FEW030 BKN080 18/16 Q1014 BLU;",
"10869099999","2010-08-12T06:29:00","4","48.322333","11.948667","461.77","ERDING, GM","FM-16","ETSE ","V020","260,1,N,0031,1","02400,1,C,N","011265,1,N,1","+0180,1","+0160,1","99999,9","02,5,+00900,1,99,9","07,5,+02400,1,99,9",,"07,99,1,99,9,99,9,99999,9,99,9,99,9","10139,1,99999,9","61,1",,,,"MET066SPECI ETSE 120629Z 26006KT 9999 -RA FEW030 BKN080 18/16 Q1014 BLU;",
"10869099999","2010-08-12T07:20:00","4","48.322333","11.948667","461.77","ERDING, GM","FM-15","ETSE ","V020","290,1,N,0041,1","02400,1,C,N","011265,1,N,1","+0180,1","+0160,1","99999,9","02,5,+00300,1,99,9","07,5,+02400,1,99,9","08,5,+03000,1,99,9","08,99,1,99,9,99,9,99999,9,99,9,99,9","10139,1,99999,9","61,1",,,,"MET073METAR ETSE 120720Z 29008KT 9999 -RA FEW010 BKN080 OVC100 18/16 Q1014 BLU;",
"10869099999","2010-08-12T08:20:00","4","48.322333","11.948667","461.77","ERDING, GM","FM-15","ETSE ","V020","300,1,N,0036,1","00900,1,C,N","011265,1,N,1","+0180,1","+0160,1","99999,9","02,5,+00300,1,99,9","04,5,+00900,1,99,9","07,5,+02700,1,99,9","07,99,1,99,9,99,9,99999,9,99,9,99,9","10139,1,99999,9",,,,,"MET069METAR ETSE 120820Z 30007KT 9999 FEW010 SCT030 BKN090 18/16 Q1014 BLU;",
"10869099999","2010-08-12T09:20:00","4","48.322333","11.948667","461.77","ERDING, GM","FM-15","ETSE ","V020","290,1,N,0015,1","01500,1,C,N","011265,1,N,1","+0190,1","+0160,1","99999,9","02,5,+00300,1,99,9","04,5,+01500,1,99,9","07,5,+02400,1,99,9","07,99,1,99,9,99,9,99999,9,99,9,99,9","10139,1,99999,9",,,,,"MET069METAR ETSE 120920Z 29003KT 9999 FEW010 SCT050 BKN080 19/16 Q1014 BLU;",
"10869099999","2010-08-12T10:20:00","4","48.322333","11.948667","461.77","ERDING, GM","FM-15","ETSE ","V020","300,1,N,0026,1","02400,1,C,N","011265,1,N,1","+0190,1","+0160,1","99999,9","02,5,+00390,1,99,9","04,5,+02400,1,99,9","07,5,+03000,1,99,9","07,99,1,99,9,99,9,99999,9,99,9,99,9","10139,1,99999,9",,,,,"MET069METAR ETSE 121020Z 30005KT 9999 FEW013 SCT080 BKN100 19/16 Q1014 BLU;",
"10869099999","2010-08-12T11:20:00","4","48.322333","11.948667","461.77","ERDING, GM","FM-15","ETSE ","V020","999,9,V,0010,1","02400,1,C,N","011265,1,N,1","+0200,1","+0160,1","99999,9","02,5,+00450,1,99,9","04,5,+02400,1,99,9","07,5,+03000,1,99,9","07,99,1,99,9,99,9,99999,9,99,9,99,9","10139,1,99999,9",,,,,"MET069METAR ETSE 121120Z VRB02KT 9999 FEW015 SCT080 BKN100 20/16 Q1014 BLU;",
"10869099999","2010-08-12T12:20:00","4","48.322333","11.948667","461.77","ERDING, GM","FM-15","ETSE ","V020","999,9,V,0010,1","02400,1,C,N","011265,1,N,1","+0220,1","+0160,1","99999,9","02,5,+00660,1,99,9","04,5,+02400,1,99,9","07,5,+03300,1,99,9","07,99,1,99,9,99,9,99999,9,99,9,99,9","10139,1,99999,9",,,,,"MET069METAR ETSE 121220Z VRB02KT 9999 FEW022 SCT080 BKN110 22/16 Q1014 BLU;",
"10869099999","2010-08-13T05:20:00","4","48.322333","11.948667","461.77","ERDING, GM","FM-15","ETSE ","V020","260,1,N,0015,1","00540,1,C,N","011265,1,N,1","+0160,1","+0140,1","99999,9","02,5,+00360,1,99,9","07,5,+00540,1,99,9","07,5,+02400,1,99,9","07,99,1,99,9,99,9,99999,9,99,9,99,9","10169,1,99999,9","61,1",,,,"MET073METAR ETSE 130520Z 26003KT 9999 -RA FEW012 BKN018 BKN080 16/14 Q1017 WHT;",
"10869099999","2010-08-13T06:12:00","4","48.322333","11.948667","461.77","ERDING, GM","FM-16","ETSE ","V020","280,1,N,0015,1","00300,1,C,N","011265,1,N,1","+0160,1","+0140,1","99999,9","07,5,+00300,1,99,9","07,5,+00540,1,99,9",,"07,99,1,99,9,99,9,99999,9,99,9,99,9","10169,1,99999,9","61,1",,,,"MET066SPECI ETSE 130612Z 28003KT 9999 -RA BKN010 BKN018 16/14 Q1017 GRN;",
"10869099999","2010-08-13T06:20:00","4","48.322333","11.948667","461.77","ERDING, GM","FM-15","ETSE ","V020","280,1,N,0021,1","00300,1,C,N","011265,1,N,1","+0160,1","+0140,1","99999,9","07,5,+00300,1,99,9","07,5,+00540,1,99,9",,"07,99,1,99,9,99,9,99999,9,99,9,99,9","10169,1,99999,9","61,1",,,,"MET066METAR ETSE 130620Z 28004KT 9999 -RA BKN010 BKN018 16/14 Q1017 GRN;",
"10869099999","2010-08-13T06:48:00","4","48.322333","11.948667","461.77","ERDING, GM","FM-16","ETSE ","V020","280,1,N,0021,1","00600,1,C,N","011265,1,N,1","+0160,1","+0150,1","99999,9","04,5,+00270,1,99,9","04,5,+00600,1,99,9","07,5,+02250,5,99,9","07,99,1,99,9,99,9,99999,9,99,9,99,9","10169,1,99999,9","61,1",,,,"MET073SPECI ETSE 130648Z 28004KT 9999 -RA SCT009 SCT020 BKN075 16/15 Q1017 BLU;",
"10869099999","2010-08-13T07:20:00","4","48.322333","11.948667","461.77","ERDING, GM","FM-15","ETSE ","V020","290,1,N,0021,1","00600,1,C,N","011265,1,N,1","+0160,1","+0150,1","99999,9","04,5,+00120,1,99,9","04,5,+00600,1,99,9","07,5,+02100,1,99,9","07,99,1,99,9,99,9,99999,9,99,9,99,9","10169,1,99999,9","61,1",,,,"MET073METAR ETSE 130720Z 29004KT 9999 -RA SCT004 SCT020 BKN070 16/15 Q1017 BLU;",
"10869099999","2010-08-16T05:20:00","4","48.322333","11.948667","461.77","ERDING, GM","FM-15","ETSE ","V020","180,1,N,0026,1","01800,1,C,N","011265,1,N,1","+0130,1","+0110,1","99999,9","02,5,+00900,1,99,9","04,5,+01800,1,99,9","07,5,+02700,1,99,9","07,99,1,99,9,99,9,99999,9,99,9,99,9","10139,1,99999,9",,,,,"MET069METAR ETSE 160520Z 18005KT 9999 FEW030 SCT060 BKN090 13/11 Q1014 BLU;",
"10869099999","2010-08-16T06:20:00","4","48.322333","11.948667","461.77","ERDING, GM","FM-15","ETSE ","V020","180,1,N,0021,1","01800,1,C,N","011265,1,N,1","+0130,1","+0110,1","99999,9","02,5,+01050,1,99,9","04,5,+01950,5,99,9","07,5,+02700,1,99,9","07,99,1,99,9,99,9,99999,9,99,9,99,9","10139,1,99999,9",,,,,"MET069METAR ETSE 160620Z 18004KT 9999 FEW035 SCT065 BKN090 13/11 Q1014 BLU;",
"10869099999","2010-08-16T07:20:00","4","48.322333","11.948667","461.77","ERDING, GM","FM-15","ETSE ","V020","160,1,N,0026,1","01800,1,C,N","011265,1,N,1","+0140,1","+0120,1","99999,9","02,5,+01050,1,99,9","04,5,+01950,5,99,9","07,5,+02700,1,99,9","07,99,1,99,9,99,9,99999,9,99,9,99,9","10139,1,99999,9","80,1",,,,"MET075METAR ETSE 160720Z 16005KT 9999 -SHRA FEW035 SCT065 BKN090 14/12 Q1014 BLU;",
"10869099999","2010-08-16T08:20:00","4","48.322333","11.948667","461.77","ERDING, GM","FM-15","ETSE ","V020","160,1,N,0036,1","99999,9,C,N","011265,1,N,1","+0170,1","+0110,1","99999,9","02,5,+00750,1,99,9","04,5,+01950,5,99,9",,"04,99,1,99,9,99,9,99999,9,99,9,99,9","10139,1,99999,9",,,,,"MET063METAR ETSE 160820Z 16007KT 9999 FEW025 SCT065 17/11 Q1014 BLU/;","P01 019503SCOCIG"
"10869099999","2010-08-16T09:20:00","4","48.322333","11.948667","461.77","ERDING, GM","FM-15","ETSE ","V020","160,1,N,0031,1","99999,9,C,N","011265,1,N,1","+0180,1","+0120,1","99999,9","04,5,+00780,1,99,9","04,5,+02700,1,99,9",,"04,99,1,99,9,99,9,99999,9,99,9,99,9","10139,1,99999,9",,,,,"MET063METAR ETSE 160920Z 16006KT 9999 SCT026 SCT090 18/12 Q1014 BLU/;","P01 027003SCOCIG"
"10869099999","2010-08-16T10:20:00","4","48.322333","11.948667","461.77","ERDING, GM","FM-15","ETSE ","V020","190,1,N,0031,1","01140,1,C,N","011265,1,N,1","+0180,1","+0090,1","99999,9","02,5,+00780,1,99,9","07,5,+01140,1,02,5",,"07,99,1,99,9,99,9,99999,9,99,9,99,9","10139,1,99999,9","80,1",,,,"MET071METAR ETSE 161020Z 19006KT 9999 -SHRA FEW026 BKN038TCU 18/09 Q1014 BLU;",
"10869099999","2010-08-16T10:54:00","4","48.322333","11.948667","461.77","ERDING, GM","FM-16","ETSE ","V020","260,1,N,0051,1","01050,1,C,N","006000,1,N,1","+0140,1","+0110,1","99999,9","04,5,+00660,1,99,9","07,5,+01050,1,09,5",,"07,99,1,99,9,99,9,99999,9,99,9,99,9","10139,1,99999,9","82,1",,,,"MET070SPECI ETSE 161054Z 26010KT 6000 +SHRA SCT022 BKN035CB 14/11 Q1014 WHT;",
"10869099999","2010-08-16T11:20:00","4","48.322333","11.948667","461.77","ERDING, GM","FM-15","ETSE ","V020","260,1,N,0015,1","01050,1,C,N","011265,1,N,1","+0150,1","+0120,1","99999,9","02,5,+00450,1,99,9","04,5,+01050,1,09,5","07,5,+03000,1,99,9","07,99,1,99,9,99,9,99999,9,99,9,99,9","10139,1,99999,9",,,,,"MET076METAR ETSE 161120Z 26003KT 9999 FEW015 SCT035CB BKN100 15/12 Q1014 RERA BLU;",
"10869099999","2010-08-16T12:20:00","4","48.322333","11.948667","461.77","ERDING, GM","FM-15","ETSE ","V020","240,1,N,0026,1","01950,5,C,N","011265,1,N,1","+0160,1","+0110,1","99999,9","02,5,+00750,1,99,9","02,5,+00900,1,09,5","07,5,+01950,5,99,9","07,99,1,99,9,99,9,99999,9,99,9,99,9","10149,1,99999,9",,,,,"MET071METAR ETSE 161220Z 24005KT 9999 FEW025 FEW030CB BKN065 16/11 Q1015 BLU;",
"10869099999","2010-08-16T13:20:00","4","48.322333","11.948667","461.77","ERDING, GM","FM-15","ETSE ","V020","260,1,N,0046,1","02100,1,C,N","011265,1,N,1","+0160,1","+0090,1","99999,9","02,5,+00750,1,99,9","07,5,+02100,1,99,9",,"07,99,1,99,9,99,9,99999,9,99,9,99,9","10149,1,99999,9","61,1",,,,"MET066METAR ETSE 161320Z 26009KT 9999 -RA FEW025 BKN070 16/09 Q1015 BLU;",
"10869099999","2010-08-16T14:20:00","4","48.322333","11.948667","461.77","ERDING, GM","FM-15","ETSE ","V020","240,1,N,0051,1","03000,1,C,N","011265,1,N,1","+0170,1","+0100,1","99999,9","02,5,+01050,1,99,9","07,5,+03000,1,99,9",,"07,99,1,99,9,99,9,99999,9,99,9,99,9","10149,1,99999,9",,,,,"MET062METAR ETSE 161420Z 24010KT 9999 FEW035 BKN100 17/10 Q1015 BLU;",
"10869099999","2010-08-17T05:20:00","4","48.322333","11.948667","461.77","ERDING, GM","FM-15","ETSE ","V020","240,1,N,0057,1","00600,1,C,N","011265,1,N,1","+0130,1","+0120,1","99999,9","04,5,+00390,1,99,9","07,5,+00600,1,99,9","08,5,+01080,1,99,9","08,99,1,99,9,99,9,99999,9,99,9,99,9","10129,1,99999,9","63,1",,,,"MET072METAR ETSE 170520Z 24011KT 9999 RA SCT013 BKN020 OVC036 13/12 Q1013 WHT;",
"10869099999","2010-08-17T06:20:00","4","48.322333","11.948667","461.77","ERDING, GM","FM-15","ETSE ","V020","240,1,N,0051,1","00660,1,C,N","011265,1,N,1","+0130,1","+0120,1","99999,9","04,5,+00420,1,99,9","07,5,+00660,1,99,9","08,5,+01140,1,99,9","08,99,1,99,9,99,9,99999,9,99,9,99,9","10129,1,99999,9","63,1",,,,"MET072METAR ETSE 170620Z 24010KT 9999 RA SCT014 BKN022 OVC038 13/12 Q1013 WHT;",
"10869099999","2010-08-17T07:20:00","4","48.322333","11.948667","461.77","ERDING, GM","FM-15","ETSE ","V020","250,1,N,0062,1","00390,1,C,N","004500,1,N,1","+0140,1","+0120,1","99999,9","07,5,+00390,1,99,9","08,5,+01050,1,99,9",,"08,99,1,99,9,99,9,99999,9,99,9,99,9","10129,1,99999,9","81,1",,,"0123,1","MET070METAR ETSE 170720Z 25012G24KT 4500 SHRA BKN013 OVC035 14/12 Q1013 GRN;",
"10869099999","2010-08-17T07:23:00","4","48.322333","11.948667","461.77","ERDING, GM","FM-16","ETSE ","V020","250,1,N,0062,1","00390,1,C,N","006000,1,N,1","+0140,1","+0120,1","99999,9","07,5,+00390,1,99,9","08,5,+01050,1,99,9",,"08,99,1,99,9,99,9,99999,9,99,9,99,9","10129,1,99999,9","61,1",,,"0123,1","MET074SPECI ETSE 170723Z 25012G24KT 6000 -RA BKN013 OVC035 14/12 Q1013 RERA GRN;",
"10869099999","2010-08-17T08:00:00","4","48.322333","11.948667","461.77","ERDING, GM","FM-15","ETSE ","V020","250,1,N,0057,1","00450,1,C,N","011265,1,N,1","+0140,1","+0120,1","99999,9","04,5,+00360,1,99,9","07,5,+00450,1,99,9",,"07,99,1,99,9,99,9,99999,9,99,9,99,9","10129,1,99999,9","61,1",,,,"MET071SPECI ETSE 170757Z 25011KT 9999 -RA SCT012 BKN015 14/12 Q1013 RERA WHT;",
"10869099999","2010-08-17T08:20:00","4","48.322333","11.948667","461.77","ERDING, GM","FM-15","ETSE ","V020","250,1,N,0057,1","00420,1,C,N","011265,1,N,1","+0140,1","+0120,1","99999,9","04,5,+00330,1,99,9","07,5,+00420,1,99,9",,"07,99,1,99,9,99,9,99999,9,99,9,99,9","10129,1,99999,9","61,1",,,,"MET071METAR ETSE 170820Z 25011KT 9999 -RA SCT011 BKN014 14/12 Q1013 RERA GRN;",
"10869099999","2010-08-17T09:20:00","4","48.322333","11.948667","461.77","ERDING, GM","FM-15","ETSE ","V020","250,1,N,0057,1","00450,1,C,N","011265,1,N,1","+0150,1","+0120,1","99999,9","02,5,+00360,1,99,9","07,5,+00450,1,99,9","07,5,+01350,1,99,9","07,99,1,99,9,99,9,99999,9,99,9,99,9","10139,1,99999,9",,,,,"MET069METAR ETSE 170920Z 25011KT 9999 FEW012 BKN015 BKN045 15/12 Q1014 WHT;",
"10869099999","2010-08-17T10:20:00","4","48.322333","11.948667","461.77","ERDING, GM","FM-15","ETSE ","V020","260,1,N,0051,1","00690,1,C,N","011265,1,N,1","+0160,1","+0120,1","99999,9","02,5,+00510,1,99,9","04,5,+00690,1,99,9","07,5,+01200,1,99,9","07,99,1,99,9,99,9,99999,9,99,9,99,9","10139,1,99999,9","61,1",,,,"MET073METAR ETSE 171020Z 26010KT 9999 -RA FEW017 SCT023 BKN040 16/12 Q1014 BLU;",
"10869099999","2010-08-17T11:20:00","4","48.322333","11.948667","461.77","ERDING, GM","FM-15","ETSE ","V020","260,1,N,0051,1","01500,1,C,N","011265,1,N,1","+0170,1","+0120,1","99999,9","02,5,+00510,1,99,9","04,5,+01500,1,99,9","07,5,+03900,1,99,9","07,99,1,99,9,99,9,99999,9,99,9,99,9","10139,1,99999,9",,,,"0103,1","MET072METAR ETSE 171120Z 26010G20KT 9999 FEW017 SCT050 BKN130 17/12 Q1014 BLU;",
"10869099999","2010-08-17T12:20:00","4","48.322333","11.948667","461.77","ERDING, GM","FM-15","ETSE ","V020","260,1,N,0072,1","02700,1,C,N","011265,1,N,1","+0180,1","+0110,1","99999,9","04,5,+00990,1,99,9","07,5,+02700,1,99,9","07,5,+03300,1,99,9","07,99,1,99,9,99,9,99999,9,99,9,99,9","10129,1,99999,9",,,,"0134,1","MET072METAR ETSE 171220Z 26014G26KT 9999 SCT033 BKN090 BKN110 18/11 Q1013 BLU;",
"10869099999","2010-08-17T13:20:00","4","48.322333","11.948667","461.77","ERDING, GM","FM-15","ETSE ","V020","270,1,N,0077,1","02700,1,C,N","011265,1,N,1","+0190,1","+0100,1","99999,9","04,5,+01050,1,99,9","04,5,+02850,5,99,9","07,5,+03600,1,99,9","07,99,1,99,9,99,9,99999,9,99,9,99,9","10129,1,99999,9",,,,,"MET069METAR ETSE 171320Z 27015KT 9999 SCT035 SCT095 BKN120 19/10 Q1013 BLU;",
"10869099999","2010-08-17T14:20:00","4","48.322333","11.948667","461.77","ERDING, GM","FM-15","ETSE ","V020","270,1,N,0067,1","03300,1,C,N","011265,1,N,1","+0190,1","+0110,1","99999,9","02,5,+01110,1,99,9","04,5,+03300,1,99,9","07,5,+04500,1,99,9","07,99,1,99,9,99,9,99999,9,99,9,99,9","10139,1,99999,9",,,,,"MET069METAR ETSE 171420Z 27013KT 9999 FEW037 SCT110 BKN150 19/11 Q1014 BLU;",
"10869099999","2010-08-18T05:20:00","4","48.322333","11.948667","461.77","ERDING, GM","FM-15","ETSE ","V020","190,1,N,0026,1","02550,5,C,N","011265,1,N,1","+0130,1","+0110,1","99999,9","04,5,+01440,1,99,9","07,5,+02550,5,99,9","07,5,+03600,1,99,9","07,99,1,99,9,99,9,99999,9,99,9,99,9","10129,1,99999,9",,,,,"MET069METAR ETSE 180520Z 19005KT 9999 SCT048 BKN085 BKN120 13/11 Q1013 BLU;",
"10869099999","2010-08-18T06:20:00","4","48.322333","11.948667","461.77","ERDING, GM","FM-15","ETSE ","V020","200,1,N,0021,1","03000,1,C,N","011265,1,N,1","+0150,1","+0110,1","99999,9","02,5,+00660,1,99,9","07,5,+03000,1,99,9","07,5,+03600,1,99,9","07,99,1,99,9,99,9,99999,9,99,9,99,9","10119,1,99999,9",,,,,"MET069METAR ETSE 180620Z 20004KT 9999 FEW022 BKN100 BKN120 15/11 Q1012 BLU;",
"10869099999","2010-08-18T07:20:00","4","48.322333","11.948667","461.77","ERDING, GM","FM-15","ETSE ","V020","240,1,N,0021,1","01800,1,C,N","011265,1,N,1","+0170,1","+0110,1","99999,9","02,5,+00660,1,99,9","04,5,+01800,1,99,9","07,5,+03000,1,99,9","07,99,1,99,9,99,9,99999,9,99,9,99,9","10119,1,99999,9",,,,,"MET069METAR ETSE 180720Z 24004KT 9999 FEW022 SCT060 BKN100 17/11 Q1012 BLU;",
"10869099999","2010-08-18T08:20:00","4","48.322333","11.948667","461.77","ERDING, GM","FM-15","ETSE ","V020","260,1,N,0021,1","01650,5,C,N","011265,1,N,1","+0170,1","+0110,1","99999,9","07,5,+01650,5,99,9","07,5,+02190,5,99,9",,"07,99,1,99,9,99,9,99999,9,99,9,99,9","10119,1,99999,9",,,,,"MET062METAR ETSE 180820Z 26004KT 9999 BKN055 BKN073 17/11 Q1012 BLU;",
"10869099999","2010-08-18T09:20:00","4","48.322333","11.948667","461.77","ERDING, GM","FM-15","ETSE ","V020","240,1,N,0026,1","01650,5,C,N","011265,1,N,1","+0170,1","+0110,1","99999,9","07,5,+01650,5,99,9","07,5,+02100,1,99,9",,"07,99,1,99,9,99,9,99999,9,99,9,99,9","10129,1,99999,9","61,1",,,,"MET066METAR ETSE 180920Z 24005KT 9999 -RA BKN055 BKN070 17/11 Q1013 BLU;",
"10869099999","2010-08-18T10:20:00","4","48.322333","11.948667","461.77","ERDING, GM","FM-15","ETSE ","V020","260,1,N,0021,1","01650,5,C,N","011265,1,N,1","+0170,1","+0120,1","99999,9","02,5,+00900,1,99,9","07,5,+01650,5,99,9","07,5,+02400,1,99,9","07,99,1,99,9,99,9,99999,9,99,9,99,9","10129,1,99999,9","61,1",,,,"MET073METAR ETSE 181020Z 26004KT 9999 -RA FEW030 BKN055 BKN080 17/12 Q1013 BLU;",
"10869099999","2010-08-18T11:20:00","4","48.322333","11.948667","461.77","ERDING, GM","FM-15","ETSE ","V020","270,1,N,0031,1","01500,1,C,N","011265,1,N,1","+0170,1","+0120,1","99999,9","02,5,+00750,1,99,9","04,5,+01500,1,99,9","07,5,+02400,1,99,9","07,99,1,99,9,99,9,99999,9,99,9,99,9","10129,1,99999,9","61,1",,,,"MET073METAR ETSE 181120Z 27006KT 9999 -RA FEW025 SCT050 BKN080 17/12 Q1013 BLU;",
"10869099999","2010-08-18T12:20:00","4","48.322333","11.948667","461.77","ERDING, GM","FM-15","ETSE ","V020","260,1,N,0026,1","02400,1,C,N","011265,1,N,1","+0180,1","+0120,1","99999,9","04,5,+01500,1,99,9","07,5,+02400,1,99,9",,"07,99,1,99,9,99,9,99999,9,99,9,99,9","10129,1,99999,9",,,,,"MET062METAR ETSE 181220Z 26005KT 9999 SCT050 BKN080 18/12 Q1013 BLU;",
"10869099999","2010-08-18T13:20:00","4","48.322333","11.948667","461.77","ERDING, GM","FM-15","ETSE ","V020","270,1,N,0026,1","01500,1,C,N","011265,1,N,1","+0190,1","+0120,1","99999,9","02,5,+00780,1,99,9","04,5,+01500,1,99,9","07,5,+02400,1,99,9","07,99,1,99,9,99,9,99999,9,99,9,99,9","10119,1,99999,9","61,1",,,,"MET073METAR ETSE 181320Z 27005KT 9999 -RA FEW026 SCT050 BKN080 19/12 Q1012 BLU;",
"10869099999","2010-08-18T14:20:00","4","48.322333","11.948667","461.77","ERDING, GM","FM-15","ETSE ","V020","240,1,N,0010,1","01950,5,C,N","011265,1,N,1","+0190,1","+0130,1","99999,9","02,5,+00750,1,99,9","07,5,+01950,5,99,9",,"07,99,1,99,9,99,9,99999,9,99,9,99,9","10119,1,99999,9","61,1",,,,"MET066METAR ETSE 181420Z 24002KT 9999 -RA FEW025 BKN065 19/13 Q1012 BLU;",
"10869099999","2010-08-19T05:20:00","4","48.322333","11.948667","461.77","ERDING, GM","FM-15","ETSE ","V020","250,1,N,0026,1","01500,1,C,N","008000,1,N,1","+0150,1","+0130,1","99999,9","02,5,+00750,1,99,9","07,5,+01500,1,99,9",,"07,99,1,99,9,99,9,99999,9,99,9,99,9","10159,1,99999,9","61,1",,,,"MET066METAR ETSE 190520Z 25005KT 8000 -RA FEW025 BKN050 15/13 Q1016 BLU;",
"10869099999","2010-08-19T06:20:00","4","48.322333","11.948667","461.77","ERDING, GM","FM-15","ETSE ","V020","240,1,N,0026,1","01080,1,C,N","011265,1,N,1","+0150,1","+0130,1","99999,9","02,5,+00750,1,99,9","04,5,+01080,1,99,9","07,5,+01950,5,99,9","07,99,1,99,9,99,9,99999,9,99,9,99,9","10169,1,99999,9",,,,,"MET069METAR ETSE 190620Z 24005KT 9999 FEW025 SCT036 BKN065 15/13 Q1017 BLU;",
"10869099999","2010-08-19T07:20:00","4","48.322333","11.948667","461.77","ERDING, GM","FM-15","ETSE ","V020","260,1,N,0026,1","00840,1,C,N","011265,1,N,1","+0160,1","+0130,1","99999,9","02,5,+00360,1,99,9","04,5,+00840,1,99,9","07,5,+01950,5,99,9","07,99,1,99,9,99,9,99999,9,99,9,99,9","10169,1,99999,9",,,,,"MET069METAR ETSE 190720Z 26005KT 9999 FEW012 SCT028 BKN065 16/13 Q1017 BLU;",
"10869099999","2010-08-19T08:20:00","4","48.322333","11.948667","461.77","ERDING, GM","FM-15","ETSE ","V020","270,1,N,0026,1","01950,5,C,N","011265,1,N,1","+0170,1","+0130,1","99999,9","04,5,+00450,1,99,9","07,5,+01950,5,99,9",,"07,99,1,99,9,99,9,99999,9,99,9,99,9","10180,1,99999,9",,,,,"MET062METAR ETSE 190820Z 27005KT 9999 SCT015 BKN065 17/13 Q1018 BLU;",
"10869099999","2010-08-19T09:20:00","4","48.322333","11.948667","461.77","ERDING, GM","FM-15","ETSE ","V020","250,1,N,0031,1","01140,1,C,N","011265,1,N,1","+0180,1","+0130,1","99999,9","02,5,+00540,1,99,9","07,5,+01140,1,99,9",,"07,99,1,99,9,99,9,99999,9,99,9,99,9","10190,1,99999,9",,,,,"MET062METAR ETSE 190920Z 25006KT 9999 FEW018 BKN038 18/13 Q1019 BLU;",
"10869099999","2010-08-19T10:20:00","4","48.322333","11.948667","461.77","ERDING, GM","FM-15","ETSE ","V020","280,1,N,0031,1","01140,1,C,N","011265,1,N,1","+0190,1","+0130,1","99999,9","02,5,+00690,1,99,9","07,5,+01140,1,99,9",,"07,99,1,99,9,99,9,99999,9,99,9,99,9","10180,1,99999,9",,,,,"MET062METAR ETSE 191020Z 28006KT 9999 FEW023 BKN038 19/13 Q1018 BLU;",
"10869099999","2010-08-19T11:20:00","4","48.322333","11.948667","461.77","ERDING, GM","FM-15","ETSE ","V020","320,1,N,0031,1","01290,1,C,N","011265,1,N,1","+0190,1","+0130,1","99999,9","04,5,+00780,1,99,9","07,5,+01290,1,99,9",,"07,99,1,99,9,99,9,99999,9,99,9,99,9","10180,1,99999,9",,,,,"MET062METAR ETSE 191120Z 32006KT 9999 SCT026 BKN043 19/13 Q1018 BLU;",
"10869099999","2010-08-19T12:20:00","4","48.322333","11.948667","461.77","ERDING, GM","FM-15","ETSE ","V020","250,1,N,0026,1","01350,1,C,N","011265,1,N,1","+0200,1","+0130,1","99999,9","02,5,+00900,1,99,9","07,5,+01350,1,99,9",,"07,99,1,99,9,99,9,99999,9,99,9,99,9","10180,1,99999,9",,,,,"MET062METAR ETSE 191220Z 25005KT 9999 FEW030 BKN045 20/13 Q1018 BLU;",
"10869099999","2010-08-19T13:20:00","4","48.322333","11.948667","461.77","ERDING, GM","FM-15","ETSE ","V020","260,1,N,0031,1","01500,1,C,N","011265,1,N,1","+0210,1","+0130,1","99999,9","02,5,+00990,1,99,9","07,5,+01500,1,99,9",,"07,99,1,99,9,99,9,99999,9,99,9,99,9","10180,1,99999,9",,,,,"MET062METAR ETSE 191320Z 26006KT 9999 FEW033 BKN050 21/13 Q1018 BLU;",
"10869099999","2010-08-19T14:20:00","4","48.322333","11.948667","461.77","ERDING, GM","FM-15","ETSE ","V020","270,1,N,0031,1","08400,1,C,N","011265,1,N,1","+0210,1","+0120,1","99999,9","02,5,+01140,1,99,9","07,5,+08400,1,99,9",,"07,99,1,99,9,99,9,99999,9,99,9,99,9","10180,1,99999,9",,,,,"MET063METAR ETSE 191420Z 27006KT 9999 FEW038 BKN280 21/12 Q1018 BLU/;",
"10869099999","2010-08-20T06:20:00","4","48.322333","11.948667","461.77","ERDING, GM","FM-15","ETSE ","V020","120,1,N,0010,1","07800,1,C,N","011265,1,N,1","+0140,1","+0120,1","99999,9","02,5,+00600,1,99,9","07,5,+07800,1,99,9",,"07,99,1,99,9,99,9,99999,9,99,9,99,9","10220,1,99999,9",,,,,"MET063METAR ETSE 200620Z 12002KT 9999 FEW020 BKN260 14/12 Q1022 BLU/;",
"10869099999","2010-08-20T07:20:00","4","48.322333","11.948667","461.77","ERDING, GM","FM-15","ETSE ","V020","050,1,N,0010,1","07800,1,C,N","011265,1,N,1","+0170,1","+0140,1","99999,9","02,5,+00750,1,99,9","07,5,+07800,1,99,9",,"07,99,1,99,9,99,9,99999,9,99,9,99,9","10220,1,99999,9",,,,,"MET063METAR ETSE 200720Z 05002KT 9999 FEW025 BKN260 17/14 Q1022 BLU/;",
"10869099999","2010-08-23T05:20:00","4","48.322333","11.948667","461.77","ERDING, GM","FM-15","ETSE ","V020","170,1,N,0015,1","04800,1,C,N","011265,1,N,1","+0180,1","+0150,1","99999,9","02,5,+03600,1,99,9","07,5,+04800,1,99,9",,"07,99,1,99,9,99,9,99999,9,99,9,99,9","10119,1,99999,9",,,,,"MET077METAR ETSE 230520Z 17003KT 9999 FEW120 BKN160 18/15 Q1012 BLU BLU/ TEMPO BLU;",
"10869099999","2010-08-23T06:20:00","4","48.322333","11.948667","461.77","ERDING, GM","FM-15","ETSE ","V020","110,1,N,0015,1","04800,1,C,N","011265,1,N,1","+0190,1","+0160,1","99999,9","02,5,+03000,1,99,9","07,5,+04800,1,99,9",,"07,99,1,99,9,99,9,99999,9,99,9,99,9","10108,1,99999,9",,,,,"MET077METAR ETSE 230620Z 11003KT 9999 FEW100 BKN160 19/16 Q1011 BLU BLU/ TEMPO BLU;",
"10869099999","2010-08-23T07:20:00","4","48.322333","11.948667","461.77","ERDING, GM","FM-15","ETSE ","V020","160,1,N,0021,1","99999,9,C,N","011265,1,N,1","+0220,1","+0160,1","99999,9","02,5,+03000,1,99,9","04,5,+04500,1,99,9",,"04,99,1,99,9,99,9,99999,9,99,9,99,9","10108,1,99999,9",,,,,"MET077METAR ETSE 230720Z 16004KT 9999 FEW100 SCT150 22/16 Q1011 BLU/BLU/ TEMPO BLU;","P01 045003SCOCIG"
"10869099999","2010-08-23T08:20:00","4","48.322333","11.948667","461.77","ERDING, GM","FM-15","ETSE ","V020","160,1,N,0015,1","99999,9,C,N","011265,1,N,1","+0240,1","+0160,1","99999,9","02,5,+01200,1,99,9","04,5,+07200,1,99,9",,"04,99,1,99,9,99,9,99999,9,99,9,99,9","10102,1,99999,9",,,,,"MET077METAR ETSE 230820Z 16003KT 9999 FEW040 SCT240 24/16 Q1010 BLU/BLU/ TEMPO BLU;","P01 072003SCOCIG"
"10869099999","2010-08-23T09:20:00","4","48.322333","11.948667","461.77","ERDING, GM","FM-15","ETSE ","V020","220,1,N,0015,1","03900,1,C,N","011265,1,N,1","+0260,1","+0160,1","99999,9","02,5,+01350,1,99,9","07,5,+03900,1,99,9",,"07,99,1,99,9,99,9,99999,9,99,9,99,9","10102,1,99999,9",,,,,"MET077METAR ETSE 230920Z 22003KT 9999 FEW045 BKN130 26/16 Q1010 BLU BLU/ TEMPO BLU;",
"10869099999","2010-08-23T10:20:00","4","48.322333","11.948667","461.77","ERDING, GM","FM-15","ETSE ","V020","320,1,N,0051,1","03000,1,C,N","011265,1,N,1","+0260,1","+0170,1","99999,9","02,5,+01500,1,99,9","07,5,+03000,1,99,9",,"07,99,1,99,9,99,9,99999,9,99,9,99,9","10108,1,99999,9",,,,,"MET066METAR ETSE 231020Z 32010KT 9999 FEW050 BKN100 26/17 Q1011 BLU BLU;",
"10869099999","2010-08-23T11:20:00","4","48.322333","11.948667","461.77","ERDING, GM","FM-15","ETSE ","V020","290,1,N,0072,1","05400,1,C,N","011265,1,N,1","+0260,1","+0160,1","99999,9","02,5,+01500,1,99,9","07,5,+05400,1,99,9",,"07,99,1,99,9,99,9,99999,9,99,9,99,9","10108,1,99999,9",,,,,"MET066METAR ETSE 231120Z 29014KT 9999 FEW050 BKN180 26/16 Q1011 BLU BLU;",
"10869099999","2010-08-23T12:20:00","4","48.322333","11.948667","461.77","ERDING, GM","FM-15","ETSE ","V020","300,1,N,0046,1","04500,1,C,N","011265,1,N,1","+0270,1","+0160,1","99999,9","02,5,+01500,1,99,9","07,5,+04500,1,99,9",,"07,99,1,99,9,99,9,99999,9,99,9,99,9","10108,1,99999,9",,,,,"MET066METAR ETSE 231220Z 30009KT 9999 FEW050 BKN150 27/16 Q1011 BLU BLU;",
"10869099999","2010-08-23T13:20:00","4","48.322333","11.948667","461.77","ERDING, GM","FM-15","ETSE ","V020","300,1,N,0026,1","04500,1,C,N","011265,1,N,1","+0260,1","+0160,1","99999,9","02,5,+01500,1,99,9","07,5,+04500,1,99,9",,"07,99,1,99,9,99,9,99999,9,99,9,99,9","10102,1,99999,9",,,,,"MET074METAR ETSE 231320Z 30005KT 9999 FEW050 BKN150 26/16 Q1010 BLU FCST CANCEL;",
"10869099999","2010-08-24T05:20:00","4","48.322333","11.948667","461.77","ERDING, GM","FM-15","ETSE ","V020","190,1,N,0026,1","02700,1,C,N","011265,1,N,1","+0180,1","+0170,1","99999,9","04,5,+01500,1,99,9","07,5,+02700,1,99,9",,"07,99,1,99,9,99,9,99999,9,99,9,99,9","10108,1,99999,9",,,,,"MET066METAR ETSE 240520Z 19005KT 9999 SCT050 BKN090 18/17 Q1011 BLU BLU;",
"10869099999","2010-08-24T06:20:00","4","48.322333","11.948667","461.77","ERDING, GM","FM-15","ETSE ","V020","210,1,N,0031,1","02400,1,C,N","011265,1,N,1","+0190,1","+0170,1","99999,9","02,5,+01500,1,99,9","04,5,+02400,1,99,9","07,5,+03600,1,99,9","07,99,1,99,9,99,9,99999,9,99,9,99,9","10108,1,99999,9",,,,,"MET073METAR ETSE 240620Z 21006KT 9999 FEW050 SCT080 BKN120 19/17 Q1011 BLU BLU;",
"10869099999","2010-08-24T07:20:00","4","48.322333","11.948667","461.77","ERDING, GM","FM-15","ETSE ","V020","230,1,N,0036,1","02400,1,C,N","011265,1,N,1","+0200,1","+0170,1","99999,9","04,5,+01800,1,99,9","07,5,+02400,1,99,9",,"07,99,1,99,9,99,9,99999,9,99,9,99,9","10108,1,99999,9",,,,,"MET066METAR ETSE 240720Z 23007KT 9999 SCT060 BKN080 20/17 Q1011 BLU BLU;",
"10869099999","2010-08-24T08:20:00","4","48.322333","11.948667","461.77","ERDING, GM","FM-15","ETSE ","V020","240,1,N,0031,1","02400,1,C,N","011265,1,N,1","+0210,1","+0160,1","99999,9","02,5,+00600,1,99,9","07,5,+02400,1,99,9",,"07,99,1,99,9,99,9,99999,9,99,9,99,9","10108,1,99999,9",,,,,"MET077METAR ETSE 240820Z 24006KT 9999 FEW020 BKN080 21/16 Q1011 BLU BLU TEMPO BLU/;",
"10869099999","2010-08-24T09:20:00","4","48.322333","11.948667","461.77","ERDING, GM","FM-15","ETSE ","V020","270,1,N,0046,1","99999,9,C,N","011265,1,N,1","+0230,1","+0160,1","99999,9","02,5,+00780,1,99,9","04,5,+02400,1,99,9",,"04,99,1,99,9,99,9,99999,9,99,9,99,9","10108,1,99999,9",,,,,"MET077METAR ETSE 240920Z 27009KT 9999 FEW026 SCT080 23/16 Q1011 BLU/BLU TEMPO BLU/;","P01 024003SCOCIG"
"10869099999","2010-08-24T10:20:00","4","48.322333","11.948667","461.77","ERDING, GM","FM-15","ETSE ","V020","240,1,N,0046,1","01800,1,C,N","011265,1,N,1","+0230,1","+0160,1","99999,9","04,5,+00900,1,99,9","07,5,+01800,1,99,9",,"07,99,1,99,9,99,9,99999,9,99,9,99,9","10108,1,99999,9",,,,,"MET066METAR ETSE 241020Z 24009KT 9999 SCT030 BKN060 23/16 Q1011 BLU BLU;",
"10869099999","2010-08-24T11:20:00","4","48.322333","11.948667","461.77","ERDING, GM","FM-15","ETSE ","V020","260,1,N,0046,1","01800,1,C,N","011265,1,N,1","+0240,1","+0150,1","99999,9","04,5,+01080,1,99,9","07,5,+01800,1,99,9",,"07,99,1,99,9,99,9,99999,9,99,9,99,9","10108,1,99999,9",,,,,"MET076METAR ETSE 241120Z 26009KT 9999 SCT036 BKN060 24/15 Q1011 BLU BLU TEMPO WHT;",
"10869099999","2010-08-24T11:30:00","4","48.322333","11.948667","461.77","ERDING, GM","FM-16","ETSE ","V020","270,1,N,0057,1","01080,1,C,N","011265,1,N,1","+0230,1","+0160,1","99999,9","02,5,+00360,1,99,9","07,5,+01080,1,09,5","07,5,+01800,1,99,9","07,99,1,99,9,99,9,99999,9,99,9,99,9","10108,1,99999,9","80,1","95,1",,,"MET091SPECI ETSE 241130Z 27011KT 9999 -TSRA FEW012 BKN036CB BKN060 23/16 Q1011 BLU BLU TEMPO WHT;",
"10869099999","2010-08-24T12:20:00","4","48.322333","11.948667","461.77","ERDING, GM","FM-15","ETSE ","V020","270,1,N,0031,1","99999,9,C,N","011265,1,N,1","+0230,1","+0170,1","99999,9","02,5,+00450,1,99,9","04,5,+01140,1,09,5",,"04,99,1,99,9,99,9,99999,9,99,9,99,9","10108,1,99999,9",,,,,"MET084METAR ETSE 241220Z 27006KT 9999 FEW015 SCT038CB 23/17 Q1011 RETS BLU/BLU TEMPO BLU/;","P01 011403SCOCIG"
"10869099999","2010-08-24T12:50:00","4","48.322333","11.948667","461.77","ERDING, GM","FM-16","ETSE ","V020","270,1,N,0041,1","99999,9,C,N","011265,1,N,1","+0250,1","+0180,1","99999,9","02,5,+00450,1,99,9","04,5,+01140,1,09,5",,"04,99,1,99,9,99,9,99999,9,99,9,99,9","10102,1,99999,9",,,,,"MET084SPECI ETSE 241250Z 27008KT 9999 FEW015 SCT038CB 25/18 Q1010 RETS BLU/BLU TEMPO BLU/;","P01 011403SCOCIG"
"10869099999","2010-08-24T13:20:00","4","48.322333","11.948667","461.77","ERDING, GM","FM-15","ETSE ","V020","280,1,N,0067,1","99999,9,C,N","011265,1,N,1","+0250,1","+0170,1","99999,9","02,5,+00450,1,99,9","04,5,+01200,1,02,5",,"04,99,1,99,9,99,9,99999,9,99,9,99,9","10102,1,99999,9",,,,,"MET080METAR ETSE 241320Z 28013KT 9999 FEW015 SCT040TCU 25/17 Q1010 BLU/BLU TEMPO BLU/;","P01 012003SCOCIG"
"10869099999","2010-08-24T14:20:00","4","48.322333","11.948667","461.77","ERDING, GM","FM-15","ETSE ","V020","330,1,N,0057,1","01200,1,C,N","011265,1,N,1","+0230,1","+0150,1","99999,9","02,5,+00450,1,99,9","04,5,+01200,1,09,5","07,5,+02700,1,99,9","07,99,1,99,9,99,9,99999,9,99,9,99,9","10108,1,99999,9",,,,,"MET085METAR ETSE 241420Z 33011KT 9999 FEW015 SCT040CB BKN090 23/15 Q1011 BLU BLU TEMPO WHT;",
"10869099999","2010-08-24T15:00:00","4","48.322333","11.948667","461.77","ERDING, GM","FM-16","ETSE ","V020","330,1,N,0041,1","01200,1,C,N","011265,1,N,1","+0220,1","+0150,1","99999,9","02,5,+00600,1,99,9","07,5,+01200,1,09,5",,"07,99,1,99,9,99,9,99999,9,99,9,99,9","10108,1,99999,9",,,,,"MET076SPECI ETSE 241500Z 33008KT 9999 FEW020 BKN040CB 22/15 Q1011 BLU FCST CANCEL;",
"10869099999","2010-08-25T05:20:00","4","48.322333","11.948667","461.77","ERDING, GM","FM-15","ETSE ","V020","230,1,N,0021,1","22000,1,9,N","011265,1,N,1","+0130,1","+0100,1","99999,9","02,5,+01800,1,99,9",,,"02,99,1,99,9,99,9,99999,9,99,9,99,9","10200,1,99999,9",,,,,"MET056METAR ETSE 250520Z 23004KT 9999 FEW060 13/10 Q1020 BLU/;",
"10869099999","2010-08-25T06:20:00","4","48.322333","11.948667","461.77","ERDING, GM","FM-15","ETSE ","V020","230,1,N,0021,1","99999,9,C,N","011265,1,N,1","+0140,1","+0110,1","99999,9","02,5,+01800,1,99,9","04,5,+07500,1,99,9",,"04,99,1,99,9,99,9,99999,9,99,9,99,9","10200,1,99999,9",,,,,"MET063METAR ETSE 250620Z 23004KT 9999 FEW060 SCT250 14/11 Q1020 BLU/;","P01 075003SCOCIG"
"10869099999","2010-08-25T07:20:00","4","48.322333","11.948667","461.77","ERDING, GM","FM-15","ETSE ","V020","270,1,N,0021,1","99999,9,C,N","011265,1,N,1","+0160,1","+0090,1","99999,9","04,5,+01800,1,99,9","04,5,+07500,1,99,9",,"04,99,1,99,9,99,9,99999,9,99,9,99,9","10200,1,99999,9",,,,,"MET063METAR ETSE 250720Z 27004KT 9999 SCT060 SCT250 16/09 Q1020 BLU/;","P01 075003SCOCIG"
"10869099999","2010-08-25T08:20:00","4","48.322333","11.948667","461.77","ERDING, GM","FM-15","ETSE ","V020","290,1,N,0021,1","99999,9,C,N","011265,1,N,1","+0170,1","+0090,1","99999,9","02,5,+00750,1,99,9","04,5,+07500,1,99,9",,"04,99,1,99,9,99,9,99999,9,99,9,99,9","10200,1,99999,9",,,,,"MET063METAR ETSE 250820Z 29004KT 9999 FEW025 SCT250 17/09 Q1020 BLU/;","P01 075003SCOCIG"
"10869099999","2010-08-25T09:20:00","4","48.322333","11.948667","461.77","ERDING, GM","FM-15","ETSE ","V020","300,1,N,0026,1","99999,9,C,N","011265,1,N,1","+0180,1","+0090,1","99999,9","02,5,+00900,1,99,9","04,5,+01500,1,99,9",,"04,99,1,99,9,99,9,99999,9,99,9,99,9","10200,1,99999,9",,,,,"MET067METAR ETSE 250920Z 30005KT 9999 FEW030 SCT050 18/09 Q1020 BLU/BLU/;","P01 015003SCOCIG"
"10869099999","2010-08-25T10:20:00","4","48.322333","11.948667","461.77","ERDING, GM","FM-15","ETSE ","V020","270,1,N,0026,1","99999,9,C,N","011265,1,N,1","+0190,1","+0090,1","99999,9","02,5,+01140,1,99,9","04,5,+04200,1,99,9",,"04,99,1,99,9,99,9,99999,9,99,9,99,9","10200,1,99999,9",,,,,"MET067METAR ETSE 251020Z 27005KT 9999 FEW038 SCT140 19/09 Q1020 BLU/BLU/;","P01 042003SCOCIG"
"10869099999","2010-08-25T11:20:00","4","48.322333","11.948667","461.77","ERDING, GM","FM-15","ETSE ","V020","290,1,N,0036,1","99999,9,C,N","011265,1,N,1","+0190,1","+0090,1","99999,9","02,5,+01200,1,99,9","04,5,+07500,1,99,9",,"04,99,1,99,9,99,9,99999,9,99,9,99,9","10200,1,99999,9",,,,,"MET067METAR ETSE 251120Z 29007KT 9999 FEW040 SCT250 19/09 Q1020 BLU/BLU/;","P01 075003SCOCIG"
"10869099999","2010-08-25T12:20:00","4","48.322333","11.948667","461.77","ERDING, GM","FM-15","ETSE ","V020","280,1,N,0046,1","03600,1,C,N","011265,1,N,1","+0200,1","+0090,1","99999,9","02,5,+01260,1,99,9","04,5,+03600,1,99,9","07,5,+07500,1,99,9","07,99,1,99,9,99,9,99999,9,99,9,99,9","10190,1,99999,9",,,,,"MET074METAR ETSE 251220Z 28009KT 9999 FEW042 SCT120 BKN250 20/09 Q1019 BLU/BLU/;",
"10869099999","2010-08-25T13:20:00","4","48.322333","11.948667","461.77","ERDING, GM","FM-15","ETSE ","V020","280,1,N,0036,1","99999,9,C,N","011265,1,N,1","+0210,1","+0090,1","99999,9","02,5,+01350,1,99,9","04,5,+07500,1,99,9",,"04,99,1,99,9,99,9,99999,9,99,9,99,9","10190,1,99999,9",,,,,"MET074METAR ETSE 251320Z 28007KT 9999 FEW045 SCT250 21/09 Q1019 BLU/FCST CANCEL;","P01 075003SCOCIG"
"10869099999","2010-08-26T05:20:00","4","48.322333","11.948667","461.77","ERDING, GM","FM-15","ETSE ","V020","200,1,N,0021,1","22000,1,9,N","011265,1,N,1","+0160,1","+0120,1","99999,9","04,5,+01500,1,99,9",,,"04,99,1,99,9,99,9,99999,9,99,9,99,9","10180,1,99999,9",,,,,"MET060METAR ETSE 260520Z 20004KT 9999 SCT050 16/12 Q1018 BLU/BLU/;",
"10869099999","2010-08-26T06:20:00","4","48.322333","11.948667","461.77","ERDING, GM","FM-15","ETSE ","V020","220,1,N,0026,1","22000,1,9,N","011265,1,N,1","+0190,1","+0130,1","99999,9","04,5,+01500,1,99,9",,,"04,99,1,99,9,99,9,99999,9,99,9,99,9","10169,1,99999,9",,,,,"MET060METAR ETSE 260620Z 22005KT 9999 SCT050 19/13 Q1017 BLU/BLU/;",
"10869099999","2010-08-26T07:20:00","4","48.322333","11.948667","461.77","ERDING, GM","FM-15","ETSE ","V020","230,1,N,0036,1","22000,1,9,N","011265,1,N,1","+0220,1","+0140,1","99999,9","02,5,+01500,1,99,9",,,"02,99,1,99,9,99,9,99999,9,99,9,99,9","10169,1,99999,9",,,,,"MET060METAR ETSE 260720Z 23007KT 9999 FEW050 22/14 Q1017 BLU/BLU/;",
"10869099999","2010-08-26T08:20:00","4","48.322333","11.948667","461.77","ERDING, GM","FM-15","ETSE ","V020","230,1,N,0031,1","22000,1,9,N","011265,1,N,1","+0240,1","+0140,1","99999,9","02,5,+01500,1,99,9",,,"02,99,1,99,9,99,9,99999,9,99,9,99,9","10169,1,99999,9",,,,,"MET060METAR ETSE 260820Z 23006KT 9999 FEW050 24/14 Q1017 BLU/BLU/;",
"10869099999","2010-08-26T09:20:00","4","48.322333","11.948667","461.77","ERDING, GM","FM-15","ETSE ","V020","240,1,N,0041,1","22000,1,9,N","011265,1,N,1","+9999,9","+9999,9","99999,9","02,5,+01500,1,99,9",,,"02,99,1,99,9,99,9,99999,9,99,9,99,9","10159,1,99999,9",,,,,"MET062METAR ETSE 260920Z 24008KT 9999 FEW050 M28/M35 Q1016 BLU/BLU/;","Q01-002803ATOT  Q02 -02803ATOT  Q03 -03503ATOD  "
"10869099999","2010-08-26T10:20:00","4","48.322333","11.948667","461.77","ERDING, GM","FM-15","ETSE ","V020","260,1,N,0041,1","22000,1,9,N","011265,1,N,1","+0260,1","+0140,1","99999,9","02,5,+01500,1,99,9",,,"02,99,1,99,9,99,9,99999,9,99,9,99,9","10149,1,99999,9",,,,,"MET060METAR ETSE 261020Z 26008KT 9999 FEW050 26/14 Q1015 BLU/BLU/;",
"10869099999","2010-08-26T11:20:00","4","48.322333","11.948667","461.77","ERDING, GM","FM-15","ETSE ","V020","260,1,N,0051,1","22000,1,9,N","011265,1,N,1","+0270,1","+0150,1","99999,9","02,5,+01650,5,99,9",,,"02,99,1,99,9,99,9,99999,9,99,9,99,9","10149,1,99999,9",,,,,"MET060METAR ETSE 261120Z 26010KT 9999 FEW055 27/15 Q1015 BLU/BLU/;",
"10869099999","2010-08-26T12:20:00","4","48.322333","11.948667","461.77","ERDING, GM","FM-15","ETSE ","V020","270,1,N,0041,1","99999,9,C,N","011265,1,N,1","+0280,1","+0150,1","99999,9","02,5,+01650,5,99,9","04,5,+04500,1,99,9",,"04,99,1,99,9,99,9,99999,9,99,9,99,9","10139,1,99999,9",,,,,"MET067METAR ETSE 261220Z 27008KT 9999 FEW055 SCT150 28/15 Q1014 BLU/BLU/;","P01 045003SCOCIG"
"10869099999","2010-08-26T13:20:00","4","48.322333","11.948667","461.77","ERDING, GM","FM-15","ETSE ","V020","280,1,N,0057,1","99999,9,C,N","011265,1,N,1","+0290,1","+0150,1","99999,9","02,5,+01650,5,99,9","04,5,+03600,1,99,9",,"04,99,1,99,9,99,9,99999,9,99,9,99,9","10129,1,99999,9",,,,,"MET067METAR ETSE 261320Z 28011KT 9999 FEW055 SCT120 29/15 Q1013 BLU/BLU/;","P01 036003SCOCIG"
"10869099999","2010-08-26T14:20:00","4","48.322333","11.948667","461.77","ERDING, GM","FM-15","ETSE ","V020","260,1,N,0062,1","99999,9,C,N","011265,1,N,1","+0290,1","+0150,1","99999,9","02,5,+01650,5,99,9","04,5,+07500,1,99,9",,"04,99,1,99,9,99,9,99999,9,99,9,99,9","10129,1,99999,9",,,,,"MET067METAR ETSE 261420Z 26012KT 9999 FEW055 SCT250 29/15 Q1013 BLU/BLU/;","P01 075003SCOCIG"
"10869099999","2010-08-26T15:04:00","4","48.322333","11.948667","461.77","ERDING, GM","FM-16","ETSE ","V020","270,1,N,0051,1","99999,9,C,N","011265,1,N,1","+0290,1","+0150,1","99999,9","02,5,+01650,5,99,9","04,5,+07500,1,99,9",,"04,99,1,99,9,99,9,99999,9,99,9,99,9","10129,1,99999,9",,,,,"MET074SPECI ETSE 261504Z 27010KT 9999 FEW055 SCT250 29/15 Q1013 BLU/FCST CANCEL;","P01 075003SCOCIG"
"10869099999","2010-08-27T05:20:00","4","48.322333","11.948667","461.77","ERDING, GM","FM-15","ETSE ","V020","210,1,N,0026,1","03000,1,C,N","011265,1,N,1","+0210,1","+0170,1","99999,9","02,5,+01140,1,99,9","07,5,+03000,1,99,9",,"07,99,1,99,9,99,9,99999,9,99,9,99,9","10081,1,99999,9",,,,,"MET066METAR ETSE 270520Z 21005KT 9999 FEW038 BKN100 21/17 Q1008 BLU BLU;",
"10869099999","2010-08-27T06:20:00","4","48.322333","11.948667","461.77","ERDING, GM","FM-15","ETSE ","V020","230,1,N,0041,1","03000,1,C,N","011265,1,N,1","+0220,1","+0160,1","99999,9","02,5,+01080,1,99,9","07,5,+03000,1,99,9",,"07,99,1,99,9,99,9,99999,9,99,9,99,9","10081,1,99999,9",,,,,"MET066METAR ETSE 270620Z 23008KT 9999 FEW036 BKN100 22/16 Q1008 BLU BLU;",
"10869099999","2010-08-27T07:20:00","4","48.322333","11.948667","461.77","ERDING, GM","FM-15","ETSE ","V020","270,1,N,0036,1","03000,1,C,N","011265,1,N,1","+0220,1","+0160,1","99999,9","04,5,+01080,1,99,9","07,5,+03000,1,99,9",,"07,99,1,99,9,99,9,99999,9,99,9,99,9","10081,1,99999,9",,,,,"MET076METAR ETSE 270720Z 27007KT 9999 SCT036 BKN100 22/16 Q1008 BLU BLU TEMPO GRN;",
"10869099999","2010-08-27T08:00:00","4","48.322333","11.948667","461.77","ERDING, GM","FM-16","ETSE ","V020","300,1,N,0067,1","01080,1,C,N","011265,1,N,1","+0200,1","+0150,1","99999,9","02,5,+00660,1,99,9","07,5,+01080,1,99,9","07,5,+03000,1,99,9","07,99,1,99,9,99,9,99999,9,99,9,99,9","10091,1,99999,9","61,1",,,,"MET085SPECI ETSE 270800Z 30013KT 9999 -RA FEW022 BKN036 BKN100 20/15 Q1009 BLU FCST CANCEL;",
"10869099999","2010-08-30T05:20:00","4","48.322333","11.948667","461.77","ERDING, GM","FM-15","ETSE ","V020","250,1,N,0051,1","01440,1,C,N","011265,1,N,1","+0100,1","+0070,1","99999,9","02,5,+00300,1,99,9","04,5,+01440,1,99,9","07,5,+03600,1,99,9","07,99,1,99,9,99,9,99999,9,99,9,99,9","10102,1,99999,9",,,,,"MET069METAR ETSE 300520Z 25010KT 9999 FEW010 SCT048 BKN120 10/07 Q1010 BLU;",
"10869099999","2010-08-30T06:20:00","4","48.322333","11.948667","461.77","ERDING, GM","FM-15","ETSE ","V020","250,1,N,0057,1","01110,1,C,N","011265,1,N,1","+0100,1","+0060,1","99999,9","02,5,+00390,1,99,9","07,5,+01110,1,99,9","07,5,+03600,1,99,9","07,99,1,99,9,99,9,99999,9,99,9,99,9","10108,1,99999,9",,,,,"MET069METAR ETSE 300620Z 25011KT 9999 FEW013 BKN037 BKN120 10/06 Q1011 BLU;",
"10869099999","2010-08-30T07:20:00","4","48.322333","11.948667","461.77","ERDING, GM","FM-15","ETSE ","V020","260,1,N,0057,1","00660,1,C,N","011265,1,N,1","+0100,1","+0060,1","99999,9","02,5,+00360,1,99,9","07,5,+00660,1,99,9",,"07,99,1,99,9,99,9,99999,9,99,9,99,9","10108,1,99999,9",,,,,"MET062METAR ETSE 300720Z 26011KT 9999 FEW012 BKN022 10/06 Q1011 WHT;",
"10869099999","2010-08-30T08:20:00","4","48.322333","11.948667","461.77","ERDING, GM","FM-15","ETSE ","V020","260,1,N,0067,1","00780,1,C,N","011265,1,N,1","+0110,1","+0050,1","99999,9","02,5,+00540,1,99,9","04,5,+00780,1,99,9","07,5,+01260,1,99,9","07,99,1,99,9,99,9,99999,9,99,9,99,9","10108,1,99999,9",,,,"0123,1","MET072METAR ETSE 300820Z 26013G24KT 9999 FEW018 SCT026 BKN042 11/05 Q1011 BLU;",
"10869099999","2010-08-30T09:20:00","4","48.322333","11.948667","461.77","ERDING, GM","FM-15","ETSE ","V020","260,1,N,0082,1","01500,1,C,N","011265,1,N,1","+0120,1","+0050,1","99999,9","04,5,+00930,1,99,9","07,5,+01500,1,99,9",,"07,99,1,99,9,99,9,99999,9,99,9,99,9","10102,1,99999,9",,,,"0139,1","MET065METAR ETSE 300920Z 26016G27KT 9999 SCT031 BKN050 12/05 Q1010 BLU;",
"10869099999","2010-08-30T10:20:00","4","48.322333","11.948667","461.77","ERDING, GM","FM-15","ETSE ","V020","260,1,N,0072,1","00900,1,C,N","011265,1,N,1","+0120,1","+0050,1","99999,9","07,5,+00900,1,99,9","07,5,+01500,1,99,9",,"07,99,1,99,9,99,9,99999,9,99,9,99,9","10102,1,99999,9","80,1",,,"0129,1","MET071METAR ETSE 301020Z 26014G25KT 9999 -SHRA BKN030 BKN050 12/05 Q1010 BLU;",
"10869099999","2010-08-30T11:20:00","4","48.322333","11.948667","461.77","ERDING, GM","FM-15","ETSE ","V020","260,1,N,0077,1","01500,1,C,N","011265,1,N,1","+0110,1","+0060,1","99999,9","04,5,+00750,1,99,9","07,5,+01500,1,99,9",,"07,99,1,99,9,99,9,99999,9,99,9,99,9","10108,1,99999,9",,,,"0175,1","MET065METAR ETSE 301120Z 26015G34KT 9999 SCT025 BKN050 11/06 Q1011 BLU;",
"10869099999","2010-08-30T12:20:00","4","48.322333","11.948667","461.77","ERDING, GM","FM-15","ETSE ","V020","270,1,N,0098,1","00780,1,C,N","011265,1,N,1","+0120,1","+0060,1","99999,9","07,5,+00780,1,99,9","07,5,+01350,1,99,9",,"07,99,1,99,9,99,9,99999,9,99,9,99,9","10108,1,99999,9",,,,"0154,1","MET065METAR ETSE 301220Z 27019G30KT 9999 BKN026 BKN045 12/06 Q1011 BLU;",
"10869099999","2010-08-30T13:20:00","4","48.322333","11.948667","461.77","ERDING, GM","FM-15","ETSE ","V020","260,1,N,0087,1","00750,1,C,N","011265,1,N,1","+0110,1","+0060,1","99999,9","07,5,+00750,1,99,9","07,5,+01200,1,99,9",,"07,99,1,99,9,99,9,99999,9,99,9,99,9","10108,1,99999,9","80,1",,,"0159,1","MET071METAR ETSE 301320Z 26017G31KT 9999 -SHRA BKN025 BKN040 11/06 Q1011 BLU;",
"10869099999","2010-08-31T05:20:00","4","48.322333","11.948667","461.77","ERDING, GM","FM-15","ETSE ","V020","310,1,N,0031,1","01320,1,C,N","011265,1,N,1","+0090,1","+0080,1","99999,9","04,5,+00300,1,99,9","07,5,+01320,1,02,5","07,5,+02700,1,99,9","07,99,1,99,9,99,9,99999,9,99,9,99,9","10159,1,99999,9",,,,,"MET072METAR ETSE 310520Z 31006KT 9999 SCT010 BKN044TCU BKN090 09/08 Q1016 BLU;",
"10869099999","2010-08-31T06:20:00","4","48.322333","11.948667","461.77","ERDING, GM","FM-15","ETSE ","V020","310,1,N,0041,1","00360,1,C,N","007000,1,N,1","+0090,1","+0080,1","99999,9","04,5,+00210,1,99,9","07,5,+00360,1,99,9","07,5,+01050,1,99,9","07,99,1,99,9,99,9,99999,9,99,9,99,9","10169,1,99999,9","61,1",,,,"MET073METAR ETSE 310620Z 31008KT 7000 -RA SCT007 BKN012 BKN035 09/08 Q1017 GRN;",
"10869099999","2010-08-31T07:00:00","4","48.322333","11.948667","461.77","ERDING, GM","FM-15","ETSE ","V020","320,1,N,0036,1","00450,1,C,N","011265,1,N,1","+0100,1","+0080,1","99999,9","04,5,+00240,1,99,9","07,5,+00450,1,99,9","07,5,+00900,1,99,9","07,99,1,99,9,99,9,99999,9,99,9,99,9","10169,1,99999,9",,,,,"MET069SPECI ETSE 310659Z 32007KT 9999 SCT008 BKN015 BKN030 10/08 Q1017 WHT;",
"10869099999","2010-08-31T07:20:00","4","48.322333","11.948667","461.77","ERDING, GM","FM-15","ETSE ","V020","310,1,N,0041,1","00900,1,C,N","011265,1,N,1","+0110,1","+0090,1","99999,9","04,5,+00300,1,99,9","07,5,+00900,1,99,9","07,5,+02100,1,99,9","07,99,1,99,9,99,9,99999,9,99,9,99,9","10180,1,99999,9",,,,,"MET069METAR ETSE 310720Z 31008KT 9999 SCT010 BKN030 BKN070 11/09 Q1018 BLU;",
"10869099999","2010-08-31T08:20:00","4","48.322333","11.948667","461.77","ERDING, GM","FM-15","ETSE ","V020","310,1,N,0051,1","00300,1,C,N","011265,1,N,1","+0110,1","+0090,1","99999,9","07,5,+00300,1,99,9","07,5,+00660,1,99,9",,"07,99,1,99,9,99,9,99999,9,99,9,99,9","10180,1,99999,9","61,1",,,,"MET066METAR ETSE 310820Z 31010KT 9999 -RA BKN010 BKN022 11/09 Q1018 GRN;",
"10869099999","2010-08-31T09:20:00","4","48.322333","11.948667","461.77","ERDING, GM","FM-15","ETSE ","V020","310,1,N,0067,1","00300,1,C,N","011265,1,N,1","+0110,1","+0090,1","99999,9","07,5,+00300,1,99,9","07,5,+00840,1,99,9",,"07,99,1,99,9,99,9,99999,9,99,9,99,9","10190,1,99999,9","61,1",,,,"MET066METAR ETSE 310920Z 31013KT 9999 -RA BKN010 BKN028 11/09 Q1019 GRN;",
"10869099999","2010-08-31T10:20:00","4","48.322333","11.948667","461.77","ERDING, GM","FM-15","ETSE ","V020","310,1,N,0062,1","00360,1,C,N","011265,1,N,1","+0110,1","+0080,1","99999,9","07,5,+00360,1,99,9","07,5,+00840,1,99,9",,"07,99,1,99,9,99,9,99999,9,99,9,99,9","10190,1,99999,9","61,1",,,,"MET066METAR ETSE 311020Z 31012KT 9999 -RA BKN012 BKN028 11/08 Q1019 GRN;",
"10869099999","2010-08-31T11:20:00","4","48.322333","11.948667","461.77","ERDING, GM","FM-15","ETSE ","V020","300,1,N,0077,1","00450,1,C,N","011265,1,N,1","+0120,1","+0090,1","99999,9","07,5,+00450,1,99,9","07,5,+01230,1,99,9",,"07,99,1,99,9,99,9,99999,9,99,9,99,9","10200,1,99999,9",,,,,"MET062METAR ETSE 311120Z 30015KT 9999 BKN015 BKN041 12/09 Q1020 WHT;",
"10869099999","2010-08-31T12:20:00","4","48.322333","11.948667","461.77","ERDING, GM","FM-15","ETSE ","V020","320,1,N,0046,1","01350,1,C,N","011265,1,N,1","+0130,1","+0080,1","99999,9","04,5,+00630,1,02,1","07,5,+01350,1,99,9",,"07,99,1,99,9,99,9,99999,9,99,9,99,9","10200,1,99999,9",,,,,"MET065METAR ETSE 311220Z 32009KT 9999 SCT021TCU BKN045 13/08 Q1020 BLU;",
"10869099999","2010-08-31T13:20:00","4","48.322333","11.948667","461.77","ERDING, GM","FM-15","ETSE ","V020","280,1,N,0041,1","01350,1,C,N","011265,1,N,1","+0130,1","+0100,1","99999,9","02,5,+00600,1,99,9","04,5,+01350,1,02,5","07,5,+02100,1,99,9","07,99,1,99,9,99,9,99999,9,99,9,99,9","10200,1,99999,9",,,,,"MET077METAR ETSE 311320Z 28008KT 9999 FEW020 SCT045TCU BKN070 13/10 Q1020 RERA BLU;",
"10869099999","2010-08-31T14:20:00","4","48.322333","11.948667","461.77","ERDING, GM","FM-15","ETSE ","V020","290,1,N,0067,1","99999,9,C,N","011265,1,N,1","+0140,1","+0080,1","99999,9","02,5,+00600,1,99,9","04,5,+01350,1,02,5",,"04,99,1,99,9,99,9,99999,9,99,9,99,9","10190,1,99999,9",,,,,"MET066METAR ETSE 311420Z 29013KT 9999 FEW020 SCT045TCU 14/08 Q1019 BLU/;","P01 013503SCOCIG"
"10869099999","2010-09-01T05:20:00","4","48.322333","11.948667","461.77","ERDING, GM","FM-15","ETSE ","V020","230,1,N,0026,1","99999,9,C,N","011265,1,N,1","+0080,1","+0060,1","99999,9","02,5,+01350,1,99,9","04,5,+02400,1,99,9",,"04,99,1,99,9,99,9,99999,9,99,9,99,9","10200,1,99999,9",,,,,"MET063METAR ETSE 010520Z 23005KT 9999 FEW045 SCT080 08/06 Q1020 BLU/;","P01 024003SCOCIG"
"10869099999","2010-09-01T06:20:00","4","48.322333","11.948667","461.77","ERDING, GM","FM-15","ETSE ","V020","250,1,N,0026,1","99999,9,C,N","011265,1,N,1","+0090,1","+0070,1","99999,9","02,5,+01350,1,99,9","04,5,+02100,1,99,9",,"04,99,1,99,9,99,9,99999,9,99,9,99,9","10200,1,99999,9",,,,,"MET063METAR ETSE 010620Z 25005KT 9999 FEW045 SCT070 09/07 Q1020 BLU/;","P01 021003SCOCIG"
"10869099999","2010-09-01T07:20:00","4","48.322333","11.948667","461.77","ERDING, GM","FM-15","ETSE ","V020","280,1,N,0021,1","99999,9,C,N","011265,1,N,1","+0110,1","+0080,1","99999,9","02,5,+01200,1,99,9","04,5,+02700,1,99,9",,"04,99,1,99,9,99,9,99999,9,99,9,99,9","10200,1,99999,9",,,,,"MET063METAR ETSE 010720Z 28004KT 9999 FEW040 SCT090 11/08 Q1020 BLU/;","P01 027003SCOCIG"
"10869099999","2010-09-01T08:20:00","4","48.322333","11.948667","461.77","ERDING, GM","FM-15","ETSE ","V020","280,1,N,0026,1","02100,1,C,N","011265,1,N,1","+0110,1","+0080,1","99999,9","02,5,+00900,1,99,9","07,5,+02100,1,99,9",,"07,99,1,99,9,99,9,99999,9,99,9,99,9","10200,1,99999,9",,,,,"MET062METAR ETSE 010820Z 28005KT 9999 FEW030 BKN070 11/08 Q1020 BLU;",
"10869099999","2010-09-01T09:20:00","4","48.322333","11.948667","461.77","ERDING, GM","FM-15","ETSE ","V020","290,1,N,0026,1","01500,1,C,N","011265,1,N,1","+0120,1","+0080,1","99999,9","02,5,+00750,1,99,9","07,5,+01500,1,99,9",,"07,99,1,99,9,99,9,99999,9,99,9,99,9","10200,1,99999,9",,,,,"MET062METAR ETSE 010920Z 29005KT 9999 FEW025 BKN050 12/08 Q1020 BLU;",
"10869099999","2010-09-01T10:20:00","4","48.322333","11.948667","461.77","ERDING, GM","FM-15","ETSE ","V020","280,1,N,0026,1","22000,1,9,N","011265,1,N,1","+0140,1","+0080,1","99999,9","02,5,+00750,1,99,9",,,"02,99,1,99,9,99,9,99999,9,99,9,99,9","10200,1,99999,9",,,,,"MET056METAR ETSE 011020Z 28005KT 9999 FEW025 14/08 Q1020 BLU/;",
"10869099999","2010-09-01T11:20:00","4","48.322333","11.948667","461.77","ERDING, GM","FM-15","ETSE ","V020","300,1,N,0041,1","22000,1,9,N","011265,1,N,1","+0150,1","+0070,1","99999,9","02,5,+00990,1,99,9",,,"02,99,1,99,9,99,9,99999,9,99,9,99,9","10190,1,99999,9",,,,,"MET056METAR ETSE 011120Z 30008KT 9999 FEW033 15/07 Q1019 BLU/;",
"10869099999","2010-09-01T12:20:00","4","48.322333","11.948667","461.77","ERDING, GM","FM-15","ETSE ","V020","310,1,N,0036,1","22000,1,9,N","011265,1,N,1","+0160,1","+0070,1","99999,9","04,5,+01050,1,99,9",,,"04,99,1,99,9,99,9,99999,9,99,9,99,9","10190,1,99999,9",,,,,"MET056METAR ETSE 011220Z 31007KT 9999 SCT035 16/07 Q1019 BLU/;",
"10869099999","2010-09-01T13:20:00","4","48.322333","11.948667","461.77","ERDING, GM","FM-15","ETSE ","V020","310,1,N,0031,1","99999,9,C,N","011265,1,N,1","+0160,1","+0060,1","99999,9","02,5,+01200,1,99,9","04,5,+01500,1,99,9",,"04,99,1,99,9,99,9,99999,9,99,9,99,9","10190,1,99999,9",,,,,"MET063METAR ETSE 011320Z 31006KT 9999 FEW040 SCT050 16/06 Q1019 BLU/;","P01 015003SCOCIG"
"10869099999","2010-09-02T05:20:00","4","48.322333","11.948667","461.77","ERDING, GM","FM-15","ETSE ","V020","030,1,N,0005,1","22000,1,9,N","008000,1,N,1","+0060,1","+0050,1","99999,9","02,5,+00060,1,99,9",,,"02,99,1,99,9,99,9,99999,9,99,9,99,9","10190,1,99999,9",,,,,"MET056METAR ETSE 020520Z 03001KT 8000 FEW002 06/05 Q1019 BLU/;",
"10869099999","2010-09-02T06:20:00","4","48.322333","11.948667","461.77","ERDING, GM","FM-15","ETSE ","V020","190,1,N,0021,1","22000,1,9,N","011265,1,N,1","+0090,1","+0070,1","99999,9","02,5,+00060,1,99,9",,,"02,99,1,99,9,99,9,99999,9,99,9,99,9","10190,1,99999,9",,,,,"MET056METAR ETSE 020620Z 19004KT 9999 FEW002 09/07 Q1019 BLU/;",
"10869099999","2010-09-02T07:20:00","4","48.322333","11.948667","461.77","ERDING, GM","FM-15","ETSE ","V020","210,1,N,0015,1","22000,1,9,N","011265,1,N,1","+0120,1","+0080,1","99999,9","02,5,+05100,1,99,9",,,"02,99,1,99,9,99,9,99999,9,99,9,99,9","10190,1,99999,9",,,,,"MET056METAR ETSE 020720Z 21003KT 9999 FEW170 12/08 Q1019 BLU/;",
"10869099999","2010-09-02T08:20:00","4","48.322333","11.948667","461.77","ERDING, GM","FM-15","ETSE ","V020","999,9,V,0010,1","22000,1,9,N","011265,1,N,1","+0140,1","+0080,1","99999,9","02,5,+00450,1,99,9",,,"02,99,1,99,9,99,9,99999,9,99,9,99,9","10190,1,99999,9",,,,,"MET056METAR ETSE 020820Z VRB02KT 9999 FEW015 14/08 Q1019 BLU/;",
"10869099999","2010-09-02T09:20:00","4","48.322333","11.948667","461.77","ERDING, GM","FM-15","ETSE ","V020","999,9,V,0010,1","22000,1,9,N","011265,1,N,1","+0150,1","+0080,1","99999,9","02,5,+00690,1,99,9",,,"02,99,1,99,9,99,9,99999,9,99,9,99,9","10190,1,99999,9",,,,,"MET056METAR ETSE 020920Z VRB02KT 9999 FEW023 15/08 Q1019 BLU/;",
"10869099999","2010-09-02T10:20:00","4","48.322333","11.948667","461.77","ERDING, GM","FM-15","ETSE ","V020","999,9,V,0010,1","22000,1,9,N","011265,1,N,1","+0170,1","+0080,1","99999,9","02,5,+00690,1,99,9",,,"02,99,1,99,9,99,9,99999,9,99,9,99,9","10190,1,99999,9",,,,,"MET056METAR ETSE 021020Z VRB02KT 9999 FEW023 17/08 Q1019 BLU/;",
"10869099999","2010-09-02T11:20:00","4","48.322333","11.948667","461.77","ERDING, GM","FM-15","ETSE ","V020","230,1,N,0015,1","22000,1,9,N","011265,1,N,1","+0170,1","+0070,1","99999,9","02,5,+01050,1,99,9",,,"02,99,1,99,9,99,9,99999,9,99,9,99,9","10180,1,99999,9",,,,,"MET056METAR ETSE 021120Z 23003KT 9999 FEW035 17/07 Q1018 BLU/;",
"10869099999","2010-09-02T12:20:00","4","48.322333","11.948667","461.77","ERDING, GM","FM-15","ETSE ","V020","330,1,N,0021,1","99999,9,C,N","011265,1,N,1","+0180,1","+0070,1","99999,9","02,5,+01200,1,99,9","04,5,+01500,1,99,9",,"04,99,1,99,9,99,9,99999,9,99,9,99,9","10180,1,99999,9",,,,,"MET063METAR ETSE 021220Z 33004KT 9999 FEW040 SCT050 18/07 Q1018 BLU/;","P01 015003SCOCIG"
"10869099999","2010-09-02T13:20:00","4","48.322333","11.948667","461.77","ERDING, GM","FM-15","ETSE ","V020","360,1,N,0031,1","22000,1,9,N","011265,1,N,1","+0180,1","+0090,1","99999,9","04,5,+01500,1,99,9",,,"04,99,1,99,9,99,9,99999,9,99,9,99,9","10180,1,99999,9",,,,,"MET056METAR ETSE 021320Z 36006KT 9999 SCT050 18/09 Q1018 BLU/;",
"10869099999","2010-09-03T05:20:00","4","48.322333","11.948667","461.77","ERDING, GM","FM-15","ETSE ","V020","100,1,N,0010,1","01890,5,C,N","011265,1,N,1","+0120,1","+0110,1","99999,9","02,5,+01350,1,99,9","07,5,+01890,5,99,9",,"07,99,1,99,9,99,9,99999,9,99,9,99,9","10190,1,99999,9",,,,,"MET062METAR ETSE 030520Z 10002KT 9999 FEW045 BKN063 12/11 Q1019 BLU;",
"10869099999","2010-09-03T06:20:00","4","48.322333","11.948667","461.77","ERDING, GM","FM-15","ETSE ","V020","110,1,N,0010,1","01800,1,C,N","011265,1,N,1","+0120,1","+0110,1","99999,9","02,5,+01350,1,99,9","07,5,+01800,1,99,9",,"07,99,1,99,9,99,9,99999,9,99,9,99,9","10200,1,99999,9",,,,,"MET062METAR ETSE 030620Z 11002KT 9999 FEW045 BKN060 12/11 Q1020 BLU;",
"10869099999","2010-09-03T07:20:00","4","48.322333","11.948667","461.77","ERDING, GM","FM-15","ETSE ","V020","120,1,N,0010,1","02550,5,C,N","011265,1,N,1","+0140,1","+0100,1","99999,9","04,5,+01800,1,99,9","07,5,+02550,5,99,9",,"07,99,1,99,9,99,9,99999,9,99,9,99,9","10200,1,99999,9",,,,,"MET062METAR ETSE 030720Z 12002KT 9999 SCT060 BKN085 14/10 Q1020 BLU;",
"10869099999","2010-09-03T08:20:00","4","48.322333","11.948667","461.77","ERDING, GM","FM-15","ETSE ","V020","090,1,N,0015,1","02400,1,C,N","011265,1,N,1","+0150,1","+0100,1","99999,9","02,5,+01800,1,99,9","07,5,+02400,1,99,9",,"07,99,1,99,9,99,9,99999,9,99,9,99,9","10200,1,99999,9",,,,,"MET062METAR ETSE 030820Z 09003KT 9999 FEW060 BKN080 15/10 Q1020 BLU;",
"10869099999","2010-09-06T05:20:00","4","48.322333","11.948667","461.77","ERDING, GM","FM-15","ETSE ","V020","070,1,N,0026,1","22000,1,9,N","011265,1,N,1","+0070,1","+0050,1","99999,9","02,5,+05400,1,99,9",,,"02,99,1,99,9,99,9,99999,9,99,9,99,9","10200,1,99999,9",,,,,"MET056METAR ETSE 060520Z 07005KT 9999 FEW180 07/05 Q1020 BLU/;",
"10869099999","2010-09-06T06:20:00","4","48.322333","11.948667","461.77","ERDING, GM","FM-15","ETSE ","V020","100,1,N,0036,1","22000,1,9,N","011265,1,N,1","+0090,1","+0060,1","99999,9","02,5,+03900,1,99,9",,,"02,99,1,99,9,99,9,99999,9,99,9,99,9","10200,1,99999,9",,,,,"MET056METAR ETSE 060620Z 10007KT 9999 FEW130 09/06 Q1020 BLU/;",
"10869099999","2010-09-06T07:20:00","4","48.322333","11.948667","461.77","ERDING, GM","FM-15","ETSE ","V020","100,1,N,0051,1","22000,1,9,N","011265,1,N,1","+0110,1","+0060,1","99999,9",,,,,"10200,1,99999,9",,,,,"MET049METAR ETSE 060720Z 10010KT 9999 11/06 Q1020 BLU/;",
"10869099999","2010-09-06T08:20:00","4","48.322333","11.948667","461.77","ERDING, GM","FM-15","ETSE ","V020","110,1,N,0057,1","22000,1,9,N","011265,1,N,1","+0120,1","+0050,1","99999,9","02,5,+07500,1,99,9",,,"02,99,1,99,9,99,9,99999,9,99,9,99,9","10200,1,99999,9",,,,,"MET056METAR ETSE 060820Z 11011KT 9999 FEW250 12/05 Q1020 BLU/;",
"10869099999","2010-09-06T09:20:00","4","48.322333","11.948667","461.77","ERDING, GM","FM-15","ETSE ","V020","120,1,N,0062,1","22000,1,9,N","011265,1,N,1","+0140,1","+0050,1","99999,9","02,5,+00900,1,99,9",,,"02,99,1,99,9,99,9,99999,9,99,9,99,9","10200,1,99999,9",,,,,"MET056METAR ETSE 060920Z 12012KT 9999 FEW030 14/05 Q1020 BLU/;",
"10869099999","2010-09-06T10:20:00","4","48.322333","11.948667","461.77","ERDING, GM","FM-15","ETSE ","V020","110,1,N,0057,1","22000,1,9,N","011265,1,N,1","+0150,1","+0050,1","99999,9","02,5,+01050,1,99,9",,,"02,99,1,99,9,99,9,99999,9,99,9,99,9","10190,1,99999,9",,,,,"MET056METAR ETSE 061020Z 11011KT 9999 FEW035 15/05 Q1019 BLU/;",
"10869099999","2010-09-06T11:20:00","4","48.322333","11.948667","461.77","ERDING, GM","FM-15","ETSE ","V020","090,1,N,0072,1","22000,1,9,N","011265,1,N,1","+0160,1","+0040,1","99999,9","02,5,+01200,1,99,9",,,"02,99,1,99,9,99,9,99999,9,99,9,99,9","10180,1,99999,9",,,,,"MET056METAR ETSE 061120Z 09014KT 9999 FEW040 16/04 Q1018 BLU/;",
"10869099999","2010-09-06T12:20:00","4","48.322333","11.948667","461.77","ERDING, GM","FM-15","ETSE ","V020","090,1,N,0067,1","22000,1,9,N","011265,1,N,1","+0160,1","+0040,1","99999,9","02,5,+01350,1,99,9",,,"02,99,1,99,9,99,9,99999,9,99,9,99,9","10169,1,99999,9",,,,,"MET056METAR ETSE 061220Z 09013KT 9999 FEW045 16/04 Q1017 BLU/;",
"10869099999","2010-09-06T13:20:00","4","48.322333","11.948667","461.77","ERDING, GM","FM-15","ETSE ","V020","090,1,N,0062,1","22000,1,9,N","011265,1,N,1","+0160,1","+0040,1","99999,9","02,5,+01350,1,99,9",,,"02,99,1,99,9,99,9,99999,9,99,9,99,9","10169,1,99999,9",,,,,"MET056METAR ETSE 061320Z 09012KT 9999 FEW045 16/04 Q1017 BLU/;",
"10869099999","2010-09-07T06:20:00","4","48.322333","11.948667","461.77","ERDING, GM","FM-15","ETSE ","V020","110,1,N,0046,1","02400,1,C,N","011265,1,N,1","+0090,1","+0060,1","99999,9","02,5,+01800,1,99,9","07,5,+02400,1,99,9",,"07,99,1,99,9,99,9,99999,9,99,9,99,9","10102,1,99999,9",,,,,"MET062METAR ETSE 070620Z 11009KT 9999 FEW060 BKN080 09/06 Q1010 BLU;",
"10869099999","2010-09-07T07:20:00","4","48.322333","11.948667","461.77","ERDING, GM","FM-15","ETSE ","V020","120,1,N,0046,1","03000,1,C,N","011265,1,N,1","+0110,1","+0070,1","99999,9","02,5,+01800,1,99,9","04,5,+03000,1,99,9","07,5,+04200,1,99,9","07,99,1,99,9,99,9,99999,9,99,9,99,9","10091,1,99999,9",,,,,"MET069METAR ETSE 070720Z 12009KT 9999 FEW060 SCT100 BKN140 11/07 Q1009 BLU;",
"10869099999","2010-09-07T09:20:00","4","48.322333","11.948667","461.77","ERDING, GM","FM-15","ETSE ","V020","090,1,N,0036,1","04200,1,C,N","011265,1,N,1","+0150,1","+0090,1","99999,9","04,5,+03000,1,99,9","07,5,+04200,1,99,9",,"07,99,1,99,9,99,9,99999,9,99,9,99,9","10091,1,99999,9",,,,,"MET062METAR ETSE 070920Z 09007KT 9999 SCT100 BKN140 15/09 Q1009 BLU;",
"10869099999","2010-09-07T10:20:00","4","48.322333","11.948667","461.77","ERDING, GM","FM-15","ETSE ","V020","110,1,N,0026,1","02550,5,C,N","011265,1,N,1","+0160,1","+0100,1","99999,9","07,5,+02550,5,99,9","07,5,+03600,1,99,9",,"07,99,1,99,9,99,9,99999,9,99,9,99,9","10091,1,99999,9",,,,,"MET062METAR ETSE 071020Z 11005KT 9999 BKN085 BKN120 16/10 Q1009 BLU;",
"10869099999","2010-09-07T11:20:00","4","48.322333","11.948667","461.77","ERDING, GM","FM-15","ETSE ","V020","080,1,N,0036,1","02550,5,C,N","011265,1,N,1","+0170,1","+0100,1","99999,9","07,5,+02550,5,99,9","07,5,+03600,1,99,9",,"07,99,1,99,9,99,9,99999,9,99,9,99,9","10081,1,99999,9",,,,,"MET062METAR ETSE 071120Z 08007KT 9999 BKN085 BKN120 17/10 Q1008 BLU;",
"10869099999","2010-09-07T12:20:00","4","48.322333","11.948667","461.77","ERDING, GM","FM-15","ETSE ","V020","090,1,N,0031,1","03000,1,C,N","011265,1,N,1","+0180,1","+0110,1","99999,9","02,5,+02100,1,99,9","07,5,+03000,1,99,9",,"07,99,1,99,9,99,9,99999,9,99,9,99,9","10081,1,99999,9",,,,,"MET062METAR ETSE 071220Z 09006KT 9999 FEW070 BKN100 18/11 Q1008 BLU;",
"10869099999","2010-09-07T13:20:00","4","48.322333","11.948667","461.77","ERDING, GM","FM-15","ETSE ","V020","070,1,N,0031,1","02400,1,C,N","011265,1,N,1","+0180,1","+0110,1","99999,9","02,5,+01500,1,99,9","07,5,+02400,1,99,9",,"07,99,1,99,9,99,9,99999,9,99,9,99,9","10081,1,99999,9","61,1",,,,"MET066METAR ETSE 071320Z 07006KT 9999 -RA FEW050 BKN080 18/11 Q1008 BLU;",
"10869099999","2010-09-09T05:20:00","4","48.322333","11.948667","461.77","ERDING, GM","FM-15","ETSE ","V020","230,1,N,0036,1","01200,1,C,N","011265,1,N,1","+0110,1","+0080,1","99999,9","02,5,+00540,1,99,9","07,5,+01200,1,99,9","07,5,+03600,1,99,9","07,99,1,99,9,99,9,99999,9,99,9,99,9","10139,1,99999,9",,,,,"MET069METAR ETSE 090520Z 23007KT 9999 FEW018 BKN040 BKN120 11/08 Q1014 BLU;",
"10869099999","2010-09-09T06:20:00","4","48.322333","11.948667","461.77","ERDING, GM","FM-15","ETSE ","V020","250,1,N,0036,1","01110,1,C,N","011265,1,N,1","+0110,1","+0080,1","99999,9","02,5,+00540,1,99,9","07,5,+01110,1,99,9","07,5,+03000,1,99,9","07,99,1,99,9,99,9,99999,9,99,9,99,9","10139,1,99999,9","61,1",,,,"MET073METAR ETSE 090620Z 25007KT 9999 -RA FEW018 BKN037 BKN100 11/08 Q1014 BLU;",
"10869099999","2010-09-09T07:20:00","4","48.322333","11.948667","461.77","ERDING, GM","FM-15","ETSE ","V020","240,1,N,0031,1","01050,1,C,N","011265,1,N,1","+0120,1","+0100,1","99999,9","02,5,+00450,1,99,9","07,5,+01050,1,99,9",,"07,99,1,99,9,99,9,99999,9,99,9,99,9","10149,1,99999,9","61,1",,,,"MET066METAR ETSE 090720Z 24006KT 9999 -RA FEW015 BKN035 12/10 Q1015 BLU;",
"10869099999","2010-09-09T08:20:00","4","48.322333","11.948667","461.77","ERDING, GM","FM-15","ETSE ","V020","250,1,N,0031,1","01200,1,C,N","011265,1,N,1","+0130,1","+0110,1","99999,9","02,5,+00450,1,99,9","07,5,+01200,1,99,9",,"07,99,1,99,9,99,9,99999,9,99,9,99,9","10159,1,99999,9","61,1",,,,"MET066METAR ETSE 090820Z 25006KT 9999 -RA FEW015 BKN040 13/11 Q1016 BLU;",
"10869099999","2010-09-09T09:20:00","4","48.322333","11.948667","461.77","ERDING, GM","FM-15","ETSE ","V020","270,1,N,0046,1","01440,1,C,N","011265,1,N,1","+0150,1","+0100,1","99999,9","02,5,+00570,1,99,9","07,5,+01440,1,99,9",,"07,99,1,99,9,99,9,99999,9,99,9,99,9","10159,1,99999,9",,,,,"MET062METAR ETSE 090920Z 27009KT 9999 FEW019 BKN048 15/10 Q1016 BLU;",
"10869099999","2010-09-09T10:20:00","4","48.322333","11.948667","461.77","ERDING, GM","FM-15","ETSE ","V020","280,1,N,0057,1","01290,1,C,N","011265,1,N,1","+0150,1","+0100,1","99999,9","04,5,+00720,1,99,9","07,5,+01290,1,99,9",,"07,99,1,99,9,99,9,99999,9,99,9,99,9","10169,1,99999,9",,,,,"MET062METAR ETSE 091020Z 28011KT 9999 SCT024 BKN043 15/10 Q1017 BLU;",
"10869099999","2010-09-09T11:20:00","4","48.322333","11.948667","461.77","ERDING, GM","FM-15","ETSE ","V020","320,1,N,0031,1","02400,1,C,N","011265,1,N,1","+0160,1","+0110,1","99999,9","04,5,+00930,1,99,9","07,5,+02400,1,99,9",,"07,99,1,99,9,99,9,99999,9,99,9,99,9","10169,1,99999,9",,,,,"MET062METAR ETSE 091120Z 32006KT 9999 SCT031 BKN080 16/11 Q1017 BLU;",
"10869099999","2010-09-09T12:20:00","4","48.322333","11.948667","461.77","ERDING, GM","FM-15","ETSE ","V020","300,1,N,0021,1","02400,1,C,N","011265,1,N,1","+0170,1","+0110,1","99999,9","04,5,+00840,1,99,9","07,5,+02400,1,99,9",,"07,99,1,99,9,99,9,99999,9,99,9,99,9","10169,1,99999,9",,,,,"MET062METAR ETSE 091220Z 30004KT 9999 SCT028 BKN080 17/11 Q1017 BLU;",
"10869099999","2010-09-09T13:20:00","4","48.322333","11.948667","461.77","ERDING, GM","FM-15","ETSE ","V020","290,1,N,0036,1","99999,9,C,N","011265,1,N,1","+0170,1","+0110,1","99999,9","04,5,+00870,1,99,9","04,5,+02100,1,99,9",,"04,99,1,99,9,99,9,99999,9,99,9,99,9","10169,1,99999,9",,,,,"MET063METAR ETSE 091320Z 29007KT 9999 SCT029 SCT070 17/11 Q1017 BLU/;","P01 021003SCOCIG"
"10869099999","2010-09-09T14:20:00","4","48.322333","11.948667","461.77","ERDING, GM","FM-15","ETSE ","V020","300,1,N,0026,1","99999,9,C,N","011265,1,N,1","+0170,1","+0110,1","99999,9","04,5,+00900,1,99,9","04,5,+02400,1,99,9",,"04,99,1,99,9,99,9,99999,9,99,9,99,9","10169,1,99999,9",,,,,"MET063METAR ETSE 091420Z 30005KT 9999 SCT030 SCT080 17/11 Q1017 BLU/;","P01 024003SCOCIG"
"10869099999","2010-09-10T05:20:00","4","48.322333","11.948667","461.77","ERDING, GM","FM-15","ETSE ","V020","170,1,N,0015,1","22000,1,9,N","011265,1,N,1","+0080,1","+0070,1","99999,9","02,5,+02100,1,99,9",,,"02,99,1,99,9,99,9,99999,9,99,9,99,9","10230,1,99999,9",,,,,"MET056METAR ETSE 100520Z 17003KT 9999 FEW070 08/07 Q1023 BLU/;",
"10869099999","2010-09-10T06:20:00","4","48.322333","11.948667","461.77","ERDING, GM","FM-15","ETSE ","V020","180,1,N,0015,1","22000,1,9,N","011265,1,N,1","+0110,1","+0090,1","99999,9","02,5,+02100,1,99,9",,,"02,99,1,99,9,99,9,99999,9,99,9,99,9","10230,1,99999,9",,,,,"MET056METAR ETSE 100620Z 18003KT 9999 FEW070 11/09 Q1023 BLU/;",
"10869099999","2010-09-10T07:20:00","4","48.322333","11.948667","461.77","ERDING, GM","FM-15","ETSE ","V020","270,1,N,0026,1","22000,1,9,N","011265,1,N,1","+0140,1","+0100,1","99999,9","02,5,+00930,1,99,9",,,"02,99,1,99,9,99,9,99999,9,99,9,99,9","10240,1,99999,9",,,,,"MET056METAR ETSE 100720Z 27005KT 9999 FEW031 14/10 Q1024 BLU/;",
"10869099999","2010-09-13T05:20:00","4","48.322333","11.948667","461.77","ERDING, GM","FM-15","ETSE ","V020","220,1,N,0021,1","00240,1,C,N","011265,1,N,1","+0140,1","+0120,1","99999,9","07,5,+00240,1,99,9","07,5,+01350,1,99,9",,"07,99,1,99,9,99,9,99999,9,99,9,99,9","10220,1,99999,9","61,1",,,,"MET066METAR ETSE 130520Z 22004KT 9999 -RA BKN008 BKN045 14/12 Q1022 GRN;",
"10869099999","2010-09-13T06:20:00","4","48.322333","11.948667","461.77","ERDING, GM","FM-15","ETSE ","V020","260,1,N,0036,1","00210,1,C,N","011265,1,N,1","+0120,1","+0110,1","99999,9","07,5,+00210,1,99,9","07,5,+00420,1,99,9","07,5,+01500,1,99,9","07,99,1,99,9,99,9,99999,9,99,9,99,9","10220,1,99999,9","61,1",,,,"MET073METAR ETSE 130620Z 26007KT 9999 -RA BKN007 BKN014 BKN050 12/11 Q1022 GRN;",
"10869099999","2010-09-13T07:20:00","4","48.322333","11.948667","461.77","ERDING, GM","FM-15","ETSE ","V020","260,1,N,0036,1","00240,1,C,N","011265,1,N,1","+0130,1","+0110,1","99999,9","07,5,+00240,1,99,9","07,5,+00300,1,99,9",,"07,99,1,99,9,99,9,99999,9,99,9,99,9","10230,1,99999,9","61,1",,,,"MET066METAR ETSE 130720Z 26007KT 9999 -RA BKN008 BKN010 13/11 Q1023 GRN;",
"10869099999","2010-09-13T08:20:00","4","48.322333","11.948667","461.77","ERDING, GM","FM-15","ETSE ","V020","270,1,N,0041,1","00240,1,C,N","011265,1,N,1","+0130,1","+0120,1","99999,9","07,5,+00240,1,99,9","07,5,+00300,1,99,9",,"07,99,1,99,9,99,9,99999,9,99,9,99,9","10240,1,99999,9","51,1","61,1",,,"MET068METAR ETSE 130820Z 27008KT 9999 -DZRA BKN008 BKN010 13/12 Q1024 GRN;",
"10869099999","2010-09-13T09:20:00","4","48.322333","11.948667","461.77","ERDING, GM","FM-15","ETSE ","V020","280,1,N,0041,1","00240,1,C,N","005000,1,N,1","+0130,1","+0120,1","99999,9","07,5,+00240,1,99,9","07,5,+00390,1,99,9",,"07,99,1,99,9,99,9,99999,9,99,9,99,9","10240,1,99999,9","51,1",,,,"MET066METAR ETSE 130920Z 28008KT 5000 -DZ BKN008 BKN013 13/12 Q1024 GRN;",
"10869099999","2010-09-13T10:00:00","4","48.322333","11.948667","461.77","ERDING, GM","FM-15","ETSE ","V020","270,1,N,0041,1","00240,1,C,N","003800,1,N,1","+0130,1","+0120,1","99999,9","07,5,+00240,1,99,9","07,5,+00300,1,99,9",,"07,99,1,99,9,99,9,99999,9,99,9,99,9","10240,1,99999,9","53,1",,,,"MET065SPECI ETSE 130957Z 27008KT 3800 DZ BKN008 BKN010 13/12 Q1024 GRN;",
"10869099999","2010-09-13T10:20:00","4","48.322333","11.948667","461.77","ERDING, GM","FM-15","ETSE ","V020","290,1,N,0046,1","00270,1,C,N","004000,1,N,1","+0130,1","+0120,1","99999,9","07,5,+00270,1,99,9",,,"07,99,1,99,9,99,9,99999,9,99,9,99,9","10240,1,99999,9","51,1",,,,"MET064METAR ETSE 131020Z 29009KT 4000 -DZ BKN009 13/12 Q1024 REDZ GRN;",
"10869099999","2010-09-13T10:39:00","4","48.322333","11.948667","461.77","ERDING, GM","FM-16","ETSE ","V020","300,1,N,0057,1","00270,1,C,N","008000,1,N,1","+0130,1","+0120,1","99999,9","07,5,+00270,1,99,9","07,5,+00540,1,99,9",,"07,99,1,99,9,99,9,99999,9,99,9,99,9","10240,1,99999,9","51,1",,,,"MET066SPECI ETSE 131039Z 30011KT 8000 -DZ BKN009 BKN018 13/12 Q1024 GRN;",
"10869099999","2010-09-13T11:20:00","4","48.322333","11.948667","461.77","ERDING, GM","FM-15","ETSE ","V020","290,1,N,0046,1","00270,1,C,N","011265,1,N,1","+0140,1","+0120,1","99999,9","07,5,+00270,1,99,9","07,5,+00510,1,99,9",,"07,99,1,99,9,99,9,99999,9,99,9,99,9","10240,1,99999,9",,,,,"MET062METAR ETSE 131120Z 29009KT 9999 BKN009 BKN017 14/12 Q1024 GRN;",
"10869099999","2010-09-13T11:38:00","4","48.322333","11.948667","461.77","ERDING, GM","FM-16","ETSE ","V020","300,1,N,0046,1","00240,1,C,N","004500,1,N,1","+0130,1","+0120,1","99999,9","07,5,+00240,1,99,9",,,"07,99,1,99,9,99,9,99999,9,99,9,99,9","10240,1,99999,9","10,1","51,1","61,1",,"MET064SPECI ETSE 131138Z 30009KT 4500 -RADZ BR BKN008 13/12 Q1024 GRN;",
"10869099999","2010-09-13T11:44:00","4","48.322333","11.948667","461.77","ERDING, GM","FM-16","ETSE ","V020","290,1,N,0051,1","00240,1,C,N","009000,1,N,1","+0130,1","+0120,1","99999,9","07,5,+00240,1,99,9","07,5,+00450,1,99,9",,"07,99,1,99,9,99,9,99999,9,99,9,99,9","10251,1,99999,9","51,1","61,1",,,"MET068SPECI ETSE 131144Z 29010KT 9000 -RADZ BKN008 BKN015 13/12 Q1025 GRN;",
"10869099999","2010-09-13T12:20:00","4","48.322333","11.948667","461.77","ERDING, GM","FM-15","ETSE ","V020","300,1,N,0062,1","00240,1,C,N","011265,1,N,1","+0130,1","+0120,1","99999,9","07,5,+00240,1,99,9","07,5,+00390,1,99,9",,"07,99,1,99,9,99,9,99999,9,99,9,99,9","10251,1,99999,9",,,,,"MET062METAR ETSE 131220Z 30012KT 9999 BKN008 BKN013 13/12 Q1025 GRN;",
"10869099999","2010-09-13T13:20:00","4","48.322333","11.948667","461.77","ERDING, GM","FM-15","ETSE ","V020","300,1,N,0067,1","00240,1,C,N","006000,1,N,1","+0130,1","+0110,1","99999,9","07,5,+00240,1,99,9",,,"07,99,1,99,9,99,9,99999,9,99,9,99,9","10251,1,99999,9","51,1","61,1",,,"MET061METAR ETSE 131320Z 30013KT 6000 -DZRA BKN008 13/11 Q1025 GRN;",
"10869099999","2010-09-14T05:20:00","4","48.322333","11.948667","461.77","ERDING, GM","FM-15","ETSE ","V020","200,1,N,0015,1","05400,1,C,N","011265,1,N,1","+0080,1","+0080,1","99999,9","02,5,+01800,1,99,9","07,5,+05400,1,99,9",,"07,99,1,99,9,99,9,99999,9,99,9,99,9","10261,1,99999,9",,,,,"MET062METAR ETSE 140520Z 20003KT 9999 FEW060 BKN180 08/08 Q1026 BLU;",
"10869099999","2010-09-14T06:20:00","4","48.322333","11.948667","461.77","ERDING, GM","FM-15","ETSE ","V020","210,1,N,0015,1","05400,1,C,N","011265,1,N,1","+0090,1","+0080,1","99999,9","02,5,+02400,1,99,9","07,5,+05400,1,99,9",,"07,99,1,99,9,99,9,99999,9,99,9,99,9","10261,1,99999,9",,,,,"MET062METAR ETSE 140620Z 21003KT 9999 FEW080 BKN180 09/08 Q1026 BLU;",
"10869099999","2010-09-14T07:20:00","4","48.322333","11.948667","461.77","ERDING, GM","FM-15","ETSE ","V020","230,1,N,0021,1","08400,1,C,N","011265,1,N,1","+0110,1","+0090,1","99999,9","04,5,+05400,1,99,9","07,5,+08400,1,99,9",,"07,99,1,99,9,99,9,99999,9,99,9,99,9","10261,1,99999,9",,,,,"MET063METAR ETSE 140720Z 23004KT 9999 SCT180 BKN280 11/09 Q1026 BLU/;",
"10869099999","2010-09-14T08:20:00","4","48.322333","11.948667","461.77","ERDING, GM","FM-15","ETSE ","V020","240,1,N,0021,1","04800,1,C,N","011265,1,N,1","+0130,1","+0100,1","99999,9","02,5,+03300,1,99,9","07,5,+04800,1,99,9",,"07,99,1,99,9,99,9,99999,9,99,9,99,9","10261,1,99999,9",,,,,"MET062METAR ETSE 140820Z 24004KT 9999 FEW110 BKN160 13/10 Q1026 BLU;",
"10869099999","2010-09-14T09:20:00","4","48.322333","11.948667","461.77","ERDING, GM","FM-15","ETSE ","V020","230,1,N,0031,1","02700,1,C,N","011265,1,N,1","+0140,1","+0100,1","99999,9","02,5,+01500,1,99,9","07,5,+02700,1,99,9","07,5,+04500,1,99,9","07,99,1,99,9,99,9,99999,9,99,9,99,9","10261,1,99999,9","61,1",,,,"MET073METAR ETSE 140920Z 23006KT 9999 -RA FEW050 BKN090 BKN150 14/10 Q1026 BLU;",
"10869099999","2010-09-14T10:20:00","4","48.322333","11.948667","461.77","ERDING, GM","FM-15","ETSE ","V020","260,1,N,0026,1","02700,1,C,N","011265,1,N,1","+0160,1","+0100,1","99999,9","02,5,+00660,1,99,9","07,5,+02700,1,99,9",,"07,99,1,99,9,99,9,99999,9,99,9,99,9","10261,1,99999,9",,,,,"MET062METAR ETSE 141020Z 26005KT 9999 FEW022 BKN090 16/10 Q1026 BLU;",
"10869099999","2010-09-14T11:20:00","4","48.322333","11.948667","461.77","ERDING, GM","FM-15","ETSE ","V020","270,1,N,0036,1","02100,1,C,N","011265,1,N,1","+0160,1","+0090,1","99999,9","02,5,+00900,1,99,9","07,5,+02100,1,99,9",,"07,99,1,99,9,99,9,99999,9,99,9,99,9","10251,1,99999,9","61,1",,,,"MET066METAR ETSE 141120Z 27007KT 9999 -RA FEW030 BKN070 16/09 Q1025 BLU;",
"10869099999","2010-09-14T12:20:00","4","48.322333","11.948667","461.77","ERDING, GM","FM-15","ETSE ","V020","240,1,N,0036,1","01800,1,C,N","011265,1,N,1","+0160,1","+0090,1","99999,9","02,5,+00900,1,99,9","04,5,+01800,1,99,9","07,5,+03000,1,99,9","07,99,1,99,9,99,9,99999,9,99,9,99,9","10240,1,99999,9","61,1",,,,"MET073METAR ETSE 141220Z 24007KT 9999 -RA FEW030 SCT060 BKN100 16/09 Q1024 BLU;",
"10869099999","2010-09-14T13:20:00","4","48.322333","11.948667","461.77","ERDING, GM","FM-15","ETSE ","V020","250,1,N,0031,1","03000,1,C,N","011265,1,N,1","+0160,1","+0090,1","99999,9","02,5,+01350,1,99,9","07,5,+03000,1,99,9",,"07,99,1,99,9,99,9,99999,9,99,9,99,9","10240,1,99999,9",,,,,"MET062METAR ETSE 141320Z 25006KT 9999 FEW045 BKN100 16/09 Q1024 BLU;",
"10869099999","2010-09-14T14:20:00","4","48.322333","11.948667","461.77","ERDING, GM","FM-15","ETSE ","V020","250,1,N,0026,1","03000,1,C,N","011265,1,N,1","+0160,1","+0090,1","99999,9","02,5,+01200,1,99,9","07,5,+03000,1,99,9",,"07,99,1,99,9,99,9,99999,9,99,9,99,9","10230,1,99999,9","61,1",,,,"MET066METAR ETSE 141420Z 25005KT 9999 -RA FEW040 BKN100 16/09 Q1023 BLU;",
"10869099999","2010-09-15T05:20:00","4","48.322333","11.948667","461.77","ERDING, GM","FM-15","ETSE ","V020","210,1,N,0015,1","06300,1,C,N","011265,1,N,1","+0110,1","+0090,1","99999,9","04,5,+04800,1,99,9","07,5,+06300,1,99,9",,"07,99,1,99,9,99,9,99999,9,99,9,99,9","10159,1,99999,9",,,,,"MET063METAR ETSE 150520Z 21003KT 9999 SCT160 BKN210 11/09 Q1016 BLU/;",
"10869099999","2010-09-15T06:20:00","4","48.322333","11.948667","461.77","ERDING, GM","FM-15","ETSE ","V020","220,1,N,0026,1","06000,1,C,N","011265,1,N,1","+0130,1","+0090,1","99999,9","02,5,+04200,1,99,9","07,5,+06000,1,99,9",,"07,99,1,99,9,99,9,99999,9,99,9,99,9","10159,1,99999,9",,,,,"MET063METAR ETSE 150620Z 22005KT 9999 FEW140 BKN200 13/09 Q1016 BLU/;",
"10869099999","2010-09-15T07:20:00","4","48.322333","11.948667","461.77","ERDING, GM","FM-15","ETSE ","V020","240,1,N,0036,1","06000,1,C,N","011265,1,N,1","+0150,1","+0100,1","99999,9","02,5,+00600,1,99,9","07,5,+06000,1,99,9",,"07,99,1,99,9,99,9,99999,9,99,9,99,9","10159,1,99999,9",,,,,"MET063METAR ETSE 150720Z 24007KT 9999 FEW020 BKN200 15/10 Q1016 BLU/;",
"10869099999","2010-09-15T08:20:00","4","48.322333","11.948667","461.77","ERDING, GM","FM-15","ETSE ","V020","250,1,N,0046,1","04800,1,C,N","011265,1,N,1","+0170,1","+0100,1","99999,9","02,5,+00750,1,99,9","07,5,+04800,1,99,9",,"07,99,1,99,9,99,9,99999,9,99,9,99,9","10159,1,99999,9",,,,,"MET062METAR ETSE 150820Z 25009KT 9999 FEW025 BKN160 17/10 Q1016 BLU;",
"10869099999","2010-09-15T09:20:00","4","48.322333","11.948667","461.77","ERDING, GM","FM-15","ETSE ","V020","260,1,N,0051,1","03000,1,C,N","011265,1,N,1","+0190,1","+0090,1","99999,9","02,5,+01050,1,99,9","04,5,+03000,1,99,9","07,5,+05100,1,99,9","07,99,1,99,9,99,9,99999,9,99,9,99,9","10159,1,99999,9",,,,,"MET069METAR ETSE 150920Z 26010KT 9999 FEW035 SCT100 BKN170 19/09 Q1016 BLU;",
"10869099999","2010-09-15T10:20:00","4","48.322333","11.948667","461.77","ERDING, GM","FM-15","ETSE ","V020","270,1,N,0062,1","01800,1,C,N","011265,1,N,1","+0190,1","+0090,1","99999,9","02,5,+01140,1,99,9","04,5,+01800,1,99,9","07,5,+04200,1,99,9","07,99,1,99,9,99,9,99999,9,99,9,99,9","10159,1,99999,9",,,,,"MET069METAR ETSE 151020Z 27012KT 9999 FEW038 SCT060 BKN140 19/09 Q1016 BLU;",
"10869099999","2010-09-15T11:20:00","4","48.322333","11.948667","461.77","ERDING, GM","FM-15","ETSE ","V020","260,1,N,0051,1","02100,1,C,N","011265,1,N,1","+0200,1","+0080,1","99999,9","02,5,+01200,1,99,9","04,5,+02100,1,99,9","07,5,+04800,1,99,9","07,99,1,99,9,99,9,99999,9,99,9,99,9","10149,1,99999,9",,,,,"MET069METAR ETSE 151120Z 26010KT 9999 FEW040 SCT070 BKN160 20/08 Q1015 BLU;",
"10869099999","2010-09-15T12:20:00","4","48.322333","11.948667","461.77","ERDING, GM","FM-15","ETSE ","V020","270,1,N,0046,1","02400,1,C,N","011265,1,N,1","+0200,1","+0070,1","99999,9","02,5,+01200,1,99,9","07,5,+02400,1,99,9","07,5,+04500,1,99,9","07,99,1,99,9,99,9,99999,9,99,9,99,9","10139,1,99999,9","61,1",,,,"MET073METAR ETSE 151220Z 27009KT 9999 -RA FEW040 BKN080 BKN150 20/07 Q1014 BLU;",
"10869099999","2010-09-15T13:20:00","4","48.322333","11.948667","461.77","ERDING, GM","FM-15","ETSE ","V020","280,1,N,0036,1","02700,1,C,N","011265,1,N,1","+0190,1","+0080,1","99999,9","02,5,+01200,1,99,9","07,5,+02700,1,99,9","07,5,+04500,1,99,9","07,99,1,99,9,99,9,99999,9,99,9,99,9","10139,1,99999,9","61,1",,,,"MET073METAR ETSE 151320Z 28007KT 9999 -RA FEW040 BKN090 BKN150 19/08 Q1014 BLU;",
"10869099999","2010-09-16T05:20:00","4","48.322333","11.948667","461.77","ERDING, GM","FM-15","ETSE ","V020","240,1,N,0036,1","00900,1,C,N","011265,1,N,1","+0130,1","+0110,1","99999,9","02,5,+00480,1,99,9","04,5,+00900,1,99,9","07,5,+01260,1,99,9","07,99,1,99,9,99,9,99999,9,99,9,99,9","10129,1,99999,9","51,1","61,1",,,"MET075METAR ETSE 160520Z 24007KT 9999 -DZRA FEW016 SCT030 BKN042 13/11 Q1013 BLU;",
"10869099999","2010-09-16T06:20:00","4","48.322333","11.948667","461.77","ERDING, GM","FM-15","ETSE ","V020","250,1,N,0026,1","01200,1,C,N","011265,1,N,1","+0130,1","+0110,1","99999,9","02,5,+00450,1,99,9","07,5,+01200,1,99,9",,"07,99,1,99,9,99,9,99999,9,99,9,99,9","10139,1,99999,9",,,,,"MET062METAR ETSE 160620Z 25005KT 9999 FEW015 BKN040 13/11 Q1014 BLU;",
"10869099999","2010-09-16T07:20:00","4","48.322333","11.948667","461.77","ERDING, GM","FM-15","ETSE ","V020","290,1,N,0036,1","01200,1,C,N","011265,1,N,1","+0140,1","+0110,1","99999,9","02,5,+00450,1,99,9","04,5,+01200,1,99,9","07,5,+01650,5,99,9","07,99,1,99,9,99,9,99999,9,99,9,99,9","10139,1,99999,9",,,,,"MET069METAR ETSE 160720Z 29007KT 9999 FEW015 SCT040 BKN055 14/11 Q1014 BLU;",
"10869099999","2010-09-16T08:20:00","4","48.322333","11.948667","461.77","ERDING, GM","FM-15","ETSE ","V020","340,1,N,0041,1","00660,1,C,N","011265,1,N,1","+0120,1","+0080,1","99999,9","02,5,+00450,1,99,9","04,5,+00660,1,99,9","07,5,+01800,1,99,9","07,99,1,99,9,99,9,99999,9,99,9,99,9","10149,1,99999,9",,,,,"MET069METAR ETSE 160820Z 34008KT 9999 FEW015 SCT022 BKN060 12/08 Q1015 BLU;",
"10869099999","2010-09-16T09:20:00","4","48.322333","11.948667","461.77","ERDING, GM","FM-15","ETSE ","V020","310,1,N,0031,1","99999,9,C,N","011265,1,N,1","+0140,1","+0080,1","99999,9","02,5,+00840,1,99,9","04,5,+01890,5,99,9",,"04,99,1,99,9,99,9,99999,9,99,9,99,9","10149,1,99999,9",,,,,"MET063METAR ETSE 160920Z 31006KT 9999 FEW028 SCT063 14/08 Q1015 BLU/;","P01 018903SCOCIG"
"10869099999","2010-09-16T10:20:00","4","48.322333","11.948667","461.77","ERDING, GM","FM-15","ETSE ","V020","310,1,N,0031,1","99999,9,C,N","011265,1,N,1","+0150,1","+0090,1","99999,9","02,5,+00840,1,99,9","04,5,+08400,1,99,9",,"04,99,1,99,9,99,9,99999,9,99,9,99,9","10139,1,99999,9",,,,,"MET063METAR ETSE 161020Z 31006KT 9999 FEW028 SCT280 15/09 Q1014 BLU/;","P01 084003SCOCIG"
"10869099999","2010-09-16T11:20:00","4","48.322333","11.948667","461.77","ERDING, GM","FM-15","ETSE ","V020","280,1,N,0026,1","01800,1,C,N","011265,1,N,1","+0160,1","+0090,1","99999,9","02,5,+00900,1,99,9","07,5,+01800,1,99,9",,"07,99,1,99,9,99,9,99999,9,99,9,99,9","10139,1,99999,9",,,,,"MET062METAR ETSE 161120Z 28005KT 9999 FEW030 BKN060 16/09 Q1014 BLU;",
"10869099999","2010-09-16T12:20:00","4","48.322333","11.948667","461.77","ERDING, GM","FM-15","ETSE ","V020","300,1,N,0026,1","01590,5,C,N","011265,1,N,1","+0160,1","+0090,1","99999,9","02,5,+01050,1,99,9","07,5,+01590,5,99,9",,"07,99,1,99,9,99,9,99999,9,99,9,99,9","10129,1,99999,9",,,,,"MET062METAR ETSE 161220Z 30005KT 9999 FEW035 BKN053 16/09 Q1013 BLU;",
"10869099999","2010-09-16T13:20:00","4","48.322333","11.948667","461.77","ERDING, GM","FM-15","ETSE ","V020","280,1,N,0041,1","01500,1,C,N","011265,1,N,1","+0150,1","+0090,1","99999,9","04,5,+00960,1,99,9","07,5,+01500,1,99,9",,"07,99,1,99,9,99,9,99999,9,99,9,99,9","10129,1,99999,9",,,,,"MET062METAR ETSE 161320Z 28008KT 9999 SCT032 BKN050 15/09 Q1013 BLU;",
"10869099999","2010-09-16T14:20:00","4","48.322333","11.948667","461.77","ERDING, GM","FM-15","ETSE ","V020","260,1,N,0026,1","06600,1,C,N","011265,1,N,1","+0160,1","+0090,1","99999,9","04,5,+01140,1,99,9","07,5,+06600,1,99,9",,"07,99,1,99,9,99,9,99999,9,99,9,99,9","10129,1,99999,9",,,,,"MET063METAR ETSE 161420Z 26005KT 9999 SCT038 BKN220 16/09 Q1013 BLU/;",
"10869099999","2010-09-16T15:20:00","4","48.322333","11.948667","461.77","ERDING, GM","FM-15","ETSE ","V020","260,1,N,0036,1","01500,1,C,N","011265,1,N,1","+0160,1","+0090,1","99999,9","02,5,+01200,1,99,9","04,5,+01650,5,99,9","07,5,+06000,1,99,9","07,99,1,99,9,99,9,99999,9,99,9,99,9","10129,1,99999,9",,,,,"MET070METAR ETSE 161520Z 26007KT 9999 FEW040 SCT055 BKN200 16/09 Q1013 BLU/;",
"10869099999","2010-09-17T05:20:00","4","48.322333","11.948667","461.77","ERDING, GM","FM-15","ETSE ","V020","250,1,N,0021,1","04500,1,C,N","011265,1,N,1","+0110,1","+0090,1","99999,9","04,5,+01800,1,99,9","07,5,+04500,1,99,9",,"07,99,1,99,9,99,9,99999,9,99,9,99,9","10129,1,99999,9",,,,,"MET062METAR ETSE 170520Z 25004KT 9999 SCT060 BKN150 11/09 Q1013 BLU;",
"10869099999","2010-09-17T06:20:00","4","48.322333","11.948667","461.77","ERDING, GM","FM-15","ETSE ","V020","240,1,N,0026,1","04500,1,C,N","011265,1,N,1","+0120,1","+0090,1","99999,9","04,5,+01650,5,99,9","07,5,+04500,1,99,9",,"07,99,1,99,9,99,9,99999,9,99,9,99,9","10129,1,99999,9",,,,,"MET062METAR ETSE 170620Z 24005KT 9999 SCT055 BKN150 12/09 Q1013 BLU;",
"10869099999","2010-09-17T07:20:00","4","48.322333","11.948667","461.77","ERDING, GM","FM-15","ETSE ","V020","260,1,N,0031,1","04200,1,C,N","011265,1,N,1","+0120,1","+0080,1","99999,9","04,5,+01650,5,99,9","07,5,+04200,1,99,9",,"07,99,1,99,9,99,9,99999,9,99,9,99,9","10139,1,99999,9",,,,,"MET062METAR ETSE 170720Z 26006KT 9999 SCT055 BKN140 12/08 Q1014 BLU;",
"10869099999","2010-09-20T05:20:00","4","48.322333","11.948667","461.77","ERDING, GM","FM-15","ETSE ","V020","170,1,N,0010,1","07500,1,C,N","011265,1,N,1","+0040,1","+0040,1","99999,9","02,5,+05400,1,99,9","07,5,+07500,1,99,9",,"07,99,1,99,9,99,9,99999,9,99,9,99,9","10190,1,99999,9","12,1",,,,"MET068METAR ETSE 200520Z 17002KT 9999 MIFG FEW180 BKN250 04/04 Q1019 BLU/;",
"10869099999","2010-09-20T06:20:00","4","48.322333","11.948667","461.77","ERDING, GM","FM-15","ETSE ","V020","120,1,N,0010,1","22000,1,9,N","011265,1,N,1","+0060,1","+0050,1","99999,9","04,5,+07200,1,99,9",,,"04,99,1,99,9,99,9,99999,9,99,9,99,9","10200,1,99999,9",,,,,"MET056METAR ETSE 200620Z 12002KT 9999 SCT240 06/05 Q1020 BLU/;",
"10869099999","2010-09-20T07:20:00","4","48.322333","11.948667","461.77","ERDING, GM","FM-15","ETSE ","V020","060,1,N,0010,1","22000,1,9,N","011265,1,N,1","+0090,1","+0070,1","99999,9","02,5,+07200,1,99,9",,,"02,99,1,99,9,99,9,99999,9,99,9,99,9","10200,1,99999,9",,,,,"MET056METAR ETSE 200720Z 06002KT 9999 FEW240 09/07 Q1020 BLU/;",
"10869099999","2010-09-20T08:20:00","4","48.322333","11.948667","461.77","ERDING, GM","FM-15","ETSE ","V020","999,9,V,0010,1","22000,1,9,N","011265,1,N,1","+0120,1","+0090,1","99999,9","02,5,+04800,1,99,9",,,"02,99,1,99,9,99,9,99999,9,99,9,99,9","10200,1,99999,9",,,,,"MET056METAR ETSE 200820Z VRB02KT 9999 FEW160 12/09 Q1020 BLU/;",
"10869099999","2010-09-20T09:20:00","4","48.322333","11.948667","461.77","ERDING, GM","FM-15","ETSE ","V020","070,1,N,0015,1","22000,1,9,N","011265,1,N,1","+0150,1","+0090,1","99999,9","02,5,+04800,1,99,9",,,"02,99,1,99,9,99,9,99999,9,99,9,99,9","10200,1,99999,9",,,,,"MET056METAR ETSE 200920Z 07003KT 9999 FEW160 15/09 Q1020 BLU/;",
"10869099999","2010-09-20T10:20:00","4","48.322333","11.948667","461.77","ERDING, GM","FM-15","ETSE ","V020","100,1,N,0015,1","22000,1,9,N","011265,1,N,1","+0160,1","+0080,1","99999,9","02,5,+00900,1,99,9",,,"02,99,1,99,9,99,9,99999,9,99,9,99,9","10200,1,99999,9",,,,,"MET056METAR ETSE 201020Z 10003KT 9999 FEW030 16/08 Q1020 BLU/;",
"10869099999","2010-09-20T11:20:00","4","48.322333","11.948667","461.77","ERDING, GM","FM-15","ETSE ","V020","060,1,N,0026,1","22000,1,9,N","011265,1,N,1","+0170,1","+0090,1","99999,9","02,5,+01050,1,99,9",,,"02,99,1,99,9,99,9,99999,9,99,9,99,9","10190,1,99999,9",,,,,"MET056METAR ETSE 201120Z 06005KT 9999 FEW035 17/09 Q1019 BLU/;",
"10869099999","2010-09-20T12:20:00","4","48.322333","11.948667","461.77","ERDING, GM","FM-15","ETSE ","V020","090,1,N,0015,1","99999,9,C,N","011265,1,N,1","+0180,1","+0070,1","99999,9","02,5,+05100,1,99,9","04,5,+08400,1,99,9",,"04,99,1,99,9,99,9,99999,9,99,9,99,9","10190,1,99999,9",,,,,"MET063METAR ETSE 201220Z 09003KT 9999 FEW170 SCT280 18/07 Q1019 BLU/;","P01 084003SCOCIG"
"10869099999","2010-09-20T13:20:00","4","48.322333","11.948667","461.77","ERDING, GM","FM-15","ETSE ","V020","060,1,N,0021,1","08400,1,C,N","011265,1,N,1","+0180,1","+0090,1","99999,9","02,5,+01200,1,99,9","07,5,+08400,1,99,9",,"07,99,1,99,9,99,9,99999,9,99,9,99,9","10180,1,99999,9",,,,,"MET063METAR ETSE 201320Z 06004KT 9999 FEW040 BKN280 18/09 Q1018 BLU/;",
"10869099999","2010-09-21T05:20:00","4","48.322333","11.948667","461.77","ERDING, GM","FM-15","ETSE ","V020","190,1,N,0010,1","22000,1,9,N","011265,1,N,1","+0060,1","+0060,1","99999,9","02,5,+08400,1,99,9",,,"02,99,1,99,9,99,9,99999,9,99,9,99,9","10210,1,99999,9","40,1",,,,"MET065METAR ETSE 210520Z 19002KT 9999 VCFG FEW280 06/06 Q1021 BLU/BLU/;",
"10869099999","2010-09-21T06:20:00","4","48.322333","11.948667","461.77","ERDING, GM","FM-15","ETSE ","V020","200,1,N,0015,1","22000,1,9,N","011265,1,N,1","+0080,1","+0070,1","99999,9","02,5,+08400,1,99,9",,,"02,99,1,99,9,99,9,99999,9,99,9,99,9","10210,1,99999,9","40,1",,,,"MET065METAR ETSE 210620Z 20003KT 9999 VCFG FEW280 08/07 Q1021 BLU/BLU/;",
"10869099999","2010-09-21T07:20:00","4","48.322333","11.948667","461.77","ERDING, GM","FM-15","ETSE ","V020","230,1,N,0015,1","22000,1,9,N","011265,1,N,1","+0130,1","+0090,1","99999,9","02,5,+08400,1,99,9",,,"02,99,1,99,9,99,9,99999,9,99,9,99,9","10210,1,99999,9",,,,,"MET060METAR ETSE 210720Z 23003KT 9999 FEW280 13/09 Q1021 BLU/BLU/;",
"10869099999","2010-09-21T08:20:00","4","48.322333","11.948667","461.77","ERDING, GM","FM-15","ETSE ","V020","020,1,N,0015,1","22000,1,9,N","011265,1,N,1","+0150,1","+0090,1","99999,9","02,5,+08400,1,99,9",,,"02,99,1,99,9,99,9,99999,9,99,9,99,9","10220,1,99999,9",,,,,"MET060METAR ETSE 210820Z 02003KT 9999 FEW280 15/09 Q1022 BLU/BLU/;",
"10869099999","2010-09-21T09:20:00","4","48.322333","11.948667","461.77","ERDING, GM","FM-15","ETSE ","V020","999,9,V,0010,1","22000,1,9,N","011265,1,N,1","+0170,1","+0100,1","99999,9","02,5,+08400,1,99,9",,,"02,99,1,99,9,99,9,99999,9,99,9,99,9","10220,1,99999,9",,,,,"MET060METAR ETSE 210920Z VRB02KT 9999 FEW280 17/10 Q1022 BLU/BLU/;",
"10869099999","2010-09-21T10:20:00","4","48.322333","11.948667","461.77","ERDING, GM","FM-15","ETSE ","V020","120,1,N,0015,1","22000,1,9,N","011265,1,N,1","+0190,1","+0110,1","99999,9","02,5,+08400,1,99,9",,,"02,99,1,99,9,99,9,99999,9,99,9,99,9","10210,1,99999,9",,,,,"MET060METAR ETSE 211020Z 12003KT 9999 FEW280 19/11 Q1021 BLU/BLU/;",
"10869099999","2010-09-21T11:20:00","4","48.322333","11.948667","461.77","ERDING, GM","FM-15","ETSE ","V020","140,1,N,0010,1","22000,1,9,N","011265,1,N,1","+0200,1","+0100,1","99999,9","02,5,+08400,1,99,9",,,"02,99,1,99,9,99,9,99999,9,99,9,99,9","10210,1,99999,9",,,,,"MET060METAR ETSE 211120Z 14002KT 9999 FEW280 20/10 Q1021 BLU/BLU/;",
"10869099999","2010-09-21T12:20:00","4","48.322333","11.948667","461.77","ERDING, GM","FM-15","ETSE ","V020","050,1,N,0015,1","22000,1,9,N","011265,1,N,1","+0210,1","+0100,1","99999,9","02,5,+01200,1,99,9",,,"02,99,1,99,9,99,9,99999,9,99,9,99,9","10210,1,99999,9",,,,,"MET060METAR ETSE 211220Z 05003KT 9999 FEW040 21/10 Q1021 BLU/BLU/;",
"10869099999","2010-09-21T13:20:00","4","48.322333","11.948667","461.77","ERDING, GM","FM-15","ETSE ","V020","090,1,N,0021,1","22000,1,9,N","011265,1,N,1","+0210,1","+0100,1","99999,9","02,5,+01200,1,99,9",,,"02,99,1,99,9,99,9,99999,9,99,9,99,9","10200,1,99999,9",,,,,"MET060METAR ETSE 211320Z 09004KT 9999 FEW040 21/10 Q1020 BLU/BLU/;",
"10869099999","2010-09-21T14:20:00","4","48.322333","11.948667","461.77","ERDING, GM","FM-15","ETSE ","V020","060,1,N,0026,1","22000,1,9,N","011265,1,N,1","+0210,1","+0100,1","99999,9","02,5,+01200,1,99,9",,,"02,99,1,99,9,99,9,99999,9,99,9,99,9","10200,1,99999,9",,,,,"MET067METAR ETSE 211420Z 06005KT 9999 FEW040 21/10 Q1020 BLU/FCST CANCEL;",
"10869099999","2010-09-22T05:20:00","4","48.322333","11.948667","461.77","ERDING, GM","FM-15","ETSE ","V020","140,1,N,0015,1","22000,1,9,N","000100,1,N,1","+0040,1","+0040,1","99999,9","02,5,+08400,1,99,9",,,"02,99,1,99,9,99,9,99999,9,99,9,99,9","10220,1,99999,9","44,1",,,,"MET072METAR ETSE 220520Z 14003KT 0100 FG FEW280 04/04 Q1022 RED YLO TEMPO RED;",
"10869099999","2010-09-22T05:35:00","4","48.322333","11.948667","461.77","ERDING, GM","FM-16","ETSE ","V020","190,1,N,0005,1","22000,1,9,N","003500,1,N,1","+0050,1","+0050,1","99999,9","02,5,+00000,5,99,9",,,"02,99,1,99,9,99,9,99999,9,99,9,99,9","10220,1,99999,9","10,1","12,1",,,"MET077SPECI ETSE 220535Z 19001KT 3500 MIFG BR FEW000 05/05 Q1022 YLO YLO TEMPO RED;",
"10869099999","2010-09-22T06:06:00","4","48.322333","11.948667","461.77","ERDING, GM","FM-16","ETSE ","V020","140,1,N,0005,1","99999,9,C,N","006000,1,N,1","+0070,1","+0070,1","99999,9","02,5,+00000,5,99,9","04,5,+08400,1,99,9",,"04,99,1,99,9,99,9,99999,9,99,9,99,9","10220,1,99999,9",,,,,"MET077SPECI ETSE 220606Z 14001KT 6000 FEW000 SCT280 07/07 Q1022 WHT YLO BECMG BLU/;","P01 084003SCOCIG"
"10869099999","2010-09-22T06:20:00","4","48.322333","11.948667","461.77","ERDING, GM","FM-15","ETSE ","V020","140,1,N,0010,1","99999,9,C,N","007000,1,N,1","+0080,1","+0060,1","99999,9","02,5,+00000,5,99,9","04,5,+08400,1,99,9",,"04,99,1,99,9,99,9,99999,9,99,9,99,9","10220,1,99999,9",,,,,"MET077METAR ETSE 220620Z 14002KT 7000 FEW000 SCT280 08/06 Q1022 WHT YLO BECMG BLU/;","P01 084003SCOCIG"
"10869099999","2010-09-22T07:20:00","4","48.322333","11.948667","461.77","ERDING, GM","FM-15","ETSE ","V020","140,1,N,0015,1","22000,1,9,N","011265,1,N,1","+0120,1","+0090,1","99999,9","04,5,+08400,1,99,9",,,"04,99,1,99,9,99,9,99999,9,99,9,99,9","10230,1,99999,9",,,,,"MET060METAR ETSE 220720Z 14003KT 9999 SCT280 12/09 Q1023 BLU/BLU/;",
"10869099999","2010-09-22T08:20:00","4","48.322333","11.948667","461.77","ERDING, GM","FM-15","ETSE ","V020","100,1,N,0021,1","08400,1,C,N","011265,1,N,1","+0150,1","+0110,1","99999,9","07,5,+08400,1,99,9",,,"07,99,1,99,9,99,9,99999,9,99,9,99,9","10230,1,99999,9",,,,,"MET060METAR ETSE 220820Z 10004KT 9999 BKN280 15/11 Q1023 BLU/BLU/;",
"10869099999","2010-09-22T09:20:00","4","48.322333","11.948667","461.77","ERDING, GM","FM-15","ETSE ","V020","120,1,N,0036,1","08400,1,C,N","011265,1,N,1","+0160,1","+0120,1","99999,9","07,5,+08400,1,99,9",,,"07,99,1,99,9,99,9,99999,9,99,9,99,9","10230,1,99999,9",,,,,"MET060METAR ETSE 220920Z 12007KT 9999 BKN280 16/12 Q1023 BLU/BLU/;",
"10869099999","2010-09-22T10:20:00","4","48.322333","11.948667","461.77","ERDING, GM","FM-15","ETSE ","V020","090,1,N,0031,1","08400,1,C,N","011265,1,N,1","+0180,1","+0120,1","99999,9","07,5,+08400,1,99,9",,,"07,99,1,99,9,99,9,99999,9,99,9,99,9","10220,1,99999,9",,,,,"MET060METAR ETSE 221020Z 09006KT 9999 BKN280 18/12 Q1022 BLU/BLU/;",
"10869099999","2010-09-22T11:20:00","4","48.322333","11.948667","461.77","ERDING, GM","FM-15","ETSE ","V020","070,1,N,0031,1","08400,1,C,N","011265,1,N,1","+0200,1","+0130,1","99999,9","07,5,+08400,1,99,9",,,"07,99,1,99,9,99,9,99999,9,99,9,99,9","10220,1,99999,9",,,,,"MET060METAR ETSE 221120Z 07006KT 9999 BKN280 20/13 Q1022 BLU/BLU/;",
"10869099999","2010-09-22T12:20:00","4","48.322333","11.948667","461.77","ERDING, GM","FM-15","ETSE ","V020","080,1,N,0036,1","08400,1,C,N","011265,1,N,1","+0200,1","+0130,1","99999,9","07,5,+08400,1,99,9",,,"07,99,1,99,9,99,9,99999,9,99,9,99,9","10210,1,99999,9",,,,,"MET060METAR ETSE 221220Z 08007KT 9999 BKN280 20/13 Q1021 BLU/BLU/;",
"10869099999","2010-09-22T13:20:00","4","48.322333","11.948667","461.77","ERDING, GM","FM-15","ETSE ","V020","100,1,N,0041,1","08400,1,C,N","011265,1,N,1","+0210,1","+0120,1","99999,9","07,5,+08400,1,99,9",,,"07,99,1,99,9,99,9,99999,9,99,9,99,9","10210,1,99999,9",,,,,"MET060METAR ETSE 221320Z 10008KT 9999 BKN280 21/12 Q1021 BLU/BLU/;",
"10869099999","2010-09-22T14:10:00","4","48.322333","11.948667","461.77","ERDING, GM","FM-16","ETSE ","V020","100,1,N,0036,1","08400,1,C,N","011265,1,N,1","+0210,1","+0120,1","99999,9","07,5,+08400,1,99,9",,,"07,99,1,99,9,99,9,99999,9,99,9,99,9","10200,1,99999,9",,,,,"MET067SPECI ETSE 221410Z 10007KT 9999 BKN280 21/12 Q1020 BLU/FCST CANCEL;",
"10869099999","2010-09-23T05:20:00","4","48.322333","11.948667","461.77","ERDING, GM","FM-15","ETSE ","V020","999,9,C,0000,1","08400,1,C,N","000150,1,N,1","+0070,1","+0070,1","99999,9","02,5,+00000,5,99,9","07,5,+08400,1,99,9",,"07,99,1,99,9,99,9,99999,9,99,9,99,9","10180,1,99999,9","44,1",,,,"MET079METAR ETSE 230520Z 00000KT 0150 FG FEW000 BKN280 07/07 Q1018 RED YLO TEMPO RED;",
"10869099999","2010-09-23T05:22:00","4","48.322333","11.948667","461.77","ERDING, GM","FM-16","ETSE ","V020","999,9,C,0000,1","08400,1,C,N","000150,1,N,1","+0070,1","+0070,1","99999,9","02,5,+00000,5,99,9","07,5,+08400,1,99,9",,"07,99,1,99,9,99,9,99999,9,99,9,99,9","10180,1,99999,9","44,1",,,,"MET079SPECI ETSE 230522Z 00000KT 0150 FG FEW000 BKN280 07/07 Q1018 RED YLO TEMPO RED;",
"10869099999","2010-09-23T06:00:00","4","48.322333","11.948667","461.77","ERDING, GM","FM-15","ETSE ","V020","190,1,N,0005,1","09000,1,C,N","001600,1,N,1","+0080,1","+0080,1","99999,9","02,5,+00000,5,99,9","07,5,+09000,1,99,9",,"07,99,1,99,9,99,9,99999,9,99,9,99,9","10180,1,99999,9","10,1","41,1",,,"MET084SPECI ETSE 230557Z 19001KT 1600 BCFG BR FEW000 BKN300 08/08 Q1018 YLO YLO BECMG WHT;",
"10869099999","2010-09-23T06:12:00","4","48.322333","11.948667","461.77","ERDING, GM","FM-16","ETSE ","V020","190,1,N,0010,1","09000,1,C,N","003000,1,N,1","+0080,1","+0080,1","99999,9","07,5,+09000,1,99,9",,,"07,99,1,99,9,99,9,99999,9,99,9,99,9","10180,1,99999,9","10,1","40,1",,,"MET077SPECI ETSE 230612Z 19002KT 3000 VCFG BR BKN300 08/08 Q1018 YLO YLO BECMG WHT;",
"10869099999","2010-09-23T06:20:00","4","48.322333","11.948667","461.77","ERDING, GM","FM-15","ETSE ","V020","190,1,N,0010,1","09000,1,C,N","003900,1,N,1","+0090,1","+0090,1","99999,9","07,5,+09000,1,99,9",,,"07,99,1,99,9,99,9,99999,9,99,9,99,9","10180,1,99999,9","10,1","40,1",,,"MET078METAR ETSE 230620Z 19002KT 3900 VCFG BR BKN300 09/09 Q1018 GRN GRN BECMG BLU/;",
"10869099999","2010-09-23T06:48:00","4","48.322333","11.948667","461.77","ERDING, GM","FM-16","ETSE ","V020","170,1,N,0010,1","09000,1,C,N","006000,1,N,1","+0100,1","+0090,1","99999,9","07,5,+09000,1,99,9",,,"07,99,1,99,9,99,9,99999,9,99,9,99,9","10180,1,99999,9",,,,,"MET070SPECI ETSE 230648Z 17002KT 6000 BKN300 10/09 Q1018 WHT WHT BECMG BLU/;",
"10869099999","2010-09-23T07:20:00","4","48.322333","11.948667","461.77","ERDING, GM","FM-15","ETSE ","V020","130,1,N,0010,1","09000,1,C,N","008000,1,N,1","+0120,1","+0100,1","99999,9","07,5,+09000,1,99,9",,,"07,99,1,99,9,99,9,99999,9,99,9,99,9","10180,1,99999,9",,,,,"MET060METAR ETSE 230720Z 13002KT 8000 BKN300 12/10 Q1018 BLU/BLU/;",
"10869099999","2010-09-23T08:20:00","4","48.322333","11.948667","461.77","ERDING, GM","FM-15","ETSE ","V020","999,9,V,0010,1","09000,1,C,N","011265,1,N,1","+0150,1","+0110,1","99999,9","07,5,+09000,1,99,9",,,"07,99,1,99,9,99,9,99999,9,99,9,99,9","10180,1,99999,9",,,,,"MET060METAR ETSE 230820Z VRB02KT 9999 BKN300 15/11 Q1018 BLU/BLU/;",
"10869099999","2010-09-23T09:20:00","4","48.322333","11.948667","461.77","ERDING, GM","FM-15","ETSE ","V020","350,1,N,0015,1","09000,1,C,N","011265,1,N,1","+0170,1","+0130,1","99999,9","07,5,+09000,1,99,9",,,"07,99,1,99,9,99,9,99999,9,99,9,99,9","10169,1,99999,9",,,,,"MET060METAR ETSE 230920Z 35003KT 9999 BKN300 17/13 Q1017 BLU/BLU/;",
"10869099999","2010-09-23T10:20:00","4","48.322333","11.948667","461.77","ERDING, GM","FM-15","ETSE ","V020","999,9,V,0010,1","09000,1,C,N","011265,1,N,1","+0190,1","+0130,1","99999,9","07,5,+09000,1,99,9",,,"07,99,1,99,9,99,9,99999,9,99,9,99,9","10169,1,99999,9",,,,,"MET060METAR ETSE 231020Z VRB02KT 9999 BKN300 19/13 Q1017 BLU/BLU/;",
"10869099999","2010-09-23T11:20:00","4","48.322333","11.948667","461.77","ERDING, GM","FM-15","ETSE ","V020","999,9,V,0010,1","09000,1,C,N","011265,1,N,1","+0210,1","+0140,1","99999,9","07,5,+09000,1,99,9",,,"07,99,1,99,9,99,9,99999,9,99,9,99,9","10159,1,99999,9",,,,,"MET060METAR ETSE 231120Z VRB02KT 9999 BKN300 21/14 Q1016 BLU/BLU/;",
"10869099999","2010-09-23T12:20:00","4","48.322333","11.948667","461.77","ERDING, GM","FM-15","ETSE ","V020","120,1,N,0015,1","09000,1,C,N","011265,1,N,1","+0220,1","+0140,1","99999,9","07,5,+09000,1,99,9",,,"07,99,1,99,9,99,9,99999,9,99,9,99,9","10149,1,99999,9",,,,,"MET060METAR ETSE 231220Z 12003KT 9999 BKN300 22/14 Q1015 BLU/BLU/;",
"10869099999","2010-09-23T13:20:00","4","48.322333","11.948667","461.77","ERDING, GM","FM-15","ETSE ","V020","040,1,N,0010,1","09000,1,C,N","011265,1,N,1","+0230,1","+0140,1","99999,9","07,5,+09000,1,99,9",,,"07,99,1,99,9,99,9,99999,9,99,9,99,9","10139,1,99999,9",,,,,"MET067METAR ETSE 231320Z 04002KT 9999 BKN300 23/14 Q1014 BLU/FCST CANCEL;",
"10869099999","2010-09-24T05:20:00","4","48.322333","11.948667","461.77","ERDING, GM","FM-15","ETSE ","V020","200,1,N,0005,1","99999,9,C,N","000300,1,N,1","+0090,1","+0090,1","99999,9","02,5,+04800,1,99,9","04,5,+07500,1,99,9",,"04,99,1,99,9,99,9,99999,9,99,9,99,9","10071,1,99999,9","44,1",,,,"MET079METAR ETSE 240520Z 20001KT 0300 FG FEW160 SCT250 09/09 Q1007 RED YLO TEMPO RED;","P01 075003SCOCIG"
"10869099999","2010-09-24T05:34:00","4","48.322333","11.948667","461.77","ERDING, GM","FM-16","ETSE ","V020","160,1,N,0010,1","99999,9,C,N","002500,1,N,1","+0090,1","+0090,1","99999,9","02,5,+00000,5,99,9","04,5,+07500,1,99,9",,"04,99,1,99,9,99,9,99999,9,99,9,99,9","10071,1,99999,9","12,1","41,1",,,"MET086SPECI ETSE 240534Z 16002KT 2500 BCFG MIFG FEW000 SCT250 09/09 Q1007 YLO YLO TEMPO RED;","P01 075003SCOCIG"
"10869099999","2010-09-24T06:01:00","4","48.322333","11.948667","461.77","ERDING, GM","FM-16","ETSE ","V020","140,1,N,0010,1","99999,9,C,N","003000,1,N,1","+0090,1","+0090,1","99999,9","02,5,+04800,1,99,9","04,5,+07500,1,99,9",,"04,99,1,99,9,99,9,99999,9,99,9,99,9","10071,1,99999,9","12,1","40,1",,,"MET086SPECI ETSE 240601Z 14002KT 3000 VCFG MIFG FEW160 SCT250 09/09 Q1007 YLO YLO BECMG WHT;","P01 075003SCOCIG"
"10869099999","2010-09-24T06:20:00","4","48.322333","11.948667","461.77","ERDING, GM","FM-15","ETSE ","V020","130,1,N,0010,1","99999,9,C,N","004000,1,N,1","+0110,1","+0110,1","99999,9","02,5,+04800,1,99,9","04,5,+07500,1,99,9",,"04,99,1,99,9,99,9,99999,9,99,9,99,9","10071,1,99999,9","12,1","40,1",,,"MET087METAR ETSE 240620Z 13002KT 4000 VCFG MIFG FEW160 SCT250 11/11 Q1007 GRN GRN BECMG BLU/;","P01 075003SCOCIG"
"10869099999","2010-09-24T06:54:00","4","48.322333","11.948667","461.77","ERDING, GM","FM-16","ETSE ","V020","100,1,N,0010,1","99999,9,C,N","008000,1,N,1","+0130,1","+0110,1","99999,9","02,5,+04800,1,99,9","04,5,+07500,1,99,9",,"04,99,1,99,9,99,9,99999,9,99,9,99,9","10071,1,99999,9",,,,,"MET067SPECI ETSE 240654Z 10002KT 8000 FEW160 SCT250 13/11 Q1007 BLU/BLU/;","P01 075003SCOCIG"
"10869099999","2010-09-24T07:20:00","4","48.322333","11.948667","461.77","ERDING, GM","FM-15","ETSE ","V020","130,1,N,0015,1","07500,1,C,N","011265,1,N,1","+0140,1","+0120,1","99999,9","07,5,+07500,1,99,9",,,"07,99,1,99,9,99,9,99999,9,99,9,99,9","10071,1,99999,9",,,,,"MET060METAR ETSE 240720Z 13003KT 9999 BKN250 14/12 Q1007 BLU/BLU/;",
"10869099999","2010-09-24T08:20:00","4","48.322333","11.948667","461.77","ERDING, GM","FM-15","ETSE ","V020","090,1,N,0010,1","06900,1,C,N","011265,1,N,1","+0170,1","+0130,1","99999,9","07,5,+06900,1,99,9",,,"07,99,1,99,9,99,9,99999,9,99,9,99,9","10061,1,99999,9",,,,,"MET060METAR ETSE 240820Z 09002KT 9999 BKN230 17/13 Q1006 BLU/BLU/;",
"10869099999","2010-09-24T09:20:00","4","48.322333","11.948667","461.77","ERDING, GM","FM-15","ETSE ","V020","120,1,N,0010,1","06900,1,C,N","011265,1,N,1","+0200,1","+0130,1","99999,9","07,5,+06900,1,99,9",,,"07,99,1,99,9,99,9,99999,9,99,9,99,9","10051,1,99999,9",,,,,"MET060METAR ETSE 240920Z 12002KT 9999 BKN230 20/13 Q1005 BLU/BLU/;",
"10869099999","2010-09-24T10:20:00","4","48.322333","11.948667","461.77","ERDING, GM","FM-15","ETSE ","V020","999,9,V,0010,1","06900,1,C,N","011265,1,N,1","+0210,1","+0130,1","99999,9","02,5,+04200,1,99,9","07,5,+06900,1,99,9",,"07,99,1,99,9,99,9,99999,9,99,9,99,9","10041,1,99999,9",,,,,"MET067METAR ETSE 241020Z VRB02KT 9999 FEW140 BKN230 21/13 Q1004 BLU/BLU/;",
"10869099999","2010-09-24T10:44:00","4","48.322333","11.948667","461.77","ERDING, GM","FM-16","ETSE ","V020","999,9,V,0010,1","06900,1,C,N","011265,1,N,1","+0220,1","+0140,1","99999,9","02,5,+04200,1,99,9","07,5,+06900,1,99,9",,"07,99,1,99,9,99,9,99999,9,99,9,99,9","10041,1,99999,9",,,,,"MET067SPECI ETSE 241044Z VRB02KT 9999 FEW140 BKN230 22/14 Q1004 BLU/BLU/;",
"10869099999","2010-09-24T11:20:00","4","48.322333","11.948667","461.77","ERDING, GM","FM-15","ETSE ","V020","050,1,N,0021,1","06900,1,C,N","011265,1,N,1","+0220,1","+0140,1","99999,9","02,5,+04200,1,99,9","07,5,+06900,1,99,9",,"07,99,1,99,9,99,9,99999,9,99,9,99,9","10031,1,99999,9",,,,,"MET074METAR ETSE 241120Z 05004KT 9999 FEW140 BKN230 22/14 Q1003 BLU/FCST CANCEL;",
"10869099999","2010-09-27T05:20:00","4","48.322333","11.948667","461.77","ERDING, GM","FM-15","ETSE ","V020","240,1,N,0015,1","22000,1,9,N","011265,1,N,1","+0060,1","+0050,1","99999,9","02,5,+01200,1,99,9",,,"02,99,1,99,9,99,9,99999,9,99,9,99,9","10108,1,99999,9",,,,,"MET056METAR ETSE 270520Z 24003KT 9999 FEW040 06/05 Q1011 BLU/;",
"10869099999","2010-09-27T06:20:00","4","48.322333","11.948667","461.77","ERDING, GM","FM-15","ETSE ","V020","320,1,N,0010,1","22000,1,9,N","011265,1,N,1","+0070,1","+0040,1","99999,9","02,5,+03600,1,99,9",,,"02,99,1,99,9,99,9,99999,9,99,9,99,9","10108,1,99999,9",,,,,"MET060METAR ETSE 270620Z 32002KT 9999 FEW120 07/04 Q1011 BLU/BLU/;",
"10869099999","2010-09-27T07:20:00","4","48.322333","11.948667","461.77","ERDING, GM","FM-15","ETSE ","V020","270,1,N,0026,1","22000,1,9,N","011265,1,N,1","+0090,1","+0060,1","99999,9","02,5,+00360,1,99,9",,,"02,99,1,99,9,99,9,99999,9,99,9,99,9","10108,1,99999,9",,,,,"MET060METAR ETSE 270720Z 27005KT 9999 FEW012 09/06 Q1011 BLU/BLU/;",
"10869099999","2010-09-27T08:20:00","4","48.322333","11.948667","461.77","ERDING, GM","FM-15","ETSE ","V020","260,1,N,0026,1","22000,1,9,N","011265,1,N,1","+0100,1","+0060,1","99999,9","02,5,+00450,1,99,9",,,"02,99,1,99,9,99,9,99999,9,99,9,99,9","10108,1,99999,9",,,,,"MET060METAR ETSE 270820Z 26005KT 9999 FEW015 10/06 Q1011 BLU/BLU/;",
"10869099999","2010-09-27T09:20:00","4","48.322333","11.948667","461.77","ERDING, GM","FM-15","ETSE ","V020","300,1,N,0036,1","22000,1,9,N","011265,1,N,1","+0100,1","+0060,1","99999,9","04,5,+00600,1,99,9",,,"04,99,1,99,9,99,9,99999,9,99,9,99,9","10119,1,99999,9",,,,,"MET060METAR ETSE 270920Z 30007KT 9999 SCT020 10/06 Q1012 BLU/BLU/;",
"10869099999","2010-09-27T10:00:00","4","48.322333","11.948667","461.77","ERDING, GM","FM-16","ETSE ","V020","270,1,N,0036,1","22000,1,9,N","011265,1,N,1","+0110,1","+0060,1","99999,9","04,5,+00660,1,99,9",,,"04,99,1,99,9,99,9,99999,9,99,9,99,9","10108,1,99999,9",,,,,"MET060SPECI ETSE 271000Z 27007KT 9999 SCT022 11/06 Q1011 BLU/BLU/;",
"10869099999","2010-09-27T10:20:00","4","48.322333","11.948667","461.77","ERDING, GM","FM-15","ETSE ","V020","260,1,N,0031,1","22000,1,9,N","011265,1,N,1","+0120,1","+0050,1","99999,9","04,5,+00840,1,99,9",,,"04,99,1,99,9,99,9,99999,9,99,9,99,9","10108,1,99999,9",,,,,"MET060METAR ETSE 271020Z 26006KT 9999 SCT028 12/05 Q1011 BLU/BLU/;",
"10869099999","2010-09-27T11:20:00","4","48.322333","11.948667","461.77","ERDING, GM","FM-15","ETSE ","V020","280,1,N,0041,1","22000,1,9,N","011265,1,N,1","+0130,1","+0050,1","99999,9","04,5,+00990,1,99,9",,,"04,99,1,99,9,99,9,99999,9,99,9,99,9","10108,1,99999,9",,,,,"MET060METAR ETSE 271120Z 28008KT 9999 SCT033 13/05 Q1011 BLU/BLU/;",
"10869099999","2010-09-27T12:20:00","4","48.322333","11.948667","461.77","ERDING, GM","FM-15","ETSE ","V020","310,1,N,0041,1","22000,1,9,N","011265,1,N,1","+0120,1","+0050,1","99999,9","04,5,+01140,1,99,9",,,"04,99,1,99,9,99,9,99999,9,99,9,99,9","10108,1,99999,9",,,,,"MET060METAR ETSE 271220Z 31008KT 9999 SCT038 12/05 Q1011 BLU/BLU/;",
"10869099999","2010-09-27T13:20:00","4","48.322333","11.948667","461.77","ERDING, GM","FM-15","ETSE ","V020","300,1,N,0036,1","22000,1,9,N","011265,1,N,1","+0130,1","+0040,1","99999,9","04,5,+01200,1,99,9",,,"04,99,1,99,9,99,9,99999,9,99,9,99,9","10108,1,99999,9",,,,,"MET060METAR ETSE 271320Z 30007KT 9999 SCT040 13/04 Q1011 BLU/BLU/;",
"10869099999","2010-09-27T14:20:00","4","48.322333","11.948667","461.77","ERDING, GM","FM-15","ETSE ","V020","310,1,N,0031,1","22000,1,9,N","011265,1,N,1","+0130,1","+0050,1","99999,9","04,5,+01260,1,99,9",,,"04,99,1,99,9,99,9,99999,9,99,9,99,9","10108,1,99999,9",,,,,"MET060METAR ETSE 271420Z 31006KT 9999 SCT042 13/05 Q1011 BLU/BLU/;",
"10869099999","2010-09-27T15:20:00","4","48.322333","11.948667","461.77","ERDING, GM","FM-15","ETSE ","V020","320,1,N,0036,1","99999,9,C,N","011265,1,N,1","+0130,1","+0050,1","99999,9","02,5,+01260,1,99,9","04,5,+03000,1,99,9",,"04,99,1,99,9,99,9,99999,9,99,9,99,9","10108,1,99999,9",,,,,"MET067METAR ETSE 271520Z 32007KT 9999 FEW042 SCT100 13/05 Q1011 BLU/BLU/;","P01 030003SCOCIG"
"10869099999","2010-09-27T16:20:00","4","48.322333","11.948667","461.77","ERDING, GM","FM-15","ETSE ","V020","270,1,N,0021,1","99999,9,C,N","011265,1,N,1","+0120,1","+0050,1","99999,9","02,5,+01350,1,99,9","04,5,+03000,1,99,9",,"04,99,1,99,9,99,9,99999,9,99,9,99,9","10108,1,99999,9",,,,,"MET077METAR ETSE 271620Z 27004KT 9999 FEW045 SCT100 12/05 Q1011 BLU/BLU/ BECMG BLU;","P01 030003SCOCIG"
"10869099999","2010-09-27T17:20:00","4","48.322333","11.948667","461.77","ERDING, GM","FM-15","ETSE ","V020","270,1,N,0021,1","03000,1,C,N","011265,1,N,1","+0110,1","+0040,1","99999,9","02,5,+01350,1,99,9","07,5,+03000,1,99,9",,"07,99,1,99,9,99,9,99999,9,99,9,99,9","10108,1,99999,9",,,,,"MET074METAR ETSE 271720Z 27004KT 9999 FEW045 BKN100 11/04 Q1011 BLU FCST CANCEL;",
"10869099999","2010-09-28T05:20:00","4","48.322333","11.948667","461.77","ERDING, GM","FM-15","ETSE ","V020","260,1,N,0031,1","02700,1,C,N","011265,1,N,1","+0080,1","+0050,1","99999,9","07,5,+02700,1,99,9",,,"07,99,1,99,9,99,9,99999,9,99,9,99,9","10139,1,99999,9",,,,,"MET059METAR ETSE 280520Z 26006KT 9999 BKN090 08/05 Q1014 BLU BLU;",
"10869099999","2010-09-28T06:20:00","4","48.322333","11.948667","461.77","ERDING, GM","FM-15","ETSE ","V020","250,1,N,0036,1","02100,1,C,N","011265,1,N,1","+0080,1","+0050,1","99999,9","02,5,+01500,1,99,9","07,5,+02100,1,99,9",,"07,99,1,99,9,99,9,99999,9,99,9,99,9","10139,1,99999,9",,,,,"MET066METAR ETSE 280620Z 25007KT 9999 FEW050 BKN070 08/05 Q1014 BLU BLU;",
"10869099999","2010-09-28T07:20:00","4","48.322333","11.948667","461.77","ERDING, GM","FM-15","ETSE ","V020","260,1,N,0036,1","02100,1,C,N","011265,1,N,1","+0090,1","+0050,1","99999,9","04,5,+01500,1,99,9","07,5,+02100,1,99,9",,"07,99,1,99,9,99,9,99999,9,99,9,99,9","10149,1,99999,9","61,1",,,,"MET070METAR ETSE 280720Z 26007KT 9999 -RA SCT050 BKN070 09/05 Q1015 BLU BLU;",
"10869099999","2010-09-28T08:20:00","4","48.322333","11.948667","461.77","ERDING, GM","FM-15","ETSE ","V020","280,1,N,0046,1","01200,1,C,N","011265,1,N,1","+0090,1","+0050,1","99999,9","02,5,+00600,1,99,9","04,5,+01200,1,99,9","07,5,+02400,1,99,9","07,99,1,99,9,99,9,99999,9,99,9,99,9","10149,1,99999,9","61,1",,,,"MET077METAR ETSE 280820Z 28009KT 9999 -RA FEW020 SCT040 BKN080 09/05 Q1015 BLU BLU;",
"10869099999","2010-09-28T09:20:00","4","48.322333","11.948667","461.77","ERDING, GM","FM-15","ETSE ","V020","280,1,N,0046,1","02100,1,C,N","011265,1,N,1","+0100,1","+0050,1","99999,9","02,5,+00600,1,99,9","07,5,+02100,1,99,9",,"07,99,1,99,9,99,9,99999,9,99,9,99,9","10159,1,99999,9",,,,,"MET066METAR ETSE 280920Z 28009KT 9999 FEW020 BKN070 10/05 Q1016 BLU BLU;",
"10869099999","2010-09-28T10:20:00","4","48.322333","11.948667","461.77","ERDING, GM","FM-15","ETSE ","V020","280,1,N,0041,1","00600,1,C,N","011265,1,N,1","+0100,1","+0060,1","99999,9","07,5,+00600,1,99,9","07,5,+01650,5,99,9",,"07,99,1,99,9,99,9,99999,9,99,9,99,9","10159,1,99999,9","61,1",,,,"MET080METAR ETSE 281020Z 28008KT 9999 -RA BKN020 BKN055 10/06 Q1016 WHT BLU TEMPO WHT;",
"10869099999","2010-09-28T11:20:00","4","48.322333","11.948667","461.77","ERDING, GM","FM-15","ETSE ","V020","290,1,N,0051,1","00630,1,C,N","011265,1,N,1","+0100,1","+0070,1","99999,9","07,5,+00630,1,99,9","07,5,+01350,1,99,9",,"07,99,1,99,9,99,9,99999,9,99,9,99,9","10159,1,99999,9","61,1",,,,"MET080METAR ETSE 281120Z 29010KT 9999 -RA BKN021 BKN045 10/07 Q1016 WHT BLU TEMPO WHT;",
"10869099999","2010-09-28T12:20:00","4","48.322333","11.948667","461.77","ERDING, GM","FM-15","ETSE ","V020","280,1,N,0051,1","01230,1,C,N","011265,1,N,1","+0110,1","+0060,1","99999,9","02,5,+00630,1,99,9","07,5,+01230,1,99,9","07,5,+01800,1,99,9","07,99,1,99,9,99,9,99999,9,99,9,99,9","10159,1,99999,9","61,1",,,,"MET087METAR ETSE 281220Z 28010KT 9999 -RA FEW021 BKN041 BKN060 11/06 Q1016 BLU BLU TEMPO WHT;",
"10869099999","2010-09-28T13:20:00","4","48.322333","11.948667","461.77","ERDING, GM","FM-15","ETSE ","V020","280,1,N,0041,1","01230,1,C,N","011265,1,N,1","+0110,1","+0060,1","99999,9","02,5,+00630,1,99,9","07,5,+01230,1,99,9",,"07,99,1,99,9,99,9,99999,9,99,9,99,9","10159,1,99999,9",,,,,"MET076METAR ETSE 281320Z 28008KT 9999 FEW021 BKN041 11/06 Q1016 BLU BLU TEMPO WHT;",
"10869099999","2010-09-28T14:00:00","4","48.322333","11.948667","461.77","ERDING, GM","FM-16","ETSE ","V020","280,1,N,0036,1","01140,1,C,N","011265,1,N,1","+0110,1","+0060,1","99999,9","02,5,+00630,1,99,9","07,5,+01140,1,99,9",,"07,99,1,99,9,99,9,99999,9,99,9,99,9","10169,1,99999,9",,,,,"MET074SPECI ETSE 281400Z 28007KT 9999 FEW021 BKN038 11/06 Q1017 BLU FCST CANCEL;",
"10869099999","2010-09-29T05:20:00","4","48.322333","11.948667","461.77","ERDING, GM","FM-15","ETSE ","V020","260,1,N,0026,1","00300,1,C,N","006000,1,N,1","+0090,1","+0080,1","99999,9","02,5,+00150,1,99,9","07,5,+00300,1,99,9",,"07,99,1,99,9,99,9,99999,9,99,9,99,9","10180,1,99999,9","61,1",,,,"MET080METAR ETSE 290520Z 26005KT 6000 -RA FEW005 BKN010 09/08 Q1018 GRN GRN TEMPO YLO;",
"10869099999","2010-09-29T06:05:00","4","48.322333","11.948667","461.77","ERDING, GM","FM-16","ETSE ","V020","270,1,N,0026,1","00150,1,C,N","004000,1,N,1","+0090,1","+0080,1","99999,9","07,5,+00150,1,99,9","07,5,+00300,1,99,9",,"07,99,1,99,9,99,9,99999,9,99,9,99,9","10190,1,99999,9","10,1","51,1","61,1",,"MET085SPECI ETSE 290605Z 27005KT 4000 -RADZ BR BKN005 BKN010 09/08 Q1019 YLO GRN TEMPO YLO;",
"10869099999","2010-09-29T06:20:00","4","48.322333","11.948667","461.77","ERDING, GM","FM-15","ETSE ","V020","260,1,N,0031,1","00120,1,C,N","004000,1,N,1","+0090,1","+0080,1","99999,9","07,5,+00120,1,99,9","07,5,+00240,1,99,9",,"07,99,1,99,9,99,9,99999,9,99,9,99,9","10190,1,99999,9","10,1","51,1","61,1",,"MET085METAR ETSE 290620Z 26006KT 4000 -RADZ BR BKN004 BKN008 09/08 Q1019 YLO GRN TEMPO YLO;",
"10869099999","2010-09-29T07:20:00","4","48.322333","11.948667","461.77","ERDING, GM","FM-15","ETSE ","V020","280,1,N,0026,1","00150,1,C,N","007000,1,N,1","+0090,1","+0080,1","99999,9","07,5,+00150,1,99,9","07,5,+00270,1,99,9",,"07,99,1,99,9,99,9,99999,9,99,9,99,9","10190,1,99999,9",,,,,"MET076METAR ETSE 290720Z 28005KT 7000 BKN005 BKN009 09/08 Q1019 YLO GRN TEMPO YLO;",
"10869099999","2010-09-29T08:20:00","4","48.322333","11.948667","461.77","ERDING, GM","FM-15","ETSE ","V020","280,1,N,0026,1","00150,1,C,N","005000,1,N,1","+0090,1","+0080,1","99999,9","07,5,+00150,1,99,9","07,5,+00270,1,99,9",,"07,99,1,99,9,99,9,99999,9,99,9,99,9","10190,1,99999,9","51,1",,,,"MET080METAR ETSE 290820Z 28005KT 5000 -DZ BKN005 BKN009 09/08 Q1019 YLO GRN TEMPO YLO;",
"10869099999","2010-09-29T09:00:00","4","48.322333","11.948667","461.77","ERDING, GM","FM-15","ETSE ","V020","260,1,N,0026,1","00210,1,C,N","007000,1,N,1","+0100,1","+0090,1","99999,9","07,5,+00210,1,99,9","07,5,+00300,1,99,9",,"07,99,1,99,9,99,9,99999,9,99,9,99,9","10190,1,99999,9",,,,,"MET066SPECI ETSE 290855Z 26005KT 7000 BKN007 BKN010 10/09 Q1019 GRN GRN;",
"10869099999","2010-09-29T09:20:00","4","48.322333","11.948667","461.77","ERDING, GM","FM-15","ETSE ","V020","280,1,N,0036,1","00240,1,C,N","007000,1,N,1","+0100,1","+0090,1","99999,9","07,5,+00240,1,99,9","07,5,+00420,1,99,9",,"07,99,1,99,9,99,9,99999,9,99,9,99,9","10190,1,99999,9",,,,,"MET076METAR ETSE 290920Z 28007KT 7000 BKN008 BKN014 10/09 Q1019 GRN GRN BECMG WHT;",
"10869099999","2010-09-29T10:20:00","4","48.322333","11.948667","461.77","ERDING, GM","FM-15","ETSE ","V020","270,1,N,0026,1","00540,1,C,N","011265,1,N,1","+0110,1","+0090,1","99999,9","04,5,+00300,1,99,9","07,5,+00540,1,99,9",,"07,99,1,99,9,99,9,99999,9,99,9,99,9","10190,1,99999,9",,,,,"MET066METAR ETSE 291020Z 27005KT 9999 SCT010 BKN018 11/09 Q1019 WHT WHT;",
"10869099999","2010-09-29T11:20:00","4","48.322333","11.948667","461.77","ERDING, GM","FM-15","ETSE ","V020","300,1,N,0031,1","00660,1,C,N","011265,1,N,1","+0120,1","+0080,1","99999,9","02,5,+00360,1,99,9","07,5,+00660,1,99,9",,"07,99,1,99,9,99,9,99999,9,99,9,99,9","10190,1,99999,9",,,,,"MET076METAR ETSE 291120Z 30006KT 9999 FEW012 BKN022 12/08 Q1019 WHT WHT BECMG BLU;",
"10869099999","2010-09-29T12:20:00","4","48.322333","11.948667","461.77","ERDING, GM","FM-15","ETSE ","V020","270,1,N,0026,1","00990,1,C,N","011265,1,N,1","+0120,1","+0080,1","99999,9","02,5,+00450,1,99,9","04,5,+00990,1,99,9","07,5,+02100,1,99,9","07,99,1,99,9,99,9,99999,9,99,9,99,9","10190,1,99999,9",,,,,"MET073METAR ETSE 291220Z 27005KT 9999 FEW015 SCT033 BKN070 12/08 Q1019 BLU BLU;",
"10869099999","2010-09-29T13:20:00","4","48.322333","11.948667","461.77","ERDING, GM","FM-15","ETSE ","V020","260,1,N,0031,1","99999,9,C,N","011265,1,N,1","+0130,1","+0080,1","99999,9","02,5,+00600,1,99,9","04,5,+02100,1,99,9",,"04,99,1,99,9,99,9,99999,9,99,9,99,9","10180,1,99999,9",,,,,"MET077METAR ETSE 291320Z 26006KT 9999 FEW020 SCT070 13/08 Q1018 BLU/BLU/ TEMPO BLU;","P01 021003SCOCIG"
"10869099999","2010-09-29T14:20:00","4","48.322333","11.948667","461.77","ERDING, GM","FM-15","ETSE ","V020","280,1,N,0036,1","99999,9,C,N","011265,1,N,1","+0130,1","+0080,1","99999,9","02,5,+00720,1,99,9","04,5,+02100,1,99,9",,"04,99,1,99,9,99,9,99999,9,99,9,99,9","10180,1,99999,9",,,,,"MET074METAR ETSE 291420Z 28007KT 9999 FEW024 SCT070 13/08 Q1018 BLU/FCST CANCEL;","P01 021003SCOCIG"
"10869099999","2010-09-30T05:20:00","4","48.322333","11.948667","461.77","ERDING, GM","FM-15","ETSE ","V020","999,9,V,0005,1","00015,1,9,N","000150,1,N,1","+0040,1","+0040,1","99999,9","09,1,+00015,1,99,9",,,"09,99,1,99,9,99,9,00025,1,99,9,99,9","10190,1,99999,9","45,1",,,,"MET061METAR ETSE 300520Z VRB01KT 0150 FG VV000 04/04 Q1019 RED RED;",
"10869099999","2010-09-30T06:20:00","4","48.322333","11.948667","461.77","ERDING, GM","FM-15","ETSE ","V020","150,1,N,0015,1","02100,1,C,N","000450,1,N,1","+0050,1","+0050,1","99999,9","07,5,+00000,5,99,9","07,5,+02250,5,99,9",,"07,99,1,99,9,99,9,99999,9,99,9,99,9","10190,1,99999,9","44,1",,,,"MET079METAR ETSE 300620Z 15003KT 0450 FG BKN000 BKN075 05/05 Q1019 RED RED BECMG AMB;",
"10869099999","2010-09-30T07:00:00","4","48.322333","11.948667","461.77","ERDING, GM","FM-15","ETSE ","V020","999,9,V,0010,1","00030,1,C,N","000900,1,N,1","+0060,1","+0060,1","99999,9","07,5,+00030,1,99,9",,,"07,99,1,99,9,99,9,99999,9,99,9,99,9","10190,1,99999,9","44,1",,,,"MET072SPECI ETSE 300659Z VRB02KT 0900 FG BKN001 06/06 Q1019 RED RED BECMG AMB;",
"10869099999","2010-09-30T07:20:00","4","48.322333","11.948667","461.77","ERDING, GM","FM-15","ETSE ","V020","140,1,N,0010,1","01800,1,C,N","003000,1,N,1","+0070,1","+0070,1","99999,9","04,5,+00060,1,99,9","07,5,+01800,1,99,9",,"07,99,1,99,9,99,9,99999,9,99,9,99,9","10190,1,99999,9","10,1",,,,"MET079METAR ETSE 300720Z 14002KT 3000 BR SCT002 BKN060 07/07 Q1019 YLO YLO BECMG GRN;",
"10869099999","2010-09-30T07:36:00","4","48.322333","11.948667","461.77","ERDING, GM","FM-16","ETSE ","V020","999,9,V,0010,1","01800,1,C,N","005000,1,N,1","+0070,1","+0070,1","99999,9","02,5,+00060,1,99,9","07,5,+01800,1,99,9",,"07,99,1,99,9,99,9,99999,9,99,9,99,9","10190,1,99999,9","10,1",,,,"MET069SPECI ETSE 300736Z VRB02KT 5000 BR FEW002 BKN060 07/07 Q1019 WHT WHT;",
"10869099999","2010-09-30T07:45:00","4","48.322333","11.948667","461.77","ERDING, GM","FM-16","ETSE ","V020","080,1,N,0010,1","01800,1,C,N","006000,1,N,1","+0070,1","+0070,1","99999,9","02,5,+00090,1,99,9","07,5,+01800,1,99,9",,"07,99,1,99,9,99,9,99999,9,99,9,99,9","10190,1,99999,9",,,,,"MET076SPECI ETSE 300745Z 08002KT 6000 FEW003 BKN060 07/07 Q1019 WHT WHT BECMG BLU;",
"10869099999","2010-09-30T08:20:00","4","48.322333","11.948667","461.77","ERDING, GM","FM-15","ETSE ","V020","100,1,N,0015,1","01800,1,C,N","008000,1,N,1","+0080,1","+0080,1","99999,9","02,5,+00090,1,99,9","07,5,+01800,1,99,9",,"07,99,1,99,9,99,9,99999,9,99,9,99,9","10190,1,99999,9",,,,,"MET066METAR ETSE 300820Z 10003KT 8000 FEW003 BKN060 08/08 Q1019 BLU BLU;",
"10869099999","2010-09-30T09:20:00","4","48.322333","11.948667","461.77","ERDING, GM","FM-15","ETSE ","V020","140,1,N,0010,1","01800,1,C,N","011265,1,N,1","+0110,1","+0090,1","99999,9","02,5,+00150,1,99,9","07,5,+01800,1,99,9",,"07,99,1,99,9,99,9,99999,9,99,9,99,9","10180,1,99999,9",,,,,"MET066METAR ETSE 300920Z 14002KT 9999 FEW005 BKN060 11/09 Q1018 BLU BLU;",
"10869099999","2010-09-30T10:20:00","4","48.322333","11.948667","461.77","ERDING, GM","FM-15","ETSE ","V020","030,1,N,0021,1","01650,5,C,N","011265,1,N,1","+0130,1","+0090,1","99999,9","02,5,+00450,1,99,9","07,5,+01650,5,99,9",,"07,99,1,99,9,99,9,99999,9,99,9,99,9","10180,1,99999,9",,,,,"MET066METAR ETSE 301020Z 03004KT 9999 FEW015 BKN055 13/09 Q1018 BLU BLU;",
"10869099999","2010-09-30T11:20:00","4","48.322333","11.948667","461.77","ERDING, GM","FM-15","ETSE ","V020","110,1,N,0015,1","01500,1,C,N","011265,1,N,1","+0130,1","+0070,1","99999,9","02,5,+00660,1,99,9","07,5,+01500,1,99,9","07,5,+06000,1,99,9","07,99,1,99,9,99,9,99999,9,99,9,99,9","10180,1,99999,9",,,,,"MET073METAR ETSE 301120Z 11003KT 9999 FEW022 BKN050 BKN200 13/07 Q1018 BLU BLU;",
"10869099999","2010-09-30T12:20:00","4","48.322333","11.948667","461.77","ERDING, GM","FM-15","ETSE ","V020","080,1,N,0021,1","01650,5,C,N","011265,1,N,1","+0130,1","+0060,1","99999,9","02,5,+00750,1,99,9","07,5,+01650,5,99,9",,"07,99,1,99,9,99,9,99999,9,99,9,99,9","10169,1,99999,9",,,,,"MET074METAR ETSE 301220Z 08004KT 9999 FEW025 BKN055 13/06 Q1017 BLU FCST CANCEL;",
"10869099999","2010-10-01T06:20:00","4","48.322333","11.948667","461.77","ERDING, GM","FM-15","ETSE ","V020","120,1,N,0026,1","00660,1,C,N","005000,1,N,1","+0080,1","+0080,1","99999,9","02,5,+00330,1,99,9","07,5,+00660,1,99,9","07,5,+01650,5,99,9","07,99,1,99,9,99,9,99999,9,99,9,99,9","10149,1,99999,9","10,1",,,,"MET086METAR ETSE 010620Z 12005KT 5000 BR FEW011 BKN022 BKN055 08/08 Q1015 WHT WHT TEMPO YLO;",
"10869099999","2010-10-01T07:20:00","4","48.322333","11.948667","461.77","ERDING, GM","FM-15","ETSE ","V020","120,1,N,0021,1","00450,1,C,N","005000,1,N,1","+0080,1","+0080,1","99999,9","02,5,+00240,1,99,9","07,5,+00450,1,99,9","07,5,+01140,1,99,9","07,99,1,99,9,99,9,99999,9,99,9,99,9","10149,1,99999,9","51,1",,,,"MET085METAR ETSE 010720Z 12004KT 5000 -DZ FEW008 BKN015 BKN038 08/08 Q1015 WHT FCST CANCEL;",
"10869099999","2010-10-04T05:20:00","4","48.322333","11.948667","461.77","ERDING, GM","FM-15","ETSE ","V020","160,1,N,0015,1","00015,1,9,N","000500,1,N,1","+0080,1","+0080,1","99999,9","09,1,+00015,1,99,9",,,"09,99,1,99,9,99,9,00025,1,99,9,99,9","10081,1,99999,9","45,1",,,,"MET057METAR ETSE 040520Z 16003KT 0500 FG VV000 08/08 Q1008 RED;",
"10869099999","2010-10-04T06:20:00","4","48.322333","11.948667","461.77","ERDING, GM","FM-15","ETSE ","V020","120,1,N,0010,1","00015,1,9,N","000500,1,N,1","+0080,1","+0080,1","99999,9","09,1,+00015,1,99,9",,,"09,99,1,99,9,99,9,00025,1,99,9,99,9","10081,1,99999,9","45,1",,,,"MET057METAR ETSE 040620Z 12002KT 0500 FG VV000 08/08 Q1008 RED;",
"10869099999","2010-10-04T07:20:00","4","48.322333","11.948667","461.77","ERDING, GM","FM-15","ETSE ","V020","100,1,N,0026,1","00015,1,9,N","000500,1,N,1","+0080,1","+0080,1","99999,9","09,1,+00015,1,99,9",,,"09,99,1,99,9,99,9,00025,1,99,9,99,9","10081,1,99999,9","45,1",,,,"MET057METAR ETSE 040720Z 10005KT 0500 FG VV000 08/08 Q1008 RED;",
"10869099999","2010-10-04T08:20:00","4","48.322333","11.948667","461.77","ERDING, GM","FM-15","ETSE ","V020","100,1,N,0026,1","00030,1,C,N","002200,1,N,1","+0080,1","+0080,1","99999,9","08,5,+00030,1,99,9",,,"08,99,1,99,9,99,9,99999,9,99,9,99,9","10081,1,99999,9","10,1",,,,"MET058METAR ETSE 040820Z 10005KT 2200 BR OVC001 08/08 Q1008 RED;",
"10869099999","2010-10-04T09:20:00","4","48.322333","11.948667","461.77","ERDING, GM","FM-15","ETSE ","V020","120,1,N,0026,1","22000,1,9,N","005000,1,N,1","+0110,1","+0110,1","99999,9","04,5,+00150,1,99,9",,,"04,99,1,99,9,99,9,99999,9,99,9,99,9","10081,1,99999,9","10,1",,,,"MET058METAR ETSE 040920Z 12005KT 5000 BR SCT005 11/11 Q1008 WHT;",
"10869099999","2010-10-04T10:20:00","4","48.322333","11.948667","461.77","ERDING, GM","FM-15","ETSE ","V020","110,1,N,0031,1","22000,1,9,N","011265,1,N,1","+0130,1","+0110,1","99999,9","02,5,+00600,1,99,9",,,"02,99,1,99,9,99,9,99999,9,99,9,99,9","10071,1,99999,9",,,,,"MET056METAR ETSE 041020Z 11006KT 9999 FEW020 13/11 Q1007 BLU/;",
"10869099999","2010-10-04T11:20:00","4","48.322333","11.948667","461.77","ERDING, GM","FM-15","ETSE ","V020","090,1,N,0036,1","22000,1,9,N","011265,1,N,1","+0170,1","+0120,1","99999,9","02,5,+01800,1,99,9",,,"02,99,1,99,9,99,9,99999,9,99,9,99,9","10071,1,99999,9",,,,,"MET056METAR ETSE 041120Z 09007KT 9999 FEW060 17/12 Q1007 BLU/;",
"10869099999","2010-10-04T12:20:00","4","48.322333","11.948667","461.77","ERDING, GM","FM-15","ETSE ","V020","090,1,N,0046,1","22000,1,9,N","011265,1,N,1","+0190,1","+0120,1","99999,9","02,5,+01800,1,99,9",,,"02,99,1,99,9,99,9,99999,9,99,9,99,9","10051,1,99999,9",,,,,"MET056METAR ETSE 041220Z 09009KT 9999 FEW060 19/12 Q1005 BLU/;",
"10869099999","2010-10-05T05:20:00","4","48.322333","11.948667","461.77","ERDING, GM","FM-15","ETSE ","V020","230,1,N,0015,1","00015,1,9,N","000400,1,N,1","+0100,1","+0100,1","99999,9","09,1,+00015,1,99,9",,,"09,99,1,99,9,99,9,00025,1,99,9,99,9","10081,1,99999,9","45,1",,,,"MET071METAR ETSE 050520Z 23003KT 0400 FG VV000 10/10 Q1008 RED RED BECMG YLO;",
"10869099999","2010-10-05T06:20:00","4","48.322333","11.948667","461.77","ERDING, GM","FM-15","ETSE ","V020","250,1,N,0021,1","00015,1,9,N","000500,1,N,1","+0110,1","+0110,1","99999,9","09,1,+00015,1,99,9",,,"09,99,1,99,9,99,9,00025,1,99,9,99,9","10081,1,99999,9","45,1",,,,"MET071METAR ETSE 050620Z 25004KT 0500 FG VV000 11/11 Q1008 RED RED BECMG YLO;",
"10869099999","2010-10-05T06:40:00","4","48.322333","11.948667","461.77","ERDING, GM","FM-16","ETSE ","V020","260,1,N,0026,1","00060,1,C,N","000800,1,N,1","+0110,1","+0110,1","99999,9","08,5,+00060,1,99,9",,,"08,99,1,99,9,99,9,99999,9,99,9,99,9","10081,1,99999,9","44,1",,,,"MET072SPECI ETSE 050640Z 26005KT 0800 FG OVC002 11/11 Q1008 AMB AMB BECMG YLO;",
"10869099999","2010-10-05T07:00:00","4","48.322333","11.948667","461.77","ERDING, GM","FM-16","ETSE ","V020","270,1,N,0026,1","00090,1,C,N","001800,1,N,1","+0110,1","+0110,1","99999,9","07,5,+00090,1,99,9",,,"07,99,1,99,9,99,9,99999,9,99,9,99,9","10091,1,99999,9","10,1",,,,"MET062SPECI ETSE 050700Z 27005KT 1800 BR BKN003 11/11 Q1009 YLO YLO;",
"10869099999","2010-10-05T07:20:00","4","48.322333","11.948667","461.77","ERDING, GM","FM-15","ETSE ","V020","290,1,N,0026,1","00120,1,C,N","002200,1,N,1","+0120,1","+0120,1","99999,9","07,5,+00120,1,99,9",,,"07,99,1,99,9,99,9,99999,9,99,9,99,9","10091,1,99999,9","10,1","61,1",,,"MET076METAR ETSE 050720Z 29005KT 2200 -RA BR BKN004 12/12 Q1009 YLO YLO BECMG GRN;",
"10869099999","2010-10-05T08:20:00","4","48.322333","11.948667","461.77","ERDING, GM","FM-15","ETSE ","V020","300,1,N,0031,1","02700,1,C,N","005000,1,N,1","+0140,1","+0130,1","99999,9","04,5,+00180,1,99,9","07,5,+02700,1,99,9",,"07,99,1,99,9,99,9,99999,9,99,9,99,9","10091,1,99999,9","10,1","61,1",,,"MET073METAR ETSE 050820Z 30006KT 5000 -RA BR SCT006 BKN090 14/13 Q1009 WHT WHT;",
"10869099999","2010-10-05T09:20:00","4","48.322333","11.948667","461.77","ERDING, GM","FM-15","ETSE ","V020","330,1,N,0021,1","02700,1,C,N","006000,1,N,1","+0140,1","+0120,1","99999,9","04,5,+00240,1,99,9","07,5,+02700,1,99,9",,"07,99,1,99,9,99,9,99999,9,99,9,99,9","10091,1,99999,9",,,,,"MET076METAR ETSE 050920Z 33004KT 6000 SCT008 BKN090 14/12 Q1009 WHT WHT BECMG BLU;",
"10869099999","2010-10-05T10:20:00","4","48.322333","11.948667","461.77","ERDING, GM","FM-15","ETSE ","V020","040,1,N,0021,1","02700,1,C,N","006000,1,N,1","+0140,1","+0120,1","99999,9","04,5,+00240,1,99,9","07,5,+02700,1,99,9",,"07,99,1,99,9,99,9,99999,9,99,9,99,9","10102,1,99999,9","51,1","61,1",,,"MET082METAR ETSE 051020Z 04004KT 6000 -RADZ SCT008 BKN090 14/12 Q1010 WHT WHT BECMG BLU;",
"10869099999","2010-10-05T10:50:00","4","48.322333","11.948667","461.77","ERDING, GM","FM-16","ETSE ","V020","020,1,N,0021,1","00390,1,C,N","006000,1,N,1","+0140,1","+0120,1","99999,9","02,5,+00240,1,99,9","07,5,+00390,1,99,9","07,5,+02700,1,99,9","07,99,1,99,9,99,9,99999,9,99,9,99,9","10102,1,99999,9","51,1","61,1",,,"MET089SPECI ETSE 051050Z 02004KT 6000 -RADZ FEW008 BKN013 BKN090 14/12 Q1010 GRN BLU TEMPO GRN;",
"10869099999","2010-10-05T11:20:00","4","48.322333","11.948667","461.77","ERDING, GM","FM-15","ETSE ","V020","060,1,N,0015,1","00390,1,C,N","007000,1,N,1","+0140,1","+0120,1","99999,9","02,5,+00240,1,99,9","07,5,+00390,1,99,9","07,5,+02100,1,99,9","07,99,1,99,9,99,9,99999,9,99,9,99,9","10102,1,99999,9",,,,,"MET083METAR ETSE 051120Z 06003KT 7000 FEW008 BKN013 BKN070 14/12 Q1010 GRN BLU TEMPO GRN;",
"10869099999","2010-10-05T11:41:00","4","48.322333","11.948667","461.77","ERDING, GM","FM-16","ETSE ","V020","040,1,N,0021,1","00450,1,C,N","007000,1,N,1","+0150,1","+0120,1","99999,9","02,5,+00300,1,99,9","07,5,+00450,1,99,9","07,5,+02100,1,99,9","07,99,1,99,9,99,9,99999,9,99,9,99,9","10102,1,99999,9",,,,,"MET083SPECI ETSE 051141Z 04004KT 7000 FEW010 BKN015 BKN070 15/12 Q1010 WHT BLU TEMPO GRN;",
"10869099999","2010-10-05T12:20:00","4","48.322333","11.948667","461.77","ERDING, GM","FM-15","ETSE ","V020","020,1,N,0015,1","00480,1,C,N","007000,1,N,1","+0150,1","+0120,1","99999,9","02,5,+00300,1,99,9","07,5,+00480,1,99,9","07,5,+02100,1,99,9","07,99,1,99,9,99,9,99999,9,99,9,99,9","10102,1,99999,9",,,,,"MET083METAR ETSE 051220Z 02003KT 7000 FEW010 BKN016 BKN070 15/12 Q1010 WHT BLU TEMPO GRN;",
"10869099999","2010-10-05T12:35:00","4","48.322333","11.948667","461.77","ERDING, GM","FM-16","ETSE ","V020","360,1,N,0021,1","00480,1,C,N","007000,1,N,1","+0140,1","+0120,1","99999,9","02,5,+00300,1,99,9","07,5,+00480,1,99,9","07,5,+02100,1,99,9","07,99,1,99,9,99,9,99999,9,99,9,99,9","10102,1,99999,9",,,,,"MET083SPECI ETSE 051235Z 36004KT 7000 FEW010 BKN016 BKN070 14/12 Q1010 WHT BLU TEMPO GRN;",
"10869099999","2010-10-05T13:20:00","4","48.322333","11.948667","461.77","ERDING, GM","FM-15","ETSE ","V020","010,1,N,0026,1","00480,1,C,N","008000,1,N,1","+0140,1","+0120,1","99999,9","02,5,+00300,1,99,9","04,5,+00480,1,99,9","07,5,+02100,1,99,9","07,99,1,99,9,99,9,99999,9,99,9,99,9","10102,1,99999,9",,,,,"MET083METAR ETSE 051320Z 01005KT 8000 FEW010 SCT016 BKN070 14/12 Q1010 BLU BLU TEMPO GRN;",
"10869099999","2010-10-05T14:20:00","4","48.322333","11.948667","461.77","ERDING, GM","FM-15","ETSE ","V020","020,1,N,0021,1","00480,1,C,N","008000,1,N,1","+0140,1","+0120,1","99999,9","02,5,+00300,1,99,9","04,5,+00480,1,99,9","07,5,+02100,1,99,9","07,99,1,99,9,99,9,99999,9,99,9,99,9","10102,1,99999,9",,,,,"MET081METAR ETSE 051420Z 02004KT 8000 FEW010 SCT016 BKN070 14/12 Q1010 BLU FCST CANCEL;",
"10869099999","2010-10-06T05:20:00","4","48.322333","11.948667","461.77","ERDING, GM","FM-15","ETSE ","V020","120,1,N,0026,1","00120,1,C,N","002500,1,N,1","+0120,1","+0120,1","99999,9","07,5,+00120,1,99,9","04,5,+00990,1,99,9","07,5,+01650,5,99,9","07,99,1,99,9,99,9,99999,9,99,9,99,9","10139,1,99999,9","10,1",,,,"MET072METAR ETSE 060520Z 12005KT 2500 BR BKN004 SCT033 BKN055 12/12 Q1014 YLO;",
"10869099999","2010-10-06T06:20:00","4","48.322333","11.948667","461.77","ERDING, GM","FM-15","ETSE ","V020","120,1,N,0036,1","01650,5,C,N","004000,1,N,1","+0120,1","+0120,1","99999,9","04,5,+00150,1,99,9","07,5,+01650,5,99,9",,"07,99,1,99,9,99,9,99999,9,99,9,99,9","10139,1,99999,9","10,1",,,,"MET065METAR ETSE 060620Z 12007KT 4000 BR SCT005 BKN055 12/12 Q1014 GRN;",
"10869099999","2010-10-06T07:45:00","4","48.322333","11.948667","461.77","ERDING, GM","FM-16","ETSE ","V020","120,1,N,0031,1","01650,5,C,N","005000,1,N,1","+0130,1","+0120,1","99999,9","04,5,+00150,1,99,9","07,5,+01650,5,99,9",,"07,99,1,99,9,99,9,99999,9,99,9,99,9","10149,1,99999,9","10,1",,,,"MET079SPECI ETSE 060745Z 12006KT 5000 BR SCT005 BKN055 13/12 Q1015 WHT WHT TEMPO YLO;",
"10869099999","2010-10-06T08:20:00","4","48.322333","11.948667","461.77","ERDING, GM","FM-15","ETSE ","V020","110,1,N,0036,1","00150,1,C,N","005000,1,N,1","+0130,1","+0120,1","99999,9","07,5,+00150,1,99,9","07,5,+01650,5,99,9",,"07,99,1,99,9,99,9,99999,9,99,9,99,9","10149,1,99999,9","10,1",,,,"MET079METAR ETSE 060820Z 11007KT 5000 BR BKN005 BKN055 13/12 Q1015 YLO YLO BECMG GRN;",
"10869099999","2010-10-06T09:20:00","4","48.322333","11.948667","461.77","ERDING, GM","FM-15","ETSE ","V020","120,1,N,0046,1","00150,1,C,N","005000,1,N,1","+0130,1","+0120,1","99999,9","07,5,+00150,1,99,9",,,"07,99,1,99,9,99,9,99999,9,99,9,99,9","10149,1,99999,9","10,1",,,,"MET072METAR ETSE 060920Z 12009KT 5000 BR BKN005 13/12 Q1015 YLO YLO BECMG GRN;",
"10869099999","2010-10-06T10:20:00","4","48.322333","11.948667","461.77","ERDING, GM","FM-15","ETSE ","V020","100,1,N,0031,1","00150,1,C,N","005000,1,N,1","+0130,1","+0120,1","99999,9","07,5,+00150,1,99,9",,,"07,99,1,99,9,99,9,99999,9,99,9,99,9","10149,1,99999,9","10,1",,,,"MET072METAR ETSE 061020Z 10006KT 5000 BR BKN005 13/12 Q1015 YLO YLO BECMG GRN;",
"10869099999","2010-10-06T11:20:00","4","48.322333","11.948667","461.77","ERDING, GM","FM-15","ETSE ","V020","090,1,N,0036,1","00210,1,C,N","006000,1,N,1","+0140,1","+0120,1","99999,9","07,5,+00210,1,99,9",,,"07,99,1,99,9,99,9,99999,9,99,9,99,9","10149,1,99999,9",,,,,"MET059METAR ETSE 061120Z 09007KT 6000 BKN007 14/12 Q1015 GRN GRN;",
"10869099999","2010-10-06T12:20:00","4","48.322333","11.948667","461.77","ERDING, GM","FM-15","ETSE ","V020","090,1,N,0026,1","00300,1,C,N","008000,1,N,1","+0140,1","+0130,1","99999,9","07,5,+00300,1,99,9",,,"07,99,1,99,9,99,9,99999,9,99,9,99,9","10149,1,99999,9",,,,,"MET059METAR ETSE 061220Z 09005KT 8000 BKN010 14/13 Q1015 GRN GRN;",
"10869099999","2010-10-06T13:20:00","4","48.322333","11.948667","461.77","ERDING, GM","FM-15","ETSE ","V020","080,1,N,0036,1","00300,1,C,N","008000,1,N,1","+0140,1","+0130,1","99999,9","07,5,+00300,1,99,9",,,"07,99,1,99,9,99,9,99999,9,99,9,99,9","10149,1,99999,9",,,,,"MET067METAR ETSE 061320Z 08007KT 8000 BKN010 14/13 Q1015 GRN FCST CANCEL;",
"10869099999","2010-10-07T05:20:00","4","48.322333","11.948667","461.77","ERDING, GM","FM-15","ETSE ","V020","090,1,N,0026,1","00120,1,C,N","001600,1,N,1","+0110,1","+0110,1","99999,9","04,5,+00060,1,99,9","08,5,+00120,1,99,9",,"08,99,1,99,9,99,9,99999,9,99,9,99,9","10210,1,99999,9","10,1","51,1",,,"MET083METAR ETSE 070520Z 09005KT 1600 -DZ BR SCT002 OVC004 11/11 Q1021 YLO YLO TEMPO AMB;",
"10869099999","2010-10-07T06:20:00","4","48.322333","11.948667","461.77","ERDING, GM","FM-15","ETSE ","V020","120,1,N,0015,1","00120,1,C,N","003800,1,N,1","+0110,1","+0110,1","99999,9","02,5,+00060,1,99,9","04,5,+00120,1,99,9","08,5,+00240,1,99,9","08,99,1,99,9,99,9,99999,9,99,9,99,9","10210,1,99999,9","10,1","51,1",,,"MET090METAR ETSE 070620Z 12003KT 3800 -DZ BR FEW002 SCT004 OVC008 11/11 Q1021 GRN YLO TEMPO GRN;",
"10869099999","2010-10-07T06:41:00","4","48.322333","11.948667","461.77","ERDING, GM","FM-16","ETSE ","V020","120,1,N,0015,1","00300,1,C,N","006000,1,N,1","+0110,1","+0110,1","99999,9","04,5,+00120,1,99,9","08,5,+00300,1,99,9",,"08,99,1,99,9,99,9,99999,9,99,9,99,9","10210,1,99999,9","51,1",,,,"MET080SPECI ETSE 070641Z 12003KT 6000 -DZ SCT004 OVC010 11/11 Q1021 GRN YLO TEMPO GRN;",
"10869099999","2010-10-07T07:20:00","4","48.322333","11.948667","461.77","ERDING, GM","FM-15","ETSE ","V020","090,1,N,0021,1","00330,1,C,N","008000,1,N,1","+0120,1","+0110,1","99999,9","04,5,+00150,1,99,9","08,5,+00330,1,99,9",,"08,99,1,99,9,99,9,99999,9,99,9,99,9","10220,1,99999,9","51,1",,,,"MET080METAR ETSE 070720Z 09004KT 8000 -DZ SCT005 OVC011 12/11 Q1022 GRN YLO TEMPO GRN;",
"10869099999","2010-10-07T08:20:00","4","48.322333","11.948667","461.77","ERDING, GM","FM-15","ETSE ","V020","080,1,N,0036,1","00270,1,C,N","011265,1,N,1","+0120,1","+0110,1","99999,9","02,5,+00180,1,99,9","08,5,+00270,1,99,9",,"08,99,1,99,9,99,9,99999,9,99,9,99,9","10220,1,99999,9",,,,,"MET076METAR ETSE 070820Z 08007KT 9999 FEW006 OVC009 12/11 Q1022 GRN YLO TEMPO GRN;",
"10869099999","2010-10-07T09:20:00","4","48.322333","11.948667","461.77","ERDING, GM","FM-15","ETSE ","V020","080,1,N,0026,1","00270,1,C,N","011265,1,N,1","+0130,1","+0110,1","99999,9","07,5,+00270,1,99,9",,,"07,99,1,99,9,99,9,99999,9,99,9,99,9","10220,1,99999,9",,,,,"MET059METAR ETSE 070920Z 08005KT 9999 BKN009 13/11 Q1022 GRN GRN;",
"10869099999","2010-10-07T10:20:00","4","48.322333","11.948667","461.77","ERDING, GM","FM-15","ETSE ","V020","090,1,N,0015,1","00240,1,C,N","011265,1,N,1","+0130,1","+0110,1","99999,9","07,5,+00240,1,99,9",,,"07,99,1,99,9,99,9,99999,9,99,9,99,9","10220,1,99999,9",,,,,"MET059METAR ETSE 071020Z 09003KT 9999 BKN008 13/11 Q1022 GRN GRN;",
"10869099999","2010-10-07T11:20:00","4","48.322333","11.948667","461.77","ERDING, GM","FM-15","ETSE ","V020","050,1,N,0031,1","00240,1,C,N","011265,1,N,1","+0130,1","+0120,1","99999,9","07,5,+00240,1,99,9",,,"07,99,1,99,9,99,9,99999,9,99,9,99,9","10210,1,99999,9",,,,,"MET059METAR ETSE 071120Z 05006KT 9999 BKN008 13/12 Q1021 GRN GRN;",
"10869099999","2010-10-07T12:20:00","4","48.322333","11.948667","461.77","ERDING, GM","FM-15","ETSE ","V020","060,1,N,0031,1","00300,1,C,N","011265,1,N,1","+0140,1","+0120,1","99999,9","04,5,+00240,1,99,9","08,5,+00300,1,99,9",,"08,99,1,99,9,99,9,99999,9,99,9,99,9","10210,1,99999,9",,,,,"MET066METAR ETSE 071220Z 06006KT 9999 SCT008 OVC010 14/12 Q1021 GRN GRN;",
"10869099999","2010-10-07T13:20:00","4","48.322333","11.948667","461.77","ERDING, GM","FM-15","ETSE ","V020","090,1,N,0026,1","00300,1,C,N","011265,1,N,1","+0140,1","+0120,1","99999,9","08,5,+00300,1,99,9",,,"08,99,1,99,9,99,9,99999,9,99,9,99,9","10210,1,99999,9",,,,,"MET059METAR ETSE 071320Z 09005KT 9999 OVC010 14/12 Q1021 GRN GRN;",
"10869099999","2010-10-07T14:20:00","4","48.322333","11.948667","461.77","ERDING, GM","FM-15","ETSE ","V020","090,1,N,0026,1","00300,1,C,N","011265,1,N,1","+0140,1","+0120,1","99999,9","08,5,+00300,1,99,9",,,"08,99,1,99,9,99,9,99999,9,99,9,99,9","10210,1,99999,9",,,,,"MET067METAR ETSE 071420Z 09005KT 9999 OVC010 14/12 Q1021 GRN FCST CANCEL;",
"10869099999","2010-10-08T05:20:00","4","48.322333","11.948667","461.77","ERDING, GM","FM-15","ETSE ","V020","090,1,N,0026,1","00150,1,C,N","005000,1,N,1","+0100,1","+0090,1","99999,9","07,5,+00150,1,99,9","08,5,+00240,1,99,9",,"08,99,1,99,9,99,9,99999,9,99,9,99,9","10200,1,99999,9","10,1","51,1",,,"MET073METAR ETSE 080520Z 09005KT 5000 -DZ BR BKN005 OVC008 10/09 Q1020 YLO YLO;",
"10869099999","2010-10-08T06:20:00","4","48.322333","11.948667","461.77","ERDING, GM","FM-15","ETSE ","V020","100,1,N,0031,1","00150,1,C,N","006000,1,N,1","+0100,1","+0090,1","99999,9","07,5,+00150,1,99,9","08,5,+00240,1,99,9",,"08,99,1,99,9,99,9,99999,9,99,9,99,9","10200,1,99999,9","51,1",,,,"MET070METAR ETSE 080620Z 10006KT 6000 -DZ BKN005 OVC008 10/09 Q1020 YLO YLO;",
"10869099999","2010-10-08T07:20:00","4","48.322333","11.948667","461.77","ERDING, GM","FM-15","ETSE ","V020","090,1,N,0036,1","00150,1,C,N","007000,1,N,1","+0100,1","+0090,1","99999,9","08,5,+00150,1,99,9",,,"08,99,1,99,9,99,9,99999,9,99,9,99,9","10200,1,99999,9","51,1",,,,"MET063METAR ETSE 080720Z 09007KT 7000 -DZ OVC005 10/09 Q1020 YLO YLO;",
"10869099999","2010-10-08T08:00:00","4","48.322333","11.948667","461.77","ERDING, GM","FM-15","ETSE ","V020","100,1,N,0026,1","00150,1,C,N","007000,1,N,1","+0100,1","+0090,1","99999,9","08,5,+00150,1,99,9",,,"08,99,1,99,9,99,9,99999,9,99,9,99,9","10210,1,99999,9","51,1",,,,"MET071SPECI ETSE 080755Z 10005KT 7000 -DZ OVC005 10/09 Q1021 YLO FCST CANCEL;",
"10869099999","2010-10-11T05:20:00","4","48.322333","11.948667","461.77","ERDING, GM","FM-15","ETSE ","V020","080,1,N,0041,1","22000,1,9,N","011265,1,N,1","+0050,1","+0010,1","99999,9","02,5,+09000,1,99,9",,,"02,99,1,99,9,99,9,99999,9,99,9,99,9","10102,1,99999,9",,,,,"MET060METAR ETSE 110520Z 08008KT 9999 FEW300 05/01 Q1010 BLU/BLU/;",
"10869099999","2010-10-11T06:20:00","4","48.322333","11.948667","461.77","ERDING, GM","FM-15","ETSE ","V020","090,1,N,0031,1","22000,1,9,N","011265,1,N,1","+0060,1","+0020,1","99999,9","02,5,+09000,1,99,9",,,"02,99,1,99,9,99,9,99999,9,99,9,99,9","10108,1,99999,9",,,,,"MET060METAR ETSE 110620Z 09006KT 9999 FEW300 06/02 Q1011 BLU/BLU/;",
"10869099999","2010-10-11T07:20:00","4","48.322333","11.948667","461.77","ERDING, GM","FM-15","ETSE ","V020","080,1,N,0041,1","22000,1,9,N","011265,1,N,1","+0070,1","+0020,1","99999,9","02,5,+09000,1,99,9",,,"02,99,1,99,9,99,9,99999,9,99,9,99,9","10108,1,99999,9",,,,,"MET060METAR ETSE 110720Z 08008KT 9999 FEW300 07/02 Q1011 BLU/BLU/;",
"10869099999","2010-10-11T08:20:00","4","48.322333","11.948667","461.77","ERDING, GM","FM-15","ETSE ","V020","090,1,N,0051,1","22000,1,9,N","011265,1,N,1","+0090,1","+0030,1","99999,9","02,5,+09000,1,99,9",,,"02,99,1,99,9,99,9,99999,9,99,9,99,9","10108,1,99999,9",,,,,"MET060METAR ETSE 110820Z 09010KT 9999 FEW300 09/03 Q1011 BLU/BLU/;",
"10869099999","2010-10-11T09:20:00","4","48.322333","11.948667","461.77","ERDING, GM","FM-15","ETSE ","V020","080,1,N,0057,1","22000,1,9,N","011265,1,N,1","+0110,1","+0030,1","99999,9","02,5,+08400,1,99,9",,,"02,99,1,99,9,99,9,99999,9,99,9,99,9","10108,1,99999,9",,,,,"MET060METAR ETSE 110920Z 08011KT 9999 FEW280 11/03 Q1011 BLU/BLU/;",
"10869099999","2010-10-11T10:20:00","4","48.322333","11.948667","461.77","ERDING, GM","FM-15","ETSE ","V020","090,1,N,0051,1","22000,1,9,N","011265,1,N,1","+0130,1","+0040,1","99999,9","02,5,+08400,1,99,9",,,"02,99,1,99,9,99,9,99999,9,99,9,99,9","10108,1,99999,9",,,,,"MET060METAR ETSE 111020Z 09010KT 9999 FEW280 13/04 Q1011 BLU/BLU/;",
"10869099999","2010-10-11T11:20:00","4","48.322333","11.948667","461.77","ERDING, GM","FM-15","ETSE ","V020","080,1,N,0077,1","22000,1,9,N","011265,1,N,1","+0140,1","+0030,1","99999,9","02,5,+08400,1,99,9",,,"02,99,1,99,9,99,9,99999,9,99,9,99,9","10108,1,99999,9",,,,,"MET060METAR ETSE 111120Z 08015KT 9999 FEW280 14/03 Q1011 BLU/BLU/;",
"10869099999","2010-10-11T12:20:00","4","48.322333","11.948667","461.77","ERDING, GM","FM-15","ETSE ","V020","080,1,N,0067,1","22000,1,9,N","011265,1,N,1","+0150,1","+0030,1","99999,9","02,5,+08400,1,99,9",,,"02,99,1,99,9,99,9,99999,9,99,9,99,9","10108,1,99999,9",,,,,"MET060METAR ETSE 111220Z 08013KT 9999 FEW280 15/03 Q1011 BLU/BLU/;",
"10869099999","2010-10-11T13:20:00","4","48.322333","11.948667","461.77","ERDING, GM","FM-15","ETSE ","V020","090,1,N,0067,1","22000,1,9,N","011265,1,N,1","+0160,1","+0030,1","99999,9","02,5,+08400,1,99,9",,,"02,99,1,99,9,99,9,99999,9,99,9,99,9","10108,1,99999,9",,,,,"MET067METAR ETSE 111320Z 09013KT 9999 FEW280 16/03 Q1011 BLU/FCST CANCEL;",
"10869099999","2010-10-12T05:20:00","4","48.322333","11.948667","461.77","ERDING, GM","FM-15","ETSE ","V020","999,9,C,0000,1","22000,1,9,N","011265,1,N,1","+0010,1","+0010,1","99999,9",,,,,"10139,1,99999,9","12,1",,,,"MET058METAR ETSE 120520Z 00000KT 9999 MIFG 01/01 Q1014 BLU/BLU/;",
"10869099999","2010-10-12T06:20:00","4","48.322333","11.948667","461.77","ERDING, GM","FM-15","ETSE ","V020","999,9,V,0005,1","22000,1,9,N","011265,1,N,1","+0020,1","+0010,1","99999,9",,,,,"10139,1,99999,9",,,,,"MET053METAR ETSE 120620Z VRB01KT 9999 02/01 Q1014 BLU/BLU/;",
"10869099999","2010-10-12T07:20:00","4","48.322333","11.948667","461.77","ERDING, GM","FM-15","ETSE ","V020","999,9,V,0005,1","22000,1,9,N","011265,1,N,1","+0060,1","+0030,1","99999,9",,,,,"10149,1,99999,9",,,,,"MET053METAR ETSE 120720Z VRB01KT 9999 06/03 Q1015 BLU/BLU/;",
"10869099999","2010-10-12T08:20:00","4","48.322333","11.948667","461.77","ERDING, GM","FM-15","ETSE ","V020","090,1,N,0010,1","22000,1,9,N","011265,1,N,1","+0080,1","+0040,1","99999,9",,,,,"10149,1,99999,9",,,,,"MET053METAR ETSE 120820Z 09002KT 9999 08/04 Q1015 BLU/BLU/;",
"10869099999","2010-10-12T09:20:00","4","48.322333","11.948667","461.77","ERDING, GM","FM-15","ETSE ","V020","050,1,N,0021,1","22000,1,9,N","011265,1,N,1","+0100,1","+0050,1","99999,9",,,,,"10139,1,99999,9",,,,,"MET053METAR ETSE 120920Z 05004KT 9999 10/05 Q1014 BLU/BLU/;",
"10869099999","2010-10-12T10:20:00","4","48.322333","11.948667","461.77","ERDING, GM","FM-15","ETSE ","V020","100,1,N,0031,1","22000,1,9,N","011265,1,N,1","+0110,1","+0060,1","99999,9",,,,,"10139,1,99999,9",,,,,"MET053METAR ETSE 121020Z 10006KT 9999 11/06 Q1014 BLU/BLU/;",
"10869099999","2010-10-12T11:20:00","4","48.322333","11.948667","461.77","ERDING, GM","FM-15","ETSE ","V020","100,1,N,0026,1","22000,1,9,N","011265,1,N,1","+0120,1","+0060,1","99999,9",,,,,"10129,1,99999,9",,,,,"MET053METAR ETSE 121120Z 10005KT 9999 12/06 Q1013 BLU/BLU/;",
"10869099999","2010-10-12T12:20:00","4","48.322333","11.948667","461.77","ERDING, GM","FM-15","ETSE ","V020","080,1,N,0031,1","22000,1,9,N","011265,1,N,1","+0140,1","+0070,1","99999,9",,,,,"10129,1,99999,9",,,,,"MET053METAR ETSE 121220Z 08006KT 9999 14/07 Q1013 BLU/BLU/;",
"10869099999","2010-10-12T13:20:00","4","48.322333","11.948667","461.77","ERDING, GM","FM-15","ETSE ","V020","080,1,N,0036,1","22000,1,9,N","011265,1,N,1","+0140,1","+0060,1","99999,9",,,,,"10119,1,99999,9",,,,,"MET053METAR ETSE 121320Z 08007KT 9999 14/06 Q1012 BLU/BLU/;",
"10869099999","2010-10-12T14:20:00","4","48.322333","11.948667","461.77","ERDING, GM","FM-15","ETSE ","V020","070,1,N,0041,1","22000,1,9,N","011265,1,N,1","+0140,1","+0060,1","99999,9",,,,,"10119,1,99999,9",,,,,"MET060METAR ETSE 121420Z 07008KT 9999 14/06 Q1012 BLU/FCST CANCEL;",
"10869099999","2010-10-13T05:20:00","4","48.322333","11.948667","461.77","ERDING, GM","FM-15","ETSE ","V020","110,1,N,0005,1","22000,1,9,N","000050,1,N,1","+0010,1","+0010,1","99999,9",,,,,"10119,1,99999,9","44,1",,,,"MET055METAR ETSE 130520Z 11001KT 0050 FG 01/01 Q1012 RED RED;",
"10869099999","2010-10-13T06:20:00","4","48.322333","11.948667","461.77","ERDING, GM","FM-15","ETSE ","V020","999,9,V,0010,1","00150,1,C,N","000600,1,N,1","+0020,1","+0020,1","99999,9","07,5,+00150,1,99,9",,,"07,99,1,99,9,99,9,99999,9,99,9,99,9","10129,1,99999,9","44,1",,,,"MET072METAR ETSE 130620Z VRB02KT 0600 FG BKN005 02/02 Q1013 RED RED BECMG AMB;",
"10869099999","2010-10-13T06:33:00","4","48.322333","11.948667","461.77","ERDING, GM","FM-16","ETSE ","V020","999,9,V,0005,1","00120,1,C,N","001000,1,N,1","+0020,1","+0020,1","99999,9","07,5,+00120,1,99,9",,,"07,99,1,99,9,99,9,99999,9,99,9,99,9","10129,1,99999,9","10,1",,,,"MET072SPECI ETSE 130633Z VRB01KT 1000 BR BKN004 02/02 Q1013 AMB RED BECMG YLO;",
"10869099999","2010-10-13T06:47:00","4","48.322333","11.948667","461.77","ERDING, GM","FM-16","ETSE ","V020","999,9,V,0005,1","00120,1,C,N","001800,1,N,1","+0030,1","+0030,1","99999,9","07,5,+00120,1,99,9",,,"07,99,1,99,9,99,9,99999,9,99,9,99,9","10129,1,99999,9","10,1",,,,"MET062SPECI ETSE 130647Z VRB01KT 1800 BR BKN004 03/03 Q1013 YLO YLO;",
"10869099999","2010-10-13T07:06:00","4","48.322333","11.948667","461.77","ERDING, GM","FM-16","ETSE ","V020","030,1,N,0021,1","00120,1,C,N","003000,1,N,1","+0050,1","+0050,1","99999,9","08,5,+00120,1,99,9",,,"08,99,1,99,9,99,9,99999,9,99,9,99,9","10129,1,99999,9","10,1",,,,"MET062SPECI ETSE 130706Z 03004KT 3000 BR OVC004 05/05 Q1013 YLO YLO;",
"10869099999","2010-10-13T07:20:00","4","48.322333","11.948667","461.77","ERDING, GM","FM-15","ETSE ","V020","040,1,N,0026,1","00120,1,C,N","003000,1,N,1","+0050,1","+0050,1","99999,9","08,5,+00120,1,99,9",,,"08,99,1,99,9,99,9,99999,9,99,9,99,9","10129,1,99999,9","10,1",,,,"MET062METAR ETSE 130720Z 04005KT 3000 BR OVC004 05/05 Q1013 YLO YLO;",
"10869099999","2010-10-13T07:52:00","4","48.322333","11.948667","461.77","ERDING, GM","FM-16","ETSE ","V020","080,1,N,0021,1","00150,1,C,N","004000,1,N,1","+0060,1","+0060,1","99999,9","07,5,+00150,1,99,9","07,5,+00390,1,99,9",,"07,99,1,99,9,99,9,99999,9,99,9,99,9","10129,1,99999,9","10,1",,,,"MET079SPECI ETSE 130752Z 08004KT 4000 BR BKN005 BKN013 06/06 Q1013 YLO YLO BECMG GRN;",
"10869099999","2010-10-13T08:20:00","4","48.322333","11.948667","461.77","ERDING, GM","FM-15","ETSE ","V020","080,1,N,0026,1","00210,1,C,N","004500,1,N,1","+0070,1","+0060,1","99999,9","07,5,+00210,1,99,9","04,5,+00390,1,99,9",,,"10129,1,99999,9","10,1",,,,"MET069METAR ETSE 130820Z 08005KT 4500 BR BKN007 SCT013 07/06 Q1013 GRN GRN;","Q01+000042SCOTCV"
"10869099999","2010-10-13T08:53:00","4","48.322333","11.948667","461.77","ERDING, GM","FM-16","ETSE ","V020","110,1,N,0041,1","00300,1,C,N","007000,1,N,1","+0070,1","+0060,1","99999,9","07,5,+00300,1,99,9",,,"07,99,1,99,9,99,9,99999,9,99,9,99,9","10139,1,99999,9",,,,,"MET069SPECI ETSE 130853Z 11008KT 7000 BKN010 07/06 Q1014 GRN GRN BECMG WHT;",
"10869099999","2010-10-13T09:20:00","4","48.322333","11.948667","461.77","ERDING, GM","FM-15","ETSE ","V020","110,1,N,0041,1","00330,1,C,N","008000,1,N,1","+0070,1","+0060,1","99999,9","07,5,+00330,1,99,9",,,"07,99,1,99,9,99,9,99999,9,99,9,99,9","10139,1,99999,9",,,,,"MET069METAR ETSE 130920Z 11008KT 8000 BKN011 07/06 Q1014 GRN GRN BECMG WHT;",
"10869099999","2010-10-13T10:20:00","4","48.322333","11.948667","461.77","ERDING, GM","FM-15","ETSE ","V020","110,1,N,0046,1","00360,1,C,N","009000,1,N,1","+0080,1","+0060,1","99999,9","07,5,+00360,1,99,9",,,"07,99,1,99,9,99,9,99999,9,99,9,99,9","10139,1,99999,9",,,,,"MET059METAR ETSE 131020Z 11009KT 9000 BKN012 08/06 Q1014 GRN GRN;",
"10869099999","2010-10-13T11:20:00","4","48.322333","11.948667","461.77","ERDING, GM","FM-15","ETSE ","V020","100,1,N,0036,1","00420,1,C,N","011265,1,N,1","+0080,1","+0060,1","99999,9","07,5,+00420,1,99,9",,,"07,99,1,99,9,99,9,99999,9,99,9,99,9","10129,1,99999,9",,,,,"MET070METAR ETSE 131120Z 10007KT 9999 BKN014 08/06 Q1013 GRN GRN TEMPO BLU/;",
"10869099999","2010-10-13T11:50:00","4","48.322333","11.948667","461.77","ERDING, GM","FM-16","ETSE ","V020","100,1,N,0041,1","00450,1,C,N","011265,1,N,1","+0090,1","+0060,1","99999,9","07,5,+00450,1,99,9",,,"07,99,1,99,9,99,9,99999,9,99,9,99,9","10129,1,99999,9",,,,,"MET070SPECI ETSE 131150Z 10008KT 9999 BKN015 09/06 Q1013 WHT GRN TEMPO BLU/;",
"10869099999","2010-10-13T12:20:00","4","48.322333","11.948667","461.77","ERDING, GM","FM-15","ETSE ","V020","100,1,N,0031,1","00540,1,C,N","011265,1,N,1","+0100,1","+0060,1","99999,9","07,5,+00540,1,99,9",,,"07,99,1,99,9,99,9,99999,9,99,9,99,9","10129,1,99999,9",,,,,"MET070METAR ETSE 131220Z 10006KT 9999 BKN018 10/06 Q1013 WHT GRN TEMPO BLU/;",
"10869099999","2010-10-13T13:20:00","4","48.322333","11.948667","461.77","ERDING, GM","FM-15","ETSE ","V020","130,1,N,0026,1","00750,1,C,N","011265,1,N,1","+0100,1","+0060,1","99999,9","02,5,+00450,1,99,9","07,5,+00750,1,99,9",,"07,99,1,99,9,99,9,99999,9,99,9,99,9","10129,1,99999,9",,,,,"MET067METAR ETSE 131320Z 13005KT 9999 FEW015 BKN025 10/06 Q1013 BLU BLU/;",
"10869099999","2010-10-13T14:00:00","4","48.322333","11.948667","461.77","ERDING, GM","FM-16","ETSE ","V020","110,1,N,0026,1","99999,9,C,N","011265,1,N,1","+0100,1","+0060,1","99999,9","02,5,+00450,1,99,9","04,5,+08100,1,99,9",,"04,99,1,99,9,99,9,99999,9,99,9,99,9","10119,1,99999,9",,,,,"MET074SPECI ETSE 131400Z 11005KT 9999 FEW015 SCT270 10/06 Q1012 BLU/FCST CANCEL;","P01 081003SCOCIG"
"10869099999","2010-10-14T05:20:00","4","48.322333","11.948667","461.77","ERDING, GM","FM-15","ETSE ","V020","010,1,N,0005,1","00600,1,C,N","003000,1,N,1","+0060,1","+0060,1","99999,9","07,5,+00600,1,99,9",,,"07,99,1,99,9,99,9,99999,9,99,9,99,9","10129,1,99999,9","10,1",,,,"MET062METAR ETSE 140520Z 01001KT 3000 BR BKN020 06/06 Q1013 YLO YLO;",
"10869099999","2010-10-14T06:08:00","4","48.322333","11.948667","461.77","ERDING, GM","FM-16","ETSE ","V020","030,1,N,0010,1","00630,1,C,N","002200,1,N,1","+0060,1","+0060,1","99999,9","07,5,+00630,1,99,9",,,"07,99,1,99,9,99,9,99999,9,99,9,99,9","10129,1,99999,9","10,1",,,,"MET062SPECI ETSE 140608Z 03002KT 2200 BR BKN021 06/06 Q1013 YLO YLO;",
"10869099999","2010-10-14T06:20:00","4","48.322333","11.948667","461.77","ERDING, GM","FM-15","ETSE ","V020","360,1,N,0015,1","00630,1,C,N","001800,1,N,1","+0060,1","+0060,1","99999,9","07,5,+00630,1,99,9",,,"07,99,1,99,9,99,9,99999,9,99,9,99,9","10129,1,99999,9","10,1",,,,"MET062METAR ETSE 140620Z 36003KT 1800 BR BKN021 06/06 Q1013 YLO YLO;",
"10869099999","2010-10-14T07:20:00","4","48.322333","11.948667","461.77","ERDING, GM","FM-15","ETSE ","V020","110,1,N,0005,1","00660,1,C,N","002000,1,N,1","+0060,1","+0050,1","99999,9","08,5,+00660,1,99,9",,,"08,99,1,99,9,99,9,99999,9,99,9,99,9","10139,1,99999,9","10,1",,,,"MET062METAR ETSE 140720Z 11001KT 2000 BR OVC022 06/05 Q1014 YLO YLO;",
"10869099999","2010-10-14T08:20:00","4","48.322333","11.948667","461.77","ERDING, GM","FM-15","ETSE ","V020","030,1,N,0010,1","00660,1,C,N","003000,1,N,1","+0070,1","+0060,1","99999,9","08,5,+00660,1,99,9",,,"08,99,1,99,9,99,9,99999,9,99,9,99,9","10139,1,99999,9","10,1",,,,"MET072METAR ETSE 140820Z 03002KT 3000 BR OVC022 07/06 Q1014 YLO YLO BECMG GRN;",
"10869099999","2010-10-14T09:00:00","4","48.322333","11.948667","461.77","ERDING, GM","FM-15","ETSE ","V020","020,1,N,0015,1","00660,1,C,N","003700,1,N,1","+0080,1","+0060,1","99999,9","08,5,+00660,1,99,9",,,"08,99,1,99,9,99,9,99999,9,99,9,99,9","10139,1,99999,9","10,1",,,,"MET072SPECI ETSE 140858Z 02003KT 3700 BR OVC022 08/06 Q1014 GRN GRN BECMG WHT;",
"10869099999","2010-10-14T09:20:00","4","48.322333","11.948667","461.77","ERDING, GM","FM-15","ETSE ","V020","350,1,N,0021,1","00660,1,C,N","003700,1,N,1","+0080,1","+0060,1","99999,9","08,5,+00660,1,99,9",,,"08,99,1,99,9,99,9,99999,9,99,9,99,9","10139,1,99999,9","10,1",,,,"MET072METAR ETSE 140920Z 35004KT 3700 BR OVC022 08/06 Q1014 GRN GRN BECMG WHT;",
"10869099999","2010-10-14T10:20:00","4","48.322333","11.948667","461.77","ERDING, GM","FM-15","ETSE ","V020","010,1,N,0015,1","00690,1,C,N","003700,1,N,1","+0080,1","+0060,1","99999,9","02,5,+00180,1,99,9","08,5,+00690,1,99,9",,"08,99,1,99,9,99,9,99999,9,99,9,99,9","10139,1,99999,9","10,1",,,,"MET079METAR ETSE 141020Z 01003KT 3700 BR FEW006 OVC023 08/06 Q1014 GRN GRN BECMG WHT;",
"10869099999","2010-10-14T11:20:00","4","48.322333","11.948667","461.77","ERDING, GM","FM-15","ETSE ","V020","999,9,V,0010,1","00750,1,C,N","004500,1,N,1","+0090,1","+0050,1","99999,9","02,5,+00210,1,99,9","08,5,+00750,1,99,9",,"08,99,1,99,9,99,9,99999,9,99,9,99,9","10139,1,99999,9","05,1",,,,"MET079METAR ETSE 141120Z VRB02KT 4500 HZ FEW007 OVC025 09/05 Q1014 GRN GRN BECMG WHT;",
"10869099999","2010-10-14T11:48:00","4","48.322333","11.948667","461.77","ERDING, GM","FM-16","ETSE ","V020","180,1,N,0015,1","00720,1,C,N","006000,1,N,1","+0100,1","+0050,1","99999,9","07,5,+00720,1,99,9",,,"07,99,1,99,9,99,9,99999,9,99,9,99,9","10139,1,99999,9",,,,,"MET069SPECI ETSE 141148Z 18003KT 6000 BKN024 10/05 Q1014 WHT WHT BECMG BLU;",
"10869099999","2010-10-14T12:20:00","4","48.322333","11.948667","461.77","ERDING, GM","FM-15","ETSE ","V020","100,1,N,0015,1","00690,1,C,N","008000,1,N,1","+0100,1","+0040,1","99999,9","07,5,+00690,1,99,9",,,"07,99,1,99,9,99,9,99999,9,99,9,99,9","10139,1,99999,9",,,,,"MET069METAR ETSE 141220Z 10003KT 8000 BKN023 10/04 Q1014 WHT WHT BECMG BLU;",
"10869099999","2010-10-14T13:20:00","4","48.322333","11.948667","461.77","ERDING, GM","FM-15","ETSE ","V020","999,9,V,0010,1","00750,1,C,N","011265,1,N,1","+0100,1","+0040,1","99999,9","07,5,+00750,1,99,9",,,"07,99,1,99,9,99,9,99999,9,99,9,99,9","10139,1,99999,9",,,,,"MET059METAR ETSE 141320Z VRB02KT 9999 BKN025 10/04 Q1014 BLU BLU;",
"10869099999","2010-10-14T14:20:00","4","48.322333","11.948667","461.77","ERDING, GM","FM-15","ETSE ","V020","999,9,V,0010,1","00840,1,C,N","009000,1,N,1","+0100,1","+0040,1","99999,9","07,5,+00840,1,99,9",,,"07,99,1,99,9,99,9,99999,9,99,9,99,9","10139,1,99999,9",,,,,"MET067METAR ETSE 141420Z VRB02KT 9000 BKN028 10/04 Q1014 BLU FCST CANCEL;",
"10869099999","2010-10-15T05:20:00","4","48.322333","11.948667","461.77","ERDING, GM","FM-15","ETSE ","V020","330,1,N,0015,1","00090,1,C,N","000800,1,N,1","+0050,1","+0040,1","99999,9","08,5,+00090,1,99,9",,,"08,99,1,99,9,99,9,99999,9,99,9,99,9","10129,1,99999,9","44,1",,,,"MET072METAR ETSE 150520Z 33003KT 0800 FG OVC003 05/04 Q1013 AMB YLO TEMPO RED;",
"10869099999","2010-10-15T06:07:00","4","48.322333","11.948667","461.77","ERDING, GM","FM-16","ETSE ","V020","310,1,N,0015,1","00030,1,C,N","000600,1,N,1","+0050,1","+0050,1","99999,9","08,5,+00030,1,99,9",,,"08,99,1,99,9,99,9,99999,9,99,9,99,9","10139,1,99999,9","44,1",,,,"MET072SPECI ETSE 150607Z 31003KT 0600 FG OVC001 05/05 Q1014 RED YLO TEMPO RED;",
"10869099999","2010-10-15T06:20:00","4","48.322333","11.948667","461.77","ERDING, GM","FM-15","ETSE ","V020","300,1,N,0021,1","00030,1,C,N","000700,1,N,1","+0050,1","+0050,1","99999,9","08,5,+00030,1,99,9",,,"08,99,1,99,9,99,9,99999,9,99,9,99,9","10139,1,99999,9","44,1",,,,"MET072METAR ETSE 150620Z 30004KT 0700 FG OVC001 05/05 Q1014 RED YLO TEMPO RED;",
"10869099999","2010-10-15T06:54:00","4","48.322333","11.948667","461.77","ERDING, GM","FM-16","ETSE ","V020","360,1,N,0021,1","00060,1,C,N","000800,1,N,1","+0050,1","+0050,1","99999,9","08,5,+00060,1,99,9",,,"08,99,1,99,9,99,9,99999,9,99,9,99,9","10139,1,99999,9","44,1",,,,"MET072SPECI ETSE 150654Z 36004KT 0800 FG OVC002 05/05 Q1014 AMB YLO TEMPO RED;",
"10869099999","2010-10-15T07:12:00","4","48.322333","11.948667","461.77","ERDING, GM","FM-16","ETSE ","V020","330,1,N,0015,1","00030,1,C,N","000600,1,N,1","+0050,1","+0050,1","99999,9","08,5,+00030,1,99,9",,,"08,99,1,99,9,99,9,99999,9,99,9,99,9","10139,1,99999,9","44,1",,,,"MET072SPECI ETSE 150712Z 33003KT 0600 FG OVC001 05/05 Q1014 RED YLO TEMPO RED;",
"10869099999","2010-10-15T07:20:00","4","48.322333","11.948667","461.77","ERDING, GM","FM-15","ETSE ","V020","340,1,N,0021,1","00030,1,C,N","000600,1,N,1","+0050,1","+0050,1","99999,9","08,5,+00030,1,99,9",,,"08,99,1,99,9,99,9,99999,9,99,9,99,9","10139,1,99999,9","44,1",,,,"MET072METAR ETSE 150720Z 34004KT 0600 FG OVC001 05/05 Q1014 RED YLO TEMPO RED;",
"10869099999","2010-10-15T07:33:00","4","48.322333","11.948667","461.77","ERDING, GM","FM-16","ETSE ","V020","330,1,N,0021,1","00060,1,C,N","000900,1,N,1","+0050,1","+0050,1","99999,9","08,5,+00060,1,99,9",,,"08,99,1,99,9,99,9,99999,9,99,9,99,9","10139,1,99999,9","44,1",,,,"MET072SPECI ETSE 150733Z 33004KT 0900 FG OVC002 05/05 Q1014 AMB YLO TEMPO RED;",
"10869099999","2010-10-15T07:45:00","4","48.322333","11.948667","461.77","ERDING, GM","FM-16","ETSE ","V020","330,1,N,0015,1","00060,1,C,N","000900,1,N,1","+0050,1","+0050,1","99999,9","08,5,+00060,1,99,9",,,"08,99,1,99,9,99,9,99999,9,99,9,99,9","10139,1,99999,9","44,1",,,,"MET072SPECI ETSE 150745Z 33003KT 0900 FG OVC002 05/05 Q1014 AMB YLO TEMPO RED;",
"10869099999","2010-10-18T05:20:00","4","48.322333","11.948667","461.77","ERDING, GM","FM-15","ETSE ","V020","360,1,N,0021,1","00270,1,C,N","003000,1,N,1","+0050,1","+0050,1","99999,9","02,5,+00120,1,99,9","04,5,+00270,1,99,9","08,5,+00510,1,99,9","08,99,1,99,9,99,9,99999,9,99,9,99,9","10180,1,99999,9","10,1","61,1",,,"MET090METAR ETSE 180520Z 36004KT 3000 -RA BR FEW004 SCT009 OVC017 05/05 Q1018 YLO YLO BECMG BLU;",
"10869099999","2010-10-18T06:00:00","4","48.322333","11.948667","461.77","ERDING, GM","FM-15","ETSE ","V020","350,1,N,0021,1","00330,1,C,N","003800,1,N,1","+0050,1","+0050,1","99999,9","02,5,+00090,1,99,9","04,5,+00330,1,99,9","08,5,+00510,1,99,9","08,99,1,99,9,99,9,99999,9,99,9,99,9","10180,1,99999,9","10,1","51,1","61,1",,"MET092SPECI ETSE 180559Z 35004KT 3800 -RADZ BR FEW003 SCT011 OVC017 05/05 Q1018 GRN YLO BECMG BLU;",
"10869099999","2010-10-18T06:20:00","4","48.322333","11.948667","461.77","ERDING, GM","FM-15","ETSE ","V020","360,1,N,0021,1","00330,1,C,N","004500,1,N,1","+0040,1","+0040,1","99999,9","02,5,+00090,1,99,9","04,5,+00330,1,99,9","08,5,+00510,1,99,9","08,99,1,99,9,99,9,99999,9,99,9,99,9","10190,1,99999,9","10,1","51,1","61,1",,"MET092METAR ETSE 180620Z 36004KT 4500 -RADZ BR FEW003 SCT011 OVC017 04/04 Q1019 GRN YLO BECMG BLU;",
"10869099999","2010-10-18T07:20:00","4","48.322333","11.948667","461.77","ERDING, GM","FM-15","ETSE ","V020","360,1,N,0015,1","00660,1,C,N","004000,1,N,1","+0050,1","+0040,1","99999,9","02,5,+00090,1,99,9","08,5,+00660,1,99,9",,"08,99,1,99,9,99,9,99999,9,99,9,99,9","10190,1,99999,9","10,1","51,1","61,1",,"MET085METAR ETSE 180720Z 36003KT 4000 -RADZ BR FEW003 OVC022 05/04 Q1019 GRN GRN BECMG WHT;",
"10869099999","2010-10-18T08:07:00","4","48.322333","11.948667","461.77","ERDING, GM","FM-16","ETSE ","V020","340,1,N,0010,1","00120,1,C,N","004000,1,N,1","+0050,1","+0040,1","99999,9","07,5,+00120,1,99,9","08,5,+00720,1,99,9",,"08,99,1,99,9,99,9,99999,9,99,9,99,9","10190,1,99999,9","10,1","51,1","61,1",,"MET085SPECI ETSE 180807Z 34002KT 4000 -RADZ BR BKN004 OVC024 05/04 Q1019 YLO YLO BECMG WHT;",
"10869099999","2010-10-18T08:20:00","4","48.322333","11.948667","461.77","ERDING, GM","FM-15","ETSE ","V020","340,1,N,0015,1","00120,1,C,N","004000,1,N,1","+0050,1","+0040,1","99999,9","07,5,+00120,1,99,9","08,5,+00720,1,99,9",,"08,99,1,99,9,99,9,99999,9,99,9,99,9","10190,1,99999,9","10,1","51,1","61,1",,"MET085METAR ETSE 180820Z 34003KT 4000 -DZRA BR BKN004 OVC024 05/04 Q1019 YLO YLO BECMG WHT;",
"10869099999","2010-10-18T09:20:00","4","48.322333","11.948667","461.77","ERDING, GM","FM-15","ETSE ","V020","340,1,N,0015,1","00210,1,C,N","005000,1,N,1","+0050,1","+0040,1","99999,9","04,5,+00120,1,99,9","07,5,+00210,1,99,9","08,5,+00720,1,99,9","08,99,1,99,9,99,9,99999,9,99,9,99,9","10200,1,99999,9","51,1",,,,"MET087METAR ETSE 180920Z 34003KT 5000 -DZ SCT004 BKN007 OVC024 05/04 Q1020 GRN GRN BECMG WHT;",
"10869099999","2010-10-18T10:20:00","4","48.322333","11.948667","461.77","ERDING, GM","FM-15","ETSE ","V020","340,1,N,0010,1","00240,1,C,N","007000,1,N,1","+0060,1","+0040,1","99999,9","04,5,+00150,1,99,9","07,5,+00240,1,99,9","07,5,+00780,1,99,9","07,99,1,99,9,99,9,99999,9,99,9,99,9","10200,1,99999,9","61,1",,,,"MET087METAR ETSE 181020Z 34002KT 7000 -RA SCT005 BKN008 BKN026 06/04 Q1020 GRN GRN BECMG WHT;",
"10869099999","2010-10-18T11:20:00","4","48.322333","11.948667","461.77","ERDING, GM","FM-15","ETSE ","V020","310,1,N,0021,1","00300,1,C,N","009000,1,N,1","+0060,1","+0040,1","99999,9","02,5,+00180,1,99,9","07,5,+00300,1,99,9","07,5,+00840,1,99,9","07,99,1,99,9,99,9,99999,9,99,9,99,9","10190,1,99999,9",,,,,"MET083METAR ETSE 181120Z 31004KT 9000 FEW006 BKN010 BKN028 06/04 Q1019 GRN GRN BECMG BLU;",
"10869099999","2010-10-18T12:20:00","4","48.322333","11.948667","461.77","ERDING, GM","FM-15","ETSE ","V020","310,1,N,0021,1","00240,1,C,N","009000,1,N,1","+0060,1","+0050,1","99999,9","02,5,+00180,1,99,9","07,5,+00240,1,99,9","07,5,+00900,1,99,9","07,99,1,99,9,99,9,99999,9,99,9,99,9","10190,1,99999,9",,,,,"MET083METAR ETSE 181220Z 31004KT 9000 FEW006 BKN008 BKN030 06/05 Q1019 GRN GRN BECMG BLU;",
"10869099999","2010-10-18T13:20:00","4","48.322333","11.948667","461.77","ERDING, GM","FM-15","ETSE ","V020","290,1,N,0021,1","00750,1,C,N","009000,1,N,1","+0070,1","+0050,1","99999,9","02,5,+00180,1,99,9","04,5,+00750,1,99,9","07,5,+01200,1,99,9","07,99,1,99,9,99,9,99999,9,99,9,99,9","10190,1,99999,9",,,,,"MET073METAR ETSE 181320Z 29004KT 9000 FEW006 SCT025 BKN040 07/05 Q1019 BLU BLU;",
"10869099999","2010-10-18T14:12:00","4","48.322333","11.948667","461.77","ERDING, GM","FM-16","ETSE ","V020","300,1,N,0021,1","00780,1,C,N","011265,1,N,1","+0070,1","+0050,1","99999,9","04,5,+00300,1,99,9","07,5,+00780,1,99,9",,"07,99,1,99,9,99,9,99999,9,99,9,99,9","10190,1,99999,9",,,,,"MET074SPECI ETSE 181412Z 30004KT 9999 SCT010 BKN026 07/05 Q1019 BLU FCST CANCEL;",
"10869099999","2010-10-19T05:20:00","4","48.322333","11.948667","461.77","ERDING, GM","FM-15","ETSE ","V020","160,1,N,0010,1","00690,1,C,N","000800,1,N,1","+0020,1","+0020,1","99999,9","02,5,+00030,1,99,9","04,5,+00690,1,99,9","07,5,+01440,1,99,9","07,99,1,99,9,99,9,99999,9,99,9,99,9","10149,1,99999,9","44,1",,,,"MET086METAR ETSE 190520Z 16002KT 0800 FG FEW001 SCT023 BKN048 02/02 Q1015 AMB AMB BECMG YLO;",
"10869099999","2010-10-19T06:00:00","4","48.322333","11.948667","461.77","ERDING, GM","FM-16","ETSE ","V020","180,1,N,0010,1","00660,1,C,N","001800,1,N,1","+0030,1","+0030,1","99999,9","02,5,+00240,1,99,9","04,5,+00660,1,99,9","07,5,+01440,1,99,9","07,99,1,99,9,99,9,99999,9,99,9,99,9","10149,1,99999,9","10,1",,,,"MET076SPECI ETSE 190600Z 18002KT 1800 BR FEW008 SCT022 BKN048 03/03 Q1015 YLO YLO;",
"10869099999","2010-10-19T06:20:00","4","48.322333","11.948667","461.77","ERDING, GM","FM-15","ETSE ","V020","190,1,N,0010,1","01350,1,C,N","002500,1,N,1","+0030,1","+0030,1","99999,9","02,5,+00330,1,99,9","07,5,+01350,1,99,9",,"07,99,1,99,9,99,9,99999,9,99,9,99,9","10149,1,99999,9","10,1",,,,"MET079METAR ETSE 190620Z 19002KT 2500 BR FEW011 BKN045 03/03 Q1015 YLO YLO BECMG GRN;",
"10869099999","2010-10-19T06:46:00","4","48.322333","11.948667","461.77","ERDING, GM","FM-16","ETSE ","V020","230,1,N,0010,1","01320,1,C,N","003700,1,N,1","+0040,1","+0040,1","99999,9","02,5,+00360,1,99,9","07,5,+01320,1,99,9",,"07,99,1,99,9,99,9,99999,9,99,9,99,9","10149,1,99999,9","10,1",,,,"MET069SPECI ETSE 190646Z 23002KT 3700 BR FEW012 BKN044 04/04 Q1015 GRN GRN;",
"10869099999","2010-10-19T07:20:00","4","48.322333","11.948667","461.77","ERDING, GM","FM-15","ETSE ","V020","190,1,N,0015,1","01410,1,C,N","003700,1,N,1","+0040,1","+0040,1","99999,9","02,5,+00390,1,99,9","04,5,+01410,1,99,9","07,5,+05700,1,99,9","07,99,1,99,9,99,9,99999,9,99,9,99,9","10139,1,99999,9","10,1",,,,"MET086METAR ETSE 190720Z 19003KT 3700 BR FEW013 SCT047 BKN190 04/04 Q1014 GRN GRN BECMG WHT;",
"10869099999","2010-10-19T07:49:00","4","48.322333","11.948667","461.77","ERDING, GM","FM-16","ETSE ","V020","220,1,N,0021,1","01440,1,C,N","005000,1,N,1","+0050,1","+0040,1","99999,9","02,5,+00450,1,99,9","04,5,+01440,1,99,9","07,5,+05100,1,99,9","07,99,1,99,9,99,9,99999,9,99,9,99,9","10139,1,99999,9","10,1",,,,"MET086SPECI ETSE 190749Z 22004KT 5000 BR FEW015 SCT048 BKN170 05/04 Q1014 WHT WHT BECMG BLU;",
"10869099999","2010-10-19T08:20:00","4","48.322333","11.948667","461.77","ERDING, GM","FM-15","ETSE ","V020","260,1,N,0031,1","04800,1,C,N","008000,1,N,1","+0060,1","+0030,1","99999,9","02,5,+00450,1,99,9","07,5,+04800,1,99,9",,"07,99,1,99,9,99,9,99999,9,99,9,99,9","10139,1,99999,9",,,,,"MET066METAR ETSE 190820Z 26006KT 8000 FEW015 BKN160 06/03 Q1014 BLU BLU;",
"10869099999","2010-10-19T09:20:00","4","48.322333","11.948667","461.77","ERDING, GM","FM-15","ETSE ","V020","260,1,N,0041,1","05400,1,C,N","011265,1,N,1","+0070,1","+0030,1","99999,9","04,5,+00660,1,99,9","07,5,+05400,1,99,9",,"07,99,1,99,9,99,9,99999,9,99,9,99,9","10129,1,99999,9",,,,,"MET066METAR ETSE 190920Z 26008KT 9999 SCT022 BKN180 07/03 Q1013 BLU BLU;",
"10869099999","2010-10-19T10:20:00","4","48.322333","11.948667","461.77","ERDING, GM","FM-15","ETSE ","V020","250,1,N,0031,1","05400,1,C,N","011265,1,N,1","+0090,1","+0030,1","99999,9","02,5,+00750,1,99,9","07,5,+05400,1,99,9",,"07,99,1,99,9,99,9,99999,9,99,9,99,9","10119,1,99999,9",,,,,"MET066METAR ETSE 191020Z 25006KT 9999 FEW025 BKN180 09/03 Q1012 BLU BLU;",
"10869099999","2010-10-19T11:20:00","4","48.322333","11.948667","461.77","ERDING, GM","FM-15","ETSE ","V020","280,1,N,0046,1","99999,9,C,N","011265,1,N,1","+0090,1","+0030,1","99999,9","02,5,+00900,1,99,9","04,5,+05400,1,99,9",,"04,99,1,99,9,99,9,99999,9,99,9,99,9","10108,1,99999,9",,,,,"MET077METAR ETSE 191120Z 28009KT 9999 FEW030 SCT180 09/03 Q1011 BLU/BLU TEMPO BLU/;","P01 054003SCOCIG"
"10869099999","2010-10-19T11:33:00","4","48.322333","11.948667","461.77","ERDING, GM","FM-16","ETSE ","V020","260,1,N,0041,1","99999,9,C,N","011265,1,N,1","+0090,1","+0020,1","99999,9","02,5,+00900,1,99,9","04,5,+05400,1,99,9",,"04,99,1,99,9,99,9,99999,9,99,9,99,9","10108,1,99999,9",,,,,"MET077SPECI ETSE 191133Z 26008KT 9999 FEW030 SCT180 09/02 Q1011 BLU/BLU TEMPO BLU/;","P01 054003SCOCIG"
"10869099999","2010-10-19T12:20:00","4","48.322333","11.948667","461.77","ERDING, GM","FM-15","ETSE ","V020","280,1,N,0057,1","99999,9,C,N","011265,1,N,1","+0100,1","+0030,1","99999,9","02,5,+00990,1,99,9","04,5,+05400,1,99,9",,"04,99,1,99,9,99,9,99999,9,99,9,99,9","10102,1,99999,9",,,,,"MET066METAR ETSE 191220Z 28011KT 9999 FEW033 SCT180 10/03 Q1010 BLU/BLU;","P01 054003SCOCIG"
"10869099999","2010-10-19T13:20:00","4","48.322333","11.948667","461.77","ERDING, GM","FM-15","ETSE ","V020","270,1,N,0046,1","01500,1,C,N","011265,1,N,1","+0090,1","+0030,1","99999,9","02,5,+00990,1,99,9","04,5,+01650,5,99,9","07,5,+02100,1,99,9","07,99,1,99,9,99,9,99999,9,99,9,99,9","10091,1,99999,9",,,,,"MET073METAR ETSE 191320Z 27009KT 9999 FEW033 SCT055 BKN070 09/03 Q1009 BLU BLU;",
"10869099999","2010-10-19T14:20:00","4","48.322333","11.948667","461.77","ERDING, GM","FM-15","ETSE ","V020","260,1,N,0031,1","02400,1,C,N","011265,1,N,1","+0100,1","+0030,1","99999,9","02,5,+00990,1,99,9","04,5,+02400,1,99,9","07,5,+04200,1,99,9","07,99,1,99,9,99,9,99999,9,99,9,99,9","10091,1,99999,9",,,,,"MET073METAR ETSE 191420Z 26006KT 9999 FEW033 SCT080 BKN140 10/03 Q1009 BLU BLU;",
"10869099999","2010-10-19T15:00:00","4","48.322333","11.948667","461.77","ERDING, GM","FM-16","ETSE ","V020","260,1,N,0046,1","01500,1,C,N","011265,1,N,1","+0100,1","+0030,1","99999,9","04,5,+00900,1,99,9","07,5,+01500,1,99,9","07,5,+02400,1,99,9","07,99,1,99,9,99,9,99999,9,99,9,99,9","10081,1,99999,9",,,,"0098,1","MET084SPECI ETSE 191500Z 26009G19KT 9999 SCT030 BKN050 BKN080 10/03 Q1008 BLU FCST CANCEL;",
"10869099999","2010-10-20T05:20:00","4","48.322333","11.948667","461.77","ERDING, GM","FM-15","ETSE ","V020","250,1,N,0057,1","00330,1,C,N","011265,1,N,1","+0050,1","+0030,1","99999,9","02,5,+00240,1,99,9","07,5,+00330,1,99,9","07,5,+00810,1,99,9","07,99,1,99,9,99,9,99999,9,99,9,99,9","10071,1,99999,9","61,1",,,,"MET087METAR ETSE 200520Z 25011KT 9999 -RA FEW008 BKN011 BKN027 05/03 Q1007 GRN BLU TEMPO GRN;",
"10869099999","2010-10-20T06:20:00","4","48.322333","11.948667","461.77","ERDING, GM","FM-15","ETSE ","V020","260,1,N,0046,1","00480,1,C,N","011265,1,N,1","+0040,1","+0030,1","99999,9","02,5,+00270,1,99,9","07,5,+00480,1,99,9","07,5,+00840,1,99,9","07,99,1,99,9,99,9,99999,9,99,9,99,9","10081,1,99999,9","61,1",,,,"MET087METAR ETSE 200620Z 26009KT 9999 -RA FEW009 BKN016 BKN028 04/03 Q1008 WHT BLU TEMPO GRN;",
"10869099999","2010-10-20T07:20:00","4","48.322333","11.948667","461.77","ERDING, GM","FM-15","ETSE ","V020","270,1,N,0041,1","00480,1,C,N","011265,1,N,1","+0040,1","+0030,1","99999,9","02,5,+00300,1,99,9","07,5,+00480,1,99,9","07,5,+00900,1,99,9","07,99,1,99,9,99,9,99999,9,99,9,99,9","10091,1,99999,9","61,1",,,,"MET087METAR ETSE 200720Z 27008KT 9999 -RA FEW010 BKN016 BKN030 04/03 Q1009 WHT BLU TEMPO GRN;",
"10869099999","2010-10-20T08:20:00","4","48.322333","11.948667","461.77","ERDING, GM","FM-15","ETSE ","V020","250,1,N,0041,1","01200,1,C,N","011265,1,N,1","+0050,1","+0030,1","99999,9","04,5,+00390,1,99,9","07,5,+01200,1,99,9",,"07,99,1,99,9,99,9,99999,9,99,9,99,9","10091,1,99999,9",,,,,"MET076METAR ETSE 200820Z 25008KT 9999 SCT013 BKN040 05/03 Q1009 BLU BLU TEMPO GRN;",
"10869099999","2010-10-20T09:20:00","4","48.322333","11.948667","461.77","ERDING, GM","FM-15","ETSE ","V020","260,1,N,0051,1","01050,1,C,N","011265,1,N,1","+0070,1","+0030,1","99999,9","02,5,+00450,1,99,9","07,5,+01050,1,99,9",,"07,99,1,99,9,99,9,99999,9,99,9,99,9","10091,1,99999,9",,,,,"MET076METAR ETSE 200920Z 26010KT 9999 FEW015 BKN035 07/03 Q1009 BLU BLU TEMPO GRN;",
"10869099999","2010-10-20T10:20:00","4","48.322333","11.948667","461.77","ERDING, GM","FM-15","ETSE ","V020","260,1,N,0057,1","01470,1,C,N","011265,1,N,1","+0070,1","+0030,1","99999,9","02,5,+00540,1,99,9","07,5,+01470,1,99,9",,"07,99,1,99,9,99,9,99999,9,99,9,99,9","10091,1,99999,9",,,,,"MET076METAR ETSE 201020Z 26011KT 9999 FEW018 BKN049 07/03 Q1009 BLU BLU TEMPO GRN;",
"10869099999","2010-10-20T11:20:00","4","48.322333","11.948667","461.77","ERDING, GM","FM-15","ETSE ","V020","260,1,N,0041,1","00540,1,C,N","011265,1,N,1","+0070,1","+0040,1","99999,9","02,5,+00360,1,99,9","07,5,+00540,1,02,5","07,5,+01350,1,99,9","07,99,1,99,9,99,9,99999,9,99,9,99,9","10091,1,99999,9","80,1",,,,"MET092METAR ETSE 201120Z 26008KT 9999 -SHRA FEW012 BKN018TCU BKN045 07/04 Q1009 WHT BLU TEMPO GRN;",
"10869099999","2010-10-20T12:20:00","4","48.322333","11.948667","461.77","ERDING, GM","FM-15","ETSE ","V020","250,1,N,0046,1","00570,1,C,N","011265,1,N,1","+0060,1","+0040,1","99999,9","02,5,+00330,1,99,9","07,5,+00570,1,02,5","07,5,+01350,1,99,9","07,99,1,99,9,99,9,99999,9,99,9,99,9","10091,1,99999,9","80,1",,,,"MET095METAR ETSE 201220Z 25009KT 9999 -SHRA FEW011 BKN019TCU BKN045 06/04 Q1009 RERA WHT FCST CANCEL;",
"10869099999","2010-10-20T13:20:00","4","48.322333","11.948667","461.77","ERDING, GM","FM-15","ETSE ","V020","280,1,N,0051,1","00510,1,C,N","011265,1,N,1","+0060,1","+0050,1","99999,9","02,5,+00330,1,99,9","07,5,+00510,1,02,5","07,5,+01140,1,99,9","07,99,1,99,9,99,9,99999,9,99,9,99,9","10102,1,99999,9","80,1",,,,"MET078METAR ETSE 201320Z 28010KT 9999 -SHRA FEW011 BKN017TCU BKN038 06/05 Q1010 WHT;",
"10869099999","2010-10-21T05:20:00","4","48.322333","11.948667","461.77","ERDING, GM","FM-15","ETSE ","V020","280,1,N,0041,1","00810,1,C,N","011265,1,N,1","+0030,1","+0020,1","99999,9","02,5,+00180,1,99,9","07,5,+00810,1,99,9",,"07,99,1,99,9,99,9,99999,9,99,9,99,9","10230,1,99999,9","61,1",,,,"MET080METAR ETSE 210520Z 28008KT 9999 -RA FEW006 BKN027 03/02 Q1023 BLU BLU TEMPO GRN;",
"10869099999","2010-10-21T06:20:00","4","48.322333","11.948667","461.77","ERDING, GM","FM-15","ETSE ","V020","250,1,N,0026,1","00900,1,C,N","011265,1,N,1","+0030,1","+0020,1","99999,9","02,5,+00210,1,99,9","04,5,+00900,1,99,9","07,5,+01650,5,99,9","07,99,1,99,9,99,9,99999,9,99,9,99,9","10230,1,99999,9",,,,,"MET083METAR ETSE 210620Z 25005KT 9999 FEW007 SCT030 BKN055 03/02 Q1023 BLU BLU TEMPO GRN;",
"10869099999","2010-10-21T07:20:00","4","48.322333","11.948667","461.77","ERDING, GM","FM-15","ETSE ","V020","260,1,N,0036,1","00780,1,C,N","011265,1,N,1","+0030,1","+0020,1","99999,9","04,5,+00180,1,99,9","07,5,+00780,1,99,9",,"07,99,1,99,9,99,9,99999,9,99,9,99,9","10240,1,99999,9","80,1",,,,"MET082METAR ETSE 210720Z 26007KT 9999 -SHRA SCT006 BKN026 03/02 Q1024 BLU BLU TEMPO GRN;",
"10869099999","2010-10-21T08:20:00","4","48.322333","11.948667","461.77","ERDING, GM","FM-15","ETSE ","V020","280,1,N,0041,1","00660,1,C,N","011265,1,N,1","+0040,1","+0020,1","99999,9","02,5,+00180,1,99,9","04,5,+00660,1,99,9","07,5,+01260,1,99,9","07,99,1,99,9,99,9,99999,9,99,9,99,9","10251,1,99999,9",,,,,"MET083METAR ETSE 210820Z 28008KT 9999 FEW006 SCT022 BKN042 04/02 Q1025 BLU BLU TEMPO GRN;",
"10869099999","2010-10-21T09:20:00","4","48.322333","11.948667","461.77","ERDING, GM","FM-15","ETSE ","V020","270,1,N,0041,1","00450,1,C,N","011265,1,N,1","+0040,1","+0020,1","99999,9","02,5,+00240,1,99,9","04,5,+00450,1,99,9","07,5,+01380,1,99,9","07,99,1,99,9,99,9,99999,9,99,9,99,9","10251,1,99999,9",,,,,"MET083METAR ETSE 210920Z 27008KT 9999 FEW008 SCT015 BKN046 04/02 Q1025 BLU BLU TEMPO GRN;",
"10869099999","2010-10-21T10:20:00","4","48.322333","11.948667","461.77","ERDING, GM","FM-15","ETSE ","V020","310,1,N,0051,1","00630,1,C,N","011265,1,N,1","+0050,1","+0010,1","99999,9","07,5,+00630,1,99,9","04,5,+01200,1,99,9",,,"10251,1,99999,9","80,1",,,,"MET072METAR ETSE 211020Z 31010KT 9999 -SHRA BKN021 SCT040 05/01 Q1025 WHT BLU;","Q01+000042SCOTCV"
"10869099999","2010-10-21T10:23:00","4","48.322333","11.948667","461.77","ERDING, GM","FM-16","ETSE ","V020","310,1,N,0051,1","00630,1,C,N","011265,1,N,1","+0050,1","+0010,1","99999,9","07,5,+00630,1,02,1","04,5,+01200,1,99,9",,,"10251,1,99999,9","63,1","87,1",,,"MET077SPECI ETSE 211023Z 31010KT 9999 -SHGSRA BKN021TCU SCT040 05/01 Q1025 WHT BLU;","Q01+000042SCOTCV"
"10869099999","2010-10-21T11:20:00","4","48.322333","11.948667","461.77","ERDING, GM","FM-15","ETSE ","V020","280,1,N,0046,1","01200,1,C,N","011265,1,N,1","+0060,1","+0000,1","99999,9","04,5,+00750,1,99,9","07,5,+01200,1,99,9",,"07,99,1,99,9,99,9,99999,9,99,9,99,9","10261,1,99999,9",,,,,"MET066METAR ETSE 211120Z 28009KT 9999 SCT025 BKN040 06/00 Q1026 BLU BLU;",
"10869099999","2010-10-21T12:20:00","4","48.322333","11.948667","461.77","ERDING, GM","FM-15","ETSE ","V020","270,1,N,0046,1","01380,1,C,N","011265,1,N,1","+0060,1","+0000,1","99999,9","02,5,+00870,1,99,9","07,5,+01380,1,99,9",,"07,99,1,99,9,99,9,99999,9,99,9,99,9","10251,1,99999,9",,,,,"MET078METAR ETSE 211220Z 27009KT 9999 FEW029 BKN046 06/M00 Q1025 BLU BLU BECMG BLU/;",
"10869099999","2010-10-21T13:20:00","4","48.322333","11.948667","461.77","ERDING, GM","FM-15","ETSE ","V020","270,1,N,0046,1","99999,9,C,N","011265,1,N,1","+0070,1","+0000,1","99999,9","02,5,+00900,1,99,9","04,5,+01500,1,99,9",,"04,99,1,99,9,99,9,99999,9,99,9,99,9","10251,1,99999,9",,,,,"MET068METAR ETSE 211320Z 27009KT 9999 FEW030 SCT050 07/M00 Q1025 BLU/BLU/;","P01 015003SCOCIG"
"10869099999","2010-10-21T14:20:00","4","48.322333","11.948667","461.77","ERDING, GM","FM-15","ETSE ","V020","270,1,N,0026,1","22000,1,9,N","011265,1,N,1","+0070,1","-0010,1","99999,9","02,5,+01050,1,99,9",,,"02,99,1,99,9,99,9,99999,9,99,9,99,9","10251,1,99999,9",,,,,"MET068METAR ETSE 211420Z 27005KT 9999 FEW035 07/M01 Q1025 BLU/FCST CANCEL;",
"10869099999","2010-10-22T05:20:00","4","48.322333","11.948667","461.77","ERDING, GM","FM-15","ETSE ","V020","180,1,N,0010,1","22000,1,9,N","011265,1,N,1","-0020,1","-0020,1","99999,9","02,5,+03900,1,99,9",,,"02,99,1,99,9,99,9,99999,9,99,9,99,9","10220,1,99999,9",,,,,"MET062METAR ETSE 220520Z 18002KT 9999 FEW130 M02/M02 Q1022 BLU/BLU/;",
"10869099999","2010-10-22T06:20:00","4","48.322333","11.948667","461.77","ERDING, GM","FM-15","ETSE ","V020","160,1,N,0010,1","22000,1,9,N","011265,1,N,1","-0020,1","-0020,1","99999,9","02,5,+03900,1,99,9",,,"02,99,1,99,9,99,9,99999,9,99,9,99,9","10230,1,99999,9",,,,,"MET062METAR ETSE 220620Z 16002KT 9999 FEW130 M02/M02 Q1023 BLU/BLU/;",
"10869099999","2010-10-22T07:20:00","4","48.322333","11.948667","461.77","ERDING, GM","FM-15","ETSE ","V020","170,1,N,0010,1","22000,1,9,N","011265,1,N,1","+0000,1","-0020,1","99999,9","02,5,+03900,1,99,9",,,"02,99,1,99,9,99,9,99999,9,99,9,99,9","10240,1,99999,9",,,,,"MET061METAR ETSE 220720Z 17002KT 9999 FEW130 00/M02 Q1024 BLU/BLU/;",
"10869099999","2010-10-22T07:50:00","4","48.322333","11.948667","461.77","ERDING, GM","FM-16","ETSE ","V020","180,1,N,0015,1","22000,1,9,N","011265,1,N,1","+0010,1","-0010,1","99999,9","02,5,+03900,1,99,9",,,"02,99,1,99,9,99,9,99999,9,99,9,99,9","10240,1,99999,9",,,,,"MET068SPECI ETSE 220750Z 18003KT 9999 FEW130 01/M01 Q1024 BLU/FCST CANCEL;",
"10869099999","2010-10-25T05:20:00","4","48.322333","11.948667","461.77","ERDING, GM","FM-15","ETSE ","V020","020,1,N,0021,1","00150,1,C,N","007000,1,N,1","+0050,1","+0050,1","99999,9","07,5,+00150,1,99,9","07,5,+01050,1,99,9",,"07,99,1,99,9,99,9,99999,9,99,9,99,9","10139,1,99999,9","61,1",,,,"MET080METAR ETSE 250520Z 02004KT 7000 -RA BKN005 BKN035 05/05 Q1014 YLO BLU TEMPO YLO;",
"10869099999","2010-10-25T06:08:00","4","48.322333","11.948667","461.77","ERDING, GM","FM-16","ETSE ","V020","030,1,N,0021,1","01050,1,C,N","008000,1,N,1","+0050,1","+0050,1","99999,9","04,5,+00240,1,99,9","07,5,+01050,1,99,9",,"07,99,1,99,9,99,9,99999,9,99,9,99,9","10139,1,99999,9",,,,,"MET076SPECI ETSE 250608Z 03004KT 8000 SCT008 BKN035 05/05 Q1014 BLU BLU TEMPO YLO;",
"10869099999","2010-10-25T06:20:00","4","48.322333","11.948667","461.77","ERDING, GM","FM-15","ETSE ","V020","030,1,N,0021,1","01110,1,C,N","009000,1,N,1","+0050,1","+0040,1","99999,9","04,5,+00240,1,99,9","07,5,+01110,1,99,9",,"07,99,1,99,9,99,9,99999,9,99,9,99,9","10139,1,99999,9",,,,,"MET076METAR ETSE 250620Z 03004KT 9000 SCT008 BKN037 05/04 Q1014 BLU BLU TEMPO YLO;",
"10869099999","2010-10-25T07:20:00","4","48.322333","11.948667","461.77","ERDING, GM","FM-15","ETSE ","V020","010,1,N,0021,1","00480,1,C,N","011265,1,N,1","+0050,1","+0040,1","99999,9","02,5,+00300,1,99,9","07,5,+00480,1,99,9","07,5,+01200,1,99,9","07,99,1,99,9,99,9,99999,9,99,9,99,9","10149,1,99999,9",,,,,"MET083METAR ETSE 250720Z 01004KT 9999 FEW010 BKN016 BKN040 05/04 Q1015 WHT BLU TEMPO WHT;",
"10869099999","2010-10-25T08:20:00","4","48.322333","11.948667","461.77","ERDING, GM","FM-15","ETSE ","V020","020,1,N,0026,1","00600,1,C,N","011265,1,N,1","+0050,1","+0040,1","99999,9","02,5,+00270,1,99,9","04,5,+00600,1,99,9","07,5,+01080,1,99,9","07,99,1,99,9,99,9,99999,9,99,9,99,9","10159,1,99999,9",,,,,"MET083METAR ETSE 250820Z 02005KT 9999 FEW009 SCT020 BKN036 05/04 Q1016 BLU BLU TEMPO WHT;",
"10869099999","2010-10-25T09:00:00","4","48.322333","11.948667","461.77","ERDING, GM","FM-15","ETSE ","V020","010,1,N,0026,1","00600,1,C,N","011265,1,N,1","+0050,1","+0040,1","99999,9","04,5,+00210,1,99,9","04,5,+00600,1,99,9","07,5,+01080,1,99,9","07,99,1,99,9,99,9,99999,9,99,9,99,9","10169,1,99999,9",,,,,"MET083SPECI ETSE 250859Z 01005KT 9999 SCT007 SCT020 BKN036 05/04 Q1017 BLU BLU TEMPO GRN;",
"10869099999","2010-10-25T09:20:00","4","48.322333","11.948667","461.77","ERDING, GM","FM-15","ETSE ","V020","360,1,N,0026,1","00240,1,C,N","011265,1,N,1","+0050,1","+0040,1","99999,9","07,5,+00240,1,99,9","07,5,+01050,1,99,9",,"07,99,1,99,9,99,9,99999,9,99,9,99,9","10169,1,99999,9",,,,,"MET076METAR ETSE 250920Z 36005KT 9999 BKN008 BKN035 05/04 Q1017 GRN BLU TEMPO GRN;",
"10869099999","2010-10-25T10:20:00","4","48.322333","11.948667","461.77","ERDING, GM","FM-15","ETSE ","V020","020,1,N,0021,1","00270,1,C,N","011265,1,N,1","+0050,1","+0030,1","99999,9","07,5,+00270,1,99,9","07,5,+01350,1,99,9",,"07,99,1,99,9,99,9,99999,9,99,9,99,9","10180,1,99999,9",,,,,"MET076METAR ETSE 251020Z 02004KT 9999 BKN009 BKN045 05/03 Q1018 GRN BLU TEMPO GRN;",
"10869099999","2010-10-25T11:20:00","4","48.322333","11.948667","461.77","ERDING, GM","FM-15","ETSE ","V020","350,1,N,0026,1","00300,1,C,N","011265,1,N,1","+0050,1","+0030,1","99999,9","07,5,+00300,1,99,9","04,5,+00480,1,99,9","08,5,+03000,1,99,9","08,99,1,99,9,99,9,99999,9,99,9,99,9","10180,1,99999,9",,,,,"MET083METAR ETSE 251120Z 35005KT 9999 BKN010 SCT016 OVC100 05/03 Q1018 GRN BLU TEMPO GRN;",
"10869099999","2010-10-25T12:20:00","4","48.322333","11.948667","461.77","ERDING, GM","FM-15","ETSE ","V020","340,1,N,0021,1","00300,1,C,N","011265,1,N,1","+0050,1","+0030,1","99999,9","07,5,+00300,1,99,9","07,5,+00630,1,99,9",,"07,99,1,99,9,99,9,99999,9,99,9,99,9","10190,1,99999,9",,,,,"MET076METAR ETSE 251220Z 34004KT 9999 BKN010 BKN021 05/03 Q1019 GRN BLU TEMPO GRN;",
"10869099999","2010-10-25T13:20:00","4","48.322333","11.948667","461.77","ERDING, GM","FM-15","ETSE ","V020","340,1,N,0026,1","00600,1,C,N","011265,1,N,1","+0050,1","+0030,1","99999,9","04,5,+00300,1,99,9","04,5,+00600,1,99,9","07,5,+03300,1,99,9","07,99,1,99,9,99,9,99999,9,99,9,99,9","10190,1,99999,9",,,,,"MET081METAR ETSE 251320Z 34005KT 9999 SCT010 SCT020 BKN110 05/03 Q1019 BLU FCST CANCEL;",
"10869099999","2010-10-26T05:20:00","4","48.322333","11.948667","461.77","ERDING, GM","FM-15","ETSE ","V020","210,1,N,0015,1","22000,1,9,N","005000,1,N,1","-0010,1","-0010,1","99999,9","02,5,+00060,1,99,9",,,"02,99,1,99,9,99,9,99999,9,99,9,99,9","10261,1,99999,9","10,1","12,1",,,"MET079METAR ETSE 260520Z 21003KT 5000 MIFG BR FEW002 M01/M01 Q1026 WHT WHT TEMPO YLO;",
"10869099999","2010-10-26T06:20:00","4","48.322333","11.948667","461.77","ERDING, GM","FM-15","ETSE ","V020","210,1,N,0010,1","22000,1,9,N","005000,1,N,1","-0010,1","-0010,1","99999,9","02,5,+01260,1,99,9",,,"02,99,1,99,9,99,9,99999,9,99,9,99,9","10261,1,99999,9","10,1","12,1",,,"MET079METAR ETSE 260620Z 21002KT 5000 MIFG BR FEW042 M01/M01 Q1026 WHT WHT TEMPO YLO;",
"10869099999","2010-10-26T07:11:00","4","48.322333","11.948667","461.77","ERDING, GM","FM-16","ETSE ","V020","230,1,N,0010,1","22000,1,9,N","003000,1,N,1","+0000,1","+0000,1","99999,9","02,5,+01260,1,99,9",,,"02,99,1,99,9,99,9,99999,9,99,9,99,9","10271,1,99999,9","10,1",,,,"MET072SPECI ETSE 260711Z 23002KT 3000 BR FEW042 00/00 Q1027 YLO WHT TEMPO YLO;",
"10869099999","2010-10-26T07:20:00","4","48.322333","11.948667","461.77","ERDING, GM","FM-15","ETSE ","V020","200,1,N,0015,1","22000,1,9,N","005000,1,N,1","+0000,1","+0000,1","99999,9","02,5,+01260,1,99,9",,,"02,99,1,99,9,99,9,99999,9,99,9,99,9","10271,1,99999,9","10,1",,,,"MET063METAR ETSE 260720Z 20003KT 5000 BR FEW042 00/M00 Q1027 WHT WHT;",
"10869099999","2010-10-26T08:20:00","4","48.322333","11.948667","461.77","ERDING, GM","FM-15","ETSE ","V020","270,1,N,0015,1","22000,1,9,N","006000,1,N,1","+0030,1","+0010,1","99999,9","02,5,+00300,1,99,9",,,"02,99,1,99,9,99,9,99999,9,99,9,99,9","10281,1,99999,9",,,,,"MET070METAR ETSE 260820Z 27003KT 6000 FEW010 03/01 Q1028 WHT WHT BECMG BLU/;",
"10869099999","2010-10-26T09:20:00","4","48.322333","11.948667","461.77","ERDING, GM","FM-15","ETSE ","V020","290,1,N,0015,1","99999,9,C,N","011265,1,N,1","+0040,1","+0010,1","99999,9","02,5,+00390,1,99,9","04,5,+00930,1,99,9",,"04,99,1,99,9,99,9,99999,9,99,9,99,9","10281,1,99999,9",,,,,"MET067METAR ETSE 260920Z 29003KT 9999 FEW013 SCT031 04/01 Q1028 BLU/BLU/;","P01 009303SCOCIG"
"10869099999","2010-10-26T10:20:00","4","48.322333","11.948667","461.77","ERDING, GM","FM-15","ETSE ","V020","250,1,N,0021,1","22000,1,9,N","011265,1,N,1","+0050,1","+0010,1","99999,9","02,5,+00450,1,99,9",,,"02,99,1,99,9,99,9,99999,9,99,9,99,9","10281,1,99999,9",,,,,"MET060METAR ETSE 261020Z 25004KT 9999 FEW015 05/01 Q1028 BLU/BLU/;",
"10869099999","2010-10-26T11:20:00","4","48.322333","11.948667","461.77","ERDING, GM","FM-15","ETSE ","V020","290,1,N,0026,1","99999,9,C,N","011265,1,N,1","+0060,1","+0000,1","99999,9","02,5,+00690,1,99,9","04,5,+01050,1,99,9",,"04,99,1,99,9,99,9,99999,9,99,9,99,9","10281,1,99999,9",,,,,"MET068METAR ETSE 261120Z 29005KT 9999 FEW023 SCT035 06/M00 Q1028 BLU/BLU/;","P01 010503SCOCIG"
"10869099999","2010-10-26T12:20:00","4","48.322333","11.948667","461.77","ERDING, GM","FM-15","ETSE ","V020","270,1,N,0026,1","22000,1,9,N","011265,1,N,1","+0070,1","+0000,1","99999,9","02,5,+00990,1,99,9",,,"02,99,1,99,9,99,9,99999,9,99,9,99,9","10281,1,99999,9",,,,,"MET061METAR ETSE 261220Z 27005KT 9999 FEW033 07/M00 Q1028 BLU/BLU/;",
"10869099999","2010-10-26T13:20:00","4","48.322333","11.948667","461.77","ERDING, GM","FM-15","ETSE ","V020","280,1,N,0015,1","22000,1,9,N","011265,1,N,1","+0070,1","-0020,1","99999,9","02,5,+01050,1,99,9",,,"02,99,1,99,9,99,9,99999,9,99,9,99,9","10281,1,99999,9",,,,,"MET061METAR ETSE 261320Z 28003KT 9999 FEW035 07/M02 Q1028 BLU/BLU/;",
"10869099999","2010-10-26T14:20:00","4","48.322333","11.948667","461.77","ERDING, GM","FM-15","ETSE ","V020","270,1,N,0021,1","99999,9,C,N","011265,1,N,1","+0070,1","+0000,1","99999,9","02,5,+00750,1,99,9","04,5,+01140,1,99,9",,"04,99,1,99,9,99,9,99999,9,99,9,99,9","10281,1,99999,9",,,,,"MET075METAR ETSE 261420Z 27004KT 9999 FEW025 SCT038 07/M00 Q1028 BLU/FCST CANCEL;","P01 011403SCOCIG"
"10869099999","2010-10-27T05:20:00","4","48.322333","11.948667","461.77","ERDING, GM","FM-15","ETSE ","V020","170,1,N,0010,1","22000,1,9,N","001000,1,N,1","-0020,1","-0020,1","99999,9","02,5,+00000,5,99,9",,,"02,99,1,99,9,99,9,99999,9,99,9,99,9","10281,1,99999,9","10,1","40,1",,,"MET065METAR ETSE 270520Z 17002KT 1000 VCFG BR FEW000 M02/M02 Q1028 AMB;",
"10869099999","2010-10-27T05:39:00","4","48.322333","11.948667","461.77","ERDING, GM","FM-16","ETSE ","V020","200,1,N,0010,1","22000,1,9,N","001800,1,N,1","-0020,1","-0020,1","99999,9","02,5,+00000,5,99,9",,,"02,99,1,99,9,99,9,99999,9,99,9,99,9","10271,1,99999,9","10,1","40,1",,,"MET065SPECI ETSE 270539Z 20002KT 1800 VCFG BR FEW000 M02/M02 Q1027 YLO;",
"10869099999","2010-10-27T06:04:00","4","48.322333","11.948667","461.77","ERDING, GM","FM-16","ETSE ","V020","170,1,N,0010,1","22000,1,9,N","004500,1,N,1","-0020,1","-0020,1","99999,9","02,5,+00000,5,99,9",,,"02,99,1,99,9,99,9,99999,9,99,9,99,9","10281,1,99999,9","10,1","40,1",,,"MET065SPECI ETSE 270604Z 17002KT 4500 VCFG BR FEW000 M02/M02 Q1028 GRN;",
"10869099999","2010-10-27T06:20:00","4","48.322333","11.948667","461.77","ERDING, GM","FM-15","ETSE ","V020","170,1,N,0015,1","22000,1,9,N","006000,1,N,1","-0010,1","-0010,1","99999,9","02,5,+00000,5,99,9",,,"02,99,1,99,9,99,9,99999,9,99,9,99,9","10281,1,99999,9",,,,,"MET057METAR ETSE 270620Z 17003KT 6000 FEW000 M01/M01 Q1028 WHT;",
"10869099999","2010-10-27T07:20:00","4","48.322333","11.948667","461.77","ERDING, GM","FM-15","ETSE ","V020","140,1,N,0015,1","22000,1,9,N","008000,1,N,1","+0000,1","-0010,1","99999,9","02,5,+07500,1,99,9",,,"02,99,1,99,9,99,9,99999,9,99,9,99,9","10281,1,99999,9",,,,,"MET057METAR ETSE 270720Z 14003KT 8000 FEW250 00/M01 Q1028 BLU/;",
"10869099999","2010-10-27T08:20:00","4","48.322333","11.948667","461.77","ERDING, GM","FM-15","ETSE ","V020","120,1,N,0010,1","22000,1,9,N","011265,1,N,1","+0030,1","+0010,1","99999,9","02,5,+07500,1,99,9",,,"02,99,1,99,9,99,9,99999,9,99,9,99,9","10281,1,99999,9",,,,,"MET056METAR ETSE 270820Z 12002KT 9999 FEW250 03/01 Q1028 BLU/;",
"10869099999","2010-10-27T09:20:00","4","48.322333","11.948667","461.77","ERDING, GM","FM-15","ETSE ","V020","130,1,N,0010,1","22000,1,9,N","011265,1,N,1","+0050,1","+0020,1","99999,9","02,5,+07500,1,99,9",,,"02,99,1,99,9,99,9,99999,9,99,9,99,9","10271,1,99999,9",,,,,"MET056METAR ETSE 270920Z 13002KT 9999 FEW250 05/02 Q1027 BLU/;",
"10869099999","2010-10-27T10:20:00","4","48.322333","11.948667","461.77","ERDING, GM","FM-15","ETSE ","V020","110,1,N,0021,1","22000,1,9,N","011265,1,N,1","+0060,1","+0020,1","99999,9","02,5,+00450,1,99,9",,,"02,99,1,99,9,99,9,99999,9,99,9,99,9","10271,1,99999,9",,,,,"MET056METAR ETSE 271020Z 11004KT 9999 FEW015 06/02 Q1027 BLU/;",
"10869099999","2010-10-27T11:20:00","4","48.322333","11.948667","461.77","ERDING, GM","FM-15","ETSE ","V020","110,1,N,0026,1","22000,1,9,N","011265,1,N,1","+0070,1","+0020,1","99999,9","02,5,+00600,1,99,9",,,"02,99,1,99,9,99,9,99999,9,99,9,99,9","10271,1,99999,9",,,,,"MET060METAR ETSE 271120Z 11005KT 9999 FEW020 07/02 Q1027 BLU/BLU/;",
"10869099999","2010-10-27T12:20:00","4","48.322333","11.948667","461.77","ERDING, GM","FM-15","ETSE ","V020","120,1,N,0015,1","22000,1,9,N","011265,1,N,1","+0080,1","+0020,1","99999,9","02,5,+00600,1,99,9",,,"02,99,1,99,9,99,9,99999,9,99,9,99,9","10261,1,99999,9",,,,,"MET060METAR ETSE 271220Z 12003KT 9999 FEW020 08/02 Q1026 BLU/BLU/;",
"10869099999","2010-10-27T13:20:00","4","48.322333","11.948667","461.77","ERDING, GM","FM-15","ETSE ","V020","110,1,N,0015,1","22000,1,9,N","011265,1,N,1","+0080,1","+0010,1","99999,9","02,5,+00750,1,99,9",,,"02,99,1,99,9,99,9,99999,9,99,9,99,9","10261,1,99999,9",,,,,"MET060METAR ETSE 271320Z 11003KT 9999 FEW025 08/01 Q1026 BLU/BLU/;",
"10869099999","2010-10-27T14:00:00","4","48.322333","11.948667","461.77","ERDING, GM","FM-16","ETSE ","V020","120,1,N,0021,1","22000,1,9,N","011265,1,N,1","+0080,1","+0020,1","99999,9","02,5,+03000,1,99,9",,,"02,99,1,99,9,99,9,99999,9,99,9,99,9","10261,1,99999,9",,,,,"MET067SPECI ETSE 271400Z 12004KT 9999 FEW100 08/02 Q1026 BLU/FCST CANCEL;",
"10869099999","2010-10-28T05:20:00","4","48.322333","11.948667","461.77","ERDING, GM","FM-15","ETSE ","V020","140,1,N,0010,1","02400,1,C,N","011265,1,N,1","+0010,1","+0010,1","99999,9","02,5,+01800,1,99,9","07,5,+02400,1,99,9",,"07,99,1,99,9,99,9,99999,9,99,9,99,9","10230,1,99999,9",,,,,"MET066METAR ETSE 280520Z 14002KT 9999 FEW060 BKN080 01/01 Q1023 BLU BLU;",
"10869099999","2010-10-28T06:20:00","4","48.322333","11.948667","461.77","ERDING, GM","FM-15","ETSE ","V020","170,1,N,0015,1","02400,1,C,N","011265,1,N,1","+0020,1","+0010,1","99999,9","02,5,+01800,1,99,9","07,5,+02400,1,99,9",,"07,99,1,99,9,99,9,99999,9,99,9,99,9","10240,1,99999,9",,,,,"MET066METAR ETSE 280620Z 17003KT 9999 FEW060 BKN080 02/01 Q1024 BLU BLU;",
"10869099999","2010-10-28T07:20:00","4","48.322333","11.948667","461.77","ERDING, GM","FM-15","ETSE ","V020","170,1,N,0021,1","02400,1,C,N","011265,1,N,1","+0030,1","+0020,1","99999,9","02,5,+01800,1,99,9","07,5,+02400,1,99,9",,"07,99,1,99,9,99,9,99999,9,99,9,99,9","10240,1,99999,9",,,,,"MET066METAR ETSE 280720Z 17004KT 9999 FEW060 BKN080 03/02 Q1024 BLU BLU;",
"10869099999","2010-10-28T08:20:00","4","48.322333","11.948667","461.77","ERDING, GM","FM-15","ETSE ","V020","160,1,N,0015,1","02400,1,C,N","011265,1,N,1","+0050,1","+0020,1","99999,9","02,5,+01500,1,99,9","07,5,+02400,1,99,9",,"07,99,1,99,9,99,9,99999,9,99,9,99,9","10240,1,99999,9",,,,,"MET077METAR ETSE 280820Z 16003KT 9999 FEW050 BKN080 05/02 Q1024 BLU BLU BECMG BLU/;",
"10869099999","2010-10-28T09:20:00","4","48.322333","11.948667","461.77","ERDING, GM","FM-15","ETSE ","V020","200,1,N,0015,1","02400,1,C,N","011265,1,N,1","+0070,1","+0020,1","99999,9","02,5,+01500,1,99,9","07,5,+02400,1,99,9",,"07,99,1,99,9,99,9,99999,9,99,9,99,9","10240,1,99999,9",,,,,"MET077METAR ETSE 280920Z 20003KT 9999 FEW050 BKN080 07/02 Q1024 BLU BLU BECMG BLU/;",
"10869099999","2010-10-28T10:20:00","4","48.322333","11.948667","461.77","ERDING, GM","FM-15","ETSE ","V020","190,1,N,0021,1","02400,1,C,N","011265,1,N,1","+0090,1","+0030,1","99999,9","02,5,+01500,1,99,9","07,5,+02400,1,99,9","07,5,+07200,1,99,9","07,99,1,99,9,99,9,99999,9,99,9,99,9","10240,1,99999,9",,,,,"MET084METAR ETSE 281020Z 19004KT 9999 FEW050 BKN080 BKN240 09/03 Q1024 BLU BLU BECMG BLU/;",
"10869099999","2010-10-28T11:20:00","4","48.322333","11.948667","461.77","ERDING, GM","FM-15","ETSE ","V020","180,1,N,0021,1","02400,1,C,N","011265,1,N,1","+0100,1","+0030,1","99999,9","02,5,+01500,1,99,9","07,5,+02400,1,99,9","07,5,+07200,1,99,9","07,99,1,99,9,99,9,99999,9,99,9,99,9","10230,1,99999,9",,,,,"MET084METAR ETSE 281120Z 18004KT 9999 FEW050 BKN080 BKN240 10/03 Q1023 BLU BLU BECMG BLU/;",
"10869099999","2010-10-28T12:20:00","4","48.322333","11.948667","461.77","ERDING, GM","FM-15","ETSE ","V020","190,1,N,0015,1","02400,1,C,N","011265,1,N,1","+0120,1","+0030,1","99999,9","02,5,+01500,1,99,9","07,5,+02400,1,99,9",,"07,99,1,99,9,99,9,99999,9,99,9,99,9","10230,1,99999,9",,,,,"MET077METAR ETSE 281220Z 19003KT 9999 FEW050 BKN080 12/03 Q1023 BLU BLU BECMG BLU/;",
"10869099999","2010-10-28T13:20:00","4","48.322333","11.948667","461.77","ERDING, GM","FM-15","ETSE ","V020","040,1,N,0021,1","99999,9,C,N","011265,1,N,1","+0120,1","+0040,1","99999,9","02,5,+01650,5,99,9","04,5,+02400,1,99,9",,"04,99,1,99,9,99,9,99999,9,99,9,99,9","10220,1,99999,9",,,,,"MET067METAR ETSE 281320Z 04004KT 9999 FEW055 SCT080 12/04 Q1022 BLU/BLU/;","P01 024003SCOCIG"
"10869099999","2010-10-28T14:20:00","4","48.322333","11.948667","461.77","ERDING, GM","FM-15","ETSE ","V020","999,9,V,0010,1","99999,9,C,N","011265,1,N,1","+0120,1","+0030,1","99999,9","02,5,+01650,5,99,9","04,5,+02400,1,99,9",,"04,99,1,99,9,99,9,99999,9,99,9,99,9","10220,1,99999,9",,,,,"MET074METAR ETSE 281420Z VRB02KT 9999 FEW055 SCT080 12/03 Q1022 BLU/FCST CANCEL;","P01 024003SCOCIG"
"10869099999","2010-10-29T05:20:00","4","48.322333","11.948667","461.77","ERDING, GM","FM-15","ETSE ","V020","140,1,N,0015,1","22000,1,9,N","011265,1,N,1","+0010,1","+0010,1","99999,9","02,5,+01650,5,99,9",,,"02,99,1,99,9,99,9,99999,9,99,9,99,9","10190,1,99999,9","12,1",,,,"MET061METAR ETSE 290520Z 14003KT 9999 MIFG FEW055 01/01 Q1019 BLU/;",
"10869099999","2010-10-29T06:16:00","4","48.322333","11.948667","461.77","ERDING, GM","FM-16","ETSE ","V020","130,1,N,0026,1","22000,1,9,N","000900,1,N,1","+0010,1","+0010,1","99999,9","02,5,+05100,1,99,9",,,"02,99,1,99,9,99,9,99999,9,99,9,99,9","10190,1,99999,9","44,1",,,,"MET058SPECI ETSE 290616Z 13005KT 0900 FG FEW170 01/01 Q1019 AMB;",
"10869099999","2010-10-29T06:20:00","4","48.322333","11.948667","461.77","ERDING, GM","FM-15","ETSE ","V020","120,1,N,0026,1","22000,1,9,N","000600,1,N,1","+0000,1","+0000,1","99999,9","02,5,+05100,1,99,9",,,"02,99,1,99,9,99,9,99999,9,99,9,99,9","10190,1,99999,9","44,1",,,,"MET058METAR ETSE 290620Z 12005KT 0600 FG FEW170 00/00 Q1019 RED;",
"10869099999","2010-10-29T06:29:00","4","48.322333","11.948667","461.77","ERDING, GM","FM-16","ETSE ","V020","120,1,N,0026,1","22000,1,9,N","001300,1,N,1","+0010,1","+0010,1","99999,9","02,5,+00000,5,99,9",,,"02,99,1,99,9,99,9,99999,9,99,9,99,9","10190,1,99999,9","40,1",,,,"MET060SPECI ETSE 290629Z 12005KT 1300 VCFG FEW000 01/01 Q1019 AMB;",
"10869099999","2010-10-29T06:39:00","4","48.322333","11.948667","461.77","ERDING, GM","FM-16","ETSE ","V020","120,1,N,0026,1","22000,1,9,N","003000,1,N,1","+0010,1","+0010,1","99999,9","02,5,+00000,5,99,9",,,"02,99,1,99,9,99,9,99999,9,99,9,99,9","10190,1,99999,9","40,1",,,,"MET060SPECI ETSE 290639Z 12005KT 3000 VCFG FEW000 01/01 Q1019 YLO;",
"10869099999","2010-10-29T07:00:00","4","48.322333","11.948667","461.77","ERDING, GM","FM-15","ETSE ","V020","120,1,N,0026,1","22000,1,9,N","003800,1,N,1","+0010,1","+0010,1","99999,9","02,5,+00060,1,99,9",,,"02,99,1,99,9,99,9,99999,9,99,9,99,9","10190,1,99999,9","40,1",,,,"MET060SPECI ETSE 290656Z 12005KT 3800 VCFG FEW002 01/01 Q1019 GRN;",
"10869099999","2010-10-29T07:07:00","4","48.322333","11.948667","461.77","ERDING, GM","FM-16","ETSE ","V020","120,1,N,0021,1","22000,1,9,N","008000,1,N,1","+0020,1","+0020,1","99999,9","02,5,+00060,1,99,9",,,"02,99,1,99,9,99,9,99999,9,99,9,99,9","10190,1,99999,9",,,,,"MET056SPECI ETSE 290707Z 12004KT 8000 FEW002 02/02 Q1019 BLU/;",
"10869099999","2010-10-29T07:20:00","4","48.322333","11.948667","461.77","ERDING, GM","FM-15","ETSE ","V020","120,1,N,0021,1","22000,1,9,N","011265,1,N,1","+0020,1","+0020,1","99999,9","02,5,+05100,1,99,9",,,"02,99,1,99,9,99,9,99999,9,99,9,99,9","10190,1,99999,9",,,,,"MET056METAR ETSE 290720Z 12004KT 9999 FEW170 02/02 Q1019 BLU/;",
"10869099999","2010-11-02T06:20:00","4","48.322333","11.948667","461.77","ERDING, GM","FM-15","ETSE ","V020","270,1,N,0021,1","06000,1,C,N","004000,1,N,1","+0070,1","+0060,1","99999,9","02,5,+00390,1,99,9","07,5,+06000,1,99,9",,"07,99,1,99,9,99,9,99999,9,99,9,99,9","10139,1,99999,9","10,1",,,,"MET079METAR ETSE 020620Z 27004KT 4000 BR FEW013 BKN200 07/06 Q1014 GRN GRN TEMPO YLO;",
"10869099999","2010-11-02T07:20:00","4","48.322333","11.948667","461.77","ERDING, GM","FM-15","ETSE ","V020","270,1,N,0021,1","06000,1,C,N","003500,1,N,1","+0070,1","+0060,1","99999,9","02,5,+03000,1,99,9","07,5,+06000,1,99,9",,"07,99,1,99,9,99,9,99999,9,99,9,99,9","10149,1,99999,9","10,1",,,,"MET079METAR ETSE 020720Z 27004KT 3500 BR FEW100 BKN200 07/06 Q1015 YLO GRN TEMPO YLO;",
"10869099999","2010-11-02T08:03:00","4","48.322333","11.948667","461.77","ERDING, GM","FM-16","ETSE ","V020","280,1,N,0031,1","00120,1,C,N","003500,1,N,1","+0070,1","+0060,1","99999,9","07,5,+00120,1,99,9",,,"07,99,1,99,9,99,9,99999,9,99,9,99,9","10149,1,99999,9","10,1",,,,"MET072SPECI ETSE 020803Z 28006KT 3500 BR BKN004 07/06 Q1015 YLO GRN TEMPO YLO;",
"10869099999","2010-11-02T08:12:00","4","48.322333","11.948667","461.77","ERDING, GM","FM-16","ETSE ","V020","280,1,N,0036,1","00090,1,C,N","002000,1,N,1","+0070,1","+0060,1","99999,9","07,5,+00090,1,99,9",,,"07,99,1,99,9,99,9,99999,9,99,9,99,9","10149,1,99999,9","10,1",,,,"MET072SPECI ETSE 020812Z 28007KT 2000 BR BKN003 07/06 Q1015 YLO GRN TEMPO YLO;",
"10869099999","2010-11-02T08:20:00","4","48.322333","11.948667","461.77","ERDING, GM","FM-15","ETSE ","V020","280,1,N,0041,1","00030,1,C,N","000400,1,N,1","+0070,1","+0060,1","99999,9","07,5,+00030,1,99,9",,,"07,99,1,99,9,99,9,99999,9,99,9,99,9","10159,1,99999,9","44,1",,,,"MET082METAR ETSE 020820Z 28008KT 0400 R26/1200D FG BKN001 07/06 Q1016 RED GRN TEMPO RED;",
"10869099999","2010-11-02T09:20:00","4","48.322333","11.948667","461.77","ERDING, GM","FM-15","ETSE ","V020","270,1,N,0021,1","00030,1,C,N","000350,1,N,1","+0070,1","+0070,1","99999,9","08,5,+00030,1,99,9",,,"08,99,1,99,9,99,9,99999,9,99,9,99,9","10159,1,99999,9","44,1",,,,"MET082METAR ETSE 020920Z 27004KT 0350 R26/1100U FG OVC001 07/07 Q1016 RED GRN TEMPO RED;",
"10869099999","2010-11-02T10:20:00","4","48.322333","11.948667","461.77","ERDING, GM","FM-15","ETSE ","V020","280,1,N,0036,1","00030,1,C,N","000800,1,N,1","+0070,1","+0070,1","99999,9","08,5,+00030,1,99,9",,,"08,99,1,99,9,99,9,99999,9,99,9,99,9","10159,1,99999,9","44,1",,,,"MET082METAR ETSE 021020Z 28007KT 0800 R26/1200N FG OVC001 07/07 Q1016 RED RED BECMG YLO;",
"10869099999","2010-11-02T10:34:00","4","48.322333","11.948667","461.77","ERDING, GM","FM-16","ETSE ","V020","280,1,N,0031,1","00060,1,C,N","001600,1,N,1","+0070,1","+0070,1","99999,9","07,5,+00060,1,99,9",,,"07,99,1,99,9,99,9,99999,9,99,9,99,9","10159,1,99999,9","10,1",,,,"MET082SPECI ETSE 021034Z 28006KT 1600 R26/1500N BR BKN002 07/07 Q1016 AMB AMB BECMG YLO;",
"10869099999","2010-11-02T11:20:00","4","48.322333","11.948667","461.77","ERDING, GM","FM-15","ETSE ","V020","260,1,N,0026,1","00120,1,C,N","002500,1,N,1","+0080,1","+0070,1","99999,9","07,5,+00120,1,99,9",,,"07,99,1,99,9,99,9,99999,9,99,9,99,9","10159,1,99999,9","10,1",,,,"MET062METAR ETSE 021120Z 26005KT 2500 BR BKN004 08/07 Q1016 YLO YLO;",
"10869099999","2010-11-02T12:20:00","4","48.322333","11.948667","461.77","ERDING, GM","FM-15","ETSE ","V020","280,1,N,0031,1","00150,1,C,N","002500,1,N,1","+0080,1","+0070,1","99999,9","07,5,+00150,1,99,9",,,"07,99,1,99,9,99,9,99999,9,99,9,99,9","10159,1,99999,9","10,1",,,,"MET072METAR ETSE 021220Z 28006KT 2500 BR BKN005 08/07 Q1016 YLO YLO BECMG GRN;",
"10869099999","2010-11-02T13:20:00","4","48.322333","11.948667","461.77","ERDING, GM","FM-15","ETSE ","V020","320,1,N,0031,1","00150,1,C,N","002500,1,N,1","+0080,1","+0070,1","99999,9","07,5,+00150,1,99,9",,,"07,99,1,99,9,99,9,99999,9,99,9,99,9","10159,1,99999,9","10,1",,,,"MET072METAR ETSE 021320Z 32006KT 2500 BR BKN005 08/07 Q1016 YLO YLO BECMG GRN;",
"10869099999","2010-11-02T13:49:00","4","48.322333","11.948667","461.77","ERDING, GM","FM-16","ETSE ","V020","320,1,N,0026,1","00210,1,C,N","003700,1,N,1","+0080,1","+0070,1","99999,9","07,5,+00210,1,99,9","07,5,+00330,1,99,9",,"07,99,1,99,9,99,9,99999,9,99,9,99,9","10169,1,99999,9","10,1",,,,"MET069SPECI ETSE 021349Z 32005KT 3700 BR BKN007 BKN011 08/07 Q1017 GRN GRN;",
"10869099999","2010-11-02T14:20:00","4","48.322333","11.948667","461.77","ERDING, GM","FM-15","ETSE ","V020","300,1,N,0031,1","00210,1,C,N","003800,1,N,1","+0080,1","+0070,1","99999,9","07,5,+00210,1,99,9","07,5,+00330,1,99,9",,"07,99,1,99,9,99,9,99999,9,99,9,99,9","10169,1,99999,9","10,1",,,,"MET069METAR ETSE 021420Z 30006KT 3800 BR BKN007 BKN011 08/07 Q1017 GRN GRN;",
"10869099999","2010-11-02T15:20:00","4","48.322333","11.948667","461.77","ERDING, GM","FM-15","ETSE ","V020","290,1,N,0031,1","00240,1,C,N","003800,1,N,1","+0080,1","+0070,1","99999,9","08,5,+00240,1,99,9",,,"08,99,1,99,9,99,9,99999,9,99,9,99,9","10169,1,99999,9","10,1",,,,"MET070METAR ETSE 021520Z 29006KT 3800 BR OVC008 08/07 Q1017 GRN FCST CANCEL;",
"10869099999","2010-11-03T06:20:00","4","48.322333","11.948667","461.77","ERDING, GM","FM-15","ETSE ","V020","210,1,N,0015,1","06000,1,C,N","004500,1,N,1","+0050,1","+0050,1","99999,9","02,5,+00900,1,99,9","07,5,+06000,1,99,9",,"07,99,1,99,9,99,9,99999,9,99,9,99,9","10190,1,99999,9","10,1","12,1",,,"MET070METAR ETSE 030620Z 21003KT 4500 MIFG BR FEW030 BKN200 05/05 Q1019 GRN;",
"10869099999","2010-11-03T07:20:00","4","48.322333","11.948667","461.77","ERDING, GM","FM-15","ETSE ","V020","230,1,N,0026,1","06000,1,C,N","008000,1,N,1","+0070,1","+0060,1","99999,9","02,5,+04200,1,99,9","07,5,+06000,1,99,9",,"07,99,1,99,9,99,9,99999,9,99,9,99,9","10190,1,99999,9",,,,,"MET063METAR ETSE 030720Z 23005KT 8000 FEW140 BKN200 07/06 Q1019 BLU/;",
"10869099999","2010-11-03T08:20:00","4","48.322333","11.948667","461.77","ERDING, GM","FM-15","ETSE ","V020","240,1,N,0031,1","06300,1,C,N","011265,1,N,1","+0100,1","+0060,1","99999,9","02,5,+01050,1,99,9","07,5,+06300,1,99,9",,"07,99,1,99,9,99,9,99999,9,99,9,99,9","10190,1,99999,9",,,,,"MET077METAR ETSE 030820Z 24006KT 9999 FEW035 BKN210 10/06 Q1019 BLU/BLU/ BECMG BLU;",
"10869099999","2010-11-03T09:20:00","4","48.322333","11.948667","461.77","ERDING, GM","FM-15","ETSE ","V020","250,1,N,0041,1","06300,1,C,N","011265,1,N,1","+0110,1","+0070,1","99999,9","04,5,+01200,1,99,9","07,5,+06300,1,99,9",,"07,99,1,99,9,99,9,99999,9,99,9,99,9","10190,1,99999,9",,,,,"MET077METAR ETSE 030920Z 25008KT 9999 SCT040 BKN210 11/07 Q1019 BLU/BLU/ BECMG BLU;",
"10869099999","2010-11-03T10:20:00","4","48.322333","11.948667","461.77","ERDING, GM","FM-15","ETSE ","V020","260,1,N,0031,1","01200,1,C,N","011265,1,N,1","+0130,1","+0080,1","99999,9","02,5,+00600,1,99,9","04,5,+01200,1,99,9","07,5,+07200,1,99,9","07,99,1,99,9,99,9,99999,9,99,9,99,9","10190,1,99999,9",,,,,"MET084METAR ETSE 031020Z 26006KT 9999 FEW020 SCT040 BKN240 13/08 Q1019 BLU/BLU TEMPO BLU/;",
"10869099999","2010-11-03T11:20:00","4","48.322333","11.948667","461.77","ERDING, GM","FM-15","ETSE ","V020","240,1,N,0041,1","03600,1,C,N","011265,1,N,1","+0140,1","+0080,1","99999,9","02,5,+00660,1,99,9","04,5,+03600,1,99,9","07,5,+06900,1,99,9","07,99,1,99,9,99,9,99999,9,99,9,99,9","10190,1,99999,9",,,,,"MET084METAR ETSE 031120Z 24008KT 9999 FEW022 SCT120 BKN230 14/08 Q1019 BLU/BLU TEMPO BLU/;",
"10869099999","2010-11-03T12:20:00","4","48.322333","11.948667","461.77","ERDING, GM","FM-15","ETSE ","V020","280,1,N,0046,1","03600,1,C,N","011265,1,N,1","+0140,1","+0080,1","99999,9","04,5,+01050,1,99,9","07,5,+03600,1,99,9","07,5,+06900,1,99,9","07,99,1,99,9,99,9,99999,9,99,9,99,9","10190,1,99999,9",,,,,"MET084METAR ETSE 031220Z 28009KT 9999 SCT035 BKN120 BKN230 14/08 Q1019 BLU BLU TEMPO BLU/;",
"10869099999","2010-11-03T13:20:00","4","48.322333","11.948667","461.77","ERDING, GM","FM-15","ETSE ","V020","270,1,N,0057,1","01050,1,C,N","011265,1,N,1","+0140,1","+0080,1","99999,9","07,5,+01050,1,99,9","04,5,+03600,1,99,9",,,"10180,1,99999,9",,,,,"MET077METAR ETSE 031320Z 27011KT 9999 BKN035 SCT120 14/08 Q1018 BLU BLU TEMPO BLU/;","Q01+000042SCOTCV"
"10869099999","2010-11-03T14:20:00","4","48.322333","11.948667","461.77","ERDING, GM","FM-15","ETSE ","V020","280,1,N,0051,1","22000,1,9,N","011265,1,N,1","+0140,1","+0080,1","99999,9","04,5,+01050,1,99,9",,,"04,99,1,99,9,99,9,99999,9,99,9,99,9","10190,1,99999,9",,,,,"MET070METAR ETSE 031420Z 28010KT 9999 SCT035 14/08 Q1019 BLU/BLU TEMPO BLU/;",
"10869099999","2010-11-03T15:00:00","4","48.322333","11.948667","461.77","ERDING, GM","FM-16","ETSE ","V020","270,1,N,0031,1","99999,9,C,N","011265,1,N,1","+0130,1","+0080,1","99999,9","04,5,+00900,1,99,9","04,5,+06900,1,99,9",,"04,99,1,99,9,99,9,99999,9,99,9,99,9","10190,1,99999,9",,,,,"MET074SPECI ETSE 031500Z 27006KT 9999 SCT030 SCT230 13/08 Q1019 BLU/FCST CANCEL;","P01 069003SCOCIG"
"10869099999","2010-11-04T06:20:00","4","48.322333","11.948667","461.77","ERDING, GM","FM-15","ETSE ","V020","240,1,N,0036,1","01080,1,C,N","011265,1,N,1","+0130,1","+0080,1","99999,9","07,5,+01080,1,99,9","07,5,+02100,1,99,9",,"07,99,1,99,9,99,9,99999,9,99,9,99,9","10261,1,99999,9",,,,,"MET077METAR ETSE 040620Z 24007KT 9999 BKN036 BKN070 13/08 Q1026 BLU BLU TEMPO BLU/;",
"10869099999","2010-11-04T07:20:00","4","48.322333","11.948667","461.77","ERDING, GM","FM-15","ETSE ","V020","250,1,N,0046,1","00960,1,C,N","011265,1,N,1","+0130,1","+0080,1","99999,9","07,5,+00960,1,99,9","07,5,+07800,1,99,9",,"07,99,1,99,9,99,9,99999,9,99,9,99,9","10261,1,99999,9",,,,,"MET077METAR ETSE 040720Z 25009KT 9999 BKN032 BKN260 13/08 Q1026 BLU BLU TEMPO BLU/;",
"10869099999","2010-11-04T08:20:00","4","48.322333","11.948667","461.77","ERDING, GM","FM-15","ETSE ","V020","250,1,N,0062,1","07800,1,C,N","011265,1,N,1","+0150,1","+0080,1","99999,9","02,5,+00960,1,99,9","07,5,+07800,1,99,9",,"07,99,1,99,9,99,9,99999,9,99,9,99,9","10261,1,99999,9",,,,"0113,1","MET080METAR ETSE 040820Z 25012G22KT 9999 FEW032 BKN260 15/08 Q1026 BLU/BLU TEMPO BLU/;",
"10869099999","2010-11-04T09:20:00","4","48.322333","11.948667","461.77","ERDING, GM","FM-15","ETSE ","V020","260,1,N,0051,1","07800,1,C,N","011265,1,N,1","+0150,1","+0090,1","99999,9","02,5,+00960,1,99,9","07,5,+07800,1,99,9",,"07,99,1,99,9,99,9,99999,9,99,9,99,9","10271,1,99999,9",,,,,"MET077METAR ETSE 040920Z 26010KT 9999 FEW032 BKN260 15/09 Q1027 BLU/BLU TEMPO BLU/;",
"10869099999","2010-11-04T10:20:00","4","48.322333","11.948667","461.77","ERDING, GM","FM-15","ETSE ","V020","270,1,N,0077,1","07800,1,C,N","011265,1,N,1","+0160,1","+0090,1","99999,9","02,5,+00750,1,99,9","07,5,+07800,1,99,9",,"07,99,1,99,9,99,9,99999,9,99,9,99,9","10261,1,99999,9",,,,,"MET077METAR ETSE 041020Z 27015KT 9999 FEW025 BKN260 16/09 Q1026 BLU/BLU TEMPO BLU/;",
"10869099999","2010-11-04T11:20:00","4","48.322333","11.948667","461.77","ERDING, GM","FM-15","ETSE ","V020","260,1,N,0072,1","07800,1,C,N","011265,1,N,1","+0170,1","+0090,1","99999,9","02,5,+00900,1,99,9","07,5,+07800,1,99,9",,"07,99,1,99,9,99,9,99999,9,99,9,99,9","10261,1,99999,9",,,,"0129,1","MET070METAR ETSE 041120Z 26014G25KT 9999 FEW030 BKN260 17/09 Q1026 BLU/BLU/;",
"10869099999","2010-11-04T12:20:00","4","48.322333","11.948667","461.77","ERDING, GM","FM-15","ETSE ","V020","270,1,N,0057,1","08400,1,C,N","011265,1,N,1","+0170,1","+0100,1","99999,9","02,5,+01110,1,99,9","07,5,+08400,1,99,9",,"07,99,1,99,9,99,9,99999,9,99,9,99,9","10261,1,99999,9",,,,,"MET067METAR ETSE 041220Z 27011KT 9999 FEW037 BKN280 17/10 Q1026 BLU/BLU/;",
"10869099999","2010-11-04T13:20:00","4","48.322333","11.948667","461.77","ERDING, GM","FM-15","ETSE ","V020","280,1,N,0067,1","08400,1,C,N","011265,1,N,1","+0170,1","+0100,1","99999,9","02,5,+01140,1,99,9","07,5,+08400,1,99,9",,"07,99,1,99,9,99,9,99999,9,99,9,99,9","10261,1,99999,9",,,,,"MET067METAR ETSE 041320Z 28013KT 9999 FEW038 BKN280 17/10 Q1026 BLU/BLU/;",
"10869099999","2010-11-04T14:20:00","4","48.322333","11.948667","461.77","ERDING, GM","FM-15","ETSE ","V020","260,1,N,0057,1","08400,1,C,N","011265,1,N,1","+0170,1","+0090,1","99999,9","02,5,+01200,1,99,9","07,5,+08400,1,99,9",,"07,99,1,99,9,99,9,99999,9,99,9,99,9","10261,1,99999,9",,,,,"MET067METAR ETSE 041420Z 26011KT 9999 FEW040 BKN280 17/09 Q1026 BLU/BLU/;",
"10869099999","2010-11-04T15:20:00","4","48.322333","11.948667","461.77","ERDING, GM","FM-15","ETSE ","V020","250,1,N,0041,1","08400,1,C,N","011265,1,N,1","+0170,1","+0090,1","99999,9","02,5,+01200,1,99,9","07,5,+08400,1,99,9",,"07,99,1,99,9,99,9,99999,9,99,9,99,9","10261,1,99999,9",,,,,"MET074METAR ETSE 041520Z 25008KT 9999 FEW040 BKN280 17/09 Q1026 BLU/FCST CANCEL;",
"10869099999","2010-11-05T06:20:00","4","48.322333","11.948667","461.77","ERDING, GM","FM-15","ETSE ","V020","260,1,N,0036,1","00780,1,C,N","011265,1,N,1","+0140,1","+0100,1","99999,9","07,5,+00780,1,99,9","07,5,+07500,1,99,9",,"07,99,1,99,9,99,9,99999,9,99,9,99,9","10261,1,99999,9",,,,,"MET062METAR ETSE 050620Z 26007KT 9999 BKN026 BKN250 14/10 Q1026 BLU;",
"10869099999","2010-11-05T07:20:00","4","48.322333","11.948667","461.77","ERDING, GM","FM-15","ETSE ","V020","260,1,N,0046,1","07500,1,C,N","011265,1,N,1","+0140,1","+0100,1","99999,9","04,5,+00900,1,99,9","07,5,+07500,1,99,9",,"07,99,1,99,9,99,9,99999,9,99,9,99,9","10261,1,99999,9",,,,,"MET063METAR ETSE 050720Z 26009KT 9999 SCT030 BKN250 14/10 Q1026 BLU/;",
"10869099999","2010-11-05T08:20:00","4","48.322333","11.948667","461.77","ERDING, GM","FM-15","ETSE ","V020","260,1,N,0046,1","07500,1,C,N","011265,1,N,1","+0140,1","+0100,1","99999,9","04,5,+00750,1,99,9","07,5,+07500,1,99,9",,"07,99,1,99,9,99,9,99999,9,99,9,99,9","10271,1,99999,9",,,,,"MET063METAR ETSE 050820Z 26009KT 9999 SCT025 BKN250 14/10 Q1027 BLU/;",
"10869099999","2010-11-08T06:20:00","4","48.322333","11.948667","461.77","ERDING, GM","FM-15","ETSE ","V020","240,1,N,0031,1","00510,1,C,N","011265,1,N,1","+0050,1","+0030,1","99999,9","02,5,+00240,1,99,9","07,5,+00510,1,99,9",,"07,99,1,99,9,99,9,99999,9,99,9,99,9","09919,1,99999,9","61,1",,,"0093,1","MET069METAR ETSE 080620Z 24006G18KT 9999 -RA FEW008 BKN017 05/03 Q0992 WHT;",
"10869099999","2010-11-08T07:20:00","4","48.322333","11.948667","461.77","ERDING, GM","FM-15","ETSE ","V020","210,1,N,0026,1","00510,1,C,N","011265,1,N,1","+0040,1","+0030,1","99999,9","04,5,+00270,1,99,9","07,5,+00510,1,99,9",,"07,99,1,99,9,99,9,99999,9,99,9,99,9","09909,1,99999,9","61,1",,,,"MET066METAR ETSE 080720Z 21005KT 9999 -RA SCT009 BKN017 04/03 Q0991 WHT;",
"10869099999","2010-11-08T08:20:00","4","48.322333","11.948667","461.77","ERDING, GM","FM-15","ETSE ","V020","200,1,N,0036,1","00630,1,C,N","011265,1,N,1","+0040,1","+0030,1","99999,9","02,5,+00180,1,99,9","04,5,+00630,1,99,9","07,5,+02700,1,99,9","07,99,1,99,9,99,9,99999,9,99,9,99,9","09909,1,99999,9","61,1",,,,"MET073METAR ETSE 080820Z 20007KT 9999 -RA FEW006 SCT021 BKN090 04/03 Q0991 BLU;",
"10869099999","2010-11-08T09:20:00","4","48.322333","11.948667","461.77","ERDING, GM","FM-15","ETSE ","V020","220,1,N,0021,1","00570,1,C,N","011265,1,N,1","+0040,1","+0030,1","99999,9","02,5,+00180,1,99,9","04,5,+00570,1,99,9","07,5,+03000,1,99,9","07,99,1,99,9,99,9,99999,9,99,9,99,9","09892,1,99999,9","61,1",,,,"MET073METAR ETSE 080920Z 22004KT 9999 -RA FEW006 SCT019 BKN100 04/03 Q0989 BLU;",
"10869099999","2010-11-08T10:20:00","4","48.322333","11.948667","461.77","ERDING, GM","FM-15","ETSE ","V020","190,1,N,0021,1","00570,1,C,N","011265,1,N,1","+0050,1","+0030,1","99999,9","02,5,+00210,1,99,9","07,5,+00570,1,99,9",,"07,99,1,99,9,99,9,99999,9,99,9,99,9","09882,1,99999,9","61,1",,,,"MET066METAR ETSE 081020Z 19004KT 9999 -RA FEW007 BKN019 05/03 Q0988 WHT;",
"10869099999","2010-11-08T11:20:00","4","48.322333","11.948667","461.77","ERDING, GM","FM-15","ETSE ","V020","300,1,N,0010,1","00270,1,C,N","011265,1,N,1","+0050,1","+0030,1","99999,9","02,5,+00180,1,99,9","04,5,+00270,1,99,9","07,5,+00450,1,99,9","07,99,1,99,9,99,9,99999,9,99,9,99,9","09861,1,99999,9","61,1",,,,"MET073METAR ETSE 081120Z 30002KT 9999 -RA FEW006 SCT009 BKN015 05/03 Q0986 WHT;",
"10869099999","2010-11-08T12:20:00","4","48.322333","11.948667","461.77","ERDING, GM","FM-15","ETSE ","V020","999,9,V,0010,1","00330,1,C,N","011265,1,N,1","+0060,1","+0030,1","99999,9","02,5,+00240,1,99,9","04,5,+00330,1,99,9","07,5,+00660,1,99,9","07,99,1,99,9,99,9,99999,9,99,9,99,9","09851,1,99999,9","61,1",,,,"MET073METAR ETSE 081220Z VRB02KT 9999 -RA FEW008 SCT011 BKN022 06/03 Q0985 WHT;",
"10869099999","2010-11-08T13:20:00","4","48.322333","11.948667","461.77","ERDING, GM","FM-15","ETSE ","V020","100,1,N,0015,1","00450,1,C,N","011265,1,N,1","+0050,1","+0030,1","99999,9","02,5,+00270,1,99,9","04,5,+00450,1,99,9","07,5,+00930,1,99,9","07,99,1,99,9,99,9,99999,9,99,9,99,9","09841,1,99999,9","61,1",,,,"MET073METAR ETSE 081320Z 10003KT 9999 -RA FEW009 SCT015 BKN031 05/03 Q0984 BLU;",
"10869099999","2010-11-08T14:20:00","4","48.322333","11.948667","461.77","ERDING, GM","FM-15","ETSE ","V020","060,1,N,0015,1","00810,1,C,N","011265,1,N,1","+0050,1","+0030,1","99999,9","02,5,+00330,1,99,9","07,5,+00810,1,99,9",,"07,99,1,99,9,99,9,99999,9,99,9,99,9","09831,1,99999,9","61,1",,,,"MET066METAR ETSE 081420Z 06003KT 9999 -RA FEW011 BKN027 05/03 Q0983 BLU;",
"10869099999","2010-11-09T06:20:00","4","48.322333","11.948667","461.77","ERDING, GM","FM-15","ETSE ","V020","120,1,N,0026,1","02400,1,C,N","007000,1,N,1","+0020,1","+0020,1","99999,9","02,5,+01500,1,99,9","04,5,+02400,1,99,9","07,5,+03300,1,99,9","07,99,1,99,9,99,9,99999,9,99,9,99,9","09810,1,99999,9",,,,,"MET069METAR ETSE 090620Z 12005KT 7000 FEW050 SCT080 BKN110 02/02 Q0981 WHT;",
"10869099999","2010-11-09T07:20:00","4","48.322333","11.948667","461.77","ERDING, GM","FM-15","ETSE ","V020","120,1,N,0021,1","02550,5,C,N","005000,1,N,1","+0030,1","+0030,1","99999,9","04,5,+00120,1,99,9","07,5,+02550,5,99,9",,"07,99,1,99,9,99,9,99999,9,99,9,99,9","09821,1,99999,9","10,1",,,,"MET065METAR ETSE 090720Z 12004KT 5000 BR SCT004 BKN085 03/03 Q0982 WHT;",
"10869099999","2010-11-09T07:39:00","4","48.322333","11.948667","461.77","ERDING, GM","FM-16","ETSE ","V020","120,1,N,0031,1","02550,5,C,N","003500,1,N,1","+0030,1","+0030,1","99999,9","04,5,+00120,1,99,9","07,5,+02550,5,99,9",,"07,99,1,99,9,99,9,99999,9,99,9,99,9","09821,1,99999,9","10,1",,,,"MET065SPECI ETSE 090739Z 12006KT 3500 BR SCT004 BKN085 03/03 Q0982 YLO;",
"10869099999","2010-11-09T08:20:00","4","48.322333","11.948667","461.77","ERDING, GM","FM-15","ETSE ","V020","100,1,N,0021,1","00120,1,C,N","005000,1,N,1","+0030,1","+0030,1","99999,9","07,5,+00120,1,99,9","07,5,+02550,5,99,9",,"07,99,1,99,9,99,9,99999,9,99,9,99,9","09821,1,99999,9","10,1",,,,"MET065METAR ETSE 090820Z 10004KT 5000 BR BKN004 BKN085 03/03 Q0982 YLO;",
"10869099999","2010-11-09T09:20:00","4","48.322333","11.948667","461.77","ERDING, GM","FM-15","ETSE ","V020","110,1,N,0015,1","00150,1,C,N","007000,1,N,1","+0030,1","+0030,1","99999,9","07,5,+00150,1,99,9",,,"07,99,1,99,9,99,9,99999,9,99,9,99,9","09821,1,99999,9",,,,,"MET055METAR ETSE 090920Z 11003KT 7000 BKN005 03/03 Q0982 YLO;",
"10869099999","2010-11-09T09:45:00","4","48.322333","11.948667","461.77","ERDING, GM","FM-16","ETSE ","V020","060,1,N,0021,1","22000,1,9,N","011265,1,N,1","+0050,1","+0040,1","99999,9","04,5,+00150,1,99,9",,,"04,99,1,99,9,99,9,99999,9,99,9,99,9","09821,1,99999,9",,,,,"MET056SPECI ETSE 090945Z 06004KT 9999 SCT005 05/04 Q0982 BLU/;",
"10869099999","2010-11-09T10:20:00","4","48.322333","11.948667","461.77","ERDING, GM","FM-15","ETSE ","V020","060,1,N,0015,1","22000,1,9,N","011265,1,N,1","+0050,1","+0030,1","99999,9","04,5,+00270,1,99,9",,,"04,99,1,99,9,99,9,99999,9,99,9,99,9","09821,1,99999,9",,,,,"MET056METAR ETSE 091020Z 06003KT 9999 SCT009 05/03 Q0982 BLU/;",
"10869099999","2010-11-09T11:20:00","4","48.322333","11.948667","461.77","ERDING, GM","FM-15","ETSE ","V020","060,1,N,0031,1","99999,9,C,N","011265,1,N,1","+0060,1","+0040,1","99999,9","02,5,+00300,1,99,9","04,5,+05400,1,99,9",,"04,99,1,99,9,99,9,99999,9,99,9,99,9","09810,1,99999,9",,,,,"MET063METAR ETSE 091120Z 06006KT 9999 FEW010 SCT180 06/04 Q0981 BLU/;","P01 054003SCOCIG"
"10869099999","2010-11-09T12:20:00","4","48.322333","11.948667","461.77","ERDING, GM","FM-15","ETSE ","V020","120,1,N,0026,1","99999,9,C,N","011265,1,N,1","+0060,1","+0040,1","99999,9","04,5,+00360,1,99,9","04,5,+06600,1,99,9",,"04,99,1,99,9,99,9,99999,9,99,9,99,9","09810,1,99999,9",,,,,"MET063METAR ETSE 091220Z 12005KT 9999 SCT012 SCT220 06/04 Q0981 BLU/;","P01 066003SCOCIG"
"10869099999","2010-11-09T13:20:00","4","48.322333","11.948667","461.77","ERDING, GM","FM-15","ETSE ","V020","090,1,N,0021,1","06600,1,C,N","011265,1,N,1","+0070,1","+0040,1","99999,9","02,5,+00450,1,99,9","07,5,+06600,1,99,9",,"07,99,1,99,9,99,9,99999,9,99,9,99,9","09810,1,99999,9",,,,,"MET063METAR ETSE 091320Z 09004KT 9999 FEW015 BKN220 07/04 Q0981 BLU/;",
"10869099999","2010-11-09T14:20:00","4","48.322333","11.948667","461.77","ERDING, GM","FM-15","ETSE ","V020","100,1,N,0026,1","06900,1,C,N","011265,1,N,1","+0070,1","+0040,1","99999,9","02,5,+00510,1,99,9","07,5,+06900,1,99,9",,"07,99,1,99,9,99,9,99999,9,99,9,99,9","09821,1,99999,9",,,,,"MET063METAR ETSE 091420Z 10005KT 9999 FEW017 BKN230 07/04 Q0982 BLU/;",
"10869099999","2010-11-10T06:20:00","4","48.322333","11.948667","461.77","ERDING, GM","FM-15","ETSE ","V020","140,1,N,0010,1","22000,1,9,N","008000,1,N,1","-0020,1","-0020,1","99999,9","02,5,+05700,1,99,9",,,"02,99,1,99,9,99,9,99999,9,99,9,99,9","09892,1,99999,9",,,,,"MET058METAR ETSE 100620Z 14002KT 8000 FEW190 M02/M02 Q0989 BLU/;",
"10869099999","2010-11-10T07:20:00","4","48.322333","11.948667","461.77","ERDING, GM","FM-15","ETSE ","V020","120,1,N,0015,1","22000,1,9,N","008000,1,N,1","-0010,1","-0010,1","99999,9","02,5,+05400,1,99,9",,,"02,99,1,99,9,99,9,99999,9,99,9,99,9","09892,1,99999,9",,,,,"MET058METAR ETSE 100720Z 12003KT 8000 FEW180 M01/M01 Q0989 BLU/;",
"10869099999","2010-11-10T08:20:00","4","48.322333","11.948667","461.77","ERDING, GM","FM-15","ETSE ","V020","999,9,V,0010,1","99999,9,C,N","007000,1,N,1","+0000,1","+0000,1","99999,9","02,5,+05400,1,99,9","04,5,+06600,1,99,9",,"04,99,1,99,9,99,9,99999,9,99,9,99,9","09898,1,99999,9",,,,,"MET062METAR ETSE 100820Z VRB02KT 7000 FEW180 SCT220 00/00 Q0990 WHT;","P01 066003SCOCIG"
"10869099999","2010-11-10T09:20:00","4","48.322333","11.948667","461.77","ERDING, GM","FM-15","ETSE ","V020","110,1,N,0015,1","06600,1,C,N","008000,1,N,1","+0020,1","+0020,1","99999,9","02,5,+04800,1,99,9","07,5,+06600,1,99,9",,"07,99,1,99,9,99,9,99999,9,99,9,99,9","09909,1,99999,9",,,,,"MET063METAR ETSE 100920Z 11003KT 8000 FEW160 BKN220 02/02 Q0991 BLU/;",
"10869099999","2010-11-10T10:20:00","4","48.322333","11.948667","461.77","ERDING, GM","FM-15","ETSE ","V020","999,9,V,0010,1","06300,1,C,N","011265,1,N,1","+0050,1","+0040,1","99999,9","04,5,+04500,1,99,9","07,5,+06300,1,99,9",,"07,99,1,99,9,99,9,99999,9,99,9,99,9","09919,1,99999,9",,,,,"MET063METAR ETSE 101020Z VRB02KT 9999 SCT150 BKN210 05/04 Q0992 BLU/;",
"10869099999","2010-11-10T11:20:00","4","48.322333","11.948667","461.77","ERDING, GM","FM-15","ETSE ","V020","330,1,N,0010,1","04500,1,C,N","011265,1,N,1","+0060,1","+0040,1","99999,9","02,5,+03600,1,99,9","04,5,+04500,1,99,9","07,5,+06300,1,99,9","07,99,1,99,9,99,9,99999,9,99,9,99,9","09919,1,99999,9",,,,,"MET070METAR ETSE 101120Z 33002KT 9999 FEW120 SCT150 BKN210 06/04 Q0992 BLU/;",
"10869099999","2010-11-10T12:20:00","4","48.322333","11.948667","461.77","ERDING, GM","FM-15","ETSE ","V020","040,1,N,0015,1","03600,1,C,N","011265,1,N,1","+0070,1","+0040,1","99999,9","02,5,+03000,1,99,9","04,5,+03600,1,99,9","07,5,+05400,1,99,9","07,99,1,99,9,99,9,99999,9,99,9,99,9","09919,1,99999,9",,,,,"MET069METAR ETSE 101220Z 04003KT 9999 FEW100 SCT120 BKN180 07/04 Q0992 BLU;",
"10869099999","2010-11-10T13:20:00","4","48.322333","11.948667","461.77","ERDING, GM","FM-15","ETSE ","V020","020,1,N,0010,1","05700,1,C,N","011265,1,N,1","+0080,1","+0050,1","99999,9","02,5,+03000,1,99,9","07,5,+05700,1,99,9",,"07,99,1,99,9,99,9,99999,9,99,9,99,9","09929,1,99999,9",,,,,"MET062METAR ETSE 101320Z 02002KT 9999 FEW100 BKN190 08/05 Q0993 BLU;",
"10869099999","2010-11-10T14:20:00","4","48.322333","11.948667","461.77","ERDING, GM","FM-15","ETSE ","V020","050,1,N,0010,1","99999,9,C,N","011265,1,N,1","+0090,1","+0050,1","99999,9","04,5,+03300,1,99,9","04,5,+05700,1,99,9",,"04,99,1,99,9,99,9,99999,9,99,9,99,9","09939,1,99999,9",,,,,"MET063METAR ETSE 101420Z 05002KT 9999 SCT110 SCT190 09/05 Q0994 BLU/;","P01 057003SCOCIG"
"10869099999","2010-11-11T06:20:00","4","48.322333","11.948667","461.77","ERDING, GM","FM-15","ETSE ","V020","270,1,N,0010,1","01740,5,C,N","011265,1,N,1","+0030,1","+0020,1","99999,9","02,5,+00600,1,99,9","07,5,+01740,5,99,9",,"07,99,1,99,9,99,9,99999,9,99,9,99,9","10119,1,99999,9",,,,,"MET062METAR ETSE 110620Z 27002KT 9999 FEW020 BKN058 03/02 Q1012 BLU;",
"10869099999","2010-11-11T07:20:00","4","48.322333","11.948667","461.77","ERDING, GM","FM-15","ETSE ","V020","190,1,N,0026,1","02400,1,C,N","011265,1,N,1","+0040,1","+0020,1","99999,9","02,5,+00600,1,99,9","07,5,+02400,1,99,9",,"07,99,1,99,9,99,9,99999,9,99,9,99,9","10129,1,99999,9",,,,,"MET062METAR ETSE 110720Z 19005KT 9999 FEW020 BKN080 04/02 Q1013 BLU;",
"10869099999","2010-11-11T08:20:00","4","48.322333","11.948667","461.77","ERDING, GM","FM-15","ETSE ","V020","200,1,N,0021,1","99999,9,C,N","011265,1,N,1","+0050,1","+0020,1","99999,9","02,5,+00660,1,99,9","04,5,+01200,1,99,9",,"04,99,1,99,9,99,9,99999,9,99,9,99,9","10129,1,99999,9",,,,,"MET063METAR ETSE 110820Z 20004KT 9999 FEW022 SCT040 05/02 Q1013 BLU/;","P01 012003SCOCIG"
"10869099999","2010-11-11T10:20:00","4","48.322333","11.948667","461.77","ERDING, GM","FM-15","ETSE ","V020","270,1,N,0036,1","22000,1,9,N","011265,1,N,1","+0060,1","+0020,1","99999,9","02,5,+00750,1,99,9",,,"02,99,1,99,9,99,9,99999,9,99,9,99,9","10119,1,99999,9",,,,,"MET056METAR ETSE 111020Z 27007KT 9999 FEW025 06/02 Q1012 BLU/;",
"10869099999","2010-11-11T11:20:00","4","48.322333","11.948667","461.77","ERDING, GM","FM-15","ETSE ","V020","240,1,N,0036,1","22000,1,9,N","011265,1,N,1","+0070,1","+0010,1","99999,9","02,5,+01140,1,99,9",,,"02,99,1,99,9,99,9,99999,9,99,9,99,9","10119,1,99999,9",,,,,"MET056METAR ETSE 111120Z 24007KT 9999 FEW038 07/01 Q1012 BLU/;",
"10869099999","2010-11-11T12:20:00","4","48.322333","11.948667","461.77","ERDING, GM","FM-15","ETSE ","V020","250,1,N,0036,1","22000,1,9,N","011265,1,N,1","+0080,1","+0000,1","99999,9","02,5,+01170,1,99,9",,,"02,99,1,99,9,99,9,99999,9,99,9,99,9","10108,1,99999,9",,,,,"MET057METAR ETSE 111220Z 25007KT 9999 FEW039 08/M00 Q1011 BLU/;",
"10869099999","2010-11-11T13:20:00","4","48.322333","11.948667","461.77","ERDING, GM","FM-15","ETSE ","V020","260,1,N,0031,1","99999,9,C,N","011265,1,N,1","+0090,1","+0010,1","99999,9","02,5,+01140,1,99,9","04,5,+07500,1,99,9",,"04,99,1,99,9,99,9,99999,9,99,9,99,9","10102,1,99999,9",,,,,"MET063METAR ETSE 111320Z 26006KT 9999 FEW038 SCT250 09/01 Q1010 BLU/;","P01 075003SCOCIG"
"10869099999","2010-11-11T14:20:00","4","48.322333","11.948667","461.77","ERDING, GM","FM-15","ETSE ","V020","240,1,N,0031,1","07500,1,C,N","011265,1,N,1","+0090,1","+0000,1","99999,9","02,5,+01200,1,99,9","07,5,+07500,1,99,9",,"07,99,1,99,9,99,9,99999,9,99,9,99,9","10091,1,99999,9",,,,,"MET064METAR ETSE 111420Z 24006KT 9999 FEW040 BKN250 09/M00 Q1009 BLU/;",
"10869099999","2010-11-11T15:20:00","4","48.322333","11.948667","461.77","ERDING, GM","FM-15","ETSE ","V020","190,1,N,0015,1","06600,1,C,N","011265,1,N,1","+0070,1","+0010,1","99999,9","02,5,+01200,1,99,9","07,5,+06600,1,99,9",,"07,99,1,99,9,99,9,99999,9,99,9,99,9","10091,1,99999,9",,,,,"MET063METAR ETSE 111520Z 19003KT 9999 FEW040 BKN220 07/01 Q1009 BLU/;",
"10869099999","2010-11-12T06:20:00","4","48.322333","11.948667","461.77","ERDING, GM","FM-15","ETSE ","V020","310,1,N,0077,1","00450,1,C,N","006000,1,N,1","+0080,1","+0070,1","99999,9","02,5,+00210,1,99,9","04,5,+00450,1,99,9","07,5,+00930,1,99,9","07,99,1,99,9,99,9,99999,9,99,9,99,9","10000,1,99999,9","63,1",,,"0134,1","MET075METAR ETSE 120620Z 31015G26KT 6000 RA FEW007 SCT015 BKN031 08/07 Q1000 WHT;",
"10869099999","2010-11-12T07:20:00","4","48.322333","11.948667","461.77","ERDING, GM","FM-15","ETSE ","V020","300,1,N,0062,1","00810,1,C,N","011265,1,N,1","+0090,1","+0070,1","99999,9","02,5,+00300,1,99,9","07,5,+00810,1,99,9",,"07,99,1,99,9,99,9,99999,9,99,9,99,9","10010,1,99999,9","61,1",,,,"MET071METAR ETSE 120720Z 30012KT 9999 -RA FEW010 BKN027 09/07 Q1001 RERA BLU;",
"10869099999","2010-11-12T08:20:00","4","48.322333","11.948667","461.77","ERDING, GM","FM-15","ETSE ","V020","300,1,N,0098,1","01050,1,C,N","011265,1,N,1","+0080,1","+0060,1","99999,9","02,5,+00360,1,99,9","07,5,+01050,1,99,9",,"07,99,1,99,9,99,9,99999,9,99,9,99,9","10020,1,99999,9","61,1",,,"0154,1","MET074METAR ETSE 120820Z 30019G30KT 9999 -RA FEW012 BKN035 08/06 Q1002 RERA BLU;",
"10869099999","2010-11-15T06:20:00","4","48.322333","11.948667","461.77","ERDING, GM","FM-15","ETSE ","V020","999,9,C,0000,1","99999,9,C,N","000100,1,N,1","+0030,1","+0030,1","99999,9","02,5,+00000,5,99,9","04,5,+08400,1,99,9",,"04,99,1,99,9,99,9,99999,9,99,9,99,9","10102,1,99999,9","44,1",,,,"MET079METAR ETSE 150620Z 00000KT 0100 FG FEW000 SCT280 03/03 Q1010 RED GRN TEMPO RED;","P01 084003SCOCIG"
"10869099999","2010-11-15T07:05:00","4","48.322333","11.948667","461.77","ERDING, GM","FM-16","ETSE ","V020","180,1,N,0015,1","99999,9,C,N","011265,1,N,1","+0030,1","+0030,1","99999,9","02,5,+02700,1,99,9","04,5,+08400,1,99,9",,"04,99,1,99,9,99,9,99999,9,99,9,99,9","10102,1,99999,9","40,1",,,,"MET082SPECI ETSE 150705Z 18003KT 9999 VCFG FEW090 SCT280 03/03 Q1010 BLU/BLU/ BECMG BLU;","P01 084003SCOCIG"
"10869099999","2010-11-15T07:20:00","4","48.322333","11.948667","461.77","ERDING, GM","FM-15","ETSE ","V020","190,1,N,0015,1","08400,1,C,N","011265,1,N,1","+0040,1","+0040,1","99999,9","02,5,+02700,1,99,9","07,5,+08400,1,99,9",,"07,99,1,99,9,99,9,99999,9,99,9,99,9","10102,1,99999,9","40,1",,,,"MET082METAR ETSE 150720Z 19003KT 9999 VCFG FEW090 BKN280 04/04 Q1010 BLU/BLU/ BECMG BLU;",
"10869099999","2010-11-15T08:20:00","4","48.322333","11.948667","461.77","ERDING, GM","FM-15","ETSE ","V020","999,9,V,0005,1","04800,1,C,N","011265,1,N,1","+0070,1","+0050,1","99999,9","02,5,+02700,1,99,9","04,5,+04800,1,99,9","07,5,+08400,1,99,9","07,99,1,99,9,99,9,99999,9,99,9,99,9","10102,1,99999,9",,,,,"MET084METAR ETSE 150820Z VRB01KT 9999 FEW090 SCT160 BKN280 07/05 Q1010 BLU/BLU/ BECMG BLU;",
"10869099999","2010-11-15T09:20:00","4","48.322333","11.948667","461.77","ERDING, GM","FM-15","ETSE ","V020","350,1,N,0015,1","03300,1,C,N","011265,1,N,1","+0080,1","+0060,1","99999,9","02,5,+00300,1,99,9","04,5,+03300,1,99,9","07,5,+08400,1,99,9","07,99,1,99,9,99,9,99999,9,99,9,99,9","10108,1,99999,9",,,,,"MET084METAR ETSE 150920Z 35003KT 9999 FEW010 SCT110 BKN280 08/06 Q1011 BLU/BLU TEMPO BLU/;",
"10869099999","2010-11-15T10:20:00","4","48.322333","11.948667","461.77","ERDING, GM","FM-15","ETSE ","V020","040,1,N,0015,1","04800,1,C,N","011265,1,N,1","+0080,1","+0070,1","99999,9","02,5,+00030,1,99,9","04,5,+04800,1,99,9","07,5,+08400,1,99,9","07,99,1,99,9,99,9,99999,9,99,9,99,9","10102,1,99999,9",,,,,"MET084METAR ETSE 151020Z 04003KT 9999 FEW001 SCT160 BKN280 08/07 Q1010 BLU/BLU TEMPO BLU/;",
"10869099999","2010-11-15T11:20:00","4","48.322333","11.948667","461.77","ERDING, GM","FM-15","ETSE ","V020","350,1,N,0021,1","04500,1,C,N","011265,1,N,1","+0090,1","+0080,1","99999,9","02,5,+00300,1,99,9","04,5,+04500,1,99,9","07,5,+05400,1,99,9","07,99,1,99,9,99,9,99999,9,99,9,99,9","10091,1,99999,9",,,,,"MET084METAR ETSE 151120Z 35004KT 9999 FEW010 SCT150 BKN180 09/08 Q1009 BLU BLU TEMPO BLU/;",
"10869099999","2010-11-15T12:20:00","4","48.322333","11.948667","461.77","ERDING, GM","FM-15","ETSE ","V020","350,1,N,0015,1","04500,1,C,N","011265,1,N,1","+0110,1","+0090,1","99999,9","02,5,+00360,1,99,9","07,5,+04500,1,99,9",,"07,99,1,99,9,99,9,99999,9,99,9,99,9","10081,1,99999,9",,,,,"MET077METAR ETSE 151220Z 35003KT 9999 FEW012 BKN150 11/09 Q1008 BLU BLU TEMPO BLU/;",
"10869099999","2010-11-15T13:20:00","4","48.322333","11.948667","461.77","ERDING, GM","FM-15","ETSE ","V020","350,1,N,0015,1","04500,1,C,N","011265,1,N,1","+0110,1","+0090,1","99999,9","02,5,+03900,1,99,9","07,5,+04500,1,99,9",,"07,99,1,99,9,99,9,99999,9,99,9,99,9","10081,1,99999,9",,,,,"MET066METAR ETSE 151320Z 35003KT 9999 FEW130 BKN150 11/09 Q1008 BLU BLU;",
"10869099999","2010-11-15T14:20:00","4","48.322333","11.948667","461.77","ERDING, GM","FM-15","ETSE ","V020","040,1,N,0021,1","04200,1,C,N","011265,1,N,1","+0110,1","+0090,1","99999,9","02,5,+03600,1,99,9","07,5,+04200,1,99,9",,"07,99,1,99,9,99,9,99999,9,99,9,99,9","10071,1,99999,9",,,,,"MET066METAR ETSE 151420Z 04004KT 9999 FEW120 BKN140 11/09 Q1007 BLU BLU;",
"10869099999","2010-11-15T15:00:00","4","48.322333","11.948667","461.77","ERDING, GM","FM-16","ETSE ","V020","010,1,N,0021,1","03300,1,C,N","011265,1,N,1","+0100,1","+0090,1","99999,9","02,5,+02700,1,99,9","07,5,+03300,1,99,9",,"07,99,1,99,9,99,9,99999,9,99,9,99,9","10071,1,99999,9",,,,,"MET074SPECI ETSE 151500Z 01004KT 9999 FEW090 BKN110 10/09 Q1007 BLU FCST CANCEL;",
"10869099999","2010-11-16T06:20:00","4","48.322333","11.948667","461.77","ERDING, GM","FM-15","ETSE ","V020","270,1,N,0041,1","00120,1,C,N","001800,1,N,1","+0060,1","+0050,1","99999,9","07,5,+00120,1,99,9","08,5,+00360,1,99,9",,"08,99,1,99,9,99,9,99999,9,99,9,99,9","10119,1,99999,9","10,1","51,1","61,1",,"MET085METAR ETSE 160620Z 27008KT 1800 -DZRA BR BKN004 OVC012 06/05 Q1012 YLO GRN TEMPO YLO;",
"10869099999","2010-11-16T07:20:00","4","48.322333","11.948667","461.77","ERDING, GM","FM-15","ETSE ","V020","260,1,N,0036,1","00120,1,C,N","001800,1,N,1","+0050,1","+0050,1","99999,9","02,5,+00090,1,99,9","07,5,+00120,1,99,9",,"07,99,1,99,9,99,9,99999,9,99,9,99,9","10129,1,99999,9","10,1","51,1","61,1",,"MET085METAR ETSE 160720Z 26007KT 1800 -DZRA BR FEW003 BKN004 05/05 Q1013 YLO GRN TEMPO YLO;",
"10869099999","2010-11-16T08:20:00","4","48.322333","11.948667","461.77","ERDING, GM","FM-15","ETSE ","V020","270,1,N,0046,1","00150,1,C,N","002500,1,N,1","+0050,1","+0040,1","99999,9","02,5,+00120,1,99,9","07,5,+00150,1,99,9","07,5,+00300,1,99,9","07,99,1,99,9,99,9,99999,9,99,9,99,9","10139,1,99999,9","10,1","51,1","61,1",,"MET092METAR ETSE 160820Z 27009KT 2500 -DZRA BR FEW004 BKN005 BKN010 05/04 Q1014 YLO GRN TEMPO YLO;",
"10869099999","2010-11-16T09:20:00","4","48.322333","11.948667","461.77","ERDING, GM","FM-15","ETSE ","V020","270,1,N,0051,1","00150,1,C,N","003800,1,N,1","+0050,1","+0040,1","99999,9","07,5,+00150,1,99,9",,,"07,99,1,99,9,99,9,99999,9,99,9,99,9","10139,1,99999,9","10,1","51,1","61,1",,"MET078METAR ETSE 160920Z 27010KT 3800 -DZRA BR BKN005 05/04 Q1014 YLO GRN TEMPO YLO;",
"10869099999","2010-11-16T10:20:00","4","48.322333","11.948667","461.77","ERDING, GM","FM-15","ETSE ","V020","260,1,N,0046,1","00180,1,C,N","005000,1,N,1","+0040,1","+0030,1","99999,9","07,5,+00180,1,99,9",,,"07,99,1,99,9,99,9,99999,9,99,9,99,9","10149,1,99999,9","10,1","51,1","61,1",,"MET078METAR ETSE 161020Z 26009KT 5000 -DZRA BR BKN006 04/03 Q1015 YLO GRN TEMPO YLO;",
"10869099999","2010-11-16T11:20:00","4","48.322333","11.948667","461.77","ERDING, GM","FM-15","ETSE ","V020","260,1,N,0051,1","00210,1,C,N","011265,1,N,1","+0030,1","+0020,1","99999,9","07,5,+00210,1,99,9","07,5,+00750,1,99,9",,"07,99,1,99,9,99,9,99999,9,99,9,99,9","10149,1,99999,9","51,1","61,1",,,"MET082METAR ETSE 161120Z 26010KT 9999 -RADZ BKN007 BKN025 03/02 Q1015 GRN GRN TEMPO YLO;",
"10869099999","2010-11-16T12:20:00","4","48.322333","11.948667","461.77","ERDING, GM","FM-15","ETSE ","V020","270,1,N,0046,1","00240,1,C,N","011265,1,N,1","+0030,1","+0020,1","99999,9","02,5,+00150,1,99,9","07,5,+00240,1,99,9","07,5,+00420,1,99,9","07,99,1,99,9,99,9,99999,9,99,9,99,9","10149,1,99999,9","51,1","61,1",,,"MET089METAR ETSE 161220Z 27009KT 9999 -DZRA FEW005 BKN008 BKN014 03/02 Q1015 GRN GRN TEMPO YLO;",
"10869099999","2010-11-16T13:20:00","4","48.322333","11.948667","461.77","ERDING, GM","FM-15","ETSE ","V020","260,1,N,0036,1","00240,1,C,N","011265,1,N,1","+0030,1","+0020,1","99999,9","02,5,+00150,1,99,9","07,5,+00240,1,99,9","07,5,+00420,1,99,9","07,99,1,99,9,99,9,99999,9,99,9,99,9","10149,1,99999,9","51,1",,,,"MET087METAR ETSE 161320Z 26007KT 9999 -DZ FEW005 BKN008 BKN014 03/02 Q1015 GRN GRN TEMPO YLO;",
"10869099999","2010-11-16T14:20:00","4","48.322333","11.948667","461.77","ERDING, GM","FM-15","ETSE ","V020","260,1,N,0036,1","00240,1,C,N","011265,1,N,1","+0030,1","+0020,1","99999,9","02,5,+00180,1,99,9","07,5,+00240,1,99,9","07,5,+00420,1,99,9","07,99,1,99,9,99,9,99999,9,99,9,99,9","10149,1,99999,9","51,1","61,1",,,"MET089METAR ETSE 161420Z 26007KT 9999 -RADZ FEW006 BKN008 BKN014 03/02 Q1015 GRN GRN TEMPO YLO;",
"10869099999","2010-11-16T14:26:00","4","48.322333","11.948667","461.77","ERDING, GM","FM-16","ETSE ","V020","260,1,N,0041,1","00240,1,C,N","011265,1,N,1","+0030,1","+0020,1","99999,9","02,5,+00150,1,99,9","07,5,+00240,1,99,9","07,5,+00420,1,99,9","07,99,1,99,9,99,9,99999,9,99,9,99,9","10149,1,99999,9","51,1","61,1","71,1",,"MET091SPECI ETSE 161426Z 26008KT 9999 -RASNDZ FEW005 BKN008 BKN014 03/02 Q1015 GRN GRN TEMPO YLO;",
"10869099999","2010-11-16T15:20:00","4","48.322333","11.948667","461.77","ERDING, GM","FM-15","ETSE ","V020","260,1,N,0041,1","00240,1,C,N","011265,1,N,1","+0030,1","+0020,1","99999,9","04,5,+00150,1,99,9","07,5,+00240,1,99,9","07,5,+00390,1,99,9","07,99,1,99,9,99,9,99999,9,99,9,99,9","10159,1,99999,9","51,1","61,1",,,"MET087METAR ETSE 161520Z 26008KT 9999 -RADZ SCT005 BKN008 BKN013 03/02 Q1016 GRN FCST CANCEL;",
"10869099999","2010-11-17T08:20:00","4","48.322333","11.948667","461.77","ERDING, GM","FM-15","ETSE ","V020","150,1,N,0010,1","00150,1,C,N","009000,1,N,1","+0030,1","+0020,1","99999,9","07,5,+00150,1,99,9",,,"07,99,1,99,9,99,9,99999,9,99,9,99,9","10108,1,99999,9",,,,,"MET055METAR ETSE 170820Z 15002KT 9000 BKN005 03/02 Q1011 YLO;",
"10869099999","2010-11-17T09:20:00","4","48.322333","11.948667","461.77","ERDING, GM","FM-15","ETSE ","V020","110,1,N,0010,1","00210,1,C,N","011265,1,N,1","+0030,1","+0020,1","99999,9","07,5,+00210,1,99,9","07,5,+00300,1,99,9",,"07,99,1,99,9,99,9,99999,9,99,9,99,9","10108,1,99999,9",,,,,"MET076METAR ETSE 170920Z 11002KT 9999 BKN007 BKN010 03/02 Q1011 GRN GRN TEMPO YLO;",
"10869099999","2010-11-17T10:20:00","4","48.322333","11.948667","461.77","ERDING, GM","FM-15","ETSE ","V020","120,1,N,0010,1","00240,1,C,N","011265,1,N,1","+0040,1","+0020,1","99999,9","07,5,+00240,1,99,9","07,5,+00300,1,99,9",,"07,99,1,99,9,99,9,99999,9,99,9,99,9","10102,1,99999,9",,,,,"MET066METAR ETSE 171020Z 12002KT 9999 BKN008 BKN010 04/02 Q1010 GRN GRN;",
"10869099999","2010-11-17T11:20:00","4","48.322333","11.948667","461.77","ERDING, GM","FM-15","ETSE ","V020","080,1,N,0015,1","00240,1,C,N","011265,1,N,1","+0040,1","+0020,1","99999,9","07,5,+00240,1,99,9",,,"07,99,1,99,9,99,9,99999,9,99,9,99,9","10102,1,99999,9",,,,,"MET059METAR ETSE 171120Z 08003KT 9999 BKN008 04/02 Q1010 GRN GRN;",
"10869099999","2010-11-17T12:20:00","4","48.322333","11.948667","461.77","ERDING, GM","FM-15","ETSE ","V020","070,1,N,0010,1","00330,1,C,N","011265,1,N,1","+0040,1","+0020,1","99999,9","07,5,+00330,1,99,9",,,"07,99,1,99,9,99,9,99999,9,99,9,99,9","10091,1,99999,9",,,,,"MET059METAR ETSE 171220Z 07002KT 9999 BKN011 04/02 Q1009 GRN GRN;",
"10869099999","2010-11-17T13:20:00","4","48.322333","11.948667","461.77","ERDING, GM","FM-15","ETSE ","V020","070,1,N,0015,1","00330,1,C,N","011265,1,N,1","+0040,1","+0020,1","99999,9","08,5,+00330,1,99,9",,,"08,99,1,99,9,99,9,99999,9,99,9,99,9","10091,1,99999,9",,,,,"MET059METAR ETSE 171320Z 07003KT 9999 OVC011 04/02 Q1009 GRN GRN;",
"10869099999","2010-11-17T14:20:00","4","48.322333","11.948667","461.77","ERDING, GM","FM-15","ETSE ","V020","080,1,N,0021,1","00300,1,C,N","011265,1,N,1","+0040,1","+0020,1","99999,9","07,5,+00300,1,99,9","07,5,+00690,1,99,9",,"07,99,1,99,9,99,9,99999,9,99,9,99,9","10081,1,99999,9",,,,,"MET066METAR ETSE 171420Z 08004KT 9999 BKN010 BKN023 04/02 Q1008 GRN GRN;",
"10869099999","2010-11-17T15:00:00","4","48.322333","11.948667","461.77","ERDING, GM","FM-16","ETSE ","V020","090,1,N,0021,1","00570,1,C,N","011265,1,N,1","+0040,1","+0020,1","99999,9","04,5,+00300,1,99,9","08,5,+00570,1,99,9",,"08,99,1,99,9,99,9,99999,9,99,9,99,9","10081,1,99999,9",,,,,"MET074SPECI ETSE 171500Z 09004KT 9999 SCT010 OVC019 04/02 Q1008 WHT FCST CANCEL;",
"10869099999","2010-11-18T06:20:00","4","48.322333","11.948667","461.77","ERDING, GM","FM-15","ETSE ","V020","200,1,N,0010,1","00990,1,C,N","009000,1,N,1","+0030,1","+0020,1","99999,9","04,5,+00690,1,99,9","07,5,+00990,1,99,9","07,5,+01800,1,99,9","07,99,1,99,9,99,9,99999,9,99,9,99,9","10081,1,99999,9",,,,,"MET083METAR ETSE 180620Z 20002KT 9000 SCT023 BKN033 BKN060 03/02 Q1008 BLU BLU TEMPO GRN;",
"10869099999","2010-11-18T07:20:00","4","48.322333","11.948667","461.77","ERDING, GM","FM-15","ETSE ","V020","180,1,N,0010,1","01050,1,C,N","009000,1,N,1","+0030,1","+0020,1","99999,9","02,5,+00540,1,99,9","07,5,+01050,1,99,9","07,5,+01800,1,99,9","07,99,1,99,9,99,9,99999,9,99,9,99,9","10091,1,99999,9","61,1",,,,"MET087METAR ETSE 180720Z 18002KT 9000 -RA FEW018 BKN035 BKN060 03/02 Q1009 BLU BLU TEMPO GRN;",
"10869099999","2010-11-18T08:20:00","4","48.322333","11.948667","461.77","ERDING, GM","FM-15","ETSE ","V020","190,1,N,0010,1","01350,1,C,N","009000,1,N,1","+0040,1","+0020,1","99999,9","02,5,+00600,1,99,9","07,5,+01350,1,99,9","07,5,+02100,1,99,9","07,99,1,99,9,99,9,99999,9,99,9,99,9","10091,1,99999,9",,,,,"MET083METAR ETSE 180820Z 19002KT 9000 FEW020 BKN045 BKN070 04/02 Q1009 BLU BLU TEMPO WHT;",
"10869099999","2010-11-18T09:20:00","4","48.322333","11.948667","461.77","ERDING, GM","FM-15","ETSE ","V020","240,1,N,0010,1","01050,1,C,N","011265,1,N,1","+0040,1","+0020,1","99999,9","02,5,+00750,1,99,9","07,5,+01050,1,99,9","07,5,+05100,1,99,9","07,99,1,99,9,99,9,99999,9,99,9,99,9","10091,1,99999,9","61,1",,,,"MET087METAR ETSE 180920Z 24002KT 9999 -RA FEW025 BKN035 BKN170 04/02 Q1009 BLU BLU TEMPO WHT;",
"10869099999","2010-11-18T10:20:00","4","48.322333","11.948667","461.77","ERDING, GM","FM-15","ETSE ","V020","999,9,V,0005,1","00960,1,C,N","011265,1,N,1","+0050,1","+0030,1","99999,9","02,5,+00270,1,99,9","07,5,+00960,1,99,9","07,5,+02700,1,99,9","07,99,1,99,9,99,9,99999,9,99,9,99,9","10091,1,99999,9","61,1",,,,"MET087METAR ETSE 181020Z VRB01KT 9999 -RA FEW009 BKN032 BKN090 05/03 Q1009 BLU BLU TEMPO WHT;",
"10869099999","2010-11-18T11:20:00","4","48.322333","11.948667","461.77","ERDING, GM","FM-15","ETSE ","V020","290,1,N,0015,1","01050,1,C,N","011265,1,N,1","+0050,1","+0030,1","99999,9","02,5,+00330,1,99,9","04,5,+01050,1,99,9","07,5,+02100,1,99,9","07,99,1,99,9,99,9,99999,9,99,9,99,9","10091,1,99999,9",,,,,"MET083METAR ETSE 181120Z 29003KT 9999 FEW011 SCT035 BKN070 05/03 Q1009 BLU BLU TEMPO WHT;",
"10869099999","2010-11-18T12:20:00","4","48.322333","11.948667","461.77","ERDING, GM","FM-15","ETSE ","V020","310,1,N,0021,1","01200,1,C,N","011265,1,N,1","+0050,1","+0030,1","99999,9","04,5,+00360,1,99,9","04,5,+01200,1,99,9","07,5,+02400,1,99,9","07,99,1,99,9,99,9,99999,9,99,9,99,9","10091,1,99999,9",,,,,"MET073METAR ETSE 181220Z 31004KT 9999 SCT012 SCT040 BKN080 05/03 Q1009 BLU BLU;",
"10869099999","2010-11-18T13:20:00","4","48.322333","11.948667","461.77","ERDING, GM","FM-15","ETSE ","V020","310,1,N,0026,1","02400,1,C,N","011265,1,N,1","+0060,1","+0030,1","99999,9","02,5,+00360,1,99,9","04,5,+02400,1,99,9","07,5,+03300,1,99,9","07,99,1,99,9,99,9,99999,9,99,9,99,9","10091,1,99999,9",,,,,"MET073METAR ETSE 181320Z 31005KT 9999 FEW012 SCT080 BKN110 06/03 Q1009 BLU BLU;",
"10869099999","2010-11-18T14:20:00","4","48.322333","11.948667","461.77","ERDING, GM","FM-15","ETSE ","V020","300,1,N,0015,1","02250,5,C,N","011265,1,N,1","+0060,1","+0030,1","99999,9","02,5,+00360,1,99,9","07,5,+02250,5,99,9","07,5,+03300,1,99,9","07,99,1,99,9,99,9,99999,9,99,9,99,9","10102,1,99999,9",,,,,"MET073METAR ETSE 181420Z 30003KT 9999 FEW012 BKN075 BKN110 06/03 Q1010 BLU BLU;",
"10869099999","2010-11-18T15:20:00","4","48.322333","11.948667","461.77","ERDING, GM","FM-15","ETSE ","V020","330,1,N,0015,1","02100,1,C,N","011265,1,N,1","+0050,1","+0030,1","99999,9","02,5,+00420,1,99,9","04,5,+02100,1,99,9","07,5,+03600,1,99,9","07,99,1,99,9,99,9,99999,9,99,9,99,9","10102,1,99999,9",,,,,"MET073METAR ETSE 181520Z 33003KT 9999 FEW014 SCT070 BKN120 05/03 Q1010 BLU BLU;",
"10869099999","2010-11-18T16:00:00","4","48.322333","11.948667","461.77","ERDING, GM","FM-16","ETSE ","V020","330,1,N,0010,1","01800,1,C,N","011265,1,N,1","+0040,1","+0030,1","99999,9","04,5,+00480,1,99,9","04,5,+01800,1,99,9","07,5,+03600,1,99,9","07,99,1,99,9,99,9,99999,9,99,9,99,9","10108,1,99999,9",,,,,"MET081SPECI ETSE 181600Z 33002KT 9999 SCT016 SCT060 BKN120 04/03 Q1011 BLU FCST CANCEL;",
"10869099999","2010-11-19T06:20:00","4","48.322333","11.948667","461.77","ERDING, GM","FM-15","ETSE ","V020","250,1,N,0015,1","01200,1,C,N","009000,1,N,1","+0050,1","+0030,1","99999,9","02,5,+00300,1,99,9","07,5,+01200,1,99,9",,"07,99,1,99,9,99,9,99999,9,99,9,99,9","10149,1,99999,9",,,,,"MET076METAR ETSE 190620Z 25003KT 9000 FEW010 BKN040 05/03 Q1015 BLU BLU TEMPO WHT;",
"10869099999","2010-11-19T07:20:00","4","48.322333","11.948667","461.77","ERDING, GM","FM-15","ETSE ","V020","260,1,N,0015,1","01110,1,C,N","009000,1,N,1","+0050,1","+0030,1","99999,9","02,5,+00330,1,99,9","07,5,+01110,1,99,9",,"07,99,1,99,9,99,9,99999,9,99,9,99,9","10159,1,99999,9","61,1",,,,"MET080METAR ETSE 190720Z 26003KT 9000 -RA FEW011 BKN037 05/03 Q1016 BLU BLU TEMPO WHT;",
"10869099999","2010-11-19T08:20:00","4","48.322333","11.948667","461.77","ERDING, GM","FM-15","ETSE ","V020","260,1,N,0015,1","01200,1,C,N","009000,1,N,1","+0050,1","+0030,1","99999,9","02,5,+00330,1,99,9","07,5,+01200,1,99,9",,"07,99,1,99,9,99,9,99999,9,99,9,99,9","10159,1,99999,9","51,1","61,1",,,"MET082METAR ETSE 190820Z 26003KT 9000 -RADZ FEW011 BKN040 05/03 Q1016 BLU BLU TEMPO WHT;",
"10869099999","2010-11-19T09:00:00","4","48.322333","11.948667","461.77","ERDING, GM","FM-16","ETSE ","V020","260,1,N,0015,1","00840,1,C,N","009000,1,N,1","+0050,1","+0040,1","99999,9","02,5,+00330,1,99,9","07,5,+00840,1,99,9",,"07,99,1,99,9,99,9,99999,9,99,9,99,9","10169,1,99999,9","51,1","61,1",,,"MET080SPECI ETSE 190900Z 26003KT 9000 -RADZ FEW011 BKN028 05/04 Q1017 BLU FCST CANCEL;",
"10869099999","2010-11-22T06:20:00","4","48.322333","11.948667","461.77","ERDING, GM","FM-15","ETSE ","V020","240,1,N,0036,1","00090,1,C,N","004500,1,N,1","+0030,1","+0030,1","99999,9","02,5,+00060,1,99,9","08,5,+00090,1,99,9",,"08,99,1,99,9,99,9,99999,9,99,9,99,9","09959,1,99999,9","10,1","51,1",,,"MET069METAR ETSE 220620Z 24007KT 4500 -DZ BR FEW002 OVC003 03/03 Q0996 YLO;",
"10869099999","2010-11-22T07:20:00","4","48.322333","11.948667","461.77","ERDING, GM","FM-15","ETSE ","V020","240,1,N,0046,1","00240,1,C,N","007000,1,N,1","+0030,1","+0020,1","99999,9","04,5,+00150,1,99,9","08,5,+00240,1,99,9",,"08,99,1,99,9,99,9,99999,9,99,9,99,9","09970,1,99999,9","51,1",,,,"MET066METAR ETSE 220720Z 24009KT 7000 -DZ SCT005 OVC008 03/02 Q0997 GRN;",
"10869099999","2010-11-23T06:20:00","4","48.322333","11.948667","461.77","ERDING, GM","FM-15","ETSE ","V020","260,1,N,0041,1","00180,1,C,N","011265,1,N,1","+0010,1","+0010,1","99999,9","07,5,+00180,1,99,9","07,5,+00450,1,99,9",,"07,99,1,99,9,99,9,99999,9,99,9,99,9","10010,1,99999,9","61,1",,,,"MET080METAR ETSE 230620Z 26008KT 9999 -RA BKN006 BKN015 01/01 Q1001 YLO GRN TEMPO YLO;",
"10869099999","2010-11-23T07:20:00","4","48.322333","11.948667","461.77","ERDING, GM","FM-15","ETSE ","V020","270,1,N,0036,1","00180,1,C,N","011265,1,N,1","+0020,1","+0010,1","99999,9","07,5,+00180,1,99,9","07,5,+00480,1,99,9",,"07,99,1,99,9,99,9,99999,9,99,9,99,9","10010,1,99999,9","61,1","71,1",,,"MET082METAR ETSE 230720Z 27007KT 9999 -RASN BKN006 BKN016 02/01 Q1001 YLO GRN TEMPO YLO;",
"10869099999","2010-11-23T08:20:00","4","48.322333","11.948667","461.77","ERDING, GM","FM-15","ETSE ","V020","270,1,N,0041,1","00210,1,C,N","011265,1,N,1","+0020,1","+0010,1","99999,9","07,5,+00210,1,99,9","07,5,+00540,1,99,9",,"07,99,1,99,9,99,9,99999,9,99,9,99,9","10020,1,99999,9","51,1","61,1","71,1",,"MET084METAR ETSE 230820Z 27008KT 9999 -RADZSN BKN007 BKN018 02/01 Q1002 GRN GRN TEMPO YLO;",
"10869099999","2010-11-23T09:20:00","4","48.322333","11.948667","461.77","ERDING, GM","FM-15","ETSE ","V020","270,1,N,0041,1","00210,1,C,N","011265,1,N,1","+0020,1","+0010,1","99999,9","07,5,+00210,1,99,9","07,5,+00750,1,99,9",,"07,99,1,99,9,99,9,99999,9,99,9,99,9","10020,1,99999,9","51,1","61,1",,,"MET082METAR ETSE 230920Z 27008KT 9999 -RADZ BKN007 BKN025 02/01 Q1002 GRN GRN TEMPO YLO;",
"10869099999","2010-11-23T10:20:00","4","48.322333","11.948667","461.77","ERDING, GM","FM-15","ETSE ","V020","270,1,N,0041,1","00240,1,C,N","011265,1,N,1","+0030,1","+0010,1","99999,9","07,5,+00240,1,99,9","07,5,+00750,1,99,9",,"07,99,1,99,9,99,9,99999,9,99,9,99,9","10020,1,99999,9","51,1","61,1",,,"MET072METAR ETSE 231020Z 27008KT 9999 -RADZ BKN008 BKN025 03/01 Q1002 GRN GRN;",
"10869099999","2010-11-23T11:20:00","4","48.322333","11.948667","461.77","ERDING, GM","FM-15","ETSE ","V020","270,1,N,0041,1","00240,1,C,N","011265,1,N,1","+0030,1","+0010,1","99999,9","07,5,+00240,1,99,9",,,"07,99,1,99,9,99,9,99999,9,99,9,99,9","10020,1,99999,9","51,1","61,1",,,"MET065METAR ETSE 231120Z 27008KT 9999 -RADZ BKN008 03/01 Q1002 GRN GRN;",
"10869099999","2010-11-23T12:20:00","4","48.322333","11.948667","461.77","ERDING, GM","FM-15","ETSE ","V020","280,1,N,0046,1","00270,1,C,N","011265,1,N,1","+0030,1","+0010,1","99999,9","07,5,+00270,1,99,9",,,"07,99,1,99,9,99,9,99999,9,99,9,99,9","10020,1,99999,9","61,1",,,,"MET063METAR ETSE 231220Z 28009KT 9999 -RA BKN009 03/01 Q1002 GRN GRN;",
"10869099999","2010-11-23T13:20:00","4","48.322333","11.948667","461.77","ERDING, GM","FM-15","ETSE ","V020","270,1,N,0046,1","00210,1,C,N","011265,1,N,1","+0030,1","+0010,1","99999,9","07,5,+00210,1,99,9",,,"07,99,1,99,9,99,9,99999,9,99,9,99,9","10020,1,99999,9","61,1",,,,"MET063METAR ETSE 231320Z 27009KT 9999 -RA BKN007 03/01 Q1002 GRN GRN;",
"10869099999","2010-11-23T13:38:00","4","48.322333","11.948667","461.77","ERDING, GM","FM-16","ETSE ","V020","270,1,N,0046,1","00210,1,C,N","011265,1,N,1","+0020,1","+0010,1","99999,9","07,5,+00210,1,99,9",,,"07,99,1,99,9,99,9,99999,9,99,9,99,9","10031,1,99999,9","61,1","71,1",,,"MET065SPECI ETSE 231338Z 27009KT 9999 -SNRA BKN007 02/01 Q1003 GRN GRN;",
"10869099999","2010-11-23T14:20:00","4","48.322333","11.948667","461.77","ERDING, GM","FM-15","ETSE ","V020","300,1,N,0051,1","00210,1,C,N","009000,1,N,1","+0020,1","+0010,1","99999,9","07,5,+00210,1,99,9","07,5,+00600,1,99,9",,"07,99,1,99,9,99,9,99999,9,99,9,99,9","10031,1,99999,9","61,1","71,1",,,"MET082METAR ETSE 231420Z 30010KT 9000 -SNRA BKN007 BKN020 02/01 Q1003 GRN GRN BECMG WHT;",
"10869099999","2010-11-23T14:41:00","4","48.322333","11.948667","461.77","ERDING, GM","FM-16","ETSE ","V020","300,1,N,0051,1","00570,1,C,N","011265,1,N,1","+0020,1","+0000,1","99999,9","04,5,+00210,1,99,9","07,5,+00570,1,99,9",,"07,99,1,99,9,99,9,99999,9,99,9,99,9","10031,1,99999,9","61,1","71,1",,,"MET080SPECI ETSE 231441Z 30010KT 9999 -SNRA SCT007 BKN019 02/00 Q1003 WHT FCST CANCEL;",
"10869099999","2010-11-23T15:20:00","4","48.322333","11.948667","461.77","ERDING, GM","FM-15","ETSE ","V020","280,1,N,0036,1","00300,1,C,N","011265,1,N,1","+0020,1","+0000,1","99999,9","02,5,+00180,1,99,9","04,5,+00300,1,99,9","07,5,+00690,1,99,9","07,99,1,99,9,99,9,99999,9,99,9,99,9","10031,1,99999,9",,,,,"MET069METAR ETSE 231520Z 28007KT 9999 FEW006 SCT010 BKN023 02/00 Q1003 WHT;",
"10869099999","2010-11-24T06:20:00","4","48.322333","11.948667","461.77","ERDING, GM","FM-15","ETSE ","V020","260,1,N,0046,1","00480,1,C,N","009000,1,N,1","+0010,1","+0000,1","99999,9","04,5,+00210,1,99,9","07,5,+00480,1,99,9","07,5,+01800,1,99,9","07,99,1,99,9,99,9,99999,9,99,9,99,9","10051,1,99999,9","51,1",,,,"MET074METAR ETSE 240620Z 26009KT 9000 -DZ SCT007 BKN016 BKN060 01/M00 Q1005 WHT;",
"10869099999","2010-11-24T07:20:00","4","48.322333","11.948667","461.77","ERDING, GM","FM-15","ETSE ","V020","260,1,N,0051,1","00450,1,C,N","011265,1,N,1","+0010,1","+0000,1","99999,9","04,5,+00300,1,99,9","04,5,+00450,1,99,9","07,5,+01350,1,99,9","07,99,1,99,9,99,9,99999,9,99,9,99,9","10051,1,99999,9","71,1",,,,"MET074METAR ETSE 240720Z 26010KT 9999 -SN SCT010 SCT015 BKN045 01/M00 Q1005 BLU;",
"10869099999","2010-11-24T08:20:00","4","48.322333","11.948667","461.77","ERDING, GM","FM-15","ETSE ","V020","260,1,N,0057,1","01200,1,C,N","011265,1,N,1","+0020,1","+0000,1","99999,9","02,5,+00300,1,99,9","07,5,+01200,1,99,9",,"07,99,1,99,9,99,9,99999,9,99,9,99,9","10061,1,99999,9",,,,,"MET077METAR ETSE 240820Z 26011KT 9999 FEW010 BKN040 02/M00 Q1006 BLU BLU TEMPO WHT;",
"10869099999","2010-11-24T09:20:00","4","48.322333","11.948667","461.77","ERDING, GM","FM-15","ETSE ","V020","270,1,N,0057,1","01500,1,C,N","011265,1,N,1","+0020,1","+0000,1","99999,9","02,5,+00420,1,99,9","07,5,+01500,1,99,9","07,5,+02700,1,99,9","07,99,1,99,9,99,9,99999,9,99,9,99,9","10061,1,99999,9",,,,,"MET084METAR ETSE 240920Z 27011KT 9999 FEW014 BKN050 BKN090 02/M00 Q1006 BLU BLU TEMPO WHT;",
"10869099999","2010-11-24T10:20:00","4","48.322333","11.948667","461.77","ERDING, GM","FM-15","ETSE ","V020","270,1,N,0067,1","01350,1,C,N","009000,1,N,1","+0020,1","+0000,1","99999,9","04,5,+00390,1,99,9","07,5,+01350,1,99,9","07,5,+02700,1,99,9","07,99,1,99,9,99,9,99999,9,99,9,99,9","10061,1,99999,9","61,1","71,1",,,"MET089METAR ETSE 241020Z 27013KT 9000 -SNRA SCT013 BKN045 BKN090 02/00 Q1006 BLU BLU TEMPO WHT;",
"10869099999","2010-11-24T11:20:00","4","48.322333","11.948667","461.77","ERDING, GM","FM-15","ETSE ","V020","270,1,N,0051,1","00540,1,C,N","011265,1,N,1","+0030,1","+0000,1","99999,9","04,5,+00390,1,99,9","07,5,+00540,1,99,9",,"07,99,1,99,9,99,9,99999,9,99,9,99,9","10061,1,99999,9",,,,,"MET076METAR ETSE 241120Z 27010KT 9999 SCT013 BKN018 03/00 Q1006 WHT BLU TEMPO WHT;",
"10869099999","2010-11-24T12:20:00","4","48.322333","11.948667","461.77","ERDING, GM","FM-15","ETSE ","V020","270,1,N,0051,1","00600,1,C,N","011265,1,N,1","+0040,1","+0000,1","99999,9","02,5,+00330,1,99,9","07,5,+00600,1,99,9","07,5,+03000,1,99,9","07,99,1,99,9,99,9,99999,9,99,9,99,9","10061,1,99999,9",,,,,"MET084METAR ETSE 241220Z 27010KT 9999 FEW011 BKN020 BKN100 04/M00 Q1006 WHT BLU TEMPO WHT;",
"10869099999","2010-11-24T13:20:00","4","48.322333","11.948667","461.77","ERDING, GM","FM-15","ETSE ","V020","270,1,N,0057,1","00600,1,C,N","011265,1,N,1","+0030,1","+0000,1","99999,9","07,5,+00600,1,99,9","07,5,+03000,1,99,9",,"07,99,1,99,9,99,9,99999,9,99,9,99,9","10061,1,99999,9",,,,,"MET077METAR ETSE 241320Z 27011KT 9999 BKN020 BKN100 03/M00 Q1006 WHT BLU TEMPO WHT;",
"10869099999","2010-11-24T14:20:00","4","48.322333","11.948667","461.77","ERDING, GM","FM-15","ETSE ","V020","270,1,N,0031,1","00600,1,C,N","011265,1,N,1","+0030,1","+0000,1","99999,9","07,5,+00600,1,99,9",,,"07,99,1,99,9,99,9,99999,9,99,9,99,9","10061,1,99999,9",,,,,"MET067METAR ETSE 241420Z 27006KT 9999 BKN020 03/00 Q1006 WHT FCST CANCEL;",
"10869099999","2010-11-25T06:20:00","4","48.322333","11.948667","461.77","ERDING, GM","FM-15","ETSE ","V020","240,1,N,0026,1","00990,1,C,N","009000,1,N,1","+0010,1","+0000,1","99999,9","02,5,+00330,1,99,9","07,5,+00990,1,99,9","07,5,+02100,1,99,9","07,99,1,99,9,99,9,99999,9,99,9,99,9","10061,1,99999,9","71,1",,,,"MET088METAR ETSE 250620Z 24005KT 9000 -SN FEW011 BKN033 BKN070 01/M00 Q1006 BLU BLU TEMPO WHT;",
"10869099999","2010-11-25T07:20:00","4","48.322333","11.948667","461.77","ERDING, GM","FM-15","ETSE ","V020","240,1,N,0021,1","01800,1,C,N","011265,1,N,1","+0020,1","-0010,1","99999,9","02,5,+00900,1,99,9","07,5,+01800,1,99,9","07,5,+03000,1,99,9","07,99,1,99,9,99,9,99999,9,99,9,99,9","10061,1,99999,9",,,,,"MET074METAR ETSE 250720Z 24004KT 9999 FEW030 BKN060 BKN100 02/M01 Q1006 BLU BLU;",
"10869099999","2010-11-25T08:20:00","4","48.322333","11.948667","461.77","ERDING, GM","FM-15","ETSE ","V020","200,1,N,0015,1","01500,1,C,N","011265,1,N,1","+0020,1","-0010,1","99999,9","02,5,+01050,1,99,9","07,5,+01500,1,99,9","07,5,+06000,1,99,9","07,99,1,99,9,99,9,99999,9,99,9,99,9","10061,1,99999,9",,,,,"MET085METAR ETSE 250820Z 20003KT 9999 FEW035 BKN050 BKN200 02/M01 Q1006 BLU BLU TEMPO BLU/;",
"10869099999","2010-11-25T09:20:00","4","48.322333","11.948667","461.77","ERDING, GM","FM-15","ETSE ","V020","190,1,N,0026,1","06000,1,C,N","011265,1,N,1","+0030,1","+0000,1","99999,9","04,5,+01320,1,99,9","07,5,+06000,1,99,9",,"07,99,1,99,9,99,9,99999,9,99,9,99,9","10061,1,99999,9",,,,,"MET077METAR ETSE 250920Z 19005KT 9999 SCT044 BKN200 03/00 Q1006 BLU/BLU TEMPO BLU/;",
"10869099999","2010-11-25T10:20:00","4","48.322333","11.948667","461.77","ERDING, GM","FM-15","ETSE ","V020","210,1,N,0026,1","06000,1,C,N","011265,1,N,1","+0040,1","-0010,1","99999,9","02,5,+00660,1,99,9","07,5,+06000,1,99,9",,"07,99,1,99,9,99,9,99999,9,99,9,99,9","10051,1,99999,9",,,,,"MET078METAR ETSE 251020Z 21005KT 9999 FEW022 BKN200 04/M01 Q1005 BLU/BLU TEMPO BLU/;",
"10869099999","2010-11-25T11:20:00","4","48.322333","11.948667","461.77","ERDING, GM","FM-15","ETSE ","V020","220,1,N,0026,1","02400,1,C,N","011265,1,N,1","+0040,1","-0020,1","99999,9","02,5,+00750,1,99,9","04,5,+02550,5,99,9","07,5,+06000,1,99,9","07,99,1,99,9,99,9,99999,9,99,9,99,9","10041,1,99999,9",,,,,"MET085METAR ETSE 251120Z 22005KT 9999 FEW025 SCT085 BKN200 04/M02 Q1004 BLU/BLU TEMPO BLU/;",
"10869099999","2010-11-25T12:20:00","4","48.322333","11.948667","461.77","ERDING, GM","FM-15","ETSE ","V020","210,1,N,0026,1","02700,1,C,N","011265,1,N,1","+0050,1","-0020,1","99999,9","02,5,+00900,1,99,9","04,5,+02700,1,99,9","07,5,+06000,1,99,9","07,99,1,99,9,99,9,99999,9,99,9,99,9","10041,1,99999,9",,,,,"MET085METAR ETSE 251220Z 21005KT 9999 FEW030 SCT090 BKN200 05/M02 Q1004 BLU/BLU TEMPO BLU/;",
"10869099999","2010-11-25T13:20:00","4","48.322333","11.948667","461.77","ERDING, GM","FM-15","ETSE ","V020","190,1,N,0026,1","02400,1,C,N","011265,1,N,1","+0050,1","-0030,1","99999,9","02,5,+00900,1,99,9","07,5,+02400,1,99,9","07,5,+06000,1,99,9","07,99,1,99,9,99,9,99999,9,99,9,99,9","10031,1,99999,9",,,,,"MET074METAR ETSE 251320Z 19005KT 9999 FEW030 BKN080 BKN200 05/M03 Q1003 BLU BLU;",
"10869099999","2010-11-25T14:20:00","4","48.322333","11.948667","461.77","ERDING, GM","FM-15","ETSE ","V020","160,1,N,0021,1","02700,1,C,N","011265,1,N,1","+0040,1","-0020,1","99999,9","02,5,+00900,1,99,9","07,5,+02700,1,99,9","07,5,+06000,1,99,9","07,99,1,99,9,99,9,99999,9,99,9,99,9","10020,1,99999,9",,,,,"MET074METAR ETSE 251420Z 16004KT 9999 FEW030 BKN090 BKN200 04/M02 Q1002 BLU BLU;",
"10869099999","2010-11-25T15:20:00","4","48.322333","11.948667","461.77","ERDING, GM","FM-15","ETSE ","V020","160,1,N,0015,1","02700,1,C,N","011265,1,N,1","+0030,1","-0010,1","99999,9","02,5,+00900,1,99,9","04,5,+02700,1,99,9","07,5,+06000,1,99,9","07,99,1,99,9,99,9,99999,9,99,9,99,9","10020,1,99999,9",,,,,"MET082METAR ETSE 251520Z 16003KT 9999 FEW030 SCT090 BKN200 03/M01 Q1002 BLU/FCST CANCEL;",
"10869099999","2010-11-26T06:20:00","4","48.322333","11.948667","461.77","ERDING, GM","FM-15","ETSE ","V020","260,1,N,0021,1","00300,1,C,N","007000,1,N,1","+0000,1","-0020,1","99999,9","07,5,+00300,1,99,9","04,5,+00630,1,99,9","07,5,+01050,1,99,9","07,99,1,99,9,99,9,99999,9,99,9,99,9","09990,1,99999,9","71,1",,,,"MET089METAR ETSE 260620Z 26004KT 7000 -SN BKN010 SCT021 BKN035 M00/M02 Q0999 GRN GRN TEMPO AMB;",
"10869099999","2010-11-26T07:20:00","4","48.322333","11.948667","461.77","ERDING, GM","FM-15","ETSE ","V020","230,1,N,0026,1","00300,1,C,N","003500,1,N,1","+0000,1","+0000,1","99999,9","07,5,+00300,1,99,9","07,5,+00660,1,99,9",,"07,99,1,99,9,99,9,99999,9,99,9,99,9","10000,1,99999,9","73,1",,,,"MET086METAR ETSE 260720Z 23005KT 3500 SN BKN010 BKN022 M00/M00 Q1000 BLACKYLO GRN TEMPO AMB;",
"10869099999","2010-11-26T07:52:00","4","48.322333","11.948667","461.77","ERDING, GM","FM-16","ETSE ","V020","220,1,N,0021,1","00120,1,C,N","000500,1,N,1","+0000,1","+0000,1","99999,9","07,5,+00120,1,99,9","08,5,+00300,1,99,9",,"08,99,1,99,9,99,9,99999,9,99,9,99,9","10000,1,99999,9","75,1",,,,"MET087SPECI ETSE 260752Z 22004KT 0500 +SN BKN004 OVC010 M00/M00 Q1000 BLACKRED GRN TEMPO AMB;",
"10869099999","2010-11-26T08:20:00","4","48.322333","11.948667","461.77","ERDING, GM","FM-15","ETSE ","V020","230,1,N,0010,1","00150,1,C,N","000800,1,N,1","+0000,1","+0000,1","99999,9","07,5,+00150,1,99,9","08,5,+00330,1,99,9",,"08,99,1,99,9,99,9,99999,9,99,9,99,9","10000,1,99999,9","75,1",,,,"MET087METAR ETSE 260820Z 23002KT 0800 +SN BKN005 OVC011 M00/M00 Q1000 BLACKAMB GRN TEMPO AMB;",
"10869099999","2010-11-26T09:00:00","4","48.322333","11.948667","461.77","ERDING, GM","FM-16","ETSE ","V020","310,1,N,0051,1","00180,1,C,N","002000,1,N,1","+0000,1","+0000,1","99999,9","07,5,+00180,1,99,9","08,5,+00420,1,99,9",,"08,99,1,99,9,99,9,99999,9,99,9,99,9","10010,1,99999,9","73,1",,,,"MET084SPECI ETSE 260900Z 31010KT 2000 SN BKN006 OVC014 M00/M00 Q1001 BLACKYLO FCST CANCEL;",
"10869099999","2010-11-29T06:20:00","4","48.322333","11.948667","461.77","ERDING, GM","FM-15","ETSE ","V020","260,1,N,0026,1","00090,1,9,N","000900,1,N,1","-0030,1","-0030,1","99999,9","09,1,+00090,1,99,9",,,"09,99,1,99,9,99,9,00025,1,99,9,99,9","09990,1,99999,9","49,1","73,1",,,"MET083METAR ETSE 290620Z 26005KT 0900 SN FZFG VV003 M03/M03 Q0999 BLACKAMB YLO TEMPO AMB;",
"10869099999","2010-11-29T07:20:00","4","48.322333","11.948667","461.77","ERDING, GM","FM-15","ETSE ","V020","260,1,N,0031,1","00090,1,9,N","001000,1,N,1","-0020,1","-0020,1","99999,9","09,1,+00090,1,99,9",,,"09,99,1,99,9,99,9,00025,1,99,9,99,9","10000,1,99999,9","10,1","73,1",,,"MET081METAR ETSE 290720Z 26006KT 1000 SN BR VV003 M02/M02 Q1000 BLACKAMB YLO TEMPO AMB;",
"10869099999","2010-11-29T08:20:00","4","48.322333","11.948667","461.77","ERDING, GM","FM-15","ETSE ","V020","270,1,N,0041,1","00090,1,9,N","001200,1,N,1","-0030,1","-0030,1","99999,9","09,1,+00090,1,99,9",,,"09,99,1,99,9,99,9,00025,1,99,9,99,9","10000,1,99999,9","10,1","73,1",,,"MET081METAR ETSE 290820Z 27008KT 1200 SN BR VV003 M03/M03 Q1000 BLACKAMB YLO TEMPO AMB;",
"10869099999","2010-11-29T08:44:00","4","48.322333","11.948667","461.77","ERDING, GM","FM-16","ETSE ","V020","270,1,N,0036,1","00120,1,9,N","000500,1,N,1","-0020,1","-0020,1","99999,9","09,1,+00120,1,99,9",,,"09,99,1,99,9,99,9,00025,1,99,9,99,9","10010,1,99999,9","75,1",,,,"MET079SPECI ETSE 290844Z 27007KT 0500 +SN VV004 M02/M02 Q1001 BLACKRED YLO TEMPO AMB;",
"10869099999","2010-11-29T09:06:00","4","48.322333","11.948667","461.77","ERDING, GM","FM-16","ETSE ","V020","280,1,N,0046,1","00120,1,9,N","000800,1,N,1","-0030,1","-0030,1","99999,9","09,1,+00120,1,99,9",,,"09,99,1,99,9,99,9,00025,1,99,9,99,9","10010,1,99999,9","75,1",,,,"MET079SPECI ETSE 290906Z 28009KT 0800 +SN VV004 M03/M03 Q1001 BLACKAMB YLO TEMPO AMB;",
"10869099999","2010-11-29T09:20:00","4","48.322333","11.948667","461.77","ERDING, GM","FM-15","ETSE ","V020","280,1,N,0046,1","00180,1,C,N","001200,1,N,1","-0030,1","-0030,1","99999,9","04,5,+00120,1,99,9","07,5,+00180,1,99,9",,"07,99,1,99,9,99,9,99999,9,99,9,99,9","10010,1,99999,9","10,1","73,1",,,"MET094METAR ETSE 290920Z 28009KT 1200 SN BR SCT004 BKN006 M03/M03 Q1001 RESN BLACKAMB YLO TEMPO AMB;",
"10869099999","2010-11-29T09:39:00","4","48.322333","11.948667","461.77","ERDING, GM","FM-16","ETSE ","V020","280,1,N,0051,1","00270,1,C,N","001600,1,N,1","-0020,1","-0020,1","99999,9","04,5,+00180,1,99,9","07,5,+00270,1,99,9",,"07,99,1,99,9,99,9,99999,9,99,9,99,9","10010,1,99999,9","10,1","73,1",,,"MET089SPECI ETSE 290939Z 28010KT 1600 SN BR SCT006 BKN009 M02/M02 Q1001 BLACKYLO YLO TEMPO AMB;",
"10869099999","2010-11-29T10:20:00","4","48.322333","11.948667","461.77","ERDING, GM","FM-15","ETSE ","V020","280,1,N,0046,1","00270,1,C,N","004000,1,N,1","-0020,1","-0030,1","99999,9","04,5,+00210,1,99,9","07,5,+00270,1,99,9",,"07,99,1,99,9,99,9,99999,9,99,9,99,9","10020,1,99999,9","10,1","71,1",,,"MET095METAR ETSE 291020Z 28009KT 4000 -SN BR SCT007 BKN009 M02/M03 Q1002 RESN BLACKGRN YLO TEMPO GRN;",
"10869099999","2010-11-29T11:07:00","4","48.322333","11.948667","461.77","ERDING, GM","FM-16","ETSE ","V020","270,1,N,0041,1","00270,1,C,N","002000,1,N,1","-0020,1","-0030,1","99999,9","04,5,+00210,1,99,9","07,5,+00270,1,99,9",,"07,99,1,99,9,99,9,99999,9,99,9,99,9","10020,1,99999,9","10,1","73,1",,,"MET089SPECI ETSE 291107Z 27008KT 2000 SN BR SCT007 BKN009 M02/M03 Q1002 BLACKYLO YLO TEMPO GRN;",
"10869099999","2010-11-29T11:20:00","4","48.322333","11.948667","461.77","ERDING, GM","FM-15","ETSE ","V020","270,1,N,0046,1","00270,1,C,N","001800,1,N,1","-0020,1","-0030,1","99999,9","04,5,+00210,1,99,9","07,5,+00270,1,99,9",,"07,99,1,99,9,99,9,99999,9,99,9,99,9","10020,1,99999,9","10,1","73,1",,,"MET089METAR ETSE 291120Z 27009KT 1800 SN BR SCT007 BKN009 M02/M03 Q1002 BLACKYLO YLO TEMPO GRN;",
"10869099999","2010-11-29T12:20:00","4","48.322333","11.948667","461.77","ERDING, GM","FM-15","ETSE ","V020","270,1,N,0041,1","00300,1,C,N","002500,1,N,1","-0020,1","-0020,1","99999,9","02,5,+00210,1,99,9","07,5,+00300,1,99,9","07,5,+00480,1,99,9","07,99,1,99,9,99,9,99999,9,99,9,99,9","10031,1,99999,9","10,1","73,1",,,"MET096METAR ETSE 291220Z 27008KT 2500 SN BR FEW007 BKN010 BKN016 M02/M02 Q1003 BLACKYLO YLO TEMPO GRN;",
"10869099999","2010-11-29T12:39:00","4","48.322333","11.948667","461.77","ERDING, GM","FM-16","ETSE ","V020","270,1,N,0041,1","00630,1,C,N","004200,1,N,1","-0020,1","-0020,1","99999,9","04,5,+00300,1,99,9","07,5,+00630,1,99,9","07,5,+01800,1,99,9","07,99,1,99,9,99,9,99999,9,99,9,99,9","10031,1,99999,9","10,1","71,1",,,"MET102SPECI ETSE 291239Z 27008KT 4200 -SN BR SCT010 BKN021 BKN060 M02/M02 Q1003 RESN BLACKGRN YLO BECMG GRN;",
"10869099999","2010-11-29T13:20:00","4","48.322333","11.948667","461.77","ERDING, GM","FM-15","ETSE ","V020","280,1,N,0046,1","00510,1,C,N","006000,1,N,1","-0020,1","-0030,1","99999,9","02,5,+00300,1,99,9","04,5,+00510,1,99,9","07,5,+01140,1,99,9","07,99,1,99,9,99,9,99999,9,99,9,99,9","10031,1,99999,9","71,1",,,,"MET099METAR ETSE 291320Z 28009KT 6000 -SN FEW010 SCT017 BKN038 M02/M03 Q1003 RESN BLACKWHT WHT TEMPO GRN;",
"10869099999","2010-11-29T14:00:00","4","48.322333","11.948667","461.77","ERDING, GM","FM-15","ETSE ","V020","280,1,N,0036,1","00510,1,C,N","003800,1,N,1","-0020,1","-0030,1","99999,9","02,5,+00300,1,99,9","07,5,+00510,1,99,9",,"07,99,1,99,9,99,9,99999,9,99,9,99,9","10041,1,99999,9","10,1","71,1",,,"MET090SPECI ETSE 291357Z 28007KT 3800 -SN BR FEW010 BKN017 M02/M03 Q1004 BLACKGRN WHT TEMPO GRN;",
"10869099999","2010-11-29T14:12:00","4","48.322333","11.948667","461.77","ERDING, GM","FM-16","ETSE ","V020","280,1,N,0031,1","00420,1,C,N","002500,1,N,1","-0020,1","-0020,1","99999,9","02,5,+00150,1,99,9","07,5,+00420,1,99,9",,"07,99,1,99,9,99,9,99999,9,99,9,99,9","10041,1,99999,9","10,1","71,1",,,"MET090SPECI ETSE 291412Z 28006KT 2500 -SN BR FEW005 BKN014 M02/M02 Q1004 BLACKYLO WHT TEMPO YLO;",
"10869099999","2010-11-29T14:20:00","4","48.322333","11.948667","461.77","ERDING, GM","FM-15","ETSE ","V020","280,1,N,0031,1","00390,1,C,N","002500,1,N,1","-0020,1","-0020,1","99999,9","02,5,+00150,1,99,9","07,5,+00390,1,99,9",,"07,99,1,99,9,99,9,99999,9,99,9,99,9","10041,1,99999,9","10,1","73,1",,,"MET087METAR ETSE 291420Z 28006KT 2500 SN BR FEW005 BKN013 M02/M02 Q1004 BLACKYLO FCST CANCEL;",
"10869099999","2010-11-29T15:20:00","4","48.322333","11.948667","461.77","ERDING, GM","FM-15","ETSE ","V020","280,1,N,0021,1","00300,1,C,N","003000,1,N,1","-0020,1","-0020,1","99999,9","02,5,+00150,1,99,9","07,5,+00300,1,99,9",,"07,99,1,99,9,99,9,99999,9,99,9,99,9","10041,1,99999,9","10,1","73,1",,,"MET075METAR ETSE 291520Z 28004KT 3000 SN BR FEW005 BKN010 M02/M02 Q1004 BLACKYLO;",
"10869099999","2010-11-30T06:20:00","4","48.322333","11.948667","461.77","ERDING, GM","FM-15","ETSE ","V020","999,9,V,0005,1","22000,1,9,N","007000,1,N,1","-0130,1","-0140,1","99999,9","02,5,+03600,1,99,9",,,"02,99,1,99,9,99,9,99999,9,99,9,99,9","10108,1,99999,9","12,1",,,,"MET081METAR ETSE 300620Z VRB01KT 7000 MIFG FEW120 M13/M14 Q1011 BLACKWHT WHT TEMPO YLO;",
"10869099999","2010-11-30T06:36:00","4","48.322333","11.948667","461.77","ERDING, GM","FM-16","ETSE ","V020","999,9,V,0005,1","22000,1,9,N","000050,1,N,1","-0130,1","-0140,1","99999,9","02,5,+03600,1,99,9",,,"02,99,1,99,9,99,9,99999,9,99,9,99,9","10108,1,99999,9","48,1",,,,"MET081SPECI ETSE 300636Z VRB01KT 0050 FZFG FEW120 M13/M14 Q1011 BLACKRED WHT TEMPO RED;",
"10869099999","2010-11-30T07:04:00","4","48.322333","11.948667","461.77","ERDING, GM","FM-16","ETSE ","V020","140,1,N,0015,1","22000,1,9,N","000800,1,N,1","-0140,1","-0150,1","99999,9","02,5,+07500,1,99,9",,,"02,99,1,99,9,99,9,99999,9,99,9,99,9","10108,1,99999,9","48,1",,,,"MET081SPECI ETSE 300704Z 14003KT 0800 FZFG FEW250 M14/M15 Q1011 BLACKAMB WHT TEMPO RED;",
"10869099999","2010-11-30T07:20:00","4","48.322333","11.948667","461.77","ERDING, GM","FM-15","ETSE ","V020","160,1,N,0021,1","22000,1,9,N","004000,1,N,1","-0140,1","-0150,1","99999,9","02,5,+07500,1,99,9",,,"02,99,1,99,9,99,9,99999,9,99,9,99,9","10108,1,99999,9","12,1","40,1",,,"MET086METAR ETSE 300720Z 16004KT 4000 VCFG MIFG FEW250 M14/M15 Q1011 BLACKGRN WHT TEMPO RED;",
"10869099999","2010-11-30T08:00:00","4","48.322333","11.948667","461.77","ERDING, GM","FM-15","ETSE ","V020","130,1,N,0015,1","22000,1,9,N","000600,1,N,1","-0130,1","-0140,1","99999,9","02,5,+07500,1,99,9",,,"02,99,1,99,9,99,9,99999,9,99,9,99,9","10119,1,99999,9","48,1",,,,"MET081SPECI ETSE 300758Z 13003KT 0600 FZFG FEW250 M13/M14 Q1012 BLACKRED WHT TEMPO RED;",
"10869099999","2010-11-30T08:20:00","4","48.322333","11.948667","461.77","ERDING, GM","FM-15","ETSE ","V020","130,1,N,0021,1","22000,1,9,N","000300,1,N,1","-0110,1","-0120,1","99999,9","02,5,+00000,5,99,9",,,"02,99,1,99,9,99,9,99999,9,99,9,99,9","10108,1,99999,9","48,1",,,,"MET082METAR ETSE 300820Z 13004KT 0300 FZFG FEW000 M11/M12 Q1011 BLACKRED RED BECMG BLU/;",
"10869099999","2010-11-30T08:42:00","4","48.322333","11.948667","461.77","ERDING, GM","FM-16","ETSE ","V020","130,1,N,0015,1","22000,1,9,N","003700,1,N,1","-0100,1","-0110,1","99999,9","02,5,+00000,5,99,9",,,"02,99,1,99,9,99,9,99999,9,99,9,99,9","10108,1,99999,9","12,1","40,1",,,"MET087SPECI ETSE 300842Z 13003KT 3700 VCFG MIFG FEW000 M10/M11 Q1011 BLACKGRN GRN BECMG BLU/;",
"10869099999","2010-11-30T09:05:00","4","48.322333","11.948667","461.77","ERDING, GM","FM-16","ETSE ","V020","120,1,N,0015,1","22000,1,9,N","005000,1,N,1","-0100,1","-0110,1","99999,9","02,5,+07500,1,99,9",,,"02,99,1,99,9,99,9,99999,9,99,9,99,9","10108,1,99999,9","40,1",,,,"MET082SPECI ETSE 300905Z 12003KT 5000 VCFG FEW250 M10/M11 Q1011 BLACKWHT WHT BECMG BLU/;",
"10869099999","2010-11-30T09:20:00","4","48.322333","11.948667","461.77","ERDING, GM","FM-15","ETSE ","V020","120,1,N,0015,1","22000,1,9,N","006000,1,N,1","-0090,1","-0100,1","99999,9","02,5,+07500,1,99,9",,,"02,99,1,99,9,99,9,99999,9,99,9,99,9","10108,1,99999,9","40,1",,,,"MET082METAR ETSE 300920Z 12003KT 6000 VCFG FEW250 M09/M10 Q1011 BLACKWHT WHT BECMG BLU/;",
"10869099999","2010-11-30T10:20:00","4","48.322333","11.948667","461.77","ERDING, GM","FM-15","ETSE ","V020","120,1,N,0026,1","22000,1,9,N","011265,1,N,1","-0080,1","-0090,1","99999,9","02,5,+07500,1,99,9",,,"02,99,1,99,9,99,9,99999,9,99,9,99,9","10102,1,99999,9",,,,,"MET067METAR ETSE 301020Z 12005KT 9999 FEW250 M08/M09 Q1010 BLACKBLU/BLU/;",
"10869099999","2010-11-30T11:20:00","4","48.322333","11.948667","461.77","ERDING, GM","FM-15","ETSE ","V020","130,1,N,0031,1","22000,1,9,N","011265,1,N,1","-0060,1","-0070,1","99999,9","04,5,+07500,1,99,9",,,"04,99,1,99,9,99,9,99999,9,99,9,99,9","10091,1,99999,9",,,,,"MET067METAR ETSE 301120Z 13006KT 9999 SCT250 M06/M07 Q1009 BLACKBLU/BLU/;",
"10869099999","2010-11-30T12:20:00","4","48.322333","11.948667","461.77","ERDING, GM","FM-15","ETSE ","V020","120,1,N,0026,1","06600,1,C,N","011265,1,N,1","-0050,1","-0070,1","99999,9","07,5,+06600,1,99,9",,,"07,99,1,99,9,99,9,99999,9,99,9,99,9","10081,1,99999,9",,,,,"MET067METAR ETSE 301220Z 12005KT 9999 BKN220 M05/M07 Q1008 BLACKBLU/BLU/;",
"10869099999","2010-11-30T13:20:00","4","48.322333","11.948667","461.77","ERDING, GM","FM-15","ETSE ","V020","100,1,N,0026,1","05400,1,C,N","011265,1,N,1","-0060,1","-0070,1","99999,9","07,5,+05400,1,99,9",,,"07,99,1,99,9,99,9,99999,9,99,9,99,9","10081,1,99999,9",,,,,"MET077METAR ETSE 301320Z 10005KT 9999 BKN180 M06/M07 Q1008 BLACKBLU BLU/ TEMPO BLU;",
"10869099999","2010-11-30T14:20:00","4","48.322333","11.948667","461.77","ERDING, GM","FM-15","ETSE ","V020","080,1,N,0041,1","05100,1,C,N","011265,1,N,1","-0040,1","-0060,1","99999,9","07,5,+05100,1,99,9",,,"07,99,1,99,9,99,9,99999,9,99,9,99,9","10081,1,99999,9",,,,,"MET074METAR ETSE 301420Z 08008KT 9999 BKN170 M04/M06 Q1008 BLACKBLU FCST CANCEL;",
"10869099999","2010-11-30T15:20:00","4","48.322333","11.948667","461.77","ERDING, GM","FM-15","ETSE ","V020","080,1,N,0041,1","04800,1,C,N","011265,1,N,1","-0050,1","-0070,1","99999,9","07,5,+04800,1,99,9",,,"07,99,1,99,9,99,9,99999,9,99,9,99,9","10071,1,99999,9",,,,,"MET062METAR ETSE 301520Z 08008KT 9999 BKN160 M05/M07 Q1007 BLACKBLU;",
"10869099999","2010-12-01T06:20:00","4","48.322333","11.948667","461.77","ERDING, GM","FM-15","ETSE ","V020","060,1,N,0046,1","00270,1,C,N","011265,1,N,1","-0030,1","-0040,1","99999,9","08,5,+00270,1,99,9",,,"08,99,1,99,9,99,9,99999,9,99,9,99,9","09970,1,99999,9",,,,,"MET062METAR ETSE 010620Z 06009KT 9999 OVC009 M03/M04 Q0997 BLACKGRN;",
"10869099999","2010-12-01T07:20:00","4","48.322333","11.948667","461.77","ERDING, GM","FM-15","ETSE ","V020","060,1,N,0041,1","00450,1,C,N","011265,1,N,1","-0040,1","-0050,1","99999,9","04,5,+00270,1,99,9","08,5,+00450,1,99,9",,"08,99,1,99,9,99,9,99999,9,99,9,99,9","09970,1,99999,9",,,,,"MET069METAR ETSE 010720Z 06008KT 9999 SCT009 OVC015 M04/M05 Q0997 BLACKWHT;",
"10869099999","2010-12-01T08:20:00","4","48.322333","11.948667","461.77","ERDING, GM","FM-15","ETSE ","V020","070,1,N,0041,1","00450,1,C,N","011265,1,N,1","-0030,1","-0050,1","99999,9","02,5,+00300,1,99,9","08,5,+00450,1,99,9",,"08,99,1,99,9,99,9,99999,9,99,9,99,9","09970,1,99999,9",,,,,"MET073METAR ETSE 010820Z 07008KT 9999 FEW010 OVC015 M03/M05 Q0997 BLACKWHT WHT;",
"10869099999","2010-12-01T09:20:00","4","48.322333","11.948667","461.77","ERDING, GM","FM-15","ETSE ","V020","050,1,N,0046,1","00480,1,C,N","011265,1,N,1","-0030,1","-0050,1","99999,9","02,5,+00330,1,99,9","08,5,+00480,1,99,9",,"08,99,1,99,9,99,9,99999,9,99,9,99,9","09959,1,99999,9",,,,,"MET073METAR ETSE 010920Z 05009KT 9999 FEW011 OVC016 M03/M05 Q0996 BLACKWHT WHT;",
"10869099999","2010-12-01T10:20:00","4","48.322333","11.948667","461.77","ERDING, GM","FM-15","ETSE ","V020","080,1,N,0031,1","00450,1,C,N","011265,1,N,1","-0030,1","-0050,1","99999,9","02,5,+00300,1,99,9","08,5,+00450,1,99,9",,"08,99,1,99,9,99,9,99999,9,99,9,99,9","09959,1,99999,9",,,,,"MET083METAR ETSE 011020Z 08006KT 9999 FEW010 OVC015 M03/M05 Q0996 BLACKWHT WHT BECMG GRN;",
"10869099999","2010-12-01T11:14:00","4","48.322333","11.948667","461.77","ERDING, GM","FM-16","ETSE ","V020","070,1,N,0041,1","00420,1,C,N","001500,1,N,1","-0030,1","-0040,1","99999,9","02,5,+00240,1,99,9","08,5,+00420,1,99,9",,"08,99,1,99,9,99,9,99999,9,99,9,99,9","09949,1,99999,9","73,1",,,,"MET086SPECI ETSE 011114Z 07008KT 1500 SN FEW008 OVC014 M03/M04 Q0995 BLACKAMB GRN TEMPO AMB;",
"10869099999","2010-12-01T11:20:00","4","48.322333","11.948667","461.77","ERDING, GM","FM-15","ETSE ","V020","060,1,N,0041,1","00390,1,C,N","001500,1,N,1","-0030,1","-0040,1","99999,9","02,5,+00150,1,99,9","08,5,+00390,1,99,9",,"08,99,1,99,9,99,9,99999,9,99,9,99,9","09949,1,99999,9","73,1",,,,"MET086METAR ETSE 011120Z 06008KT 1500 SN FEW005 OVC013 M03/M04 Q0995 BLACKAMB GRN TEMPO AMB;",
"10869099999","2010-12-01T12:20:00","4","48.322333","11.948667","461.77","ERDING, GM","FM-15","ETSE ","V020","040,1,N,0041,1","00300,1,C,N","002500,1,N,1","-0030,1","-0040,1","99999,9","02,5,+00150,1,99,9","08,5,+00300,1,99,9",,"08,99,1,99,9,99,9,99999,9,99,9,99,9","09929,1,99999,9","73,1",,,,"MET086METAR ETSE 011220Z 04008KT 2500 SN FEW005 OVC010 M03/M04 Q0993 BLACKYLO YLO TEMPO AMB;",
"10869099999","2010-12-01T13:20:00","4","48.322333","11.948667","461.77","ERDING, GM","FM-15","ETSE ","V020","020,1,N,0026,1","00300,1,C,N","001300,1,N,1","-0030,1","-0040,1","99999,9","02,5,+00150,1,99,9","08,5,+00300,1,99,9",,"08,99,1,99,9,99,9,99999,9,99,9,99,9","09929,1,99999,9","73,1","77,1",,,"MET088METAR ETSE 011320Z 02005KT 1300 SNSG FEW005 OVC010 M03/M04 Q0993 BLACKAMB YLO TEMPO AMB;",
"10869099999","2010-12-01T14:20:00","4","48.322333","11.948667","461.77","ERDING, GM","FM-15","ETSE ","V020","360,1,N,0036,1","00300,1,C,N","001100,1,N,1","-0040,1","-0040,1","99999,9","04,5,+00120,1,99,9","08,5,+00300,1,99,9",,"08,99,1,99,9,99,9,99999,9,99,9,99,9","09929,1,99999,9","73,1","77,1",,,"MET086METAR ETSE 011420Z 36007KT 1100 SNSG SCT004 OVC010 M04/M04 Q0993 BLACKAMB FCST CANCEL;",
"10869099999","2010-12-02T06:20:00","4","48.322333","11.948667","461.77","ERDING, GM","FM-15","ETSE ","V020","320,1,N,0026,1","00510,1,C,N","008000,1,N,1","-0040,1","-0050,1","99999,9","02,5,+00390,1,99,9","08,5,+00510,1,99,9",,"08,99,1,99,9,99,9,99999,9,99,9,99,9","10051,1,99999,9",,,,,"MET083METAR ETSE 020620Z 32005KT 8000 FEW013 OVC017 M04/M05 Q1005 BLACKWHT WHT TEMPO GRN;",
"10869099999","2010-12-02T07:20:00","4","48.322333","11.948667","461.77","ERDING, GM","FM-15","ETSE ","V020","300,1,N,0015,1","00300,1,C,N","009000,1,N,1","-0040,1","-0050,1","99999,9","02,5,+00150,1,99,9","08,5,+00300,1,99,9",,"08,99,1,99,9,99,9,99999,9,99,9,99,9","10051,1,99999,9","71,1",,,,"MET087METAR ETSE 020720Z 30003KT 9000 -SN FEW005 OVC010 M04/M05 Q1005 BLACKGRN WHT TEMPO GRN;",
"10869099999","2010-12-02T08:20:00","4","48.322333","11.948667","461.77","ERDING, GM","FM-15","ETSE ","V020","010,1,N,0010,1","00300,1,C,N","007000,1,N,1","-0040,1","-0050,1","99999,9","02,5,+00150,1,99,9","07,5,+00300,1,99,9","08,5,+00510,1,99,9","08,99,1,99,9,99,9,99999,9,99,9,99,9","10061,1,99999,9","71,1",,,,"MET094METAR ETSE 020820Z 01002KT 7000 -SN FEW005 BKN010 OVC017 M04/M05 Q1006 BLACKGRN WHT TEMPO GRN;",
"10869099999","2010-12-02T08:35:00","4","48.322333","11.948667","461.77","ERDING, GM","FM-16","ETSE ","V020","320,1,N,0010,1","00300,1,C,N","003700,1,N,1","-0040,1","-0050,1","99999,9","04,5,+00150,1,99,9","07,5,+00300,1,99,9","08,5,+00450,1,99,9","08,99,1,99,9,99,9,99999,9,99,9,99,9","10061,1,99999,9","10,1","71,1",,,"MET097SPECI ETSE 020835Z 32002KT 3700 -SN BR SCT005 BKN010 OVC015 M04/M05 Q1006 BLACKGRN WHT TEMPO GRN;",
"10869099999","2010-12-02T09:20:00","4","48.322333","11.948667","461.77","ERDING, GM","FM-15","ETSE ","V020","140,1,N,0010,1","00300,1,C,N","008000,1,N,1","-0040,1","-0050,1","99999,9","02,5,+00150,1,99,9","08,5,+00300,1,99,9",,"08,99,1,99,9,99,9,99999,9,99,9,99,9","10071,1,99999,9","71,1",,,,"MET087METAR ETSE 020920Z 14002KT 8000 -SN FEW005 OVC010 M04/M05 Q1007 BLACKGRN WHT TEMPO GRN;",
"10869099999","2010-12-02T10:20:00","4","48.322333","11.948667","461.77","ERDING, GM","FM-15","ETSE ","V020","070,1,N,0010,1","00330,1,C,N","008000,1,N,1","-0040,1","-0050,1","99999,9","02,5,+00150,1,99,9","08,5,+00330,1,99,9",,"08,99,1,99,9,99,9,99999,9,99,9,99,9","10071,1,99999,9","71,1",,,,"MET087METAR ETSE 021020Z 07002KT 8000 -SN FEW005 OVC011 M04/M05 Q1007 BLACKGRN WHT TEMPO GRN;",
"10869099999","2010-12-02T11:20:00","4","48.322333","11.948667","461.77","ERDING, GM","FM-15","ETSE ","V020","060,1,N,0010,1","00450,1,C,N","006000,1,N,1","-0040,1","-0050,1","99999,9","02,5,+00150,1,99,9","07,5,+00450,1,99,9","08,5,+00660,1,99,9","08,99,1,99,9,99,9,99999,9,99,9,99,9","10071,1,99999,9","71,1",,,,"MET084METAR ETSE 021120Z 06002KT 6000 -SN FEW005 BKN015 OVC022 M04/M05 Q1007 BLACKWHT WHT;",
"10869099999","2010-12-02T12:20:00","4","48.322333","11.948667","461.77","ERDING, GM","FM-15","ETSE ","V020","130,1,N,0010,1","00450,1,C,N","011265,1,N,1","-0040,1","-0050,1","99999,9","02,5,+00210,1,99,9","07,5,+00450,1,99,9","08,5,+00720,1,99,9","08,99,1,99,9,99,9,99999,9,99,9,99,9","10071,1,99999,9","71,1",,,,"MET094METAR ETSE 021220Z 13002KT 9999 -SN FEW007 BKN015 OVC024 M04/M05 Q1007 BLACKWHT WHT BECMG BLU;",
"10869099999","2010-12-02T13:20:00","4","48.322333","11.948667","461.77","ERDING, GM","FM-15","ETSE ","V020","070,1,N,0021,1","00570,1,C,N","011265,1,N,1","-0030,1","-0050,1","99999,9","04,5,+00300,1,99,9","07,5,+00570,1,99,9","08,5,+01050,1,99,9","08,99,1,99,9,99,9,99999,9,99,9,99,9","10061,1,99999,9",,,,,"MET090METAR ETSE 021320Z 07004KT 9999 SCT010 BKN019 OVC035 M03/M05 Q1006 BLACKWHT WHT BECMG BLU;",
"10869099999","2010-12-02T14:20:00","4","48.322333","11.948667","461.77","ERDING, GM","FM-15","ETSE ","V020","120,1,N,0021,1","00300,1,C,N","011265,1,N,1","-0030,1","-0050,1","99999,9","08,5,+00300,1,99,9",,,"08,99,1,99,9,99,9,99999,9,99,9,99,9","10071,1,99999,9",,,,,"MET074METAR ETSE 021420Z 12004KT 9999 OVC010 M03/M05 Q1007 BLACKGRN FCST CANCEL;",
"10869099999","2010-12-03T06:20:00","4","48.322333","11.948667","461.77","ERDING, GM","FM-15","ETSE ","V020","999,9,V,0005,1","00300,1,C,N","004000,1,N,1","-0080,1","-0090,1","99999,9","04,5,+00150,1,99,9","07,5,+00300,1,99,9","07,5,+00690,1,99,9","07,99,1,99,9,99,9,99999,9,99,9,99,9","10071,1,99999,9","10,1",,,,"MET079METAR ETSE 030620Z VRB01KT 4000 BR SCT005 BKN010 BKN023 M08/M09 Q1007 BLACKGRN;",
"10869099999","2010-12-03T07:20:00","4","48.322333","11.948667","461.77","ERDING, GM","FM-15","ETSE ","V020","040,1,N,0005,1","00300,1,C,N","004000,1,N,1","-0080,1","-0080,1","99999,9","02,5,+00150,1,99,9","07,5,+00300,1,99,9","07,5,+00690,1,99,9","07,99,1,99,9,99,9,99999,9,99,9,99,9","10071,1,99999,9","10,1",,,,"MET079METAR ETSE 030720Z 04001KT 4000 BR FEW005 BKN010 BKN023 M08/M08 Q1007 BLACKGRN;",
"10869099999","2010-12-03T08:20:00","4","48.322333","11.948667","461.77","ERDING, GM","FM-15","ETSE ","V020","150,1,N,0010,1","00630,1,C,N","005000,1,N,1","-0070,1","-0080,1","99999,9","04,5,+00300,1,99,9","08,5,+00630,1,99,9",,"08,99,1,99,9,99,9,99999,9,99,9,99,9","10071,1,99999,9","10,1",,,,"MET072METAR ETSE 030820Z 15002KT 5000 BR SCT010 OVC021 M07/M08 Q1007 BLACKWHT;",
"10869099999","2010-12-06T06:20:00","4","48.322333","11.948667","461.77","ERDING, GM","FM-15","ETSE ","V020","120,1,N,0015,1","00840,1,C,N","005000,1,N,1","+0000,1","+0000,1","99999,9","02,5,+00360,1,99,9","08,5,+00840,1,99,9",,"08,99,1,99,9,99,9,99999,9,99,9,99,9","10000,1,99999,9","10,1","61,1","71,1",,"MET090METAR ETSE 060620Z 12003KT 5000 -RASN BR FEW012 OVC028 00/00 Q1000 BLACKWHT WHT TEMPO YLO;",
"10869099999","2010-12-06T07:20:00","4","48.322333","11.948667","461.77","ERDING, GM","FM-15","ETSE ","V020","120,1,N,0026,1","00990,1,C,N","005000,1,N,1","+0000,1","+0000,1","99999,9","02,5,+00300,1,99,9","07,5,+00990,1,99,9",,"07,99,1,99,9,99,9,99999,9,99,9,99,9","10000,1,99999,9","10,1","61,1","71,1",,"MET090METAR ETSE 060720Z 12005KT 5000 -RASN BR FEW010 BKN033 00/00 Q1000 BLACKWHT WHT TEMPO YLO;",
"10869099999","2010-12-06T08:20:00","4","48.322333","11.948667","461.77","ERDING, GM","FM-15","ETSE ","V020","120,1,N,0026,1","00750,1,C,N","006000,1,N,1","+0000,1","+0000,1","99999,9","04,5,+00390,1,99,9","07,5,+00750,1,99,9",,"07,99,1,99,9,99,9,99999,9,99,9,99,9","09990,1,99999,9","61,1","71,1",,,"MET087METAR ETSE 060820Z 12005KT 6000 -RASN SCT013 BKN025 00/00 Q0999 BLACKWHT WHT TEMPO YLO;",
"10869099999","2010-12-06T09:20:00","4","48.322333","11.948667","461.77","ERDING, GM","FM-15","ETSE ","V020","110,1,N,0026,1","00990,1,C,N","007000,1,N,1","+0000,1","+0000,1","99999,9","02,5,+00390,1,99,9","07,5,+00990,1,99,9",,"07,99,1,99,9,99,9,99999,9,99,9,99,9","09990,1,99999,9","61,1","71,1",,,"MET088METAR ETSE 060920Z 11005KT 7000 -RASN FEW013 BKN033 00/M00 Q0999 BLACKWHT WHT TEMPO YLO;",
"10869099999","2010-12-06T10:20:00","4","48.322333","11.948667","461.77","ERDING, GM","FM-15","ETSE ","V020","120,1,N,0026,1","00990,1,C,N","007000,1,N,1","+0000,1","-0010,1","99999,9","02,5,+00450,1,99,9","07,5,+00990,1,99,9",,"07,99,1,99,9,99,9,99999,9,99,9,99,9","09990,1,99999,9","63,1",,,,"MET085METAR ETSE 061020Z 12005KT 7000 RA FEW015 BKN033 00/M01 Q0999 BLACKWHT WHT TEMPO GRN;",
"10869099999","2010-12-06T11:20:00","4","48.322333","11.948667","461.77","ERDING, GM","FM-15","ETSE ","V020","120,1,N,0031,1","01020,1,C,N","007000,1,N,1","+0000,1","-0010,1","99999,9","02,5,+00480,1,99,9","07,5,+01020,1,99,9",,"07,99,1,99,9,99,9,99999,9,99,9,99,9","09990,1,99999,9","63,1",,,,"MET085METAR ETSE 061120Z 12006KT 7000 RA FEW016 BKN034 00/M01 Q0999 BLACKWHT WHT TEMPO GRN;",
"10869099999","2010-12-06T12:20:00","4","48.322333","11.948667","461.77","ERDING, GM","FM-15","ETSE ","V020","110,1,N,0026,1","01200,1,C,N","008000,1,N,1","+0000,1","-0010,1","99999,9","02,5,+00540,1,99,9","07,5,+01200,1,99,9",,"07,99,1,99,9,99,9,99999,9,99,9,99,9","09980,1,99999,9","61,1",,,,"MET091METAR ETSE 061220Z 11005KT 8000 -RA FEW018 BKN040 00/M01 Q0998 RERA BLACKBLU WHT TEMPO GRN;",
"10869099999","2010-12-06T13:20:00","4","48.322333","11.948667","461.77","ERDING, GM","FM-15","ETSE ","V020","120,1,N,0041,1","01200,1,C,N","008000,1,N,1","+0000,1","-0010,1","99999,9","02,5,+00660,1,99,9","07,5,+01200,1,99,9",,"07,99,1,99,9,99,9,99999,9,99,9,99,9","09980,1,99999,9","61,1",,,,"MET086METAR ETSE 061320Z 12008KT 8000 -RA FEW022 BKN040 00/M01 Q0998 BLACKBLU WHT TEMPO GRN;",
"10869099999","2010-12-06T14:20:00","4","48.322333","11.948667","461.77","ERDING, GM","FM-15","ETSE ","V020","110,1,N,0026,1","01260,1,C,N","008000,1,N,1","+0000,1","+0000,1","99999,9","02,5,+00750,1,99,9","07,5,+01260,1,99,9",,"07,99,1,99,9,99,9,99999,9,99,9,99,9","09970,1,99999,9","61,1",,,,"MET084METAR ETSE 061420Z 11005KT 8000 -RA FEW025 BKN042 00/M00 Q0997 BLACKBLU FCST CANCEL;",
"10869099999","2010-12-07T06:20:00","4","48.322333","11.948667","461.77","ERDING, GM","FM-15","ETSE ","V020","210,1,N,0031,1","01500,1,C,N","011265,1,N,1","+0060,1","+0040,1","99999,9","02,5,+00900,1,99,9","07,5,+01500,1,99,9",,"07,99,1,99,9,99,9,99999,9,99,9,99,9","09990,1,99999,9",,,,,"MET071METAR ETSE 070620Z 21006KT 9999 FEW030 BKN050 06/04 Q0999 BLACKBLU BLU;",
"10869099999","2010-12-07T07:20:00","4","48.322333","11.948667","461.77","ERDING, GM","FM-15","ETSE ","V020","200,1,N,0026,1","01350,1,C,N","011265,1,N,1","+0050,1","+0040,1","99999,9","02,5,+00900,1,99,9","07,5,+01350,1,99,9",,"07,99,1,99,9,99,9,99999,9,99,9,99,9","10000,1,99999,9",,,,,"MET071METAR ETSE 070720Z 20005KT 9999 FEW030 BKN045 05/04 Q1000 BLACKBLU BLU;",
"10869099999","2010-12-07T08:12:00","4","48.322333","11.948667","461.77","ERDING, GM","FM-16","ETSE ","V020","210,1,N,0021,1","01500,1,C,N","011265,1,N,1","+0060,1","+0040,1","99999,9","02,5,+00900,1,99,9","07,5,+01500,1,99,9",,"07,99,1,99,9,99,9,99999,9,99,9,99,9","10010,1,99999,9",,,,,"MET066SPECI ETSE 070812Z 21004KT 9999 FEW030 BKN050 06/04 Q1001 BLU BLU;",
"10869099999","2010-12-07T08:20:00","4","48.322333","11.948667","461.77","ERDING, GM","FM-15","ETSE ","V020","200,1,N,0021,1","01500,1,C,N","011265,1,N,1","+0060,1","+0040,1","99999,9","02,5,+00900,1,99,9","07,5,+01500,1,99,9",,"07,99,1,99,9,99,9,99999,9,99,9,99,9","10010,1,99999,9",,,,,"MET066METAR ETSE 070820Z 20004KT 9999 FEW030 BKN050 06/04 Q1001 BLU BLU;",
"10869099999","2010-12-07T09:20:00","4","48.322333","11.948667","461.77","ERDING, GM","FM-15","ETSE ","V020","210,1,N,0021,1","01500,1,C,N","011265,1,N,1","+0070,1","+0040,1","99999,9","02,5,+00900,1,99,9","04,5,+01650,5,99,9","07,5,+03600,1,99,9","07,99,1,99,9,99,9,99999,9,99,9,99,9","10020,1,99999,9",,,,,"MET084METAR ETSE 070920Z 21004KT 9999 FEW030 SCT055 BKN120 07/04 Q1002 BLU BLU TEMPO BLU/;",
"10869099999","2010-12-07T10:20:00","4","48.322333","11.948667","461.77","ERDING, GM","FM-15","ETSE ","V020","280,1,N,0021,1","99999,9,C,N","011265,1,N,1","+0080,1","+0040,1","99999,9","02,5,+00900,1,99,9","04,5,+01350,1,99,9",,"04,99,1,99,9,99,9,99999,9,99,9,99,9","10020,1,99999,9",,,,,"MET077METAR ETSE 071020Z 28004KT 9999 FEW030 SCT045 08/04 Q1002 BLU/BLU TEMPO BLU/;","P01 013503SCOCIG"
"10869099999","2010-12-07T11:20:00","4","48.322333","11.948667","461.77","ERDING, GM","FM-15","ETSE ","V020","290,1,N,0021,1","99999,9,C,N","011265,1,N,1","+0070,1","+0030,1","99999,9","02,5,+01200,1,99,9","04,5,+05400,1,99,9",,"04,99,1,99,9,99,9,99999,9,99,9,99,9","10020,1,99999,9",,,,,"MET077METAR ETSE 071120Z 29004KT 9999 FEW040 SCT180 07/03 Q1002 BLU/BLU TEMPO BLU/;","P01 054003SCOCIG"
"10869099999","2010-12-07T12:20:00","4","48.322333","11.948667","461.77","ERDING, GM","FM-15","ETSE ","V020","110,1,N,0015,1","06900,1,C,N","011265,1,N,1","+0060,1","+0040,1","99999,9","02,5,+01200,1,99,9","07,5,+06900,1,99,9",,"07,99,1,99,9,99,9,99999,9,99,9,99,9","10020,1,99999,9",,,,,"MET077METAR ETSE 071220Z 11003KT 9999 FEW040 BKN230 06/04 Q1002 BLU/BLU TEMPO BLU/;",
"10869099999","2010-12-07T13:20:00","4","48.322333","11.948667","461.77","ERDING, GM","FM-15","ETSE ","V020","130,1,N,0021,1","03600,1,C,N","011265,1,N,1","+0050,1","+0040,1","99999,9","02,5,+01200,1,99,9","04,5,+03600,1,99,9","07,5,+06300,1,99,9","07,99,1,99,9,99,9,99999,9,99,9,99,9","10010,1,99999,9",,,,,"MET084METAR ETSE 071320Z 13004KT 9999 FEW040 SCT120 BKN210 05/04 Q1001 BLU/BLU TEMPO BLU/;",
"10869099999","2010-12-07T14:20:00","4","48.322333","11.948667","461.77","ERDING, GM","FM-15","ETSE ","V020","050,1,N,0015,1","03000,1,C,N","011265,1,N,1","+0040,1","+0030,1","99999,9","02,5,+01350,1,99,9","04,5,+03000,1,99,9","07,5,+05400,1,99,9","07,99,1,99,9,99,9,99999,9,99,9,99,9","10010,1,99999,9",,,,,"MET084METAR ETSE 071420Z 05003KT 9999 FEW045 SCT100 BKN180 04/03 Q1001 BLU BLU TEMPO BLU/;",
"10869099999","2010-12-07T15:00:00","4","48.322333","11.948667","461.77","ERDING, GM","FM-16","ETSE ","V020","999,9,V,0010,1","03600,1,C,N","011265,1,N,1","+0040,1","+0030,1","99999,9","02,5,+01350,1,99,9","07,5,+03600,1,99,9","07,5,+05400,1,99,9","07,99,1,99,9,99,9,99999,9,99,9,99,9","10010,1,99999,9",,,,,"MET081SPECI ETSE 071500Z VRB02KT 9999 FEW045 BKN120 BKN180 04/03 Q1001 BLU FCST CANCEL;",
"10869099999","2010-12-08T06:20:00","4","48.322333","11.948667","461.77","ERDING, GM","FM-15","ETSE ","V020","100,1,N,0010,1","02400,1,C,N","011265,1,N,1","+0030,1","+0020,1","99999,9","02,5,+01110,1,99,9","07,5,+02400,1,99,9",,"07,99,1,99,9,99,9,99999,9,99,9,99,9","10031,1,99999,9",,,,,"MET062METAR ETSE 080620Z 10002KT 9999 FEW037 BKN080 03/02 Q1003 BLU;",
"10869099999","2010-12-08T07:20:00","4","48.322333","11.948667","461.77","ERDING, GM","FM-15","ETSE ","V020","090,1,N,0010,1","02700,1,C,N","011265,1,N,1","+0020,1","+0020,1","99999,9","04,5,+02040,5,99,9","07,5,+02700,1,99,9",,"07,99,1,99,9,99,9,99999,9,99,9,99,9","10031,1,99999,9",,,,,"MET062METAR ETSE 080720Z 09002KT 9999 SCT068 BKN090 02/02 Q1003 BLU;",
"10869099999","2010-12-08T08:20:00","4","48.322333","11.948667","461.77","ERDING, GM","FM-15","ETSE ","V020","040,1,N,0010,1","02700,1,C,N","011265,1,N,1","+0030,1","+0020,1","99999,9","02,5,+02100,1,99,9","04,5,+02700,1,99,9","07,5,+03300,1,99,9","07,99,1,99,9,99,9,99999,9,99,9,99,9","10031,1,99999,9",,,,,"MET084METAR ETSE 080820Z 04002KT 9999 FEW070 SCT090 BKN110 03/02 Q1003 BLU BLU TEMPO BLU/;",
"10869099999","2010-12-08T09:20:00","4","48.322333","11.948667","461.77","ERDING, GM","FM-15","ETSE ","V020","050,1,N,0010,1","03300,1,C,N","011265,1,N,1","+0040,1","+0020,1","99999,9","02,5,+01200,1,99,9","04,5,+03300,1,99,9","07,5,+06600,1,99,9","07,99,1,99,9,99,9,99999,9,99,9,99,9","10031,1,99999,9","12,1",,,,"MET089METAR ETSE 080920Z 05002KT 9999 MIFG FEW040 SCT110 BKN220 04/02 Q1003 BLU/BLU TEMPO BLU/;",
"10869099999","2010-12-08T10:20:00","4","48.322333","11.948667","461.77","ERDING, GM","FM-15","ETSE ","V020","140,1,N,0026,1","03300,1,C,N","011265,1,N,1","+0060,1","+0030,1","99999,9","02,5,+01500,1,99,9","04,5,+03300,1,99,9","07,5,+06600,1,99,9","07,99,1,99,9,99,9,99999,9,99,9,99,9","10020,1,99999,9",,,,,"MET084METAR ETSE 081020Z 14005KT 9999 FEW050 SCT110 BKN220 06/03 Q1002 BLU/BLU TEMPO BLU/;",
"10869099999","2010-12-08T11:20:00","4","48.322333","11.948667","461.77","ERDING, GM","FM-15","ETSE ","V020","130,1,N,0031,1","02700,1,C,N","011265,1,N,1","+0050,1","+0030,1","99999,9","02,5,+01500,1,99,9","04,5,+02850,5,99,9","07,5,+03300,1,99,9","07,99,1,99,9,99,9,99999,9,99,9,99,9","10010,1,99999,9",,,,,"MET073METAR ETSE 081120Z 13006KT 9999 FEW050 SCT095 BKN110 05/03 Q1001 BLU BLU;",
"10869099999","2010-12-08T12:00:00","4","48.322333","11.948667","461.77","ERDING, GM","FM-16","ETSE ","V020","140,1,N,0015,1","03300,1,C,N","011265,1,N,1","+0060,1","+0040,1","99999,9","02,5,+01500,1,99,9","07,5,+03300,1,99,9",,"07,99,1,99,9,99,9,99999,9,99,9,99,9","10010,1,99999,9",,,,,"MET074SPECI ETSE 081200Z 14003KT 9999 FEW050 BKN110 06/04 Q1001 BLU FCST CANCEL;",
"10869099999","2010-12-08T12:20:00","4","48.322333","11.948667","461.77","ERDING, GM","FM-15","ETSE ","V020","120,1,N,0026,1","03300,1,C,N","011265,1,N,1","+0060,1","+0040,1","99999,9","02,5,+01500,1,99,9","07,5,+03300,1,99,9",,"07,99,1,99,9,99,9,99999,9,99,9,99,9","10010,1,99999,9",,,,,"MET062METAR ETSE 081220Z 12005KT 9999 FEW050 BKN110 06/04 Q1001 BLU;",
"10869099999","2010-12-08T13:20:00","4","48.322333","11.948667","461.77","ERDING, GM","FM-15","ETSE ","V020","140,1,N,0015,1","03600,1,C,N","011265,1,N,1","+0070,1","+0040,1","99999,9","02,5,+01800,1,99,9","07,5,+03600,1,99,9",,"07,99,1,99,9,99,9,99999,9,99,9,99,9","10000,1,99999,9",,,,,"MET062METAR ETSE 081320Z 14003KT 9999 FEW060 BKN120 07/04 Q1000 BLU;",
"10869099999","2010-12-08T14:20:00","4","48.322333","11.948667","461.77","ERDING, GM","FM-15","ETSE ","V020","150,1,N,0021,1","03300,1,C,N","011265,1,N,1","+0060,1","+0040,1","99999,9","02,5,+01800,1,99,9","07,5,+03300,1,99,9",,"07,99,1,99,9,99,9,99999,9,99,9,99,9","10010,1,99999,9",,,,,"MET062METAR ETSE 081420Z 15004KT 9999 FEW060 BKN110 06/04 Q1001 BLU;",
"10869099999","2010-12-09T06:20:00","4","48.322333","11.948667","461.77","ERDING, GM","FM-15","ETSE ","V020","300,1,N,0087,1","00330,1,C,N","011265,1,N,1","-0010,1","-0020,1","99999,9","02,5,+00180,1,99,9","07,5,+00330,1,99,9",,"07,99,1,99,9,99,9,99999,9,99,9,99,9","10169,1,99999,9","36,1",,,,"MET088METAR ETSE 090620Z 30017KT 9999 DRSN FEW006 BKN011 M01/M02 Q1017 BLACKGRN WHT TEMPO GRN;",
"10869099999","2010-12-09T07:20:00","4","48.322333","11.948667","461.77","ERDING, GM","FM-15","ETSE ","V020","310,1,N,0077,1","00540,1,C,N","011265,1,N,1","-0020,1","-0040,1","99999,9","02,5,+00210,1,99,9","07,5,+00540,1,99,9",,"07,99,1,99,9,99,9,99999,9,99,9,99,9","10180,1,99999,9",,,,,"MET083METAR ETSE 090720Z 31015KT 9999 FEW007 BKN018 M02/M04 Q1018 BLACKWHT WHT TEMPO GRN;",
"10869099999","2010-12-09T08:20:00","4","48.322333","11.948667","461.77","ERDING, GM","FM-15","ETSE ","V020","300,1,N,0041,1","99999,9,C,N","011265,1,N,1","-0020,1","-0050,1","99999,9","02,5,+00240,1,99,9","04,5,+00720,1,99,9",,"04,99,1,99,9,99,9,99999,9,99,9,99,9","10190,1,99999,9",,,,,"MET084METAR ETSE 090820Z 30008KT 9999 FEW008 SCT024 M02/M05 Q1019 BLACKBLU/BLU TEMPO BLU/;","P01 007203SCOCIG"
"10869099999","2010-12-09T09:20:00","4","48.322333","11.948667","461.77","ERDING, GM","FM-15","ETSE ","V020","280,1,N,0067,1","00750,1,C,N","011265,1,N,1","-0020,1","-0050,1","99999,9","02,5,+00330,1,99,9","07,5,+00750,1,99,9",,"07,99,1,99,9,99,9,99999,9,99,9,99,9","10190,1,99999,9",,,,,"MET073METAR ETSE 090920Z 28013KT 9999 FEW011 BKN025 M02/M05 Q1019 BLACKBLU BLU;",
"10869099999","2010-12-09T10:20:00","4","48.322333","11.948667","461.77","ERDING, GM","FM-15","ETSE ","V020","260,1,N,0051,1","00780,1,C,N","011265,1,N,1","-0020,1","-0050,1","99999,9","02,5,+00450,1,99,9","04,5,+00780,1,99,9","07,5,+01170,1,99,9","07,99,1,99,9,99,9,99999,9,99,9,99,9","10190,1,99999,9",,,,,"MET080METAR ETSE 091020Z 26010KT 9999 FEW015 SCT026 BKN039 M02/M05 Q1019 BLACKBLU BLU;",
"10869099999","2010-12-09T11:20:00","4","48.322333","11.948667","461.77","ERDING, GM","FM-15","ETSE ","V020","250,1,N,0057,1","99999,9,C,N","011265,1,N,1","-0010,1","-0040,1","99999,9","02,5,+00600,1,99,9","04,5,+04800,1,99,9",,"04,99,1,99,9,99,9,99999,9,99,9,99,9","10190,1,99999,9",,,,,"MET084METAR ETSE 091120Z 25011KT 9999 FEW020 SCT160 M01/M04 Q1019 BLACKBLU/BLU TEMPO BLU/;","P01 048003SCOCIG"
"10869099999","2010-12-09T12:20:00","4","48.322333","11.948667","461.77","ERDING, GM","FM-15","ETSE ","V020","270,1,N,0067,1","00630,1,C,N","011265,1,N,1","-0010,1","-0040,1","99999,9","02,5,+00300,1,99,9","04,5,+00630,1,99,9","07,5,+01650,5,99,9","07,99,1,99,9,99,9,99999,9,99,9,99,9","10190,1,99999,9",,,,,"MET091METAR ETSE 091220Z 27013KT 9999 FEW010 SCT021 BKN055 M01/M04 Q1019 BLACKBLU BLU TEMPO BLU/;",
"10869099999","2010-12-09T13:20:00","4","48.322333","11.948667","461.77","ERDING, GM","FM-15","ETSE ","V020","260,1,N,0062,1","00600,1,C,N","011265,1,N,1","+0000,1","-0040,1","99999,9","02,5,+00300,1,99,9","07,5,+00600,1,99,9",,"07,99,1,99,9,99,9,99999,9,99,9,99,9","10190,1,99999,9",,,,,"MET083METAR ETSE 091320Z 26012KT 9999 FEW010 BKN020 M00/M04 Q1019 BLACKWHT BLU TEMPO YLO;",
"10869099999","2010-12-09T14:20:00","4","48.322333","11.948667","461.77","ERDING, GM","FM-15","ETSE ","V020","260,1,N,0057,1","00450,1,C,N","009000,1,N,1","+0000,1","-0030,1","99999,9","02,5,+00240,1,99,9","07,5,+00450,1,99,9",,"07,99,1,99,9,99,9,99999,9,99,9,99,9","10200,1,99999,9","85,5",,,,"MET089METAR ETSE 091420Z 26011KT 9000 -SHSN FEW008 BKN015 M00/M03 Q1020 BLACKWHT BLU TEMPO YLO;",
"10869099999","2010-12-09T15:00:00","4","48.322333","11.948667","461.77","ERDING, GM","FM-16","ETSE ","V020","280,1,N,0077,1","00780,1,C,N","011265,1,N,1","+0000,1","-0020,1","99999,9","04,5,+00330,1,99,9","07,5,+00780,1,99,9",,"07,99,1,99,9,99,9,99999,9,99,9,99,9","10200,1,99999,9","85,5",,,,"MET087SPECI ETSE 091500Z 28015KT 9999 -SHSN SCT011 BKN026 M00/M02 Q1020 BLACKBLU FCST CANCEL;",
"10869099999","2010-12-10T06:20:00","4","48.322333","11.948667","461.77","ERDING, GM","FM-15","ETSE ","V020","300,1,N,0087,1","00270,1,C,N","001100,1,N,1","-0010,1","-0010,1","99999,9","04,5,+00150,1,99,9","07,5,+00270,1,99,9",,"07,99,1,99,9,99,9,99999,9,99,9,99,9","10220,1,99999,9","36,1","86,5",,,"MET093METAR ETSE 100620Z 30017KT 1100 SHSN DRSN SCT005 BKN009 M01/M01 Q1022 BLACKAMB YLO TEMPO RED;",
"10869099999","2010-12-10T06:45:00","4","48.322333","11.948667","461.77","ERDING, GM","FM-16","ETSE ","V020","320,1,N,0062,1","00210,1,C,N","000250,1,N,1","-0010,1","-0010,1","99999,9","04,5,+00120,1,99,9","07,5,+00210,1,99,9",,"07,99,1,99,9,99,9,99999,9,99,9,99,9","10230,1,99999,9","36,1","86,5",,,"MET094SPECI ETSE 100645Z 32012KT 0250 +SHSN DRSN SCT004 BKN007 M01/M01 Q1023 BLACKRED YLO TEMPO RED;",
"10869099999","2010-12-10T07:20:00","4","48.322333","11.948667","461.77","ERDING, GM","FM-15","ETSE ","V020","300,1,N,0051,1","00210,1,C,N","000600,1,N,1","-0010,1","-0010,1","99999,9","04,5,+00120,1,99,9","07,5,+00210,1,99,9",,"07,99,1,99,9,99,9,99999,9,99,9,99,9","10240,1,99999,9","37,1","75,1",,,"MET092METAR ETSE 100720Z 30010KT 0600 +SN DRSN SCT004 BKN007 M01/M01 Q1024 BLACKRED YLO TEMPO RED;",
"10869099999","2010-12-10T07:28:00","4","48.322333","11.948667","461.77","ERDING, GM","FM-16","ETSE ","V020","300,1,N,0051,1","00240,1,C,N","001300,1,N,1","-0010,1","-0010,1","99999,9","04,5,+00120,1,99,9","07,5,+00240,1,99,9",,"07,99,1,99,9,99,9,99999,9,99,9,99,9","10251,1,99999,9","36,1","73,1",,,"MET096SPECI ETSE 100728Z 30010KT 1300 SN DRSN SCT004 BKN008 M01/M01 Q1025 RESN BLACKAMB YLO TEMPO RED;",
"10869099999","2010-12-10T07:34:00","4","48.322333","11.948667","461.77","ERDING, GM","FM-16","ETSE ","V020","300,1,N,0051,1","00240,1,C,N","003800,1,N,1","-0010,1","-0010,1","99999,9","02,5,+00120,1,99,9","07,5,+00240,1,99,9","07,5,+00810,1,99,9","07,99,1,99,9,99,9,99999,9,99,9,99,9","10251,1,99999,9","36,1","73,1",,,"MET103SPECI ETSE 100734Z 30010KT 3800 SN DRSN FEW004 BKN008 BKN027 M01/M01 Q1025 RESN BLACKGRN GRN BECMG BLU;",
"10869099999","2010-12-10T07:41:00","4","48.322333","11.948667","461.77","ERDING, GM","FM-16","ETSE ","V020","310,1,N,0051,1","00270,1,C,N","005000,1,N,1","-0010,1","-0010,1","99999,9","07,5,+00270,1,99,9","04,5,+00570,1,99,9","07,5,+01080,1,99,9","07,99,1,99,9,99,9,99999,9,99,9,99,9","10251,1,99999,9","36,1","71,1",,,"MET104SPECI ETSE 100741Z 31010KT 5000 -SN DRSN BKN009 SCT019 BKN036 M01/M01 Q1025 RESN BLACKGRN GRN BECMG BLU;",
"10869099999","2010-12-10T08:05:00","4","48.322333","11.948667","461.77","ERDING, GM","FM-16","ETSE ","V020","320,1,N,0046,1","00990,1,C,N","011265,1,N,1","-0010,1","-0010,1","99999,9","04,5,+00270,1,99,9","07,5,+00990,1,99,9",,"07,99,1,99,9,99,9,99999,9,99,9,99,9","10261,1,99999,9","36,1","71,1",,,"MET087SPECI ETSE 100805Z 32009KT 9999 -SN DRSN SCT009 BKN033 M01/M01 Q1026 RESN BLACKBLU BLU;",
"10869099999","2010-12-10T08:20:00","4","48.322333","11.948667","461.77","ERDING, GM","FM-15","ETSE ","V020","340,1,N,0046,1","00900,1,C,N","011265,1,N,1","-0010,1","-0020,1","99999,9","02,5,+00270,1,99,9","07,5,+00900,1,99,9",,"07,99,1,99,9,99,9,99999,9,99,9,99,9","10261,1,99999,9","36,1",,,,"MET083METAR ETSE 100820Z 34009KT 9999 DRSN FEW009 BKN030 M01/M02 Q1026 RESN BLACKBLU BLU;",
"10869099999","2010-12-10T09:00:00","4","48.322333","11.948667","461.77","ERDING, GM","FM-16","ETSE ","V020","320,1,N,0041,1","99999,9,C,N","011265,1,N,1","-0010,1","-0030,1","99999,9","02,5,+00390,1,99,9","04,5,+05700,1,99,9",,"04,99,1,99,9,99,9,99999,9,99,9,99,9","10261,1,99999,9","36,1",,,,"MET086SPECI ETSE 100900Z 32008KT 9999 DRSN FEW013 SCT190 M01/M03 Q1026 BLACKBLU/FCST CANCEL;","P01 057003SCOCIG"
"10869099999","2010-12-13T06:20:00","4","48.322333","11.948667","461.77","ERDING, GM","FM-15","ETSE ","V020","350,1,N,0036,1","01200,1,C,N","011265,1,N,1","-0070,1","-0080,1","99999,9","07,5,+01200,1,99,9",,,"07,99,1,99,9,99,9,99999,9,99,9,99,9","10169,1,99999,9",,,,,"MET076METAR ETSE 130620Z 35007KT 9999 BKN040 M07/M08 Q1017 BLACKBLU BLU TEMPO WHT;",
"10869099999","2010-12-13T07:20:00","4","48.322333","11.948667","461.77","ERDING, GM","FM-15","ETSE ","V020","320,1,N,0026,1","01140,1,C,N","011265,1,N,1","-0080,1","-0100,1","99999,9","02,5,+00390,1,99,9","07,5,+01140,1,99,9",,"07,99,1,99,9,99,9,99999,9,99,9,99,9","10180,1,99999,9",,,,,"MET084METAR ETSE 130720Z 32005KT 9999 FEW013 BKN038 M08/M10 Q1018 BLACKBLU BLU BECMG BLU/;",
"10869099999","2010-12-13T08:20:00","4","48.322333","11.948667","461.77","ERDING, GM","FM-15","ETSE ","V020","290,1,N,0026,1","99999,9,C,N","011265,1,N,1","-0080,1","-0090,1","99999,9","02,5,+00600,1,99,9","04,5,+01110,1,99,9",,"04,99,1,99,9,99,9,99999,9,99,9,99,9","10190,1,99999,9",,,,,"MET074METAR ETSE 130820Z 29005KT 9999 FEW020 SCT037 M08/M09 Q1019 BLACKBLU/BLU/;","P01 011103SCOCIG"
"10869099999","2010-12-13T09:20:00","4","48.322333","11.948667","461.77","ERDING, GM","FM-15","ETSE ","V020","290,1,N,0021,1","99999,9,C,N","011265,1,N,1","-0070,1","-0090,1","99999,9","04,5,+00540,1,99,9","04,5,+01110,1,99,9",,"04,99,1,99,9,99,9,99999,9,99,9,99,9","10200,1,99999,9",,,,,"MET074METAR ETSE 130920Z 29004KT 9999 SCT018 SCT037 M07/M09 Q1020 BLACKBLU/BLU/;","P01 011103SCOCIG"
"10869099999","2010-12-13T10:20:00","4","48.322333","11.948667","461.77","ERDING, GM","FM-15","ETSE ","V020","300,1,N,0031,1","22000,1,9,N","011265,1,N,1","-0070,1","-0100,1","99999,9","02,5,+00450,1,99,9",,,"02,99,1,99,9,99,9,99999,9,99,9,99,9","10200,1,99999,9",,,,,"MET067METAR ETSE 131020Z 30006KT 9999 FEW015 M07/M10 Q1020 BLACKBLU/BLU/;",
"10869099999","2010-12-13T11:20:00","4","48.322333","11.948667","461.77","ERDING, GM","FM-15","ETSE ","V020","300,1,N,0026,1","22000,1,9,N","011265,1,N,1","-0060,1","-0100,1","99999,9","04,5,+00570,1,99,9",,,"04,99,1,99,9,99,9,99999,9,99,9,99,9","10200,1,99999,9",,,,,"MET067METAR ETSE 131120Z 30005KT 9999 SCT019 M06/M10 Q1020 BLACKBLU/BLU/;",
"10869099999","2010-12-13T12:20:00","4","48.322333","11.948667","461.77","ERDING, GM","FM-15","ETSE ","V020","320,1,N,0026,1","00570,1,C,N","011265,1,N,1","-0060,1","-0090,1","99999,9","07,5,+00570,1,99,9",,,"07,99,1,99,9,99,9,99999,9,99,9,99,9","10200,1,99999,9",,,,,"MET077METAR ETSE 131220Z 32005KT 9999 BKN019 M06/M09 Q1020 BLACKWHT BLU/ TEMPO WHT;",
"10869099999","2010-12-13T14:20:00","4","48.322333","11.948667","461.77","ERDING, GM","FM-15","ETSE ","V020","280,1,N,0031,1","99999,9,C,N","011265,1,N,1","-0060,1","-0090,1","99999,9","02,5,+00630,1,99,9","04,5,+06000,1,99,9",,"04,99,1,99,9,99,9,99999,9,99,9,99,9","10190,1,99999,9",,,,,"MET081METAR ETSE 131420Z 28006KT 9999 FEW021 SCT200 M06/M09 Q1019 BLACKBLU/FCST CANCEL;","P01 060003SCOCIG"
"10869099999","2010-12-13T15:20:00","4","48.322333","11.948667","461.77","ERDING, GM","FM-15","ETSE ","V020","270,1,N,0021,1","99999,9,C,N","011265,1,N,1","-0070,1","-0090,1","99999,9","02,5,+00660,1,99,9","04,5,+01800,1,99,9",,"04,99,1,99,9,99,9,99999,9,99,9,99,9","10190,1,99999,9",,,,,"MET070METAR ETSE 131520Z 27004KT 9999 FEW022 SCT060 M07/M09 Q1019 BLACKBLU/;","P01 018003SCOCIG"
"10869099999","2010-12-14T06:20:00","4","48.322333","11.948667","461.77","ERDING, GM","FM-15","ETSE ","V020","270,1,N,0021,1","99999,9,C,N","008000,1,N,1","-0090,1","-0100,1","99999,9","02,5,+01200,1,99,9","04,5,+02400,1,99,9",,"04,99,1,99,9,99,9,99999,9,99,9,99,9","10190,1,99999,9",,,,,"MET083METAR ETSE 140620Z 27004KT 8000 FEW040 SCT080 M09/M10 Q1019 BLACKBLU/BLU TEMPO WHT;","P01 024003SCOCIG"
"10869099999","2010-12-14T07:20:00","4","48.322333","11.948667","461.77","ERDING, GM","FM-15","ETSE ","V020","270,1,N,0021,1","01050,1,C,N","007000,1,N,1","-0090,1","-0100,1","99999,9","02,5,+00030,1,99,9","04,5,+01050,1,99,9","07,5,+02100,1,99,9","07,99,1,99,9,99,9,99999,9,99,9,99,9","10200,1,99999,9",,,,,"MET090METAR ETSE 140720Z 27004KT 7000 FEW001 SCT035 BKN070 M09/M10 Q1020 BLACKWHT BLU TEMPO WHT;",
"10869099999","2010-12-14T08:20:00","4","48.322333","11.948667","461.77","ERDING, GM","FM-15","ETSE ","V020","280,1,N,0026,1","00360,1,C,N","008000,1,N,1","-0080,1","-0090,1","99999,9","02,5,+00150,1,99,9","04,5,+00360,1,99,9","07,5,+00990,1,99,9","07,99,1,99,9,99,9,99999,9,99,9,99,9","10200,1,99999,9",,,,,"MET090METAR ETSE 140820Z 28005KT 8000 FEW005 SCT012 BKN033 M08/M09 Q1020 BLACKBLU BLU TEMPO WHT;",
"10869099999","2010-12-14T09:20:00","4","48.322333","11.948667","461.77","ERDING, GM","FM-15","ETSE ","V020","260,1,N,0026,1","00600,1,C,N","011265,1,N,1","-0070,1","-0090,1","99999,9","02,5,+00150,1,99,9","04,5,+00600,1,99,9","07,5,+01200,1,99,9","07,99,1,99,9,99,9,99999,9,99,9,99,9","10210,1,99999,9",,,,,"MET090METAR ETSE 140920Z 26005KT 9999 FEW005 SCT020 BKN040 M07/M09 Q1021 BLACKBLU BLU TEMPO WHT;",
"10869099999","2010-12-14T10:20:00","4","48.322333","11.948667","461.77","ERDING, GM","FM-15","ETSE ","V020","290,1,N,0031,1","00390,1,C,N","011265,1,N,1","-0070,1","-0080,1","99999,9","07,5,+00390,1,99,9","07,5,+02400,1,99,9",,"07,99,1,99,9,99,9,99999,9,99,9,99,9","10210,1,99999,9",,,,,"MET083METAR ETSE 141020Z 29006KT 9999 BKN013 BKN080 M07/M08 Q1021 BLACKGRN BLU TEMPO WHT;",
"10869099999","2010-12-14T11:09:00","4","48.322333","11.948667","461.77","ERDING, GM","FM-16","ETSE ","V020","260,1,N,0031,1","99999,9,C,N","011265,1,N,1","-0070,1","-0090,1","99999,9","04,5,+00390,1,99,9","04,5,+02400,1,99,9",,"04,99,1,99,9,99,9,99999,9,99,9,99,9","10210,1,99999,9",,,,,"MET083SPECI ETSE 141109Z 26006KT 9999 SCT013 SCT080 M07/M09 Q1021 BLACKBLU/BLU TEMPO WHT;","P01 024003SCOCIG"
"10869099999","2010-12-14T11:20:00","4","48.322333","11.948667","461.77","ERDING, GM","FM-15","ETSE ","V020","270,1,N,0031,1","06900,1,C,N","011265,1,N,1","-0070,1","-0090,1","99999,9","04,5,+00390,1,99,9","07,5,+06900,1,99,9",,"07,99,1,99,9,99,9,99999,9,99,9,99,9","10210,1,99999,9",,,,,"MET083METAR ETSE 141120Z 27006KT 9999 SCT013 BKN230 M07/M09 Q1021 BLACKBLU/BLU TEMPO WHT;",
"10869099999","2010-12-14T12:20:00","4","48.322333","11.948667","461.77","ERDING, GM","FM-15","ETSE ","V020","280,1,N,0041,1","00450,1,C,N","011265,1,N,1","-0060,1","-0080,1","99999,9","02,5,+00300,1,99,9","07,5,+00450,1,99,9",,"07,99,1,99,9,99,9,99999,9,99,9,99,9","10210,1,99999,9",,,,,"MET083METAR ETSE 141220Z 28008KT 9999 FEW010 BKN015 M06/M08 Q1021 BLACKWHT BLU TEMPO WHT;",
"10869099999","2010-12-14T13:20:00","4","48.322333","11.948667","461.77","ERDING, GM","FM-15","ETSE ","V020","280,1,N,0036,1","00450,1,C,N","011265,1,N,1","-0060,1","-0080,1","99999,9","02,5,+00240,1,99,9","07,5,+00450,1,99,9",,"07,99,1,99,9,99,9,99999,9,99,9,99,9","10210,1,99999,9",,,,,"MET073METAR ETSE 141320Z 28007KT 9999 FEW008 BKN015 M06/M08 Q1021 BLACKWHT WHT;",
"10869099999","2010-12-14T14:20:00","4","48.322333","11.948667","461.77","ERDING, GM","FM-15","ETSE ","V020","280,1,N,0031,1","00480,1,C,N","005000,1,N,1","-0060,1","-0070,1","99999,9","04,5,+00300,1,99,9","07,5,+00480,1,99,9",,"07,99,1,99,9,99,9,99999,9,99,9,99,9","10220,1,99999,9","71,1",,,,"MET087METAR ETSE 141420Z 28006KT 5000 -SN SCT010 BKN016 M06/M07 Q1022 BLACKWHT WHT TEMPO YLO;",
"10869099999","2010-12-14T15:20:00","4","48.322333","11.948667","461.77","ERDING, GM","FM-15","ETSE ","V020","280,1,N,0031,1","00540,1,C,N","003000,1,N,1","-0050,1","-0070,1","99999,9","04,5,+00240,1,99,9","07,5,+00540,1,99,9",,"07,99,1,99,9,99,9,99999,9,99,9,99,9","10220,1,99999,9","73,1",,,,"MET084METAR ETSE 141520Z 28006KT 3000 SN SCT008 BKN018 M05/M07 Q1022 BLACKYLO FCST CANCEL;",
"10869099999","2010-12-15T06:20:00","4","48.322333","11.948667","461.77","ERDING, GM","FM-15","ETSE ","V020","290,1,N,0057,1","00300,1,C,N","002200,1,N,1","-0060,1","-0070,1","99999,9","07,5,+00300,1,99,9","07,5,+00570,1,99,9",,"07,99,1,99,9,99,9,99999,9,99,9,99,9","10210,1,99999,9","36,1","71,1",,,"MET092METAR ETSE 150620Z 29011KT 2200 -SN DRSN BKN010 BKN019 M06/M07 Q1021 BLACKYLO WHT TEMPO YLO;",
"10869099999","2010-12-15T07:20:00","4","48.322333","11.948667","461.77","ERDING, GM","FM-15","ETSE ","V020","290,1,N,0051,1","00540,1,C,N","006000,1,N,1","-0060,1","-0070,1","99999,9","04,5,+00300,1,99,9","07,5,+00540,1,99,9","07,5,+01140,1,99,9","07,99,1,99,9,99,9,99999,9,99,9,99,9","10210,1,99999,9","36,1","71,1",,,"MET099METAR ETSE 150720Z 29010KT 6000 -SN DRSN SCT010 BKN018 BKN038 M06/M07 Q1021 BLACKWHT WHT TEMPO YLO;",
"10869099999","2010-12-15T08:20:00","4","48.322333","11.948667","461.77","ERDING, GM","FM-15","ETSE ","V020","280,1,N,0057,1","00660,1,C,N","003000,1,N,1","-0060,1","-0070,1","99999,9","04,5,+00300,1,99,9","07,5,+00660,1,99,9","07,5,+01050,1,99,9","07,99,1,99,9,99,9,99999,9,99,9,99,9","10210,1,99999,9","36,1","73,1",,,"MET098METAR ETSE 150820Z 28011KT 3000 SN DRSN SCT010 BKN022 BKN035 M06/M07 Q1021 BLACKYLO WHT TEMPO YLO;",
"10869099999","2010-12-15T09:08:00","4","48.322333","11.948667","461.77","ERDING, GM","FM-16","ETSE ","V020","280,1,N,0062,1","00540,1,C,N","007000,1,N,1","-0060,1","-0070,1","99999,9","02,5,+00180,1,99,9","07,5,+00540,1,99,9","07,5,+01050,1,99,9","07,99,1,99,9,99,9,99999,9,99,9,99,9","10220,1,99999,9","36,1","71,1",,,"MET104SPECI ETSE 150908Z 28012KT 7000 -SN DRSN FEW006 BKN018 BKN035 M06/M07 Q1022 RESN BLACKWHT WHT TEMPO YLO;",
"10869099999","2010-12-15T09:20:00","4","48.322333","11.948667","461.77","ERDING, GM","FM-15","ETSE ","V020","280,1,N,0067,1","00540,1,C,N","007000,1,N,1","-0060,1","-0070,1","99999,9","02,5,+00180,1,99,9","07,5,+00540,1,99,9","07,5,+01050,1,99,9","07,99,1,99,9,99,9,99999,9,99,9,99,9","10220,1,99999,9","36,1","71,1",,,"MET099METAR ETSE 150920Z 28013KT 7000 -SN DRSN FEW006 BKN018 BKN035 M06/M07 Q1022 BLACKWHT WHT TEMPO YLO;",
"10869099999","2010-12-15T10:20:00","4","48.322333","11.948667","461.77","ERDING, GM","FM-15","ETSE ","V020","270,1,N,0062,1","00600,1,C,N","006000,1,N,1","-0060,1","-0070,1","99999,9","02,5,+00300,1,99,9","07,5,+00600,1,99,9","07,5,+00960,1,99,9","07,99,1,99,9,99,9,99999,9,99,9,99,9","10210,1,99999,9","36,1","71,1",,,"MET099METAR ETSE 151020Z 27012KT 6000 -SN DRSN FEW010 BKN020 BKN032 M06/M07 Q1021 BLACKWHT WHT TEMPO YLO;",
"10869099999","2010-12-15T10:49:00","4","48.322333","11.948667","461.77","ERDING, GM","FM-16","ETSE ","V020","280,1,N,0067,1","00300,1,C,N","004500,1,N,1","-0060,1","-0070,1","99999,9","02,5,+00150,1,99,9","04,5,+00300,1,99,9","07,5,+00600,1,99,9","07,99,1,99,9,99,9,99999,9,99,9,99,9","10210,1,99999,9","36,1","71,1",,,"MET099SPECI ETSE 151049Z 28013KT 4500 -SN DRSN FEW005 SCT010 BKN020 M06/M07 Q1021 BLACKGRN WHT TEMPO YLO;",
"10869099999","2010-12-15T11:07:00","4","48.322333","11.948667","461.77","ERDING, GM","FM-16","ETSE ","V020","280,1,N,0062,1","00300,1,C,N","007000,1,N,1","-0060,1","-0080,1","99999,9","02,5,+00150,1,99,9","04,5,+00300,1,99,9","07,5,+00600,1,99,9","07,99,1,99,9,99,9,99999,9,99,9,99,9","10210,1,99999,9","36,1","71,1",,,"MET099SPECI ETSE 151107Z 28012KT 7000 -SN DRSN FEW005 SCT010 BKN020 M06/M08 Q1021 BLACKWHT WHT TEMPO YLO;",
"10869099999","2010-12-15T11:20:00","4","48.322333","11.948667","461.77","ERDING, GM","FM-15","ETSE ","V020","280,1,N,0062,1","00540,1,C,N","007000,1,N,1","-0060,1","-0080,1","99999,9","04,5,+00300,1,99,9","07,5,+00540,1,99,9",,"07,99,1,99,9,99,9,99999,9,99,9,99,9","10210,1,99999,9","36,1","71,1",,,"MET092METAR ETSE 151120Z 28012KT 7000 -SN DRSN SCT010 BKN018 M06/M08 Q1021 BLACKWHT WHT TEMPO YLO;",
"10869099999","2010-12-15T12:20:00","4","48.322333","11.948667","461.77","ERDING, GM","FM-15","ETSE ","V020","280,1,N,0057,1","00600,1,C,N","002000,1,N,1","-0060,1","-0070,1","99999,9","04,5,+00300,1,99,9","07,5,+00600,1,99,9",,"07,99,1,99,9,99,9,99999,9,99,9,99,9","10200,1,99999,9","36,1","73,1",,,"MET091METAR ETSE 151220Z 28011KT 2000 SN DRSN SCT010 BKN020 M06/M07 Q1020 BLACKYLO WHT TEMPO YLO;",
"10869099999","2010-12-15T13:00:00","4","48.322333","11.948667","461.77","ERDING, GM","FM-15","ETSE ","V020","280,1,N,0062,1","00480,1,C,N","005000,1,N,1","-0060,1","-0080,1","99999,9","02,5,+00300,1,99,9","07,5,+00480,1,99,9","07,5,+00750,1,99,9","07,99,1,99,9,99,9,99999,9,99,9,99,9","10200,1,99999,9","36,1","71,1",,,"MET104SPECI ETSE 151258Z 28012KT 5000 -SN DRSN FEW010 BKN016 BKN025 M06/M08 Q1020 RESN BLACKWHT WHT TEMPO YLO;",
"10869099999","2010-12-15T13:20:00","4","48.322333","11.948667","461.77","ERDING, GM","FM-15","ETSE ","V020","280,1,N,0067,1","00480,1,C,N","005000,1,N,1","-0060,1","-0080,1","99999,9","02,5,+00300,1,99,9","07,5,+00480,1,99,9","07,5,+00840,1,99,9","07,99,1,99,9,99,9,99999,9,99,9,99,9","10200,1,99999,9","36,1","71,1",,,"MET099METAR ETSE 151320Z 28013KT 5000 -SN DRSN FEW010 BKN016 BKN028 M06/M08 Q1020 BLACKWHT WHT TEMPO YLO;",
"10869099999","2010-12-15T14:20:00","4","48.322333","11.948667","461.77","ERDING, GM","FM-15","ETSE ","V020","270,1,N,0051,1","00660,1,C,N","004500,1,N,1","-0060,1","-0070,1","99999,9","04,5,+00300,1,99,9","07,5,+00660,1,99,9",,"07,99,1,99,9,99,9,99999,9,99,9,99,9","10200,1,99999,9","36,1","71,1",,,"MET092METAR ETSE 151420Z 27010KT 4500 -SN DRSN SCT010 BKN022 M06/M07 Q1020 BLACKGRN WHT TEMPO YLO;",
"10869099999","2010-12-15T15:00:00","4","48.322333","11.948667","461.77","ERDING, GM","FM-16","ETSE ","V020","270,1,N,0051,1","00600,1,C,N","005000,1,N,1","-0060,1","-0070,1","99999,9","02,5,+00330,1,99,9","07,5,+00600,1,99,9","07,5,+01230,1,99,9","07,99,1,99,9,99,9,99999,9,99,9,99,9","10200,1,99999,9","36,1","71,1",,,"MET097SPECI ETSE 151500Z 27010KT 5000 -SN DRSN FEW011 BKN020 BKN041 M06/M07 Q1020 BLACKWHT FCST CANCEL;",
"10869099999","2010-12-16T06:20:00","4","48.322333","11.948667","461.77","ERDING, GM","FM-15","ETSE ","V020","270,1,N,0021,1","00300,1,C,N","003500,1,N,1","-0070,1","-0070,1","99999,9","02,5,+00180,1,99,9","07,5,+00300,1,99,9",,"07,99,1,99,9,99,9,99999,9,99,9,99,9","10169,1,99999,9","10,1","71,1",,,"MET090METAR ETSE 160620Z 27004KT 3500 -SN BR FEW006 BKN010 M07/M07 Q1017 BLACKYLO WHT TEMPO YLO;",
"10869099999","2010-12-16T07:20:00","4","48.322333","11.948667","461.77","ERDING, GM","FM-15","ETSE ","V020","250,1,N,0026,1","00330,1,C,N","004500,1,N,1","-0060,1","-0070,1","99999,9","02,5,+00180,1,99,9","07,5,+00330,1,99,9","07,5,+01110,1,99,9","07,99,1,99,9,99,9,99999,9,99,9,99,9","10159,1,99999,9","10,1","71,1",,,"MET097METAR ETSE 160720Z 25005KT 4500 -SN BR FEW006 BKN011 BKN037 M06/M07 Q1016 BLACKGRN WHT TEMPO YLO;",
"10869099999","2010-12-16T07:47:00","4","48.322333","11.948667","461.77","ERDING, GM","FM-16","ETSE ","V020","240,1,N,0031,1","00330,1,C,N","005000,1,N,1","-0060,1","-0070,1","99999,9","02,5,+00270,1,99,9","04,5,+00330,1,99,9","07,5,+01140,1,99,9","07,99,1,99,9,99,9,99999,9,99,9,99,9","10159,1,99999,9","10,1","71,1",,,"MET097SPECI ETSE 160747Z 24006KT 5000 -SN BR FEW009 SCT011 BKN038 M06/M07 Q1016 BLACKWHT WHT TEMPO YLO;",
"10869099999","2010-12-16T08:20:00","4","48.322333","11.948667","461.77","ERDING, GM","FM-15","ETSE ","V020","250,1,N,0026,1","01140,1,C,N","006000,1,N,1","-0060,1","-0070,1","99999,9","02,5,+00270,1,99,9","07,5,+01140,1,99,9",,"07,99,1,99,9,99,9,99999,9,99,9,99,9","10159,1,99999,9","71,1",,,,"MET087METAR ETSE 160820Z 25005KT 6000 -SN FEW009 BKN038 M06/M07 Q1016 BLACKWHT WHT TEMPO YLO;",
"10869099999","2010-12-16T09:20:00","4","48.322333","11.948667","461.77","ERDING, GM","FM-15","ETSE ","V020","240,1,N,0036,1","00900,1,C,N","011265,1,N,1","-0060,1","-0080,1","99999,9","02,5,+00240,1,99,9","07,5,+00900,1,99,9","07,5,+07200,1,99,9","07,99,1,99,9,99,9,99999,9,99,9,99,9","10149,1,99999,9","71,1",,,,"MET095METAR ETSE 160920Z 24007KT 9999 -SN FEW008 BKN030 BKN240 M06/M08 Q1015 BLACKBLU BLU TEMPO BLU/;",
"10869099999","2010-12-16T10:20:00","4","48.322333","11.948667","461.77","ERDING, GM","FM-15","ETSE ","V020","240,1,N,0031,1","99999,9,C,N","011265,1,N,1","-0060,1","-0090,1","99999,9","02,5,+00240,1,99,9","04,5,+00720,1,99,9",,"04,99,1,99,9,99,9,99999,9,99,9,99,9","10149,1,99999,9",,,,,"MET084METAR ETSE 161020Z 24006KT 9999 FEW008 SCT024 M06/M09 Q1015 BLACKBLU/BLU/ TEMPO BLU;","P01 007203SCOCIG"
"10869099999","2010-12-16T11:20:00","4","48.322333","11.948667","461.77","ERDING, GM","FM-15","ETSE ","V020","260,1,N,0026,1","22000,1,9,N","011265,1,N,1","-0050,1","-0090,1","99999,9","02,5,+00420,1,99,9",,,"02,99,1,99,9,99,9,99999,9,99,9,99,9","10129,1,99999,9",,,,,"MET074METAR ETSE 161120Z 26005KT 9999 FEW014 M05/M09 Q1013 BLACKBLU/FCST CANCEL;",
"10869099999","2010-12-17T06:20:00","4","48.322333","11.948667","461.77","ERDING, GM","FM-15","ETSE ","V020","160,1,N,0026,1","00750,1,C,N","001200,1,N,1","-0050,1","-0050,1","99999,9","04,5,+00120,1,99,9","08,5,+00750,1,99,9",,"08,99,1,99,9,99,9,99999,9,99,9,99,9","09909,1,99999,9","73,1",,,,"MET086METAR ETSE 170620Z 16005KT 1200 SN SCT004 OVC025 M05/M05 Q0991 BLACKAMB GRN TEMPO AMB;",
"10869099999","2010-12-17T06:51:00","4","48.322333","11.948667","461.77","ERDING, GM","FM-16","ETSE ","V020","160,1,N,0026,1","00510,1,C,N","001600,1,N,1","-0040,1","-0040,1","99999,9","04,5,+00150,1,99,9","04,5,+00510,1,99,9","08,5,+00750,1,99,9","08,99,1,99,9,99,9,99999,9,99,9,99,9","09898,1,99999,9","73,1",,,,"MET093SPECI ETSE 170651Z 16005KT 1600 SN SCT005 SCT017 OVC025 M04/M04 Q0990 BLACKYLO GRN TEMPO AMB;",
"10869099999","2010-12-17T07:20:00","4","48.322333","11.948667","461.77","ERDING, GM","FM-15","ETSE ","V020","180,1,N,0046,1","00480,1,C,N","001800,1,N,1","-0050,1","-0050,1","99999,9","02,5,+00150,1,99,9","07,5,+00480,1,99,9","08,5,+00690,1,99,9","08,99,1,99,9,99,9,99999,9,99,9,99,9","09898,1,99999,9","73,1",,,,"MET093METAR ETSE 170720Z 18009KT 1800 SN FEW005 BKN016 OVC023 M05/M05 Q0990 BLACKYLO GRN TEMPO AMB;",
"10869099999","2010-12-17T08:20:00","4","48.322333","11.948667","461.77","ERDING, GM","FM-15","ETSE ","V020","180,1,N,0036,1","00480,1,C,N","002200,1,N,1","-0040,1","-0050,1","99999,9","02,5,+00180,1,99,9","07,5,+00480,1,99,9",,"07,99,1,99,9,99,9,99999,9,99,9,99,9","09898,1,99999,9","73,1",,,,"MET084METAR ETSE 170820Z 18007KT 2200 SN FEW006 BKN016 M04/M05 Q0990 BLACKYLO FCST CANCEL;",
"10869099999","2010-12-20T06:20:00","4","48.322333","11.948667","461.77","ERDING, GM","FM-15","ETSE ","V020","240,1,N,0051,1","01650,5,C,N","011265,1,N,1","+0050,1","+0000,1","99999,9","02,5,+00600,1,99,9","07,5,+01650,5,99,9","07,5,+02700,1,99,9","07,99,1,99,9,99,9,99999,9,99,9,99,9","10010,1,99999,9",,,,,"MET088METAR ETSE 200620Z 24010KT 9999 FEW020 BKN055 BKN090 05/00 Q1001 BLACKBLU BLU TEMPO WHT;",
"10869099999","2010-12-20T07:20:00","4","48.322333","11.948667","461.77","ERDING, GM","FM-15","ETSE ","V020","250,1,N,0046,1","01650,5,C,N","011265,1,N,1","+0040,1","+0000,1","99999,9","02,5,+00300,1,99,9","07,5,+01650,5,99,9","07,5,+02700,1,99,9","07,99,1,99,9,99,9,99999,9,99,9,99,9","10020,1,99999,9","61,1",,,,"MET093METAR ETSE 200720Z 25009KT 9999 -RA FEW010 BKN055 BKN090 04/M00 Q1002 BLACKBLU BLU TEMPO WHT;",
"10869099999","2010-12-20T08:20:00","4","48.322333","11.948667","461.77","ERDING, GM","FM-15","ETSE ","V020","260,1,N,0031,1","00360,1,C,N","011265,1,N,1","+0030,1","+0010,1","99999,9","07,5,+00360,1,99,9","07,5,+01500,1,99,9",,"07,99,1,99,9,99,9,99999,9,99,9,99,9","10031,1,99999,9","61,1","71,1",,,"MET087METAR ETSE 200820Z 26006KT 9999 -RASN BKN012 BKN050 03/01 Q1003 BLACKGRN WHT TEMPO GRN;",
"10869099999","2010-12-20T09:20:00","4","48.322333","11.948667","461.77","ERDING, GM","FM-15","ETSE ","V020","230,1,N,0026,1","00210,1,C,N","006000,1,N,1","+0020,1","+0010,1","99999,9","02,5,+00180,1,99,9","08,5,+00210,1,99,9",,"08,99,1,99,9,99,9,99999,9,99,9,99,9","10031,1,99999,9","61,1","71,1",,,"MET087METAR ETSE 200920Z 23005KT 6000 -SNRA FEW006 OVC007 02/01 Q1003 BLACKGRN WHT TEMPO GRN;",
"10869099999","2010-12-20T09:46:00","4","48.322333","11.948667","461.77","ERDING, GM","FM-16","ETSE ","V020","220,1,N,0015,1","00240,1,C,N","004500,1,N,1","+0010,1","+0000,1","99999,9","02,5,+00120,1,99,9","08,5,+00240,1,99,9",,"08,99,1,99,9,99,9,99999,9,99,9,99,9","10031,1,99999,9","10,1","61,1","71,1",,"MET090SPECI ETSE 200946Z 22003KT 4500 -SNRA BR FEW004 OVC008 01/00 Q1003 BLACKGRN WHT TEMPO GRN;",
"10869099999","2010-12-20T10:20:00","4","48.322333","11.948667","461.77","ERDING, GM","FM-15","ETSE ","V020","190,1,N,0031,1","00330,1,C,N","006000,1,N,1","+0010,1","+0010,1","99999,9","02,5,+00150,1,99,9","08,5,+00330,1,99,9",,"08,99,1,99,9,99,9,99999,9,99,9,99,9","10031,1,99999,9","61,1","71,1",,,"MET087METAR ETSE 201020Z 19006KT 6000 -SNRA FEW005 OVC011 01/01 Q1003 BLACKGRN WHT TEMPO GRN;",
"10869099999","2010-12-20T11:20:00","4","48.322333","11.948667","461.77","ERDING, GM","FM-15","ETSE ","V020","190,1,N,0026,1","00660,1,C,N","008000,1,N,1","+0010,1","+0010,1","99999,9","04,5,+00300,1,99,9","07,5,+00660,1,99,9",,"07,99,1,99,9,99,9,99999,9,99,9,99,9","10020,1,99999,9","61,1","71,1",,,"MET087METAR ETSE 201120Z 19005KT 8000 -SNRA SCT010 BKN022 01/01 Q1002 BLACKWHT WHT TEMPO GRN;",
"10869099999","2010-12-20T12:00:00","4","48.322333","11.948667","461.77","ERDING, GM","FM-16","ETSE ","V020","170,1,N,0026,1","00720,1,C,N","011265,1,N,1","+0020,1","+0010,1","99999,9","04,5,+00300,1,99,9","07,5,+00720,1,99,9",,"07,99,1,99,9,99,9,99999,9,99,9,99,9","10010,1,99999,9","61,1","71,1",,,"MET085SPECI ETSE 201200Z 17005KT 9999 -RASN SCT010 BKN024 02/01 Q1001 BLACKWHT FCST CANCEL;",
"10869099999","2010-12-21T06:20:00","4","48.322333","11.948667","461.77","ERDING, GM","FM-15","ETSE ","V020","170,1,N,0021,1","99999,9,C,N","011265,1,N,1","+0010,1","+0000,1","99999,9","02,5,+01200,1,99,9","04,5,+06600,1,99,9",,"04,99,1,99,9,99,9,99999,9,99,9,99,9","10051,1,99999,9",,,,,"MET083METAR ETSE 210620Z 17004KT 9999 FEW040 SCT220 01/M00 Q1005 BLACKBLU/BLU/ TEMPO YLO;","P01 066003SCOCIG"
"10869099999","2010-12-21T07:20:00","4","48.322333","11.948667","461.77","ERDING, GM","FM-15","ETSE ","V020","160,1,N,0026,1","99999,9,C,N","011265,1,N,1","+0010,1","-0010,1","99999,9","02,5,+01200,1,99,9","04,5,+06600,1,99,9",,"04,99,1,99,9,99,9,99999,9,99,9,99,9","10061,1,99999,9",,,,,"MET083METAR ETSE 210720Z 16005KT 9999 FEW040 SCT220 01/M01 Q1006 BLACKBLU/BLU/ TEMPO YLO;","P01 066003SCOCIG"
"10869099999","2010-12-21T08:20:00","4","48.322333","11.948667","461.77","ERDING, GM","FM-15","ETSE ","V020","160,1,N,0015,1","99999,9,C,N","011265,1,N,1","+0010,1","-0010,1","99999,9","02,5,+01200,1,99,9","04,5,+06600,1,99,9",,"04,99,1,99,9,99,9,99999,9,99,9,99,9","10061,1,99999,9",,,,,"MET068METAR ETSE 210820Z 16003KT 9999 FEW040 SCT220 01/M01 Q1006 BLU/BLU/;","P01 066003SCOCIG"
"10869099999","2010-12-21T09:20:00","4","48.322333","11.948667","461.77","ERDING, GM","FM-15","ETSE ","V020","180,1,N,0026,1","99999,9,C,N","011265,1,N,1","+0030,1","+0000,1","99999,9","02,5,+01500,1,99,9","04,5,+06300,1,99,9",,"04,99,1,99,9,99,9,99999,9,99,9,99,9","10061,1,99999,9",,,,,"MET068METAR ETSE 210920Z 18005KT 9999 FEW050 SCT210 03/M00 Q1006 BLU/BLU/;","P01 063003SCOCIG"
"10869099999","2010-12-21T10:20:00","4","48.322333","11.948667","461.77","ERDING, GM","FM-15","ETSE ","V020","160,1,N,0026,1","06300,1,C,N","011265,1,N,1","+0040,1","+0000,1","99999,9","02,5,+01500,1,99,9","07,5,+06300,1,99,9",,"07,99,1,99,9,99,9,99999,9,99,9,99,9","10061,1,99999,9",,,,,"MET067METAR ETSE 211020Z 16005KT 9999 FEW050 BKN210 04/00 Q1006 BLU/BLU/;",
"10869099999","2010-12-21T11:20:00","4","48.322333","11.948667","461.77","ERDING, GM","FM-15","ETSE ","V020","180,1,N,0041,1","04500,1,C,N","011265,1,N,1","+0040,1","+0000,1","99999,9","02,5,+01500,1,99,9","04,5,+04500,1,99,9","07,5,+06000,1,99,9","07,99,1,99,9,99,9,99999,9,99,9,99,9","10061,1,99999,9",,,,,"MET084METAR ETSE 211120Z 18008KT 9999 FEW050 SCT150 BKN200 04/00 Q1006 BLU/BLU/ TEMPO BLU;",
"10869099999","2010-12-21T12:20:00","4","48.322333","11.948667","461.77","ERDING, GM","FM-15","ETSE ","V020","190,1,N,0031,1","04500,1,C,N","011265,1,N,1","+0040,1","+0010,1","99999,9","02,5,+01500,1,99,9","07,5,+04500,1,99,9",,"07,99,1,99,9,99,9,99999,9,99,9,99,9","10061,1,99999,9",,,,,"MET077METAR ETSE 211220Z 19006KT 9999 FEW050 BKN150 04/01 Q1006 BLU BLU/ TEMPO BLU;",
"10869099999","2010-12-21T13:20:00","4","48.322333","11.948667","461.77","ERDING, GM","FM-15","ETSE ","V020","160,1,N,0026,1","04500,1,C,N","011265,1,N,1","+0040,1","+0010,1","99999,9","02,5,+03600,1,99,9","07,5,+04500,1,99,9",,"07,99,1,99,9,99,9,99999,9,99,9,99,9","10051,1,99999,9",,,,,"MET077METAR ETSE 211320Z 16005KT 9999 FEW120 BKN150 04/01 Q1005 BLU BLU/ TEMPO BLU;",
"10869099999","2010-12-21T14:20:00","4","48.322333","11.948667","461.77","ERDING, GM","FM-15","ETSE ","V020","150,1,N,0021,1","04500,1,C,N","011265,1,N,1","+0040,1","+0010,1","99999,9","02,5,+03000,1,99,9","07,5,+04500,1,99,9",,"07,99,1,99,9,99,9,99999,9,99,9,99,9","10061,1,99999,9",,,,,"MET066METAR ETSE 211420Z 15004KT 9999 FEW100 BKN150 04/01 Q1006 BLU BLU;",
"10869099999","2010-12-21T15:20:00","4","48.322333","11.948667","461.77","ERDING, GM","FM-15","ETSE ","V020","210,1,N,0010,1","03000,1,C,N","011265,1,N,1","+0030,1","+0000,1","99999,9","02,5,+02100,1,99,9","04,5,+03000,1,99,9","07,5,+04200,1,99,9","07,99,1,99,9,99,9,99999,9,99,9,99,9","10061,1,99999,9",,,,,"MET081METAR ETSE 211520Z 21002KT 9999 FEW070 SCT100 BKN140 03/00 Q1006 BLU FCST CANCEL;",
"10869099999","2010-12-22T06:20:00","4","48.322333","11.948667","461.77","ERDING, GM","FM-15","ETSE ","V020","110,1,N,0015,1","01140,1,C,N","009000,1,N,1","+0010,1","+0000,1","99999,9","02,5,+00450,1,99,9","04,5,+01140,1,99,9","07,5,+01500,1,99,9","07,99,1,99,9,99,9,99999,9,99,9,99,9","10020,1,99999,9","61,1",,,,"MET073METAR ETSE 220620Z 11003KT 9000 -RA FEW015 SCT038 BKN050 01/00 Q1002 BLU;",
"10869099999","2010-12-22T07:20:00","4","48.322333","11.948667","461.77","ERDING, GM","FM-15","ETSE ","V020","070,1,N,0031,1","01140,1,C,N","007000,1,N,1","+0010,1","+0010,1","99999,9","02,5,+00390,1,99,9","07,5,+01140,1,99,9","07,5,+01500,1,99,9","07,99,1,99,9,99,9,99999,9,99,9,99,9","10020,1,99999,9","61,1",,,,"MET073METAR ETSE 220720Z 07006KT 7000 -RA FEW013 BKN038 BKN050 01/01 Q1002 WHT;",
"10869099999","2010-12-22T08:20:00","4","48.322333","11.948667","461.77","ERDING, GM","FM-15","ETSE ","V020","130,1,N,0015,1","00990,1,C,N","007000,1,N,1","+0010,1","+0000,1","99999,9","02,5,+00300,1,99,9","04,5,+00990,1,99,9","07,5,+01500,1,99,9","07,99,1,99,9,99,9,99999,9,99,9,99,9","10031,1,99999,9",,,,,"MET069METAR ETSE 220820Z 13003KT 7000 FEW010 SCT033 BKN050 01/00 Q1003 WHT;",
"10869099999","2010-12-22T09:20:00","4","48.322333","11.948667","461.77","ERDING, GM","FM-15","ETSE ","V020","010,1,N,0021,1","00990,1,C,N","007000,1,N,1","+0010,1","+0010,1","99999,9","02,5,+00300,1,99,9","07,5,+00990,1,99,9","07,5,+01500,1,99,9","07,99,1,99,9,99,9,99999,9,99,9,99,9","10031,1,99999,9","61,1",,,,"MET073METAR ETSE 220920Z 01004KT 7000 -RA FEW010 BKN033 BKN050 01/01 Q1003 WHT;",
"10869099999","2010-12-22T10:20:00","4","48.322333","11.948667","461.77","ERDING, GM","FM-15","ETSE ","V020","080,1,N,0021,1","01140,1,C,N","007000,1,N,1","+0020,1","+0020,1","99999,9","02,5,+00540,1,99,9","04,5,+01140,1,99,9","07,5,+01650,5,99,9","07,99,1,99,9,99,9,99999,9,99,9,99,9","10031,1,99999,9","61,1",,,,"MET073METAR ETSE 221020Z 08004KT 7000 -RA FEW018 SCT038 BKN055 02/02 Q1003 WHT;",
"10869099999","2010-12-22T11:20:00","4","48.322333","11.948667","461.77","ERDING, GM","FM-15","ETSE ","V020","999,9,V,0010,1","01500,1,C,N","008000,1,N,1","+0020,1","+0010,1","99999,9","02,5,+00570,1,99,9","04,5,+01500,1,99,9","07,5,+02400,1,99,9","07,99,1,99,9,99,9,99999,9,99,9,99,9","10031,1,99999,9",,,,,"MET069METAR ETSE 221120Z VRB02KT 8000 FEW019 SCT050 BKN080 02/01 Q1003 BLU;",
"10869099999","2010-12-22T12:20:00","4","48.322333","11.948667","461.77","ERDING, GM","FM-15","ETSE ","V020","110,1,N,0021,1","02400,1,C,N","009000,1,N,1","+0020,1","+0020,1","99999,9","02,5,+01050,1,99,9","04,5,+02400,1,99,9","07,5,+03300,1,99,9","07,99,1,99,9,99,9,99999,9,99,9,99,9","10020,1,99999,9",,,,,"MET069METAR ETSE 221220Z 11004KT 9000 FEW035 SCT080 BKN110 02/02 Q1002 BLU;",
"10869099999","2010-12-22T13:20:00","4","48.322333","11.948667","461.77","ERDING, GM","FM-15","ETSE ","V020","090,1,N,0010,1","02100,1,C,N","009000,1,N,1","+0020,1","+0010,1","99999,9","02,5,+01200,1,99,9","04,5,+02100,1,99,9","07,5,+04200,1,99,9","07,99,1,99,9,99,9,99999,9,99,9,99,9","10020,1,99999,9",,,,,"MET069METAR ETSE 221320Z 09002KT 9000 FEW040 SCT070 BKN140 02/01 Q1002 BLU;",
"10869099999","2010-12-22T14:20:00","4","48.322333","11.948667","461.77","ERDING, GM","FM-15","ETSE ","V020","020,1,N,0015,1","02700,1,C,N","009000,1,N,1","+0040,1","+0020,1","99999,9","02,5,+01200,1,99,9","04,5,+02700,1,99,9","07,5,+03900,1,99,9","07,99,1,99,9,99,9,99999,9,99,9,99,9","10020,1,99999,9",,,,,"MET069METAR ETSE 221420Z 02003KT 9000 FEW040 SCT090 BKN130 04/02 Q1002 BLU;",
"10869099999","2010-12-23T06:20:00","4","48.322333","11.948667","461.77","ERDING, GM","FM-15","ETSE ","V020","120,1,N,0026,1","03600,1,C,N","011265,1,N,1","-0010,1","-0010,1","99999,9","02,5,+02400,1,99,9","07,5,+03600,1,99,9",,"07,99,1,99,9,99,9,99999,9,99,9,99,9","09970,1,99999,9",,,,,"MET078METAR ETSE 230620Z 12005KT 9999 FEW080 BKN120 M01/M01 Q0997 BLU BLU TEMPO WHT;",
"10869099999","2010-12-23T07:20:00","4","48.322333","11.948667","461.77","ERDING, GM","FM-15","ETSE ","V020","080,1,N,0010,1","03900,1,C,N","009000,1,N,1","-0010,1","-0010,1","99999,9","02,5,+02400,1,99,9","07,5,+03900,1,99,9",,"07,99,1,99,9,99,9,99999,9,99,9,99,9","09970,1,99999,9",,,,,"MET078METAR ETSE 230720Z 08002KT 9000 FEW080 BKN130 M01/M01 Q0997 BLU BLU TEMPO WHT;",
"10869099999","2010-12-23T08:20:00","4","48.322333","11.948667","461.77","ERDING, GM","FM-15","ETSE ","V020","120,1,N,0021,1","03900,1,C,N","011265,1,N,1","+0000,1","-0010,1","99999,9","07,5,+03900,1,99,9","07,5,+08400,1,99,9",,"07,99,1,99,9,99,9,99999,9,99,9,99,9","09959,1,99999,9",,,,,"MET079METAR ETSE 230820Z 12004KT 9999 BKN130 BKN280 M00/M01 Q0996 BLU BLU/ TEMPO BLU;",
"10869099999","2010-12-23T09:20:00","4","48.322333","11.948667","461.77","ERDING, GM","FM-15","ETSE ","V020","110,1,N,0015,1","08400,1,C,N","011265,1,N,1","+0000,1","-0010,1","99999,9","04,5,+03900,1,99,9","07,5,+08400,1,99,9",,"07,99,1,99,9,99,9,99999,9,99,9,99,9","09959,1,99999,9",,,,,"MET075METAR ETSE 230920Z 11003KT 9999 SCT130 BKN280 00/M01 Q0996 BLU/FCST CANCEL;",
"10869099999","2010-12-23T10:20:00","4","48.322333","11.948667","461.77","ERDING, GM","FM-15","ETSE ","V020","100,1,N,0015,1","08400,1,C,N","011265,1,N,1","+0010,1","+0000,1","99999,9","04,5,+03900,1,99,9","07,5,+08400,1,99,9",,"07,99,1,99,9,99,9,99999,9,99,9,99,9","09949,1,99999,9",,,,,"MET064METAR ETSE 231020Z 10003KT 9999 SCT130 BKN280 01/M00 Q0995 BLU/;",
"10869099999","2010-12-23T11:20:00","4","48.322333","11.948667","461.77","ERDING, GM","FM-15","ETSE ","V020","110,1,N,0046,1","05700,1,C,N","011265,1,N,1","+0020,1","+0000,1","99999,9","07,5,+05700,1,99,9","07,5,+08400,1,99,9",,"07,99,1,99,9,99,9,99999,9,99,9,99,9","09949,1,99999,9",,,,,"MET062METAR ETSE 231120Z 11009KT 9999 BKN190 BKN280 02/00 Q0995 BLU;",
